station_id,dh_utc,temperature,pression,pression_variation_3h,humidite,point_de_rosee,visibilite,vent_moyen,vent_rafales,vent_rafales_10min,vent_direction,temperature_min,temperature_max,pluie_1h,pluie_3h,pluie_6h,pluie_12h,pluie_24h,ensoleillement,temperature_sol,temps_omm,source,radiations,neige_au_sol,nebulosite,raw_msg
07207,1999-01-01 00:00:00,10,1001.8,2.6,76,6,0,11.112,,,240,,,,,,,,,,,wg-a,,,,AAXX 01004 07207 32/// /2406 10100 20060 39966 40018 51026 90000=
07207,1999-01-01 06:00:00,10,1005.4,2.1,71,5,25000,14.816,,,270,8.7,10.4,,,,,,,,,wg-a,,,,AAXX 01064 07207 32575 42708 10100 20050 30002 40054 53021 83202 90600 333 10104 20087=
07207,1999-01-01 12:00:00,11,1009.2,1,71,6,500,22.224,,,230,,,,,,,,,,,wg-a,,,,AAXX 01124 07207 32500 22312 10110 20060 30040 40092 51010 81202 91200=
07207,1999-01-01 18:00:00,11,1008.3,-0.7,71,6,25000,42.596,,,230,9.6,11.5,,,,,,,,,wg-a,,,,AAXX 01184 07207 32575 72323 10110 20060 30031 40083 56007 85202 91800 333 10115 20096=
07207,1999-01-02 00:00:00,11,1004.2,-2.8,82,8,12000,57.412,,90.748,210,,,,,,,,,,,wg-a,,,,AAXX 02004 07207 32562 82131 10110 20080 39991 40042 58028 888// 90000 333 91049=
07207,1999-01-02 06:00:00,12,1002.9,1.1,82,9,12000,42.596,,,270,10.1,12.1,,1,,,,,,21,wg-a,,,,AAXX 02064 07207 12662 82723 10120 20090 39978 40029 53011 60017 72162 885// 90600 333 10121 20101=
07207,1999-01-02 12:00:00,11,1005,0,82,8,12000,42.596,,75.932,250,,,,0,,,,,,,wg-a,,,,AAXX 02124 07207 12562 72523 10110 20080 39998 40050 50000 60007 86230 91200 333 91041=
07207,1999-01-02 18:00:00,10,1008.7,2.3,82,7,18000,42.596,,94.452,290,6.1,11.9,,2,,,,,,25,wg-a,,,,AAXX 02184 07207 12468 62923 10100 20070 30035 40087 51023 60027 72598 84970 91800 333 10119 20061 91051=
07207,1999-01-03 00:00:00,11,1012,0.8,87,9,15000,35.188,,111.12,270,,,,,,,,,,25,wg-a,,,,AAXX 03004 07207 02565 72719 10110 20090 30068 40120 50008 61000 72582 8583/ 90000 333 //// 91060=
07207,1999-01-03 06:00:00,12,1006.8,-3.3,94,11,8000,57.412,,96.304,250,9.5,12.3,,1,,,,,,2,wg-a,,,,AAXX 03064 07207 12658 82531 10120 20110 30017 40068 56033 60017 70262 885// 90600 333 10123 20095 91052=
07207,1999-01-03 12:00:00,12,1013.1,3,76,8,10000,35.188,,103.712,290,,,,,,,,,,,wg-a,,,,AAXX 03124 07207 32660 52919 10120 20080 30079 40131 50030 83530 91200 333 91056=
07207,1999-01-03 18:00:00,13,1012.7,-1.1,94,12,3000,42.596,,68.524,250,10.5,13.1,,1,,,,,,21,wg-a,,,,AAXX 03184 07207 12430 82523 10130 20120 30075 40127 58011 60017 72162 887// 91800 333 10131 20105 91037=
07207,1999-01-04 00:00:00,13,1012.7,-0.9,94,12,9000,50.004,,83.34,240,,,,0,,,,,,2,wg-a,,,,AAXX 04004 07207 12659 82427 10130 20120 30076 40127 56009 60007 70282 885// 90000 333 91045=
07207,1999-01-04 06:00:00,13,1013.2,0.1,94,12,8000,46.3,,79.636,240,12.5,13.3,,,,,,,,,wg-a,,,,AAXX 04064 07207 32658 82425 10130 20120 30080 40132 53001 885// 90600 333 10133 20125 91043=
07207,1999-01-04 12:00:00,13,1014.9,0.4,94,12,10000,50.004,,75.932,240,,,,,,,,,,,wg-a,,,,AAXX 04124 07207 32660 82427 10130 20120 30097 40149 50004 885// 91200 333 91041=
07207,1999-01-04 18:00:00,13,1015.9,0.7,88,11,9000,29.632,,72.228,250,12.9,13.4,,,,,,,,,wg-a,,,,AAXX 04184 07207 32659 72516 10130 20110 30107 40159 51007 875// 91800 333 10134 20129 91039=
07207,1999-01-05 00:00:00,12,1016,-0.2,94,11,0,31.484,,,190,,,,,,,,,,,wg-a,,,,AAXX 05004 07207 32/// /1917 10120 20110 30108 40160 57002 90000=
07207,1999-01-05 06:00:00,11,1014.5,-0.5,94,10,15000,14.816,,,150,11,12.9,,,,,,,,,wg-a,,,,AAXX 05064 07207 32/65 31508 10110 20100 30093 40145 55005 80002 90600 333 10129 20110=
07207,1999-01-05 12:00:00,12,1014.9,0.1,100,12,10000,18.52,,,140,,,,,,,,,,,wg-a,,,,AAXX 05124 07207 32/60 11410 10120 20120 30097 40149 50001 80002 91200=
07207,1999-01-05 18:00:00,12,1015.1,0.4,94,11,0,22.224,,,170,10.6,13.2,,,,,,,,,wg-a,,,,AAXX 05184 07207 32/// /1712 10120 20110 30099 40151 52004 91800 333 10132 20106=
07207,1999-01-06 00:00:00,11,1015.8,0.1,94,10,0,18.52,,,100,,,,,,,,,,,wg-a,,,,AAXX 06004 07207 32/// /1010 10110 20100 30106 40158 53001 90000=
07207,1999-01-06 06:00:00,12,1014.4,-0.1,94,11,15000,11.112,,,130,11,12,,,,,,,,,wg-a,,,,AAXX 06064 07207 32/65 01306 10120 20110 30092 40144 55001 80000 90600 333 10120 20110=
07207,1999-01-06 12:00:00,13,1015,-0.1,94,12,10000,18.52,,,150,,,,,,,,,,,wg-a,,,,AAXX 06124 07207 32/60 11510 10130 20120 30098 40150 58001 80001 91200=
07207,1999-01-06 18:00:00,13,1014.9,0.4,77,9,10000,25.928,,,230,11.3,14.1,,,,,,,,,wg-a,,,,AAXX 06184 07207 32/60 12314 10130 20090 30097 40149 51004 80001 91800 333 10141 20113=
07207,1999-01-07 00:00:00,13,1014.3,-0.8,82,10,0,31.484,,,240,,,,,,,,,,,wg-a,,,,AAXX 07004 07207 32/// /2417 10130 20100 30091 40143 58008 90000=
07207,1999-01-07 06:00:00,13,1011.8,-1.3,94,12,10000,42.596,,,250,12.3,14.1,,1,,,,,,,wg-a,,,,AAXX 07064 07207 12460 82523 10130 20120 30066 40118 55013 60017 887// 90600 333 10141 20123=
07207,1999-01-07 12:00:00,11,1016.5,1.2,76,7,500,29.632,,64.82,280,,,,,,,,,,,wg-a,,,,AAXX 07124 07207 32600 72816 10110 20070 30113 40165 50012 8553/ 91200 333 91035=
07207,1999-01-07 18:00:00,11,1014,-1.2,82,8,8000,46.3,,,260,9.1,12.6,,1,,,,,,21,wg-a,,,,AAXX 07184 07207 12458 82625 10110 20080 30088 40140 58012 60017 72162 887// 91800 333 10126 20091=
07207,1999-01-08 00:00:00,11,1010.8,-1.4,94,10,0,46.3,,,260,,,,3,,,,,,,wg-a,,,,AAXX 08004 07207 12/// /2625 10110 20100 30056 40108 56014 60037 90000=
07207,1999-01-08 06:00:00,10,1012.2,0.3,76,6,25000,22.224,,68.524,320,8.4,11.2,,,,,,,,1,wg-a,,,,AAXX 08064 07207 32675 73212 10100 20060 30070 40122 52003 70162 875// 90600 333 10112 20084 91037=
07207,1999-01-08 12:00:00,10,1011.7,-1.3,71,5,25000,38.892,,57.412,280,,,,,,,,,,15,wg-a,,,,AAXX 08124 07207 32475 72821 10100 20050 30065 40117 57013 71522 8497/ 91200 333 91031=
07207,1999-01-08 18:00:00,10,1011.1,-0,71,5,500,38.892,,75.932,290,7.6,10.5,,1,,,,,,25,wg-a,,,,AAXX 08184 07207 12500 32921 10100 20050 30059 40111 55000 60017 72582 83200 91800 333 10105 20076 91041=
07207,1999-01-09 00:00:00,8,1011,0.3,87,6,0,29.632,,,320,,,,0,,,,,,,wg-a,,,,AAXX 09004 07207 12/// /3216 10080 20060 30058 40110 51003 60007 90000=
07207,1999-01-09 06:00:00,4,1012.1,0.9,87,2,500,14.816,,,20,3.6,10,,,,,,,,,wg-a,,,,AAXX 09064 07207 32/00 00208 10040 20020 30068 40121 52009 80000 90600 333 10100 20036=
07207,1999-01-09 12:00:00,8,1013.5,-0.3,76,4,500,25.928,,,30,,,,,,,,,,,wg-a,,,,AAXX 09124 07207 32500 20314 10080 20040 30082 40135 58003 81202 91200=
07207,1999-01-09 18:00:00,5,1014,0.9,87,3,0,14.816,,,40,2.8,8.5,,,,,,,,,wg-a,,,,AAXX 09184 07207 32/// /0408 10050 20030 30087 40140 53009 91800 333 10085 20028=
07207,1999-01-11 00:00:00,2,1013.4,0.7,80,-1,0,25.928,,,30,,,,,,,,,,,wg-a,,,,AAXX 11004 07207 32/// /0314 10020 21010 30080 40134 53007 90000=
07207,1999-01-11 06:00:00,3,1014.6,0.9,81,0,0,31.484,,,20,1.1,3.5,,,,,,,,,wg-a,,,,AAXX 11064 07207 32/// /0217 10030 20000 30092 40146 53009 90600 333 10035 20011=
07207,1999-01-11 12:00:00,5,1017.7,0.9,81,2,25000,29.632,,,20,,,,,,,,,,2,wg-a,,,,AAXX 11124 07207 32575 70216 10050 20020 30124 40177 51009 70262 878// 91200=
07207,1999-01-11 18:00:00,3,1020.2,1.6,81,0,500,14.816,,,20,2.4,5.6,,0,,,,,,,wg-a,,,,AAXX 11184 07207 12500 30208 10030 20000 30148 40202 52016 60007 82202 91800 333 10056 20024=
07207,1999-01-12 00:00:00,4,1021.7,-0.8,81,1,0,0,,,0,,,,,,,,,,,wg-a,,,,AAXX 12004 07207 32/// /0000 10040 20010 30163 40217 56008 90000=
07207,1999-01-12 06:00:00,7,1018.8,-1.8,57,-1,500,25.928,,,230,1.8,7.2,,,,,,,,,wg-a,,,,AAXX 12064 07207 32600 42314 10070 21010 30135 40188 58018 82230 90600 333 10072 20018=
07207,1999-01-12 12:00:00,9,1013.8,-2.6,71,4,25000,46.3,,79.636,240,,,,0,,,,,,21,wg-a,,,,AAXX 12124 07207 12675 82425 10090 20040 30086 40138 58026 60007 72162 888// 91200 333 91043=
07207,1999-01-12 18:00:00,10,1009.1,-0.6,93,9,8000,29.632,,90.748,310,7.2,10.1,,2,,,,,,21,wg-a,,,,AAXX 12184 07207 12458 83116 10100 20090 30039 40091 55006 60027 72162 887// 91800 333 10101 20072 91049=
07207,1999-01-13 00:00:00,9,1013.7,2.8,81,6,0,29.632,,,330,,,,,,,,,,,wg-a,,,,AAXX 13004 07207 32/// /3316 10090 20060 30085 40137 51028 90000=
07207,1999-01-13 06:00:00,9,1017.5,1.7,76,5,20000,25.928,,,330,7.9,10.1,,,,,,,,,wg-a,,,,AAXX 13064 07207 32670 43314 10090 20050 30122 40175 52017 83530 90600 333 10101 20079=
07207,1999-01-13 12:00:00,10,1018.4,-0.1,76,6,25000,14.816,,,290,,,,,,,,,,,wg-a,,,,AAXX 13124 07207 32575 82908 10100 20060 30132 40184 58001 88800 91200=
07207,1999-01-13 18:00:00,10,1015.4,-1.4,93,9,6000,35.188,,53.708,270,8.5,10.5,,,,,,,,21,wg-a,,,,AAXX 13184 07207 32456 82719 10100 20090 30102 40154 56014 72162 887// 91800 333 10105 20085 91029=
07207,1999-01-14 00:00:00,11,1014.3,0.4,94,10,0,25.928,,,310,,,,,,,,,,,wg-a,,,,AAXX 14004 07207 02/// /3114 10110 20100 30091 40143 53004 61000 90000 333 ////=
07207,1999-01-14 06:00:00,10,1016.1,1.3,82,7,25000,22.224,,57.412,310,8.8,11,,,,,,,,2,wg-a,,,,AAXX 14064 07207 32575 23112 10100 20070 30109 40161 53013 70261 82200 90600 333 10110 20088 91031=
07207,1999-01-14 12:00:00,11,1019.3,0.8,76,7,25000,18.52,,,280,,,,,,,,,,,wg-a,,,,AAXX 14124 07207 32675 32810 10110 20070 30141 40193 50008 82530 91200=
07207,1999-01-14 18:00:00,10,1019.8,0.6,82,7,500,22.224,,,290,8.9,11.2,,,,,,,,,wg-a,,,,AAXX 14184 07207 32500 52912 10100 20070 30145 40198 53006 83830 91800 333 10112 20089=
07207,1999-01-15 00:00:00,10,1020.3,0.1,87,8,0,22.224,,,270,,,,,,,,,,,wg-a,,,,AAXX 15004 07207 32/// /2712 10100 20080 30150 40203 50001 90000=
07207,1999-01-15 06:00:00,11,1016.9,-1.9,82,8,25000,22.224,,,250,9.8,10.6,,,,,,,,,wg-a,,,,AAXX 15064 07207 32675 62512 10110 20080 30117 40169 56019 86500 90600 333 10106 20098=
07207,1999-01-15 12:00:00,11,1013.2,-1.6,,,20000,38.892,,64.82,230,,,,,,,,,,,wg-a,,,,AAXX 15124 07207 32670 82321 10110 2//// 30090 40132 58016 85/// 91200 333 91035=
07207,1999-01-15 18:00:00,11,1009.4,-1.5,82,8,12000,46.3,,79.636,230,10.5,11.5,,,,,,,,,wg-a,,,,AAXX 15184 07207 32662 82325 10110 20080 30042 40094 58015 885// 91800 333 10115 20105 91043=
07207,1999-01-16 00:00:00,12,1005.8,-1.9,88,10,0,53.708,,,230,,,,,,,,,,,wg-a,,,,AAXX 16004 07207 32/// /2329 10120 20100 30007 40058 56019 90000=
07207,1999-01-16 06:00:00,12,1002.5,-1.8,88,10,10000,64.82,,96.304,230,11.2,12.5,,,,,,,,,wg-a,,,,AAXX 16064 07207 32660 82335 10120 20100 39974 40025 56018 885// 90600 333 10125 20112 91052=
07207,1999-01-16 12:00:00,10,1005,1.4,93,9,6000,29.632,,96.304,260,,,,3,,,,,,61,wg-a,,,,AAXX 16124 07207 12456 82616 10100 20090 39998 40050 50014 60037 76162 887// 91200 333 91052=
07207,1999-01-16 18:00:00,10,1005.4,0.7,66,4,10000,25.928,,,270,8.1,12.3,,,,,,,,2,wg-a,,,,AAXX 16184 07207 32660 82714 10100 20040 30002 40054 52007 70262 885// 91800 333 10123 20081=
07207,1999-01-17 00:00:00,9,1006.2,0.3,81,6,0,25.928,,,240,,,,0,,,,,,,wg-a,,,,AAXX 17004 07207 12/// /2414 10090 20060 30010 40062 50003 60007 90000=
07207,1999-01-17 06:00:00,8,1006.8,0.9,66,2,0,31.484,,,270,8.2,10.4,,,,,,,,,wg-a,,,,AAXX 17064 07207 32/// /2717 10080 20020 30016 40068 53009 90600 333 10104 20082=
07207,1999-01-17 12:00:00,10,1011.1,2.2,66,4,500,22.224,,,260,,,,,,,,,,2,wg-a,,,,AAXX 17124 07207 32400 72612 10100 20040 30059 40111 51022 70282 8794/ 91200=
07207,1999-01-17 18:00:00,9,1016.1,2.8,66,3,500,14.816,,,290,6.8,9.8,,,,,,,,1,wg-a,,,,AAXX 17184 07207 32500 22908 10090 20030 30108 40161 53028 70180 82200 91800 333 10098 20068=
07207,1999-01-18 00:00:00,10,1020.1,1.4,62,3,0,22.224,,,250,,,,,,,,,,,wg-a,,,,AAXX 18004 07207 32/// /2512 10100 20030 30148 40201 51014 90000=
07207,1999-01-18 06:00:00,9,1021.6,0.5,81,6,500,18.52,,,200,8.4,10.2,,0,,,,,,,wg-a,,,,AAXX 18064 07207 12500 32010 10090 20060 30163 40216 52005 60007 82230 90600 333 10102 20084=
07207,1999-01-18 12:00:00,11,1021.2,-1,76,7,20000,42.596,,61.116,220,,,,0,,,,,,,wg-a,,,,AAXX 18124 07207 12570 62223 10110 20070 30160 40212 58010 60007 83276 91200 333 91033=
07207,1999-01-18 18:00:00,11,1019.4,-0.4,87,9,15000,46.3,,72.228,220,9.2,11.3,,,,,,,,,wg-a,,,,AAXX 18184 07207 32565 82225 10110 20090 30142 40194 55004 888// 91800 333 10113 20092 91039=
07207,1999-01-19 00:00:00,11,1018.1,-0.9,94,10,0,50.004,,,220,,,,0,,,,,,,wg-a,,,,AAXX 19004 07207 12/// /2227 10110 20100 30129 40181 56009 60007 90000=
07207,1999-01-19 06:00:00,11,1015.8,-1.2,100,11,2000,53.708,,79.636,210,10.6,11.4,,,,,,,,50,wg-a,,,,AAXX 19064 07207 02420 82129 10110 20110 30106 40158 56012 61000 75062 887// 90600 333 10114 20106 //// 91043=
07207,1999-01-19 12:00:00,12,1016.1,0.2,94,11,8000,50.004,,,220,,,,1,,,,,,21,wg-a,,,,AAXX 19124 07207 12658 82227 10120 20110 30109 40161 50002 60017 72152 885// 91200=
07207,1999-01-19 18:00:00,12,1015.1,0.1,94,11,15000,46.3,,,220,11.1,12.5,,,,,,,,,wg-a,,,,AAXX 19184 07207 32665 82225 10120 20110 30099 40151 53001 885// 91800 333 10125 20111=
07207,1999-01-20 00:00:00,12,1014.6,-0.3,94,11,0,38.892,,,200,,,,,,,,,,,wg-a,,,,AAXX 20004 07207 32/// /2021 10120 20110 30094 40146 56003 90000=
07207,1999-01-20 06:00:00,12,1013.8,0.2,94,11,10000,31.484,,68.524,200,11.9,13.8,,0,,,,,,21,wg-a,,,,AAXX 20064 07207 12460 82017 10120 20110 30086 40138 50002 60007 72122 887// 90600 333 10138 20119 91037=
07207,1999-01-20 12:00:00,11,1014.4,0.2,94,10,10000,22.224,,68.524,250,,,,1,,,,,,50,wg-a,,,,AAXX 20124 07207 12660 82512 10110 20100 30092 40144 50002 60017 75062 885// 91200 333 91037=
07207,1999-01-20 18:00:00,11,1015.5,0.9,94,10,8000,14.816,,,180,10.7,12.4,,3,,,,,,20,wg-a,,,,AAXX 20184 07207 12658 81808 10110 20100 30103 40155 51009 60037 72065 885// 91800 333 10124 20107=
07207,1999-01-21 00:00:00,10,1017.9,0.9,100,10,0,3.704,,,120,,,,,,,,,,,wg-a,,,,AAXX 21004 07207 32/// /1202 10100 20100 30127 40179 53009 90000=
07207,1999-01-21 06:00:00,9,1018.5,0.6,100,9,7000,7.408,,,60,9.3,10.9,,1,,,,,,61,wg-a,,,,AAXX 21064 07207 12657 80604 10090 20090 30132 40185 53006 60017 76152 885// 90600 333 10109 20093=
07207,1999-01-21 12:00:00,9,1020.1,0.5,100,9,6000,25.928,,,50,,,,4,,,,,,21,wg-a,,,,AAXX 21124 07207 12456 80514 10090 20090 30148 40201 50005 60047 72162 887// 91200=
07207,1999-01-21 18:00:00,9,1021.5,1.3,100,9,4000,22.224,,,80,8.8,9.5,,2,,,,,,2,wg-a,,,,AAXX 21184 07207 12440 80812 10090 20090 30162 40215 52013 60027 70262 887// 91800 333 10095 20088=
07207,1999-01-22 00:00:00,8,1023.3,0.7,100,8,0,25.928,,,60,,,,,,,,,,,wg-a,,,,AAXX 22004 07207 32/// /0614 10080 20080 30180 40233 51007 90000=
07207,1999-01-22 12:00:00,10,1025,0.3,87,8,6000,22.224,,,100,,,,,,,,,,,wg-a,,,,AAXX 22124 07207 32/56 41012 10100 20080 30197 40250 50003 84030 91200=
07207,1999-01-22 18:00:00,7,1024,0.2,93,6,8000,14.816,,,90,7,10.4,,,,,,,,,wg-a,,,,AAXX 22184 07207 32/58 30908 10070 20060 30187 40240 53002 83030 91800 333 10104 20070=
07207,1999-01-23 00:00:00,6,1023.3,-0.5,100,6,0,14.816,,,120,,,,,,,,,,,wg-a,,,,AAXX 23004 07207 32/// /1208 10060 20060 30180 40233 58005 90000=
07207,1999-01-23 06:00:00,7,1021.7,-0.5,93,6,500,11.112,,,150,5.9,7,,,,,,,,,wg-a,,,,AAXX 23064 07207 32400 81506 10070 20060 30164 40217 56005 886// 90600 333 10070 20059=
07207,1999-01-23 12:00:00,10,1021.3,-0.1,93,9,3000,29.632,,,160,,,,0,,,,,,,wg-a,,,,AAXX 23124 07207 12430 61616 10100 20090 30160 40213 57001 60007 86600 91200=
07207,1999-01-23 18:00:00,11,1019.7,-0,94,10,8000,22.224,,,210,6.7,10.7,,,,,,,,,wg-a,,,,AAXX 23184 07207 32658 62112 10110 20100 30145 40197 55000 85502 91800 333 10107 20067=
07207,1999-01-24 00:00:00,11,1020.1,0.5,87,9,0,29.632,,,240,,,,,,,,,,,wg-a,,,,AAXX 24004 07207 32/// /2416 10110 20090 30149 40201 53005 90000=
07207,1999-01-24 06:00:00,11,1020.5,0.4,94,10,18000,22.224,,,250,10.3,11.3,,,,,,,,,wg-a,,,,AAXX 24064 07207 32668 52512 10110 20100 30153 40205 53004 85500 90600 333 10113 20103=
07207,1999-01-24 12:00:00,12,1022.8,0.6,94,11,20000,22.224,,,220,,,,,,,,,,,wg-a,,,,AAXX 24124 07207 32570 72212 10120 20110 30176 40228 51006 878// 91200=
07207,1999-01-24 18:00:00,12,1022.5,0.7,94,11,4000,35.188,,57.412,240,10.7,11.8,,0,,,,,,20,wg-a,,,,AAXX 24184 07207 12440 82419 10120 20110 30173 40225 53007 60007 72065 887// 91800 333 10118 20107 91031=
07207,1999-01-25 00:00:00,12,1023.6,0.6,94,11,0,31.484,,,240,,,,,,,,,,,wg-a,,,,AAXX 25004 07207 32/// /2417 10120 20110 30184 40236 51006 90000=
07207,1999-01-25 12:00:00,12,1022.9,-0.4,94,11,15000,46.3,,,240,,,,,,,,,,,wg-a,,,,AAXX 25124 07207 32665 82425 10120 20110 30177 40229 58004 885// 91200=
07207,1999-01-25 18:00:00,10,1022,0.8,93,9,2000,18.52,,72.228,290,9.8,12.7,,1,,,,,,51,wg-a,,,,AAXX 25184 07207 12420 82910 10100 20090 30167 40220 53008 60017 75152 887// 91800 333 10127 20098 91039=
07207,1999-01-26 00:00:00,7,1022.7,0.1,100,7,0,7.408,,,20,,,,,,,,,,,wg-a,,,,AAXX 26004 07207 32/// /0204 10070 20070 30174 40227 53001 90000=
07207,1999-01-26 06:00:00,9,1020,-1.3,87,7,15000,22.224,,,280,7.2,9.8,,0,,,,,,2,wg-a,,,,AAXX 26064 07207 12665 82812 10090 20070 30147 40200 56013 60007 70262 885// 90600 333 10098 20072=
07207,1999-01-26 12:00:00,11,1020,-0.1,76,7,0,31.484,,,290,,,,,,,,,,,wg-a,,,,AAXX 26124 07207 32/// /2917 10110 20070 30148 40200 58001 91200=
07207,1999-01-26 18:00:00,11,1017.6,-0.7,76,7,25000,38.892,,68.524,280,8.6,11.5,,,,,,,,,wg-a,,,,AAXX 26184 07207 32575 42821 10110 20070 30124 40176 56007 82240 91800 333 10115 20086 91037=
07207,1999-01-27 00:00:00,11,1015.4,-0.6,94,10,0,53.708,,,280,,,,,,,,,,,wg-a,,,,AAXX 27004 07207 32/// /2829 10110 20100 30102 40154 55006 90000=
07207,1999-01-27 06:00:00,9,1019.2,2.5,76,5,20000,35.188,,79.636,340,8.4,11.3,,,,,,,,1,wg-a,,,,AAXX 27064 07207 32670 63419 10090 20050 30139 40192 53025 70161 86500 90600 333 10113 20084 91043=
07207,1999-01-27 12:00:00,9,1021.9,0.2,87,7,6000,18.52,,,280,,,,,,,,,,21,wg-a,,,,AAXX 27124 07207 02456 82810 10090 20070 30166 40219 50002 61000 72162 887// 91200 333 ////=
07207,1999-01-27 18:00:00,11,1022.3,1.2,87,9,20000,22.224,,50.004,310,8.2,11,,,,,,,,1,wg-a,,,,AAXX 27184 07207 32670 73112 10110 20090 30171 40223 53012 70152 875// 91800 333 10110 20082 91027=
07207,1999-01-28 00:00:00,11,1024.2,0.6,87,9,0,22.224,,,310,,,,,,,,,,,wg-a,,,,AAXX 28004 07207 32/// /3112 10110 20090 30189 40242 53006 90000=
07207,1999-01-28 06:00:00,11,1023.3,0.1,94,10,12000,29.632,,50.004,290,10.4,11,,,,,,,,,wg-a,,,,AAXX 28064 07207 32662 82916 10110 20100 30181 40233 52001 885// 90600 333 10110 20104 91027=
07207,1999-01-28 12:00:00,11,1023.5,0.3,94,10,0,35.188,,,290,,,,,,,,,,,wg-a,,,,AAXX 28124 07207 32/// /2919 10110 20100 30183 40235 50003 91200=
07207,1999-01-28 18:00:00,11,1024.2,1.5,87,9,10000,35.188,,53.708,320,10.6,11.5,,,,,,,,,wg-a,,,,AAXX 28184 07207 32660 73219 10110 20090 30189 40242 51015 875// 91800 333 10115 20106 91029=
07207,1999-01-29 00:00:00,11,1025.9,0.6,94,10,0,22.224,,,310,,,,,,,,,,,wg-a,,,,AAXX 29004 07207 32/// /3112 10110 20100 30206 40259 52006 90000=
07207,1999-01-29 12:00:00,11,1030.6,1,87,9,0,14.816,,,20,,,,,,,,,,,wg-a,,,,AAXX 29124 07207 32/// /0208 10110 20090 30253 40306 51010 91200=
07207,1999-01-29 18:00:00,8,1032.5,1.6,87,6,25000,11.112,,,20,8,11.9,,,,,,,,,wg-a,,,,AAXX 29184 07207 32/75 40206 10080 20060 30271 40325 53016 84070 91800 333 10119 20080=
07207,1999-01-30 00:00:00,6,1034.6,0.8,93,5,0,14.816,,,60,,,,,,,,,,,wg-a,,,,AAXX 30004 07207 32/// /0608 10060 20050 30292 40346 51008 90000=
07207,1999-01-30 06:00:00,6,1035.4,0.6,93,5,20000,18.52,,,110,4.5,7.9,,,,,,,,,wg-a,,,,AAXX 30064 07207 32/70 31110 10060 20050 30300 40354 51006 83070 90600 333 10079 20045=
07207,1999-01-30 12:00:00,6,1037.5,0.3,70,1,25000,14.816,,,110,,,,,,,,,,,wg-a,,,,AAXX 30124 07207 32/75 51108 10060 20010 30321 40375 50003 85030 91200=
07207,1999-01-30 18:00:00,5,1037.5,0.6,70,0,0,11.112,,,90,4.6,6,,,,,,,,,wg-a,,,,AAXX 30184 07207 32/// /0906 10050 20000 30321 40375 53006 91800 333 10060 20046=
07207,1999-01-31 00:00:00,4,1038.9,0.6,75,0,0,22.224,,,100,,,,,,,,,,,wg-a,,,,AAXX 31004 07207 32/// /1012 10040 20000 30334 40389 52006 90000=
07207,1999-01-31 06:00:00,2,1039,0.2,69,-3,500,22.224,,,110,2.2,4.9,,,,,,,,,wg-a,,,,AAXX 31064 07207 32/00 01112 10020 21030 30335 40390 53002 80000 90600 333 10049 20022=
07207,1999-01-31 12:00:00,4,1041.5,0.7,60,-3,35000,18.52,,,110,,,,,,,,,,,wg-a,,,,AAXX 31124 07207 32/81 11110 10040 21030 30360 40415 51007 80001 91200=
07207,1999-01-31 18:00:00,3,1040.3,-0,60,-4,500,25.928,,,70,1.4,4.7,,,,,,,,,wg-a,,,,AAXX 31184 07207 32/00 10714 10030 21040 30348 40403 55000 80001 91800 333 10047 20014=
07207,1999-02-01 00:00:00,2,1040.7,0.2,69,-3,0,25.928,,,70,,,,,,,,,,,wg-a,,,,AAXX 01004 07207 32/// /0714 10020 21030 30352 40407 53002 90000=
07207,1999-02-01 06:00:00,2,1040.6,-0,75,-2,25000,22.224,,,60,1.6,3.3,,,,,,,,,wg-a,,,,AAXX 01064 07207 32/75 00612 10020 21020 30351 40406 55000 80000 90600 333 10033 20016=
07207,1999-02-01 12:00:00,7,1041.1,-0.1,76,3,35000,18.52,,,40,,,,,,,,,,,wg-a,,,,AAXX 01124 07207 32/81 20410 10070 20030 30357 40411 58001 81032 91200=
07207,1999-02-01 18:00:00,8,1040,0.4,81,5,18000,11.112,,,20,1.6,9.5,,,,,,,,,wg-a,,,,AAXX 01184 07207 32668 80206 10080 20050 30346 40400 53004 885// 91800 333 10095 20016=
07207,1999-02-02 00:00:00,8,1040.4,0.1,87,6,0,18.52,,,20,,,,,,,,,,,wg-a,,,,AAXX 02004 07207 32/// /0210 10080 20060 30350 40404 53001 90000=
07207,1999-02-02 06:00:00,8,1040.1,0.5,81,5,20000,18.52,,,40,8,8.6,,,,,,,,,wg-a,,,,AAXX 02064 07207 32670 80410 10080 20050 30347 40401 53005 885// 90600 333 10086 20080=
07207,1999-02-02 12:00:00,8,1041.3,-0.3,81,5,18000,3.704,,,80,,,,,,,,,,,wg-a,,,,AAXX 02124 07207 32668 80802 10080 20050 30359 40413 58003 885// 91200=
07207,1999-02-02 18:00:00,7,1042.2,0.9,81,4,10000,14.816,,,20,7,8.9,,,,,,,,,wg-a,,,,AAXX 02184 07207 32660 50208 10070 20040 30368 40422 53009 85500 91800 333 10089 20070=
07207,1999-02-03 00:00:00,5,1043.6,0.9,93,4,0,14.816,,,20,,,,,,,,,,,wg-a,,,,AAXX 03004 07207 32/// /0208 10050 20040 30381 40436 51009 90000=
07207,1999-02-03 06:00:00,5,1042.6,-0.2,93,4,4000,11.112,,,30,4.1,7.2,,,,,,,,10,wg-a,,,,AAXX 03064 07207 32/40 60306 10050 20040 30371 40426 55002 71022 86050 90600 333 10072 20041=
07207,1999-02-03 12:00:00,9,1043,-0.7,87,7,0,7.408,,,280,,,,,,,,,,,wg-a,,,,AAXX 03124 07207 32/// /2804 10090 20070 30376 40430 58007 91200=
07207,1999-02-03 18:00:00,9,1041.1,-0.2,81,6,10000,18.52,,,310,4.6,10.1,,,,,,,,,wg-a,,,,AAXX 03184 07207 32/60 83110 10090 20060 30357 40411 55002 8807/ 91800 333 10101 20046=
07207,1999-02-04 00:00:00,9,1041,-0.4,81,6,0,11.112,,,340,,,,,,,,,,,wg-a,,,,AAXX 04004 07207 32/// /3406 10090 20060 30356 40410 56004 90000=
07207,1999-02-04 06:00:00,9,1039.7,-0.3,87,7,12000,14.816,,,320,8.5,9.4,,,,,,,,,wg-a,,,,AAXX 04064 07207 32/62 83208 10090 20070 30343 40397 56003 8807/ 90600 333 10094 20085=
07207,1999-02-04 12:00:00,10,1039,-0.8,87,8,20000,18.52,,,300,,,,,,,,,,,wg-a,,,,AAXX 04124 07207 32670 83010 10100 20080 30337 40390 58008 885// 91200=
07207,1999-02-04 18:00:00,10,1036.6,-0.5,87,8,15000,25.928,,,310,9.3,10.2,,,,,,,,,wg-a,,,,AAXX 04184 07207 32665 83114 10100 20080 30313 40366 56005 885// 91800 333 10102 20093=
07207,1999-02-05 00:00:00,10,1034.6,-1.3,93,9,0,25.928,,,290,,,,,,,,,,,wg-a,,,,AAXX 05004 07207 32/// /2914 10100 20090 30293 40346 58013 90000=
07207,1999-02-05 06:00:00,10,1030.9,-2,87,8,25000,31.484,,53.708,320,9.8,10.5,,,,,,,,,wg-a,,,,AAXX 05064 07207 32575 33217 10100 20080 30256 40309 56020 83200 90600 333 10105 20098 91029=
07207,1999-02-05 12:00:00,10,1031.8,0.4,71,5,25000,29.632,,,330,,,,,,,,,,,wg-a,,,,AAXX 05124 07207 32675 83316 10100 20050 30265 40318 50004 885// 91200=
07207,1999-02-05 18:00:00,10,1029.6,-0.3,76,6,25000,29.632,,,320,9.1,10.1,,,,,,,,,wg-a,,,,AAXX 05184 07207 32675 73216 10100 20060 30243 40296 56003 875// 91800 333 10101 20091=
07207,1999-02-06 00:00:00,9,1029.2,-0.4,76,5,0,29.632,,,320,,,,,,,,,,,wg-a,,,,AAXX 06004 07207 32/// /3216 10090 20050 30239 40292 57004 90000=
07207,1999-02-06 06:00:00,9,1026.7,-0.9,76,5,20000,25.928,,,320,9.1,9.7,,,,,,,,,wg-a,,,,AAXX 06064 07207 32670 83214 10090 20050 30214 40267 58009 885// 90600 333 10097 20091=
07207,1999-02-06 12:00:00,10,1024.9,-1.1,76,6,25000,25.928,,,320,,,,,,,,,,,wg-a,,,,AAXX 06124 07207 32675 63214 10100 20060 30196 40249 58011 84532 91200=
07207,1999-02-06 18:00:00,10,1021.3,-1,82,7,25000,18.52,,50.004,300,8.8,10.9,,,,,,,,,wg-a,,,,AAXX 06184 07207 32675 73010 10100 20070 30160 40213 56010 875// 91800 333 10109 20088 91027=
07207,1999-02-07 00:00:00,10,1017.1,-2.2,87,8,0,29.632,,,290,,,,,,,,,,,wg-a,,,,AAXX 07004 07207 32/// /2916 10100 20080 30119 40171 56022 90000=
07207,1999-02-07 06:00:00,10,1012.8,-1.7,87,8,20000,29.632,,57.412,310,9.5,10.2,,,,,,,,,wg-a,,,,AAXX 07064 07207 32670 53116 10100 20080 30076 40128 56017 85500 90600 333 10102 20095 91031=
07207,1999-02-07 12:00:00,9,1015.3,1.4,66,3,500,31.484,,72.228,360,,,,,,,,,,1,wg-a,,,,AAXX 07124 07207 32500 53617 10090 20030 30101 40153 51014 70162 85800 91200 333 91039=
07207,1999-02-07 18:00:00,7,1017.1,0.8,61,0,500,35.188,,61.116,340,7.2,10.1,,,,,,,,,wg-a,,,,AAXX 07184 07207 32500 63419 10070 20000 30118 40171 53008 86800 91800 333 10101 20072 91033=
07207,1999-02-08 06:00:00,8,1015.3,-2,76,4,0,18.52,,,270,5.9,7.6,,,,,,,,,wg-a,,,,AAXX 08064 07207 32/// /2710 10080 20040 30100 40153 58020 90600 333 10076 20059=
07207,1999-02-08 12:00:00,11,1007.9,-3.7,87,9,10000,61.116,,96.304,290,,,,2,,,,,,21,wg-a,,,,AAXX 08124 07207 12660 82933 10110 20090 30027 40079 56037 60027 72162 885// 91200 333 91052=
07207,1999-02-08 18:00:00,10,1003.6,-2.3,93,9,10000,53.708,,100.008,280,7.2,11.4,,0,,,,,,2,wg-a,,,,AAXX 08184 07207 12660 82829 10100 20090 39984 40036 56023 60007 70262 885// 91800 333 10114 20072 91054=
07207,1999-02-09 00:00:00,9,998.9,-2.4,87,7,0,31.484,,,340,,,,0,,,,,,,wg-a,,,,AAXX 09004 07207 12/// /3417 10090 20070 39937 49989 56024 60007 90000=
07207,1999-02-09 06:00:00,5,1000.9,2.8,87,3,15000,35.188,,57.412,30,4.8,10.9,,,,,,,,21,wg-a,,,,AAXX 09064 07207 02665 70319 10050 20030 39956 40009 53028 61000 72162 875// 90600 333 10109 20048 //// 91031=
07207,1999-02-09 12:00:00,5,1009,2.9,56,-3,25000,35.188,,72.228,20,,,,,,,,,,,wg-a,,,,AAXX 09124 07207 32575 50219 10050 21030 30037 40090 51029 84830 91200 333 91039=
07207,1999-02-09 18:00:00,4,1013.3,2.4,56,-4,500,29.632,,64.82,10,2.8,5.3,,,,,,,,2,wg-a,,,,AAXX 09184 07207 02500 50116 10040 21040 30080 40133 53024 61000 70287 85200 91800 333 10053 20028 //// 91035=
07207,1999-02-10 00:00:00,3,1015.5,0.4,81,0,0,22.224,,,350,,,,,,,,,,,wg-a,,,,AAXX 10004 07207 32/// /3512 10030 20000 30101 40155 53004 90000=
07207,1999-02-10 06:00:00,3,1014.8,-0.5,87,1,25000,14.816,,,10,2.3,4,,,,,,,,,wg-a,,,,AAXX 10064 07207 32575 50108 10030 20010 30094 40148 58005 83230 90600 333 10040 20023=
07207,1999-02-10 12:00:00,6,1016.9,1.1,61,-1,35000,29.632,,,20,,,,,,,,,,,wg-a,,,,AAXX 10124 07207 32581 30216 10060 21010 30116 40169 53011 83200 91200=
07207,1999-02-10 18:00:00,4,1019.2,1.9,56,-4,35000,22.224,,,360,2.4,6.9,,,,,,,,,wg-a,,,,AAXX 10184 07207 32581 23612 10040 21040 30138 40192 52019 82200 91800 333 10069 20024=
07207,1999-02-11 00:00:00,3,1022,1,75,-1,0,18.52,,,360,,,,,,,,,,,wg-a,,,,AAXX 11004 07207 32/// /3610 10030 21010 30166 40220 51010 90000=
07207,1999-02-11 06:00:00,4,1022.8,0.9,70,-1,500,18.52,,,360,3.1,4.4,,,,,,,,,wg-a,,,,AAXX 11064 07207 32500 33610 10040 21010 30174 40228 52009 83230 90600 333 10044 20031=
07207,1999-02-11 12:00:00,7,1024.7,0.8,61,0,35000,22.224,,,350,,,,,,,,,,,wg-a,,,,AAXX 11124 07207 32581 73512 10070 20000 30194 40247 51008 878// 91200=
07207,1999-02-11 18:00:00,5,1024.7,0.7,75,1,35000,7.408,,,30,4,7.4,,,,,,,,,wg-a,,,,AAXX 11184 07207 32581 60304 10050 20010 30193 40247 53007 86800 91800 333 10074 20040=
07207,1999-02-12 00:00:00,3,1026,0.6,81,0,0,14.816,,,80,,,,,,,,,,,wg-a,,,,AAXX 12004 07207 32/// /0808 10030 20000 30206 40260 51006 90000=
07207,1999-02-12 06:00:00,3,1025.9,0.2,75,-1,25000,11.112,,,90,1.7,5,,,,,,,,,wg-a,,,,AAXX 12064 07207 32/75 00906 10030 21010 30205 40259 53002 80000 90600 333 10050 20017=
07207,1999-02-12 12:00:00,8,1028.3,0.9,53,-1,500,11.112,,,140,,,,,,,,,,,wg-a,,,,AAXX 12124 07207 32500 41406 10080 21010 30230 40283 51009 81108 91200=
07207,1999-02-12 18:00:00,4,1029.2,1.6,70,-1,0,7.408,,,20,2.4,7.7,,,,,,,,,wg-a,,,,AAXX 12184 07207 32/// /0204 10040 21010 30238 40292 53016 91800 333 10077 20024=
07207,1999-02-13 00:00:00,3,1030.8,0.6,75,-1,0,7.408,,,40,,,,,,,,,,,wg-a,,,,AAXX 13004 07207 32/// /0404 10030 21010 30254 40308 53006 90000=
07207,1999-02-13 06:00:00,4,1031.1,0.3,75,0,12000,7.408,,,30,2.5,4.7,,,,,,,,,wg-a,,,,AAXX 13064 07207 32/62 70304 10040 20000 30257 40311 53003 80008 90600 333 10047 20025=
07207,1999-02-16 12:00:00,10,1023.5,-0.1,87,8,25000,18.52,,,320,,,,,,,,,,,wg-a,,,,AAXX 16124 07207 32575 63210 10100 20080 30182 40235 58001 86800 91200=
07207,1999-02-16 18:00:00,10,1023.1,0.4,66,4,25000,29.632,,,340,9.3,11.2,,,,,,,,,wg-a,,,,AAXX 16184 07207 32675 63416 10100 20040 30178 40231 53004 86500 91800 333 10112 20093=
07207,1999-02-17 00:00:00,8,1024.8,0.1,71,3,0,25.928,,,330,,,,,,,,,,,wg-a,,,,AAXX 17004 07207 32/// /3314 10080 20030 30195 40248 51001 90000=
07207,1999-02-17 06:00:00,9,1024.6,0.8,76,5,25000,31.484,,,330,7.2,9.5,,,,,,,,,wg-a,,,,AAXX 17064 07207 32575 23317 10090 20050 30193 40246 53008 82200 90600 333 10095 20072=
07207,1999-02-17 12:00:00,10,1026.4,0.5,76,6,25000,22.224,,,320,,,,,,,,,,,wg-a,,,,AAXX 17124 07207 32675 83212 10100 20060 30211 40264 50005 885// 91200=
07207,1999-02-17 18:00:00,10,1024.9,-0.2,87,8,25000,29.632,,,290,8.4,11.5,,,,,,,,,wg-a,,,,AAXX 17184 07207 32675 72916 10100 20080 30196 40249 58002 875// 91800 333 10115 20084=
07207,1999-02-18 00:00:00,10,1024,-0.3,93,9,0,25.928,,,310,,,,,,,,,,,wg-a,,,,AAXX 18004 07207 32/// /3114 10100 20090 30187 40240 57003 90000=
07207,1999-02-18 06:00:00,10,1024.6,1.2,93,9,20000,25.928,,61.116,310,9.8,10.6,,,,,,,,,wg-a,,,,AAXX 18064 07207 32670 63114 10100 20090 30193 40246 51012 86500 90600 333 10106 20098 91033=
07207,1999-02-18 12:00:00,11,1027.3,0.8,87,9,25000,22.224,,50.004,290,,,,,,,,,,,wg-a,,,,AAXX 18124 07207 32575 72912 10110 20090 30220 40273 53008 878// 91200 333 91027=
07207,1999-02-18 18:00:00,10,1027.7,-0.1,93,9,25000,22.224,,,300,9.5,11.7,,0,,,,,,2,wg-a,,,,AAXX 18184 07207 12575 83012 10100 20090 30224 40277 55001 60007 70252 888// 91800 333 10117 20095=
07207,1999-02-19 00:00:00,11,1026.9,-0.8,87,9,0,31.484,,,260,,,,,,,,,,,wg-a,,,,AAXX 19004 07207 32/// /2617 10110 20090 30216 40269 58008 90000=
07207,1999-02-19 06:00:00,10,1025.8,-0.4,100,10,20000,25.928,,,280,9.7,10.7,,,,,,,,,wg-a,,,,AAXX 19064 07207 32670 82814 10100 20100 30205 40258 55004 885// 90600 333 10107 20097=
07207,1999-02-19 12:00:00,11,1026.4,0.2,94,10,20000,29.632,,53.708,270,,,,,,,,,,,wg-a,,,,AAXX 19124 07207 32670 72716 10110 20100 30211 40264 50002 875// 91200 333 91029=
07207,1999-02-19 18:00:00,11,1025.3,-0.2,87,9,20000,29.632,,61.116,270,10.3,11.7,,,,,,,,,wg-a,,,,AAXX 19184 07207 32670 82716 10110 20090 30200 40253 55002 885// 91800 333 10117 20103 91033=
07207,1999-02-20 00:00:00,11,1024.4,-0.6,94,10,0,35.188,,,260,,,,0,,,,,,,wg-a,,,,AAXX 20004 07207 12/// /2619 10110 20100 30191 40244 58006 60007 90000=
07207,1999-02-20 06:00:00,11,1021.5,-0.9,100,11,15000,35.188,,68.524,270,10.9,11.3,,1,,,,,,61,wg-a,,,,AAXX 20064 07207 12465 82719 10110 20110 30163 40215 56009 60017 76162 887// 90600 333 10113 20109 91037=
07207,1999-02-20 12:00:00,11,1022.3,0.3,100,11,3000,35.188,,61.116,280,,,,0,,,,,,50,wg-a,,,,AAXX 20124 07207 12430 82819 10110 20110 30171 40223 50003 60007 75065 887// 91200 333 91033=
07207,1999-02-20 18:00:00,11,1022.3,0.7,100,11,6000,25.928,,,280,11.1,11.5,,,,,,,,28,wg-a,,,,AAXX 20184 07207 32356 82814 10110 20110 30171 40223 53007 72854 887// 91800 333 10115 20111=
07207,1999-02-21 00:00:00,10,1024,0,82,7,0,22.224,,,300,,,,,,,,,,,wg-a,,,,AAXX 21004 07207 32/// /3012 10100 20070 30187 40240 50000 90000=
07207,1999-02-21 06:00:00,10,1021.1,-1.7,100,10,20000,25.928,,,270,9.8,11.1,,,,,,,,,wg-a,,,,AAXX 21064 07207 32670 82714 10100 20100 30159 40211 56017 885// 90600 333 10111 20098=
07207,1999-02-21 12:00:00,12,1020.1,-0.5,88,10,25000,31.484,,61.116,290,,,,,,,,,,2,wg-a,,,,AAXX 21124 07207 02675 82917 10120 20100 30149 40201 58005 61000 70252 885// 91200 333 //// 91033=
07207,1999-02-21 18:00:00,11,1017.2,-0.6,94,10,10000,29.632,,79.636,300,10.1,11.6,,,,,,,,,wg-a,,,,AAXX 21184 07207 32660 73016 10110 20100 30120 40172 55006 875// 91800 333 10116 20101 91043=
07207,1999-02-22 00:00:00,10,1016,-1,87,8,0,35.188,,,310,,,,,,,,,,,wg-a,,,,AAXX 22004 07207 32/// /3119 10100 20080 30108 40160 56010 90000=
07207,1999-02-22 06:00:00,9,1016.6,0.7,76,5,8000,53.708,,87.044,330,8.1,11.5,,0,,,,,,81,wg-a,,,,AAXX 22064 07207 12458 73329 10090 20050 30113 40166 53007 60007 78181 879// 90600 333 10115 20081 91047=
07207,1999-02-22 12:00:00,10,1019.9,1.6,66,4,15000,35.188,,79.636,320,,,,1,,,,,,2,wg-a,,,,AAXX 22124 07207 12465 53219 10100 20040 30146 40199 51016 60017 70282 84908 91200 333 91043=
07207,1999-02-22 18:00:00,9,1021.5,1.5,57,1,25000,38.892,,94.452,330,7.1,10.4,,,,,,,,,wg-a,,,,AAXX 22184 07207 32575 53321 10090 20010 30162 40215 51015 83208 91800 333 10104 20071 91051=
07207,1999-02-23 00:00:00,9,1022.7,-0.3,61,2,0,22.224,,,310,,,,,,,,,,,wg-a,,,,AAXX 23004 07207 32/// /3112 10090 20020 30174 40227 58003 90000=
07207,1999-02-23 06:00:00,8,1022.3,0.4,66,2,20000,31.484,,57.412,330,8.2,9,,,,,,,,,wg-a,,,,AAXX 23064 07207 32570 63317 10080 20020 30170 40223 53004 8217/ 90600 333 10090 20082 91031=
07207,1999-02-23 12:00:00,9,1023.5,0.1,66,3,25000,14.816,,,330,,,,,,,,,,,wg-a,,,,AAXX 23124 07207 32675 83308 10090 20030 30182 40235 50001 8347/ 91200=
07207,1999-02-23 18:00:00,8,1019.2,-2.4,100,8,3000,25.928,,,200,7.7,9.6,,1,,,,,,50,wg-a,,,,AAXX 23184 07207 12430 82014 10080 20080 30139 40192 58024 60017 75052 887// 91800 333 10096 20077=
07207,1999-02-24 00:00:00,11,1012.7,-4.1,94,10,0,31.484,,,250,,,,,,,,,,,wg-a,,,,AAXX 24004 07207 32/// /2517 10110 20100 30075 40127 58041 90000=
07207,1999-02-24 06:00:00,11,1003.8,-3.4,100,11,4000,29.632,,72.228,270,8.3,11.2,,1,,,,,,61,wg-a,,,,AAXX 24064 07207 12440 82716 10110 20110 39987 40038 56034 60017 76162 887// 90600 333 10112 20083 91039=
07207,1999-02-24 12:00:00,11,1004,0.8,87,9,20000,14.816,,,280,,,,,,,,,,2,wg-a,,,,AAXX 24124 07207 32570 62808 10110 20090 39989 40040 52008 70262 82248 91200=
07207,1999-02-24 18:00:00,9,1008.8,3.4,93,8,15000,11.112,,,30,,,,,,,,,,,wg-a,,,,AAXX 24184 07207 32565 60306 10090 20080 30036 40088 53034 82248 91800=
07207,1999-02-25 00:00:00,10,1015.7,3.6,93,9,0,18.52,,,30,,,,,,,,,,,wg-a,,,,AAXX 25004 07207 32/// /0310 10100 20090 30105 40157 52036 90000=
07207,1999-02-25 06:00:00,9,1019.8,1.9,93,8,0,18.52,,,40,8.5,9.9,,,,,,,,,wg-a,,,,AAXX 25064 07207 32/// /0410 10090 20080 30145 40198 52019 90600 333 10099 20085=
07207,1999-02-25 12:00:00,9,1022.6,1.1,87,7,4500,14.816,,,40,,,,,,,,,,10,wg-a,,,,AAXX 25124 07207 32445 80408 10090 20070 30173 40226 51011 71011 886// 91200=
07207,1999-02-25 18:00:00,8,1023.1,1.1,87,6,7000,7.408,,,20,7.5,8.8,,,,,,,,,wg-a,,,,AAXX 25184 07207 32457 80204 10080 20060 30178 40231 53011 886// 91800 333 10088 20075=
07207,1999-02-26 00:00:00,8,1022.7,-0.6,87,6,0,7.408,,,260,,,,,,,,,,,wg-a,,,,AAXX 26004 07207 32/// /2604 10080 20060 30174 40227 58006 90000=
07207,1999-02-26 06:00:00,9,1019.9,-1.4,81,6,15000,14.816,,,240,7.4,9.5,,,,,,,,,wg-a,,,,AAXX 26064 07207 32/65 82408 10090 20060 30146 40199 56014 8807/ 90600 333 10095 20074=
07207,1999-02-26 12:00:00,10,1017.9,-1.5,87,8,15000,29.632,,,200,,,,,,,,,,,wg-a,,,,AAXX 26124 07207 32665 82016 10100 20080 30127 40179 58015 885// 91200=
07207,1999-02-26 18:00:00,10,1013.7,-1.6,87,8,20000,25.928,,,210,9.5,10.2,,,,,,,,,wg-a,,,,AAXX 26184 07207 32670 82114 10100 20080 30085 40137 56016 885// 91800 333 10102 20095=
07207,1999-02-27 00:00:00,10,1010.8,-1.2,87,8,0,38.892,,,190,,,,,,,,,,,wg-a,,,,AAXX 27004 07207 32/// /1921 10100 20080 30056 40108 56012 90000=
07207,1999-02-27 06:00:00,10,1010,0.5,93,9,12000,25.928,,,240,9.6,10.5,,,,,,,,,wg-a,,,,AAXX 27064 07207 32562 82414 10100 20090 30048 40100 53005 888// 90600 333 10105 20096=
07207,1999-02-27 12:00:00,10,1016,2.8,76,6,500,29.632,,,330,,,,,,,,,,21,wg-a,,,,AAXX 27124 07207 02500 73316 10100 20060 30108 40160 51028 61000 72162 878// 91200 333 ////=
07207,1999-02-27 18:00:00,9,1019.6,2.5,66,3,500,22.224,,,310,8.4,10.6,,,,,,,,,wg-a,,,,AAXX 27184 07207 32500 33112 10090 20030 30143 40196 53025 82270 91800 333 10106 20084=
07207,1999-02-28 00:00:00,10,1023.3,1.4,71,5,0,22.224,,,290,,,,,,,,,,,wg-a,,,,AAXX 28004 07207 32/// /2912 10100 20050 30180 40233 53014 90000=
07207,1999-02-28 06:00:00,10,1025,1.2,71,5,25000,18.52,,,280,9.2,10,,,,,,,,,wg-a,,,,AAXX 28064 07207 32575 32810 10100 20050 30197 40250 53012 83200 90600 333 10100 20092=
07207,1999-02-28 12:00:00,11,1026.7,0.8,76,7,0,18.52,,,240,,,,,,,,,,,wg-a,,,,AAXX 28124 07207 32/// /2410 10110 20070 30214 40267 50008 91200=
07207,1999-02-28 18:00:00,11,1025.8,0.1,76,7,20000,25.928,,,250,9.5,11.4,,,,,,,,,wg-a,,,,AAXX 28184 07207 32/70 32514 10110 20070 30205 40258 53001 80001 91800 333 10114 20095=
07207,1999-03-01 00:00:00,11,1025.6,-0.2,82,8,0,29.632,,,250,,,,,,,,,,,wg-a,,,,AAXX 01004 07207 32/// /2516 10110 20080 30203 40256 56002 90000=
07207,1999-03-01 06:00:00,11,1023.1,-1.1,87,9,18000,35.188,,61.116,250,10.4,11,,,,,,,,,wg-a,,,,AAXX 01064 07207 32668 82519 10110 20090 30179 40231 55011 885// 90600 333 10110 20104 91033=
07207,1999-03-01 12:00:00,11,1024.1,0.8,100,11,8000,35.188,,64.82,260,,,,,,,,,,2,wg-a,,,,AAXX 01124 07207 02458 82619 10110 20110 30189 40241 52008 61000 70252 887// 91200 333 //// 91035=
07207,1999-03-01 18:00:00,11,1023.8,0.5,100,11,10000,31.484,,61.116,270,10.9,12,,,,,,,,,wg-a,,,,AAXX 01184 07207 32660 82717 10110 20110 30186 40238 53005 885// 91800 333 10120 20109 91033=
07207,1999-03-02 00:00:00,11,1023.1,-1.3,100,11,0,31.484,,,250,,,,,,,,,,,wg-a,,,,AAXX 02004 07207 32/// /2517 10110 20110 30179 40231 58013 90000=
07207,1999-03-02 06:00:00,11,1020.7,-0.9,100,11,200,29.632,,61.116,270,11.1,11.4,,,,,,,,47,wg-a,,,,AAXX 02064 07207 32/02 92716 10110 20110 30155 40207 57009 74764 89/// 90600 333 10114 20111 91033=
07207,1999-03-02 12:00:00,11,1017.5,-2,100,11,0,35.188,,,260,,,,,,,,,,,wg-a,,,,AAXX 02124 07207 32/// /2619 10110 20110 30123 40175 58020 91200=
07207,1999-03-02 18:00:00,12,1010.2,-4,88,10,10000,50.004,,,230,11.1,11.9,,,,,,,,,wg-a,,,,AAXX 02184 07207 32660 82327 10120 20100 30050 40102 58040 885// 91800 333 10119 20111=
07207,1999-03-03 00:00:00,11,1006.5,-1.8,66,5,0,42.596,,,280,,,,,,,,,,,wg-a,,,,AAXX 03004 07207 32/// /2823 10110 20050 30013 40065 56018 90000=
07207,1999-03-03 06:00:00,10,1001.6,-2.3,71,5,15000,42.596,,90.748,270,8.7,11.7,,,,,,,,,wg-a,,,,AAXX 03064 07207 32665 82723 10100 20050 39964 40016 56023 885// 90600 333 10117 20087 91049=
07207,1999-03-03 12:00:00,10,997.2,-2.6,71,5,20000,46.3,,72.228,260,,,,0,,,,,,2,wg-a,,,,AAXX 03124 07207 12570 82625 10100 20050 39921 49972 58026 60007 70282 888// 91200 333 91039=
07207,1999-03-03 18:00:00,8,991.2,-2.6,87,6,8000,53.708,,83.34,260,6.8,10.1,,,,,,,,81,wg-a,,,,AAXX 03184 07207 02458 82629 10080 20060 39861 49912 56026 61000 78182 889// 91800 333 10101 20068 //// 91045=
07207,1999-03-04 00:00:00,9,991.7,0.1,71,4,0,50.004,,,280,,,,,,,,,,,wg-a,,,,AAXX 04004 07207 32/// /2827 10090 20040 39866 49917 50001 90000=
07207,1999-03-04 06:00:00,8,989.4,-0.5,87,6,12000,31.484,,87.044,320,6.2,9.5,,4,,,,,,25,wg-a,,,,AAXX 04064 07207 12462 73217 10080 20060 39843 49894 55005 60047 72582 879// 90600 333 10095 20062 91047=
07207,1999-03-04 12:00:00,10,991.8,0.8,76,6,15000,29.632,,64.82,300,,,,,,,,,,15,wg-a,,,,AAXX 04124 07207 02465 63016 10100 20060 39867 49918 51008 61000 71582 86900 91200 333 //// 91035=
07207,1999-03-04 18:00:00,7,996.1,2.5,70,2,15000,31.484,,79.636,340,5.7,10.1,,0,,,,,,25,wg-a,,,,AAXX 04184 07207 12465 53417 10070 20020 39909 49961 53025 60007 72582 84901 91800 333 10101 20057 91043=
07207,1999-03-05 00:00:00,7,997.8,0.4,70,2,0,29.632,,,320,,,,,,,,,,,wg-a,,,,AAXX 05004 07207 32/// /3216 10070 20020 39926 49978 50004 90000=
07207,1999-03-05 06:00:00,6,998.6,0.9,75,2,20000,31.484,,72.228,340,5.5,7.5,,,,,,,,,wg-a,,,,AAXX 05064 07207 32570 53417 10060 20020 39934 49986 53009 83230 90600 333 10075 20055 91039=
07207,1999-03-05 12:00:00,7,1002.5,1.1,61,0,500,35.188,,64.82,340,,,,,,,,,,,wg-a,,,,AAXX 05124 07207 32400 53419 10070 20000 39973 40025 51011 84330 91200 333 91035=
07207,1999-03-05 18:00:00,7,1003,0.3,66,1,500,35.188,,72.228,320,5.8,9.4,,,,,,,,,wg-a,,,,AAXX 05184 07207 32400 63219 10070 20010 39978 40030 53003 85902 91800 333 10094 20058 91039=
07207,1999-03-06 00:00:00,5,1005.5,0.8,75,1,0,25.928,,,360,,,,,,,,,,,wg-a,,,,AAXX 06004 07207 32/// /3614 10050 20010 30002 40055 53008 90000=
07207,1999-03-06 06:00:00,5,1006.2,0.8,70,0,500,31.484,,57.412,350,4.1,6.6,,,,,,,,,wg-a,,,,AAXX 06064 07207 32400 63517 10050 20000 30009 40062 53008 86300 90600 333 10066 20041 91031=
07207,1999-03-06 12:00:00,8,1008,0.6,53,-1,35000,22.224,,,320,,,,,,,,,,,wg-a,,,,AAXX 06124 07207 32481 63212 10080 21010 30028 40080 51006 84902 91200=
07207,1999-03-06 18:00:00,5,1008.6,0.1,70,0,35000,14.816,,72.228,10,4.4,9.9,,,,,,,,,wg-a,,,,AAXX 06184 07207 32481 50108 10050 20000 30033 40086 53001 85900 91800 333 10099 20044 91039=
07207,1999-03-07 00:00:00,6,1008.8,-0.4,56,-2,0,25.928,,,320,,,,,,,,,,,wg-a,,,,AAXX 07004 07207 32/// /3214 10060 21020 30035 40088 58004 90000=
07207,1999-03-07 06:00:00,7,1007.9,-0.1,70,2,25000,18.52,,,270,4.7,7.1,,,,,,,,,wg-a,,,,AAXX 07064 07207 32575 62710 10070 20020 30026 40079 58001 86800 90600 333 10071 20047=
07207,1999-03-07 12:00:00,9,1008.4,0.1,57,1,35000,14.816,,,270,,,,1,,,,,,2,wg-a,,,,AAXX 07124 07207 12481 52708 10090 20010 30032 40084 50001 60017 70282 84902 91200=
07207,1999-03-07 18:00:00,8,1005.9,-1.5,76,4,35000,22.224,,,190,6.2,9.5,,,,,,,,,wg-a,,,,AAXX 07184 07207 32581 71912 10080 20040 30007 40059 57015 878// 91800 333 10095 20062=
07207,1999-03-08 00:00:00,8,1000.1,-3.1,87,6,0,50.004,,,190,,,,2,,,,,,,wg-a,,,,AAXX 08004 07207 12/// /1927 10080 20060 39949 40001 58031 60027 90000=
07207,1999-03-08 06:00:00,10,994.5,-1.2,76,6,20000,29.632,,94.452,250,7.3,10.4,,,,,,,,21,wg-a,,,,AAXX 08064 07207 02570 42516 10100 20060 39894 49945 56012 61000 72162 84200 90600 333 10104 20073 //// 91051=
07207,1999-03-08 12:00:00,11,994.5,1,76,7,12000,50.004,,87.044,250,,,,0,,,,,,25,wg-a,,,,AAXX 08124 07207 12562 82527 10110 20070 39894 49945 53010 60007 72582 888// 91200 333 91047=
07207,1999-03-08 18:00:00,10,998.3,1.8,76,6,15000,42.596,,94.452,270,9.1,10.5,,,,,,,,,wg-a,,,,AAXX 08184 07207 32565 82723 10100 20060 39932 49983 53018 888// 91800 333 10105 20091 91051=
07207,1999-03-09 00:00:00,9,1001.2,1,81,6,0,25.928,,,270,,,,,,,,,,,wg-a,,,,AAXX 09004 07207 32/// /2714 10090 20060 39960 40012 51010 90000=
07207,1999-03-09 06:00:00,9,1001.9,0.5,81,6,20000,14.816,,,260,9,9.9,,,,,,,,,wg-a,,,,AAXX 09064 07207 32570 72608 10090 20060 39967 40019 53005 84808 90600 333 10099 20090=
07207,1999-03-09 12:00:00,11,1004.8,1.5,71,6,500,11.112,,,240,,,,,,,,,,,wg-a,,,,AAXX 09124 07207 32500 62406 10110 20060 39996 40048 53015 83247 91200=
07207,1999-03-09 18:00:00,10,1006.1,1.1,76,6,500,7.408,,,160,9.1,11.6,,0,,,,,,,wg-a,,,,AAXX 09184 07207 12500 71604 10100 20060 30009 40061 53011 60007 8227/ 91800 333 10116 20091=
07207,1999-03-10 00:00:00,7,1008.1,0.7,93,6,0,11.112,,,70,,,,,,,,,,,wg-a,,,,AAXX 10004 07207 32/// /0706 10070 20060 30029 40081 51007 90000=
07207,1999-03-10 06:00:00,7,1007.8,0,93,6,10000,25.928,,,70,6.7,9.7,,,,,,,,,wg-a,,,,AAXX 10064 07207 32460 40714 10070 20060 30026 40078 50000 84600 90600 333 10097 20067=
07207,1999-03-10 12:00:00,9,1008.8,0,93,8,9000,38.892,,,80,,,,,,,,,,,wg-a,,,,AAXX 10124 07207 32459 70821 10090 20080 30036 40088 50000 876// 91200=
07207,1999-03-10 18:00:00,11,1008.5,0.5,82,8,12000,25.928,,57.412,90,6.7,11.1,,,,,,,,,wg-a,,,,AAXX 10184 07207 32/62 80914 10110 20080 30033 40085 53005 8801/ 91800 333 10111 20067 91031=
07207,1999-03-11 00:00:00,9,1008.7,0.2,93,8,0,29.632,,,80,,,,,,,,,,,wg-a,,,,AAXX 11004 07207 32/// /0816 10090 20080 30035 40087 50002 90000=
07207,1999-03-11 06:00:00,10,1007.1,-0.1,87,8,7000,31.484,,53.708,100,9,10.6,,,,,,,,,wg-a,,,,AAXX 11064 07207 32657 61017 10100 20080 30019 40071 55001 86500 90600 333 10106 20090 91029=
07207,1999-03-11 12:00:00,12,1008,-0,82,9,6000,18.52,,,120,,,,,,,,,,,wg-a,,,,AAXX 11124 07207 32456 81210 10120 20090 30028 40080 55000 886// 91200=
07207,1999-03-12 00:00:00,8,1006.6,-0.6,100,8,0,3.704,,,50,,,,,,,,,,,wg-a,,,,AAXX 12004 07207 32/// /0502 10080 20080 30014 40066 58006 90000=
07207,1999-03-12 06:00:00,11,1005.3,-0.1,94,10,6000,22.224,,,90,7.2,10.6,,,,,,,,1,wg-a,,,,AAXX 12064 07207 32656 50912 10110 20100 30001 40053 55001 70142 85500 90600 333 10106 20072=
07207,1999-03-12 12:00:00,12,1005.5,-0.4,88,10,12000,31.484,,,140,,,,,,,,,,,wg-a,,,,AAXX 12124 07207 32/62 61417 10120 20100 30004 40055 56004 8607/ 91200=
07207,1999-03-12 18:00:00,11,1007.2,1.8,94,10,20000,31.484,,,210,10.4,13,,,,,,,,,wg-a,,,,AAXX 12184 07207 32370 42117 10110 20100 30020 40072 52018 84600 91800 333 10130 20104=
07207,1999-03-13 00:00:00,11,1011.4,1.8,94,10,0,35.188,,,260,,,,,,,,,,,wg-a,,,,AAXX 13004 07207 32/// /2619 10110 20100 30062 40114 51018 90000=
07207,1999-03-13 06:00:00,9,1014.2,1.7,87,7,12000,7.408,,,340,8.8,11.2,,,,,,,,,wg-a,,,,AAXX 13064 07207 32662 53404 10090 20070 30090 40142 53017 85500 90600 333 10112 20088=
07207,1999-03-13 12:00:00,13,1017.3,1.1,72,8,12000,3.704,,,250,,,,,,,,,,,wg-a,,,,AAXX 13124 07207 32562 52502 10130 20080 30121 40173 53011 82250 91200=
07207,1999-03-13 18:00:00,11,1018.3,1,82,8,15000,18.52,,,350,8.4,13.3,,,,,,,,,wg-a,,,,AAXX 13184 07207 32/65 63510 10110 20080 30131 40183 52010 84051 91800 333 10133 20084=
07207,1999-03-14 00:00:00,10,1021,0.8,87,8,0,22.224,,,50,,,,,,,,,,,wg-a,,,,AAXX 14004 07207 32/// /0512 10100 20080 30157 40210 51008 90000=
07207,1999-03-14 06:00:00,8,1022.3,1,87,6,20000,25.928,,,50,7.8,10.5,,,,,,,,,wg-a,,,,AAXX 14064 07207 32670 30514 10080 20060 30170 40223 53010 83500 90600 333 10105 20078=
07207,1999-03-14 12:00:00,14,1024.8,1.1,63,7,15000,29.632,,,50,,,,,,,,,,,wg-a,,,,AAXX 14124 07207 32/65 40516 10140 20070 30196 40248 51011 84030 91200=
07207,1999-03-14 18:00:00,13,1025,0.5,67,7,25000,11.112,,,350,7.7,16,,,,,,,,,wg-a,,,,AAXX 14184 07207 32/75 33506 10130 20070 30198 40250 53005 81031 91800 333 10160 20077=
07207,1999-03-15 00:00:00,9,1027.2,0.6,81,6,0,29.632,,,50,,,,,,,,,,,wg-a,,,,AAXX 15004 07207 32/// /0516 10090 20060 30219 40272 51006 90000=
07207,1999-03-15 06:00:00,8,1027.2,0.2,81,5,25000,29.632,,,50,8.1,12.5,,,,,,,,,wg-a,,,,AAXX 15064 07207 32/75 20516 10080 20050 30219 40272 53002 80002 90600 333 10125 20081=
07207,1999-03-15 12:00:00,14,1028.5,0.4,58,6,500,18.52,,,60,,,,,,,,,,,wg-a,,,,AAXX 15124 07207 32/00 10610 10140 20060 30233 40285 51004 81030 91200=
07207,1999-03-15 18:00:00,12,1027.8,0.3,62,5,500,18.52,,,20,8.3,15.5,,,,,,,,,wg-a,,,,AAXX 15184 07207 32/00 50210 10120 20050 30225 40278 53003 80002 91800 333 10155 20083=
07207,1999-03-16 00:00:00,7,1029.2,0.4,93,6,0,22.224,,,40,,,,,,,,,,,wg-a,,,,AAXX 16004 07207 32/// /0412 10070 20060 30238 40292 51004 90000=
07207,1999-03-16 06:00:00,6,1028.9,0.4,93,5,8000,22.224,,,40,6.1,11.9,,,,,,,,,wg-a,,,,AAXX 16064 07207 32/58 00412 10060 20050 30235 40289 53004 80000 90600 333 10119 20061=
07207,1999-03-16 12:00:00,13,1029.4,-0.1,67,7,500,18.52,,,40,,,,,,,,,,,wg-a,,,,AAXX 16124 07207 32/00 20410 10130 20070 30242 40294 58001 80002 91200=
07207,1999-03-17 00:00:00,8,1028.6,-0.1,87,6,0,25.928,,,40,,,,,,,,,,,wg-a,,,,AAXX 17004 07207 32/// /0414 10080 20060 30233 40286 58001 90000=
07207,1999-03-17 06:00:00,7,1027.7,-0.3,87,5,4000,25.928,,,50,7.3,12.1,,,,,,,,10,wg-a,,,,AAXX 17064 07207 32/40 00514 10070 20050 30224 40277 55003 71000 80000 90600 333 10121 20073=
07207,1999-03-17 12:00:00,14,1028.6,-0,58,6,4000,22.224,,,40,,,,,,,,,,10,wg-a,,,,AAXX 17124 07207 32/40 00412 10140 20060 30234 40286 55000 71000 80000 91200=
07207,1999-03-17 18:00:00,12,1026.6,-0.1,76,8,9000,14.816,,,350,7,17.2,,,,,,,,,wg-a,,,,AAXX 17184 07207 32/59 23508 10120 20080 30214 40266 55001 80001 91800 333 10172 20070=
07207,1999-03-18 00:00:00,9,1026.9,-0.3,87,7,0,18.52,,,30,,,,,,,,,,,wg-a,,,,AAXX 18004 07207 32/// /0310 10090 20070 30216 40269 57003 90000=
07207,1999-03-18 12:00:00,13,1026.2,-0.4,82,10,9000,7.408,,,300,,,,,,,,,,,wg-a,,,,AAXX 18124 07207 32/59 63004 10130 20100 30210 40262 58004 80008 91200=
07207,1999-03-18 18:00:00,10,1025.3,0.3,82,7,20000,22.224,,,10,6.8,14,,,,,,,,,wg-a,,,,AAXX 18184 07207 32/70 50112 10100 20070 30200 40253 53003 80008 91800 333 10140 20068=
07207,1999-03-19 00:00:00,8,1027.7,0.9,76,4,0,25.928,,,20,,,,,,,,,,,wg-a,,,,AAXX 19004 07207 32/// /0214 10080 20040 30224 40277 52009 90000=
07207,1999-03-19 06:00:00,7,1028.8,1.1,70,2,25000,22.224,,,40,6.5,10.7,,,,,,,,,wg-a,,,,AAXX 19064 07207 32/75 30412 10070 20020 30234 40288 51011 80002 90600 333 10107 20065=
07207,1999-03-20 12:00:00,11,1030.1,-0.2,66,5,25000,11.112,,,140,,,,,,,,,,,wg-a,,,,AAXX 20124 07207 32575 31406 10110 20050 30248 40301 58002 83800 91200=
07207,1999-03-22 12:00:00,11,1021.2,0.3,62,4,500,22.224,,,330,,,,,,,,,,,wg-a,,,,AAXX 22124 07207 32500 73312 10110 20040 30160 40212 52003 878// 91200=
07207,1999-03-22 18:00:00,10,1021.7,0.7,71,5,500,22.224,,,320,8.6,12.1,,,,,,,,,wg-a,,,,AAXX 22184 07207 32500 63212 10100 20050 30164 40217 53007 82270 91800 333 10121 20086=
07207,1999-03-23 00:00:00,9,1022.4,-0.1,71,4,0,25.928,,,330,,,,,,,,,,,wg-a,,,,AAXX 23004 07207 32/// /3314 10090 20040 30171 40224 58001 90000=
07207,1999-03-23 06:00:00,10,1020.4,-0.8,82,7,20000,22.224,,,290,8,10.2,,,,,,,,,wg-a,,,,AAXX 23064 07207 32670 82912 10100 20070 30151 40204 56008 885// 90600 333 10102 20080=
07207,1999-03-23 12:00:00,11,1020.5,-0.5,82,8,0,11.112,,,270,,,,,,,,,,,wg-a,,,,AAXX 23124 07207 32/// /2706 10110 20080 30153 40205 58005 91200=
07207,1999-03-24 00:00:00,10,1016.5,-1.1,87,8,0,7.408,,,150,,,,,,,,,,,wg-a,,,,AAXX 24004 07207 32/// /1504 10100 20080 30113 40165 58011 90000=
07207,1999-03-24 06:00:00,10,1013.1,-1.2,76,6,25000,18.52,,,140,9.4,9.8,,,,,,,,,wg-a,,,,AAXX 24064 07207 32675 71410 10100 20060 30079 40131 56012 875// 90600 333 10098 20094=
07207,1999-03-24 12:00:00,12,1008.9,-2.9,67,6,35000,22.224,,,110,,,,,,,,,,,wg-a,,,,AAXX 24124 07207 32581 41112 10120 20060 30037 40089 58029 81104 91200=
07207,1999-03-24 18:00:00,14,1002.9,-2.5,67,8,0,29.632,,,100,9.5,14.3,,,,,,,,,wg-a,,,,AAXX 24184 07207 32/// /1016 10140 20080 39978 40029 57025 91800 333 10143 20095=
07207,1999-03-25 00:00:00,12,998.6,-2.7,82,9,0,35.188,,,170,,,,,,,,,,,wg-a,,,,AAXX 25004 07207 32/// /1719 10120 20090 39935 49986 56027 90000=
07207,1999-03-25 06:00:00,10,998,0.6,87,8,20000,29.632,,,260,10.3,13.8,,,,,,,,,wg-a,,,,AAXX 25064 07207 32670 72616 10100 20080 39929 49980 53006 875// 90600 333 10138 20103=
07207,1999-03-25 12:00:00,10,999.2,-0.1,93,9,25000,22.224,,,220,,,,1,,,,,,2,wg-a,,,,AAXX 25124 07207 12575 82212 10100 20090 39941 49992 58001 60017 70262 888// 91200=
07207,1999-03-25 18:00:00,9,999.7,0.7,81,6,500,25.928,,,290,9.1,12.3,,,,,,,,,wg-a,,,,AAXX 25184 07207 32500 72914 10090 20060 39945 49997 53007 878// 91800 333 10123 20091=
07207,1999-03-26 00:00:00,9,1001.5,0.6,81,6,0,14.816,,,310,,,,,,,,,,,wg-a,,,,AAXX 26004 07207 32/// /3108 10090 20060 39963 40015 52006 90000=
07207,1999-03-26 06:00:00,8,1003.7,2.1,61,1,25000,29.632,,,330,7.5,9.6,,,,,,,,,wg-a,,,,AAXX 26064 07207 32475 33316 10080 20010 39985 40037 51021 83300 90600 333 10096 20075=
07207,1999-03-26 12:00:00,11,1006.2,1,58,3,500,25.928,,,280,,,,,,,,,,,wg-a,,,,AAXX 26124 07207 32400 42814 10110 20030 30010 40062 51010 84300 91200=
07207,1999-03-26 18:00:00,10,1005.5,-0.1,62,3,500,14.816,,,260,7.9,11.6,,,,,,,,,wg-a,,,,AAXX 26184 07207 32500 32608 10100 20030 30003 40055 55001 82260 91800 333 10116 20079=
07207,1999-03-27 00:00:00,10,1001.5,-2.6,76,6,0,35.188,,,160,,,,,,,,,,,wg-a,,,,AAXX 27004 07207 32/// /1619 10100 20060 39963 40015 58026 90000=
07207,1999-03-27 06:00:00,8,1000.3,0.2,87,6,15000,35.188,,,260,7.5,9.8,,,,,,,,15,wg-a,,,,AAXX 27064 07207 32465 82619 10080 20060 39951 40003 53002 71562 889// 90600 333 10098 20075=
07207,1999-03-27 12:00:00,11,1003,1.2,66,5,500,18.52,,,230,,,,,,,,,,1,wg-a,,,,AAXX 27124 07207 32400 42310 10110 20050 39978 40030 51012 70181 83960 91200=
07207,1999-03-27 18:00:00,10,1006.4,2.5,76,6,0,7.408,,,100,8,12.1,,,,,,,,,wg-a,,,,AAXX 27184 07207 32/// /1004 10100 20060 30012 40064 53025 91800 333 10121 20080=
07207,1999-03-28 00:00:00,8,1012.3,2.3,87,6,0,18.52,,,350,,,,,,,,,,,wg-a,,,,AAXX 28004 07207 32/// /3510 10080 20060 30070 40123 51023 90000=
07207,1999-03-28 06:00:00,7,1016.1,2.3,93,6,10000,3.704,,,300,5.1,10.1,,,,,,,,,wg-a,,,,AAXX 28064 07207 32/60 03002 10070 20060 30108 40161 53023 80000 90600 333 10101 20051=
07207,1999-03-28 12:00:00,12,1018.5,0.7,76,8,500,14.816,,,240,,,,,,,,,,,wg-a,,,,AAXX 28124 07207 32500 32408 10120 20080 30133 40185 51007 82101 91200=
07207,1999-03-28 18:00:00,11,1018.3,-0,82,8,500,18.52,,,240,6.7,12,,,,,,,,,wg-a,,,,AAXX 28184 07207 32/00 62410 10110 20080 30131 40183 54000 86050 91800 333 10120 20067=
07207,1999-03-29 00:00:00,11,1018,-0.8,100,11,0,22.224,,,210,,,,,,,,,,,wg-a,,,,AAXX 29004 07207 32/// /2112 10110 20110 30128 40180 58008 90000=
07207,1999-03-29 06:00:00,11,1017,0.1,100,11,20000,29.632,,,220,10.4,11.3,,,,,,,,1,wg-a,,,,AAXX 29064 07207 32670 72216 10110 20110 30118 40170 53001 70162 875// 90600 333 10113 20104=
07207,1999-03-29 12:00:00,13,1017.3,-0.1,88,11,7000,35.188,,,220,,,,,,,,,,2,wg-a,,,,AAXX 29124 07207 02357 82219 10130 20110 30121 40173 58001 61000 70252 887// 91200 333 ////=
07207,1999-03-29 18:00:00,12,1016.7,-0.1,94,11,18000,31.484,,,220,11.2,12.9,,,,,,,,,wg-a,,,,AAXX 29184 07207 32668 82217 10120 20110 30115 40167 57001 885// 91800 333 10129 20112=
07207,1999-03-30 00:00:00,12,1017.1,0.1,94,11,0,31.484,,,210,,,,,,,,,,,wg-a,,,,AAXX 30004 07207 32/// /2117 10120 20110 30119 40171 52001 90000=
07207,1999-03-30 06:00:00,12,1016.7,0.1,88,10,20000,31.484,,,220,11.4,12.1,,,,,,,,3,wg-a,,,,AAXX 30064 07207 32670 82217 10120 20100 30115 40167 52001 70352 885// 90600 333 10121 20114=
07207,1999-03-31 12:00:00,13,1013.5,-1.4,82,10,10000,18.52,,,120,,,,,,,,,,,wg-a,,,,AAXX 31124 07207 32/60 41210 10130 20100 30083 40135 58014 80001 91200=
07207,1999-03-31 18:00:00,14,1009.8,-1.6,67,8,25000,22.224,,,120,11,14.7,,,,,,,,,wg-a,,,,AAXX 31184 07207 32/75 51212 10140 20080 30047 40098 56016 80002 91800 333 10147 20110=
07207,1999-04-01 00:00:00,13,1007.1,-1.1,77,9,0,29.632,,,120,,,,,,,,,,,wg-a,,,,AAXX 01004 07207 32/// /1216 10130 20090 30020 40071 56011 90000=
07207,1999-04-01 06:00:00,13,1005,0.1,77,9,15000,31.484,,61.116,150,12.5,16,,,,,,,,,wg-a,,,,AAXX 01064 07207 32565 31517 10130 20090 39999 40050 53001 81102 90600 333 10160 20125 91033=
07207,1999-04-01 12:00:00,13,1007.1,1.3,88,11,18000,22.224,,,290,,,,,,,,,,,wg-a,,,,AAXX 01124 07207 32568 72912 10130 20110 30020 40071 50013 8227/ 91200=
07207,1999-04-01 18:00:00,11,1010.8,1.9,87,9,12000,18.52,,,220,10.5,14.6,,1,,,,,,21,wg-a,,,,AAXX 01184 07207 12562 72210 10110 20090 30056 40108 53019 60017 72162 878// 91800 333 10146 20105=
07207,1999-04-02 00:00:00,11,1012.9,1.2,94,10,0,31.484,,,200,,,,,,,,,,,wg-a,,,,AAXX 02004 07207 32/// /2017 10110 20100 30077 40129 53012 90000=
07207,1999-04-02 12:00:00,11,1016.5,1,94,10,15000,25.928,,,210,,,,0,,,,,,21,wg-a,,,,AAXX 02124 07207 12465 82114 10110 20100 30113 40165 50010 60007 72162 8672/ 91200=
07207,1999-04-02 18:00:00,11,1017.5,1,100,11,6000,29.632,,,210,10.1,11.7,,1,,,,,,61,wg-a,,,,AAXX 02184 07207 12456 82116 10110 20110 30123 40175 51010 60017 76162 887// 91800 333 10117 20101=
07207,1999-04-06 12:00:00,12,1027,-0.2,100,12,200,22.224,,,280,,,,,,,,,,47,wg-a,,,,AAXX 06124 07207 32/02 92812 10120 20120 30218 40270 58002 74742 89/// 91200=
07207,1999-04-06 18:00:00,12,1026.3,-0.3,88,10,15000,29.632,,,290,11,13.8,,,,,,,,,wg-a,,,,AAXX 06184 07207 32565 62916 10120 20100 30211 40263 58003 83206 91800 333 10138 20110=
07207,1999-04-07 00:00:00,12,1024.6,-1.5,88,10,0,31.484,,,270,,,,,,,,,,,wg-a,,,,AAXX 07004 07207 32/// /2717 10120 20100 30194 40246 58015 90000=
07207,1999-04-07 06:00:00,10,1025.8,1.6,82,7,25000,35.188,,75.932,330,8.2,11.9,,,,,,,,3,wg-a,,,,AAXX 07064 07207 32575 43319 10100 20070 30205 40258 53016 70361 84200 90600 333 10119 20082 91041=
07207,1999-04-07 18:00:00,11,1026.4,-0.4,87,9,20000,29.632,,53.708,310,10.1,13.1,,,,,,,,,wg-a,,,,AAXX 07184 07207 32570 53116 10110 20090 30211 40264 56004 83830 91800 333 10131 20101 91029=
07207,1999-04-08 00:00:00,10,1027.2,0.2,87,8,0,18.52,,,350,,,,,,,,,,,wg-a,,,,AAXX 08004 07207 32/// /3510 10100 20080 30219 40272 53002 90000=
07207,1999-04-08 06:00:00,9,1027.7,0.8,93,8,500,11.112,,,20,9,11.2,,,,,,,,,wg-a,,,,AAXX 08064 07207 32/00 60206 10090 20080 30224 40277 53008 86020 90600 333 10112 20090=
07207,1999-04-08 18:00:00,12,1028.1,-0.3,88,10,500,18.52,,,290,9.2,14.3,,,,,,,,,wg-a,,,,AAXX 08184 07207 32/00 62910 10120 20100 30229 40281 56003 86010 91800 333 10143 20092=
07207,1999-04-09 00:00:00,12,1028.3,-0.2,94,11,0,14.816,,,10,,,,,,,,,,,wg-a,,,,AAXX 09004 07207 32/// /0108 10120 20110 30230 40283 56002 90000=
07207,1999-04-09 06:00:00,11,1027.6,0.5,100,11,8000,7.408,,,350,10.8,12.2,,,,,,,,,wg-a,,,,AAXX 09064 07207 32658 83504 10110 20110 30223 40276 53005 885// 90600 333 10122 20108=
07207,1999-04-09 12:00:00,14,1027.8,-0.2,82,11,10000,7.408,,,270,,,,,,,,,,,wg-a,,,,AAXX 09124 07207 32560 32704 10140 20110 30226 40278 58002 83200 91200=
07207,1999-04-09 18:00:00,11,1026.6,-0.4,94,10,15000,14.816,,,270,10.9,14.6,,,,,,,,,wg-a,,,,AAXX 09184 07207 32665 82708 10110 20100 30213 40266 57004 885// 91800 333 10146 20109=
07207,1999-04-10 00:00:00,11,1025.7,-0.8,87,9,0,11.112,,,310,,,,,,,,,,,wg-a,,,,AAXX 10004 07207 32/// /3106 10110 20090 30204 40257 58008 90000=
07207,1999-04-10 06:00:00,10,1024.5,-0.1,87,8,500,18.52,,,290,10.2,11.6,,,,,,,,,wg-a,,,,AAXX 10064 07207 32600 82910 10100 20080 30192 40245 57001 885// 90600 333 10116 20102=
07207,1999-04-10 12:00:00,12,1024.1,-0.3,88,10,18000,29.632,,,280,,,,,,,,,,,wg-a,,,,AAXX 10124 07207 32668 82816 10120 20100 30189 40241 58003 885// 91200=
07207,1999-04-10 18:00:00,12,1024.3,0.8,67,6,500,29.632,,53.708,320,10.2,13.8,,,,,,,,,wg-a,,,,AAXX 10184 07207 32500 33216 10120 20060 30191 40243 53008 83200 91800 333 10138 20102 91029=
07207,1999-04-11 00:00:00,10,1026.7,0.1,71,5,0,31.484,,,320,,,,,,,,,,,wg-a,,,,AAXX 11004 07207 32/// /3217 10100 20050 30214 40267 50001 90000=
07207,1999-04-11 06:00:00,10,1025.9,-0.3,93,9,20000,14.816,,53.708,280,9.7,11.8,,0,,,,,,21,wg-a,,,,AAXX 11064 07207 12670 72808 10100 20090 30206 40259 56003 60007 72111 875// 90600 333 10118 20097 91029=
07207,1999-04-11 12:00:00,12,1026.8,1,76,8,500,18.52,,,310,,,,0,,,,,,2,wg-a,,,,AAXX 11124 07207 12500 63110 10120 20080 30216 40268 50010 60007 70282 86800 91200=
07207,1999-04-11 18:00:00,11,1025.1,-0.9,66,5,500,25.928,,,300,9.8,13.5,,,,,,,,,wg-a,,,,AAXX 11184 07207 32/00 53014 10110 20050 30198 40251 58009 80002 91800 333 10135 20098=
07207,1999-04-12 00:00:00,12,1018.2,-4.5,88,10,0,42.596,,,260,,,,,,,,,,,wg-a,,,,AAXX 12004 07207 32/// /2623 10120 20100 30130 40182 58045 90000=
07207,1999-04-12 06:00:00,11,1009,-3.2,87,9,10000,31.484,,87.044,290,10.3,11.8,,1,,,,,,21,wg-a,,,,AAXX 12064 07207 12360 72917 10110 20090 30038 40090 56032 60017 72162 877// 90600 333 10118 20103 91047=
07207,1999-04-12 12:00:00,12,1007.3,-1.4,71,7,500,50.004,,79.636,290,,,,0,,,,,,25,wg-a,,,,AAXX 12124 07207 12400 52927 10120 20070 30022 40073 58014 60007 72586 84360 91200 333 91043=
07207,1999-04-12 18:00:00,10,1007.1,0.5,82,7,20000,35.188,,90.748,310,9.2,12.3,,0,,,,,,25,wg-a,,,,AAXX 12184 07207 12470 53119 10100 20070 30019 40071 53005 60007 72511 85900 91800 333 10123 20092 91049=
07207,1999-04-13 00:00:00,11,1011.6,2.5,71,6,0,46.3,,,320,,,,,,,,,,,wg-a,,,,AAXX 13004 07207 32/// /3225 10110 20060 30064 40116 51025 90000=
07207,1999-04-13 06:00:00,9,1014.8,1.9,71,4,500,42.596,,75.932,330,8.9,10.9,,,,,,,,,wg-a,,,,AAXX 13064 07207 32500 43323 10090 20040 30096 40148 53019 84200 90600 333 10109 20089 91041=
07207,1999-04-13 11:00:00,10.5,1016.3,0.1,70,5.3,,31.484,53.708,53.708,290,,,,,,,,,,,og-post,,,,AAXX 13114 07207 36/// /2917 10105 20053 30111 40163 50001 333 91029 91129=
07207,1999-04-13 12:00:00,11,1015.8,-0.7,71,6,500,31.484,,72.228,290,,,,,,,,,,,wg-a,,,,AAXX 13124 07207 32400 62917 10110 20060 30106 40158 58007 84903 91200 333 91039=
07207,1999-04-13 18:00:00,10,1013.9,-1.3,66,4,500,35.188,,75.932,290,8.3,11.7,,0,,,,,,1,wg-a,,,,AAXX 13184 07207 12500 42919 10100 20040 30087 40139 56013 60007 70181 84800 91800 333 10117 20083 91041=
07207,1999-04-14 00:00:00,10,1008.7,-3.8,87,8,0,38.892,,,270,,,,0,,,,,,,wg-a,,,,AAXX 14004 07207 12/// /2721 10100 20080 30035 40087 58038 60007 90000=
07207,1999-04-14 06:00:00,11,998.2,-4.5,87,9,6000,50.004,,87.044,250,9.4,10.9,,2,,,,,,61,wg-a,,,,AAXX 14064 07207 12356 82527 10110 20090 39931 49982 56045 60027 76162 887// 90600 333 10109 20094 91047=
07207,1999-04-14 12:00:00,7,997.2,-0.8,76,3,500,42.596,,,320,,,,2,,,,,,1,wg-a,,,,AAXX 14124 07207 12400 63223 10070 20030 39920 49972 58008 60027 70162 84302 91200=
07207,1999-04-14 18:00:00,7,1000.1,1.8,57,-1,500,38.892,,100.008,320,5,9.4,,,,,,,,2,wg-a,,,,AAXX 14184 07207 32400 63221 10070 21010 39949 40001 53018 70282 86900 91800 333 10094 20050 91054=
07207,1999-04-15 00:00:00,5,1004.6,1.5,70,0,0,25.928,,,330,,,,0,,,,,,,wg-a,,,,AAXX 15004 07207 12/// /3314 10050 20000 39993 40046 51015 60007 90000=
07207,1999-04-15 06:00:00,8,1004,-0.4,61,1,25000,42.596,,72.228,290,4.2,8.3,,,,,,,,15,wg-a,,,,AAXX 15064 07207 32475 72923 10080 20010 39988 40040 56004 71511 8597/ 90600 333 10083 20042 91039=
07207,1999-04-15 12:00:00,8,1006,0.6,81,5,500,35.188,,,320,,,,1,,,,,,89,wg-a,,,,AAXX 15124 07207 12400 73219 10080 20050 30008 40060 53006 60017 78982 85970 91200=
07207,1999-04-15 18:00:00,9,1007.2,1,53,0,0,29.632,,,290,4.7,10.5,,,,,,,,,wg-a,,,,AAXX 15184 07207 32/// /2916 10090 20000 30020 40072 51010 91800 333 10105 20047=
07207,1999-04-16 00:00:00,7,1006.9,-1.2,66,1,0,14.816,,,270,,,,,,,,,,,wg-a,,,,AAXX 16004 07207 32/// /2708 10070 20010 30016 40069 58012 90000=
07207,1999-04-16 06:00:00,7,1004.1,-1,70,2,500,11.112,,64.82,280,5.7,9.3,,1,,,,,,2,wg-a,,,,AAXX 16064 07207 12500 82806 10070 20020 39989 40041 56010 60017 70281 888// 90600 333 10093 20057 91035=
07207,1999-04-16 12:00:00,9,1001.9,-1.5,76,5,500,11.112,,,120,,,,0,,,,,,25,wg-a,,,,AAXX 16124 07207 12400 71206 10090 20050 39967 40019 58015 60007 72582 8536/ 91200=
07207,1999-04-16 18:00:00,7,999.8,-0.5,87,5,500,3.704,,,180,6.5,9.6,,3,,,,,,61,wg-a,,,,AAXX 16184 07207 12300 71802 10070 20050 39946 49998 56005 60037 76186 85720 91800 333 10096 20065=
07207,1999-04-17 00:00:00,5,1001.1,0.6,93,4,0,11.112,,,10,,,,,,,,,,,wg-a,,,,AAXX 17004 07207 32/// /0106 10050 20040 39959 40011 53006 90000=
07207,1999-04-17 06:00:00,5,1004.4,2.6,100,5,25000,11.112,,,30,4.4,7.1,,3,,,,,,3,wg-a,,,,AAXX 17064 07207 12575 70306 10050 20050 39991 40044 53026 60037 70381 878// 90600 333 10071 20044=
07207,1999-04-17 12:00:00,12,1010.2,2.7,67,6,25000,22.224,,,330,,,,,,,,,,3,wg-a,,,,AAXX 17124 07207 32475 43312 10120 20060 30050 40102 51027 70382 83940 91200=
07207,1999-04-17 18:00:00,11,1014.9,2.3,62,4,500,18.52,,,350,5.4,13.2,,,,,,,,,wg-a,,,,AAXX 17184 07207 32500 43510 10110 20040 30097 40149 51023 83230 91800 333 10132 20054=
07207,1999-04-18 00:00:00,8,1018.5,0.9,71,3,0,29.632,,,320,,,,,,,,,,,wg-a,,,,AAXX 18004 07207 32/// /3216 10080 20030 30132 40185 51009 90000=
07207,1999-04-18 06:00:00,7,1018.2,-0.2,93,6,0,22.224,,,290,6.7,10.3,,2,,,,,,,wg-a,,,,AAXX 18064 07207 12/// /2912 10070 20060 30129 40182 55002 60027 90600 333 10103 20067=
07207,1999-04-18 12:00:00,11,1019.3,0.8,66,5,35000,25.928,,61.116,290,,,,0,,,,,,1,wg-a,,,,AAXX 18124 07207 12581 52914 10110 20050 30141 40193 51008 60007 70182 83208 91200 333 91033=
07207,1999-04-18 18:00:00,10,1020.6,0.6,62,3,500,29.632,,,290,7,12,,,,,,,,,wg-a,,,,AAXX 18184 07207 32500 72916 10100 20030 30153 40206 53006 8227/ 91800 333 10120 20070=
07207,1999-04-19 00:00:00,8,1021.2,-0.3,71,3,0,7.408,,,20,,,,,,,,,,,wg-a,,,,AAXX 19004 07207 32/// /0204 10080 20030 30159 40212 58003 90000=
07207,1999-04-19 06:00:00,9,1019.1,-1,87,7,20000,18.52,,,150,7.3,9.6,,,,,,,,,wg-a,,,,AAXX 19064 07207 32670 81510 10090 20070 30138 40191 56010 885// 90600 333 10096 20073=
07207,1999-04-19 12:00:00,12,1016.9,-1.4,88,10,15000,25.928,,,190,,,,0,,,,,,2,wg-a,,,,AAXX 19124 07207 12665 81914 10120 20100 30117 40169 58014 60007 70252 8557/ 91200=
07207,1999-04-19 18:00:00,10,1013.2,-1.7,93,9,4000,38.892,,,190,8.3,11.8,,4,,,,,,63,wg-a,,,,AAXX 19184 07207 12340 81921 10100 20090 30080 40132 56017 60047 76362 887// 91800 333 10118 20083=
07207,1999-04-20 00:00:00,12,1008.4,-2.7,100,12,0,31.484,,,240,,,,,,,,,,,wg-a,,,,AAXX 20004 07207 32/// /2417 10120 20120 30032 40084 56027 90000=
07207,1999-04-20 06:00:00,12,1004.8,-2.6,100,12,3000,35.188,,,210,9.8,11.7,,2,,,,,,63,wg-a,,,,AAXX 20064 07207 12330 82119 10120 20120 39997 40048 56026 60027 76386 886// 90600 333 10117 20098=
07207,1999-04-20 12:00:00,12,999.7,-2.4,100,12,3000,61.116,,94.452,210,,,,6,,,,,,63,wg-a,,,,AAXX 20124 07207 12330 82133 10120 20120 39946 49997 58024 60067 76366 887// 91200 333 91051=
07207,1999-04-20 18:00:00,12,999.9,1.3,94,11,8000,38.892,,94.452,240,11.5,12.4,,,,,,,,62,wg-a,,,,AAXX 20184 07207 02458 82421 10120 20110 39948 49999 51013 61000 76266 887// 91800 333 10124 20115 //// 91051=
07207,1999-04-21 00:00:00,12,1001.9,0.4,88,10,0,38.892,,,240,,,,,,,,,,,wg-a,,,,AAXX 21004 07207 32/// /2421 10120 20100 39968 40019 50004 90000=
07207,1999-04-21 06:00:00,12,1000.8,-0.4,88,10,0,38.892,,,230,11.4,12.3,,0,,,,,,,wg-a,,,,AAXX 21064 07207 12/// /2321 10120 20100 39957 40008 56004 60007 90600 333 10123 20114=
07207,1999-04-21 12:00:00,12,1002.4,0.8,88,10,12000,38.892,,75.932,240,,,,,,,,,,2,wg-a,,,,AAXX 21124 07207 32462 62421 10120 20100 39973 40024 51008 70282 8237/ 91200 333 91041=
07207,1999-04-21 18:00:00,12,1005.3,1.5,76,8,15000,46.3,,79.636,260,10.4,12.6,,,,,,,,,wg-a,,,,AAXX 21184 07207 32/65 82625 10120 20080 30002 40053 51015 88070 91800 333 10126 20104 91043=
07207,1999-04-22 00:00:00,11,1007.7,0.9,82,8,0,35.188,,,260,,,,,,,,,,,wg-a,,,,AAXX 22004 07207 32/// /2619 10110 20080 30025 40077 51009 90000=
07207,1999-04-22 06:00:00,11,1009.4,1.2,82,8,20000,29.632,,75.932,260,8.8,12,,,,,,,,25,wg-a,,,,AAXX 22064 07207 02470 32616 10110 20080 30042 40094 53012 61000 72582 82360 90600 333 10120 20088 //// 91041=
07207,1999-04-22 12:00:00,13,1012.9,1.5,72,8,0,31.484,,,260,,,,,,,,,,,wg-a,,,,AAXX 22124 07207 32/// /2617 10130 20080 30077 40129 52015 91200=
07207,1999-04-22 18:00:00,12,1011.9,-0.9,88,10,15000,29.632,,,220,10.3,12.8,,,,,,,,,wg-a,,,,AAXX 22184 07207 32665 72216 10120 20100 30067 40119 58009 8257/ 91800 333 10128 20103=
07207,1999-04-23 00:00:00,11,1005.6,-4.1,94,10,0,61.116,,,170,,,,,,,,,,,wg-a,,,,AAXX 23004 07207 32/// /1733 10110 20100 30004 40056 56041 90000=
07207,1999-04-23 06:00:00,11,997.8,-2.3,94,10,8000,14.816,,90.748,260,10.2,11.7,,1,,,,,,21,wg-a,,,,AAXX 23064 07207 12658 72608 10110 20100 39927 49978 55023 60017 72162 8653/ 90600 333 10117 20102 91049=
07207,1999-04-23 12:00:00,11,1010.3,6.1,76,7,15000,38.892,,107.416,300,,,,1,,,,,,21,wg-a,,,,AAXX 23124 07207 12565 73021 10110 20070 30051 40103 51061 60017 72162 83208 91200 333 91058=
07207,1999-04-23 18:00:00,11,1015.4,1.9,71,6,25000,42.596,,90.748,290,9,12.1,,,,,,,,1,wg-a,,,,AAXX 23184 07207 32575 32923 10110 20060 30102 40154 51019 70180 83200 91800 333 10121 20090 91049=
07207,1999-04-24 00:00:00,10,1018.2,0.9,87,8,0,25.928,,,290,,,,,,,,,,,wg-a,,,,AAXX 24004 07207 32/// /2914 10100 20080 30130 40182 51009 90000=
07207,1999-04-24 06:00:00,10,1018.3,0.2,82,7,20000,18.52,,,290,8.1,11.2,,,,,,,,15,wg-a,,,,AAXX 24064 07207 32470 42910 10100 20070 30131 40183 53002 71511 84900 90600 333 10112 20081=
07207,1999-04-24 12:00:00,12.6,1019.2,0,75,8.3,,14.816,,,240,,,,,,,,,,,og-post,,,,AAXX 24124 07207 36/// /2408 10126 20083 30140 40192 50000=
07207,1999-04-24 18:00:00,12,1017.5,-1.1,82,9,500,18.52,,,190,9.9,13.7,,,,,,,,,wg-a,,,,AAXX 24184 07207 32500 61910 10120 20090 30123 40175 56011 82208 91800 333 10137 20099=
07207,1999-04-25 00:00:00,11,1015.2,-1.5,94,10,0,25.928,,,180,,,,,,,,,,,wg-a,,,,AAXX 25004 07207 32/// /1814 10110 20100 30100 40152 58015 90000=
07207,1999-04-25 06:00:00,11,1011.7,-0.9,87,9,10000,29.632,,,180,10.6,11.9,,2,,,,,,61,wg-a,,,,AAXX 25064 07207 12460 81816 10110 20090 30065 40117 56009 60027 76162 887// 90600 333 10119 20106=
07207,1999-04-25 12:00:00,11,1010.4,-0.6,94,10,20000,35.188,,,210,,,,1,,,,,,61,wg-a,,,,AAXX 25124 07207 12570 82119 10110 20100 30052 40104 55006 60017 76162 885// 91200=
07207,1999-04-25 18:00:00,12,1009.8,-0,94,11,0,22.224,,,210,10.3,12.3,,,,,,,,,wg-a,,,,AAXX 25184 07207 32/// /2112 10120 20110 30046 40098 55000 91800 333 10123 20103=
07207,1999-04-26 00:00:00,11,1009.3,-0.8,100,11,0,22.224,,,180,,,,,,,,,,,wg-a,,,,AAXX 26004 07207 32/// /1812 10110 20110 30041 40093 58008 90000=
07207,1999-04-26 06:00:00,11,1007.7,-0,100,11,10000,35.188,,,160,10.8,12,,5,,,,,,62,wg-a,,,,AAXX 26064 07207 12560 81619 10110 20110 30025 40077 55000 60057 76262 885// 90600 333 10120 20108=
07207,1999-04-26 12:00:00,13,1009.8,1,88,11,25000,25.928,,,140,,,,,,,,,,2,wg-a,,,,AAXX 26124 07207 32575 81414 10130 20110 30047 40098 51010 70262 888// 91200=
07207,1999-04-26 18:00:00,13,1011.6,0.5,82,10,20000,14.816,,,50,11.1,13.7,,,,,,,,,wg-a,,,,AAXX 26184 07207 32/70 40508 10130 20100 30065 40116 52005 83061 91800 333 10137 20111=
07207,1999-04-27 00:00:00,11,1013.2,-0.2,94,10,0,22.224,,,40,,,,,,,,,,,wg-a,,,,AAXX 27004 07207 32/// /0412 10110 20100 30080 40132 58002 90000=
07207,1999-04-27 12:00:00,17,1015.5,0.7,63,10,500,29.632,,,80,,,,,,,,,,,wg-a,,,,AAXX 27124 07207 32500 50816 10170 20100 30104 40155 52007 82204 91200=
07207,1999-04-27 18:00:00,16,1016,0.4,77,12,25000,25.928,,50.004,40,11.4,18.2,,,,,,,,,wg-a,,,,AAXX 27184 07207 32575 50414 10160 20120 30109 40160 53004 82232 91800 333 10182 20114 91027=
07207,1999-04-28 00:00:00,12,1017.7,0,94,11,0,35.188,,,50,,,,,,,,,,,wg-a,,,,AAXX 28004 07207 32/// /0519 10120 20110 30125 40177 50000 90000=
07207,1999-04-28 06:00:00,12,1016.5,0.1,88,10,7000,38.892,,61.116,60,11.2,16.2,,,,,,,,,wg-a,,,,AAXX 28064 07207 32/57 60621 10120 20100 30113 40165 53001 8/070 90600 333 10162 20112 91033=
07207,1999-04-28 12:00:00,17,1014.5,-2,68,11,10000,42.596,,64.82,60,,,,,,,,,,,wg-a,,,,AAXX 28124 07207 32/60 50623 10170 20110 30094 40145 58020 80008 91200 333 91035=
07207,1999-04-28 18:00:00,16.6,1011.4,-1.4,64,9.8,15000,38.892,72.228,,60,11.5,18.6,,,,,,,,,og-post,,,,AAXX 28184 07207 32965 70621 10166 20098 30063 40114 56014 87070 333 10186 20115 91139 92437=
07207,1999-04-29 00:00:00,13,1008.9,-1.8,82,10,0,46.3,,,50,,,,1,,,,,,,wg-a,,,,AAXX 29004 07207 12/// /0525 10130 20100 30038 40089 56018 60017 90000=
07207,1999-04-29 06:00:00,13,1006.7,-0.1,82,10,0,50.004,,,60,12.5,16.6,,0,,,,,,,wg-a,,,,AAXX 29064 07207 12/// /0627 10130 20100 30016 40067 55001 60007 90600 333 10166 20125=
07207,1999-04-29 12:00:00,16,1007.6,-0,72,11,9000,42.596,,72.228,80,,,,,,,,,,1,wg-a,,,,AAXX 29124 07207 32/59 60823 10160 20110 30025 40076 54000 70162 84071 91200 333 91039=
07207,1999-04-29 18:00:00,12,1009.4,1.1,100,12,8000,7.408,,61.116,340,12.2,17.8,,5,,,,,,2,wg-a,,,,AAXX 29184 07207 12/58 83404 10120 20120 30043 40094 51011 60057 70282 887// 91800 333 10178 20122 91033=
07207,1999-04-30 00:00:00,12,1012.6,1.6,100,12,0,14.816,,,190,,,,,,,,,,,wg-a,,,,AAXX 30004 07207 32/// /1908 10120 20120 30074 40126 51016 90000=
07207,1999-04-30 12:00:00,15,1015.9,0.7,77,11,8000,18.52,,,100,,,,,,,,,,,wg-a,,,,AAXX 30124 07207 32/58 71010 10150 20110 30108 40159 51007 80006 91200=
07207,1999-04-30 18:00:00,14,1015.6,0.1,88,12,500,7.408,,,120,11.5,15.5,,,,,,,,,wg-a,,,,AAXX 30184 07207 32500 31204 10140 20120 30105 40156 50001 83200 91800 333 10155 20115=
07207,1999-05-01 00:00:00,13,1016.5,-0.2,72,8,0,14.816,,,80,,,,,,,,,,,wg-a,,,,AAXX 01004 07207 32/// /0808 10130 20080 30113 40165 58002 90000=
07207,1999-05-01 06:00:00,12,1015.9,0.1,94,11,15000,18.52,,,80,10.5,14.3,,,,,,,,,wg-a,,,,AAXX 01064 07207 32465 40810 10120 20110 30107 40159 53001 83340 90600 333 10143 20105=
07207,1999-05-01 12:00:00,16,1017.1,0.2,82,13,18000,7.408,,,120,,,,,,,,,,,wg-a,,,,AAXX 01124 07207 32568 61204 10160 20130 30120 40171 50002 83232 91200=
07207,1999-05-01 18:00:00,17,1016.6,-0.2,77,13,0,11.112,,,310,12.3,18.7,,,,,,,,,wg-a,,,,AAXX 01184 07207 32/// /3106 10170 20130 30115 40166 58002 91800 333 10187 20123=
07207,1999-05-02 00:00:00,14,1017.6,-0,82,11,0,25.928,,,50,,,,,,,,,,,wg-a,,,,AAXX 02004 07207 32/// /0514 10140 20110 30124 40176 55000 90000=
07207,1999-05-02 06:00:00,15,1017.2,0.4,77,11,20000,29.632,,,60,12.9,16.6,,,,,,,,,wg-a,,,,AAXX 02064 07207 32570 60616 10150 20110 30121 40172 53004 83270 90600 333 10166 20129=
07207,1999-05-02 12:00:00,21,1017.3,0,49,10,25000,29.632,,,70,,,,,,,,,,,wg-a,,,,AAXX 02124 07207 32/75 10716 10210 20100 30123 40173 50000 80001 91200=
07207,1999-05-02 18:00:00,21,1015.3,-0.7,53,11,500,18.52,,,50,15,22.2,,,,,,,,,wg-a,,,,AAXX 02184 07207 32/00 20510 10210 20110 30103 40153 58007 80002 91800 333 10222 20150=
07207,1999-05-03 00:00:00,14,1015.9,-0.4,82,11,0,29.632,,,40,,,,,,,,,,,wg-a,,,,AAXX 03004 07207 32/// /0416 10140 20110 30108 40159 58004 90000=
07207,1999-05-03 06:00:00,15,1015.1,,88,13,8000,18.52,,,10,,,,,,,,,,17,wg-a,,,,AAXX 03064 07207 32458 70110 10150 20130 30100 40151 71798 879// 90600=
07207,1999-05-03 12:00:00,19,1015.2,-0.5,73,14,7000,25.928,,,20,,,,,,,,,,25,wg-a,,,,AAXX 03124 07207 02/57 20214 10190 20140 30101 40152 56005 61000 72598 80002 91200 333 ////=
07207,1999-05-03 18:00:00,18,1013.5,-0.1,77,14,0,7.408,,,10,13.4,21.6,,,,,,,,,wg-a,,,,AAXX 03184 07207 32/// /0104 10180 20140 30084 40135 55001 91800 333 10216 20134=
07207,1999-05-04 00:00:00,15,1013.6,0,88,13,0,18.52,,,120,,,,,,,,,,,wg-a,,,,AAXX 04004 07207 32/// /1210 10150 20130 30085 40136 50000 90000=
07207,1999-05-04 06:00:00,14,1011.2,-0.9,94,13,10000,22.224,,,20,13.4,17.8,,,,,,,,1,wg-a,,,,AAXX 04064 07207 32/60 60212 10140 20130 30061 40112 56009 70162 86070 90600 333 10178 20134=
07207,1999-05-04 12:00:00,16,1010.5,0,82,13,0,3.704,,,240,,,,,,,,,,,wg-a,,,,AAXX 04124 07207 32/// /2402 10160 20130 30054 40105 50000 91200=
07207,1999-05-04 18:00:00,16,1008.8,-0.6,88,14,500,11.112,,,300,13.6,18.1,,,,,,,,,wg-a,,,,AAXX 04184 07207 32/00 33006 10160 20140 30037 40088 57006 80001 91800 333 10181 20136=
07207,1999-05-05 00:00:00,13,1008.8,-0.2,94,12,0,11.112,,,250,,,,,,,,,,,wg-a,,,,AAXX 05004 07207 32/// /2506 10130 20120 30037 40088 58002 90000=
07207,1999-05-05 06:00:00,13,1008.5,0.1,94,12,4000,11.112,,,250,12.3,15.6,,,,,,,,28,wg-a,,,,AAXX 05064 07207 32440 82506 10130 20120 30034 40085 53001 72842 887// 90600 333 10156 20123=
07207,1999-05-05 12:00:00,14,1009.7,0,88,12,0,25.928,,,190,,,,,,,,,,,wg-a,,,,AAXX 05124 07207 32/// /1914 10140 20120 30046 40097 50000 91200=
07207,1999-05-05 18:00:00,14,1011.4,1.3,88,12,500,25.928,,53.708,260,12.8,14,,,,,,,,2,wg-a,,,,AAXX 05184 07207 32600 82614 10140 20120 30063 40114 53013 70252 885// 91800 333 10140 20128 91029=
07207,1999-05-06 00:00:00,13,1014.6,1,82,10,0,25.928,,,250,,,,,,,,,,,wg-a,,,,AAXX 06004 07207 32/// /2514 10130 20100 30094 40146 52010 90000=
07207,1999-05-06 06:00:00,13,1015.1,0.3,88,11,500,18.52,,,220,12.5,13.7,,,,,,,,,wg-a,,,,AAXX 06064 07207 32500 32210 10130 20110 30099 40151 53003 82202 90600 333 10137 20125=
07207,1999-05-06 12:00:00,16,1014.7,-0.6,77,12,25000,11.112,,,120,,,,,,,,,,,wg-a,,,,AAXX 06124 07207 32575 41206 10160 20120 30096 40147 56006 82230 91200=
07207,1999-05-06 18:00:00,15,1010.8,-1.9,77,11,500,14.816,,,110,12.8,16.4,,,,,,,,,wg-a,,,,AAXX 06184 07207 32600 51108 10150 20110 30057 40108 58019 83532 91800 333 10164 20128=
07207,1999-05-07 00:00:00,14,1009.5,-1.9,94,13,0,18.52,,,20,,,,,,,,,,,wg-a,,,,AAXX 07004 07207 32/// /0210 10140 20130 30044 40095 58019 90000=
07207,1999-05-07 06:00:00,13,1008.5,-1.3,100,13,0,3.704,,,110,13.2,16.8,,,,,,,,,wg-a,,,,AAXX 07064 07207 32/// /1102 10130 20130 30034 40085 55013 90600 333 10168 20132=
07207,1999-05-07 12:00:00,13,1009.9,0.5,88,11,20000,11.112,,,250,,,,,,,,,,25,wg-a,,,,AAXX 07124 07207 02570 82506 10130 20110 30048 40099 53005 61000 72582 8687/ 91200 333 ////=
07207,1999-05-07 18:00:00,14,1010.4,1.1,77,10,500,29.632,,,260,13.1,15.4,,,,,,,,,wg-a,,,,AAXX 07184 07207 02500 32616 10140 20100 30053 40104 52011 61000 83200 91800 333 10154 20131 ////=
07207,1999-05-08 00:00:00,13,1012.2,0.5,88,11,0,38.892,,,220,,,,,,,,,,,wg-a,,,,AAXX 08004 07207 32/// /2221 10130 20110 30071 40122 53005 90000=
07207,1999-05-08 06:00:00,13,1013.3,1.3,88,11,20000,42.596,,,240,12.4,13.9,,0,,,,,,25,wg-a,,,,AAXX 08064 07207 12470 62423 10130 20110 30081 40133 53013 60007 72582 84970 90600 333 10139 20124=
07207,1999-05-08 12:00:00,15,1015.4,0.7,77,11,25000,29.632,,,230,,,,,,,,,,1,wg-a,,,,AAXX 08124 07207 32575 32316 10150 20110 30103 40154 53007 70181 81208 91200=
07207,1999-05-08 18:00:00,14,1015.8,0,82,11,20000,31.484,,,210,12.8,14.9,,,,,,,,,wg-a,,,,AAXX 08184 07207 32/70 52117 10140 20110 30107 40158 50000 80008 91800 333 10149 20128=
07207,1999-05-09 00:00:00,14,1016.2,-0.4,88,12,0,22.224,,,180,,,,,,,,,,,wg-a,,,,AAXX 09004 07207 32/// /1812 10140 20120 30110 40162 58004 90000=
07207,1999-05-09 06:00:00,14,1013.1,-1.4,77,10,500,22.224,,,140,13.4,14,,,,,,,,,wg-a,,,,AAXX 09064 07207 32/00 71412 10140 20100 30080 40131 56014 8707/ 90600 333 10140 20134=
07207,1999-05-09 12:00:00,16,1010.7,-1.3,82,13,0,38.892,,,160,,,,,,,,,,,wg-a,,,,AAXX 09124 07207 32/// /1621 10160 20130 30056 40107 58013 91200=
07207,1999-05-09 18:00:00,14,1011.7,0.9,94,13,12000,14.816,,,210,13.8,16.6,,,,,,,,,wg-a,,,,AAXX 09184 07207 32/62 82108 10140 20130 30066 40117 51009 8807/ 91800 333 10166 20138=
07207,1999-05-10 00:00:00,14,1012.1,-0.2,88,12,0,18.52,,,220,,,,,,,,,,,wg-a,,,,AAXX 10004 07207 32/// /2210 10140 20120 30070 40121 55002 90000=
07207,1999-05-10 06:00:00,14,1012.9,0.9,88,12,18000,31.484,,,240,13.4,15.3,,,,,,,,,wg-a,,,,AAXX 10064 07207 32668 82417 10140 20120 30078 40129 53009 885// 90600 333 10153 20134=
07207,1999-05-10 12:00:00,15,1015,0.7,88,13,10000,25.928,,,230,,,,,,,,,,,wg-a,,,,AAXX 10124 07207 32660 62314 10150 20130 30099 40150 53007 86500 91200=
07207,1999-05-10 18:00:00,14,1015.6,0.1,88,12,15000,29.632,,,230,13.6,15.2,,,,,,,,,wg-a,,,,AAXX 10184 07207 32565 72316 10140 20120 30105 40156 51001 8481/ 91800 333 10152 20136=
07207,1999-05-11 00:00:00,14,1015.3,-0.8,88,12,0,31.484,,,240,,,,,,,,,,,wg-a,,,,AAXX 11004 07207 32/// /2417 10140 20120 30102 40153 58008 90000=
07207,1999-05-11 06:00:00,13,1013.6,-1,94,12,8000,22.224,,,190,12.8,14.3,,2,,,,,,51,wg-a,,,,AAXX 11064 07207 12458 81912 10130 20120 30084 40136 56010 60027 75162 887// 90600 333 10143 20128=
07207,1999-05-11 12:00:00,14,1013.1,-0.2,100,14,7000,25.928,,,260,,,,0,,,,,,21,wg-a,,,,AAXX 11124 07207 12457 82614 10140 20140 30080 40131 55002 60007 72162 887// 91200=
07207,1999-05-12 00:00:00,13,1015.4,-0.1,94,12,0,25.928,,,260,,,,,,,,,,,wg-a,,,,AAXX 12004 07207 32/// /2614 10130 20120 30102 40154 55001 90000=
07207,1999-05-12 06:00:00,13,1015,0.6,88,11,25000,18.52,,,270,12.8,13.4,,,,,,,,,wg-a,,,,AAXX 12064 07207 32675 82710 10130 20110 30098 40150 53006 885// 90600 333 10134 20128=
07207,1999-05-12 12:00:00,13,1015.3,0.4,94,12,12000,18.52,,,240,,,,3,,,,,,61,wg-a,,,,AAXX 12124 07207 12562 82410 10130 20120 30101 40153 51004 60037 76162 888// 91200=
07207,1999-05-12 18:00:00,14,1016,0.4,82,11,500,14.816,,,260,12.6,14.2,,,,,,,,1,wg-a,,,,AAXX 12184 07207 32400 32608 10140 20110 30108 40160 51004 70160 83900 91800 333 10142 20126=
07207,1999-05-13 00:00:00,13,1016.7,-0.2,88,11,0,14.816,,,270,,,,,,,,,,,wg-a,,,,AAXX 13004 07207 32/// /2708 10130 20110 30115 40167 58002 90000=
07207,1999-05-13 06:00:00,13,1015.3,-0.4,82,10,500,18.52,,,250,12.4,13.7,,,,,,,,,wg-a,,,,AAXX 13064 07207 32500 62510 10130 20100 30101 40153 57004 86800 90600 333 10137 20124=
07207,1999-05-13 12:00:00,13,1014.7,-0.8,77,9,500,18.52,,,260,,,,,,,,,,,wg-a,,,,AAXX 13124 07207 32500 82610 10130 20090 30095 40147 58008 8287/ 91200=
07207,1999-05-13 18:00:00,14,1013.9,-0.1,77,10,500,22.224,,,280,12.6,14.2,,,,,,,,,wg-a,,,,AAXX 13184 07207 32500 62812 10140 20100 30088 40139 55001 83204 91800 333 10142 20126=
07207,1999-05-14 06:00:00,12,1014.8,0.6,88,10,500,14.816,,,290,12,13.5,,,,,,,,,wg-a,,,,AAXX 14064 07207 32500 52908 10120 20100 30096 40148 53006 85800 90600 333 10135 20120=
07207,1999-05-14 12:00:00,15,1015.7,0.3,72,10,35000,18.52,,,280,,,,,,,,,,,wg-a,,,,AAXX 14124 07207 32581 32810 10150 20100 30106 40157 50003 83200 91200=
07207,1999-05-14 18:00:00,14,1014.8,-0.4,72,9,35000,14.816,,,300,12.4,15.6,,,,,,,,,wg-a,,,,AAXX 14184 07207 32581 33008 10140 20090 30097 40148 58004 83200 91800 333 10156 20124=
07207,1999-05-15 00:00:00,11,1015.7,0.4,87,9,0,14.816,,,20,,,,,,,,,,,wg-a,,,,AAXX 15004 07207 32/// /0208 10110 20090 30105 40157 51004 90000=
07207,1999-05-15 06:00:00,11,1015.9,0.2,94,10,35000,11.112,,,20,9,13.9,,,,,,,,,wg-a,,,,AAXX 15064 07207 32581 40206 10110 20100 30107 40159 53002 82132 90600 333 10139 20090=
07207,1999-05-15 12:00:00,16,1017,0.2,68,10,35000,14.816,,,30,,,,,,,,,,,wg-a,,,,AAXX 15124 07207 32581 30308 10160 20100 30119 40170 53002 83230 91200=
07207,1999-05-15 18:00:00,15,1016.7,0.1,77,11,35000,18.52,,,330,10.7,16.6,,,,,,,,,wg-a,,,,AAXX 15184 07207 32481 33310 10150 20110 30116 40167 53001 83960 91800 333 10166 20107=
07207,1999-05-16 00:00:00,13,1018.1,0.3,88,11,0,22.224,,,40,,,,,,,,,,,wg-a,,,,AAXX 16004 07207 32/// /0412 10130 20110 30129 40181 50003 90000=
07207,1999-05-16 06:00:00,12,1017.6,0.2,88,10,6000,31.484,,,60,11.1,15.3,,,,,,,,,wg-a,,,,AAXX 16064 07207 32/56 00617 10120 20100 30124 40176 53002 80000 90600 333 10153 20111=
07207,1999-05-16 12:00:00,17,1016.7,-1.4,68,11,15000,35.188,,,70,,,,,,,,,,,wg-a,,,,AAXX 16124 07207 32565 20719 10170 20110 30116 40167 58014 82200 91200=
07207,1999-05-16 18:00:00,16,1013.7,-1.3,59,8,25000,31.484,,53.708,40,11.7,18,,,,,,,,,wg-a,,,,AAXX 16184 07207 32/75 20417 10160 20080 30086 40137 57013 82030 91800 333 10180 20117 91029=
07207,1999-05-17 00:00:00,11,1013.5,-1,76,7,0,38.892,,,50,,,,,,,,,,,wg-a,,,,AAXX 17004 07207 32/// /0521 10110 20070 30083 40135 58010 90000=
07207,1999-05-17 06:00:00,10,1010.6,-1.8,82,7,15000,35.188,,64.82,40,9.1,15.9,,,,,,,,,wg-a,,,,AAXX 17064 07207 32565 70419 10100 20070 30054 40106 56018 8587/ 90600 333 10159 20091 91035=
07207,1999-05-17 12:00:00,14,1007.3,-2.2,55,5,20000,42.596,,72.228,50,,,,,,,,,,,wg-a,,,,AAXX 17124 07207 32/70 70523 10140 20050 30022 40073 56022 8707/ 91200 333 91039=
07207,1999-05-17 18:00:00,12,1004.9,-1,88,10,0,38.892,,,60,9.9,15,,,,,,,,,wg-a,,,,AAXX 17184 07207 02/// /0621 10120 20100 39998 40049 58010 61000 91800 333 10150 20099 ////=
07207,1999-05-18 00:00:00,11,1005.6,0,94,10,0,22.224,,,40,,,,,,,,,,,wg-a,,,,AAXX 18004 07207 32/// /0412 10110 20100 30005 40056 50000 90000=
07207,1999-05-18 06:00:00,11,1005.4,0.7,100,11,8000,11.112,,,100,9.2,12.2,,,,,,,,,wg-a,,,,AAXX 18064 07207 32558 61006 10110 20110 30003 40054 52007 82231 90600 333 10122 20092=
07207,1999-05-18 12:00:00,14,1007.5,1.1,88,12,10000,14.816,,,120,,,,0,,,,,,2,wg-a,,,,AAXX 18124 07207 12560 81208 10140 20120 30024 40075 53011 60007 70282 885// 91200=
07207,1999-05-18 18:00:00,15,1008.3,0.6,88,13,500,7.408,,,110,11.5,15.4,,0,,,,,,,wg-a,,,,AAXX 18184 07207 12500 31104 10150 20130 30032 40083 52006 60007 82201 91800 333 10154 20115=
07207,1999-05-19 00:00:00,11,1010,0.1,100,11,0,7.408,,,20,,,,,,,,,,,wg-a,,,,AAXX 19004 07207 32/// /0204 10110 20110 30048 40100 50001 90000=
07207,1999-05-19 06:00:00,13,1009.9,0.1,94,12,8000,14.816,,,330,10.6,14.9,,0,,,,,,3,wg-a,,,,AAXX 19064 07207 12458 83308 10130 20120 30048 40099 53001 60007 70381 8437/ 90600 333 10149 20106=
07207,1999-05-19 12:00:00,16,1011.5,0.1,88,14,15000,18.52,,,290,,,,0,,,,,,1,wg-a,,,,AAXX 19124 07207 12665 62910 10160 20140 30064 40115 53001 60007 70182 86500 91200=
07207,1999-05-19 18:00:00,16,1013,0.9,82,13,500,22.224,,,290,12.6,16.3,,,,,,,,,wg-a,,,,AAXX 19184 07207 32400 52912 10160 20130 30079 40130 53009 84330 91800 333 10163 20126=
07207,1999-05-20 00:00:00,13,1015.9,0.7,88,11,0,25.928,,,320,,,,,,,,,,,wg-a,,,,AAXX 20004 07207 32/// /3214 10130 20110 30107 40159 50007 90000=
07207,1999-05-20 06:00:00,13,1016.4,0.4,88,11,15000,25.928,,,300,12.1,16.2,,,,,,,,,wg-a,,,,AAXX 20064 07207 32465 83014 10130 20110 30112 40164 53004 887// 90600 333 10162 20121=
07207,1999-05-20 12:00:00,14,1017.4,0.1,88,12,10000,22.224,,,290,,,,,,,,,,2,wg-a,,,,AAXX 20124 07207 02660 82912 10140 20120 30122 40174 53001 61000 70252 885// 91200 333 ////=
07207,1999-05-20 18:00:00,14,1018.5,0.6,88,12,15000,25.928,,50.004,300,12.2,15.5,,,,,,,,,wg-a,,,,AAXX 20184 07207 32/65 43014 10140 20120 30133 40185 53006 84030 91800 333 10155 20122 91027=
07207,1999-05-21 00:00:00,12,1021.6,1.2,94,11,0,29.632,,,320,,,,,,,,,,,wg-a,,,,AAXX 21004 07207 32/// /3216 10120 20110 30164 40216 53012 90000=
07207,1999-05-21 06:00:00,13,1022.3,0.5,82,10,25000,29.632,,,310,12.3,13.9,,,,,,,,,wg-a,,,,AAXX 21064 07207 32575 63116 10130 20100 30171 40223 53005 82260 90600 333 10139 20123=
07207,1999-05-21 12:00:00,15,1024.1,0.6,82,12,15000,29.632,,50.004,290,,,,,,,,,,,wg-a,,,,AAXX 21124 07207 32565 82916 10150 20120 30189 40241 51006 888// 91200 333 91027=
07207,1999-05-21 18:00:00,14,1023.9,-0.4,94,13,15000,35.188,,53.708,290,12.8,15.3,,,,,,,,,wg-a,,,,AAXX 21184 07207 32665 72919 10140 20130 30187 40239 56004 875// 91800 333 10153 20128 91029=
07207,1999-05-22 00:00:00,14,1024.1,-0.4,94,13,0,31.484,,,290,,,,,,,,,,,wg-a,,,,AAXX 22004 07207 32/// /2917 10140 20130 30189 40241 58004 90000=
07207,1999-05-22 06:00:00,13,1024,0.5,94,12,10000,18.52,,,320,13.4,14.1,,,,,,,,,wg-a,,,,AAXX 22064 07207 32560 83210 10130 20120 30188 40240 53005 888// 90600 333 10141 20134=
07207,1999-05-22 12:00:00,15,1025,0,77,11,25000,22.224,,,290,,,,,,,,,,,wg-a,,,,AAXX 22124 07207 32575 32912 10150 20110 30198 40250 50000 81201 91200=
07207,1999-05-22 18:00:00,14,1024.8,-0.1,77,10,20000,22.224,,,290,13.3,15.6,,,,,,,,,wg-a,,,,AAXX 22184 07207 32/70 32912 10140 20100 30196 40248 58001 80001 91800 333 10156 20133=
07207,1999-05-23 06:00:00,11,1025.8,0.2,94,10,15000,3.704,,,80,8.9,14,,,,,,,,,wg-a,,,,AAXX 23064 07207 32565 50802 10110 20100 30205 40258 53002 85200 90600 333 10140 20089=
07207,1999-05-23 12:00:00,15,1025.8,-0.3,77,11,18000,11.112,,,250,,,,,,,,,,,wg-a,,,,AAXX 23124 07207 32568 72506 10150 20110 30206 40258 58003 8217/ 91200=
07207,1999-05-23 18:00:00,15,1024.3,-0.7,82,12,35000,11.112,,,290,11.6,16.7,,,,,,,,,wg-a,,,,AAXX 23184 07207 32/81 22906 10150 20120 30191 40243 56007 82030 91800 333 10167 20116=
07207,1999-05-24 00:00:00,13,1023.7,-0.8,88,11,0,18.52,,,340,,,,,,,,,,,wg-a,,,,AAXX 24004 07207 32/// /3410 10130 20110 30185 40237 58008 90000=
07207,1999-05-24 06:00:00,12,1023,0.1,94,11,500,11.112,,,20,10.2,15.2,,,,,,,,,wg-a,,,,AAXX 24064 07207 32600 50206 10120 20110 30178 40230 53001 83532 90600 333 10152 20102=
07207,1999-05-24 12:00:00,16,1023.3,0.1,72,11,500,14.816,,,330,,,,,,,,,,,wg-a,,,,AAXX 24124 07207 32500 53308 10160 20110 30181 40233 53001 82261 91200=
07207,1999-05-24 18:00:00,15,1022.3,-0.5,82,12,35000,25.928,,,320,12.4,16.4,,,,,,,,,wg-a,,,,AAXX 24184 07207 32/81 23214 10150 20120 30171 40223 56005 80002 91800 333 10164 20124=
07207,1999-05-25 00:00:00,13,1023.1,0,94,12,0,14.816,,,10,,,,,,,,,,,wg-a,,,,AAXX 25004 07207 32/// /0108 10130 20120 30179 40231 50000 90000=
07207,1999-05-25 06:00:00,12,1023.5,0.4,94,11,500,14.816,,,20,11.5,15.3,,0,,,,,,,wg-a,,,,AAXX 25064 07207 12600 80208 10120 20110 30183 40235 53004 60007 885// 90600 333 10153 20115=
07207,1999-05-25 12:00:00,15,1023.9,-0.2,72,10,25000,7.408,,,300,,,,,,,,,,,wg-a,,,,AAXX 25124 07207 32675 83004 10150 20100 30187 40239 58002 885// 91200=
07207,1999-05-25 18:00:00,15,1021.7,-1.2,72,10,35000,11.112,,,290,12.4,17.3,,,,,,,,,wg-a,,,,AAXX 25184 07207 32/81 12906 10150 20100 30165 40217 56012 81030 91800 333 10173 20124=
07207,1999-05-26 00:00:00,11,1020.7,-0.8,94,10,0,18.52,,,30,,,,,,,,,,,wg-a,,,,AAXX 26004 07207 32/// /0310 10110 20100 30155 40207 58008 90000=
07207,1999-05-26 06:00:00,12,1018.9,-0.6,88,10,25000,22.224,,,70,10.5,15.5,,,,,,,,,wg-a,,,,AAXX 26064 07207 32/75 00712 10120 20100 30137 40189 56006 80000 90600 333 10155 20105=
07207,1999-05-26 12:00:00,20,1017.6,-1.1,68,14,25000,7.408,,,120,,,,,,,,,,,wg-a,,,,AAXX 26124 07207 32/75 11204 10200 20140 30125 40176 57011 80001 91200=
07207,1999-05-26 18:00:00,21,1014.1,-1.7,60,13,25000,18.52,,,70,12.3,22.2,,,,,,,,,wg-a,,,,AAXX 26184 07207 32/75 20710 10210 20130 30091 40141 57017 80001 91800 333 10222 20123=
07207,1999-05-27 00:00:00,17,1012.3,-1.6,82,14,0,31.484,,,70,,,,,,,,,,,wg-a,,,,AAXX 27004 07207 32/// /0717 10170 20140 30072 40123 58016 90000=
07207,1999-05-27 06:00:00,18,1008.1,-0.9,77,14,20000,31.484,,61.116,90,16.2,21,,,,,,,,,wg-a,,,,AAXX 27064 07207 32/70 70917 10180 20140 30031 40081 55009 8702/ 90600 333 10210 20162 91033=
07207,1999-05-27 12:00:00,16,1008.9,0.9,94,15,9000,22.224,,79.636,240,,,,,,,,,,2,wg-a,,,,AAXX 27124 07207 32659 82412 10160 20150 30038 40089 53009 70298 885// 91200 333 91043=
07207,1999-05-27 18:00:00,16,1014.4,2.2,88,14,15000,25.928,,,240,15.5,18.4,,0,,,,,,1,wg-a,,,,AAXX 27184 07207 12/65 52414 10160 20140 30093 40144 51022 60007 70182 85030 91800 333 10184 20155=
07207,1999-05-28 00:00:00,15,1018.3,1.4,94,14,0,31.484,,,220,,,,,,,,,,,wg-a,,,,AAXX 28004 07207 32/// /2217 10150 20140 30132 40183 51014 90000=
07207,1999-05-28 06:00:00,15,1020,0.6,94,14,25000,18.52,,,230,14.8,16.1,,,,,,,,,wg-a,,,,AAXX 28064 07207 32675 72310 10150 20140 30149 40200 52006 875// 90600 333 10161 20148=
07207,1999-05-28 12:00:00,15,1020,0.6,94,14,25000,18.52,,,230,14.8,16.1,,,,,,,,,wg-a,,,,AAXX 28124 07207 32675 72310 10150 20140 30149 40200 52006 875// 91200 333 10161 20148=
07207,1999-05-28 18:00:00,22,1015.5,-2,69,16,20000,25.928,,,80,15.1,22.2,,,,,,,,,wg-a,,,,AAXX 28184 07207 32/70 00814 10220 20160 30105 40155 56020 80000 91800 333 10222 20151=
07207,1999-05-29 00:00:00,18,1013.9,-1.5,88,16,0,31.484,,,70,,,,,,,,,,,wg-a,,,,AAXX 29004 07207 32/// /0717 10180 20160 30088 40139 58015 90000=
07207,1999-05-29 06:00:00,18,1010.8,-1,83,15,15000,22.224,,,110,18,21.8,,,,,,,,,wg-a,,,,AAXX 29064 07207 32565 51112 10180 20150 30058 40108 58010 82260 90600 333 10218 20180=
07207,1999-05-29 12:00:00,18,1013.5,1.5,88,16,500,11.112,,,260,,,,,,,,,,,wg-a,,,,AAXX 29124 07207 32500 12606 10180 20160 30084 40135 53015 81100 91200=
07207,1999-05-29 18:00:00,17,1015.8,0.7,88,15,15000,22.224,,,280,16.6,19.3,,,,,,,,,wg-a,,,,AAXX 29184 07207 32/65 52812 10170 20150 30107 40158 51007 80008 91800 333 10193 20166=
07207,1999-05-30 00:00:00,14,1014.4,-1.5,100,14,0,22.224,,,350,,,,,,,,,,,wg-a,,,,AAXX 30004 07207 32/// /3512 10140 20140 30093 40144 58015 90000=
07207,1999-05-30 06:00:00,15,1014.8,0.7,94,14,9000,7.408,,,40,13.1,16.6,,,,,,,,,wg-a,,,,AAXX 30064 07207 32659 70404 10150 20140 30097 40148 53007 875// 90600 333 10166 20131=
07207,1999-05-30 12:00:00,17,1016.9,1.2,88,15,2500,14.816,,,290,,,,,,,,,,10,wg-a,,,,AAXX 30124 07207 32425 72908 10170 20150 30118 40169 53012 71011 876// 91200=
07207,1999-05-30 18:00:00,17,1018,0.4,88,15,15000,11.112,,,300,14.8,18.5,,,,,,,,,wg-a,,,,AAXX 30184 07207 32565 23006 10170 20150 30129 40180 53004 81208 91800 333 10185 20148=
07207,1999-05-31 00:00:00,15,1019.3,0.1,94,14,0,18.52,,,340,,,,,,,,,,,wg-a,,,,AAXX 31004 07207 32/// /3410 10150 20140 30142 40193 50001 90000=
07207,1999-05-31 06:00:00,13,1020.2,0.4,100,13,3000,22.224,,,40,13,16.9,,,,,,,,10,wg-a,,,,AAXX 31064 07207 32430 80412 10130 20130 30150 40202 53004 71022 886// 90600 333 10169 20130=
07207,1999-05-31 12:00:00,20,1020.3,-0.3,83,17,6000,14.816,,,70,,,,,,,,,,,wg-a,,,,AAXX 31124 07207 32/56 50708 10200 20170 30152 40203 58003 83031 91200=
07207,1999-05-31 18:00:00,20,1017.8,-1.2,83,17,10000,14.816,,,10,13.4,20.9,,,,,,,,,wg-a,,,,AAXX 31184 07207 32/60 70108 10200 20170 30128 40178 56012 8707/ 91800 333 10209 20134=
07207,1999-06-01 00:00:00,18,1017.4,-0.9,88,16,0,29.632,,,50,,,,,,,,,,,wg-a,,,,AAXX 01004 07207 32/// /0516 10180 20160 30123 40174 57009 90000=
07207,1999-06-01 06:00:00,18,1015.6,-0.3,88,16,6000,31.484,,,60,16.6,20,,,,,,,,,wg-a,,,,AAXX 01064 07207 32/56 50617 10180 20160 30105 40156 58003 82031 90600 333 10200 20166=
07207,1999-06-01 12:00:00,19,1014.3,-0.8,94,18,7000,18.52,,,120,,,,,,,,,,,wg-a,,,,AAXX 01124 07207 32557 71210 10190 20180 30093 40143 58008 8367/ 91200=
07207,1999-06-01 18:00:00,18,1011.2,-1.2,94,17,10000,18.52,,,180,18,21.1,,,,,,,,,wg-a,,,,AAXX 01184 07207 32/60 31810 10180 20170 30062 40112 55012 83030 91800 333 10211 20180=
07207,1999-06-02 00:00:00,17,1009.9,-0.4,94,16,0,29.632,,,200,,,,,,,,,,,wg-a,,,,AAXX 02004 07207 32/// /2016 10170 20160 30048 40099 55004 90000=
07207,1999-06-02 12:00:00,16,1012.2,3.2,77,12,15000,42.596,,83.34,270,,,,0,,,,,,2,wg-a,,,,AAXX 02124 07207 12565 72723 10160 20120 30071 40122 52032 60007 70282 878// 91200 333 91045=
07207,1999-06-02 18:00:00,15,1015,0.6,82,12,500,29.632,,61.116,250,14.7,16.2,,,,,,,,,wg-a,,,,AAXX 02184 07207 32400 62516 10150 20120 30099 40150 51006 86300 91800 333 10162 20147 91033=
07207,1999-06-03 00:00:00,15,1013.2,-1.6,82,12,0,31.484,,,210,,,,,,,,,,,wg-a,,,,AAXX 03004 07207 32/// /2117 10150 20120 30081 40132 58016 90000=
07207,1999-06-03 06:00:00,15,1009.3,-1.4,82,12,15000,50.004,,90.748,240,14,15.3,,3,,,,,,25,wg-a,,,,AAXX 03064 07207 12465 52427 10150 20120 30042 40093 56014 60037 72562 83960 90600 333 10153 20140 91049=
07207,1999-06-03 12:00:00,15,1009,-0.9,88,13,15000,46.3,,83.34,240,,,,2,,,,,,25,wg-a,,,,AAXX 03124 07207 12465 72425 10150 20130 30039 40090 58009 60027 72582 879// 91200 333 91045=
07207,1999-06-03 18:00:00,15,1012.7,2.4,82,12,20000,42.596,,75.932,280,12.9,16.1,,,,,,,,1,wg-a,,,,AAXX 03184 07207 02570 42823 10150 20120 30076 40127 53024 61000 70181 83260 91800 333 10161 20129 //// 91041=
07207,1999-06-04 00:00:00,15,1014.8,0.5,82,12,0,35.188,,,270,,,,,,,,,,,wg-a,,,,AAXX 04004 07207 32/// /2719 10150 20120 30097 40148 50005 90000=
07207,1999-06-04 06:00:00,15,1013.7,-0.3,88,13,15000,42.596,,68.524,260,14.2,15.4,,,,,,,,,wg-a,,,,AAXX 04064 07207 32565 82623 10150 20130 30086 40137 56003 888// 90600 333 10154 20142 91037=
07207,1999-06-04 12:00:00,13,1014,-0.1,94,12,1500,14.816,,68.524,300,,,,1,,,,,,53,wg-a,,,,AAXX 04124 07207 12215 83008 10130 20120 30088 40140 58001 60017 75385 887// 91200 333 91037=
07207,1999-06-04 18:00:00,14,1011.7,-1.5,82,11,0,29.632,,,260,12.4,14.9,,,,,,,,,wg-a,,,,AAXX 04184 07207 32/// /2616 10140 20110 30066 40117 58015 91800 333 10149 20124=
07207,1999-06-05 00:00:00,14,1008.4,-2.1,82,11,0,38.892,,,260,,,,2,,,,,,,wg-a,,,,AAXX 05004 07207 12/// /2621 10140 20110 30033 40084 58021 60027 90000=
07207,1999-06-05 06:00:00,13,1006.3,-0.5,77,9,500,42.596,,72.228,260,12,14.5,,,,,,,,1,wg-a,,,,AAXX 05064 07207 32500 62623 10130 20090 30012 40063 56005 70182 86800 90600 333 10145 20120 91039=
07207,1999-06-05 12:00:00,14,1004.7,-1.2,72,9,18000,50.004,,75.932,240,,,,,,,,,,,wg-a,,,,AAXX 05124 07207 32568 82427 10140 20090 39996 40047 58012 888// 91200 333 91041=
07207,1999-06-05 18:00:00,15,1003,-0.8,72,10,20000,53.708,,83.34,260,11.2,14.8,,,,,,,,2,wg-a,,,,AAXX 05184 07207 32470 62629 10150 20100 39979 40030 56008 70282 85330 91800 333 10148 20112 91045=
07207,1999-06-06 00:00:00,13,1005.4,1.6,77,9,0,50.004,,,290,,,,0,,,,,,,wg-a,,,,AAXX 06004 07207 12/// /2927 10130 20090 30003 40054 51016 60007 90000=
07207,1999-06-06 06:00:00,13,1009,1.6,82,10,20000,25.928,,87.044,280,11.8,14.5,,0,,,,,,2,wg-a,,,,AAXX 06064 07207 12470 52814 10130 20100 30039 40090 51016 60007 70282 85900 90600 333 10145 20118 91047=
07207,1999-06-06 12:00:00,13,1009,1.6,82,10,20000,25.928,,87.044,280,11.8,14.5,,0,,,,,,2,wg-a,,,,AAXX 06124 07207 12470 52814 10130 20100 30039 40090 51016 60007 7028/ 85900 91200 333 10145 20118 91047=
07207,1999-06-06 18:00:00,14,1011.3,0.2,82,11,500,25.928,,,260,12.8,15.2,,,,,,,,,wg-a,,,,AAXX 06184 07207 32400 72614 10140 20110 30062 40113 51002 879// 91800 333 10152 20128=
07207,1999-06-07 00:00:00,13,1011.9,0.3,88,11,0,22.224,,,270,,,,,,,,,,,wg-a,,,,AAXX 07004 07207 32/// /2712 10130 20110 30067 40119 51003 90000=
07207,1999-06-07 06:00:00,13,1012.1,0.9,88,11,500,18.52,,,280,12.3,14,,,,,,,,2,wg-a,,,,AAXX 07064 07207 32400 62810 10130 20110 30070 40121 53009 70282 86360 90600 333 10140 20123=
07207,1999-06-07 12:00:00,15,1014.9,1.5,72,10,35000,29.632,,,280,,,,,,,,,,,wg-a,,,,AAXX 07124 07207 32481 62816 10150 20100 30098 40149 52015 86300 91200=
07207,1999-06-07 18:00:00,14,1017.7,1.8,72,9,35000,22.224,,53.708,300,13.2,15.7,,,,,,,,,wg-a,,,,AAXX 07184 07207 32581 23012 10140 20090 30125 40177 53018 81360 91800 333 10157 20132 91029=
07207,1999-06-08 00:00:00,12,1021.8,1.4,67,6,0,22.224,,,320,,,,,,,,,,,wg-a,,,,AAXX 08004 07207 32/// /3212 10120 20060 30166 40218 53014 90000=
07207,1999-06-08 06:00:00,13,1023.9,1.3,58,5,35000,14.816,,,280,11.6,14.3,,,,,,,,,wg-a,,,,AAXX 08064 07207 32581 62808 10130 20050 30187 40239 53013 86800 90600 333 10143 20116=
07207,1999-06-08 12:00:00,15,1026.5,1.1,63,8,35000,18.52,,,290,,,,,,,,,,,wg-a,,,,AAXX 08124 07207 32581 52910 10150 20080 30213 40265 51011 82230 91200=
07207,1999-06-08 18:00:00,15,1026.6,-0.3,63,8,35000,14.816,,,270,12.9,16.3,,,,,,,,,wg-a,,,,AAXX 08184 07207 32581 52708 10150 20080 30214 40266 57003 82132 91800 333 10163 20129=
07207,1999-06-09 00:00:00,14,1027,-0.5,72,9,0,22.224,,,260,,,,,,,,,,,wg-a,,,,AAXX 09004 07207 32/// /2612 10140 20090 30218 40270 58005 90000=
07207,1999-06-09 06:00:00,14,1026,-0.1,77,10,35000,22.224,,,240,13.8,15.1,,,,,,,,,wg-a,,,,AAXX 09064 07207 32681 72412 10140 20100 30208 40260 55001 875// 90600 333 10151 20138=
07207,1999-06-09 12:00:00,14,1026.4,-0,88,12,500,22.224,,,230,,,,0,,,,,,,wg-a,,,,AAXX 09124 07207 12600 82312 10140 20120 30212 40264 54000 60007 885// 91200=
07207,1999-06-09 18:00:00,15,1025.7,-0.3,82,12,35000,14.816,,,280,12.8,14.9,,0,,,,,,1,wg-a,,,,AAXX 09184 07207 12581 52808 10150 20120 30205 40257 56003 60007 70152 85800 91800 333 10149 20128=
07207,1999-06-10 00:00:00,13,1026.3,-0.3,94,12,0,11.112,,,30,,,,,,,,,,,wg-a,,,,AAXX 10004 07207 32/// /0306 10130 20120 30211 40263 58003 90000=
07207,1999-06-10 06:00:00,13,1026.8,0.7,88,11,20000,7.408,,,30,10.5,14.9,,,,,,,,,wg-a,,,,AAXX 10064 07207 32570 30304 10130 20110 30216 40268 53007 81130 90600 333 10149 20105=
07207,1999-06-10 12:00:00,17,1027.1,-0.4,68,11,20000,7.408,,,30,,,,,,,,,,,wg-a,,,,AAXX 10124 07207 32570 40304 10170 20110 30220 40271 58004 84200 91200=
07207,1999-06-10 18:00:00,17,1026,-0.4,72,12,20000,22.224,,,340,12.6,18,,,,,,,,,wg-a,,,,AAXX 10184 07207 32570 33412 10170 20120 30209 40260 56004 81270 91800 333 10180 20126=
07207,1999-06-11 00:00:00,12,1027,-0.1,82,9,0,18.52,,,40,,,,,,,,,,,wg-a,,,,AAXX 11004 07207 32/// /0410 10120 20090 30217 40270 58001 90000=
07207,1999-06-11 06:00:00,12,1026.4,-0.1,88,10,16000,25.928,,,30,10.5,17,,,,,,,,,wg-a,,,,AAXX 11064 07207 32/66 20314 10120 20100 30212 40264 56001 82030 90600 333 10170 20105=
07207,1999-06-11 12:00:00,16,1026.2,-0.4,72,11,500,18.52,,,320,,,,,,,,,,,wg-a,,,,AAXX 11124 07207 32500 33210 10160 20110 30210 40262 58004 83200 91200=
07207,1999-06-11 18:00:00,17,1023.6,-1.5,72,12,500,22.224,,,340,12.4,17.5,,,,,,,,,wg-a,,,,AAXX 11184 07207 32/00 23412 10170 20120 30185 40236 56015 82030 91800 333 10175 20124=
07207,1999-06-12 00:00:00,12,1023.9,-0.3,88,10,0,18.52,,,20,,,,,,,,,,,wg-a,,,,AAXX 12004 07207 32/// /0210 10120 20100 30187 40239 58003 90000=
07207,1999-06-12 06:00:00,12,1022.7,-0,94,11,4000,25.928,,,20,10.5,16.9,,,,,,,,10,wg-a,,,,AAXX 12064 07207 32/40 10214 10120 20110 30175 40227 55000 71000 81030 90600 333 10169 20105=
07207,1999-06-12 12:00:00,17,1022.2,-0.5,77,13,12000,18.52,,,290,,,,,,,,,,,wg-a,,,,AAXX 12124 07207 32562 22910 10170 20130 30171 40222 58005 82200 91200=
07207,1999-06-12 18:00:00,17,1021.6,-0.7,77,13,25000,29.632,,,320,11.8,16.9,,,,,,,,,wg-a,,,,AAXX 12184 07207 32575 23216 10170 20130 30165 40216 56007 81132 91800 333 10169 20118=
07207,1999-06-13 00:00:00,10,1023.9,0.7,87,8,0,18.52,,,20,,,,,,,,,,,wg-a,,,,AAXX 13004 07207 32/// /0210 10100 20080 30186 40239 51007 90000=
07207,1999-06-13 06:00:00,12,1024.2,0.6,88,10,20000,14.816,,,20,9,16.6,,,,,,,,,wg-a,,,,AAXX 13064 07207 32/70 20208 10120 20100 30190 40242 53006 80004 90600 333 10166 20090=
07207,1999-06-13 12:00:00,17,1025.6,0.4,72,12,25000,18.52,,,290,,,,,,,,,,,wg-a,,,,AAXX 13124 07207 32575 52910 10170 20120 30204 40256 52004 82202 91200=
07207,1999-06-13 18:00:00,16,1024.8,-0.4,82,13,25000,22.224,,,320,12.2,17.1,,,,,,,,,wg-a,,,,AAXX 13184 07207 32/75 43212 10160 20130 30196 40248 57004 80001 91800 333 10171 20122=
07207,1999-06-14 00:00:00,13,1026.5,0.6,82,10,0,7.408,,,40,,,,,,,,,,,wg-a,,,,AAXX 14004 07207 32/// /0404 10130 20100 30213 40265 52006 90000=
07207,1999-06-14 06:00:00,13,1026.2,0.3,88,11,500,11.112,,,40,10.4,16.3,,,,,,,,,wg-a,,,,AAXX 14064 07207 32/00 30406 10130 20110 30210 40262 53003 80001 90600 333 10163 20104=
07207,1999-06-14 12:00:00,18,1026.6,-0.2,73,13,25000,11.112,,,290,,,,,,,,,,,wg-a,,,,AAXX 14124 07207 32575 22906 10180 20130 30215 40266 58002 81101 91200=
07207,1999-06-14 18:00:00,18,1025.5,-0.3,68,12,500,22.224,,,320,13.3,18.7,,,,,,,,,wg-a,,,,AAXX 14184 07207 32/00 23212 10180 20120 30204 40255 58003 80001 91800 333 10187 20133=
07207,1999-06-15 00:00:00,14,1027,0.4,88,12,0,25.928,,,50,,,,,,,,,,,wg-a,,,,AAXX 15004 07207 32/// /0514 10140 20120 30218 40270 51004 90000=
07207,1999-06-15 06:00:00,14,1026.9,0.3,82,11,0,18.52,,,60,12.5,17.6,,,,,,,,,wg-a,,,,AAXX 15064 07207 32/// /0610 10140 20110 30217 40269 53003 90600 333 10176 20125=
07207,1999-06-15 12:00:00,20,1027,0,64,13,500,7.408,,,130,,,,,,,,,,,wg-a,,,,AAXX 15124 07207 32/00 21304 10200 20130 30219 40270 50000 80002 91200=
07207,1999-06-15 18:00:00,18,1024.8,-0.6,73,13,500,22.224,,,340,14.5,20.7,,,,,,,,,wg-a,,,,AAXX 15184 07207 32/00 43412 10180 20130 30197 40248 56006 80008 91800 333 10207 20145=
07207,1999-06-16 00:00:00,16,1023.9,-0.5,88,14,0,22.224,,,50,,,,,,,,,,,wg-a,,,,AAXX 16004 07207 32/// /0512 10160 20140 30188 40239 56005 90000=
07207,1999-06-16 06:00:00,17,1022.8,-0.2,88,15,10000,18.52,,,70,15.6,18.2,,,,,,,,,wg-a,,,,AAXX 16064 07207 32/60 30710 10170 20150 30177 40228 55002 80002 90600 333 10182 20156=
07207,1999-06-16 12:00:00,22,1022.9,0.1,69,16,7000,11.112,,,130,,,,,,,,,,,wg-a,,,,AAXX 16124 07207 32557 21306 10220 20160 30179 40229 51001 82100 91200=
07207,1999-06-16 18:00:00,20,1021.9,-0.3,83,17,7000,18.52,,,340,17,22.7,,,,,,,,,wg-a,,,,AAXX 16184 07207 32557 63410 10200 20170 30168 40219 56003 82104 91800 333 10227 20170=
07207,1999-06-17 00:00:00,17,1022.7,0.5,88,15,0,14.816,,,40,,,,,,,,,,,wg-a,,,,AAXX 17004 07207 32/// /0408 10170 20150 30176 40227 50005 90000=
07207,1999-06-17 06:00:00,15,1022.9,0.6,82,12,7000,25.928,,,40,14.2,20.6,,,,,,,,,wg-a,,,,AAXX 17064 07207 32/57 30414 10150 20120 30177 40229 53006 83050 90600 333 10206 20142=
07207,1999-06-17 18:00:00,21,1024.5,-0.4,69,15,500,22.224,,,340,15.1,23.3,,,,,,,,,wg-a,,,,AAXX 17184 07207 32/00 23412 10210 20150 30194 40245 57004 80001 91800 333 10233 20151=
07207,1999-06-18 00:00:00,14,1026.2,0.7,88,12,0,22.224,,,20,,,,,,,,,,,wg-a,,,,AAXX 18004 07207 32/// /0212 10140 20120 30210 40262 51007 90000=
07207,1999-06-18 06:00:00,15,1026.7,0.6,88,13,25000,14.816,,,20,12.8,21.2,,,,,,,,,wg-a,,,,AAXX 18064 07207 32/75 30208 10150 20130 30215 40267 53006 80001 90600 333 10212 20128=
07207,1999-06-18 12:00:00,19,1026.4,-0.2,73,14,25000,22.224,,,330,,,,,,,,,,,wg-a,,,,AAXX 18124 07207 32575 63312 10190 20140 30213 40264 58002 83232 91200=
07207,1999-06-18 18:00:00,18,1024.9,-0.7,83,15,25000,18.52,,,320,14.8,19.3,,,,,,,,,wg-a,,,,AAXX 18184 07207 32/75 43210 10180 20150 30198 40249 58007 82031 91800 333 10193 20148=
07207,1999-06-19 00:00:00,14,1025.6,0.4,82,11,0,22.224,,,30,,,,,,,,,,,wg-a,,,,AAXX 19004 07207 32/// /0312 10140 20110 30204 40256 50004 90000=
07207,1999-06-19 06:00:00,14,1025.7,0.6,88,12,8000,14.816,,,350,11.8,18.2,,,,,,,,,wg-a,,,,AAXX 19064 07207 32/58 03508 10140 20120 30205 40257 53006 80000 90600 333 10182 20118=
07207,1999-06-19 12:00:00,19,1025.5,-0.4,78,15,15000,11.112,,,300,,,,,,,,,,,wg-a,,,,AAXX 19124 07207 32565 23006 10190 20150 30204 40255 58004 82100 91200=
07207,1999-06-19 18:00:00,18,1024.1,-0.6,83,15,500,22.224,,,310,13.6,19.9,,,,,,,,,wg-a,,,,AAXX 19184 07207 32/00 53112 10180 20150 30190 40241 55006 80002 91800 333 10199 20136=
07207,1999-06-20 00:00:00,15,1023.3,-0.8,94,14,0,18.52,,,320,,,,,,,,,,,wg-a,,,,AAXX 20004 07207 32/// /3210 10150 20140 30181 40233 58008 90000=
07207,1999-06-20 06:00:00,16,1021.9,-0.3,88,14,25000,25.928,,,290,15,17.5,,,,,,,,,wg-a,,,,AAXX 20064 07207 32675 82914 10160 20140 30168 40219 55003 885// 90600 333 10175 20150=
07207,1999-06-20 12:00:00,17,1021,-0.5,88,15,20000,31.484,,,280,,,,,,,,,,,wg-a,,,,AAXX 20124 07207 32670 82817 10170 20150 30159 40210 58005 885// 91200=
07207,1999-06-20 18:00:00,16,1019.1,-1,82,13,500,29.632,,,290,15.7,17.5,,,,,,,,1,wg-a,,,,AAXX 20184 07207 02400 42916 10160 20130 30140 40191 58010 61000 70151 84500 91800 333 10175 20157 ////=
07207,1999-06-21 00:00:00,12,1021.5,0.8,76,8,0,18.52,,,350,,,,,,,,,,,wg-a,,,,AAXX 21004 07207 32/// /3510 10120 20080 30163 40215 51008 90000=
07207,1999-06-21 06:00:00,13,1022.8,1.3,82,10,500,22.224,,,350,11.2,16.6,,,,,,,,,wg-a,,,,AAXX 21064 07207 32500 23512 10130 20100 30176 40228 53013 82200 90600 333 10166 20112=
07207,1999-06-21 12:00:00,17,1024.2,0.3,52,7,500,22.224,,,310,,,,,,,,,,,wg-a,,,,AAXX 21124 07207 32500 53112 10170 20070 30190 40242 52003 82230 91200=
07207,1999-06-21 18:00:00,17,1024.6,0.3,52,7,0,25.928,,,330,13.2,17.8,,,,,,,,,wg-a,,,,AAXX 21184 07207 32/// /3314 10170 20070 30194 40246 53003 91800 333 10178 20132=
07207,1999-06-22 00:00:00,11,1026.1,0.2,76,7,0,18.52,,,20,,,,,,,,,,,wg-a,,,,AAXX 22004 07207 32/// /0210 10110 20070 30208 40261 51002 90000=
07207,1999-06-22 06:00:00,12,1025.6,0.1,82,9,35000,14.816,,,20,7.9,16.8,,,,,,,,,wg-a,,,,AAXX 22064 07207 32581 20208 10120 20090 30204 40256 53001 82200 90600 333 10168 20079=
07207,1999-06-22 12:00:00,16,1025.1,-0.3,63,9,35000,11.112,,,220,,,,,,,,,,,wg-a,,,,AAXX 22124 07207 32581 22206 10160 20090 30199 40251 58003 82200 91200=
07207,1999-06-22 18:00:00,16,1022.6,-1.2,68,10,35000,22.224,,,330,12.1,17.4,,,,,,,,,wg-a,,,,AAXX 22184 07207 32/81 33312 10160 20100 30174 40226 58012 80001 91800 333 10174 20121=
07207,1999-06-23 00:00:00,13,1022,-0.5,88,11,0,22.224,,,50,,,,,,,,,,,wg-a,,,,AAXX 23004 07207 32/// /0512 10130 20110 30168 40220 56005 90000=
07207,1999-06-23 06:00:00,14,1021.3,-0.1,82,11,500,22.224,,,60,12.4,15.8,,,,,,,,,wg-a,,,,AAXX 23064 07207 32/00 60612 10140 20110 30161 40213 55001 85031 90600 333 10158 20124=
07207,1999-06-23 12:00:00,19,1022,0,60,11,35000,11.112,,,150,,,,,,,,,,,wg-a,,,,AAXX 23124 07207 32/81 31506 10190 20110 30169 40220 50000 80001 91200=
07207,1999-06-23 18:00:00,19,1021.5,-0.2,56,10,35000,22.224,,,340,14,21,,,,,,,,,wg-a,,,,AAXX 23184 07207 32/81 13412 10190 20100 30164 40215 57002 80001 91800 333 10210 20140=
07207,1999-06-24 00:00:00,15,1022.6,0,77,11,0,29.632,,,50,,,,,,,,,,,wg-a,,,,AAXX 24004 07207 32/// /0516 10150 20110 30174 40226 50000 90000=
07207,1999-06-24 06:00:00,16,1022.1,0.6,77,12,25000,25.928,,,70,13.8,19.3,,,,,,,,,wg-a,,,,AAXX 24064 07207 32/75 00714 10160 20120 30170 40221 52006 80000 90600 333 10193 20138=
07207,1999-06-24 12:00:00,23,1021.3,-0.9,44,10,500,25.928,,,90,,,,,,,,,,,wg-a,,,,AAXX 24124 07207 32/00 10914 10230 20100 30163 40213 58009 80001 91200=
07207,1999-06-24 18:00:00,24,1018.8,-1.2,44,11,500,25.928,,,70,15.9,25.7,,,,,,,,,wg-a,,,,AAXX 24184 07207 32/00 00714 10240 20110 30138 40188 56012 80000 91800 333 10257 20159=
07207,1999-06-25 00:00:00,18,1018.6,-0.5,73,13,0,29.632,,,60,,,,,,,,,,,wg-a,,,,AAXX 25004 07207 32/// /0616 10180 20130 30135 40186 57005 90000=
07207,1999-06-25 06:00:00,18,1016.8,-0.3,68,12,25000,35.188,,53.708,80,16.3,24.3,,,,,,,,,wg-a,,,,AAXX 25064 07207 32/75 50819 10180 20120 30117 40168 58003 80008 90600 333 10243 20163 91029=
07207,1999-06-25 12:00:00,25,1015.6,-0.4,47,13,20000,31.484,,,70,,,,,,,,,,,wg-a,,,,AAXX 25124 07207 32/70 60717 10250 20130 30106 40156 55004 84071 91200=
07207,1999-06-25 18:00:00,25,1011.6,-2.1,47,13,25000,25.928,,,100,17.7,26,,,,,,,,1,wg-a,,,,AAXX 25184 07207 32/75 51014 10250 20130 30067 40116 56021 70196 81078 91800 333 10260 20177=
07207,1999-06-26 00:00:00,19,1010.5,-1.4,73,14,0,0,,,0,,,,,,,,,,,wg-a,,,,AAXX 26004 07207 32/// /0000 10190 20140 30055 40105 58014 90000=
07207,1999-06-26 06:00:00,16,1009.7,1,94,15,8000,29.632,,,280,16.2,25.1,,,,,,,,,wg-a,,,,AAXX 26064 07207 32358 82816 10160 20150 30046 40097 53010 887// 90600 333 10251 20162=
07207,1999-06-26 18:00:00,17,1007.7,-1.5,88,15,12000,29.632,,53.708,230,15.7,18.1,,,,,,,,2,wg-a,,,,AAXX 26184 07207 02562 82316 10170 20150 30026 40077 56015 61000 70286 888// 91800 333 10181 20157 //// 91029=
07207,1999-06-27 00:00:00,16,1006.4,-1.6,94,15,0,35.188,,,240,,,,0,,,,,,,wg-a,,,,AAXX 27004 07207 12/// /2419 10160 20150 30013 40064 57016 60007 90000=
07207,1999-06-27 06:00:00,14,1005,0.6,82,11,15000,25.928,,61.116,310,13.4,16.8,,2,,,,,,2,wg-a,,,,AAXX 27064 07207 12665 83114 10140 20110 39999 40050 53006 60027 70282 885// 90600 333 10168 20134 91033=
07207,1999-06-27 12:00:00,17,1008.3,1.7,68,11,500,31.484,,57.412,290,,,,,,,,,,,wg-a,,,,AAXX 27124 07207 32500 62917 10170 20110 30032 40083 51017 86800 91200 333 91031=
07207,1999-06-27 18:00:00,16,1010.6,1,68,10,500,35.188,,,280,13.9,17,,,,,,,,2,wg-a,,,,AAXX 27184 07207 32400 42819 10160 20100 30055 40106 51010 70282 84300 91800 333 10170 20139=
07207,1999-06-28 00:00:00,15,1012.7,0.7,77,11,0,31.484,,,280,,,,1,,,,,,,wg-a,,,,AAXX 28004 07207 12/// /2817 10150 20110 30076 40127 51007 60017 90000=
07207,1999-06-28 06:00:00,15,1014,1.2,72,10,500,29.632,,,260,13.7,16.1,,,,,,,,2,wg-a,,,,AAXX 28064 07207 32400 72616 10150 20100 30089 40140 53012 70282 8537/ 90600 333 10161 20137=
07207,1999-06-28 12:00:00,16,1015.9,0.7,88,14,25000,35.188,,,240,,,,,,,,,,,wg-a,,,,AAXX 28124 07207 32575 82419 10160 20140 30108 40159 51007 888// 91200=
07207,1999-06-28 18:00:00,17,1015.5,-0.4,88,15,18000,29.632,,,230,15.2,17.4,,0,,,,,,2,wg-a,,,,AAXX 28184 07207 12568 72316 10170 20150 30104 40155 57004 60007 70252 878// 91800 333 10174 20152=
07207,1999-06-29 00:00:00,17,1015.3,-0.5,88,15,0,35.188,,,240,,,,,,,,,,,wg-a,,,,AAXX 29004 07207 32/// /2419 10170 20150 30102 40153 56005 90000=
07207,1999-06-29 06:00:00,16,1014.9,0.3,100,16,4000,42.596,,64.82,240,16.3,16.7,,0,,,,,,51,wg-a,,,,AAXX 29064 07207 12240 82423 10160 20160 30098 40149 53003 60007 75122 887// 90600 333 10167 20163 91035=
07207,1999-06-29 12:00:00,18,1017.2,0.6,88,16,25000,22.224,,,240,,,,0,,,,,,1,wg-a,,,,AAXX 29124 07207 12575 32412 10180 20160 30121 40172 52006 60007 70151 82130 91200=
07207,1999-06-29 18:00:00,17,1018,0.3,88,15,15000,31.484,,,270,16,17.8,,,,,,,,,wg-a,,,,AAXX 29184 07207 32365 82717 10170 20150 30129 40180 52003 887// 91800 333 10178 20160=
07207,1999-06-30 00:00:00,15,1021.1,1.4,94,14,0,25.928,,,300,,,,,,,,,,,wg-a,,,,AAXX 30004 07207 32/// /3014 10150 20140 30159 40211 52014 90000=
07207,1999-06-30 06:00:00,14,1023.5,1.5,77,10,500,18.52,,,330,13.8,16.7,,,,,,,,,wg-a,,,,AAXX 30064 07207 32500 33310 10140 20100 30183 40235 53015 82130 90600 333 10167 20138=
07207,1999-06-30 12:00:00,18,1025.2,0.5,64,11,500,11.112,,,280,,,,,,,,,,,wg-a,,,,AAXX 30124 07207 32600 62806 10180 20110 30201 40252 52005 86500 91200=
07207,1999-06-30 18:00:00,17,1024,-1,72,12,500,11.112,,,250,14.3,18,,,,,,,,,wg-a,,,,AAXX 30184 07207 32500 32506 10170 20120 30189 40240 58010 82101 91800 333 10180 20143=
07207,1999-07-01 00:00:00,16,1022.8,-0.9,82,13,0,22.224,,,240,,,,,,,,,,,wg-a,,,,AAXX 01004 07207 32/// /2412 10160 20130 30177 40228 58009 90000=
07207,1999-07-01 06:00:00,16,1021,-0.3,94,15,25000,18.52,,,240,15.3,17,,,,,,,,,wg-a,,,,AAXX 01064 07207 32675 72410 10160 20150 30159 40210 56003 875// 90600 333 10170 20153=
07207,1999-07-01 12:00:00,18,1021.6,0.1,88,16,12000,14.816,,,240,,,,,,,,,,,wg-a,,,,AAXX 01124 07207 32662 72408 10180 20160 30165 40216 50001 875// 91200=
07207,1999-07-01 18:00:00,19,1019,-1.6,83,16,500,7.408,,,280,16.3,19.7,,,,,,,,,wg-a,,,,AAXX 01184 07207 32600 42804 10190 20160 30139 40190 56016 83530 91800 333 10197 20163=
07207,1999-07-02 00:00:00,16,1017.2,-1.5,94,15,0,18.52,,,30,,,,,,,,,,,wg-a,,,,AAXX 02004 07207 32/// /0310 10160 20150 30121 40172 58015 90000=
07207,1999-07-02 06:00:00,19,1013.4,-1,88,17,25000,25.928,,,80,15.2,19,,0,,,,,,,wg-a,,,,AAXX 02064 07207 12575 10814 10190 20170 30084 40134 56010 60007 81100 90600 333 10190 20152=
07207,1999-07-02 12:00:00,24,1010.7,-1.5,65,17,18000,18.52,,,120,,,,,,,,,,,wg-a,,,,AAXX 02124 07207 32/68 21210 10240 20170 30058 40107 58015 81032 91200=
07207,1999-07-02 18:00:00,17,1010.5,0.6,94,16,6000,29.632,,57.412,300,17.2,26.3,,,,,,,,,wg-a,,,,AAXX 02184 07207 32256 83016 10170 20160 30054 40105 53006 887// 91800 333 10263 20172 91031=
07207,1999-07-03 00:00:00,17,1012.6,0.6,94,16,0,18.52,,,280,,,,,,,,,,,wg-a,,,,AAXX 03004 07207 32/// /2810 10170 20160 30075 40126 51006 90000=
07207,1999-07-03 06:00:00,17,1012.1,0.1,94,16,7000,14.816,,,250,16.2,17.5,,,,,,,,,wg-a,,,,AAXX 03064 07207 32257 82508 10170 20160 30070 40121 53001 886// 90600 333 10175 20162=
07207,1999-07-03 12:00:00,19,1013.4,0.3,88,17,20000,7.408,,,250,,,,,,,,,,2,wg-a,,,,AAXX 03124 07207 02570 62504 10190 20170 30084 40134 50003 61000 70252 86800 91200 333 ////=
07207,1999-07-03 18:00:00,18,1012.7,-0.8,88,16,25000,14.816,,,240,16.7,20,,,,,,,,,wg-a,,,,AAXX 03184 07207 32575 52408 10180 20160 30076 40127 56008 83830 91800 333 10200 20167=
07207,1999-07-04 00:00:00,17,1013,-0.1,88,15,0,18.52,,,240,,,,,,,,,,,wg-a,,,,AAXX 04004 07207 32/// /2410 10170 20150 30079 40130 58001 90000=
07207,1999-07-04 06:00:00,17,1010.8,-1,94,16,25000,11.112,,,240,16.2,18.1,,,,,,,,,wg-a,,,,AAXX 04064 07207 32575 52406 10170 20160 30057 40108 58010 82202 90600 333 10181 20162=
07207,1999-07-04 12:00:00,17,1010.4,-1,94,16,15000,18.52,,,190,,,,,,,,,,,wg-a,,,,AAXX 04124 07207 32565 81910 10170 20160 30053 40104 58010 888// 91200=
07207,1999-07-04 18:00:00,17,1009.7,-0.6,94,16,20000,18.52,,,230,16.3,18.7,,,,,,,,2,wg-a,,,,AAXX 04184 07207 32470 72310 10170 20160 30046 40097 56006 70282 83362 91800 333 10187 20163=
07207,1999-07-05 00:00:00,17,1008.8,-0.9,94,16,0,18.52,,,220,,,,,,,,,,,wg-a,,,,AAXX 05004 07207 32/// /2210 10170 20160 30037 40088 57009 90000=
07207,1999-07-05 12:00:00,19,1010.4,0.8,83,16,500,22.224,,,220,,,,,,,,,,,wg-a,,,,AAXX 05124 07207 32400 62212 10190 20160 30054 40104 51008 85902 91200=
07207,1999-07-05 18:00:00,18,1011.7,0.7,83,15,500,7.408,,,260,15.6,19.3,,,,,,,,2,wg-a,,,,AAXX 05184 07207 32400 62604 10180 20150 30066 40117 53007 70282 83963 91800 333 10193 20156=
07207,1999-07-06 00:00:00,16,1013.9,1.1,94,15,0,7.408,,,300,,,,,,,,,,,wg-a,,,,AAXX 06004 07207 32/// /3004 10160 20150 30088 40139 51011 90000=
07207,1999-07-06 06:00:00,16,1016.6,1.9,94,15,20000,14.816,,,10,15.4,19,,,,,,,,,wg-a,,,,AAXX 06064 07207 32570 50108 10160 20150 30115 40166 53019 83230 90600 333 10190 20154=
07207,1999-07-06 12:00:00,19,1020.3,1.5,83,16,20000,18.52,,,290,,,,,,,,,,,wg-a,,,,AAXX 06124 07207 32570 42910 10190 20160 30152 40203 51015 83201 91200=
07207,1999-07-06 18:00:00,19,1022.6,0.9,78,15,500,22.224,,,300,16.4,20,,,,,,,,,wg-a,,,,AAXX 06184 07207 32500 63012 10190 20150 30175 40226 53009 82204 91800 333 10200 20164=
07207,1999-07-07 00:00:00,16,1025.6,1,88,14,0,22.224,,,340,,,,,,,,,,,wg-a,,,,AAXX 07004 07207 32/// /3412 10160 20140 30204 40256 51010 90000=
07207,1999-07-07 06:00:00,16,1027.3,1.2,77,12,35000,7.408,,,340,14.1,18.3,,,,,,,,,wg-a,,,,AAXX 07064 07207 32681 73404 10160 20120 30221 40273 51012 875// 90600 333 10183 20141=
07207,1999-07-07 12:00:00,19,1028.7,0.3,73,14,35000,14.816,,,290,,,,,,,,,,,wg-a,,,,AAXX 07124 07207 32681 72908 10190 20140 30236 40287 52003 875// 91200=
07207,1999-07-07 18:00:00,18,1028.7,0.3,83,15,0,14.816,,,320,16.4,19.7,,,,,,,,,wg-a,,,,AAXX 07184 07207 32/// /3208 10180 20150 30236 40287 53003 91800 333 10197 20164=
07207,1999-07-08 00:00:00,17,1029.3,-0.1,88,15,0,18.52,,,20,,,,,,,,,,,wg-a,,,,AAXX 08004 07207 32/// /0210 10170 20150 30241 40293 56001 90000=
07207,1999-07-08 06:00:00,16,1029.6,0.7,88,14,25000,18.52,,,80,15.6,18.4,,,,,,,,,wg-a,,,,AAXX 08064 07207 32575 60810 10160 20140 30244 40296 51007 84202 90600 333 10184 20156=
07207,1999-07-08 12:00:00,21,1029,-1.1,73,16,500,7.408,,,120,,,,,,,,,,,wg-a,,,,AAXX 08124 07207 32/00 61204 10210 20160 30239 40290 58011 80002 91200=
07207,1999-07-08 18:00:00,22,1026.6,-1.2,73,17,500,18.52,,,340,16.3,24.2,,,,,,,,,wg-a,,,,AAXX 08184 07207 32/00 33410 10220 20170 30215 40266 56012 80001 91800 333 10242 20163=
07207,1999-07-09 00:00:00,19,1025.9,-0.6,83,16,0,29.632,,,50,,,,,,,,,,,wg-a,,,,AAXX 09004 07207 32/// /0516 10190 20160 30208 40259 57006 90000=
07207,1999-07-09 06:00:00,19,1025,0.1,83,16,8000,25.928,,,70,18,22.2,,,,,,,,,wg-a,,,,AAXX 09064 07207 32/58 00714 10190 20160 30199 40250 53001 80000 90600 333 10222 20180=
07207,1999-07-09 12:00:00,25,1023.4,-1,50,14,10000,25.928,,,80,,,,,,,,,,,wg-a,,,,AAXX 09124 07207 32/60 00814 10250 20140 30184 40234 58010 80000 91200=
07207,1999-07-09 18:00:00,26,1021.1,-0.9,54,16,15000,14.816,,,10,18.8,27.2,,,,,,,,,wg-a,,,,AAXX 09184 07207 32/65 30108 10260 20160 30161 40211 56009 80001 91800 333 10272 20188=
07207,1999-07-10 00:00:00,20,1020.8,-0.5,78,16,0,29.632,,,50,,,,,,,,,,,wg-a,,,,AAXX 10004 07207 32/// /0516 10200 20160 30157 40208 58005 90000=
07207,1999-07-10 06:00:00,19,1020.7,0.9,78,15,18000,29.632,,,50,17.6,25.3,,,,,,,,,wg-a,,,,AAXX 10064 07207 32/68 40516 10190 20150 30156 40207 53009 80002 90600 333 10253 20176=
07207,1999-07-10 12:00:00,26,1019.2,-1.1,48,14,20000,25.928,,,50,,,,,,,,,,,wg-a,,,,AAXX 10124 07207 32570 20514 10260 20140 30142 40192 57011 82200 91200=
07207,1999-07-10 18:00:00,24,1018.1,-0.3,61,16,500,25.928,,,20,18.8,27,,,,,,,,,wg-a,,,,AAXX 10184 07207 32500 20214 10240 20160 30131 40181 55003 82200 91800 333 10270 20188=
07207,1999-07-11 00:00:00,20,1018.6,-0.6,60,12,0,31.484,,,40,,,,,,,,,,,wg-a,,,,AAXX 11004 07207 32/// /0417 10200 20120 30135 40186 57006 90000=
07207,1999-07-11 06:00:00,18,1018,0.2,64,11,500,25.928,,,40,17.9,24.2,,,,,,,,,wg-a,,,,AAXX 11064 07207 32/00 70414 10180 20110 30129 40180 52002 8702/ 90600 333 10242 20179=
07207,1999-07-11 12:00:00,24,1016.6,-0.8,69,18,25000,29.632,,,30,,,,,,,,,,,wg-a,,,,AAXX 11124 07207 32/75 60316 10240 20180 30116 40166 58008 86030 91200=
07207,1999-07-11 18:00:00,26,1014.7,-0.6,61,18,20000,29.632,,,30,16.8,27.7,,,,,,,,,wg-a,,,,AAXX 11184 07207 32/70 40316 10260 20180 30098 40147 55006 80002 91800 333 10277 20168=
07207,1999-07-12 00:00:00,20,1014.9,-0.5,78,16,0,29.632,,,40,,,,,,,,,,,wg-a,,,,AAXX 12004 07207 32/// /0416 10200 20160 30099 40149 58005 90000=
07207,1999-07-12 06:00:00,19,1014,0.3,83,16,20000,31.484,,,40,18.5,25.7,,,,,,,,,wg-a,,,,AAXX 12064 07207 32/70 50417 10190 20160 30090 40140 53003 82032 90600 333 10257 20185=
07207,1999-07-12 12:00:00,27,1013.5,-0.2,58,18,20000,22.224,,,30,,,,,,,,,,,wg-a,,,,AAXX 12124 07207 32/70 00312 10270 20180 30086 40135 58002 80000 91200=
07207,1999-07-12 18:00:00,26,1011.7,-0.7,61,18,15000,22.224,,,10,19,28.5,,,,,,,,,wg-a,,,,AAXX 12184 07207 32465 20112 10260 20180 30068 40117 56007 82300 91800 333 10285 20190=
07207,1999-07-13 00:00:00,18,1012.7,-0.2,88,16,0,14.816,,,20,,,,,,,,,,,wg-a,,,,AAXX 13004 07207 32/// /0208 10180 20160 30076 40127 58002 90000=
07207,1999-07-13 06:00:00,17,1011.6,-0,88,15,8000,29.632,,,20,16.2,26.3,,,,,,,,,wg-a,,,,AAXX 13064 07207 32/58 00216 10170 20150 30065 40116 55000 80000 90600 333 10263 20162=
07207,1999-07-13 12:00:00,22,1013.3,0.3,78,18,8000,14.816,,,300,,,,,,,,,,,wg-a,,,,AAXX 13124 07207 32558 23008 10220 20180 30083 40133 53003 81101 91200=
07207,1999-07-13 18:00:00,19,1013.8,0.4,83,16,15000,31.484,,53.708,310,17.5,22.4,,,,,,,,,wg-a,,,,AAXX 13184 07207 32/65 63117 10190 20160 30088 40138 52004 84032 91800 333 10224 20175 91029=
07207,1999-07-14 00:00:00,17,1015.7,0.2,94,16,0,22.224,,,290,,,,,,,,,,,wg-a,,,,AAXX 14004 07207 32/// /2912 10170 20160 30106 40157 50002 90000=
07207,1999-07-14 06:00:00,17,1016.6,1.1,77,13,25000,22.224,,,310,16.2,18.9,,,,,,,,,wg-a,,,,AAXX 14064 07207 32675 73112 10170 20130 30115 40166 53011 875// 90600 333 10189 20162=
07207,1999-07-14 12:00:00,18,1017.7,0.5,73,13,25000,25.928,,,290,,,,,,,,,,,wg-a,,,,AAXX 14124 07207 32675 82914 10180 20130 30126 40177 51005 885// 91200=
07207,1999-07-14 18:00:00,18,1017.4,0,73,13,25000,29.632,,,290,16.7,19.4,,,,,,,,,wg-a,,,,AAXX 14184 07207 32675 72916 10180 20130 30123 40174 50000 875// 91800 333 10194 20167=
07207,1999-07-15 00:00:00,18,1017.4,-0.5,83,15,0,14.816,,,270,,,,,,,,,,,wg-a,,,,AAXX 15004 07207 32/// /2708 10180 20150 30123 40174 58005 90000=
07207,1999-07-15 06:00:00,17,1016.8,0.4,94,16,25000,22.224,,,330,16.3,17.7,,,,,,,,2,wg-a,,,,AAXX 15064 07207 32575 73312 10170 20160 30117 40168 52004 70282 878// 90600 333 10177 20163=
07207,1999-07-15 12:00:00,21,1018.6,0.5,78,17,500,18.52,,,290,,,,,,,,,,,wg-a,,,,AAXX 15124 07207 32500 32910 10210 20170 30136 40186 51005 83200 91200=
07207,1999-07-15 18:00:00,19,1019.5,0.3,78,15,500,25.928,,,320,17.3,20.8,,,,,,,,,wg-a,,,,AAXX 15184 07207 32/00 23214 10190 20150 30144 40195 51003 80001 91800 333 10208 20173=
07207,1999-07-16 00:00:00,15,1021.7,1.1,82,12,0,14.816,,,20,,,,,,,,,,,wg-a,,,,AAXX 16004 07207 32/// /0208 10150 20120 30165 40217 53011 90000=
07207,1999-07-16 06:00:00,14,1022.2,0.5,88,12,500,11.112,,,30,11.7,19,,,,,,,,,wg-a,,,,AAXX 16064 07207 32/00 40306 10140 20120 30170 40222 53005 80002 90600 333 10190 20117=
07207,1999-07-16 12:00:00,19,1022.8,0.2,64,12,500,7.408,,,230,,,,,,,,,,,wg-a,,,,AAXX 16124 07207 32500 32304 10190 20120 30177 40228 50002 83200 91200=
07207,1999-07-16 18:00:00,20,1020.7,-1,64,13,500,11.112,,,330,14.5,20.2,,,,,,,,,wg-a,,,,AAXX 16184 07207 32/00 03306 10200 20130 30156 40207 57010 80000 91800 333 10202 20145=
07207,1999-07-17 00:00:00,16,1019.5,-0.6,88,14,0,18.52,,,30,,,,,,,,,,,wg-a,,,,AAXX 17004 07207 32/// /0310 10160 20140 30144 40195 58006 90000=
07207,1999-07-17 06:00:00,17,1018.1,-0.3,88,15,500,25.928,,,60,15.2,19.9,,,,,,,,,wg-a,,,,AAXX 17064 07207 32/00 20614 10170 20150 30130 40181 57003 82030 90600 333 10199 20152=
07207,1999-07-17 12:00:00,23,1018.5,0.2,65,16,500,7.408,,,270,,,,,,,,,,,wg-a,,,,AAXX 17124 07207 32500 32704 10230 20160 30135 40185 51002 82231 91200=
07207,1999-07-17 18:00:00,22,1016.7,-1.1,65,15,25000,22.224,,,340,16.5,24.4,,,,,,,,,wg-a,,,,AAXX 17184 07207 32/75 63412 10220 20150 30117 40167 58011 83082 91800 333 10244 20165=
07207,1999-07-18 00:00:00,17,1016.9,-0.1,88,15,0,29.632,,,40,,,,,,,,,,,wg-a,,,,AAXX 18004 07207 32/// /0416 10170 20150 30118 40169 57001 90000=
07207,1999-07-18 06:00:00,16,1015.8,-0.3,94,15,15000,7.408,,,30,14.7,22.2,,,,,,,,,wg-a,,,,AAXX 18064 07207 32/65 40304 10160 20150 30107 40158 55003 80002 90600 333 10222 20147=
07207,1999-07-18 12:00:00,19,1015,-0.1,83,16,18000,11.112,,,260,,,,,,,,,,,wg-a,,,,AAXX 18124 07207 32/68 32606 10190 20160 30100 40150 56001 80001 91200=
07207,1999-07-18 18:00:00,18,1014.4,-0.6,83,15,500,31.484,,,290,16.4,20.8,,,,,,,,,wg-a,,,,AAXX 18184 07207 32500 32917 10180 20150 30093 40144 56006 81101 91800 333 10208 20164=
07207,1999-07-19 00:00:00,17,1015.7,0.3,82,14,0,18.52,,,280,,,,,,,,,,,wg-a,,,,AAXX 19004 07207 32/// /2810 10170 20140 30106 40157 53003 90000=
07207,1999-07-19 06:00:00,17,1014.8,-0.1,94,16,500,11.112,,,250,16.5,18.4,,,,,,,,,wg-a,,,,AAXX 19064 07207 32600 72506 10170 20160 30097 40148 56001 875// 90600 333 10184 20165=
07207,1999-07-19 12:00:00,18,1015.6,0.6,100,18,7000,11.112,,,220,,,,1,,,,,,20,wg-a,,,,AAXX 19124 07207 12357 82206 10180 20180 30105 40156 51006 60017 72052 887// 91200=
07207,1999-07-19 18:00:00,19,1014.8,-0.8,88,17,500,22.224,,,230,17.3,20.3,,,,,,,,,wg-a,,,,AAXX 19184 07207 32500 52312 10190 20170 30098 40148 56008 85200 91800 333 10203 20173=
07207,1999-07-20 00:00:00,18,1013.9,-1,94,17,0,29.632,,,230,,,,,,,,,,,wg-a,,,,AAXX 20004 07207 32/// /2316 10180 20170 30088 40139 58010 90000=
07207,1999-07-20 06:00:00,18,1013.6,0.7,94,17,15000,25.928,,,270,17.5,19,,0,,,,,,21,wg-a,,,,AAXX 20064 07207 12565 62714 10180 20170 30085 40136 53007 60007 72161 86800 90600 333 10190 20175=
07207,1999-07-20 12:00:00,19,1015.4,0.5,88,17,12000,29.632,,,240,,,,,,,,,,,wg-a,,,,AAXX 20124 07207 32562 52416 10190 20170 30104 40154 51005 84802 91200=
07207,1999-07-20 18:00:00,19,1016.8,0.7,83,16,20000,11.112,,,290,17.9,20,,,,,,,,1,wg-a,,,,AAXX 20184 07207 32670 72906 10190 20160 30117 40168 53007 70152 8653/ 91800 333 10200 20179=
07207,1999-07-21 00:00:00,17,1018.8,0.8,88,15,0,14.816,,,300,,,,,,,,,,,wg-a,,,,AAXX 21004 07207 32/// /3008 10170 20150 30137 40188 52008 90000=
07207,1999-07-21 06:00:00,17,1020.7,1.7,72,12,25000,14.816,,,340,15.1,18.8,,,,,,,,,wg-a,,,,AAXX 21064 07207 32675 73408 10170 20120 30156 40207 53017 875// 90600 333 10188 20151=
07207,1999-07-21 12:00:00,20,1022.9,0.7,60,12,500,14.816,,,290,,,,,,,,,,,wg-a,,,,AAXX 21124 07207 32500 62908 10200 20120 30178 40229 51007 84230 91200=
07207,1999-07-21 18:00:00,18,1022.7,-0.1,59,10,0,22.224,,,310,16.5,20.5,,,,,,,,,wg-a,,,,AAXX 21184 07207 32/// /3112 10180 20100 30176 40227 58001 91800 333 10205 20165=
07207,1999-07-22 00:00:00,16,1023.7,0.1,63,9,0,22.224,,,330,,,,,,,,,,,wg-a,,,,AAXX 22004 07207 32/// /3312 10160 20090 30185 40237 53001 90000=
07207,1999-07-22 06:00:00,16,1023.8,0.5,72,11,500,25.928,,,330,15.4,18.5,,,,,,,,,wg-a,,,,AAXX 22064 07207 32500 63314 10160 20110 30186 40238 53005 86800 90600 333 10185 20154=
07207,1999-07-22 12:00:00,18,1025.8,0.3,64,11,35000,22.224,,,330,,,,,,,,,,,wg-a,,,,AAXX 22124 07207 32581 73312 10180 20110 30207 40258 53003 8427/ 91200=
07207,1999-07-22 18:00:00,18,1025.4,-0.3,64,11,0,25.928,,,10,15.8,19.2,,,,,,,,,wg-a,,,,AAXX 22184 07207 32/// /0114 10180 20110 30203 40254 56003 91800 333 10192 20158=
07207,1999-07-23 00:00:00,15,1026.9,0.4,77,11,0,14.816,,,20,,,,,,,,,,,wg-a,,,,AAXX 23004 07207 32/// /0208 10150 20110 30217 40269 51004 90000=
07207,1999-07-23 06:00:00,15,1026.5,-0,82,12,500,11.112,,,30,14.4,17.8,,,,,,,,,wg-a,,,,AAXX 23064 07207 32500 70306 10150 20120 30213 40265 55000 878// 90600 333 10178 20144=
07207,1999-07-23 12:00:00,19,1026.9,-0.1,68,13,500,11.112,,,130,,,,,,,,,,,wg-a,,,,AAXX 23124 07207 32600 51306 10190 20130 30218 40269 58001 85500 91200=
07207,1999-07-23 18:00:00,20,1024.7,-1.3,64,13,500,11.112,,,300,15.2,21.1,,,,,,,,,wg-a,,,,AAXX 23184 07207 32/00 03006 10200 20130 30196 40247 56013 80000 91800 333 10211 20152=
07207,1999-07-24 00:00:00,16,1024.3,-0.5,82,13,0,25.928,,,50,,,,,,,,,,,wg-a,,,,AAXX 24004 07207 32/// /0514 10160 20130 30192 40243 58005 90000=
07207,1999-07-24 06:00:00,16,1023.4,-0.1,82,13,500,18.52,,,80,14.6,20.2,,,,,,,,,wg-a,,,,AAXX 24064 07207 32/00 00810 10160 20130 30182 40234 56001 80000 90600 333 10202 20146=
07207,1999-07-24 12:00:00,22,1022.1,-1.5,53,12,25000,7.408,,,140,,,,,,,,,,,wg-a,,,,AAXX 24124 07207 32/75 01404 10220 20120 30171 40221 58015 80000 91200=
07207,1999-07-24 18:00:00,23,1018.7,-1.6,57,14,20000,18.52,,,340,16,26.5,,,,,,,,,wg-a,,,,AAXX 24184 07207 32/70 03410 10230 20140 30137 40187 56016 80000 91800 333 10265 20160=
07207,1999-07-25 00:00:00,18,1018.3,-0.4,83,15,0,25.928,,,50,,,,,,,,,,,wg-a,,,,AAXX 25004 07207 32/// /0514 10180 20150 30132 40183 58004 90000=
07207,1999-07-25 06:00:00,19,1017.4,-0.2,78,15,0,29.632,,,60,16.6,23.5,,,,,,,,,wg-a,,,,AAXX 25064 07207 32/// /0616 10190 20150 30123 40174 56002 90600 333 10235 20166=
07207,1999-07-25 12:00:00,27,1015.6,-1.3,39,12,25000,25.928,,,90,,,,,,,,,,,wg-a,,,,AAXX 25124 07207 32/75 00914 10270 20120 30107 40156 58013 80000 91200=
07207,1999-07-25 18:00:00,24,1014.4,-0.4,57,15,500,18.52,,,330,18.6,29.4,,,,,,,,,wg-a,,,,AAXX 25184 07207 32/00 03310 10240 20150 30094 40144 56004 80000 91800 333 10294 20186=
07207,1999-07-26 00:00:00,21,1014.4,-0.4,73,16,0,29.632,,,40,,,,,,,,,,,wg-a,,,,AAXX 26004 07207 32/// /0416 10210 20160 30094 40144 56004 90000=
07207,1999-07-26 06:00:00,21,1013.8,0.3,73,16,18000,31.484,,,60,19.9,23.9,,,,,,,,,wg-a,,,,AAXX 26064 07207 32/68 20617 10210 20160 30088 40138 52003 80002 90600 333 10239 20199=
07207,1999-07-26 12:00:00,30,1014.1,0.4,40,15,20000,29.632,,61.116,90,,,,,,,,,,,wg-a,,,,AAXX 26124 07207 32/70 40916 10300 20150 30092 40141 50004 80002 91200 333 91033=
07207,1999-07-26 18:00:00,30,1012.6,-0.7,43,16,25000,22.224,,,70,20.7,31.2,,,,,,,,,wg-a,,,,AAXX 26184 07207 32/75 50712 10300 20160 30077 40126 56007 80002 91800 333 10312 20207=
07207,1999-07-27 00:00:00,21,1013.7,0.8,78,17,0,42.596,,,50,,,,,,,,,,,wg-a,,,,AAXX 27004 07207 32/// /0523 10210 20170 30087 40137 51008 90000=
07207,1999-07-27 06:00:00,20,1013.3,-0.3,78,16,18000,42.596,,,60,19.1,29.6,,,,,,,,,wg-a,,,,AAXX 27064 07207 32/68 40623 10200 20160 30083 40133 56003 80002 90600 333 10296 20191=
07207,1999-07-27 12:00:00,26,1013,0.4,54,16,20000,38.892,,68.524,50,,,,,,,,,,,wg-a,,,,AAXX 27124 07207 32/70 60521 10260 20160 30081 40130 53004 84032 91200 333 91037=
07207,1999-07-27 18:00:00,26,1012.9,0.2,58,17,20000,25.928,,64.82,40,19.5,27.9,,,,,,,,,wg-a,,,,AAXX 27184 07207 32/70 80414 10260 20170 30080 40129 53002 83038 91800 333 10279 20195 91035=
07207,1999-07-28 06:00:00,18,1015.2,0.4,83,15,20000,29.632,,,40,17.5,25.6,,,,,,,,,wg-a,,,,AAXX 28064 07207 32/70 60416 10180 20150 30101 40152 53004 80009 90600 333 10256 20175=
07207,1999-07-28 12:00:00,26,1016.5,0.5,54,16,15000,11.112,,,50,,,,,,,,,,,wg-a,,,,AAXX 28124 07207 32/65 50506 10260 20160 30116 40165 51005 80008 91200=
07207,1999-07-28 17:00:00,21.8,1016.5,-0.3,79,18,,14.816,,,310,,,,,,,,,,,og-post,,,,AAXX 28174 07207 36/// /3108 10218 20180 30115 40165 58003=
07207,1999-07-28 18:00:00,22,1016.4,-0.3,78,18,12000,18.52,,,320,17.8,26,,,,,,,,,wg-a,,,,AAXX 28184 07207 32/62 33210 10220 20180 30114 40164 55003 80002 91800 333 10260 20178=
07207,1999-07-29 00:00:00,21,1017.6,-0,83,18,0,22.224,,,40,,,,,,,,,,,wg-a,,,,AAXX 29004 07207 32/// /0412 10210 20180 30126 40176 54000 90000=
07207,1999-07-29 06:00:00,19,1017.6,0.2,73,14,12000,18.52,,,50,18.3,21.9,,,,,,,,,wg-a,,,,AAXX 29064 07207 32/62 00510 10190 20140 30125 40176 53002 80000 90600 333 10219 20183=
07207,1999-07-29 12:00:00,23,1017.8,-0.2,73,18,9000,11.112,,,280,,,,,,,,,,,wg-a,,,,AAXX 29124 07207 32/59 22806 10230 20180 30128 40178 58002 80002 91200=
07207,1999-07-30 00:00:00,18,1016.8,-0.6,94,17,0,22.224,,,330,,,,,,,,,,,wg-a,,,,AAXX 30004 07207 32/// /3312 10180 20170 30117 40168 58006 90000=
07207,1999-07-30 06:00:00,17,1016.1,-0.1,100,17,3000,18.52,,,320,16.9,20.3,,,,,,,,10,wg-a,,,,AAXX 30064 07207 32530 73210 10170 20170 30110 40161 56001 71022 86602 90600 333 10203 20169=
07207,1999-07-30 12:00:00,20,1016.2,-0.3,83,17,8000,18.52,,,290,,,,,,,,,,,wg-a,,,,AAXX 30124 07207 32/58 32910 10200 20170 30112 40162 57003 80001 91200=
07207,1999-07-30 18:00:00,20,1015.1,-0.6,78,16,12000,18.52,,,310,17,21,,,,,,,,,wg-a,,,,AAXX 30184 07207 32562 43110 10200 20160 30101 40151 58006 81301 91800 333 10210 20170=
07207,1999-07-31 00:00:00,18,1015.2,-0.3,88,16,0,22.224,,,350,,,,,,,,,,,wg-a,,,,AAXX 31004 07207 32/// /3512 10180 20160 30101 40152 57003 90000=
07207,1999-07-31 06:00:00,16,1014.9,0.4,88,14,6000,18.52,,,350,15,19.7,,,,,,,,,wg-a,,,,AAXX 31064 07207 32/56 73510 10160 20140 30098 40149 53004 82039 90600 333 10197 20150=
07207,1999-07-31 12:00:00,20,1014.6,-0.2,78,16,10000,11.112,,,310,,,,,,,,,,,wg-a,,,,AAXX 31124 07207 32/60 73106 10200 20160 30096 40146 56002 8707/ 91200=
07207,1999-07-31 18:00:00,21,1013.2,-0.6,78,17,25000,18.52,,,320,15.7,22.1,,,,,,,,,wg-a,,,,AAXX 31184 07207 32/75 33210 10210 20170 30082 40132 56006 83030 91800 333 10221 20157=
07207,1999-08-01 00:00:00,18,1014.2,0.3,88,16,0,22.224,,,20,,,,,,,,,,,wg-a,,,,AAXX 01004 07207 32/// /0212 10180 20160 30091 40142 53003 90000=
07207,1999-08-01 06:00:00,16,1014.9,0.8,94,15,3000,11.112,,,20,15.9,20.6,,,,,,,,10,wg-a,,,,AAXX 01064 07207 32630 40206 10160 20150 30098 40149 53008 71000 82530 90600 333 10206 20159=
07207,1999-08-01 18:00:00,21,1014.3,-0.7,69,15,25000,11.112,,,290,16,22.7,,,,,,,,,wg-a,,,,AAXX 01184 07207 32/75 52906 10210 20150 30093 40143 57007 83032 91800 333 10227 20160=
07207,1999-08-02 00:00:00,18,1014.7,-0.3,94,17,0,7.408,,,310,,,,,,,,,,,wg-a,,,,AAXX 02004 07207 32/// /3104 10180 20170 30096 40147 58003 90000=
07207,1999-08-02 06:00:00,18,1013.7,-0.2,94,17,20000,3.704,,,270,17.5,21.1,,0,,,,,,,wg-a,,,,AAXX 02064 07207 12/70 62702 10180 20170 30086 40137 56002 60007 83031 90600 333 10211 20175=
07207,1999-08-02 12:00:00,20,1013.1,-0.4,88,18,20000,14.816,,,160,,,,,,,,,,,wg-a,,,,AAXX 02124 07207 32570 81608 10200 20180 30081 40131 56004 82170 91200=
07207,1999-08-02 18:00:00,19,1011.9,-0.9,94,18,20000,18.52,,,330,18.1,22.1,,2,,,,,,3,wg-a,,,,AAXX 02184 07207 12470 73310 10190 20180 30069 40119 56009 60027 70362 879// 91800 333 10221 20181=
07207,1999-08-03 00:00:00,18,1013,0.2,88,16,0,14.816,,,300,,,,,,,,,,,wg-a,,,,AAXX 03004 07207 32/// /3008 10180 20160 30079 40130 53002 90000=
07207,1999-08-03 06:00:00,17,1013.1,0.4,94,16,500,7.408,,,110,16,18.7,,,,,,,,,wg-a,,,,AAXX 03064 07207 32500 51104 10170 20160 30080 40131 53004 85800 90600 333 10187 20160=
07207,1999-08-03 12:00:00,20,1012.9,-0,88,18,500,14.816,,,150,,,,,,,,,,,wg-a,,,,AAXX 03124 07207 32500 61508 10200 20180 30079 40129 55000 83231 91200=
07207,1999-08-03 18:00:00,20,1011.3,-1.2,83,17,35000,11.112,,,120,17,22.5,,,,,,,,,wg-a,,,,AAXX 03184 07207 32581 51206 10200 20170 30063 40113 56012 82232 91800 333 10225 20170=
07207,1999-08-04 00:00:00,17,1010,-0.9,94,16,0,14.816,,,40,,,,,,,,,,,wg-a,,,,AAXX 04004 07207 32/// /0408 10170 20160 30049 40100 58009 90000=
07207,1999-08-04 06:00:00,19,1006.3,-1.5,83,16,25000,25.928,,,100,16.7,19.9,,0,,,,,,2,wg-a,,,,AAXX 04064 07207 12575 81014 10190 20160 30013 40063 58015 60007 70262 8327/ 90600 333 10199 20167=
07207,1999-08-04 18:00:00,20,1007.7,0.8,88,18,25000,14.816,,,270,18.1,20.9,,,,,,,,2,wg-a,,,,AAXX 04184 07207 32575 62708 10200 20180 30027 40077 53008 70298 84830 91800 333 10209 20181=
07207,1999-08-05 00:00:00,18,1010.6,1.4,88,16,0,22.224,,,280,,,,,,,,,,,wg-a,,,,AAXX 05004 07207 32/// /2812 10180 20160 30056 40106 52014 90000=
07207,1999-08-05 06:00:00,19,1011.4,0.6,83,16,0,29.632,,,220,17.9,20.2,,,,,,,,,wg-a,,,,AAXX 05064 07207 32/// /2216 10190 20160 30064 40114 53006 90600 333 10202 20179=
07207,1999-08-05 12:00:00,20,1012.7,0.5,83,17,0,25.928,,,220,,,,,,,,,,,wg-a,,,,AAXX 05124 07207 32/// /2214 10200 20170 30077 40127 51005 91200=
07207,1999-08-05 18:00:00,20,1012.1,-0.6,83,17,500,18.52,,,220,18.8,21.3,,,,,,,,,wg-a,,,,AAXX 05184 07207 32500 62210 10200 20170 30071 40121 58006 83270 91800 333 10213 20188=
07207,1999-08-06 00:00:00,19,1011.4,-0.9,94,18,0,7.408,,,140,,,,,,,,,,,wg-a,,,,AAXX 06004 07207 32/// /1404 10190 20180 30064 40114 56009 90000=
07207,1999-08-06 06:00:00,18,1008.1,-2.1,100,18,12000,11.112,,,70,18.1,19.9,,,,,,,,,wg-a,,,,AAXX 06064 07207 32/62 70706 10180 20180 30031 40081 56021 8707/ 90600 333 10199 20181=
07207,1999-08-06 12:00:00,20,1006.7,-0.9,88,18,12000,3.704,,,320,,,,0,,,,,,2,wg-a,,,,AAXX 06124 07207 12562 63202 10200 20180 30017 40067 58009 60007 70262 8429/ 91200=
07207,1999-08-06 18:00:00,20,1007,0.1,83,17,500,22.224,,,280,18.2,22.9,,,,,,,,,wg-a,,,,AAXX 06184 07207 32400 62812 10200 20170 30020 40070 53001 83332 91800 333 10229 20182=
07207,1999-08-07 00:00:00,19,1008.1,-0.3,83,16,0,22.224,,,240,,,,,,,,,,,wg-a,,,,AAXX 07004 07207 32/// /2412 10190 20160 30031 40081 58003 90000=
07207,1999-08-07 06:00:00,19,1006.7,-0.3,83,16,500,14.816,,,200,18.3,20.6,,,,,,,,,wg-a,,,,AAXX 07064 07207 32500 42008 10190 20160 30017 40067 56003 83202 90600 333 10206 20183=
07207,1999-08-07 12:00:00,21,1004.7,-1.5,83,18,500,18.52,,,120,,,,,,,,,,,wg-a,,,,AAXX 07124 07207 32500 51210 10210 20180 39997 40047 56015 83232 91200=
07207,1999-08-07 18:00:00,21,997.6,-3.7,83,18,25000,18.52,,,110,18.4,21.6,,,,,,,,,wg-a,,,,AAXX 07184 07207 32675 81110 10210 20180 39927 49976 58037 885// 91800 333 10216 20184=
07207,1999-08-08 00:00:00,18,997.3,-0.1,83,15,0,18.52,,,270,,,,,,,,,,,wg-a,,,,AAXX 08004 07207 32/// /2710 10180 20150 39923 49973 55001 90000=
07207,1999-08-08 06:00:00,19,996.5,0.1,83,16,15000,38.892,,68.524,230,17.3,21.4,,1,,,,,,25,wg-a,,,,AAXX 08064 07207 12465 62321 10190 20160 39915 49965 53001 60017 72582 86900 90600 333 10214 20173 91037=
07207,1999-08-08 12:00:00,18,998.6,1.2,83,15,10000,38.892,,68.524,230,,,,0,,,,,,81,wg-a,,,,AAXX 08124 07207 12460 72321 10180 20150 39936 49986 53012 60007 78182 879// 91200 333 91037=
07207,1999-08-08 18:00:00,19,999.7,-0.1,83,16,25000,31.484,,90.748,230,15.9,20.6,,,,,,,,1,wg-a,,,,AAXX 08184 07207 02575 62317 10190 20160 39947 49997 57001 61000 70182 84232 91800 333 10206 20159 //// 91049=
07207,1999-08-09 00:00:00,18,1000.3,-0.6,88,16,0,18.52,,,160,,,,,,,,,,,wg-a,,,,AAXX 09004 07207 32/// /1610 10180 20160 39953 40003 56006 90000=
07207,1999-08-09 06:00:00,18,999.3,-0,88,16,15000,46.3,,79.636,220,16.1,19.6,,2,,,,,,25,wg-a,,,,AAXX 09064 07207 12465 72225 10180 20160 39943 49993 55000 60027 72598 879// 90600 333 10196 20161 91043=
07207,1999-08-09 12:00:00,19,1000.4,0.5,88,17,20000,35.188,,75.932,240,,,,1,,,,,,2,wg-a,,,,AAXX 09124 07207 12470 62419 10190 20170 39954 40004 52005 60017 70282 84902 91200 333 91041=
07207,1999-08-09 18:00:00,19,1004.7,2.4,88,17,0,31.484,,,280,16.7,19.5,,,,,,,,,wg-a,,,,AAXX 09184 07207 32/// /2817 10190 20170 39997 40047 51024 91800 333 10195 20167=
07207,1999-08-10 00:00:00,18,1009,1.6,88,16,0,22.224,,,290,,,,,,,,,,,wg-a,,,,AAXX 10004 07207 32/// /2912 10180 20160 30040 40090 51016 90000=
07207,1999-08-10 06:00:00,17,1012.3,2,88,15,20000,22.224,,,320,17.3,19.1,,,,,,,,,wg-a,,,,AAXX 10064 07207 32570 63212 10170 20150 30072 40123 53020 85230 90600 333 10191 20173=
07207,1999-08-10 12:00:00,20,1016.4,1.4,78,16,25000,22.224,,,290,,,,,,,,,,,wg-a,,,,AAXX 10124 07207 32575 52912 10200 20160 30114 40164 51014 82232 91200=
07207,1999-08-10 18:00:00,19,1019.1,1.4,73,14,500,22.224,,,290,17.4,20.6,,,,,,,,,wg-a,,,,AAXX 10184 07207 32500 52912 10190 20140 30140 40191 53014 81202 91800 333 10206 20174=
07207,1999-08-11 00:00:00,18,1021.3,0.4,83,15,0,14.816,,,330,,,,,,,,,,,wg-a,,,,AAXX 11004 07207 32/// /3308 10180 20150 30162 40213 51004 90000=
07207,1999-08-11 06:00:00,17,1021.6,0.6,88,15,20000,0,,,0,16.3,19.2,,,,,,,,,wg-a,,,,AAXX 11064 07207 32570 70000 10170 20150 30165 40216 53006 878// 90600 333 10192 20163=
07207,1999-08-11 12:00:00,19,1021.8,0.1,78,15,25000,7.408,,,250,,,,,,,,,,,wg-a,,,,AAXX 11124 07207 32575 72504 10190 20150 30167 40218 50001 878// 91200=
07207,1999-08-11 18:00:00,17,1020.1,-0.7,88,15,500,14.816,,,210,16.7,19.9,,,,,,,,,wg-a,,,,AAXX 11184 07207 32600 82108 10170 20150 30150 40201 58007 885// 91800 333 10199 20167=
07207,1999-08-12 00:00:00,17,1019.9,-0.4,94,16,0,3.704,,,90,,,,,,,,,,,wg-a,,,,AAXX 12004 07207 32/// /0902 10170 20160 30148 40199 58004 90000=
07207,1999-08-12 06:00:00,16,1019.4,0.2,88,14,500,7.408,,,90,15.5,17.6,,,,,,,,,wg-a,,,,AAXX 12064 07207 32500 60904 10160 20140 30143 40194 53002 86800 90600 333 10176 20155=
07207,1999-08-12 12:00:00,20,1020.3,-0.1,78,16,500,11.112,,,160,,,,,,,,,,,wg-a,,,,AAXX 12124 07207 32500 61606 10200 20160 30152 40203 58001 82232 91200=
07207,1999-08-12 18:00:00,20,1019.8,-0.1,78,16,500,11.112,,,260,15.7,21.4,,,,,,,,,wg-a,,,,AAXX 12184 07207 32/00 32606 10200 20160 30147 40198 55001 83030 91800 333 10214 20157=
07207,1999-08-13 00:00:00,18,1019,-1,88,16,0,7.408,,,260,,,,,,,,,,,wg-a,,,,AAXX 13004 07207 32/// /2604 10180 20160 30139 40190 58010 90000=
07207,1999-08-13 06:00:00,18,1017.8,-0.9,88,16,500,11.112,,,250,17.3,20.1,,0,,,,,,,wg-a,,,,AAXX 13064 07207 12500 52506 10180 20160 30127 40178 55009 60007 83202 90600 333 10201 20173=
07207,1999-08-13 12:00:00,20,1017.5,-0.6,78,16,500,14.816,,,240,,,,,,,,,,,wg-a,,,,AAXX 13124 07207 32500 62408 10200 20160 30125 40175 56006 84232 91200=
07207,1999-08-13 18:00:00,19,1015.4,-1.4,78,15,35000,25.928,,,260,18,20.5,,,,,,,,,wg-a,,,,AAXX 13184 07207 32581 62614 10190 20150 30103 40154 58014 84832 91800 333 10205 20180=
07207,1999-08-14 00:00:00,18,1013,-1.4,94,17,0,31.484,,,260,,,,,,,,,,,wg-a,,,,AAXX 14004 07207 32/// /2617 10180 20170 30080 40130 57014 90000=
07207,1999-08-14 06:00:00,17,1010.2,-1,88,15,9000,29.632,,57.412,280,16.7,19.1,,,,,,,,50,wg-a,,,,AAXX 14064 07207 02459 82816 10170 20150 30051 40102 55010 61000 75022 885// 90600 333 10191 20167 //// 91031=
07207,1999-08-14 12:00:00,20,1009.4,-0.1,83,17,20000,35.188,,57.412,290,,,,0,,,,,,1,wg-a,,,,AAXX 14124 07207 12570 72919 10200 20170 30044 40094 55001 60007 70165 878// 91200 333 91031=
07207,1999-08-14 18:00:00,19,1011,1,73,14,500,25.928,,64.82,300,16.8,20.8,,,,,,,,,wg-a,,,,AAXX 14184 07207 32500 53014 10190 20140 30060 40110 51010 85200 91800 333 10208 20168 91035=
07207,1999-08-15 00:00:00,17,1012.6,1.5,77,13,500,22.224,,,310,,,,,,,,,,,wg-a,,,,AAXX 15004 07207 32500 63112 10170 20130 30075 40126 52015 86800 90000=
07207,1999-08-15 06:00:00,17,1013.3,0.4,82,14,500,14.816,,,290,16,18.3,,,,,,,,,wg-a,,,,AAXX 15064 07207 32500 62908 10170 20140 30082 40133 53004 86800 90600 333 10183 20160=
07207,1999-08-15 12:00:00,19,1013.6,0.2,73,14,500,14.816,,,270,,,,,,,,,,,wg-a,,,,AAXX 15124 07207 32500 72708 10190 20140 30086 40136 52002 86830 91200=
07207,1999-08-15 18:00:00,18,1012.5,-0.7,73,13,500,18.52,,,280,16.8,19.5,,,,,,,,,wg-a,,,,AAXX 15184 07207 32500 82810 10180 20130 30074 40125 56007 868// 91800 333 10195 20168=
07207,1999-08-16 00:00:00,15,1011.7,-0.9,88,13,0,3.704,,,20,,,,,,,,,,,wg-a,,,,AAXX 16004 07207 32/// /0202 10150 20130 30066 40117 58009 90000=
07207,1999-08-16 06:00:00,16,1011,0.1,88,14,15000,3.704,,,70,14.2,17.7,,,,,,,,15,wg-a,,,,AAXX 16064 07207 32565 80702 10160 20140 30059 40110 53001 71522 882// 90600 333 10177 20142=
07207,1999-08-16 12:00:00,19,1011.5,0,83,16,500,11.112,,,280,,,,,,,,,,2,wg-a,,,,AAXX 16124 07207 32500 62806 10190 20160 30065 40115 50000 70282 8523/ 91200=
07207,1999-08-16 18:00:00,17,1011.7,-0.1,77,13,500,22.224,,,290,15.6,20,,,,,,,,,wg-a,,,,AAXX 16184 07207 32500 62912 10170 20130 30066 40117 57001 82204 91800 333 10200 20156=
07207,1999-08-17 00:00:00,17,1012.2,-0.3,77,13,0,18.52,,,280,,,,,,,,,,,wg-a,,,,AAXX 17004 07207 32/// /2810 10170 20130 30071 40122 58003 90000=
07207,1999-08-17 06:00:00,17,1010.4,-0.4,77,13,25000,25.928,,,260,16.7,17.6,,,,,,,,,wg-a,,,,AAXX 17064 07207 32575 82614 10170 20130 30053 40104 56004 8327/ 90600 333 10176 20167=
07207,1999-08-17 12:00:00,19,1008.6,-1.4,73,14,25000,35.188,,68.524,240,,,,1,,,,,,1,wg-a,,,,AAXX 17124 07207 12575 52419 10190 20140 30036 40086 58014 60017 70182 82231 91200 333 91037=
07207,1999-08-17 18:00:00,18,1004.9,-2.6,88,16,15000,42.596,,68.524,240,14.7,19.1,,,,,,,,,wg-a,,,,AAXX 17184 07207 32565 72423 10180 20160 39999 40049 58026 8623/ 91800 333 10191 20147 91037=
07207,1999-08-18 00:00:00,17,1002.7,0.2,88,15,0,35.188,,,280,,,,2,,,,,,,wg-a,,,,AAXX 18004 07207 12/// /2819 10170 20150 39977 40027 50002 60027 90000=
07207,1999-08-18 06:00:00,16,1003.1,0.6,88,14,12000,35.188,,75.932,270,15,18.5,,0,,,,,,16,wg-a,,,,AAXX 18064 07207 12562 72719 10160 20140 39980 40031 53006 60007 71682 879// 90600 333 10185 20150 91041=
07207,1999-08-18 12:00:00,18,1006.6,2.3,68,12,25000,38.892,,64.82,280,,,,,,,,,,1,wg-a,,,,AAXX 18124 07207 32575 52821 10180 20120 30016 40066 51023 70182 85200 91200 333 91035=
07207,1999-08-18 18:00:00,18,1009.9,1.6,73,13,0,38.892,,,280,15.8,19,,,,,,,,,wg-a,,,,AAXX 18184 07207 32/// /2821 10180 20130 30048 40099 51016 91800 333 10190 20158=
07207,1999-08-19 00:00:00,16,1013.1,1.1,82,13,0,29.632,,,280,,,,,,,,,,,wg-a,,,,AAXX 19004 07207 32/// /2816 10160 20130 30080 40131 51011 90000=
07207,1999-08-19 06:00:00,17,1014.5,0.8,77,13,20000,22.224,,,280,16,17.5,,,,,,,,,wg-a,,,,AAXX 19064 07207 32570 32812 10170 20130 30094 40145 52008 82230 90600 333 10175 20160=
07207,1999-08-19 12:00:00,20,1017.1,0.7,64,13,0,22.224,,,290,,,,,,,,,,,wg-a,,,,AAXX 19124 07207 32/// /2912 10200 20130 30120 40171 50007 91200=
07207,1999-08-19 18:00:00,18,1017.9,0.6,77,14,500,18.52,,,290,16.1,20,,,,,,,,,wg-a,,,,AAXX 19184 07207 32500 42910 10180 20140 30128 40179 53006 82102 91800 333 10200 20161=
07207,1999-08-20 00:00:00,15,1020.4,0.7,88,13,0,14.816,,,330,,,,,,,,,,,wg-a,,,,AAXX 20004 07207 32/// /3308 10150 20130 30152 40204 51007 90000=
07207,1999-08-20 06:00:00,14,1020.9,0.4,94,13,25000,0,,,0,13.3,17.8,,,,,,,,,wg-a,,,,AAXX 20064 07207 32575 50000 10140 20130 30157 40209 53004 84202 90600 333 10178 20133=
07207,1999-08-20 12:00:00,19,1022.1,0.2,68,13,500,11.112,,,240,,,,,,,,,,,wg-a,,,,AAXX 20124 07207 32500 52406 10190 20130 30170 40221 50002 84202 91200=
07207,1999-08-20 18:00:00,18,1021.3,-0.8,68,12,25000,11.112,,,290,14.6,20.5,,,,,,,,,wg-a,,,,AAXX 20184 07207 32/75 72906 10180 20120 30162 40213 56008 86077 91800 333 10205 20146=
07207,1999-08-21 00:00:00,16,1021.3,-0.6,88,14,0,14.816,,,40,,,,,,,,,,,wg-a,,,,AAXX 21004 07207 32/// /0408 10160 20140 30162 40213 58006 90000=
07207,1999-08-21 06:00:00,17,1020.1,-0,82,14,0,18.52,,,90,15,17.9,,,,,,,,,wg-a,,,,AAXX 21064 07207 32/// /0910 10170 20140 30150 40201 55000 90600 333 10179 20150=
07207,1999-08-21 12:00:00,22,1020.3,-0.3,57,13,500,11.112,,,110,,,,,,,,,,,wg-a,,,,AAXX 21124 07207 32/00 61106 10220 20130 30153 40203 58003 85031 91200=
07207,1999-08-21 18:00:00,23,1018.6,-0.8,50,12,500,11.112,,,70,17.3,23.7,,,,,,,,,wg-a,,,,AAXX 21184 07207 32/00 60706 10230 20120 30136 40186 56008 83082 91800 333 10237 20173=
07207,1999-08-22 00:00:00,20,1019.1,-0.2,64,13,0,29.632,,,100,,,,,,,,,,,wg-a,,,,AAXX 22004 07207 32/// /1016 10200 20130 40191 58002 90000=
07207,1999-08-22 06:00:00,18,1017.3,-0.3,73,13,25000,22.224,,,110,17.5,22.5,,,,,,,,,wg-a,,,,AAXX 22064 07207 32/75 61112 10180 20130 30122 40173 55003 84032 90600 333 10225 20175=
07207,1999-08-22 12:00:00,20,1016.9,-0.5,73,15,500,18.52,,,120,,,,,,,,,,,wg-a,,,,AAXX 22124 07207 32/00 61210 10200 20150 30119 40169 57005 85031 91200=
07207,1999-08-22 18:00:00,19,1015.6,-0.7,88,17,25000,7.408,,,240,17.7,22.4,,,,,,,,,wg-a,,,,AAXX 22184 07207 32/75 62404 10190 20170 30106 40156 56007 86070 91800 333 10224 20177=
07207,1999-08-23 00:00:00,19,1015.8,0.2,94,18,0,11.112,,,260,,,,,,,,,,,wg-a,,,,AAXX 23004 07207 32/// /2606 10190 20180 30107 40158 51002 90000=
07207,1999-08-23 06:00:00,18,1015.7,0.3,100,18,12000,11.112,,,290,18,19.3,,,,,,,,,wg-a,,,,AAXX 23064 07207 32562 62906 10180 20180 30106 40157 53003 82271 90600 333 10193 20180=
07207,1999-08-23 12:00:00,21,1016.8,0.4,83,18,15000,3.704,,,220,,,,,,,,,,,wg-a,,,,AAXX 23124 07207 32565 62202 10210 20180 30118 40168 53004 82271 91200=
07207,1999-08-23 18:00:00,19,1015.3,-0.6,94,18,20000,11.112,,,140,18.1,21.9,,,,,,,,,wg-a,,,,AAXX 23184 07207 32/70 81406 10190 20180 30103 40153 58006 8809/ 91800 333 10219 20181=
07207,1999-08-24 00:00:00,19,1015,-1,94,18,0,18.52,,,170,,,,,,,,,,,wg-a,,,,AAXX 24004 07207 32/// /1710 10190 20180 30100 40150 56010 90000=
07207,1999-08-24 06:00:00,19,1014.1,-0,94,18,8000,7.408,,,130,18.4,19.3,,0,,,,,,,wg-a,,,,AAXX 24064 07207 12558 71304 10190 20180 30091 40141 55000 60007 8663/ 90600 333 10193 20184=
07207,1999-08-24 12:00:00,23,1014.4,0.2,73,18,25000,7.408,,,130,,,,,,,,,,,wg-a,,,,AAXX 24124 07207 32/75 51304 10230 20180 30094 40144 53002 80002 91200=
07207,1999-08-24 18:00:00,23,1013,-0.3,73,18,15000,0,,,0,18.7,24.3,,,,,,,,,wg-a,,,,AAXX 24184 07207 32/65 40000 10230 20180 30080 40130 56003 82032 91800 333 10243 20187=
07207,1999-08-25 00:00:00,21,1012.5,-0.7,73,16,0,11.112,,,60,,,,,,,,,,,wg-a,,,,AAXX 25004 07207 32/// /0606 10210 20160 30075 40125 55007 90000=
07207,1999-08-25 06:00:00,20,1009.4,-1.8,83,17,12000,25.928,,,30,18.4,23.6,,,,,,,,17,wg-a,,,,AAXX 25064 07207 32462 80314 10200 20170 30044 40094 58018 71792 8/99/ 90600 333 10236 20184=
07207,1999-08-25 12:00:00,21,1011,0.4,83,18,15000,18.52,,,310,,,,11,,,,,,1,wg-a,,,,AAXX 25124 07207 12/65 73110 10210 20180 30060 40110 53004 60117 70196 84092 91200=
07207,1999-08-25 18:00:00,20,1012.2,0.6,94,19,10000,11.112,,,250,19.7,23.6,,,,,,,,,wg-a,,,,AAXX 25184 07207 32/60 72506 10200 20190 30072 40122 53006 8707/ 91800 333 10236 20197=
07207,1999-08-26 00:00:00,20,1013.5,0.3,88,18,0,22.224,,,260,,,,,,,,,,,wg-a,,,,AAXX 26004 07207 32/// /2612 10200 20180 30085 40135 50003 90000=
07207,1999-08-26 06:00:00,18,1015,1.1,94,17,20000,7.408,,,290,18.3,20.2,,,,,,,,,wg-a,,,,AAXX 26064 07207 32570 62904 10180 20170 30099 40150 53011 86800 90600 333 10202 20183=
07207,1999-08-26 12:00:00,21,1017.4,0.8,73,16,500,18.52,,,280,,,,,,,,,,,wg-a,,,,AAXX 26124 07207 32500 32810 10210 20160 30124 40174 51008 83200 91200=
07207,1999-08-26 18:00:00,19,1018.5,0.5,73,14,500,14.816,,,310,18.2,21.6,,,,,,,,,wg-a,,,,AAXX 26184 07207 32500 63108 10190 20140 30134 40185 53005 83202 91800 333 10216 20182=
07207,1999-08-27 00:00:00,16,1020.1,0.6,94,15,0,7.408,,,340,,,,,,,,,,,wg-a,,,,AAXX 27004 07207 32/// /3404 10160 20150 30150 40201 51006 90000=
07207,1999-08-27 06:00:00,16,1020.5,0.3,94,15,20000,7.408,,,80,15.3,19.1,,,,,,,,,wg-a,,,,AAXX 27064 07207 32/70 60804 10160 20150 30154 40205 53003 86030 90600 333 10191 20153=
07207,1999-08-27 12:00:00,21,1021.5,-0,64,14,500,11.112,,,140,,,,,,,,,,,wg-a,,,,AAXX 27124 07207 32500 51406 10210 20140 30164 40215 54000 82232 91200=
07207,1999-08-27 18:00:00,20,1021.9,0.1,73,15,0,18.52,,,330,16.2,22.1,,,,,,,,,wg-a,,,,AAXX 27184 07207 32/// /3310 10200 20150 30168 40219 53001 91800 333 10221 20162=
07207,1999-08-28 00:00:00,17,1022.9,0.5,88,15,0,22.224,,,60,,,,,,,,,,,wg-a,,,,AAXX 28004 07207 32/// /0612 10170 20150 30178 40229 53005 90000=
07207,1999-08-28 06:00:00,17,1023.5,0.5,82,14,500,22.224,,,70,16.4,19.8,,,,,,,,,wg-a,,,,AAXX 28064 07207 32/00 60712 10170 20140 30184 40235 53005 86070 90600 333 10198 20164=
07207,1999-08-28 12:00:00,22,1024,0,65,15,500,14.816,,,140,,,,,,,,,,,wg-a,,,,AAXX 28124 07207 32500 41408 10220 20150 30189 40240 50000 82231 91200=
07207,1999-08-28 18:00:00,21,1022.4,-1,69,15,35000,14.816,,,330,17.1,23,,,,,,,,,wg-a,,,,AAXX 28184 07207 32/81 03308 10210 20150 30173 40224 56010 80000 91800 333 10230 20171=
07207,1999-08-29 00:00:00,18,1022.6,-0.4,83,15,0,25.928,,,50,,,,,,,,,,,wg-a,,,,AAXX 29004 07207 32/// /0514 10180 20150 30175 40226 58004 90000=
07207,1999-08-29 06:00:00,16,1021.3,-0.2,94,15,12000,18.52,,,80,15.7,21.1,,,,,,,,,wg-a,,,,AAXX 29064 07207 32/62 40810 10160 20150 30162 40213 55002 80005 90600 333 10211 20157=
07207,1999-08-29 12:00:00,21,1021.1,-0.5,73,16,12000,7.408,,,230,,,,,,,,,,,wg-a,,,,AAXX 29124 07207 32/62 32304 10210 20160 30161 40211 58005 80001 91200=
07207,1999-08-29 18:00:00,20,1020.3,-0.4,83,17,20000,18.52,,,330,16,23.4,,,,,,,,,wg-a,,,,AAXX 29184 07207 32/70 83310 10200 20170 30152 40203 58004 86072 91800 333 10234 20160=
07207,1999-08-30 00:00:00,19,1020.4,-0.5,78,15,0,22.224,,,30,,,,,,,,,,,wg-a,,,,AAXX 30004 07207 32/// /0312 10190 20150 30153 40204 58005 90000=
07207,1999-08-30 06:00:00,18,1020.1,0,83,15,20000,3.704,,,350,17.1,20.1,,,,,,,,,wg-a,,,,AAXX 30064 07207 32670 73502 10180 20150 30150 40201 50000 8553/ 90600 333 10201 20171=
07207,1999-08-30 12:00:00,24,1020.6,0,57,15,25000,3.704,,,240,,,,,,,,,,,wg-a,,,,AAXX 30124 07207 32575 22402 10240 20150 30156 40206 50000 82200 91200=
07207,1999-08-30 18:00:00,21,1019.7,-0.4,78,17,25000,22.224,,,340,17.5,25.3,,,,,,,,,wg-a,,,,AAXX 30184 07207 32575 23412 10210 20170 30147 40197 55004 82230 91800 333 10253 20175=
07207,1999-08-31 00:00:00,16,1020.5,-0.2,94,15,0,22.224,,,30,,,,,,,,,,,wg-a,,,,AAXX 31004 07207 32/// /0312 10160 20150 30154 40205 57002 90000=
07207,1999-08-31 06:00:00,14,1020.6,0.2,94,13,25000,14.816,,,20,14.3,21.1,,,,,,,,,wg-a,,,,AAXX 31064 07207 32/75 20208 10140 20130 30154 40206 53002 80001 90600 333 10211 20143=
07207,1999-08-31 12:00:00,22,1021.5,0,53,12,500,7.408,,,20,,,,,,,,,,,wg-a,,,,AAXX 31124 07207 32/00 30204 10220 20120 30165 40215 50000 80001 91200=
07207,1999-08-31 18:00:00,19,1020.2,-0.9,78,15,500,18.52,,,340,14.3,22.5,,,,,,,,,wg-a,,,,AAXX 31184 07207 32/00 53410 10190 20150 30151 40202 56009 80004 91800 333 10225 20143=
07207,1999-09-01 00:00:00,15.6,1013,0.2,82,12.5,,25,90.748,68.524,280,,,,,,,,,,,,,,,
07207,1999-09-01 01:00:00,15.9,1012.7,0.3,81,12.6,,25,79.636,72.228,280,,,,,,,,,,,,,,,
07207,1999-09-01 02:00:00,15.3,1013.1,0.2,86,13,,23,,,280,,,,,,,,,,,,,,,
07207,1999-09-01 03:00:00,16,1012.7,-0.3,82,12.9,,23,79.636,,280,,,,,,,,,,,,,,7,
07207,1999-09-01 04:00:00,16,1012.7,-0.1,80,12.6,,23,61.116,,280,,,,,,,,,,,,,,,
07207,1999-09-01 05:00:00,16.1,1013,-0,81,12.8,,21,61.116,61.116,280,,,,,,,,,,,,,,,
07207,1999-09-01 06:00:00,16,1013.2,0.7,79,12.4,,21,79.636,,290,14.5,16.3,,,,,,,,,,,,8,
07207,1999-09-01 07:00:00,16.6,1013.4,0.8,69,10.9,,21,64.82,,280,,,,,,,,,,,,,,,
07207,1999-09-01 08:00:00,16.6,1013.7,0.8,78,12.7,,17,,,270,,,,,,,,,,,,,,,
07207,1999-09-01 09:00:00,16.5,1014.3,0.9,77,12.5,,17,64.82,,270,,,,,,,,,,,,,,,
07207,1999-09-01 10:00:00,16.4,1013.9,0.6,82,13.3,,17,,,270,,,,,,,,,,,,,,,
07207,1999-09-01 11:00:00,16.4,1014.1,0.3,79,12.7,,19,,,270,,,,,,,,,,,,,,,
07207,1999-09-01 12:00:00,16.5,1013.8,-0.4,83,13.6,14816,17,64.82,,270,,,,,,,,,,,,,,8,
07207,1999-09-01 15:00:00,16.6,1012.3,-1.7,83,13.7,24076,19,,,260,,,,,,,,,,,,,,8,
07207,1999-09-01 16:00:00,16.5,1011.6,-1.5,84,13.8,,19,,,260,,,,,,,,,,,,,,,
07207,1999-09-01 17:00:00,16.3,1011.4,-1.3,84,13.6,,21,,,260,,,,,,,,,,,,,,,
07207,1999-09-01 18:00:00,16.5,1011,-1.2,86,14.1,,17,,,260,15.4,17.2,,,,,,,,15,,,,8,
07207,1999-09-01 20:00:00,16.7,1010.7,-0.8,83,13.8,,23,61.116,,260,,,,,,,,,,,,,,,
07207,1999-09-02 00:00:00,17,1020.8,-0.5,88,15,0,31.484,,,50,,,,,,,,,,,wg-a,,,,AAXX 02004 07207 32/// /0517 10170 20150 30157 40208 58005 90000=
07207,1999-09-02 06:00:00,17,1019.9,-0.1,94,16,15000,25.928,,,70,16.8,21.7,,,,,,,,,wg-a,,,,AAXX 02064 07207 32/65 20714 10170 20160 30148 40199 55001 80001 90600 333 10217 20168=
07207,1999-09-02 12:00:00,26,1019,-1,51,15,20000,25.928,,,80,,,,,,,,,,,wg-a,,,,AAXX 02124 07207 32/70 20814 10260 20150 30140 40190 58010 80001 91200=
07207,1999-09-02 18:00:00,25,1016,-1,47,13,20000,18.52,,,70,17.3,27.9,,,,,,,,,wg-a,,,,AAXX 02184 07207 32/70 00710 10250 20130 30110 40160 56010 80000 91800 333 10279 20173=
07207,1999-09-03 00:00:00,19,1015.7,-1,88,17,0,22.224,,,40,,,,,,,,,,,wg-a,,,,AAXX 03004 07207 32/// /0412 10190 20170 30106 40157 56010 90000=
07207,1999-09-03 06:00:00,18,1014.7,-0,77,14,20000,29.632,,,60,17.8,25,,,,,,,,,wg-a,,,,AAXX 03064 07207 32/70 10616 10180 20140 30096 40147 55000 81030 90600 333 10250 20178=
07207,1999-09-03 12:00:00,21,1015.2,0.1,53,11,20000,25.928,,,60,,,,,,,,,,,wg-a,,,,AAXX 03124 07207 32/70 50614 10210 20110 30102 40152 50001 85050 91200=
07207,1999-09-03 18:00:00,21,1015.2,-0.1,60,13,20000,18.52,,,10,18.1,22.9,,,,,,,,,wg-a,,,,AAXX 03184 07207 32/70 70110 10210 20130 30102 40152 55001 85078 91800 333 10229 20181=
07207,1999-09-04 00:00:00,17,1016.7,-0.1,77,13,0,29.632,,,40,,,,,,,,,,,wg-a,,,,AAXX 04004 07207 32/// /0416 10170 20130 30116 40167 55001 90000=
07207,1999-09-04 06:00:00,17,1016.4,0.4,82,14,20000,29.632,,,50,16.3,20.7,,,,,,,,,wg-a,,,,AAXX 04064 07207 32/70 10516 10170 20140 30113 40164 53004 80001 90600 333 10207 20163=
07207,1999-09-04 12:00:00,25,1017.2,-0.6,50,14,20000,22.224,,,50,,,,,,,,,,,wg-a,,,,AAXX 04124 07207 32/70 20512 10250 20140 30122 40172 58006 80001 91200=
07207,1999-09-04 18:00:00,22,1015.5,-0.5,73,17,500,22.224,,,350,16.8,26.4,,,,,,,,,wg-a,,,,AAXX 04184 07207 32/00 03512 10220 20170 30105 40155 58005 80000 91800 333 10264 20168=
07207,1999-09-05 00:00:00,18,1014.7,-1.3,88,16,0,22.224,,,40,,,,,,,,,,,wg-a,,,,AAXX 05004 07207 32/// /0412 10180 20160 30096 40147 58013 90000=
07207,1999-09-05 06:00:00,18,1012.7,-0.6,88,16,10000,18.52,,,70,17.1,21.5,,,,,,,,,wg-a,,,,AAXX 05064 07207 32/60 60710 10180 20160 30076 40127 56006 85032 90600 333 10215 20171=
07207,1999-09-05 12:00:00,22,1012.7,-0.5,73,17,12000,11.112,,,130,,,,,,,,,,,wg-a,,,,AAXX 05124 07207 32/62 41306 10220 20170 30077 40127 58005 82032 91200=
07207,1999-09-05 18:00:00,22,1010.7,-0.7,73,17,12000,7.408,,,330,17.6,23.4,,,,,,,,,wg-a,,,,AAXX 05184 07207 32462 33304 10220 20170 30057 40107 55007 82302 91800 333 10234 20176=
07207,1999-09-06 00:00:00,19,1011,-0.4,88,17,0,14.816,,,320,,,,,,,,,,,wg-a,,,,AAXX 06004 07207 32/// /3208 10190 20170 30060 40110 58004 90000=
07207,1999-09-06 06:00:00,17,1011.1,0.2,94,16,8000,18.52,,,330,16.7,21.4,,,,,,,,,wg-a,,,,AAXX 06064 07207 32/58 03310 10170 20160 30060 40111 53002 80000 90600 333 10214 20167=
07207,1999-09-06 12:00:00,21,1013.8,0.9,73,16,7000,18.52,,,270,,,,,,,,,,,wg-a,,,,AAXX 06124 07207 32657 72710 10210 20160 30088 40138 51009 875// 91200=
07207,1999-09-06 18:00:00,19,1013.3,-0.3,78,15,9000,18.52,,,280,16.8,21.3,,,,,,,,,wg-a,,,,AAXX 06184 07207 32559 52810 10190 20150 30083 40133 56003 85200 91800 333 10213 20168=
07207,1999-09-07 00:00:00,19,1015,0.2,83,16,0,11.112,,,290,,,,,,,,,,,wg-a,,,,AAXX 07004 07207 32/// /2906 10190 20160 30099 40150 53002 90000=
07207,1999-09-07 06:00:00,18,1015.2,0.5,88,16,10000,18.52,,,280,18.1,19,,,,,,,,,wg-a,,,,AAXX 07064 07207 32560 52810 10180 20160 30101 40152 53005 82171 90600 333 10190 20181=
07207,1999-09-07 12:00:00,21,1017.9,1.2,73,16,20000,18.52,,,260,,,,,,,,,,,wg-a,,,,AAXX 07124 07207 32570 52610 10210 20160 30129 40179 51012 83201 91200=
07207,1999-09-07 18:00:00,20,1019,0.1,83,17,500,11.112,,,280,18.2,21,,,,,,,,,wg-a,,,,AAXX 07184 07207 32500 52806 10200 20170 30139 40190 52001 85800 91800 333 10210 20182=
07207,1999-09-08 00:00:00,19,1020,-0.1,88,17,0,14.816,,,220,,,,,,,,,,,wg-a,,,,AAXX 08004 07207 32/// /2208 10190 20170 30149 40200 58001 90000=
07207,1999-09-08 06:00:00,19,1018.3,-0.4,88,17,15000,18.52,,,180,18.5,19.7,,,,,,,,,wg-a,,,,AAXX 08064 07207 32565 41810 10190 20170 30132 40183 55004 84200 90600 333 10197 20185=
07207,1999-09-08 12:00:00,22,1018.3,-0.4,73,17,20000,22.224,,,190,,,,,,,,,,,wg-a,,,,AAXX 08124 07207 32570 21912 10220 20170 30133 40183 57004 82200 91200=
07207,1999-09-08 18:00:00,20,1017.6,-0.3,88,18,0,18.52,,,180,18.9,22,,,,,,,,,wg-a,,,,AAXX 08184 07207 32/// /1810 10200 20180 30126 40176 58003 91800 333 10220 20189=
07207,1999-09-09 00:00:00,20,1019.5,0.6,94,19,0,14.816,,,270,,,,,,,,,,,wg-a,,,,AAXX 09004 07207 32/// /2708 10200 20190 30144 40195 51006 90000=
07207,1999-09-09 12:00:00,19,1025,1.5,83,16,20000,29.632,,,60,,,,,,,,,,,wg-a,,,,AAXX 09124 07207 32670 70616 10190 20160 30199 40250 51015 875// 91200=
07207,1999-09-09 18:00:00,19,1024.7,-0.3,88,17,500,18.52,,,50,17.1,21.5,,,,,,,,,wg-a,,,,AAXX 09184 07207 32600 70510 10190 20170 30196 40247 56003 875// 91800 333 10215 20171=
07207,1999-09-10 00:00:00,17,1024.8,-0.5,94,16,0,22.224,,,70,,,,,,,,,,,wg-a,,,,AAXX 10004 07207 32/// /0712 10170 20160 30197 40248 58005 90000=
07207,1999-09-10 06:00:00,17,1023.4,-0.5,94,16,6000,22.224,,,90,16.8,19.3,,,,,,,,,wg-a,,,,AAXX 10064 07207 32/56 10912 10170 20160 30183 40234 55005 80001 90600 333 10193 20168=
07207,1999-09-10 12:00:00,22,1022.5,-1,83,19,500,14.816,,,120,,,,,,,,,,,wg-a,,,,AAXX 10124 07207 32/00 41208 10220 20190 30175 40225 58010 80001 91200=
07207,1999-09-10 18:00:00,22,1019.5,-1.4,73,17,0,11.112,,,140,17.5,23.2,,,,,,,,,wg-a,,,,AAXX 10184 07207 32/// /1406 10220 20170 30145 40195 58014 91800 333 10232 20175=
07207,1999-09-11 00:00:00,19,1018.4,-0.9,73,14,0,7.408,,,90,,,,,,,,,,,wg-a,,,,AAXX 11004 07207 32/// /0904 10190 20140 30133 40184 58009 90000=
07207,1999-09-11 06:00:00,20,1015.9,-0.9,88,18,10000,11.112,,,120,18.6,22.6,,,,,,,,,wg-a,,,,AAXX 11064 07207 32/60 41206 10200 20180 30109 40159 56009 80001 90600 333 10226 20186=
07207,1999-09-11 12:00:00,23,1016.3,0.3,83,20,500,14.816,,,290,,,,,,,,,,,wg-a,,,,AAXX 11124 07207 32/00 62908 10230 20200 30113 40163 50003 86030 91200=
07207,1999-09-11 18:00:00,20,1016.5,0.4,83,17,25000,22.224,,,270,19.9,23.3,,,,,,,,,wg-a,,,,AAXX 11184 07207 32675 62712 10200 20170 30115 40165 53004 86500 91800 333 10233 20199=
07207,1999-09-12 00:00:00,19,1017,-0.1,88,17,0,22.224,,,280,,,,,,,,,,,wg-a,,,,AAXX 12004 07207 32/// /2812 10190 20170 30119 40170 58001 90000=
07207,1999-09-12 06:00:00,14,1017.9,0.6,88,12,20000,14.816,,,10,14.3,19.9,,,,,,,,,wg-a,,,,AAXX 12064 07207 32570 50108 10140 20120 30127 40179 53006 83202 90600 333 10199 20143=
07207,1999-09-12 12:00:00,20,1017.3,-0.6,64,13,20000,7.408,,,210,,,,,,,,,,,wg-a,,,,AAXX 12124 07207 32570 62104 10200 20130 30122 40173 58006 84208 91200=
07207,1999-09-12 18:00:00,18,1015.7,-0.6,56,9,20000,11.112,,,260,14.3,20.7,,,,,,,,,wg-a,,,,AAXX 12184 07207 32570 82606 10180 20090 30106 40157 56006 8687/ 91800 333 10207 20143=
07207,1999-09-13 00:00:00,17,1014.4,-0.9,82,14,0,22.224,,,290,,,,,,,,,,,wg-a,,,,AAXX 13004 07207 32/// /2912 10170 20140 30093 40144 56009 90000=
07207,1999-09-13 06:00:00,13,1014.1,0.2,82,10,20000,18.52,,,10,12.5,17.7,,,,,,,,,wg-a,,,,AAXX 13064 07207 32570 50110 10130 20100 30089 40141 53002 82270 90600 333 10177 20125=
07207,1999-09-14 00:00:00,15,1013.9,0.2,72,10,0,22.224,,,20,,,,,,,,,,,wg-a,,,,AAXX 14004 07207 32/// /0212 10150 20100 30088 40139 51002 90000=
07207,1999-09-14 06:00:00,13,1014.2,0.9,88,11,25000,18.52,,,350,12.1,17,,,,,,,,,wg-a,,,,AAXX 14064 07207 32575 63510 10130 20110 30090 40142 52009 84230 90600 333 10170 20121=
07207,1999-09-14 12:00:00,18,1015.4,0.4,56,9,500,18.52,,,340,,,,,,,,,,,wg-a,,,,AAXX 14124 07207 32500 53410 10180 20090 30103 40154 50004 84230 91200=
07207,1999-09-14 15:00:00,18.7,1015.3,-0.2,55,9.5,30000,18.52,,,290,,,,,,,,,,,og-post,,,,AAXX 14154 07207 32580 52910 10187 20095 30102 40153 58002 84230 222// 327// 333 92438=
07207,1999-09-14 16:00:00,18.5,1015.7,0.2,58,10.1,,14.816,,,290,,,,,,,,,,,og-post,,,,AAXX 14164 07207 36/// /2908 10185 20101 30106 40157 53002=
07207,1999-09-14 17:00:00,18.1,1016,0.6,61,10.5,,14.816,,,290,,,,,,,,,,,og-post,,,,AAXX 14174 07207 36/// /2908 10181 20105 30109 40160 53006=
07207,1999-09-14 18:00:00,17,1016.3,1,65,10.4,30000,14.816,,,290,12.7,19.7,,,,,,,,,og-post,,,,AAXX 14184 07207 32580 42908 10170 20104 30112 40163 52010 83230 222// 327// 333 10197 20127 92438=
07207,1999-09-14 19:00:00,16.3,1016.6,0.9,68,10.4,,11.112,,,290,,,,,,,,,,,og-post,,,,AAXX 14194 07207 36/// /2906 10163 20104 30115 40166 51009=
07207,1999-09-14 20:00:00,16.7,1016.9,0.8,71,11.4,,14.816,,,290,,,,,,,,,,,og-post,,,,AAXX 14204 07207 36/// /2908 10167 20114 30118 40169 53008=
07207,1999-09-14 21:00:00,15.9,1016.7,0.4,67,9.8,25000,3.704,,,320,,,,,,,,,,,og-post,,,,AAXX 14214 07207 32575 23202 10159 20098 30116 40167 50004 82200 222// 327// 333 92438=
07207,1999-09-14 22:00:00,15.5,1016.7,0.1,68,9.6,,3.704,,,110,,,,,,,,,,,og-post,,,,AAXX 14224 07207 36/// /1102 10155 20096 30116 40167 50001=
07207,1999-09-14 23:00:00,13.7,1016.9,0.1,78,9.9,,11.112,,,70,,,,,,,,,,,og-post,,,,AAXX 14234 07207 36/// /0706 10137 20099 30117 40169 53001=
07207,1999-09-15 00:00:00,14.1,1016.9,-0,79,10.5,,22.224,,,60,,,,,,,,,,,og-post,,,,AAXX 15004 07207 36/// /0612 10141 20105 30117 40169 54000=
07207,1999-09-15 01:00:00,14.2,1016.9,0,80,10.8,,18.52,,,70,,,,,,,,,,,og-post,,,,AAXX 15014 07207 36/// /0710 10142 20108 30117 40169 50000=
07207,1999-09-15 02:00:00,12.6,1016.6,-0.5,84,10,,18.52,,,80,,,,,,,,,,,og-post,,,,AAXX 15024 07207 36/// /0810 10126 20100 30114 40166 58005=
07207,1999-09-15 03:00:00,12.5,1016.4,-0.5,86,10.2,25000,18.52,,,70,,,,,,,,,,,og-post,,,,AAXX 15034 07207 32975 10710 10125 20102 30112 40164 58005 81030 222// 327// 333 92438=
07207,1999-09-15 06:00:00,12,1016.5,0.1,88,10,25000,14.816,,,90,11.2,16.9,,,,,,,,,wg-a,,,,AAXX 15064 07207 32575 30908 10120 20100 30113 40165 53001 82230 90600 333 10169 20112=
07207,1999-09-15 12:00:00,19,1016.7,-0.4,68,13,500,18.52,,,150,,,,,,,,,,,wg-a,,,,AAXX 15124 07207 32500 31510 10190 20130 30116 40167 58004 82201 91200=
07207,1999-09-15 18:00:00,17,1015.5,0.2,59,9,35000,18.52,,,250,12.4,20,,,,,,,,,wg-a,,,,AAXX 15184 07207 32581 42510 10170 20090 30104 40155 53002 82201 91800 333 10200 20124=
07207,1999-09-16 00:00:00,17,1014.1,-1.2,63,10,0,25.928,,,200,,,,,,,,,,,wg-a,,,,AAXX 16004 07207 32/// /2014 10170 20100 30090 40141 56012 90000=
07207,1999-09-16 06:00:00,19,1009.9,-1.8,83,16,25000,42.596,,,200,17,19.1,,,,,,,,,wg-a,,,,AAXX 16064 07207 32575 72023 10190 20160 30049 40099 58018 87800 90600 333 10191 20170=
07207,1999-09-16 12:00:00,19,1011.1,1.2,73,14,500,29.632,,,280,,,,,,,,,,2,wg-a,,,,AAXX 16124 07207 32500 62816 10190 20140 30061 40111 51012 70282 84202 91200=
07207,1999-09-16 18:00:00,17.6,1011.6,0.2,71,12.3,20000,18.52,,,260,17.3,19.4,,,,2,,,,15,og-post,,,,AAXX 16184 07207 11570 72610 10176 20123 30065 40116 51002 60022 71522 85232 222// 326// 333 10194 20173 92438=
07207,1999-09-16 19:00:00,16.4,1011.6,0.1,80,12.9,,18.52,,,320,,,,,,,,,,,og-post,,,,AAXX 16194 07207 36/// /3210 10164 20129 30065 40116 52001=
07207,1999-09-16 20:00:00,14.8,1011.9,0.4,87,12.7,,3.704,,,10,,,,,,,,,,,og-post,,,,AAXX 16204 07207 36/// /0102 10148 20127 30068 40119 53004=
07207,1999-09-16 21:00:00,16.3,1011.6,-0.1,85,13.8,18000,7.408,,,280,,,,,,,,,,,og-post,,,,AAXX 16214 07207 32568 62804 10163 20138 30065 40116 58001 84232 222// 326// 333 92427=
07207,1999-09-16 22:00:00,17.5,1011.2,-0.4,71,12.2,,22.224,,,260,,,,,,,,,,,og-post,,,,AAXX 16224 07207 36/// /2612 10175 20122 30061 40112 58004=
07207,1999-09-16 23:00:00,16.7,1011.1,-0.8,81,13.4,,22.224,,,290,,,,,,,,,,,og-post,,,,AAXX 16234 07207 36/// /2912 10167 20134 30060 40111 57008=
07207,1999-09-17 00:00:00,16.4,1010.7,-1,82,13.3,,22.224,,,260,,,,,,,,,,,og-post,,,,AAXX 17004 07207 36/// /2612 10164 20133 30056 40107 57010=
07207,1999-09-17 01:00:00,17,1010.6,-0.6,73,12.1,,25.928,,,260,,,,,,,,,,,og-post,,,,AAXX 17014 07207 36/// /2614 10170 20121 30055 40106 56006=
07207,1999-09-17 02:00:00,16.7,1010.4,-0.6,75,12.2,,22.224,,,280,,,,,,,,,,,og-post,,,,AAXX 17024 07207 36/// /2812 10167 20122 30053 40104 56006=
07207,1999-09-17 03:00:00,15.9,1010.2,-0.5,82,12.8,12000,18.52,,,270,,,,0.2,,,,,,25,og-post,,,,AAXX 17034 07207 21562 52710 10159 20128 30051 40102 58005 72582 84202 222// 326// 333 69927 92427=
07207,1999-09-17 04:00:00,16.3,1010,-0.6,80,12.8,,18.52,,,260,,,,,,,,,,,og-post,,,,AAXX 17044 07207 36/// /2610 10163 20128 30049 40100 57006=
07207,1999-09-17 05:00:00,16.6,1010,-0.4,73,11.7,,14.816,,,280,,,,,,,,,,,og-post,,,,AAXX 17054 07207 36/// /2808 10166 20117 30049 40100 56004=
07207,1999-09-17 06:00:00,16.5,1010,-0.2,75,12.1,20000,18.52,,,280,14.8,17.6,,,,0.2,,,,2,og-post,,,,AAXX 17064 07207 11570 52810 10165 20121 30049 40100 56002 69922 70282 84230 222// 326// 333 10176 20148 92438=
07207,1999-09-17 07:00:00,16.9,1010.2,0.2,74,12.2,,22.224,,,280,,,,,,,,,,,og-post,,,,AAXX 17074 07207 36/// /2812 10169 20122 30051 40102 53002=
07207,1999-09-17 08:00:00,17.7,1010.2,0.2,72,12.6,,18.52,,,270,,,,,,,,,,,og-post,,,,AAXX 17084 07207 36/// /2710 10177 20126 30051 40102 52002=
07207,1999-09-17 09:00:00,18.3,1010.2,0.3,67,12.1,30000,18.52,,,270,,,,,,,,,,,og-post,,,,AAXX 17094 07207 32580 52710 10183 20121 30052 40102 51003 83202 222// 326// 333 92438=
07207,1999-09-17 11:00:00,17.9,1010.2,0,70,12.4,,22.224,,,260,,,,,,,,,,,og-post,,,,AAXX 17114 07207 36/// /2612 10179 20124 30051 40102 50000=
07207,1999-09-17 12:00:00,18.2,1010,-0.1,69,12.4,30000,18.52,,,250,,,,,,,,,,,og-post,,,,AAXX 17124 07207 32580 62510 10182 20124 30050 40100 58001 84402 222// 326// 333 92438=
07207,1999-09-17 13:00:00,18.8,1010.1,-0.3,66,12.3,,22.224,,,250,,,,,,,,,,,og-post,,,,AAXX 17134 07207 36/// /2512 10188 20123 30051 40101 56003=
07207,1999-09-17 14:00:00,18,1009.9,-0.4,72,12.9,,18.52,,,250,,,,,,,,,,,og-post,,,,AAXX 17144 07207 36/// /2510 10180 20129 30049 40099 58004=
07207,1999-09-17 15:00:00,18.6,1009.1,-0.6,70,13,30000,22.224,,,250,,,,,,,,,,,og-post,,,,AAXX 17154 07207 32580 62512 10186 20130 30041 40091 58006 84402 222// 326// 333 92438=
07207,1999-09-17 16:00:00,18.5,1009,-1.1,69,12.7,,25.928,,,240,,,,,,,,,,,og-post,,,,AAXX 17164 07207 36/// /2414 10185 20127 30040 40090 58011=
07207,1999-09-17 17:00:00,17.9,1009,-0.9,73,13,,25.928,,,240,,,,,,,,,,,og-post,,,,AAXX 17174 07207 36/// /2414 10179 20130 30040 40090 56009=
07207,1999-09-17 18:00:00,17.5,1009.1,-0.5,73,12.6,30000,25.928,,,240,16.6,18.9,,,,,,,,,og-post,,,,AAXX 17184 07207 32580 62414 10175 20126 30040 40091 56005 85402 222// 326// 333 10189 20166 92438=
07207,1999-09-17 19:00:00,17,1008.7,-0.4,80,13.5,,29.632,,,220,,,,,,,,,,,og-post,,,,AAXX 17194 07207 36/// /2216 10170 20135 30036 40087 58004=
07207,1999-09-18 00:00:00,17,1006.8,-1.9,77,13,0,38.892,,,220,,,,,,,,,,,wg-a,,,,AAXX 18004 07207 32/// /2221 10170 20130 30018 40068 56019 90000=
07207,1999-09-18 06:00:00,16,1003.2,-1.2,94,15,6000,38.892,,75.932,210,15.9,17.9,,3,,,,,,61,wg-a,,,,AAXX 18064 07207 12356 82121 10160 20150 39982 40032 55012 60037 76161 887// 90600 333 10179 20159 91041=
07207,1999-09-18 12:00:00,19,999.7,-2,83,16,8000,46.3,,75.932,190,,,,,,,,,,17,wg-a,,,,AAXX 18124 07207 32358 81925 10190 20160 39947 49997 58020 71762 889// 91200 333 91041=
07207,1999-09-18 18:00:00,17,996.3,-1.6,88,15,10000,50.004,,94.452,180,15.9,18.9,,1,,,,,,26,wg-a,,,,AAXX 18184 07207 12460 81827 10170 20150 39913 49963 58016 60017 72698 889// 91800 333 10189 20159 91051=
07207,1999-09-19 00:00:00,16,993.2,-1.8,82,13,0,14.816,,,160,,,,4,,,,,,,wg-a,,,,AAXX 19004 07207 12/// /1608 10160 20130 39882 49932 56018 60047 90000=
07207,1999-09-19 06:00:00,16,991.1,-0.7,82,13,15000,11.112,,,190,14.5,18,,0,,,,,,2,wg-a,,,,AAXX 19064 07207 12465 61906 10160 20130 39861 49911 56007 60007 70282 84970 90600 333 10180 20145=
07207,1999-09-19 12:00:00,19,990.3,-0.5,73,14,0,14.816,,,140,,,,,,,,,,,wg-a,,,,AAXX 19124 07207 32/// /1408 10190 20140 39854 49903 58005 91200=
07207,1999-09-19 18:00:00,16,989.2,-0,88,14,25000,0,,,0,15.5,19.5,,1,,,,,,25,wg-a,,,,AAXX 19184 07207 12575 70000 10160 20140 39842 49892 55000 60017 72582 8627/ 91800 333 10195 20155=
07207,1999-09-20 00:00:00,16,989.4,-0.3,82,13,0,18.52,,,290,,,,,,,,,,,wg-a,,,,AAXX 20004 07207 32/// /2910 10160 20130 39844 49894 56003 90000=
07207,1999-09-20 06:00:00,16,989.2,-0,82,13,20000,18.52,,,210,13.8,16.4,,,,,,,,15,wg-a,,,,AAXX 20064 07207 32570 62110 10160 20130 39842 49892 55000 71582 86900 90600 333 10164 20138=
07207,1999-09-20 18:00:00,16,990.1,0.4,88,14,500,7.408,,,330,15.5,18,,1,,,,,,1,wg-a,,,,AAXX 20184 07207 12500 73304 10160 20140 39851 49901 53004 60017 70186 878// 91800 333 10180 20155=
07207,1999-09-21 00:00:00,17,996.1,2.2,82,14,0,35.188,,,280,,,,,,,,,,,wg-a,,,,AAXX 21004 07207 32/// /2819 10170 20140 39911 49961 51022 90000=
07207,1999-09-21 06:00:00,17,996.6,-0.2,82,14,20000,22.224,,50.004,230,15.4,17.2,,,,,,,,2,wg-a,,,,AAXX 21064 07207 32570 52312 10170 20140 39916 49966 58002 70282 85700 90600 333 10172 20154 91027=
07207,1999-09-21 12:00:00,18,994.2,-2.1,94,17,20000,35.188,,68.524,160,,,,9,,,,,,25,wg-a,,,,AAXX 21124 07207 12570 71619 10180 20170 39892 49942 58021 60097 72586 877// 91200 333 91037=
07207,1999-09-21 18:00:00,18,997.6,2,94,17,20000,35.188,,64.82,250,14.7,19.5,,,,,,,,15,wg-a,,,,AAXX 21184 07207 32570 62519 10180 20170 39926 49976 51020 71582 86200 91800 333 10195 20147 91035=
07207,1999-09-22 00:00:00,18,1000.6,0.7,94,17,0,29.632,,,230,,,,,,,,,,,wg-a,,,,AAXX 22004 07207 32/// /2316 10180 20170 39956 40006 51007 90000=
07207,1999-09-22 06:00:00,19,999.5,-0.6,88,17,15000,29.632,,,190,18.1,18.6,,,,,,,,,wg-a,,,,AAXX 22064 07207 32565 71916 10190 20170 39945 49995 58006 8577/ 90600 333 10186 20181=
07207,1999-09-22 12:00:00,20,1001.3,1.3,83,17,15000,42.596,,68.524,220,,,,,,,,,,,wg-a,,,,AAXX 22124 07207 32465 52223 10200 20170 39963 40013 53013 82330 91200 333 91037=
07207,1999-09-22 18:00:00,19,1002.4,0.5,83,16,20000,29.632,,61.116,220,18.2,20.4,,,,,,,,,wg-a,,,,AAXX 22184 07207 32470 52216 10190 20160 39974 40024 50005 83330 91800 333 10204 20182 91033=
07207,1999-09-23 00:00:00,19,1004.2,0.7,83,16,0,38.892,,,240,,,,,,,,,,,wg-a,,,,AAXX 23004 07207 32/// /2421 10190 20160 39992 40042 53007 90000=
07207,1999-09-23 06:00:00,19,1005.2,1.1,78,15,12000,50.004,,75.932,220,15.9,19,,3,,,,,,3,wg-a,,,,AAXX 23064 07207 12562 72227 10190 20150 30002 40052 51011 60037 70362 878// 90600 333 10190 20159 91041=
07207,1999-09-23 12:00:00,17,1009.1,1.6,94,16,3000,57.412,,90.748,240,,,,4,,,,,,81,wg-a,,,,AAXX 23124 07207 12430 82431 10170 20160 30040 40091 53016 60047 78198 889// 91200 333 91049=
07207,1999-09-23 18:00:00,18,1010.9,0.4,88,16,20000,46.3,,75.932,240,16.1,19.6,,1,,,,,,15,wg-a,,,,AAXX 23184 07207 12470 62425 10180 20160 30059 40109 53004 60017 71598 84930 91800 333 10196 20161 91041=
07207,1999-09-24 00:00:00,19,1013.5,0.4,83,16,0,38.892,,,220,,,,,,,,,,,wg-a,,,,AAXX 24004 07207 32/// /2221 10190 20160 30084 40135 51004 90000=
07207,1999-09-24 06:00:00,19,1013.3,0.1,83,16,20000,35.188,,,210,18.1,19,,,,,,,,,wg-a,,,,AAXX 24064 07207 32570 62119 10190 20160 30083 40133 53001 84230 90600 333 10190 20181=
07207,1999-09-24 12:00:00,20,1014.5,0.5,78,16,25000,31.484,,53.708,220,,,,,,,,,,,wg-a,,,,AAXX 24124 07207 32575 42217 10200 20160 30095 40145 53005 81232 91200 333 91029=
07207,1999-09-24 18:00:00,18,1014,0.5,88,16,20000,25.928,,75.932,250,18.1,19.9,,,,,,,,,wg-a,,,,AAXX 24184 07207 32470 42514 10180 20160 30089 40140 51005 84302 91800 333 10199 20181 91041=
07207,1999-09-25 00:00:00,18,1013.2,-1,83,15,0,35.188,,,240,,,,,,,,,,,wg-a,,,,AAXX 25004 07207 32/// /2419 10180 20150 30081 40132 57010 90000=
07207,1999-09-25 06:00:00,18,1011.2,-1,83,15,15000,31.484,,57.412,230,17.7,18.3,,,,,,,,,wg-a,,,,AAXX 25064 07207 32565 72317 10180 20150 30061 40112 56010 878// 90600 333 10183 20177 91031=
07207,1999-09-25 12:00:00,18,1009.9,-0.8,83,15,20000,35.188,,53.708,220,,,,1,,,,,,2,wg-a,,,,AAXX 25124 07207 12470 72219 10180 20150 30049 40099 58008 60017 70286 84930 91200 333 91029=
07207,1999-09-25 18:00:00,17,1008.8,-0,82,14,25000,29.632,,,280,16.9,18.4,,,,,,,,,wg-a,,,,AAXX 25184 07207 32575 52816 10170 20140 30037 40088 55000 85200 91800 333 10184 20169=
07207,1999-09-26 00:00:00,15,1009.7,0,88,13,0,29.632,,,280,,,,0,,,,,,,wg-a,,,,AAXX 26004 07207 12/// /2816 10150 20130 30046 40097 50000 60007 90000=
07207,1999-09-26 12:00:00,18,1009.6,-0.4,73,13,25000,22.224,,,250,,,,0,,,,,,2,wg-a,,,,AAXX 26124 07207 12575 62512 10180 20130 30045 40096 56004 60007 70282 85202 91200=
07207,1999-09-26 18:00:00,17,1007.8,-0.8,77,13,25000,31.484,,,240,14.3,18.1,,0,,,,,,,wg-a,,,,AAXX 26184 07207 12675 72417 10170 20130 30028 40078 57008 60007 875// 91800 333 10181 20143=
07207,1999-09-27 00:00:00,17,1005.4,-1.8,94,16,0,50.004,,,220,,,,1,,,,,,,wg-a,,,,AAXX 27004 07207 12/// /2227 10170 20160 30004 40054 58018 60017 90000=
07207,1999-09-27 06:00:00,16,1003.5,0.6,82,13,15000,35.188,,87.044,280,16.3,18,,4,,,,,,21,wg-a,,,,AAXX 27064 07207 12365 82819 10160 20130 39985 40035 53006 60047 72162 8672/ 90600 333 10180 20163 91047=
07207,1999-09-27 12:00:00,18,1005.2,0.2,73,13,0,38.892,,,260,,,,0,,,,,,,wg-a,,,,AAXX 27124 07207 12/// /2621 10180 20130 30002 40052 50002 60007 91200=
07207,1999-09-27 18:00:00,17,1004.5,-0.6,88,15,10000,38.892,,75.932,260,15.8,18.5,,1,,,,,,15,wg-a,,,,AAXX 27184 07207 12460 72621 10170 20150 39995 40045 56006 60017 71582 8683/ 91800 333 10185 20158 91041=
07207,1999-09-27 20:00:00,17.5,1004.8,-0,81,14.2,,42.596,68.524,64.82,270,,,,,,,,,,,og-post,,,,AAXX 27204 07207 36/// /2723 10175 20142 39998 40048 55000 333 91035 91137=
07207,1999-09-28 09:00:00,17.5,1010.5,,84,14.8,11000,25.928,,,260,,,,,,,,,,,og-post,,,,AAXX 28094 07207 42561 82614 10175 20148 30054 40105 888// 222// 325// 333 92447=
07207,1999-09-28 12:00:00,17.6,1010.7,0.2,92,16.3,7000,31.484,,,250,,,,2,,,,,,61,og-post,,,,AAXX 28124 07207 21457 82517 10176 20163 30056 40107 50002 76186 889// 222// 325// 333 60027 92446=
07207,1999-09-28 14:00:00,18,1010.3,-0.7,89,16.2,,38.892,61.116,,260,,,,,,,,,,,og-post,,,,AAXX 28144 07207 26/// /2621 10180 20162 30053 40103 55007 333 69905 91133=
07207,1999-09-28 15:00:00,18.1,1010.2,-0.3,88,16.1,15000,35.188,61.116,53.708,250,,,,,,,,,,21,og-post,,,,AAXX 28154 07207 21565 82519 10181 20161 30052 40102 55003 72162 887// 222// 325// 333 69907 91029 91133 92447=
07207,1999-09-28 16:00:00,18.1,1010.2,0.1,88,16.1,,35.188,61.116,,250,,,,,,,,,,,og-post,,,,AAXX 28164 07207 36/// /2519 10181 20161 30052 40102 50001 333 91133=
07207,1999-09-28 18:00:00,18.2,1010,-0.3,88,16.2,10000,42.596,68.524,,240,,,,,,,,,,15,og-post,,,,AAXX 28184 07207 41560 82423 10182 20162 30050 40100 58003 71562 887// 222// 325// 333 91137 92447=
07207,1999-09-28 20:00:00,17.1,1009.8,-0.4,96,16.5,,42.596,68.524,,240,,,3,,,,,,,,og-post,,,,AAXX 28204 07207 26/// /2423 10171 20165 30047 40098 55004 333 60035 91137=
07207,1999-09-28 21:00:00,17.9,1009.2,-0.7,92,16.6,6000,53.708,,72.228,240,,,,5,,,,,,2,og-post,,,,AAXX 28214 07207 21556 82429 10179 20166 30042 40092 58007 70262 887// 222// 325// 333 60057 91039 92446=
07207,1999-09-28 22:00:00,17.4,1008.8,-0.7,97,16.9,,50.004,79.636,,240,,,0.6,,,,,,,,og-post,,,,AAXX 28224 07207 26/// /2427 10174 20169 30038 40088 58007 333 69965 91143=
07207,1999-09-28 23:00:00,17.6,1008.7,-0.9,97,17.1,,46.3,,68.524,240,,,2,,,,,,,,og-post,,,,AAXX 28234 07207 26/// /2425 10176 20171 30037 40087 56009 333 60025 91037=
07207,1999-09-29 00:00:00,17.5,1008.3,-0.7,97,17,,50.004,79.636,72.228,250,,,,5,10,,,,,,og-post,,,,AAXX 29004 07207 /6/// /2527 10175 20170 30033 40083 57007 60101 333 60057 91039 91143=
07207,1999-09-29 01:00:00,17.6,1008,-1,97,17.1,,46.3,75.932,68.524,250,,,4,,,,,,,,og-post,,,,AAXX 29014 07207 26/// /2525 10176 20171 30030 40080 56010 333 60045 91037 91141=
07207,1999-09-29 02:00:00,17.6,1007.4,-1.1,96,17,,53.708,75.932,75.932,240,,,0.6,,,,,,,,og-post,,,,AAXX 29024 07207 26/// /2429 10176 20170 30024 40074 58011 333 69965 91041 91141=
07207,1999-09-29 03:00:00,17.7,1006.5,-1.8,96,17.1,,53.708,79.636,75.932,240,,,,6,,,,,,,og-post,,,,AAXX 29034 07207 26/// /2429 10177 20171 30015 40065 58018 333 60067 91041 91143=
07207,1999-09-29 04:00:00,17.7,1006,-2,97,17.2,,57.412,83.34,83.34,240,,,0.8,,,,,,,,og-post,,,,AAXX 29044 07207 26/// /2431 10177 20172 30010 40060 56020 333 69985 91045 91145=
07207,1999-09-29 05:00:00,17.8,1005.4,-2.1,97,17.3,,57.412,83.34,79.636,240,,,4,,,,,,,,og-post,,,,AAXX 29054 07207 26/// /2431 10178 20173 30004 40054 56021 333 60045 91043 91145=
07207,1999-09-29 07:00:00,16.7,1006.7,0.7,97,16.2,,25.928,,,270,,,2,,,,,,,,og-post,,,,AAXX 29074 07207 26/// /2714 10167 20162 30017 40067 53007 333 60025=
07207,1999-09-29 08:00:00,16.7,1006.8,1.4,95,15.9,,31.484,,,260,,,,,,,,,,,og-post,,,,AAXX 29084 07207 26/// /2617 10167 20159 30018 40068 51014 333 69905=
07207,1999-09-29 09:00:00,17.5,1006.6,0.8,86,15.1,15000,38.892,64.82,64.82,260,,,,2,,,,,,21,og-post,,,,AAXX 29094 07207 21565 82621 10175 20151 30016 40066 50008 72162 887// 222// 325// 333 60027 91035 91135 92447=
07207,1999-09-29 10:00:00,17.5,1006.4,-0.5,87,15.3,,35.188,61.116,61.116,250,,,,,,,,,,,og-post,,,,AAXX 29104 07207 36/// /2519 10175 20153 30014 40064 58005 333 91033 91133=
07207,1999-09-29 11:00:00,17.3,1006.3,-0.8,89,15.5,,42.596,64.82,64.82,240,,,0.4,,,,,,,,og-post,,,,AAXX 29114 07207 26/// /2423 10173 20155 30013 40063 56008 333 69945 91035 91135=
07207,1999-09-29 12:00:00,17.7,1006,-0.7,88,15.7,15000,42.596,64.82,,240,,,,0.4,3,,,,,25,og-post,,,,AAXX 29124 07207 /1565 82423 10177 20157 30010 40060 57007 60031 72586 8627/ 222// 325// 333 69947 91135 92447=
07207,1999-09-29 13:00:00,18.1,1005.3,-1,88,16.1,,42.596,64.82,64.82,250,,,,,,,,,,,og-post,,,,AAXX 29134 07207 36/// /2523 10181 20161 30003 40053 58010 333 91035 91135=
07207,1999-09-29 14:00:00,18.3,1004.8,-1.5,84,15.5,,35.188,68.524,,250,,,,,,,,,,,og-post,,,,AAXX 29144 07207 36/// /2519 10183 20155 39998 40048 58015 333 91137=
07207,1999-09-29 15:00:00,18.1,1004.1,-1.7,90,16.4,,42.596,72.228,64.82,240,,,,,,,,,,,og-post,,,,AAXX 29154 07207 36/// /2423 10181 20164 39991 40041 56017 333 91035 91139=
07207,1999-09-29 16:00:00,18.1,1003.6,-1.7,90,16.4,,42.596,68.524,68.524,250,,,,,,,,,,,og-post,,,,AAXX 29164 07207 36/// /2523 10181 20164 39986 40036 56017 333 91037 91137=
07207,1999-09-29 17:00:00,17.6,1002.7,-2,89,15.8,,42.596,75.932,64.82,250,,,,,,,,,,,og-post,,,,AAXX 29174 07207 36/// /2523 10176 20158 39977 40027 57020 333 91035 91141=
07207,1999-09-29 18:00:00,17.4,1002.7,-1.1,88,15.4,15000,42.596,75.932,68.524,240,16.3,18.4,,,,3,,,,,og-post,,,,AAXX 29184 07207 12365 82423 10174 20154 39977 40027 55011 60032 887// 222// 324// 333 10184 20163 91037 91141 92457=
07207,1999-09-29 19:00:00,17,1002.2,-0.9,92,15.7,,38.892,75.932,61.116,240,,,0.6,,,,,,,,og-post,,,,AAXX 29194 07207 26/// /2421 10170 20157 39972 40022 57009 333 69965 91033 91141=
07207,1999-09-29 20:00:00,17,1001,-1.8,88,15,,38.892,68.524,,240,,,,,,,,,,,og-post,,,,AAXX 29204 07207 36/// /2421 10170 20150 39960 40010 58018 333 91137=
07207,1999-09-29 21:00:00,17.1,1000.4,-2.6,90,15.4,15000,42.596,75.932,68.524,250,,,,2,,,,,,25,og-post,,,,AAXX 29214 07207 21365 82523 10171 20154 39954 40004 58026 72522 883// 222// 324// 333 60027 91037 91141 92457=
07207,1999-09-29 22:00:00,14.9,1000,-2.6,92,13.6,,38.892,72.228,72.228,260,,,2,,,,,,,,og-post,,,,AAXX 29224 07207 26/// /2621 10149 20136 39949 40000 56026 333 60025 91039 91139=
07207,1999-09-29 23:00:00,17,999,-2.2,90,15.3,,35.188,64.82,64.82,250,,,2,,,,,,,,og-post,,,,AAXX 29234 07207 26/// /2519 10170 20153 39940 49990 58022 333 60025 91035 91135=
07207,1999-09-30 00:00:00,16.9,998.1,-2.3,87,14.7,,46.3,75.932,68.524,250,,,,4,6,,,,,,og-post,,,,AAXX 30004 07207 /6/// /2525 10169 20147 39931 49981 58023 60061 333 60047 91037 91141=
07207,1999-09-30 01:00:00,15.8,997.6,-2.2,93,14.7,,46.3,83.34,72.228,260,,,1,,,,,,,,og-post,,,,AAXX 30014 07207 26/// /2625 10158 20147 39926 49976 56022 333 60015 91039 91145=
07207,1999-09-30 02:00:00,16.2,997.8,-1.2,79,12.6,,50.004,79.636,75.932,280,,,0.2,,,,,,,,og-post,,,,AAXX 30024 07207 26/// /2827 10162 20126 39928 49978 55012 333 69925 91041 91143=
07207,1999-09-30 03:00:00,15.7,998,-0.1,74,11.1,20000,50.004,83.34,75.932,280,,,,2,,,,,,2,og-post,,,,AAXX 30034 07207 21470 72827 10157 20111 39930 49980 55001 70282 873// 222// 326// 333 60027 91041 91145 92458=
07207,1999-09-30 04:00:00,15.9,997.7,0.1,81,12.6,,42.596,75.932,64.82,280,,,0.6,,,,,,,,og-post,,,,AAXX 30044 07207 26/// /2823 10159 20126 39927 49977 50001 333 69965 91035 91141=
07207,1999-09-30 05:00:00,16,997.6,-0.1,81,12.7,,42.596,75.932,68.524,270,,,,,,,,,,,og-post,,,,AAXX 30054 07207 36/// /2723 10160 20127 39926 49976 58001 333 91037 91141=
07207,1999-09-30 06:00:00,16,998.1,0.1,84,13.3,15000,42.596,83.34,,280,14,17.4,,0.6,,8,,,,2,og-post,,,,AAXX 30064 07207 /1465 72823 10160 20133 39931 49981 53001 60082 70282 873// 222// 326// 333 10174 20140 69967 91145 92447=
07207,1999-09-30 07:00:00,16.2,998.9,1.3,84,13.5,,50.004,75.932,75.932,290,,,,,,,,,,,og-post,,,,AAXX 30074 07207 36/// /2927 10162 20135 39939 49989 53013 333 91041 91141=
07207,1999-09-30 08:00:00,15.2,1000.9,3.2,92,13.9,,38.892,72.228,72.228,310,,,0.8,,,,,,,,og-post,,,,AAXX 30084 07207 26/// /3121 10152 20139 39959 40009 53032 333 69985 91039 91139=
07207,1999-09-30 09:00:00,16.5,1002.1,4.2,87,14.3,15000,31.484,75.932,,310,,,,1,,,,,,25,og-post,,,,AAXX 30094 07207 21465 63117 10165 20143 39971 40021 53042 72582 86300 222// 326// 333 60017 91141 92447=
07207,1999-09-30 10:00:00,17.1,1003.8,4.6,81,13.8,,38.892,64.82,61.116,320,,,,,,,,,,,og-post,,,,AAXX 30104 07207 36/// /3221 10171 20138 39988 40038 51046 333 91033 91135=
07207,1999-09-30 11:00:00,17.3,1005.2,4.3,82,14.2,,29.632,57.412,57.412,310,,,,,,,,,,,og-post,,,,AAXX 30114 07207 36/// /3116 10173 20142 30002 40052 53043 333 91031 91131=
07207,1999-09-30 12:00:00,17.5,1006.6,4.2,83,14.6,20000,31.484,75.932,61.116,310,,,,,1,,,,,2,og-post,,,,AAXX 30124 07207 11570 63117 10175 20146 30016 40066 51042 60011 70282 86800 222// 326// 333 91033 91141 92448=
07207,1999-09-30 13:00:00,17.5,1007,3.2,83,14.6,,31.484,61.116,61.116,290,,,,,,,,,,,og-post,,,,AAXX 30134 07207 36/// /2917 10175 20146 30020 40070 51032 333 91033 91133=
07207,1999-09-30 14:00:00,17.3,1008.2,3.1,82,14.2,,31.484,61.116,61.116,310,,,,,,,,,,,og-post,,,,AAXX 30144 07207 36/// /3117 10173 20142 30032 40082 51031 333 91033 91133=
07207,1999-09-30 15:00:00,17.4,1008.9,2.2,76,13.1,20000,31.484,61.116,57.412,300,,,,0.2,,,,,,,og-post,,,,AAXX 30154 07207 22570 53017 10174 20131 30038 40089 51022 85200 222// 326// 333 69927 91031 91133 92448=
07207,1999-09-30 16:00:00,16.8,1009.7,2.5,81,13.5,,31.484,61.116,,300,,,,,,,,,,,og-post,,,,AAXX 30164 07207 36/// /3017 10168 20135 30046 40097 51025 333 91133=
07207,1999-09-30 17:00:00,15.4,1010.4,2,85,12.9,,31.484,68.524,53.708,300,,,,,,,,,,,og-post,,,,AAXX 30174 07207 36/// /3017 10154 20129 30053 40104 53020 333 91029 91137=
07207,1999-09-30 18:00:00,16.2,1010.8,1.8,78,12.4,20000,38.892,68.524,61.116,290,15,18.2,,,,1,,,,,og-post,,,,AAXX 30184 07207 12570 62921 10162 20124 30057 40108 51018 60012 86800 222// 326// 333 10182 20150 91033 91137 92448=
07207,1999-09-30 19:00:00,16.1,1011.9,2.2,74,11.5,,38.892,64.82,64.82,290,,,,,,,,,,,og-post,,,,AAXX 30194 07207 36/// /2921 10161 20115 30068 40119 53022 333 91035 91135=
07207,1999-09-30 20:00:00,15.9,1012.3,2,77,11.9,,50.004,72.228,72.228,290,,,,,,,,,,,og-post,,,,AAXX 30204 07207 36/// /2927 10159 20119 30072 40123 51020 333 91039 91139=
07207,1999-09-30 21:00:00,16.1,1012.6,2,69,10.4,20000,50.004,90.748,75.932,290,,,,,,,,,,,og-post,,,,AAXX 30214 07207 32570 72927 10161 20104 30075 40126 51020 87800 222// 326// 333 91041 91149 92448=
07207,1999-09-30 22:00:00,15.8,1012.7,0.7,80,12.4,,42.596,79.636,68.524,290,,,,,,,,,,,og-post,,,,AAXX 30224 07207 36/// /2923 10158 20124 30076 40127 50007 333 91037 91143=
07207,1999-09-30 23:00:00,15.3,1012.7,0.3,82,12.2,,50.004,75.932,75.932,290,,,,,,,,,,,og-post,,,,AAXX 30234 07207 36/// /2927 10153 20122 30076 40127 51003 333 91041 91141=
07207,1999-10-01 00:00:00,15.6,1013,0.2,82,12.5,,46.3,90.748,68.524,280,,,,,,,,,,,og-post,,,,AAXX 01004 07207 36/// /2825 10156 20125 30079 40130 53002 333 91037 91149=
07207,1999-10-01 01:00:00,15.9,1012.7,0.3,81,12.6,,46.3,79.636,72.228,280,,,,,,,,,,,og-post,,,,AAXX 01014 07207 36/// /2825 10159 20126 30076 40127 51003 333 91039 91143=
07207,1999-10-01 02:00:00,15.3,1013.1,0.2,86,13,,42.596,,,280,,,,,,,,,,,og-post,,,,AAXX 01024 07207 36/// /2823 10153 20130 30080 40131 51002=
07207,1999-10-01 03:00:00,16,1012.7,-0.3,82,12.9,15000,42.596,79.636,,280,,,,,,,,,,,og-post,,,,AAXX 01034 07207 32565 72823 10160 20129 30076 40127 58003 87800 222// 326// 333 91143 92447=
07207,1999-10-01 04:00:00,16,1012.7,-0.1,80,12.6,,42.596,61.116,,280,,,,,,,,,,,og-post,,,,AAXX 01044 07207 36/// /2823 10160 20126 30076 40127 58001 333 91133=
07207,1999-10-01 05:00:00,16.1,1013,-0,81,12.8,,38.892,61.116,61.116,280,,,,,,,,,,,og-post,,,,AAXX 01054 07207 36/// /2821 10161 20128 30079 40130 55000 333 91033 91133=
07207,1999-10-01 06:00:00,16,1013.2,0.7,79,12.4,15000,38.892,79.636,,290,14.5,16.3,,,,,,,,,og-post,,,,AAXX 01064 07207 32565 82921 10160 20124 30081 40132 53007 888// 222// 326// 333 10163 20145 91143 92447=
07207,1999-10-01 07:00:00,16.6,1013.4,0.8,69,10.9,,38.892,64.82,,280,,,,,,,,,,,og-post,,,,AAXX 01074 07207 36/// /2821 10166 20109 30083 40134 52008 333 91135=
07207,1999-10-01 08:00:00,16.6,1013.7,0.8,78,12.7,,31.484,,,270,,,,,,,,,,,og-post,,,,AAXX 01084 07207 36/// /2717 10166 20127 30086 40137 52008=
07207,1999-10-01 09:00:00,16.5,1014.3,0.9,77,12.5,,31.484,64.82,,270,,,,,,,,,,,og-post,,,,AAXX 01094 07207 36/// /2717 10165 20125 30092 40143 51009 333 91135=
07207,1999-10-01 10:00:00,16.4,1013.9,0.6,82,13.3,,31.484,,,270,,,,,,,,,,,og-post,,,,AAXX 01104 07207 36/// /2717 10164 20133 30088 40139 51006=
07207,1999-10-01 11:00:00,16.4,1014.1,0.3,79,12.7,,35.188,,,270,,,,,,,,,,,og-post,,,,AAXX 01114 07207 36/// /2719 10164 20127 30090 40141 51003=
07207,1999-10-01 12:00:00,16.5,1013.8,-0.4,83,13.6,12000,31.484,64.82,,270,,,,,,,,,,,og-post,,,,AAXX 01124 07207 32562 82717 10165 20136 30087 40138 58004 888// 222// 326// 333 91135 92447=
07207,1999-10-01 15:00:00,16.6,1012.3,-1.7,83,13.7,20000,35.188,,,260,,,,,,,,,,,og-post,,,,AAXX 01154 07207 32570 82619 10166 20137 30072 40123 56017 8627/ 222// 326// 333 92448=
07207,1999-10-01 16:00:00,16.5,1011.6,-1.5,84,13.8,,35.188,,,260,,,,,,,,,,,og-post,,,,AAXX 01164 07207 36/// /2619 10165 20138 30065 40116 58015=
07207,1999-10-01 17:00:00,16.3,1011.4,-1.3,84,13.6,,38.892,,,260,,,,,,,,,,,og-post,,,,AAXX 01174 07207 36/// /2621 10163 20136 30063 40114 56013=
07207,1999-10-01 18:00:00,16.5,1011,-1.2,86,14.1,15000,31.484,,,260,15.4,17.2,,,,,,,,15,og-post,,,,AAXX 01184 07207 31565 82617 10165 20141 30059 40110 56012 71522 8627/ 222// 326// 333 10172 20154 92447=
07207,1999-10-01 20:00:00,16.7,1010.7,-0.8,83,13.8,,42.596,61.116,,260,,,,,,,,,,,og-post,,,,AAXX 01204 07207 36/// /2623 10167 20138 30056 40107 56008 333 91133=
07207,1999-10-02 00:00:00,16.4,1008.2,-1.9,85,13.9,,38.892,68.524,,270,,,,0.2,0.2,,,,,,og-post,,,,AAXX 02004 07207 /6/// /2721 10164 20139 30031 40082 58019 69921 333 69927 91137=
07207,1999-10-02 01:00:00,16.6,1007.2,-2.5,81,13.3,,38.892,72.228,68.524,260,,,,,,,,,,,og-post,,,,AAXX 02014 07207 36/// /2621 10166 20133 30021 40072 58025 333 91037 91139=
07207,1999-10-02 02:00:00,16.5,1006.3,-2.5,85,14,,35.188,64.82,61.116,250,,,,,,,,,,,og-post,,,,AAXX 02024 07207 36/// /2519 10165 20140 30012 40063 58025 333 91033 91135=
07207,1999-10-02 03:00:00,16.7,1005.5,-2.7,80,13.2,20000,46.3,72.228,,260,,,,,,,,,,,og-post,,,,AAXX 02034 07207 32570 62625 10167 20132 30005 40055 56027 86200 222// 326// 333 91139 92448=
07207,1999-10-02 04:00:00,16.5,1004.9,-2.3,86,14.1,,38.892,64.82,64.82,250,,,,,,,,,,,og-post,,,,AAXX 02044 07207 36/// /2521 10165 20141 39999 40049 56023 333 91035 91135=
07207,1999-10-02 05:00:00,16.6,1004.3,-2.2,83,13.7,,42.596,68.524,64.82,260,,,0.2,,,,,,,,og-post,,,,AAXX 02054 07207 26/// /2623 10166 20137 39993 40043 56022 333 69925 91035 91137=
07207,1999-10-02 07:00:00,14.8,1003.9,-0.9,95,14,,42.596,72.228,,270,,,2,,,,,,,,og-post,,,,AAXX 02074 07207 26/// /2723 10148 20140 39988 40039 56009 333 60025 91139=
07207,1999-10-02 08:00:00,16.2,1003.7,-0.4,91,14.7,,31.484,64.82,,270,,,,,,,,,,,og-post,,,,AAXX 02084 07207 26/// /2717 10162 20147 39987 40037 56004 333 69905 91135=
07207,1999-10-02 09:00:00,16.7,1004.1,0.2,85,14.2,20000,38.892,72.228,61.116,270,,,,2,,,,,,2,og-post,,,,AAXX 02094 07207 21570 72721 10167 20142 39991 40041 53002 70282 8523/ 222// 326// 333 60027 91033 91139 92447=
07207,1999-10-02 10:00:00,16.5,1003.9,0,81,13.2,,38.892,,,270,,,,,,,,,,,og-post,,,,AAXX 02104 07207 36/// /2721 10165 20132 39989 40039 50000=
07207,1999-10-02 11:00:00,14.7,1004.1,0.2,92,13.4,,31.484,64.82,,280,,,0.2,,,,,,,,og-post,,,,AAXX 02114 07207 26/// /2817 10147 20134 39990 40041 50002 333 69925 91135=
07207,1999-10-02 12:00:00,14,1005,0.6,89,12.2,25000,29.632,72.228,,330,,,,1,3,,,,,25,og-post,,,,AAXX 02124 07207 /1575 73316 10140 20122 39999 40050 53006 60031 72582 8623/ 222// 326// 333 60017 91139 92448=
07207,1999-10-02 13:00:00,15.7,1004.9,0.6,78,11.9,,22.224,,,300,,,,,,,,,,,og-post,,,,AAXX 02134 07207 36/// /3012 10157 20119 39998 40049 50006=
07207,1999-10-02 14:00:00,14.7,1004.8,0.5,83,11.8,,31.484,,,290,,,,,,,,,,,og-post,,,,AAXX 02144 07207 36/// /2917 10147 20118 39997 40048 51005=
07207,1999-10-02 15:00:00,15.7,1005,0.1,67,9.6,25000,35.188,61.116,61.116,290,,,,,,,,,,,og-post,,,,AAXX 02154 07207 32575 62919 10157 20096 39999 40050 53001 84230 222// 326// 333 91033 91133 92448=
07207,1999-10-02 16:00:00,15.1,1005.3,0.4,68,9.2,,31.484,61.116,53.708,290,,,,,,,,,,,og-post,,,,AAXX 02164 07207 36/// /2917 10151 20092 30002 40053 53004 333 91029 91133=
07207,1999-10-02 17:00:00,14.6,1005.8,1.2,69,9,,31.484,64.82,,290,,,,,,,,,,,og-post,,,,AAXX 02174 07207 36/// /2917 10146 20090 30007 40058 53012 333 91135=
07207,1999-10-02 18:00:00,13.4,1006.6,1.6,77,9.5,25000,29.632,64.82,,300,13,16.8,,,,3,,,,,og-post,,,,AAXX 02184 07207 12475 63016 10134 20095 30015 40066 53016 60032 84300 222// 326// 333 10168 20130 91135 92448=
07207,1999-10-02 19:00:00,14.3,1006.8,1.5,63,7.4,,38.892,61.116,61.116,290,,,,,,,,,,,og-post,,,,AAXX 02194 07207 36/// /2921 10143 20074 30017 40068 51015 333 91033 91133=
07207,1999-10-02 20:00:00,14.3,1007,1.2,65,7.8,,35.188,,,290,,,,,,,,,,,og-post,,,,AAXX 02204 07207 36/// /2919 10143 20078 30019 40070 51012=
07207,1999-10-02 21:00:00,14.4,1007.5,0.8,71,9.2,25000,29.632,61.116,53.708,280,,,,,,,,,,,og-post,,,,AAXX 02214 07207 32575 42816 10144 20092 30024 40075 53008 84200 222// 326// 333 91029 91133 92448=
07207,1999-10-02 22:00:00,14.6,1007.4,0.7,66,8.3,,38.892,68.524,61.116,280,,,,,,,,,,,og-post,,,,AAXX 02224 07207 36/// /2821 10146 20083 30023 40074 52007 333 91033 91137=
07207,1999-10-02 23:00:00,14.6,1007.5,0.7,67,8.5,,38.892,61.116,,280,,,,,,,,,,,og-post,,,,AAXX 02234 07207 36/// /2821 10146 20085 30024 40075 51007 333 91133=
07207,1999-10-03 00:00:00,12.7,1007.8,0.4,79,9.2,,42.596,75.932,75.932,280,,,,0.4,0.4,,,,,,og-post,,,,AAXX 03004 07207 /6/// /2823 10127 20092 30027 40078 51004 69941 333 69947 91041 91141=
07207,1999-10-03 01:00:00,13.4,1007.3,-0.2,79,9.8,,31.484,75.932,,280,,,0.2,,,,,,,,og-post,,,,AAXX 03014 07207 26/// /2817 10134 20098 30022 40073 58002 333 69925 91141=
07207,1999-10-03 02:00:00,14.4,1007,-0.7,71,9.2,,42.596,75.932,64.82,280,,,0.2,,,,,,,,og-post,,,,AAXX 03024 07207 26/// /2823 10144 20092 30019 40070 58007 333 69925 91035 91141=
07207,1999-10-03 03:00:00,14.4,1006.9,-1,66,8.1,25000,46.3,75.932,,280,,,,0.4,,,,,,,og-post,,,,AAXX 03034 07207 22475 42825 10144 20081 30018 40069 56010 84300 222// 326// 333 69947 91141 92448=
07207,1999-10-03 04:00:00,13.1,1007.1,-0.2,71,8,,50.004,87.044,79.636,290,,,2,,,,,,,,og-post,,,,AAXX 03044 07207 26/// /2927 10131 20080 30020 40071 55002 333 60025 91043 91147=
07207,1999-10-03 05:00:00,13.5,1007.3,0.6,77,9.6,,29.632,68.524,,280,,,0.6,,,,,,,,og-post,,,,AAXX 03054 07207 26/// /2816 10135 20096 30022 40073 53006 333 69965 91137=
07207,1999-10-03 06:00:00,13.1,1008.1,1.4,74,8.6,20000,29.632,94.452,53.708,300,8.8,14.7,,8,,9,,,,3,og-post,,,,AAXX 03064 07207 /1470 63016 10131 20086 30030 40081 53014 60092 70382 86300 222// 326// 333 10147 20088 60087 91029 91151 92448=
07207,1999-10-03 07:00:00,13.3,1009.4,2.3,71,8.2,,31.484,61.116,53.708,310,,,,,,,,,,,og-post,,,,AAXX 03074 07207 36/// /3117 10133 20082 30043 40094 53023 333 91029 91133=
07207,1999-10-03 08:00:00,12.9,1010.6,3.1,79,9.3,,25.928,50.004,,310,,,0.4,,,,,,,,og-post,,,,AAXX 03084 07207 26/// /3114 10129 20093 30055 40106 53031 333 69945 91127=
07207,1999-10-03 09:00:00,14.5,1011.2,3.1,72,9.5,20000,25.928,61.116,,310,,,,0.4,,,,,,2,og-post,,,,AAXX 03094 07207 21470 63114 10145 20095 30061 40112 51031 70282 84302 222// 326// 333 69947 91133 92448=
07207,1999-10-03 10:00:00,14.8,1011.9,2.7,65,8.3,,31.484,53.708,53.708,320,,,,,,,,,,,og-post,,,,AAXX 03104 07207 36/// /3217 10148 20083 30068 40119 51027 333 91029 91129=
07207,1999-10-03 11:00:00,15,1012.7,2.2,67,8.9,,31.484,,53.708,290,,,,,,,,,,,og-post,,,,AAXX 03114 07207 36/// /2917 10150 20089 30076 40127 52022 333 91029=
07207,1999-10-03 12:00:00,15.6,1013.1,1.9,71,10.4,25000,29.632,61.116,,300,,,,,0.4,,,,,1,og-post,,,,AAXX 03124 07207 11575 43016 10156 20104 30080 40131 51019 69941 70182 84200 222// 326// 333 91133 92448=
07207,1999-10-03 13:00:00,16.2,1013.3,1.1,65,9.6,,29.632,,,300,,,,,,,,,,,og-post,,,,AAXX 03134 07207 36/// /3016 10162 20096 30082 40133 51011=
07207,1999-10-03 14:00:00,15.6,1013.4,0.8,68,9.7,,38.892,64.82,64.82,290,,,,,,,,,,,og-post,,,,AAXX 03144 07207 36/// /2921 10156 20097 30083 40134 53008 333 91035 91135=
07207,1999-10-03 15:00:00,16,1014.1,0.7,66,9.7,25000,42.596,72.228,,290,,,,,,,,,,,og-post,,,,AAXX 03154 07207 32575 32923 10160 20097 30090 40141 53007 83200 222// 326// 333 91139 92448=
07207,1999-10-03 16:00:00,15.5,1014.1,1,75,11.1,,31.484,68.524,53.708,290,,,0.2,,,,,,,,og-post,,,,AAXX 03164 07207 26/// /2917 10155 20111 30090 40141 51010 333 69925 91029 91137=
07207,1999-10-03 17:00:00,14.3,1014.4,1,82,11.3,,29.632,57.412,,290,,,,,,,,,,,og-post,,,,AAXX 03174 07207 26/// /2916 10143 20113 30093 40144 51010 333 69905 91131=
07207,1999-10-03 18:00:00,14.6,1014.9,1,73,9.8,20000,31.484,72.228,,320,11.5,16.5,,0.2,,0.6,,,,2,og-post,,,,AAXX 03184 07207 /1470 33217 10146 20098 30098 40149 53010 69962 70282 83900 222// 327// 333 10165 20115 69927 91139 92448=
07207,1999-10-03 19:00:00,14.3,1015.7,1.7,74,9.7,,29.632,53.708,,320,,,,,,,,,,,og-post,,,,AAXX 03194 07207 36/// /3216 10143 20097 30106 40157 53017 333 91129=
07207,1999-10-03 20:00:00,14,1016.7,2.3,70,8.6,,35.188,53.708,,320,,,,,,,,,,,og-post,,,,AAXX 03204 07207 36/// /3219 10140 20086 30115 40167 53023 333 91129=
07207,1999-10-03 21:00:00,13.7,1017.2,2.2,71,8.5,20000,31.484,53.708,,330,,,,,,,,,,2,og-post,,,,AAXX 03214 07207 31470 43317 10137 20085 30120 40172 51022 70282 84900 222// 327// 333 91129 92448=
07207,1999-10-03 22:00:00,13.6,1017.7,1.8,74,9.1,,29.632,,,330,,,,,,,,,,,og-post,,,,AAXX 03224 07207 36/// /3316 10136 20091 30125 40177 51018=
07207,1999-10-03 23:00:00,13.7,1018.1,1.5,73,9,,29.632,,,330,,,,,,,,,,,og-post,,,,AAXX 03234 07207 36/// /3316 10137 20090 30129 40181 52015=
07207,1999-10-04 00:00:00,13.4,1018.2,1,66,7.2,,29.632,53.708,,330,,,,,,,,,,,og-post,,,,AAXX 04004 07207 36/// /3316 10134 20072 30130 40182 51010 333 91129=
07207,1999-10-04 01:00:00,13.3,1018.5,0.8,73,8.6,,25.928,,,320,,,,,,,,,,,og-post,,,,AAXX 04014 07207 36/// /3214 10133 20086 30133 40185 51008=
07207,1999-10-04 02:00:00,13.5,1018.4,0.1,65,7.1,,31.484,,,320,,,,,,,,,,,og-post,,,,AAXX 04024 07207 36/// /3217 10135 20071 30132 40184 50001=
07207,1999-10-04 03:00:00,13.2,1018.4,0.1,67,7.2,,29.632,,,330,,,,,,,,,,,og-post,,,,AAXX 04034 07207 36/// /3316 10132 20072 30132 40184 50001=
07207,1999-10-04 04:00:00,13.2,1018.4,-0.1,70,7.9,,29.632,50.004,,330,,,,,,,,,,,og-post,,,,AAXX 04044 07207 36/// /3316 10132 20079 30132 40184 55001 333 91127=
07207,1999-10-04 05:00:00,12.7,1018.9,0.3,74,8.2,,25.928,,,330,,,,,,,,,,,og-post,,,,AAXX 04054 07207 36/// /3314 10127 20082 30137 40189 53003=
07207,1999-10-04 06:00:00,12.6,1019.1,0.8,71,7.5,,31.484,50.004,,330,12.5,14.5,,,,,,,,,og-post,,,,AAXX 04064 07207 36/// /3317 10126 20075 30139 40191 53008 333 10145 20125 91127=
07207,1999-10-04 07:00:00,12.5,1019.6,1.2,67,6.5,,29.632,,,340,,,,,,,,,,,og-post,,,,AAXX 04074 07207 36/// /3416 10125 20065 30144 40196 53012=
07207,1999-10-04 08:00:00,13,1020.3,1.5,68,7.2,,31.484,,,340,,,,,,,,,,,og-post,,,,AAXX 04084 07207 36/// /3417 10130 20072 30151 40203 53015=
07207,1999-10-04 09:00:00,13.7,1021.6,2.4,64,7,30000,25.928,,,340,,,,,,,,,,,og-post,,,,AAXX 04094 07207 32580 33414 10137 20070 30164 40216 53024 83200 222// 326// 333 92448=
07207,1999-10-04 10:00:00,13.8,1021.6,2,66,7.6,,25.928,,,330,,,,,,,,,,,og-post,,,,AAXX 04104 07207 36/// /3314 10138 20076 30164 40216 51020=
07207,1999-10-04 12:00:00,15.1,1021.4,-0.2,63,8.1,30000,18.52,,,310,,,,,,,,,,,og-post,,,,AAXX 04124 07207 32580 43110 10151 20081 30162 40214 58002 82230 222// 326// 333 92438=
07207,1999-10-04 13:00:00,14.8,1021.8,0.1,60,7.1,,22.224,,,330,,,,,,,,,,,og-post,,,,AAXX 04134 07207 36/// /3312 10148 20071 30166 40218 53001=
07207,1999-10-04 15:00:00,15.2,1021.6,0.4,60,7.5,30000,18.52,,,310,,,,,,,,,,,og-post,,,,AAXX 04154 07207 32580 43110 10152 20075 30164 40216 51004 84200 222// 326// 333 92438=
07207,1999-10-04 17:00:00,14.4,1022.3,0.4,63,7.5,,14.816,,,320,,,,,,,,,,,og-post,,,,AAXX 04174 07207 36/// /3208 10144 20075 30171 40223 53004=
07207,1999-10-04 18:00:00,13.5,1022.7,1,73,8.8,30000,14.816,,,320,12.1,15.5,,,,,,,,,og-post,,,,AAXX 04184 07207 32580 53208 10135 20088 30175 40227 53010 83230 222// 326// 333 10155 20121 92428=
07207,1999-10-04 19:00:00,12.2,1023.3,1.3,69,6.7,,14.816,,,350,,,,,,,,,,,og-post,,,,AAXX 04194 07207 36/// /3508 10122 20067 30181 40233 53013=
07207,1999-10-04 21:00:00,10.6,1024.2,1.4,73,6,20000,14.816,,,50,,,,,,,,,,,og-post,,,,AAXX 04214 07207 32570 40508 10106 20060 30189 40242 51014 84200 222// 326// 333 92428=
07207,1999-10-04 22:00:00,9.7,1024.3,0.9,76,5.7,,18.52,,,70,,,,,,,,,,,og-post,,,,AAXX 04224 07207 36/// /0710 10097 20057 30190 40243 52009=
07207,1999-10-04 23:00:00,5,1024.4,0.7,105,5.7,,14.816,,,70,,,,,,,,,,,og-post,,,,AAXX 04234 07207 36/// /0708 1005 20057 30191 40244 51007=
07207,1999-10-05 00:00:00,9.4,1024.2,-0.1,76,5.4,,18.52,,,70,,,,,,,,,,,og-post,,,,AAXX 05004 07207 36/// /0710 10094 20054 30189 40242 58001=
07207,1999-10-05 01:00:00,9.8,1024.3,-0.1,77,6,,14.816,,,70,,,,,,,,,,,og-post,,,,AAXX 05014 07207 36/// /0708 10098 20060 30190 40243 55001=
07207,1999-10-05 02:00:00,10,1024.2,-0.4,78,6.3,,14.816,,,60,,,,,,,,,,,og-post,,,,AAXX 05024 07207 36/// /0608 10100 20063 30189 40242 56004=
07207,1999-10-05 03:00:00,9.6,1023.7,-0.4,81,6.5,20000,14.816,,,80,,,,,,,,,,,og-post,,,,AAXX 05034 07207 32570 50808 10096 20065 30184 40237 58004 81230 222// 326// 333 92428=
07207,1999-10-05 04:00:00,9.9,1023.8,-0.5,81,6.8,,14.816,,,70,,,,,,,,,,,og-post,,,,AAXX 05044 07207 36/// /0708 10099 20068 30185 40238 55005=
07207,1999-10-05 05:00:00,10,1024.4,0.2,81,6.9,,14.816,,,60,,,,,,,,,,,og-post,,,,AAXX 05054 07207 36/// /0608 10100 20069 30191 40244 53002=
07207,1999-10-05 06:00:00,9.6,1024.6,0.9,83,6.9,25000,18.52,,,70,9,13.7,,,,,,,,,og-post,,,,AAXX 05064 07207 32975 50710 10096 20069 30193 40246 52009 85030 222// 326// 333 10137 20090 92428=
07207,1999-10-05 07:00:00,10.1,1024.9,1.1,81,7,,14.816,,,90,,,,,,,,,,,og-post,,,,AAXX 05074 07207 36/// /0908 10101 20070 30196 40249 51011=
07207,1999-10-05 08:00:00,12.2,1025.1,0.9,76,8.1,,11.112,,,90,,,,,,,,,,,og-post,,,,AAXX 05084 07207 36/// /0906 10122 20081 30199 40251 53009=
07207,1999-10-05 09:00:00,13,1025.5,1.1,73,8.3,30000,14.816,,,90,,,,,,,,,,,og-post,,,,AAXX 05094 07207 32980 60908 10130 20083 30203 40255 53011 86030 222// 300// 333 92428=
07207,1999-10-05 10:00:00,14.1,1025.7,0.8,68,8.3,,18.52,,,100,,,,,,,,,,,og-post,,,,AAXX 05104 07207 36/// /1010 10141 20083 30205 40257 52008=
07207,1999-10-05 11:00:00,14.9,1025.7,0.5,63,7.9,,11.112,,,110,,,,,,,,,,,og-post,,,,AAXX 05114 07207 36/// /1106 10149 20079 30205 40257 50005=
07207,1999-10-05 12:00:00,14.9,1025.8,0.3,60,7.2,35000,14.816,,,120,,,,,,,,,,,og-post,,,,AAXX 05124 07207 32581 31208 10149 20072 30206 40258 52003 81130 222// 300// 333 92428=
07207,1999-10-05 13:00:00,15.1,1025.6,-0,56,6.4,,11.112,,,130,,,,,,,,,,,og-post,,,,AAXX 05134 07207 36/// /1306 10151 20064 30204 40256 54000=
07207,1999-10-05 14:00:00,14.9,1025.4,-0.2,55,5.9,,11.112,,,140,,,,,,,,,,,og-post,,,,AAXX 05144 07207 36/// /1406 10149 20059 30202 40254 58002=
07207,1999-10-05 15:00:00,14.8,1025.3,-0.5,57,6.4,35000,11.112,,,140,,,,,,,,,,,og-post,,,,AAXX 05154 07207 32581 31406 10148 20064 30201 40253 57005 81130 222// 300// 333 92428=
07207,1999-10-05 16:00:00,14.6,1025.3,-0.5,56,5.9,,11.112,,,150,,,,,,,,,,,og-post,,,,AAXX 05164 07207 36/// /1506 10146 20059 30201 40253 56005=
07207,1999-10-05 17:00:00,14.2,1025.2,-0.1,52,4.5,,3.704,,,120,,,,,,,,,,,og-post,,,,AAXX 05174 07207 36/// /1202 10142 20045 30200 40252 56001=
07207,1999-10-05 18:00:00,11.5,1025.7,0.3,64,4.9,30000,7.408,,,60,8.9,15.4,,,,,,,,,og-post,,,,AAXX 05184 07207 32980 20604 10115 20049 30204 40257 53003 82030 222// 300// 333 10154 20089 92428=
07207,1999-10-05 19:00:00,10.7,1026,0.6,63,4,,3.704,,,40,,,,,,,,,,,og-post,,,,AAXX 05194 07207 36/// /0402 10107 20040 30207 40260 53006=
07207,1999-10-05 20:00:00,10.1,1026.5,1.2,62,3.2,,7.408,,,60,,,,,,,,,,,og-post,,,,AAXX 05204 07207 36/// /0604 10101 20032 30212 40265 53012=
07207,1999-10-05 21:00:00,10.8,1026.9,1.2,61,3.6,,14.816,,,60,,,,,,,,,,,og-post,,,,AAXX 05214 07207 36/// /0608 10108 20036 30216 40269 53012=
07207,1999-10-05 22:00:00,10.3,1026.9,0.9,70,5.1,,14.816,,,50,,,,,,,,,,,og-post,,,,AAXX 05224 07207 36/// /0508 10103 20051 30216 40269 51009=
07207,1999-10-05 23:00:00,10.3,1027,0.5,77,6.5,,14.816,,,50,,,,,,,,,,,og-post,,,,AAXX 05234 07207 36/// /0508 10103 20065 30217 40270 51005=
07207,1999-10-06 00:00:00,12.1,1026.7,-0.1,71,7,,14.816,,,90,,,,,,,,,,,og-post,,,,AAXX 06004 07207 36/// /0908 10121 20070 30215 40267 58001=
07207,1999-10-06 01:00:00,13.6,1026.6,-0.3,63,6.7,,18.52,,,120,,,,,,,,,,,og-post,,,,AAXX 06014 07207 36/// /1210 10136 20067 30214 40266 58003=
07207,1999-10-06 02:00:00,13.5,1026.4,-0.5,62,6.4,,18.52,,,110,,,,,,,,,,,og-post,,,,AAXX 06024 07207 36/// /1110 10135 20064 30212 40264 57005=
07207,1999-10-06 03:00:00,13.2,1026.4,-0.4,63,6.3,20000,18.52,,,100,,,,,,,,,,,og-post,,,,AAXX 06034 07207 32970 11010 10132 20063 30212 40264 57004 81030 222// 300// 333 92428=
07207,1999-10-06 04:00:00,13,1026.6,-0,60,5.4,,18.52,,,110,,,,,,,,,,,og-post,,,,AAXX 06044 07207 36/// /1110 10130 20054 30214 40266 55000=
07207,1999-10-06 05:00:00,10,1026.9,0.4,79,6.6,,18.52,,,90,,,,,,,,,,,og-post,,,,AAXX 06054 07207 36/// /0910 1010 20066 30216 40269 53004=
07207,1999-10-06 06:00:00,11.2,1027.3,0.7,74,6.7,30000,22.224,,,100,10.1,13.7,,,,,,,,,og-post,,,,AAXX 06064 07207 32980 21012 10112 20067 30220 40273 53007 81031 222// 300// 333 10137 20101 92428=
07207,1999-10-06 07:00:00,11.2,1027.9,1.2,72,6.3,,18.52,,,90,,,,,,,,,,,og-post,,,,AAXX 06074 07207 36/// /0910 10112 20063 30226 40279 53012=
07207,1999-10-06 08:00:00,12.9,1028.3,1.5,62,5.8,,22.224,,,100,,,,,,,,,,,og-post,,,,AAXX 06084 07207 36/// /1012 10129 20058 30231 40283 52015=
07207,1999-10-06 09:00:00,13.6,1028.5,1.3,56,5,35000,18.52,,,110,,,,,,,,,,,og-post,,,,AAXX 06094 07207 32581 31110 10136 20050 30233 40285 51013 81101 222// 300// 333 92428=
07207,1999-10-06 10:00:00,13.9,1028.7,0.8,49,3.4,,18.52,,,110,,,,,,,,,,,og-post,,,,AAXX 06104 07207 36/// /1110 10139 20034 30235 40287 51008=
07207,1999-10-06 11:00:00,14.5,1028.6,0.3,51,4.5,,18.52,,,90,,,,,,,,,,,og-post,,,,AAXX 06114 07207 36/// /0910 10145 20045 30234 40286 51003=
07207,1999-10-06 12:00:00,14.4,1028.3,-0.3,54,5.2,35000,22.224,,,80,,,,,,,,,,,og-post,,,,AAXX 06124 07207 32581 30812 10144 20052 30231 40283 58003 81101 222// 300// 333 92428=
07207,1999-10-06 13:00:00,14.4,1027.9,-0.7,45,2.6,,22.224,,,100,,,,,,,,,,,og-post,,,,AAXX 06134 07207 36/// /1012 10144 20026 30227 40279 58007=
07207,1999-10-06 14:00:00,14.3,1027.6,-0.9,54,5.1,,22.224,,,70,,,,,,,,,,,og-post,,,,AAXX 06144 07207 36/// /0712 10143 20051 30224 40276 56009=
07207,1999-10-06 15:00:00,14.1,1027.4,-0.9,53,4.7,35000,22.224,,,80,,,,,,,,,,,og-post,,,,AAXX 06154 07207 32981 50812 10141 20047 30222 40274 56009 80002 222// 300// 333 92428=
07207,1999-10-06 16:00:00,14,1027.1,-0.8,54,4.8,,22.224,,,80,,,,,,,,,,,og-post,,,,AAXX 06164 07207 36/// /0812 10140 20048 30219 40271 57008=
07207,1999-10-06 17:00:00,13.3,1027.2,-0.5,58,5.2,,18.52,,,60,,,,,,,,,,,og-post,,,,AAXX 06174 07207 36/// /0610 10133 20052 30220 40272 55005=
07207,1999-10-06 18:00:00,11.6,1027.9,0.5,64,5,25000,18.52,,,50,10.6,14.7,,,,,,,,,og-post,,,,AAXX 06184 07207 32675 50510 10116 20050 30226 40279 53005 82102 222// 300// 333 10147 20106 92428=
07207,1999-10-06 19:00:00,11.3,1028.5,1.3,65,5,,18.52,,,50,,,,,,,,,,,og-post,,,,AAXX 06194 07207 36/// /0510 10113 20050 30232 40285 53013=
07207,1999-10-06 20:00:00,11,1028.7,1.4,67,5.1,,18.52,,,60,,,,,,,,,,,og-post,,,,AAXX 06204 07207 36/// /0610 10110 20051 30234 40287 51014=
07207,1999-10-06 21:00:00,10.7,1028.6,0.7,70,5.5,20000,18.52,,,60,,,,,,,,,,,og-post,,,,AAXX 06214 07207 32970 30610 10107 20055 30233 40286 50007 80001 222// 300// 333 92428=
07207,1999-10-06 22:00:00,10.4,1028.9,0.4,73,5.8,,18.52,,,70,,,,,,,,,,,og-post,,,,AAXX 06224 07207 36/// /0710 10104 20058 30236 40289 53004=
07207,1999-10-06 23:00:00,10.4,1029,0.4,74,6,,18.52,,,60,,,,,,,,,,,og-post,,,,AAXX 06234 07207 36/// /0610 10104 20060 30237 40290 53004=
07207,1999-10-07 00:00:00,9.8,1028.8,0.3,79,6.3,,14.816,,,70,,,,,,,,,,,og-post,,,,AAXX 07004 07207 36/// /0708 10098 20063 30235 40288 50003=
07207,1999-10-07 01:00:00,9.3,1028.9,0.1,82,6.4,,14.816,,,60,,,,,,,,,,,og-post,,,,AAXX 07014 07207 36/// /0608 10093 20064 30236 40289 52001=
07207,1999-10-07 02:00:00,9.1,1029,-0.2,85,6.7,,18.52,,,50,,,,,,,,,,,og-post,,,,AAXX 07024 07207 36/// /0510 10091 20067 30237 40290 56002=
07207,1999-10-07 03:00:00,8.8,1028.8,0,86,6.6,25000,14.816,,,40,,,,,,,,,,,og-post,,,,AAXX 07034 07207 32975 10408 10088 20066 30235 40288 50000 80001 222// 300// 333 92428=
07207,1999-10-07 04:00:00,9.2,1028.8,-0.1,85,6.8,,18.52,,,60,,,,,,,,,,,og-post,,,,AAXX 07044 07207 36/// /0610 10092 20068 30235 40288 57001=
07207,1999-10-07 06:00:00,9.4,1029.4,0.7,85,7,20000,18.52,,,60,8.5,11.6,,,,,,,,,og-post,,,,AAXX 07064 07207 32970 30610 10094 20070 30241 40294 53007 80001 222// 300// 333 10116 20085 92428=
07207,1999-10-07 09:00:00,13.6,1030.5,1.2,69,8,30000,11.112,,,80,,,,,,,,,,,og-post,,,,AAXX 07094 07207 32680 20806 10136 20080 30253 40305 51012 81101 222// 300// 333 92428=
07207,1999-10-07 12:00:00,15.3,1030.8,0.4,50,4.9,30000,7.408,,,40,,,,,,,,,,,og-post,,,,AAXX 07124 07207 32680 20404 10153 20049 30256 40308 50004 81101 222// 300// 333 92428=
07207,1999-10-07 13:00:00,15.5,1030.6,-0.2,54,6.2,,14.816,,,290,,,,,,,,,,,og-post,,,,AAXX 07134 07207 36/// /2908 10155 20062 30254 40306 58002=
07207,1999-10-07 14:00:00,15.5,1030.3,-0.7,52,5.7,,11.112,,,310,,,,,,,,,,,og-post,,,,AAXX 07144 07207 36/// /3106 10155 20057 30251 40303 56007=
07207,1999-10-07 15:00:00,15,1030.6,-0.3,54,5.8,30000,14.816,,,320,,,,,,,,,,,og-post,,,,AAXX 07154 07207 32980 23208 10150 20058 30254 40306 55003 80001 222// 300// 333 92428=
07207,1999-10-07 16:00:00,14.9,1030.5,-0.2,55,5.9,,11.112,,,300,,,,,,,,,,,og-post,,,,AAXX 07164 07207 36/// /3006 10149 20059 30253 40305 56002=
07207,1999-10-07 17:00:00,14.4,1030.6,0.3,63,7.5,,11.112,,,320,,,,,,,,,,,og-post,,,,AAXX 07174 07207 36/// /3206 10144 20075 30254 40306 51003=
07207,1999-10-07 18:00:00,13.7,1030.8,0.4,67,7.7,25000,14.816,,,320,9.2,16.1,,,,,,,,,og-post,,,,AAXX 07184 07207 32975 13208 10137 20077 30256 40308 53004 80001 222// 300// 333 10161 20092 92428=
07207,1999-10-07 19:00:00,14.1,1031.2,0.7,77,10.1,,14.816,,,320,,,,,,,,,,,og-post,,,,AAXX 07194 07207 36/// /3208 10141 20101 30260 40312 53007=
07207,1999-10-07 20:00:00,14.4,1031.4,0.9,80,11,,11.112,,,320,,,,,,,,,,,og-post,,,,AAXX 07204 07207 36/// /3206 10144 20110 30262 40314 51009=
07207,1999-10-07 21:00:00,14.3,1031.6,0.6,81,11.1,25000,11.112,,,320,,,,,,,,,,,og-post,,,,AAXX 07214 07207 32975 03206 10143 20111 30264 40316 51006 222// 300// 333 92428=
07207,1999-10-07 22:00:00,14.3,1031.6,0.3,82,11.3,,11.112,,,310,,,,,,,,,,,og-post,,,,AAXX 07224 07207 36/// /3106 10143 20113 30264 40316 50003=
07207,1999-10-07 23:00:00,14.7,1031.4,0.1,83,11.8,,14.816,,,290,,,,,,,,,,,og-post,,,,AAXX 07234 07207 36/// /2908 10147 20118 30262 40314 50001=
07207,1999-10-08 00:00:00,14.9,1031.1,-0.4,84,12.2,,18.52,,,290,,,,,,,,,,,og-post,,,,AAXX 08004 07207 36/// /2910 10149 20122 30259 40311 58004=
07207,1999-10-08 01:00:00,15.2,1031,-0.6,85,12.7,,18.52,,,280,,,,,,,,,,,og-post,,,,AAXX 08014 07207 36/// /2810 10152 20127 30258 40310 58006=
07207,1999-10-08 02:00:00,15.6,1030.7,-0.8,85,13.1,,22.224,,,280,,,,,,,,,,,og-post,,,,AAXX 08024 07207 36/// /2812 10156 20131 30255 40307 57008=
07207,1999-10-08 03:00:00,15.2,1030.4,-0.8,87,13.1,20000,14.816,,,310,,,,,,,,,,,og-post,,,,AAXX 08034 07207 32570 33108 10152 20131 30252 40304 57008 83130 222// 300// 333 92428=
07207,1999-10-08 04:00:00,15.1,1030.2,-0.7,86,12.8,,14.816,,,310,,,,,,,,,,,og-post,,,,AAXX 08044 07207 36/// /3108 10151 20128 30250 40302 56007=
07207,1999-10-08 05:00:00,14.9,1030.4,-0.3,82,11.9,,14.816,,,310,,,,,,,,,,,og-post,,,,AAXX 08054 07207 36/// /3108 10149 20119 30252 40304 55003=
07207,1999-10-08 06:00:00,14.9,1030.2,-0.1,81,11.7,,18.52,,,290,13.5,15.7,,,,,,,,,og-post,,,,AAXX 08064 07207 36/// /2910 10149 20117 30250 40302 56001 333 10157 20135=
07207,1999-10-08 07:00:00,15.1,1030.3,0.1,81,11.9,,18.52,,,280,,,,,,,,,,,og-post,,,,AAXX 08074 07207 36/// /2810 10151 20119 30251 40303 52001=
07207,1999-10-08 08:00:00,15.7,1030.9,0.7,80,12.3,,22.224,,,280,,,,,,,,,,,og-post,,,,AAXX 08084 07207 36/// /2812 10157 20123 30257 40309 53007=
07207,1999-10-08 09:00:00,15.5,1031.1,0.8,82,12.4,25000,18.52,,,270,,,,,,,,,,,og-post,,,,AAXX 08094 07207 32575 72710 10155 20124 30259 40311 51008 878// 222// 300// 333 92428=
07207,1999-10-08 10:00:00,15.8,1031.5,1.1,83,12.9,,25.928,,,290,,,,,,,,,,,og-post,,,,AAXX 08104 07207 36/// /2914 10158 20129 30263 40315 51011=
07207,1999-10-08 11:00:00,16.5,1031.1,0.2,78,12.7,,18.52,,,280,,,,,,,,,,,og-post,,,,AAXX 08114 07207 36/// /2810 10165 20127 30259 40311 50002=
07207,1999-10-08 12:00:00,16.6,1030.8,-0.3,79,12.9,25000,22.224,,,290,,,,,,,,,,,og-post,,,,AAXX 08124 07207 32575 82912 10166 20129 30256 40308 58003 8581/ 222// 300// 333 92428=
07207,1999-10-08 13:00:00,16.3,1030.2,-1.2,81,13,,25.928,,,280,,,,,,,,,,,og-post,,,,AAXX 08134 07207 36/// /2814 10163 20130 30250 40302 57012=
07207,1999-10-08 14:00:00,16.9,1029.6,-1.6,81,13.6,,25.928,,,290,,,,,,,,,,,og-post,,,,AAXX 08144 07207 36/// /2914 10169 20136 30244 40296 58016=
07207,1999-10-08 15:00:00,16.3,1029.6,-1.2,83,13.4,20000,22.224,,,290,,,,,,,,,,,og-post,,,,AAXX 08154 07207 32570 82912 10163 20134 30244 40296 57012 8627/ 222// 300// 333 92428=
07207,1999-10-08 16:00:00,15.9,1029.3,-1,84,13.2,,25.928,,,290,,,,,,,,,,,og-post,,,,AAXX 08164 07207 36/// /2914 10159 20132 30241 40293 56010=
07207,1999-10-08 17:00:00,15.8,1029.3,-0.6,81,12.5,,18.52,,,290,,,,,,,,,,,og-post,,,,AAXX 08174 07207 36/// /2910 10158 20125 30241 40293 55006=
07207,1999-10-08 18:00:00,15.7,1029.4,-0.1,78,11.9,15000,22.224,,,290,14.8,17.3,,,,,,,,,og-post,,,,AAXX 08184 07207 32565 82912 10157 20119 30242 40294 55001 8627/ 222// 300// 333 10173 20148 92427=
07207,1999-10-08 19:00:00,15.4,1029.4,0.2,75,11,,18.52,,,310,,,,,,,,,,,og-post,,,,AAXX 08194 07207 36/// /3110 10154 20110 30242 40294 50002=
07207,1999-10-08 20:00:00,15.5,1029.7,0.4,73,10.7,,18.52,,,310,,,,,,,,,,,og-post,,,,AAXX 08204 07207 36/// /3110 10155 20107 30245 40297 53004=
07207,1999-10-08 21:00:00,15.6,1030,0.4,78,11.8,12000,18.52,,,320,,,,,,,,,,,og-post,,,,AAXX 08214 07207 32562 83210 10156 20118 30248 40300 53004 8627/ 222// 300// 333 92427=
07207,1999-10-08 22:00:00,15.2,1029.7,0.3,74,10.6,,14.816,,,320,,,,,,,,,,,og-post,,,,AAXX 08224 07207 36/// /3208 10152 20106 30245 40297 50003=
07207,1999-10-08 23:00:00,15.4,1029.6,-0.1,73,10.6,,14.816,,,330,,,,,,,,,,,og-post,,,,AAXX 08234 07207 36/// /3308 10154 20106 30244 40296 58001=
07207,1999-10-09 00:00:00,14.9,1029.5,-0.6,76,10.7,,14.816,,,350,,,,,,,,,,,og-post,,,,AAXX 09004 07207 36/// /3508 10149 20107 30243 40295 57006=
07207,1999-10-09 01:00:00,15.2,1029.4,-0.3,76,11,,7.408,,,320,,,,,,,,,,,og-post,,,,AAXX 09014 07207 36/// /3204 10152 20110 30242 40294 57003=
07207,1999-10-09 02:00:00,15.2,1029.4,-0.3,74,10.6,,14.816,,,320,,,,,,,,,,,og-post,,,,AAXX 09024 07207 36/// /3208 10152 20106 30242 40294 56003=
07207,1999-10-09 03:00:00,15,1028.7,-0.7,71,9.8,15000,18.52,,,320,,,,,,,,,,,og-post,,,,AAXX 09034 07207 32565 53210 10150 20098 30235 40287 58007 8227/ 222// 300// 333 92427=
07207,1999-10-09 04:00:00,15.3,1028.5,-0.9,65,8.8,,14.816,,,290,,,,,,,,,,,og-post,,,,AAXX 09044 07207 36/// /2908 10153 20088 30233 40285 57009=
07207,1999-10-09 05:00:00,15.5,1028.4,-0.9,68,9.6,,18.52,,,280,,,,,,,,,,,og-post,,,,AAXX 09054 07207 36/// /2810 10155 20096 30232 40284 56009=
07207,1999-10-09 06:00:00,15.5,1028.5,-0.1,69,9.8,20000,18.52,,,270,14.8,15.8,,,,,,,,,og-post,,,,AAXX 09064 07207 32570 82710 10155 20098 30233 40285 55001 888// 222// 300// 333 10158 20148 92428=
07207,1999-10-09 07:00:00,15.6,1028.5,0.1,70,10.2,,18.52,,,280,,,,,,,,,,,og-post,,,,AAXX 09074 07207 36/// /2810 10156 20102 30233 40285 53001=
07207,1999-10-09 08:00:00,15.6,1029,0.6,75,11.2,,18.52,,,280,,,,,,,,,,,og-post,,,,AAXX 09084 07207 36/// /2810 10156 20112 30238 40290 53006=
07207,1999-10-09 09:00:00,15.8,1029.2,0.7,76,11.6,20000,18.52,,,280,,,,,,,,,,,og-post,,,,AAXX 09094 07207 32570 82810 10158 20116 30240 40292 53007 888// 222// 300// 333 92428=
07207,1999-10-09 10:00:00,15.8,1029.3,0.7,78,12,,14.816,,,270,,,,,,,,,,,og-post,,,,AAXX 09104 07207 36/// /2708 10158 20120 30241 40293 51007=
07207,1999-10-09 11:00:00,16.1,1029.2,0.4,79,12.5,,18.52,,,290,,,,,,,,,,,og-post,,,,AAXX 09114 07207 36/// /2910 10161 20125 30240 40292 51004=
07207,1999-10-09 12:00:00,16.2,1029.1,-0.1,78,12.4,20000,18.52,,,280,,,,,,,,,,,og-post,,,,AAXX 09124 07207 32570 82810 10162 20124 30239 40291 58001 888// 222// 325// 333 92428=
07207,1999-10-09 13:00:00,16.4,1028.8,-0.5,77,12.4,,22.224,,,290,,,,,,,,,,,og-post,,,,AAXX 09134 07207 36/// /2912 10164 20124 30236 40288 58005=
07207,1999-10-09 14:00:00,16.7,1028.7,-0.7,77,12.6,,18.52,,,290,,,,,,,,,,,og-post,,,,AAXX 09144 07207 36/// /2910 10167 20126 30235 40287 57007=
07207,1999-10-09 15:00:00,17,1028.5,-0.7,74,12.3,,22.224,,,290,,,,,,,,,,,og-post,,,,AAXX 09154 07207 36/// /2912 10170 20123 30233 40285 56007=
07207,1999-10-09 16:00:00,16.2,1028.4,-0.4,80,12.7,,18.52,,,290,,,,,,,,,,,og-post,,,,AAXX 09164 07207 36/// /2910 10162 20127 30232 40284 56004=
07207,1999-10-09 17:00:00,15.7,1028.2,-0.5,81,12.4,,18.52,,,290,,,,,,,,,,,og-post,,,,AAXX 09174 07207 36/// /2910 10157 20124 30230 40282 57005=
07207,1999-10-09 18:00:00,15.6,1028.4,-0,82,12.5,18000,18.52,,,290,15.5,17.4,,,,,,,,,og-post,,,,AAXX 09184 07207 32568 62910 10156 20125 30232 40284 55000 85830 222// 325// 333 10174 20155 92427=
07207,1999-10-09 19:00:00,15.6,1028.5,0.2,84,12.9,,18.52,,,290,,,,,,,,,,,og-post,,,,AAXX 09194 07207 36/// /2910 10156 20129 30233 40285 53002=
07207,1999-10-09 20:00:00,15.7,1028.6,0.4,85,13.2,,14.816,,,280,,,,,,,,,,,og-post,,,,AAXX 09204 07207 36/// /2808 10157 20132 30234 40286 51004=
07207,1999-10-09 21:00:00,15.8,1028.7,0.3,85,13.3,15000,14.816,,,280,,,,,,,,,,,og-post,,,,AAXX 09214 07207 32565 82808 10158 20133 30235 40287 51003 888// 222// 325// 333 92427=
07207,1999-10-09 22:00:00,15.6,1028.4,0,84,12.9,,14.816,,,270,,,,,,,,,,,og-post,,,,AAXX 09224 07207 36/// /2708 10156 20129 30232 40284 50000=
07207,1999-10-09 23:00:00,15.2,1028.4,-0.3,91,13.7,,11.112,,,240,,,,,,,,,,,og-post,,,,AAXX 09234 07207 36/// /2406 10152 20137 30232 40284 58003=
07207,1999-10-10 00:00:00,15.3,1028.3,-0.4,91,13.8,,11.112,,,230,,,,,,,,,,,og-post,,,,AAXX 10004 07207 36/// /2306 10153 20138 30231 40283 56004=
07207,1999-10-10 01:00:00,15.5,1028.1,-0.5,91,14,,11.112,,,230,,,,,,,,,,,og-post,,,,AAXX 10014 07207 36/// /2306 10155 20140 30229 40281 56005=
07207,1999-10-10 02:00:00,15.8,1027.6,-0.7,87,13.6,,14.816,,,270,,,,,,,,,,,og-post,,,,AAXX 10024 07207 36/// /2708 10158 20136 30224 40276 58007=
07207,1999-10-10 03:00:00,15.8,1027.2,-1.1,86,13.5,15000,14.816,,,280,,,,,,,,,,,og-post,,,,AAXX 10034 07207 32565 82808 10158 20135 30220 40272 58011 888// 222// 325// 333 92427=
07207,1999-10-10 04:00:00,15.9,1027.2,-1,85,13.4,,18.52,,,270,,,,,,,,,,,og-post,,,,AAXX 10044 07207 36/// /2710 10159 20134 30220 40272 56010=
07207,1999-10-10 05:00:00,15.9,1027.2,-0.4,86,13.6,,14.816,,,270,,,,,,,,,,,og-post,,,,AAXX 10054 07207 36/// /2708 10159 20136 30220 40272 56004=
07207,1999-10-10 06:00:00,15.9,1027.2,-0,86,13.6,15000,14.816,,,280,15.1,15.9,,,,,,,,,og-post,,,,AAXX 10064 07207 32665 82808 10159 20136 30220 40272 54000 885// 222// 325// 333 10159 20151 92427=
07207,1999-10-10 07:00:00,15.8,1027.5,0.3,89,14,,14.816,,,270,,,,,,,,,,,og-post,,,,AAXX 10074 07207 36/// /2708 10158 20140 30223 40275 53003=
07207,1999-10-10 08:00:00,16.1,1027.8,0.6,90,14.5,,11.112,,,260,,,,,,,,,,,og-post,,,,AAXX 10084 07207 36/// /2606 10161 20145 30226 40278 53006=
07207,1999-10-10 09:00:00,16.3,1028,0.7,90,14.7,20000,14.816,,,260,,,,,,,,,,,og-post,,,,AAXX 10094 07207 32670 82608 10163 20147 30228 40280 52007 885// 222// 325// 333 92428=
07207,1999-10-10 10:00:00,16,1028,0.4,93,14.9,,14.816,,,260,,,,,,,,,,,og-post,,,,AAXX 10104 07207 36/// /2608 10160 20149 30228 40280 50004=
07207,1999-10-10 11:00:00,17.2,1027.6,-0.2,88,15.2,,14.816,,,270,,,,,,,,,,,og-post,,,,AAXX 10114 07207 36/// /2708 10172 20152 30225 40276 58002=
07207,1999-10-10 12:00:00,16.6,1027.6,-0.5,90,15,25000,18.52,,,260,,,,,,,,,,,og-post,,,,AAXX 10124 07207 32575 82610 10166 20150 30224 40276 58005 8783/ 222// 325// 333 92428=
07207,1999-10-10 13:00:00,16.8,1027.2,-0.8,90,15.1,,14.816,,,250,,,,,,,,,,,og-post,,,,AAXX 10134 07207 36/// /2508 10168 20151 30220 40272 58008=
07207,1999-10-10 14:00:00,16.6,1027.2,-0.5,91,15.1,,18.52,,,250,,,,,,,,,,,og-post,,,,AAXX 10144 07207 36/// /2510 10166 20151 30220 40272 55005=
07207,1999-10-10 15:00:00,16.2,1027.1,-0.4,94,15.2,12000,18.52,,,260,,,,,,,,,,15,og-post,,,,AAXX 10154 07207 31562 82610 10162 20152 30219 40271 56004 71522 888// 222// 300// 333 92428=
07207,1999-10-10 16:00:00,16.1,1027,-0.1,96,15.5,,7.408,,,300,,,0.8,,,,,,,,og-post,,,,AAXX 10164 07207 26/// /3004 10161 20155 30218 40270 58001 333 69985=
07207,1999-10-10 17:00:00,16,1026.8,-0.4,96,15.4,,11.112,,,290,,,,,,,,,,,og-post,,,,AAXX 10174 07207 26/// /2906 10160 20154 30216 40268 58004 333 69905=
07207,1999-10-10 18:00:00,15.8,1026.9,-0.2,97,15.3,8000,7.408,,,330,15.7,17.5,,0.8,,0.8,,,,15,og-post,,,,AAXX 10184 07207 /1558 83304 10158 20153 30217 40269 55002 69982 71562 888// 222// 300// 333 10175 20157 69987 92427=
07207,1999-10-10 19:00:00,16,1027.1,0.1,96,15.4,,7.408,,,290,,,,,,,,,,,og-post,,,,AAXX 10194 07207 36/// /2904 10160 20154 30219 40271 53001=
07207,1999-10-10 20:00:00,16.2,1027.2,0.4,96,15.6,,11.112,,,290,,,,,,,,,,,og-post,,,,AAXX 10204 07207 36/// /2906 10162 20156 30220 40272 53004=
07207,1999-10-10 21:00:00,16,1027.3,0.5,96,15.4,8000,11.112,,,290,,,,,,,,,,,og-post,,,,AAXX 10214 07207 32558 82906 10160 20154 30221 40273 52005 888// 222// 300// 333 92426=
07207,1999-10-10 22:00:00,16.1,1027.6,0.6,96,15.5,,14.816,,,280,,,,,,,,,,,og-post,,,,AAXX 10224 07207 36/// /2808 10161 20155 30224 40276 53006=
07207,1999-10-10 23:00:00,16.1,1027.4,0.4,97,15.6,,14.816,,,290,,,,,,,,,,,og-post,,,,AAXX 10234 07207 36/// /2908 10161 20156 30222 40274 50004=
07207,1999-10-11 00:00:00,16,1027.5,0.1,96,15.4,,11.112,,,320,,,,,,,,,,,og-post,,,,AAXX 11004 07207 36/// /3206 10160 20154 30223 40275 50001=
07207,1999-10-11 01:00:00,15.7,1027.1,-0.5,96,15.1,,11.112,,,10,,,,,,,,,,,og-post,,,,AAXX 11014 07207 36/// /0106 10157 20151 30219 40271 58005=
07207,1999-10-11 02:00:00,15.8,1027.1,-0.5,96,15.2,,7.408,,,20,,,,,,,,,,,og-post,,,,AAXX 11024 07207 36/// /0204 10158 20152 30219 40271 58005=
07207,1999-10-11 03:00:00,15.7,1026.8,-0.7,97,15.2,8000,3.704,,,320,,,,,,,,,,,og-post,,,,AAXX 11034 07207 32558 53202 10157 20152 30216 40268 56007 85500 222// 300// 333 92426=
07207,1999-10-11 04:00:00,15.4,1026.7,-0.4,97,14.9,,11.112,,,360,,,,,,,,,,,og-post,,,,AAXX 11044 07207 36/// /3606 10154 20149 30215 40267 57004=
07207,1999-10-11 05:00:00,15.3,1026.8,-0.2,97,14.8,,11.112,,,20,,,,,,,,,,,og-post,,,,AAXX 11054 07207 36/// /0206 10153 20148 30216 40268 55002=
07207,1999-10-11 06:00:00,15.5,1027,0.2,97,15,8000,11.112,,,30,15.3,16.2,,,,,,,,,og-post,,,,AAXX 11064 07207 32558 70306 10155 20150 30218 40270 53002 878// 222// 300// 333 10162 20153 92426=
07207,1999-10-11 07:00:00,14.8,1027.3,0.6,97,14.3,,14.816,,,20,,,,,,,,,,,og-post,,,,AAXX 11074 07207 36/// /0208 10148 20143 30221 40273 53006=
07207,1999-10-11 08:00:00,15.6,1027.8,1,97,15.1,,7.408,,,20,,,,,,,,,,,og-post,,,,AAXX 11084 07207 36/// /0204 10156 20151 30226 40278 53010=
07207,1999-10-11 09:00:00,16,1028.2,1.1,97,15.5,15000,14.816,,,30,,,,,,,,,,,og-post,,,,AAXX 11094 07207 32665 70308 10160 20155 30230 40282 52011 875// 222// 300// 333 92427=
07207,1999-10-11 10:00:00,16.2,1028.5,1.2,96,15.6,,3.704,,,120,,,,,,,,,,,og-post,,,,AAXX 11104 07207 36/// /1202 10162 20156 30233 40285 51012=
07207,1999-10-11 11:00:00,16.5,1028.3,0.4,95,15.7,,3.704,,,170,,,,,,,,,,,og-post,,,,AAXX 11114 07207 36/// /1702 10165 20157 30231 40283 50004=
07207,1999-10-11 12:00:00,16.8,1028,-0.1,94,15.8,10000,3.704,,,130,,,,,,,,,,,og-post,,,,AAXX 11124 07207 32460 71302 10168 20158 30228 40280 58001 877// 222// 326// 333 92427=
07207,1999-10-11 13:00:00,17.3,1027.5,-0.9,92,16,,11.112,,,40,,,,,,,,,,,og-post,,,,AAXX 11134 07207 36/// /0406 10173 20160 30224 40275 58009=
07207,1999-10-11 14:00:00,17.3,1027.3,-0.8,90,15.6,,11.112,,,40,,,,,,,,,,,og-post,,,,AAXX 11144 07207 36/// /0406 10173 20156 30222 40273 56008=
07207,1999-10-11 15:00:00,17,1026.9,-0.9,89,15.2,12000,14.816,,,60,,,,,,,,,,,og-post,,,,AAXX 11154 07207 32462 80608 10170 20152 30218 40269 56009 887// 222// 326// 333 92427=
07207,1999-10-11 16:00:00,16.5,1027.2,-0.3,92,15.2,,14.816,,,50,,,,,,,,,,,og-post,,,,AAXX 11164 07207 36/// /0508 10165 20152 30220 40272 55003=
07207,1999-10-11 17:00:00,16.3,1027,-0.3,92,15,,11.112,,,50,,,,,,,,,,,og-post,,,,AAXX 11174 07207 36/// /0506 10163 20150 30218 40270 56003=
07207,1999-10-11 18:00:00,15.9,1027.6,0.5,92,14.6,8000,14.816,,,50,14.7,17.5,,,,,,,,,og-post,,,,AAXX 11184 07207 32658 80508 10159 20146 30224 40276 53005 885// 222// 328// 333 10175 20147 92426=
07207,1999-10-11 19:00:00,15.8,1027.9,0.7,92,14.5,,14.816,,,50,,,,,,,,,,,og-post,,,,AAXX 11194 07207 36/// /0508 10158 20145 30227 40279 53007=
07207,1999-10-11 20:00:00,15.7,1028.1,1.1,92,14.4,,14.816,,,50,,,,,,,,,,,og-post,,,,AAXX 11204 07207 36/// /0508 10157 20144 30229 40281 51011=
07207,1999-10-11 21:00:00,15.1,1028.2,0.7,92,13.8,12000,22.224,,,50,,,,,,,,,,,og-post,,,,AAXX 11214 07207 32662 80512 10151 20138 30230 40282 51007 885// 222// 328// 333 92427=
07207,1999-10-11 22:00:00,14.8,1027.8,0.1,91,13.3,,29.632,,,50,,,,,,,,,,,og-post,,,,AAXX 11224 07207 36/// /0516 10148 20133 30226 40278 50001=
07207,1999-10-11 23:00:00,14.5,1028,-0.1,89,12.7,,29.632,,,60,,,,,,,,,,,og-post,,,,AAXX 11234 07207 36/// /0616 10145 20127 30228 40280 55001=
07207,1999-10-12 00:00:00,14.3,1027.8,-0.4,89,12.5,,25.928,,,60,,,,,,,,,,,og-post,,,,AAXX 12004 07207 36/// /0614 10143 20125 30226 40278 56004=
07207,1999-10-12 01:00:00,14.3,1027.4,-0.4,87,12.2,,25.928,,,60,,,,,,,,,,,og-post,,,,AAXX 12014 07207 36/// /0614 10143 20122 30222 40274 58004=
07207,1999-10-12 02:00:00,14.3,1027.3,-0.8,86,12,,25.928,,,60,,,,,,,,,,,og-post,,,,AAXX 12024 07207 36/// /0614 10143 20120 30221 40273 57008=
07207,1999-10-12 03:00:00,14.1,1027.1,-0.8,87,12,8000,18.52,,,50,,,,,,,,,,,og-post,,,,AAXX 12034 07207 32658 80510 10141 20120 30219 40271 56008 885// 222// 328// 333 92426=
07207,1999-10-12 06:00:00,14,1026.8,-0.3,84,11.3,15000,22.224,,,60,13.7,15.9,,,,,,,,,og-post,,,,AAXX 12064 07207 32665 70612 10140 20113 30216 40268 56003 875// 222// 328// 333 10159 20137 92427=
07207,1999-10-12 07:00:00,14,1027.3,0.5,86,11.7,,22.224,,,70,,,,,,,,,,,og-post,,,,AAXX 12074 07207 36/// /0712 10140 20117 30221 40273 53005=
07207,1999-10-12 08:00:00,14.4,1027,0.1,80,11,,29.632,,,60,,,,,,,,,,,og-post,,,,AAXX 12084 07207 36/// /0616 10144 20110 30218 40270 50001=
07207,1999-10-12 09:00:00,15,1027,0.5,75,10.6,25000,35.188,,,70,,,,,,,,,,,og-post,,,,AAXX 12094 07207 32675 60719 10150 20106 30218 40270 51005 84530 222// 328// 333 92428=
07207,1999-10-12 10:00:00,16.4,1027,-0.1,71,11.1,,31.484,,,70,,,,,,,,,,,og-post,,,,AAXX 12104 07207 36/// /0717 10164 20111 30218 40270 56001=
07207,1999-10-12 11:00:00,16.2,1027.5,0.3,72,11.2,,29.632,,,70,,,,,,,,,,,og-post,,,,AAXX 12114 07207 36/// /0716 10162 20112 30223 40275 53003=
07207,1999-10-12 12:00:00,17.1,1027.2,-0,72,12,25000,29.632,,,60,,,,,,,,,,,og-post,,,,AAXX 12124 07207 32575 50616 10171 20120 30220 40272 54000 82230 222// 328// 333 92428=
07207,1999-10-12 13:00:00,17.8,1026.2,-0.8,68,11.8,,29.632,,,50,,,,,,,,,,,og-post,,,,AAXX 12134 07207 36/// /0516 10178 20118 30211 40262 58008=
07207,1999-10-12 14:00:00,17.9,1025.6,-1.7,66,11.5,,25.928,,,40,,,,,,,,,,,og-post,,,,AAXX 12144 07207 36/// /0414 10179 20115 30205 40256 58017=
07207,1999-10-12 15:00:00,17.9,1025,-2,67,11.7,25000,25.928,,,40,,,,,,,,,,,og-post,,,,AAXX 12154 07207 32975 30414 10179 20117 30199 40250 56020 80008 222// 328// 333 92428=
07207,1999-10-12 16:00:00,17.4,1024.6,-1.6,68,11.4,,25.928,,,60,,,,,,,,,,,og-post,,,,AAXX 12164 07207 36/// /0614 10174 20114 30195 40246 56016=
07207,1999-10-12 17:00:00,15.9,1024.4,-1.1,75,11.5,,25.928,,,60,,,,,,,,,,,og-post,,,,AAXX 12174 07207 36/// /0614 10159 20115 30192 40244 56011=
07207,1999-10-12 18:00:00,15.1,1024.8,-0.1,78,11.3,20000,25.928,,,60,13.9,18.1,,,,,,,,,og-post,,,,AAXX 12184 07207 32970 60614 10151 20113 30196 40248 55001 80008 222// 328// 333 10181 20139 92428=
07207,1999-10-12 19:00:00,14.6,1025.2,0.5,79,11,,25.928,,,60,,,,,,,,,,,og-post,,,,AAXX 12194 07207 36/// /0614 10146 20110 30200 40252 53005=
07207,1999-10-12 20:00:00,14.3,1025.3,0.7,81,11.1,,25.928,,,60,,,,,,,,,,,og-post,,,,AAXX 12204 07207 36/// /0614 10143 20111 30201 40253 51007=
07207,1999-10-12 21:00:00,,1025.5,0.6,,10.7,20000,25.928,,,60,,,,,,,,,,,og-post,,,,AAXX 12214 07207 32970 4061410139 20107 30203 40255 51006 80008 222// 328// 333 92428=
07207,1999-10-12 22:00:00,13.7,1025.5,0.2,82,10.7,,25.928,,,60,,,,,,,,,,,og-post,,,,AAXX 12224 07207 36/// /0614 10137 20107 30203 40255 50002=
07207,1999-10-12 23:00:00,13,1025.1,-0.3,82,10,,29.632,,,60,,,,,,,,,,,og-post,,,,AAXX 12234 07207 36/// /0616 10130 20100 30199 40251 58003=
07207,1999-10-13 00:00:00,12.7,1024.7,-0.8,81,9.5,,31.484,,,60,,,,,,,,,,,og-post,,,,AAXX 13004 07207 36/// /0617 10127 20095 30195 40247 58008=
07207,1999-10-13 01:00:00,12.7,1024.7,-0.8,79,9.2,,31.484,,,60,,,,,,,,,,,og-post,,,,AAXX 13014 07207 36/// /0617 10127 20092 30195 40247 56008=
07207,1999-10-13 02:00:00,12.5,1024.3,-0.6,80,9.1,,31.484,,,70,,,,,,,,,,,og-post,,,,AAXX 13024 07207 36/// /0717 10125 20091 30191 40243 57006=
07207,1999-10-13 03:00:00,12.1,1024,-0.7,82,9.1,20000,31.484,,,60,,,,,,,,,,,og-post,,,,AAXX 13034 07207 32970 20617 10121 20091 30188 40240 58007 80001 222// 328// 333 92428=
07207,1999-10-13 04:00:00,12.3,1023.6,-1.1,84,9.7,,29.632,,,60,,,,,,,,,,,og-post,,,,AAXX 13044 07207 36/// /0616 10123 20097 30184 40236 58011=
07207,1999-10-13 05:00:00,12,1023.3,-1,85,9.6,,29.632,,,60,,,,,,,,,,,og-post,,,,AAXX 13054 07207 36/// /0616 10120 20096 30181 40233 56010=
07207,1999-10-13 06:00:00,12,1023.1,-0.9,86,9.7,15000,29.632,,,60,11.9,15.2,,,,,,,,,og-post,,,,AAXX 13064 07207 32965 50616 10120 20097 30179 40231 56009 80008 222// 328// 333 10152 20119 92427=
07207,1999-10-13 07:00:00,12.1,1023.2,-0.3,85,9.7,,29.632,,,50,,,,,,,,,,,og-post,,,,AAXX 13074 07207 36/// /0516 10121 20097 30180 40232 55003=
07207,1999-10-13 08:00:00,12.3,1023.7,0.3,86,10,,31.484,,,60,,,,,,,,,,,og-post,,,,AAXX 13084 07207 36/// /0617 10123 20100 30185 40237 53003=
07207,1999-10-13 09:00:00,12.2,1023.6,0.6,85,9.8,,31.484,,,60,,,,,,,,,,,og-post,,,,AAXX 13094 07207 36/// /0617 10122 20098 30184 40236 51006=
07207,1999-10-13 10:00:00,12.6,1024.1,0.8,84,10,,31.484,,,60,,,,,,,,,,,og-post,,,,AAXX 13104 07207 36/// /0617 10126 20100 30189 40241 53008=
07207,1999-10-13 11:00:00,14.1,1024.1,0.2,82,11.1,,29.632,,,70,,,,,,,,,,,og-post,,,,AAXX 13114 07207 36/// /0716 10141 20111 30189 40241 50002=
07207,1999-10-13 12:00:00,14.6,1023.2,-0.2,82,11.6,,31.484,,,60,,,,,,,,,,,og-post,,,,AAXX 13124 07207 36/// /0617 10146 20116 30180 40232 58002=
07207,1999-10-13 13:00:00,14.8,1022.9,-1.2,83,11.9,,29.632,,,70,,,,,,,,,,,og-post,,,,AAXX 13134 07207 36/// /0716 10148 20119 30177 40229 58012=
07207,1999-10-13 14:00:00,15.8,1022.5,-1.5,79,12.2,,31.484,,,70,,,,,,,,,,,og-post,,,,AAXX 13144 07207 36/// /0717 10158 20122 30173 40225 56015=
07207,1999-10-13 15:00:00,16,1022.5,-0.8,79,12.4,10000,29.632,,,80,,,,,,,,,,,og-post,,,,AAXX 13154 07207 32660 70816 10160 20124 30174 40225 56008 8757/ 222// 328// 333 92427=
07207,1999-10-13 16:00:00,15.2,1022.3,-0.3,79,11.6,,31.484,50.004,,80,,,,,,,,,,,og-post,,,,AAXX 13164 07207 36/// /0817 10152 20116 30171 40223 56003 333 91127=
07207,1999-10-13 17:00:00,14.6,1022.7,0.2,81,11.4,,31.484,,,70,,,,,,,,,,,og-post,,,,AAXX 13174 07207 36/// /0717 10146 20114 30175 40227 53002=
07207,1999-10-13 18:00:00,14.5,1023.1,0.5,81,11.3,8000,29.632,,,80,11.9,16,,,,,,,,,og-post,,,,AAXX 13184 07207 32658 70816 10145 20113 30179 40231 53005 8757/ 222// 328// 333 10160 20119 92436=
07207,1999-10-13 19:00:00,14.6,1023.2,0.8,81,11.4,,29.632,,,90,,,,,,,,,,,og-post,,,,AAXX 13194 07207 36/// /0916 10146 20114 30180 40232 51008=
07207,1999-10-13 20:00:00,14.3,1023.3,0.7,80,10.9,,29.632,,53.708,90,,,,,,,,,,,og-post,,,,AAXX 13204 07207 36/// /0916 10143 20109 30181 40233 51007 333 91029=
07207,1999-10-13 21:00:00,13.9,1023.6,0.3,82,10.9,8000,25.928,53.708,,90,,,,,,,,,,,og-post,,,,AAXX 13214 07207 32658 60914 10139 20109 30184 40236 51003 8457/ 222// 328// 333 91129 92436=
07207,1999-10-13 22:00:00,14,1023.7,0.4,85,11.5,,22.224,,,90,,,,,,,,,,,og-post,,,,AAXX 13224 07207 36/// /0912 10140 20115 30185 40237 53004=
07207,1999-10-13 23:00:00,13.8,1023.4,-0.1,83,11,,25.928,,,90,,,,,,,,,,,og-post,,,,AAXX 13234 07207 36/// /0914 10138 20110 30182 40234 58001=
07207,1999-10-14 00:00:00,13.5,1023,-0.5,85,11,,22.224,53.708,,80,,,,,,,,,,,og-post,,,,AAXX 14004 07207 36/// /0812 10135 20110 30178 40230 58005 333 91129=
07207,1999-10-14 01:00:00,13.5,1022.9,-0.8,85,11,,25.928,,,90,,,,,,,,,,,og-post,,,,AAXX 14014 07207 36/// /0914 10135 20110 30177 40229 56008=
07207,1999-10-14 02:00:00,13.1,1022.7,-0.7,86,10.8,,22.224,,,80,,,,,,,,,,,og-post,,,,AAXX 14024 07207 36/// /0812 10131 20108 30175 40227 57007=
07207,1999-10-14 03:00:00,13,1022.2,-0.9,89,11.2,6000,25.928,,,80,,,,,,,,,,,og-post,,,,AAXX 14034 07207 32656 80814 10130 20112 30170 40222 58009 885// 222// 328// 333 92436=
07207,1999-10-14 04:00:00,12.8,1022,-1,92,11.5,,25.928,,,80,,,,,,,,,,,og-post,,,,AAXX 14044 07207 36/// /0814 10128 20115 30168 40220 56010=
07207,1999-10-14 05:00:00,12.7,1021.6,-0.9,93,11.6,,25.928,,,80,,,,,,,,,,,og-post,,,,AAXX 14054 07207 36/// /0814 10127 20116 30164 40216 57009=
07207,1999-10-14 06:00:00,12.7,1021.4,-0.8,92,11.4,8000,25.928,,,80,12.6,14.6,,,,,,,,,og-post,,,,AAXX 14064 07207 32658 80814 10127 20114 30162 40214 56008 885// 222// 328// 333 10146 20126 92436=
07207,1999-10-14 07:00:00,12.9,1021.3,-0.5,91,11.5,,22.224,,,90,,,,,,,,,,,og-post,,,,AAXX 14074 07207 36/// /0912 10129 20115 30161 40213 56005=
07207,1999-10-14 08:00:00,13.3,1021.6,-0,91,11.9,,22.224,,,90,,,,,,,,,,,og-post,,,,AAXX 14084 07207 36/// /0912 10133 20119 30164 40216 55000=
07207,1999-10-14 09:00:00,13.7,1021.4,0,91,12.3,8000,25.928,,,80,,,,,,,,,,,og-post,,,,AAXX 14094 07207 32558 80814 10137 20123 30162 40214 50000 886// 222// 328// 333 92436=
07207,1999-10-14 10:00:00,13.8,1021.1,-0.2,91,12.4,,25.928,,,90,,,,,,,,,,,og-post,,,,AAXX 14104 07207 36/// /0914 10138 20124 30159 40211 58002=
07207,1999-10-14 11:00:00,14.1,1021,-0.8,93,13,,25.928,,,90,,,0.2,,,,,,,,og-post,,,,AAXX 14114 07207 26/// /0914 10141 20130 30158 40210 58008 333 69925=
07207,1999-10-14 12:00:00,14.4,1020.6,-0.8,94,13.4,3000,31.484,53.708,53.708,100,,,,1,1,,,,,60,og-post,,,,AAXX 14124 07207 /1430 81017 10144 20134 30154 40206 58008 60011 76062 886// 222// 300// 333 60017 91029 91129 92435=
07207,1999-10-14 13:00:00,14.7,1020,-1.1,95,13.9,,31.484,,,100,,,0.6,,,,,,,,og-post,,,,AAXX 14134 07207 26/// /1017 10147 20139 30148 40200 58011 333 69965=
07207,1999-10-14 14:00:00,15.2,1019.2,-1.7,96,14.6,,31.484,,,100,,,0.6,,,,,,,,og-post,,,,AAXX 14144 07207 26/// /1017 10152 20146 30141 40192 58017 333 69965=
07207,1999-10-14 15:00:00,16.2,1019.2,-1.3,96,15.6,4000,25.928,,,110,,,,1,,,,,,2,og-post,,,,AAXX 14154 07207 21240 81114 10162 20156 30141 40192 56013 70262 887// 222// 300// 333 60017 92426=
07207,1999-10-14 16:00:00,16.5,1018.9,-1.2,96,15.9,,22.224,,,120,,,,,,,,,,,og-post,,,,AAXX 14164 07207 36/// /1212 10165 20159 30138 40189 56012=
07207,1999-10-14 17:00:00,17.1,1018.6,-0.5,96,16.5,,25.928,,,140,,,,,,,,,,,og-post,,,,AAXX 14174 07207 36/// /1414 10171 20165 30135 40186 56005=
07207,1999-10-14 18:00:00,16.9,1018.8,-0.2,96,16.3,5000,31.484,,,160,12.7,17.1,,,,3,,,,2,og-post,,,,AAXX 14184 07207 11250 81617 10169 20163 30137 40188 55002 60032 70262 887// 222// 300// 333 10171 20127 92426=
07207,1999-10-14 19:00:00,16.9,1019,0.2,96,16.3,,25.928,,,160,,,,,,,,,,,og-post,,,,AAXX 14194 07207 36/// /1614 10169 20163 30139 40190 53002=
07207,1999-10-14 20:00:00,16.8,1018.7,0.1,95,16,,25.928,,,170,,,,,,,,,,,og-post,,,,AAXX 14204 07207 36/// /1714 10168 20160 30136 40187 50001=
07207,1999-10-14 21:00:00,16.7,1018.8,-0.1,96,16.1,6000,29.632,,,160,,,,,,,,,,,og-post,,,,AAXX 14214 07207 32456 81616 10167 20161 30137 40188 58001 887// 222// 300// 333 92426=
07207,1999-10-14 22:00:00,16.4,1018.6,-0.3,96,15.8,,22.224,,,200,,,0.2,,,,,,,,og-post,,,,AAXX 14224 07207 26/// /2012 10164 20158 30135 40186 57003 333 69925=
07207,1999-10-14 23:00:00,16.4,1018.6,-0.2,94,15.4,,18.52,,,200,,,,,,,,,,,og-post,,,,AAXX 14234 07207 36/// /2010 10164 20154 30135 40186 58002=
07207,1999-10-15 00:00:00,16.3,1018.6,-0.3,95,15.5,,18.52,,,200,,,,0.2,0.2,,,,,,og-post,,,,AAXX 15004 07207 /6/// /2010 10163 20155 30135 40186 56003 69921 333 69927=
07207,1999-10-15 01:00:00,15.8,1018.3,-0.4,96,15.2,,18.52,,,240,,,0.6,,,,,,,,og-post,,,,AAXX 15014 07207 26/// /2410 10158 20152 30132 40183 57004 333 69965=
07207,1999-10-15 02:00:00,15.7,1018.2,-0.4,96,15.1,,18.52,,,240,,,1,,,,,,,,og-post,,,,AAXX 15024 07207 26/// /2410 10157 20151 30131 40182 58004 333 60015=
07207,1999-10-15 03:00:00,15.9,1017.8,-0.8,94,14.9,5000,18.52,,,250,,,,2,,,,,,2,og-post,,,,AAXX 15034 07207 21350 82510 10159 20149 30127 40178 58008 70262 887// 222// 300// 333 60027 92426=
07207,1999-10-15 04:00:00,15.6,1017.7,-0.6,94,14.6,,18.52,,,270,,,,,,,,,,,og-post,,,,AAXX 15044 07207 36/// /2710 10156 20146 30126 40177 56006=
07207,1999-10-15 05:00:00,15.3,1017.8,-0.3,95,14.5,,22.224,,,270,,,,,,,,,,,og-post,,,,AAXX 15054 07207 36/// /2712 10153 20145 30127 40178 55003=
07207,1999-10-15 06:00:00,15.5,1018.1,0.3,92,14.2,6000,25.928,,,280,15.3,17,,,,2,,,,2,og-post,,,,AAXX 15064 07207 11356 82814 10155 20142 30130 40181 53003 60022 70262 887// 222// 300// 333 10170 20153 92426=
07207,1999-10-15 07:00:00,15.6,1018.3,0.8,90,14,,18.52,,,270,,,,,,,,,,,og-post,,,,AAXX 15074 07207 36/// /2710 10156 20140 30132 40183 53008=
07207,1999-10-15 08:00:00,15.5,1018.8,1,91,14,,14.816,,,280,,,0.2,,,,,,,,og-post,,,,AAXX 15084 07207 26/// /2808 10155 20140 30137 40188 53010 333 69925=
07207,1999-10-15 09:00:00,15.7,1018.8,0.8,90,14.1,6000,18.52,,,280,,,,0.2,,,,,,,og-post,,,,AAXX 15094 07207 22356 72810 10157 20141 30137 40188 51008 877// 222// 300// 333 69927 92426=
07207,1999-10-15 10:00:00,16.1,1019.1,0.7,87,13.9,,14.816,,,260,,,,,,,,,,,og-post,,,,AAXX 15104 07207 36/// /2608 10161 20139 30140 40191 51007=
07207,1999-10-15 11:00:00,16.6,1019.5,0.7,87,14.4,,11.112,,,240,,,,,,,,,,,og-post,,,,AAXX 15114 07207 36/// /2406 10166 20144 30144 40195 53007=
07207,1999-10-15 12:00:00,17.3,1019.4,0.6,84,14.6,6000,11.112,,,240,,,,,0.2,,,,,,og-post,,,,AAXX 15124 07207 12456 72406 10173 20146 30143 40194 51006 69921 877// 222// 300// 333 92426=
07207,1999-10-15 13:00:00,17.5,1018.9,-0.3,84,14.8,,11.112,,,240,,,,,,,,,,,og-post,,,,AAXX 15134 07207 36/// /2406 10175 20148 30138 40189 58003=
07207,1999-10-15 14:00:00,17.3,1018.8,-0.6,83,14.4,,14.816,,,240,,,,,,,,,,,og-post,,,,AAXX 15144 07207 36/// /2408 10173 20144 30137 40188 56006=
07207,1999-10-15 15:00:00,18,1018.5,-0.8,81,14.7,15000,7.408,,,230,,,,,,,,,,,og-post,,,,AAXX 15154 07207 32565 32304 10180 20147 30134 40185 56008 82201 222// 300// 333 92427=
07207,1999-10-15 16:00:00,17.3,1018.7,-0.2,83,14.4,,7.408,,,210,,,,,,,,,,,og-post,,,,AAXX 15164 07207 36/// /2104 10173 20144 30136 40187 55002=
07207,1999-10-15 17:00:00,16.1,1018.8,-0.1,87,13.9,,11.112,,,210,,,,,,,,,,,og-post,,,,AAXX 15174 07207 36/// /2106 10161 20139 30137 40188 55001=
07207,1999-10-15 18:00:00,16.1,1019,0.6,88,14.1,,11.112,,,170,15.4,18.2,,,,0.2,,,,,og-post,,,,AAXX 15184 07207 16/// /1706 10161 20141 30139 40190 53006 69922 333 10182 20154=
07207,1999-10-15 19:00:00,16.1,1019.1,0.6,87,13.9,20000,11.112,,,170,15.4,18.2,,,,0.2,,,,,og-post,,,,AAXX 15194 07207 12570 71706 10161 20139 30140 40191 53006 69922 8127/ 222// 300// 333 10182 20154 92428=
07207,1999-10-15 20:00:00,15.8,1019.2,0.5,91,14.3,,14.816,,,160,,,,,,,,,,,og-post,,,,AAXX 15204 07207 36/// /1608 10158 20143 30141 40192 51005=
07207,1999-10-15 21:00:00,16,1019.1,0,90,14.4,,14.816,,,150,,,,,,,,,,,og-post,,,,AAXX 15214 07207 36/// /1508 10160 20144 30140 40191 50000=
07207,1999-10-15 22:00:00,15.9,1019.2,0.1,90,14.3,,18.52,,,150,,,,,,,,,,,og-post,,,,AAXX 15224 07207 36/// /1510 10159 20143 30141 40192 52001=
07207,1999-10-15 23:00:00,15.9,1019.2,-0,90,14.3,,18.52,,,150,,,,,,,,,,,og-post,,,,AAXX 15234 07207 36/// /1510 10159 20143 30141 40192 55000=
07207,1999-10-16 00:00:00,16,1018.9,-0.2,90,14.4,,11.112,,,150,,,,,,,,,,,og-post,,,,AAXX 16004 07207 36/// /1506 10160 20144 30138 40189 58002=
07207,1999-10-16 01:00:00,15.9,1018.9,-0.4,89,14.1,,11.112,,,140,,,,,,,,,,,og-post,,,,AAXX 16014 07207 36/// /1406 10159 20141 30138 40189 58004=
07207,1999-10-16 02:00:00,15.6,1018.4,-0.8,93,14.5,,11.112,,,110,,,,,,,,,,,og-post,,,,AAXX 16024 07207 36/// /1106 10156 20145 30133 40184 58008=
07207,1999-10-16 03:00:00,14.8,1018.2,-0.7,95,14,15000,14.816,,,100,,,,,,,,,,,og-post,,,,AAXX 16034 07207 32965 41008 10148 20140 30131 40182 58007 84070 222// 300// 333 92427=
07207,1999-10-16 04:00:00,14.5,1018.3,-0.4,96,13.9,,18.52,,,100,,,,,,,,,,,og-post,,,,AAXX 16044 07207 36/// /1010 10145 20139 30132 40183 55004=
07207,1999-10-16 05:00:00,14.7,1018.5,0.1,95,13.9,,14.816,,,100,,,,,,,,,,,og-post,,,,AAXX 16054 07207 36/// /1008 10147 20139 30134 40185 53001=
07207,1999-10-16 06:00:00,14.4,1018.3,0,96,13.8,8000,14.816,,,100,14,16.1,,,,,,,,,og-post,,,,AAXX 16064 07207 32958 31008 10144 20138 30131 40183 50000 83030 222// 300// 333 10161 20140 92426=
07207,1999-10-16 07:00:00,14.2,1018.1,-0.4,96,13.6,,18.52,,,90,,,,,,,,,,,og-post,,,,AAXX 16074 07207 36/// /0910 10142 20136 30129 40181 58004=
07207,1999-10-16 08:00:00,14.8,1017.9,-0.5,96,14.2,,22.224,,,100,,,,,,,,,,,og-post,,,,AAXX 16084 07207 36/// /1012 10148 20142 30128 40179 56005=
07207,1999-10-16 09:00:00,14.4,1017.9,-0.3,96,13.8,4000,29.632,,,100,,,,,,,,,,10,og-post,,,,AAXX 16094 07207 31340 81016 10144 20138 30128 40179 56003 71022 886// 222// 300// 333 92426=
07207,1999-10-16 10:00:00,14.8,1018,-0.1,95,14,,22.224,,,100,,,,,,,,,,,og-post,,,,AAXX 16104 07207 36/// /1012 10148 20140 30129 40180 56001=
07207,1999-10-16 11:00:00,15.4,1017.6,-0.3,93,14.3,,22.224,,,100,,,,,,,,,,,og-post,,,,AAXX 16114 07207 36/// /1012 10154 20143 30125 40176 58003=
07207,1999-10-16 12:00:00,16.5,1016.9,-1,88,14.5,6000,25.928,,,100,,,,,,,,,,,og-post,,,,AAXX 16124 07207 32356 61014 10165 20145 30118 40169 58010 83630 222// 300// 333 92426=
07207,1999-10-16 13:00:00,15.8,1016,-2,90,14.2,,22.224,,,90,,,,,,,,,,,og-post,,,,AAXX 16134 07207 36/// /0912 10158 20142 30109 40160 58020=
07207,1999-10-16 14:00:00,15.9,1015.8,-1.8,90,14.3,,31.484,,,70,,,,,,,,,,,og-post,,,,AAXX 16144 07207 36/// /0717 10159 20143 30107 40158 56018=
07207,1999-10-16 15:00:00,15.9,1015.4,-1.6,89,14.1,8000,31.484,,,80,,,,,,,,,,,og-post,,,,AAXX 16154 07207 32358 50817 10159 20141 30103 40154 56016 83630 222// 300// 333 92436=
07207,1999-10-16 16:00:00,15.2,1015.1,-0.8,91,13.7,,31.484,,,70,,,,,,,,,,,og-post,,,,AAXX 16164 07207 36/// /0717 10152 20137 30100 40151 56008=
07207,1999-10-16 18:00:00,14.6,1014.8,-0.4,93,13.5,8000,29.632,,,80,14.1,17,,,,,,,,,og-post,,,,AAXX 16184 07207 32958 50816 10146 20135 30097 40148 56004 83031 222// 300// 333 10170 20141 92436=
07207,1999-10-16 19:00:00,13.9,1014.7,-0.5,93,12.8,,29.632,,,80,,,,,,,,,,,og-post,,,,AAXX 16194 07207 36/// /0816 10139 20128 30096 40147 56005=
07207,1999-10-16 20:00:00,13.7,1014.5,-0.2,92,12.4,,35.188,,,100,,,,,,,,,,,og-post,,,,AAXX 16204 07207 36/// /1019 10137 20124 30094 40145 57002=
07207,1999-10-16 21:00:00,13.8,1014.6,-0.3,92,12.5,,29.632,,,100,,,,,,,,,,,og-post,,,,AAXX 16214 07207 36/// /1016 10138 20125 30095 40146 55003=
07207,1999-10-16 22:00:00,13.7,1014.2,-0.4,91,12.3,,29.632,,,100,,,,,,,,,,,og-post,,,,AAXX 16224 07207 36/// /1016 10137 20123 30091 40142 58004=
07207,1999-10-16 23:00:00,13.5,1013.5,-1,92,12.2,,25.928,,,100,,,,,,,,,,,og-post,,,,AAXX 16234 07207 36/// /1014 10135 20122 30084 40135 58010=
07207,1999-10-17 00:00:00,13.6,1013.2,-1.5,92,12.3,,25.928,,,100,,,,,,,,,,,og-post,,,,AAXX 17004 07207 36/// /1014 10136 20123 30081 40132 56015=
07207,1999-10-17 01:00:00,13.3,1013,-1.1,92,12,,22.224,,,100,,,,,,,,,,,og-post,,,,AAXX 17014 07207 36/// /1012 10133 20120 30079 40130 56011=
07207,1999-10-17 02:00:00,12.9,1012.3,-1.2,93,11.8,,22.224,,,90,,,,,,,,,,,og-post,,,,AAXX 17024 07207 36/// /0912 10129 20118 30071 40123 58012=
07207,1999-10-17 03:00:00,12.8,1011.6,-1.6,94,11.9,,22.224,,,90,,,,,,,,,,,og-post,,,,AAXX 17034 07207 36/// /0912 10128 20119 30065 40116 58016=
07207,1999-10-17 04:00:00,12.7,1011.8,-1.4,92,11.4,,22.224,,,90,,,,,,,,,,,og-post,,,,AAXX 17044 07207 36/// /0912 10127 20114 30066 40118 56014=
07207,1999-10-17 05:00:00,13,1012,-0.1,91,11.6,,22.224,,,100,,,,,,,,,,,og-post,,,,AAXX 17054 07207 36/// /1012 10130 20116 30069 40120 55001=
07207,1999-10-17 06:00:00,14.3,1012.2,0.5,94,13.3,4000,18.52,,,120,12.6,14.6,,2,,2,,,,60,og-post,,,,AAXX 17064 07207 /1540 81210 10143 20133 30071 40122 50005 60022 76062 887// 222// 300// 333 10146 20126 60027 92426=
07207,1999-10-17 07:00:00,12.9,1011.7,0.2,96,12.3,,22.224,,,60,,,5,,,,,,,,og-post,,,,AAXX 17074 07207 26/// /0612 10129 20123 30066 40117 50002 333 60055=
07207,1999-10-17 08:00:00,12.4,1012.1,-0.4,97,11.9,,22.224,,,90,,,1,,,,,,,,og-post,,,,AAXX 17084 07207 26/// /0912 10124 20119 30069 40121 56004 333 60015=
07207,1999-10-17 09:00:00,12.5,1012.3,0.1,96,11.9,4000,18.52,,,90,,,,6,,,,,,21,og-post,,,,AAXX 17094 07207 21540 80910 10125 20119 30071 40123 53001 72162 886// 222// 326// 333 60067 92426=
07207,1999-10-17 10:00:00,12.9,1012.5,0.6,96,12.3,,14.816,,,100,,,,,,,,,,,og-post,,,,AAXX 17104 07207 36/// /1008 10129 20123 30073 40125 52006=
07207,1999-10-17 11:00:00,13.3,1012.2,0.3,95,12.5,,11.112,,,120,,,,,,,,,,,og-post,,,,AAXX 17114 07207 36/// /1206 10133 20125 30071 40122 50003=
07207,1999-10-17 12:00:00,13.5,1012,-0.4,94,12.6,4000,14.816,,,110,,,,,6,,,,,10,og-post,,,,AAXX 17124 07207 11540 81108 10135 20126 30069 40120 58004 60061 71062 886// 222// 326// 333 92426=
07207,1999-10-17 13:00:00,13.3,1011.7,-0.7,94,12.4,,14.816,,,100,,,,,,,,,,,og-post,,,,AAXX 17134 07207 36/// /1008 10133 20124 30066 40117 58007=
07207,1999-10-17 14:00:00,12.9,1011.5,-0.8,93,11.8,,22.224,,,100,,,,,,,,,,,og-post,,,,AAXX 17144 07207 36/// /1012 10129 20118 30064 40115 56008=
07207,1999-10-17 15:00:00,12.6,1011.8,-0.3,93,11.5,2500,22.224,,,100,,,,,,,,,,10,og-post,,,,AAXX 17154 07207 31225 81012 10126 20115 30066 40118 55003 71022 887// 222// 326// 333 92425=
07207,1999-10-17 16:00:00,12.3,1011.8,0.1,94,11.4,,18.52,,,100,,,,,,,,,,,og-post,,,,AAXX 17164 07207 36/// /1010 10123 20114 30066 40118 53001=
07207,1999-10-17 17:00:00,12.1,1011.6,0.1,95,11.3,,18.52,,,90,,,,,,,,,,,og-post,,,,AAXX 17174 07207 36/// /0910 10121 20113 30064 40116 50001=
07207,1999-10-17 18:00:00,12,1011.8,0.2,96,11.4,2000,22.224,,,90,12,14.3,,,,6,,,,10,og-post,,,,AAXX 17184 07207 11220 80912 10120 20114 30066 40118 53002 60062 71022 887// 222// 326// 333 10143 20120 92425=
07207,1999-10-17 19:00:00,12,1011.9,0.1,96,11.4,,18.52,,,90,,,1,,,,,,,,og-post,,,,AAXX 17194 07207 26/// /0910 10120 20114 30067 40119 53001 333 60015=
07207,1999-10-17 20:00:00,12.1,1011.5,0,97,11.6,,18.52,,,80,,,,,,,,,,,og-post,,,,AAXX 17204 07207 36/// /0810 10121 20116 30063 40115 50000=
07207,1999-10-17 21:00:00,12.2,1011.7,-0.2,97,11.7,6000,18.52,,,90,,,,1,,,,,,2,og-post,,,,AAXX 17214 07207 21356 80910 10122 20117 30065 40117 55002 70262 887// 222// 326// 333 60017 92426=
07207,1999-10-17 22:00:00,12.3,1011.8,-0.1,97,11.8,,25.928,,,100,,,,,,,,,,,og-post,,,,AAXX 17224 07207 36/// /1014 10123 20118 30066 40118 55001=
07207,1999-10-17 23:00:00,12.2,1011.5,-0.2,97,11.7,,14.816,,,90,,,,,,,,,,,og-post,,,,AAXX 17234 07207 36/// /0908 10122 20117 30063 40115 58002=
07207,1999-10-18 00:00:00,12.1,1011,-0.7,97,11.6,,18.52,,,80,,,,,1,,,,,,og-post,,,,AAXX 18004 07207 16/// /0810 10121 20116 30058 40110 58007 60011=
07207,1999-10-18 01:00:00,12.1,1010.6,-1.2,97,11.6,,22.224,,,90,,,,,,,,,,,og-post,,,,AAXX 18014 07207 36/// /0912 10121 20116 30054 40106 57012=
07207,1999-10-18 02:00:00,12.3,1010.3,-1.2,97,11.8,,14.816,,,90,,,,,,,,,,,og-post,,,,AAXX 18024 07207 36/// /0908 10123 20118 30051 40103 56012=
07207,1999-10-18 03:00:00,12.1,1009.6,-1.2,97,11.6,6000,22.224,,,80,,,,,,,,,,,og-post,,,,AAXX 18034 07207 32356 80812 10121 20116 30044 40096 58012 887// 222// 326// 333 92426=
07207,1999-10-18 04:00:00,11.7,1009.1,-1.5,97,11.2,,22.224,,,70,,,,,,,,,,,og-post,,,,AAXX 18044 07207 36/// /0712 10117 20112 30039 40091 58015=
07207,1999-10-18 05:00:00,11.6,1009.2,-1.1,97,11.1,,25.928,,,50,,,,,,,,,,,og-post,,,,AAXX 18054 07207 36/// /0514 10116 20111 30040 40092 56011=
07207,1999-10-18 06:00:00,11.4,1009.4,-0.2,97,10.9,8000,14.816,,,40,11.4,12.4,,,,1,,,,,og-post,,,,AAXX 18064 07207 12358 80408 10114 20109 30042 40094 55002 60012 887// 222// 326// 333 10124 20114 92426=
07207,1999-10-18 07:00:00,11,1009.6,0.4,96,10.4,,22.224,,,50,,,,,,,,,,,og-post,,,,AAXX 18074 07207 36/// /0512 10110 20104 30044 40096 53004=
07207,1999-10-18 08:00:00,11,1009.7,0.4,96,10.4,,18.52,,,40,,,,,,,,,,,og-post,,,,AAXX 18084 07207 36/// /0410 10110 20104 30045 40097 52004=
07207,1999-10-18 09:00:00,10.9,1009.9,0.4,96,10.3,8000,18.52,,,30,,,,,,,,,,,og-post,,,,AAXX 18094 07207 32358 80310 10109 20103 30047 40099 51004 887// 222// 326// 333 92426=
07207,1999-10-18 10:00:00,10.7,1010.1,0.5,93,9.6,,22.224,,,20,,,,,,,,,,,og-post,,,,AAXX 18104 07207 36/// /0212 10107 20096 30049 40101 53005=
07207,1999-10-18 11:00:00,11.1,1009.7,0.1,88,9.2,,18.52,,,20,,,,,,,,,,,og-post,,,,AAXX 18114 07207 36/// /0210 10111 20092 30045 40097 50001=
07207,1999-10-18 14:00:00,11.3,1009.3,-0.5,88,9.4,,14.816,,,40,,,,,,,,,,,og-post,,,,AAXX 18144 07207 36/// /0408 10113 20094 30041 40093 55005=
07207,1999-10-18 15:00:00,11.1,1009.2,-0.1,89,9.4,7000,14.816,,,40,,,,,,,,,,,og-post,,,,AAXX 18154 07207 32357 80408 10111 20094 30040 40092 56001 886// 222// 326// 333 92426=
07207,1999-10-18 16:00:00,10.9,1009.4,0.4,89,9.2,,11.112,,,30,,,,,,,,,,,og-post,,,,AAXX 18164 07207 36/// /0306 10109 20092 30042 40094 53004=
07207,1999-10-18 17:00:00,10.9,1009.7,0.5,90,9.3,,3.704,,,40,,,,,,,,,,,og-post,,,,AAXX 18174 07207 36/// /0402 10109 20093 30045 40097 53005=
07207,1999-10-18 18:00:00,11.7,1010.1,0.9,87,9.6,,11.112,,,70,10.6,12.2,,,,,,,,,og-post,,,,AAXX 18184 07207 36/// /0706 10117 20096 30049 40101 53009 333 10122 20106=
07207,1999-10-18 19:00:00,12.1,1010.3,0.9,85,9.7,,7.408,,,90,,,,,,,,,,,og-post,,,,AAXX 18194 07207 36/// /0904 10121 20097 30051 40103 51009=
07207,1999-10-18 20:00:00,12.1,1010.2,0.4,85,9.7,,11.112,,,80,,,,,,,,,,,og-post,,,,AAXX 18204 07207 36/// /0806 10121 20097 30050 40102 50004=
07207,1999-10-18 21:00:00,12.5,1010.2,0.2,80,9.1,7000,18.52,,,100,,,,,,,,,,,og-post,,,,AAXX 18214 07207 32357 81010 10125 20091 30050 40102 51002 886// 222// 326// 333 92426=
07207,1999-10-18 22:00:00,12.1,1010.5,-0,66,5.9,,25.928,,,100,,,,,,,,,,,og-post,,,,AAXX 18224 07207 36/// /1014 10121 20059 30053 40105 55000=
07207,1999-10-18 23:00:00,11.9,1010,-0.3,65,5.5,,22.224,,,100,,,,,,,,,,,og-post,,,,AAXX 18234 07207 36/// /1012 10119 20055 30048 40100 58003=
07207,1999-10-19 00:00:00,11.5,1009.8,-0.4,76,7.4,,11.112,,,80,,,,,,,,,,,og-post,,,,AAXX 19004 07207 36/// /0806 10115 20074 30046 40098 58004=
07207,1999-10-19 02:00:00,10.6,1009.3,-0.6,73,6,,14.816,,,70,,,,,,,,,,,og-post,,,,AAXX 19024 07207 36/// /0708 10106 20060 30041 40093 58006=
07207,1999-10-19 04:00:00,9.8,1008.1,-1.3,74,5.4,,14.816,,,90,,,,,,,,,,,og-post,,,,AAXX 19044 07207 36/// /0908 10098 20054 30029 40081 57013=
07207,1999-10-19 05:00:00,8.9,1007.8,-1.4,76,4.9,,14.816,,,80,,,,,,,,,,,og-post,,,,AAXX 19054 07207 36/// /0808 10089 20049 30026 40078 56014=
07207,1999-10-19 06:00:00,8,1007.3,-1.2,82,5.1,15000,18.52,,,80,7.8,12.5,,,,,,,,,og-post,,,,AAXX 19064 07207 32565 50810 10080 20051 30021 40073 58012 81230 222// 326// 333 10125 20078 92427=
07207,1999-10-19 07:00:00,7.9,1007.1,-1.1,83,5.2,,18.52,,,90,,,,,,,,,,,og-post,,,,AAXX 19074 07207 36/// /0910 10079 20052 30019 40071 56011=
07207,1999-10-19 08:00:00,8.2,1007.4,-0.4,81,5.1,,22.224,,,90,,,,,,,,,,,og-post,,,,AAXX 19084 07207 36/// /0912 10082 20051 30022 40074 55004=
07207,1999-10-19 09:00:00,8.4,1006.5,-0.7,79,5,15000,25.928,,,80,,,,,,,,,,,og-post,,,,AAXX 19094 07207 32965 80814 10084 20050 30013 40065 58007 8807/ 222// 326// 333 92427=
07207,1999-10-19 10:00:00,8.7,1006.5,-0.6,81,5.6,,18.52,,,90,,,,,,,,,,,og-post,,,,AAXX 19104 07207 36/// /0910 10087 20056 30013 40065 58006=
07207,1999-10-19 11:00:00,8.8,1006.3,-1.1,82,5.9,,14.816,,,80,,,,,,,,,,,og-post,,,,AAXX 19114 07207 36/// /0808 10088 20059 30011 40063 56011=
07207,1999-10-19 12:00:00,9.3,1005.8,-0.8,81,6.2,15000,14.816,,,90,,,,,,,,,,,og-post,,,,AAXX 19124 07207 32665 80908 10093 20062 30006 40058 58008 8657/ 222// 326// 333 92427=
07207,1999-10-19 13:00:00,9.5,1005.5,-1.1,83,6.8,,18.52,,,100,,,,,,,,,,,og-post,,,,AAXX 19134 07207 36/// /1010 10095 20068 30003 40055 58011=
07207,1999-10-19 14:00:00,9.2,1005.1,-1.1,91,7.8,,14.816,,,110,,,3,,,,,,,,og-post,,,,AAXX 19144 07207 26/// /1108 10092 20078 39999 40051 58011 333 60035=
07207,1999-10-19 15:00:00,9.5,1004.8,-1.1,94,8.6,7000,14.816,,,100,,,,4,,,,,,21,og-post,,,,AAXX 19154 07207 21557 81008 10095 20086 39996 40048 56011 72162 887// 222// 326// 333 60047 92426=
07207,1999-10-19 16:00:00,9.3,1004.4,-1.1,95,8.5,,18.52,,,90,,,2,,,,,,,,og-post,,,,AAXX 19164 07207 26/// /0910 10093 20085 39992 40044 57011 333 60025=
07207,1999-10-19 17:00:00,9.7,1003.8,-1.2,94,8.8,,22.224,,,90,,,0.4,,,,,,,,og-post,,,,AAXX 19174 07207 26/// /0912 10097 20088 39986 40038 58012 333 69945=
07207,1999-10-19 18:00:00,10.2,1003.8,-1,93,9.1,6000,25.928,,,100,7.8,10.2,,3,,7,,,,21,og-post,,,,AAXX 19184 07207 /1556 81014 10102 20091 39986 40038 56010 60072 72162 887// 222// 326// 333 10102 20078 60037 92436=
07207,1999-10-19 19:00:00,10.6,1003.4,-1,94,9.7,,22.224,,,90,,,,,,,,,,,og-post,,,,AAXX 19194 07207 36/// /0912 10106 20097 39982 40034 56010=
07207,1999-10-19 20:00:00,11.6,1002.9,-0.8,94,10.7,,22.224,,,110,,,,,,,,,,,og-post,,,,AAXX 19204 07207 36/// /1112 10116 20107 39978 40029 58008=
07207,1999-10-19 21:00:00,11.6,1002.6,-1.1,95,10.8,6000,22.224,,,100,,,,0.8,,,,,,,og-post,,,,AAXX 19214 07207 22556 81012 10116 20108 39975 40026 58011 887// 222// 326// 333 69987 92436=
07207,1999-10-19 22:00:00,12.3,1002,-1.5,96,11.7,,22.224,,,100,,,0.2,,,,,,,,og-post,,,,AAXX 19224 07207 26/// /1012 10123 20117 39969 40020 57015 333 69925=
07207,1999-10-19 23:00:00,12.9,1001.3,-1.5,93,11.8,,22.224,,,120,,,0.2,,,,,,,,og-post,,,,AAXX 19234 07207 26/// /1212 10129 20118 39962 40013 58015 333 69925=
07207,1999-10-20 00:00:00,13.4,1000.6,-1.9,91,12,,22.224,,,140,,,,0.4,1,,,,,,og-post,,,,AAXX 20004 07207 /6/// /1412 10134 20120 39955 40006 58019 60011 333 69947=
07207,1999-10-20 01:00:00,13.6,1000.4,-1.6,86,11.3,,18.52,,,130,,,,,,,,,,,og-post,,,,AAXX 20014 07207 36/// /1310 10136 20113 39953 40004 56016=
07207,1999-10-20 02:00:00,13.6,999.6,-1.7,91,12.2,,18.52,,,120,,,,,,,,,,,og-post,,,,AAXX 20024 07207 36/// /1210 10136 20122 39945 49996 57017=
07207,1999-10-20 03:00:00,13.7,998.9,-1.8,91,12.3,10000,25.928,,,120,,,,,,,,,,,og-post,,,,AAXX 20034 07207 32560 61214 10137 20123 39938 49989 58018 86700 222// 326// 333 92437=
07207,1999-10-20 04:00:00,12.9,998.2,-2.2,93,11.8,,22.224,50.004,,110,,,,,,,,,,,og-post,,,,AAXX 20044 07207 36/// /1112 10129 20118 39931 49982 58022 333 91127=
07207,1999-10-20 05:00:00,12.8,997.6,-2,85,10.3,,25.928,,,100,,,0.4,,,,,,,,og-post,,,,AAXX 20054 07207 26/// /1014 10128 20103 39925 49976 56020 333 69945=
07207,1999-10-20 06:00:00,12,996.9,-2,95,11.2,6000,25.928,,,80,10.2,14.4,,0.4,,2,,,,2,og-post,,,,AAXX 20064 07207 /1556 80814 10120 20112 39918 49969 57020 60022 70262 887// 222// 326// 333 10144 20102 69947 92436=
07207,1999-10-20 07:00:00,11.6,996.1,-2.1,96,11,,31.484,,,80,,,1,,,,,,,,og-post,,,,AAXX 20074 07207 26/// /0817 10116 20110 39910 49961 58021 333 60015=
07207,1999-10-20 08:00:00,11.6,996.1,-1.5,97,11.1,,31.484,,53.708,80,,,0.2,,,,,,,,og-post,,,,AAXX 20084 07207 26/// /0817 10116 20111 39910 49961 56015 333 69925 91029=
07207,1999-10-20 09:00:00,11.7,995.5,-1.4,96,11.1,6000,31.484,,,90,,,,1,,,,,,2,og-post,,,,AAXX 20094 07207 21556 80917 10117 20111 39904 49955 56014 70262 887// 222// 326// 333 60017 92446=
07207,1999-10-20 10:00:00,12,995,-1.3,96,11.4,,35.188,57.412,,80,,,0.4,,,,,,,,og-post,,,,AAXX 20104 07207 26/// /0819 10120 20114 39899 49950 58013 333 69945 91131=
07207,1999-10-20 11:00:00,12.3,994.4,-1.7,94,11.4,,35.188,64.82,,90,,,,,,,,,,,og-post,,,,AAXX 20114 07207 26/// /0919 10123 20114 39893 49944 56017 333 69905 91135=
07207,1999-10-20 12:00:00,12.4,993.5,-2.1,95,11.6,7000,38.892,64.82,57.412,80,,,,1,3,,,,,61,og-post,,,,AAXX 20124 07207 /1457 80821 10124 20116 39884 49935 58021 60031 76162 887// 333 60017 91031 91135 92446=
07207,1999-10-20 13:00:00,12.5,992.8,-2,94,11.6,,38.892,68.524,68.524,90,,,0.2,,,,,,,,og-post,,,,AAXX 20134 07207 26/// /0921 10125 20116 39877 49928 58020 333 69925 91037 91137=
07207,1999-10-20 14:00:00,12.4,992.4,-1.9,95,11.6,,42.596,,64.82,80,,,0.2,,,,,,,,og-post,,,,AAXX 20144 07207 26/// /0823 10124 20116 39873 49924 56019 333 69925 91035=
07207,1999-10-20 15:00:00,12.3,992.4,-1.1,95,11.5,4000,38.892,68.524,,80,,,,0.8,,,,,,21,og-post,,,,AAXX 20154 07207 21440 80821 10123 20115 39873 49924 56011 72162 887// 333 69987 91137 92446=
07207,1999-10-20 16:00:00,12.4,992.4,-0.3,95,11.6,,31.484,57.412,53.708,90,,,0.6,,,,,,,,og-post,,,,AAXX 20164 07207 26/// /0917 10124 20116 39873 49924 56003 333 69965 91029 91131=
07207,1999-10-20 17:00:00,12.6,992.5,0.1,95,11.8,,31.484,53.708,,90,,,0.6,,,,,,,,og-post,,,,AAXX 20174 07207 26/// /0917 10126 20118 39874 49925 53001 333 69965 91129=
07207,1999-10-20 18:00:00,12.9,992.6,0.2,95,12.1,4000,31.484,68.524,,90,11.4,12.9,,1,,5,,,,21,og-post,,,,AAXX 20184 07207 /1440 80917 10129 20121 39875 49926 53002 60052 72162 887// 333 10129 20114 60017 91137 92446=
07207,1999-10-20 19:00:00,13.1,992.7,0.4,95,12.3,,25.928,,,90,,,0.2,,,,,,,,og-post,,,,AAXX 20194 07207 26/// /0914 10131 20123 39877 49927 52004 333 69925=
07207,1999-10-20 20:00:00,13.3,992.9,0.6,94,12.4,,25.928,,,90,,,,,,,,,,,og-post,,,,AAXX 20204 07207 36/// /0914 10133 20124 39879 49929 53006=
07207,1999-10-20 21:00:00,13.2,993.2,0.6,94,12.3,8000,25.928,,,80,,,,0.2,,,,,,2,og-post,,,,AAXX 20214 07207 21458 80814 10132 20123 39882 49932 53006 70262 887// 333 69927 92446=
07207,1999-10-20 22:00:00,13.2,993,0.3,95,12.4,,18.52,,,80,,,,,,,,,,,og-post,,,,AAXX 20224 07207 36/// /0810 10132 20124 39880 49930 50003=
07207,1999-10-20 23:00:00,13.1,992.7,-0.2,95,12.3,,22.224,,,80,,,,,,,,,,,og-post,,,,AAXX 20234 07207 36/// /0812 10131 20123 39877 49927 58002=
07207,1999-10-21 00:00:00,13.2,993,-0.3,95,12.4,,18.52,,,80,,,,,0.2,,,,,,og-post,,,,AAXX 21004 07207 16/// /0810 10132 20124 39880 49930 55003 69921=
07207,1999-10-21 01:00:00,13.4,992.9,-0.1,96,12.8,,18.52,,,90,,,,,,,,,,,og-post,,,,AAXX 21014 07207 36/// /0910 10134 20128 39879 49929 56001=
07207,1999-10-21 02:00:00,13.2,993.4,0.7,95,12.4,,11.112,,,70,,,,,,,,,,,og-post,,,,AAXX 21024 07207 36/// /0706 10132 20124 39884 49934 53007=
07207,1999-10-21 03:00:00,12.8,993.4,0.3,96,12.2,7000,11.112,,,70,,,,,,,,,,,og-post,,,,AAXX 21034 07207 32457 50706 10128 20122 39883 49934 53003 85700 333 92446=
07207,1999-10-21 04:00:00,12.1,993.2,0.2,96,11.5,,11.112,,,60,,,,,,,,,,,og-post,,,,AAXX 21044 07207 36/// /0606 10121 20115 39881 49932 50002=
07207,1999-10-21 05:00:00,12.7,993.9,0.5,97,12.2,,11.112,,,70,,,,,,,,,,,og-post,,,,AAXX 21054 07207 36/// /0706 10127 20122 39888 49939 53005=
07207,1999-10-21 06:00:00,12.4,994.2,0.8,97,11.9,8000,11.112,,,70,11.9,13.5,,,,0.2,,,,,og-post,,,,AAXX 21064 07207 12458 60706 10124 20119 39891 49942 53008 69922 86700 333 10135 20119 92446=
07207,1999-10-21 07:00:00,14.2,993.9,0.8,97,13.7,,14.816,,,160,,,,,,,,,,,og-post,,,,AAXX 21074 07207 36/// /1608 10142 20137 39889 49939 50008=
07207,1999-10-21 08:00:00,15.3,994.3,0.5,89,13.5,,14.816,,,230,,,,,,,,,,,og-post,,,,AAXX 21084 07207 36/// /2308 10153 20135 39893 49943 52005=
07207,1999-10-21 09:00:00,15.6,994.4,0.2,84,12.9,20000,22.224,,,240,,,,,,,,,,,og-post,,,,AAXX 21094 07207 32570 62412 10156 20129 39894 49944 53002 86800 222// 324// 333 92438=
07207,1999-10-21 10:00:00,15.8,994.6,0.7,84,13.1,,29.632,,,240,,,,,,,,,,,og-post,,,,AAXX 21104 07207 36/// /2416 10158 20131 39896 49946 51007=
07207,1999-10-21 11:00:00,15.8,994.3,0.1,85,13.3,,25.928,,,210,,,,,,,,,,,og-post,,,,AAXX 21114 07207 36/// /2114 10158 20133 39893 49943 50001=
07207,1999-10-21 12:00:00,15.2,994.5,0.2,86,12.9,8000,35.188,,,210,,,,0.2,0.2,,,,,18,og-post,,,,AAXX 21124 07207 /1458 82119 10152 20129 39895 49945 51002 69921 71822 88700 222// 324// 333 69927 92436=
07207,1999-10-21 14:00:00,15.8,993.3,-0.9,88,13.8,,46.3,64.82,,180,,,,,,,,,,,og-post,,,,AAXX 21144 07207 36/// /1825 10158 20138 39883 49933 58009 333 91135=
07207,1999-10-21 15:00:00,16.3,993.1,-1.4,87,14.1,20000,50.004,75.932,75.932,190,,,,,,,,,,2,og-post,,,,AAXX 21154 07207 31570 61927 10163 20141 39881 49931 56014 70282 84830 222// 324// 333 91041 91141 92438=
07207,1999-10-21 16:00:00,17.1,993,-0.9,83,14.2,,64.82,87.044,83.34,200,,,,,,,,,,,og-post,,,,AAXX 21164 07207 36/// /2035 10171 20142 39880 49930 56009 333 91045 91147=
07207,1999-10-21 17:00:00,16.9,993.8,0.6,84,14.2,,57.412,94.452,,220,,,,,,,,,,,og-post,,,,AAXX 21174 07207 36/// /2231 10169 20142 39888 49938 53006 333 91151=
07207,1999-10-21 18:00:00,16.3,994.7,1.5,89,14.5,12000,46.3,94.452,,220,12.4,17.1,,,,0.2,,,,2,og-post,,,,AAXX 21184 07207 11562 52225 10163 20145 39897 49947 53015 69922 70282 84830 222// 324// 333 10171 20124 91151 92437=
07207,1999-10-21 19:00:00,16.4,995,1.8,89,14.6,,46.3,,,210,,,,,,,,,,,og-post,,,,AAXX 21194 07207 36/// /2125 10164 20146 39900 49950 51018=
07207,1999-10-21 20:00:00,16.5,995.3,1.4,90,14.9,,38.892,,,220,,,,,,,,,,,og-post,,,,AAXX 21204 07207 36/// /2221 10165 20149 39903 49953 51014=
07207,1999-10-21 21:00:00,16.2,995.4,0.9,88,14.2,15000,38.892,,,220,,,,,,,,,,,og-post,,,,AAXX 21214 07207 32965 32221 10162 20142 39904 49954 51009 82031 222// 324// 333 92437=
07207,1999-10-21 22:00:00,16.2,995.4,0.4,83,13.3,,29.632,,,230,,,,,,,,,,,og-post,,,,AAXX 21224 07207 36/// /2316 10162 20133 39904 49954 50004=
07207,1999-10-21 23:00:00,16.3,995.6,0.2,86,14,,31.484,,,220,,,,,,,,,,,og-post,,,,AAXX 21234 07207 36/// /2217 10163 20140 39906 49956 51002=
07207,1999-10-22 00:00:00,16.3,995.4,-0.1,88,14.3,,29.632,,,210,,,,,,,,,,,og-post,,,,AAXX 22004 07207 36/// /2116 10163 20143 39904 49954 58001=
07207,1999-10-22 01:00:00,16.2,995.1,-0.4,87,14,,35.188,,,200,,,,,,,,,,,og-post,,,,AAXX 22014 07207 36/// /2019 10162 20140 39901 49951 58004=
07207,1999-10-22 02:00:00,16.1,994.4,-1.2,93,15,,31.484,50.004,,190,,,3,,,,,,,,og-post,,,,AAXX 22024 07207 26/// /1917 10161 20150 39894 49944 58012 333 60035 91127=
07207,1999-10-22 03:00:00,15.9,994.1,-1.2,90,14.3,10000,42.596,64.82,64.82,190,,,,5,,,,,,17,og-post,,,,AAXX 22034 07207 21460 81923 10159 20143 39891 49941 56012 71761 88300 222// 324// 333 60057 91035 91135 92447=
07207,1999-10-22 05:00:00,16.1,992.9,-1.5,92,14.8,,31.484,,,190,,,,,,,,,,,og-post,,,,AAXX 22054 07207 36/// /1917 10161 20148 39879 49929 58015=
07207,1999-10-22 06:00:00,16,992.6,-1.5,91,14.5,8000,46.3,64.82,,200,14.3,16.6,,0.2,,6,,,,21,og-post,,,,AAXX 22064 07207 /1458 82025 10160 20145 39876 49926 56015 60062 72162 885// 222// 324// 333 10166 20143 69927 91135 92446=
07207,1999-10-22 07:00:00,13.4,992.6,-0.7,93,12.3,,29.632,68.524,,210,,,2,,,,,,,,og-post,,,,AAXX 22074 07207 26/// /2116 10134 20123 39876 49926 55007 333 60025 91137=
07207,1999-10-22 08:00:00,15.6,992.5,-0.3,91,14.1,,25.928,,,220,,,0.2,,,,,,,,og-post,,,,AAXX 22084 07207 26/// /2214 10156 20141 39875 49925 56003 333 69925=
07207,1999-10-22 09:00:00,15,992.7,0.2,88,13,12000,42.596,72.228,72.228,220,,,,3,,,,,,81,og-post,,,,AAXX 22094 07207 21462 82223 10150 20130 39877 49927 51002 78182 889// 222// 326// 333 60037 91039 91139 92447=
07207,1999-10-22 10:00:00,16.2,992.8,0.1,83,13.3,,35.188,,,220,,,0.2,,,,,,,,og-post,,,,AAXX 22104 07207 26/// /2219 10162 20133 39878 49928 51001 333 69925=
07207,1999-10-22 11:00:00,15.1,993,0.3,83,12.2,,35.188,64.82,,230,,,0.2,,,,,,,,og-post,,,,AAXX 22114 07207 26/// /2319 10151 20122 39880 49930 53003 333 69925 91135=
07207,1999-10-22 12:00:00,15.8,993.2,0.5,85,13.3,15000,31.484,72.228,,220,,,,0.4,3,,,,,25,og-post,,,,AAXX 22124 07207 /1465 62217 10158 20133 39882 49932 53005 60031 72582 86900 222// 326// 333 69947 91139 92447=
07207,1999-10-22 13:00:00,15.5,993,0.3,74,10.9,,38.892,,,240,,,,,,,,,,,og-post,,,,AAXX 22134 07207 36/// /2421 10155 20109 39880 49930 50003=
07207,1999-10-22 14:00:00,15.9,992.8,-0.2,80,12.5,,29.632,53.708,,220,,,0.4,,,,,,,,og-post,,,,AAXX 22144 07207 26/// /2216 10159 20125 39878 49928 58002 333 69945 91129=
07207,1999-10-22 15:00:00,12.9,993.2,-0,90,11.3,4000,50.004,79.636,75.932,240,,,,2,,,,,,81,og-post,,,,AAXX 22154 07207 21440 72427 10129 20113 39881 49932 55000 78182 879// 222// 326// 333 60027 91041 91143 92447=
07207,1999-10-22 16:00:00,15.5,992.5,-0.4,84,12.8,,35.188,,,220,,,0.2,,,,,,,,og-post,,,,AAXX 22164 07207 26/// /2219 10155 20128 39875 49925 58004 333 69925=
07207,1999-10-22 17:00:00,14,993,0.2,88,12,,31.484,83.34,,260,,,6,,,,,,,,og-post,,,,AAXX 22174 07207 26/// /2617 10140 20120 39880 49930 51002 333 60065 91145=
07207,1999-10-22 18:00:00,14.7,993,-0.2,88,12.7,6000,38.892,83.34,,240,12.1,16.7,,7,,12,,,,25,og-post,,,,AAXX 22184 07207 /1556 72421 10147 20127 39880 49930 55002 60122 72582 879// 222// 326// 333 10167 20121 60077 91145 92447=
07207,1999-10-22 19:00:00,15.4,992.8,0.3,84,12.7,,42.596,61.116,,210,,,,,,,,,,,og-post,,,,AAXX 22194 07207 36/// /2123 10154 20127 39878 49928 50003 333 91133=
07207,1999-10-22 20:00:00,14.3,992.8,-0.1,85,11.8,,50.004,90.748,,220,,,0.8,,,,,,,,og-post,,,,AAXX 22204 07207 26/// /2227 10143 20118 39878 49928 58001 333 69985 91149=
07207,1999-10-22 21:00:00,15.6,992.5,-0.6,83,12.7,8000,53.708,90.748,72.228,210,,,,0.8,,,,,,2,og-post,,,,AAXX 22214 07207 21558 72129 10156 20127 39875 49925 58006 70282 879// 222// 326// 333 69987 91039 91149 92457=
07207,1999-10-22 22:00:00,14.6,992.3,-0.8,92,13.3,,42.596,,,210,,,2,,,,,,,,og-post,,,,AAXX 22224 07207 26/// /2123 10146 20133 39873 49923 58008 333 60025=
07207,1999-10-22 23:00:00,14.9,991.5,-1.1,90,13.3,,61.116,100.008,100.008,220,,,0.4,,,,,,,,og-post,,,,AAXX 22234 07207 26/// /2233 10149 20133 39865 49915 57011 333 69945 91054 91154=
07207,1999-10-23 00:00:00,14.3,991.7,-0.7,85,11.8,,46.3,100.008,,220,,,,3,4,,,,,,og-post,,,,AAXX 23004 07207 /6/// /2225 10143 20118 39867 49917 55007 60041 333 60037 91154=
07207,1999-10-23 01:00:00,15.4,991.1,-1,87,13.2,,57.412,75.932,,220,,,,,,,,,,,og-post,,,,AAXX 23014 07207 36/// /2231 10154 20132 39861 49911 58010 333 91141=
07207,1999-10-23 02:00:00,13.8,991.7,0.1,90,12.2,,46.3,83.34,72.228,250,,,2,,,,,,,,og-post,,,,AAXX 23024 07207 26/// /2525 10138 20122 39867 49917 53001 333 60025 91039 91145=
07207,1999-10-23 03:00:00,15.3,991.7,-0.2,85,12.8,12000,50.004,83.34,72.228,240,,,,2,,,,,,3,og-post,,,,AAXX 23034 07207 21462 82427 10153 20128 39867 49917 56002 70382 8597/ 222// 326// 333 60027 91039 91145 92457=
07207,1999-10-23 04:00:00,15.6,991.7,0.9,87,13.4,,50.004,83.34,,230,,,,,,,,,,,og-post,,,,AAXX 23044 07207 36/// /2327 10156 20134 39867 49917 51009 333 91145=
07207,1999-10-23 05:00:00,16,992.2,0.2,84,13.3,,50.004,83.34,83.34,240,,,,,,,,,,,og-post,,,,AAXX 23054 07207 36/// /2427 10160 20133 39872 49922 53002 333 91045 91145=
07207,1999-10-23 06:00:00,16,992.6,0.9,81,12.7,6000,50.004,83.34,68.524,240,13.3,16,,,,6,,,,25,og-post,,,,AAXX 23064 07207 11456 62427 10160 20127 39876 49926 53009 60062 72582 86900 222// 326// 333 10160 20133 91037 91145 92457=
07207,1999-10-23 09:00:00,15.6,994.2,2,79,12,15000,42.596,75.932,68.524,240,,,,0.2,,,,,,15,og-post,,,,AAXX 23094 07207 21465 62423 10156 20120 39892 49942 53020 71582 86900 222// 326// 333 69927 91037 91141 92457=
07207,1999-10-23 10:00:00,14.4,995,2.1,86,12.1,,42.596,72.228,,240,,,0.8,,,,,,,,og-post,,,,AAXX 23104 07207 26/// /2423 10144 20121 39900 49950 51021 333 69985 91139=
07207,1999-10-23 11:00:00,15.3,995,1.3,86,13,,35.188,57.412,57.412,230,,,0.2,,,,,,,,og-post,,,,AAXX 23114 07207 26/// /2319 10153 20130 39900 49950 51013 333 69925 91031 91131=
07207,1999-10-23 12:00:00,16.1,994.8,0.4,80,12.6,15000,50.004,75.932,68.524,240,,,,1,1,,,,,2,og-post,,,,AAXX 23124 07207 /1465 62427 10161 20126 39898 49948 50004 60011 70282 83970 222// 326// 333 60017 91037 91141 92457=
07207,1999-10-23 14:00:00,15.5,994.5,-0.4,83,12.6,,46.3,75.932,68.524,230,,,,,,,,,,,og-post,,,,AAXX 23144 07207 36/// /2325 10155 20126 39895 49945 55004 333 91037 91141=
07207,1999-10-23 15:00:00,16.1,994.2,-0.6,82,13,15000,46.3,75.932,64.82,240,,,,,,,,,,,og-post,,,,AAXX 23154 07207 32465 62425 10161 20130 39892 49942 58006 83970 222// 326// 333 91035 91141 92457=
07207,1999-10-23 16:00:00,15.7,994,-0.6,84,13,,42.596,,,220,,,,,,,,,,,og-post,,,,AAXX 23164 07207 36/// /2223 10157 20130 39890 49940 58006=
07207,1999-10-23 17:00:00,15.4,993.2,-1.5,85,12.9,,38.892,,,200,,,,,,,,,,,og-post,,,,AAXX 23174 07207 36/// /2021 10154 20129 39882 49932 58015=
07207,1999-10-23 18:00:00,14,991.9,-2.2,94,13,6000,50.004,83.34,83.34,210,13.8,16.3,,3,,4,,,,81,og-post,,,,AAXX 23184 07207 /1456 82127 10140 20130 39869 49919 58022 60042 78122 889// 222// 326// 333 10163 20138 60037 91045 91145 92456=
07207,1999-10-23 19:00:00,14.4,991.2,-2.7,90,12.8,,46.3,68.524,64.82,210,,,2,,,,,,,,og-post,,,,AAXX 23194 07207 26/// /2125 10144 20128 39862 49912 58027 333 60025 91035 91137=
07207,1999-10-23 20:00:00,14.6,989.1,-4.3,90,13,,42.596,,,170,,,0.4,,,,,,,,og-post,,,,AAXX 23204 07207 26/// /1723 10146 20130 39841 49891 58043 333 69945=
07207,1999-10-23 21:00:00,15.3,986.7,-5.6,91,13.8,6000,50.004,83.34,83.34,150,,,,3,,,,,,60,og-post,,,,AAXX 23214 07207 21356 81527 10153 20138 39817 49867 58056 76086 887// 222// 326// 333 60037 91045 91145 92456=
07207,1999-10-23 22:00:00,15.2,984.7,-6.2,93,14.1,,57.412,100.008,79.636,180,,,3,,,,,,,,og-post,,,,AAXX 23224 07207 26/// /1831 10152 20141 39797 49847 56062 333 60035 91043 91154=
07207,1999-10-23 23:00:00,15.5,981,-8.1,92,14.2,,50.004,83.34,75.932,150,,,0.8,,,,,,,,og-post,,,,AAXX 23234 07207 26/// /1527 10155 20142 39761 49810 58081 333 69985 91041 91145=
07207,1999-10-24 00:00:00,16.3,976.8,-9.5,88,14.3,,50.004,100.008,75.932,190,,,,4,7,,,,,,og-post,,,,AAXX 24004 07207 /6/// /1927 10163 20143 39719 49768 58095 60071 333 60047 91041 91154=
07207,1999-10-24 01:00:00,13.9,977.4,-7.9,89,12.1,,79.636,125.936,125.936,270,,,,,,,,,,,og-post,,,,AAXX 24014 07207 26/// /2743 10139 20121 39724 49774 56079 333 69905 91068 91168=
07207,1999-10-24 02:00:00,13,981.7,0.8,88,11.1,,64.82,118.528,94.452,270,,,0.2,,,,,,,,og-post,,,,AAXX 24024 07207 26/// /2735 10130 20111 39767 49817 53008 333 69925 91051 91164=
07207,1999-10-24 03:00:00,14.3,983.4,6.3,80,10.9,15000,53.708,125.936,83.34,270,,,,0.2,,,,,,21,og-post,,,,AAXX 24034 07207 21565 42729 10143 20109 39784 49834 53063 72181 84200 222// 326// 333 69927 91045 91168 92457=
07207,1999-10-24 04:00:00,14.6,983.8,6.6,78,10.8,,50.004,83.34,72.228,260,,,,,,,,,,,og-post,,,,AAXX 24044 07207 36/// /2627 10146 20108 39788 49838 51066 333 91039 91145=
07207,1999-10-24 05:00:00,14.3,984.4,2.6,82,11.3,,42.596,,,250,,,0.2,,,,,,,,og-post,,,,AAXX 24054 07207 26/// /2523 10143 20113 39794 49844 51026 333 69925=
07207,1999-10-24 06:00:00,12.9,984.7,1.4,84,10.3,20000,42.596,125.936,64.82,270,12.4,16.7,,1,,9,,,,21,og-post,,,,AAXX 24064 07207 /1470 62723 10129 20103 39797 49847 51014 60092 72186 86900 222// 326// 333 10167 20124 60017 91035 91168 92458=
07207,1999-10-24 07:00:00,14,985.1,1.4,80,10.6,,50.004,75.932,75.932,250,,,,,,,,,,,og-post,,,,AAXX 24074 07207 36/// /2527 10140 20106 39801 49851 51014 333 91041 91141=
07207,1999-10-24 08:00:00,14.3,986.1,1.6,74,9.7,,50.004,79.636,,260,,,,,,,,,,,og-post,,,,AAXX 24084 07207 36/// /2627 10143 20097 39811 49861 53016 333 91143=
07207,1999-10-24 09:00:00,14.6,986.6,2,68,8.8,20000,42.596,79.636,64.82,250,,,,,,,,,,2,og-post,,,,AAXX 24094 07207 31470 62523 10146 20088 39816 49866 53020 70282 86900 222// 326// 333 91035 91143 92458=
07207,1999-10-24 10:00:00,14.3,987.2,1.9,74,9.7,,42.596,75.932,,240,,,0.2,,,,,,,,og-post,,,,AAXX 24104 07207 26/// /2423 10143 20097 39822 49872 51019 333 69925 91141=
07207,1999-10-24 11:00:00,14,986.8,0.7,76,9.8,,50.004,79.636,75.932,230,,,,,,,,,,,og-post,,,,AAXX 24114 07207 36/// /2327 10140 20098 39818 49868 50007 333 91041 91143=
07207,1999-10-24 12:00:00,14.9,986.8,0.2,75,10.5,20000,50.004,79.636,,230,,,,0.2,0.2,,,,,2,og-post,,,,AAXX 24124 07207 /1470 62327 10149 20105 39818 49868 50002 69921 70282 86270 222// 326// 333 69927 91143 92458=
07207,1999-10-24 13:00:00,13.6,986.6,-0.3,77,9.6,,50.004,75.932,72.228,240,,,0.2,,,,,,,,og-post,,,,AAXX 24134 07207 26/// /2427 10136 20096 39816 49866 58003 333 69925 91039 91141=
07207,1999-10-24 14:00:00,12.4,986.7,-0,84,9.8,,46.3,83.34,83.34,230,,,0.8,,,,,,,,og-post,,,,AAXX 24144 07207 26/// /2325 10124 20098 39817 49867 55000 333 69985 91045 91145=
07207,1999-10-24 15:00:00,13.1,986.3,-0.6,84,10.5,,46.3,83.34,68.524,220,,,,2,,,,,,,og-post,,,,AAXX 24154 07207 26/// /2225 10131 20105 39813 49863 58006 333 60027 91037 91145=
07207,1999-10-24 16:00:00,13.9,985.2,-1.2,87,11.8,,53.708,75.932,,210,,,0.4,,,,,,,,og-post,,,,AAXX 24164 07207 26/// /2129 10139 20118 39802 49852 58012 333 69945 91141=
07207,1999-10-24 17:00:00,14.2,985.9,-1,85,11.7,,50.004,90.748,75.932,240,,,0.2,,,,,,,,og-post,,,,AAXX 24174 07207 26/// /2427 10142 20117 39809 49859 55010 333 69925 91041 91149=
07207,1999-10-24 18:00:00,13,986.3,-0.1,89,11.2,8000,53.708,94.452,,220,11.9,15,,2,,4,,,,81,og-post,,,,AAXX 24184 07207 /1458 72229 10130 20112 39813 49863 55001 60042 78182 879// 222// 325// 333 10150 20119 60027 91151 92456=
07207,1999-10-24 19:00:00,14.6,986.5,1.4,85,12.1,,42.596,,64.82,230,,,,,,,,,,,og-post,,,,AAXX 24194 07207 26/// /2323 10146 20121 39815 49865 51014 333 69905 91035=
07207,1999-10-24 20:00:00,14.5,987.1,1.5,86,12.2,,46.3,72.228,,220,,,0.6,,,,,,,,og-post,,,,AAXX 24204 07207 26/// /2225 10145 20122 39821 49871 51015 333 69965 91139=
07207,1999-10-24 21:00:00,14.9,987.3,0.9,83,12,,50.004,,,220,,,,0.6,,,,,,,og-post,,,,AAXX 24214 07207 26/// /2227 10149 20120 39823 49873 53009 333 69967=
07207,1999-10-24 22:00:00,13.8,987.4,0.8,87,11.7,,38.892,,,220,,,0.4,,,,,,,,og-post,,,,AAXX 24224 07207 26/// /2221 10138 20117 39824 49874 51008 333 69945=
07207,1999-10-24 23:00:00,14.1,987.3,0.2,86,11.8,,29.632,,,240,,,,,,,,,,,og-post,,,,AAXX 24234 07207 36/// /2416 10141 20118 39823 49873 50002=
07207,1999-10-25 00:00:00,14.4,987.5,0.4,86,12.1,,25.928,,,250,,,,0.4,1,,,,,,og-post,,,,AAXX 25004 07207 /6/// /2514 10144 20121 39825 49875 53004 60011 333 69947=
07207,1999-10-25 01:00:00,14.8,988,0.7,86,12.5,,29.632,53.708,,250,,,,,,,,,,,og-post,,,,AAXX 25014 07207 36/// /2516 10148 20125 39830 49880 53007 333 91129=
07207,1999-10-25 02:00:00,14.1,988.5,1.2,92,12.8,,31.484,,,260,,,1,,,,,,,,og-post,,,,AAXX 25024 07207 26/// /2617 10141 20128 39835 49885 53012 333 60015=
07207,1999-10-25 03:00:00,15.1,989.1,1.5,85,12.6,15000,38.892,,,260,,,,1,,,,,,1,og-post,,,,AAXX 25034 07207 21465 62621 10151 20126 39841 49891 53015 70182 86600 222// 325// 333 60017 92457=
07207,1999-10-25 04:00:00,15.1,989.3,1.4,86,12.8,,29.632,53.708,,250,,,,,,,,,,,og-post,,,,AAXX 25044 07207 36/// /2516 10151 20128 39843 49893 51014 333 91129=
07207,1999-10-25 05:00:00,15.3,989.5,1,86,13,,35.188,61.116,,240,,,,,,,,,,,og-post,,,,AAXX 25054 07207 36/// /2419 10153 20130 39845 49895 51010 333 91133=
07207,1999-10-25 06:00:00,15.4,990.2,1.2,85,12.9,15000,42.596,,,240,13,15.4,,,,2,,,,1,og-post,,,,AAXX 25064 07207 11465 42423 10154 20129 39852 49902 53012 60022 70182 84900 222// 325// 333 10154 20130 92457=
07207,1999-10-25 07:00:00,15.1,990.3,1,86,12.8,,42.596,68.524,68.524,220,,,0.2,,,,,,,,og-post,,,,AAXX 25074 07207 26/// /2223 10151 20128 39853 49903 52010 333 69925 91037 91137=
07207,1999-10-25 08:00:00,15.4,991.4,1.7,82,12.3,,42.596,68.524,64.82,230,,,,,,,,,,,og-post,,,,AAXX 25084 07207 26/// /2323 10154 20123 39864 49914 53017 333 69905 91035 91137=
07207,1999-10-25 09:00:00,15.6,992.1,1.7,84,12.9,12000,46.3,68.524,68.524,230,,,,0.2,,,,,,2,og-post,,,,AAXX 25094 07207 21462 62325 10156 20129 39871 49921 53017 70282 86900 222// 325// 333 69927 91037 91137 92457=
07207,1999-10-25 10:00:00,14.9,993.1,2.4,87,12.8,,42.596,68.524,,240,,,0.4,,,,,,,,og-post,,,,AAXX 25104 07207 26/// /2423 10149 20128 39881 49931 51024 333 69945 91137=
07207,1999-10-25 11:00:00,15.5,993.9,2.5,83,12.6,,46.3,68.524,68.524,240,,,,,,,,,,,og-post,,,,AAXX 25114 07207 36/// /2425 10155 20126 39889 49939 53025 333 91037 91137=
07207,1999-10-25 12:00:00,15.7,994.6,2.6,79,12.1,25000,50.004,72.228,72.228,240,,,,0.4,0.6,,,,,1,og-post,,,,AAXX 25124 07207 /1475 42427 10157 20121 39896 49946 51026 69961 70181 84900 222// 325// 333 69947 91039 91139 92458=
07207,1999-10-25 13:00:00,15.3,995.8,2.8,84,12.6,,38.892,72.228,64.82,260,,,,,,,,,,,og-post,,,,AAXX 25134 07207 36/// /2621 10153 20126 39908 49958 53028 333 91035 91139=
07207,1999-10-25 14:00:00,15.5,996.9,2.7,81,12.3,,38.892,64.82,,260,,,,,,,,,,,og-post,,,,AAXX 25144 07207 36/// /2621 10155 20123 39919 49969 53027 333 91135=
07207,1999-10-25 17:00:00,14.7,1001,4.1,82,11.7,,31.484,,,290,,,,,,,,,,,og-post,,,,AAXX 25174 07207 36/// /2917 10147 20117 39959 40010 53041=
07207,1999-10-25 18:00:00,14.4,1002.8,4.3,79,10.8,20000,29.632,72.228,,290,14.3,15.9,,,,0.6,,,,,og-post,,,,AAXX 25184 07207 12570 62916 10144 20108 39977 40028 53043 69962 86200 222// 325// 333 10159 20143 91139 92448=
07207,1999-10-25 21:00:00,14.5,1006.7,3.8,79,10.9,20000,14.816,,,310,,,,,,,,,,,og-post,,,,AAXX 25214 07207 32570 63108 10145 20109 30016 40067 53038 86200 222// 325// 333 92448=
07207,1999-10-25 23:00:00,13.5,1008.6,3.3,82,10.5,,11.112,,,350,,,,,,,,,,,og-post,,,,AAXX 25234 07207 36/// /3506 10135 20105 30035 40086 51033=
07207,1999-10-26 00:00:00,12.2,1009.5,2.8,88,10.3,,11.112,,,350,,,,,,,,,,,og-post,,,,AAXX 26004 07207 36/// /3506 10122 20103 30043 40095 51028=
07207,1999-10-26 02:00:00,12.1,1010.9,2.1,88,10.2,,7.408,,,350,,,,,,,,,,,og-post,,,,AAXX 26024 07207 36/// /3504 10121 20102 30057 40109 51021=
07207,1999-10-26 03:00:00,11.7,1011.7,2.1,88,9.8,,3.704,,,360,,,,,,,,,,,og-post,,,,AAXX 26034 07207 36/// /3602 10117 20098 30065 40117 52021=
07207,1999-10-26 06:00:00,11.3,1014.2,2.5,90,9.7,20000,7.408,,,10,10.8,14.6,,,,,,,,,og-post,,,,AAXX 26064 07207 32570 40104 10113 20097 30090 40142 53025 84200 222// 325// 333 10146 20108 92428=
07207,1999-10-26 07:00:00,11.9,1015.2,2.7,92,10.6,,11.112,,,70,,,,,,,,,,,og-post,,,,AAXX 26074 07207 36/// /0706 10119 20106 30100 40152 53027=
07207,1999-10-26 08:00:00,13.4,1016.4,3,92,12.1,,11.112,,,70,,,,,,,,,,,og-post,,,,AAXX 26084 07207 36/// /0706 10134 20121 30112 40164 53030=
07207,1999-10-26 09:00:00,14.5,1017.3,3.2,91,13,25000,14.816,,,70,,,,,,,,,,,og-post,,,,AAXX 26094 07207 32575 50708 10145 20130 30122 40173 52032 85300 222// 325// 333 92428=
07207,1999-10-26 10:00:00,16.1,1018,3,85,13.6,,7.408,,,130,,,,,,,,,,,og-post,,,,AAXX 26104 07207 36/// /1304 10161 20136 30129 40180 51030=
07207,1999-10-26 11:00:00,16.3,1019,2.8,84,13.6,,11.112,,,140,,,,,,,,,,,og-post,,,,AAXX 26114 07207 36/// /1406 10163 20136 30139 40190 51028=
07207,1999-10-26 12:00:00,16.7,1019.5,2.1,81,13.4,30000,7.408,,,120,,,,,,,,,,,og-post,,,,AAXX 26124 07207 32580 51204 10167 20134 30144 40195 51021 85300 222// 325// 333 92428=
07207,1999-10-26 13:00:00,16.3,1019.5,1.4,81,13,,11.112,,,140,,,,,,,,,,,og-post,,,,AAXX 26134 07207 36/// /1406 10163 20130 30144 40195 51014=
07207,1999-10-26 14:00:00,16.9,1019.9,0.8,78,13,,11.112,,,160,,,,,,,,,,,og-post,,,,AAXX 26144 07207 36/// /1606 10169 20130 30148 40199 52008=
07207,1999-10-26 15:00:00,17,1020.1,0.6,75,12.5,30000,3.704,,,180,,,,,,,,,,,og-post,,,,AAXX 26154 07207 32580 31802 10170 20125 30150 40201 53006 83200 222// 326// 333 92428=
07207,1999-10-26 16:00:00,16,1020.9,1.4,76,11.8,,3.704,,,70,,,,,,,,,,,og-post,,,,AAXX 26164 07207 36/// /0702 10160 20118 30158 40209 53014=
07207,1999-10-26 17:00:00,14.2,1021.6,1.7,82,11.2,,3.704,,,50,,,,,,,,,,,og-post,,,,AAXX 26174 07207 36/// /0502 10142 20112 30164 40216 53017=
07207,1999-10-26 18:00:00,12.5,1022.5,2.3,87,10.4,25000,7.408,,,50,10.7,17.5,,,,,,,,,og-post,,,,AAXX 26184 07207 32575 30504 10125 20104 30173 40225 52023 83200 222// 326// 333 10175 20107 92438=
07207,1999-10-26 19:00:00,11.7,1023.1,2.1,89,9.9,,7.408,,,30,,,,,,,,,,,og-post,,,,AAXX 26194 07207 36/// /0304 10117 20099 30179 40231 51021=
07207,1999-10-26 20:00:00,11.9,1023.6,1.9,90,10.3,,11.112,,,50,,,,,,,,,,,og-post,,,,AAXX 26204 07207 36/// /0506 10119 20103 30184 40236 51019=
07207,1999-10-26 21:00:00,11.8,1024.2,1.6,91,10.4,30000,14.816,,,40,,,,,,,,,,,og-post,,,,AAXX 26214 07207 32980 00408 10118 20104 30190 40242 51016 222// 326// 333 92438=
07207,1999-10-26 22:00:00,11.6,1024.6,1.5,93,10.5,,18.52,,,50,,,,,,,,,,,og-post,,,,AAXX 26224 07207 36/// /0510 10116 20105 30194 40246 51015=
07207,1999-10-26 23:00:00,11.5,1025,1.4,95,10.7,,14.816,,,40,,,,,,,,,,,og-post,,,,AAXX 26234 07207 36/// /0408 10115 20107 30198 40250 51014=
07207,1999-10-27 00:00:00,12.1,1025.1,0.9,96,11.5,,14.816,,,70,,,,0.2,0.2,,,,,,og-post,,,,AAXX 27004 07207 /6/// /0708 10121 20115 30199 40251 51009 69921 333 69927=
07207,1999-10-27 01:00:00,13,1025,0.5,95,12.2,,14.816,,,100,,,,,,,,,,,og-post,,,,AAXX 27014 07207 36/// /1008 10130 20122 30198 40250 51005=
07207,1999-10-27 02:00:00,13.6,1024.7,-0.3,92,12.3,,14.816,,,120,,,,,,,,,,,og-post,,,,AAXX 27024 07207 36/// /1208 10136 20123 30195 40247 58003=
07207,1999-10-27 03:00:00,13.5,1025,-0.1,89,11.7,25000,14.816,,,100,,,,,,,,,,,og-post,,,,AAXX 27034 07207 32975 01008 10135 20117 30198 40250 55001 222// 326// 333 92428=
07207,1999-10-27 04:00:00,11.7,1025.1,-0,90,10.1,,14.816,,,80,,,,,,,,,,,og-post,,,,AAXX 27044 07207 36/// /0808 10117 20101 30199 40251 55000=
07207,1999-10-27 05:00:00,11.9,1025.4,0.7,95,11.1,,22.224,,,60,,,,,,,,,,,og-post,,,,AAXX 27054 07207 36/// /0612 10119 20111 30202 40254 53007=
07207,1999-10-27 06:00:00,11.7,1025.3,0.5,97,11.2,300,18.52,,,70,11.1,13.7,,,,0.2,,,,46,og-post,,,,AAXX 27064 07207 11903 00710 10117 20112 30201 40253 51005 69922 74600 222// 326// 333 10137 20111 92422=
07207,1999-10-27 07:00:00,11.6,1025.3,0.3,97,11.1,,22.224,,,70,,,,,,,,,,,og-post,,,,AAXX 27074 07207 36/// /0712 10116 20111 30201 40253 51003=
07207,1999-10-27 08:00:00,12.3,1025.7,0.2,97,11.8,,18.52,,,80,,,,,,,,,,,og-post,,,,AAXX 27084 07207 36/// /0810 10123 20118 30205 40257 52002=
07207,1999-10-27 09:00:00,13.8,1025.6,0.2,94,12.9,20000,18.52,,,100,,,,,,,,,,28,og-post,,,,AAXX 27094 07207 31970 01010 10138 20129 30204 40256 50002 72840 222// 327// 333 92428=
07207,1999-10-27 10:00:00,14.6,1026,0.6,89,12.8,,14.816,,,110,,,,,,,,,,,og-post,,,,AAXX 27104 07207 36/// /1108 10146 20128 30208 40260 53006=
07207,1999-10-27 11:00:00,15.6,1025.4,-0.2,85,13.1,,14.816,,,100,,,,,,,,,,,og-post,,,,AAXX 27114 07207 36/// /1008 10156 20131 30202 40254 58002=
07207,1999-10-27 12:00:00,16.7,1025.1,-0.3,80,13.2,20000,11.112,,,100,,,,,,,,,,2,og-post,,,,AAXX 27124 07207 31970 11006 10167 20132 30200 40251 58003 70240 81030 222// 327// 333 92428=
07207,1999-10-27 13:00:00,16.7,1024.6,-1.5,78,12.8,,18.52,,,100,,,,,,,,,,,og-post,,,,AAXX 27134 07207 36/// /1010 10167 20128 30195 40246 57015=
07207,1999-10-27 14:00:00,17.3,1023.6,-1.7,75,12.8,,22.224,,,100,,,,,,,,,,,og-post,,,,AAXX 27144 07207 36/// /1012 10173 20128 30185 40236 58017=
07207,1999-10-27 15:00:00,17.2,1023.3,-1.8,76,12.9,25000,22.224,,,100,,,,,,,,,,,og-post,,,,AAXX 27154 07207 32975 11012 10172 20129 30182 40233 56018 81030 222// 327// 333 92428=
07207,1999-10-27 16:00:00,17.2,1022.7,-1.9,75,12.7,,22.224,,,100,,,,,,,,,,,og-post,,,,AAXX 27164 07207 36/// /1012 10172 20127 30176 40227 56019=
07207,1999-10-27 17:00:00,16.6,1022.5,-1,78,12.7,,18.52,,,100,,,,,,,,,,,og-post,,,,AAXX 27174 07207 36/// /1010 10166 20127 30174 40225 57010=
07207,1999-10-27 18:00:00,16.4,1022.6,-0.7,82,13.3,20000,18.52,,,100,11.4,17.6,,,,,,,,,og-post,,,,AAXX 27184 07207 32970 31010 10164 20133 30175 40226 55007 83030 222// 327// 333 10176 20114 92428=
07207,1999-10-27 19:00:00,16.7,1022.4,-0.3,80,13.2,,11.112,,,110,,,,,,,,,,,og-post,,,,AAXX 27194 07207 36/// /1106 10167 20132 30173 40224 57003=
07207,1999-10-27 20:00:00,16.6,1022.6,0.1,85,14.1,,11.112,,,120,,,,,,,,,,,og-post,,,,AAXX 27204 07207 36/// /1206 10166 20141 30175 40226 53001=
07207,1999-10-27 21:00:00,16.3,1022.8,0.2,88,14.3,,7.408,,,110,,,,,,,,,,,og-post,,,,AAXX 27214 07207 36/// /1104 10163 20143 30177 40228 53002=
07207,1999-10-27 22:00:00,16.3,1022.6,0.1,88,14.3,,11.112,,,120,,,,,,,,,,,og-post,,,,AAXX 27224 07207 36/// /1206 10163 20143 30175 40226 50001=
07207,1999-10-27 23:00:00,16.4,1022.5,-0.2,89,14.6,,11.112,,,110,,,,,,,,,,,og-post,,,,AAXX 27234 07207 36/// /1106 10164 20146 30174 40225 58002=
07207,1999-10-28 00:00:00,16.5,1022.3,-0.5,88,14.5,,11.112,,,110,,,,,,,,,,,og-post,,,,AAXX 28004 07207 36/// /1106 10165 20145 30172 40223 57005=
07207,1999-10-28 01:00:00,16.4,1022.1,-0.6,87,14.2,,7.408,,,130,,,,,,,,,,,og-post,,,,AAXX 28014 07207 36/// /1304 10164 20142 30170 40221 58006=
07207,1999-10-28 02:00:00,15.7,1022.3,-0.2,93,14.6,,7.408,,,130,,,,,,,,,,,og-post,,,,AAXX 28024 07207 36/// /1304 10157 20146 30172 40223 55002=
07207,1999-10-28 03:00:00,15.8,1022.1,-0.2,94,14.8,,7.408,,,170,,,,,,,,,,,og-post,,,,AAXX 28034 07207 36/// /1704 10158 20148 30170 40221 56002=
07207,1999-10-28 04:00:00,15.7,1022.5,0.5,95,14.9,,7.408,,,240,,,,,,,,,,,og-post,,,,AAXX 28044 07207 36/// /2404 10157 20149 30174 40225 53005=
07207,1999-10-28 05:00:00,15.6,1022.7,0.3,95,14.8,,11.112,,,280,,,,,,,,,,,og-post,,,,AAXX 28054 07207 36/// /2806 10156 20148 30175 40227 53003=
07207,1999-10-28 06:00:00,15.5,1023.3,1.1,95,14.7,15000,11.112,,,300,,,,,,,,,,,og-post,,,,AAXX 28064 07207 32565 53006 10155 20147 30181 40233 53011 85230 222// 327// 333 10168 20154 92427=
07207,1999-10-28 07:00:00,15.2,1023.5,0.9,94,14.2,,7.408,,,310,,,,,,,,,,,og-post,,,,AAXX 28074 07207 36/// /3104 10152 20142 30183 40235 53009=
07207,1999-10-28 08:00:00,14.3,1024.3,1.6,95,13.5,,,,,,,,,,,,,,,,og-post,,,,AAXX 28084 07207 36/// /0000 10143 20135 30191 40243 53016=
07207,1999-10-28 09:00:00,15.4,1024.5,1.2,95,14.6,12000,7.408,,,130,,,,,,,,,,,og-post,,,,AAXX 28094 07207 32662 61304 10154 20146 30193 40245 53012 83570 333 92427=
07207,1999-10-28 10:00:00,16.2,1024.3,1,94,15.2,,11.112,,,150,,,,,,,,,,,og-post,,,,AAXX 28104 07207 36/// /1506 10162 20152 30192 40243 51010=
07207,1999-10-28 11:00:00,16.4,1024.5,0.4,93,15.3,,7.408,,,140,,,,,,,,,,,og-post,,,,AAXX 28114 07207 36/// /1404 10164 20153 30194 40245 51004=
07207,1999-10-28 12:00:00,16.6,1024.5,-0,90,15,12000,3.704,,,140,,,,,,,,,,,og-post,,,,AAXX 28124 07207 32962 51402 10166 20150 30194 40245 54000 83076 333 92427=
07207,1999-10-28 13:00:00,17,1024.6,0.3,91,15.5,,7.408,,,150,,,,,,,,,,,og-post,,,,AAXX 28134 07207 36/// /1504 10170 20155 30195 40246 52003=
07207,1999-10-28 14:00:00,17.9,1024.2,-0.3,89,16.1,,3.704,,,140,,,,,,,,,,,og-post,,,,AAXX 28144 07207 36/// /1402 10179 20161 30191 40242 58003=
07207,1999-10-28 15:00:00,17.5,1024.2,-0.2,88,15.5,15000,,,,,,,,,,,,,,,og-post,,,,AAXX 28154 07207 32565 60000 10175 20155 30191 40242 58002 85202 222// 300// 333 92427=
07207,1999-10-28 16:00:00,16.4,1024.4,-0,92,15.1,,3.704,,,40,,,,,,,,,,,og-post,,,,AAXX 28164 07207 36/// /0402 10164 20151 30193 40244 55000=
07207,1999-10-28 17:00:00,15,1024.8,0.4,92,13.7,,7.408,,,20,,,,,,,,,,,og-post,,,,AAXX 28174 07207 36/// /0204 10150 20137 30196 40248 53004=
07207,1999-10-28 19:00:00,13.3,1025.5,1,96,12.7,,7.408,,,80,,,,,,,,,,,og-post,,,,AAXX 28194 07207 36/// /0804 10133 20127 30203 40255 53010=
07207,1999-10-28 20:00:00,13.9,1025.3,0.4,96,13.3,,11.112,,,60,,,,,,,,,,,og-post,,,,AAXX 28204 07207 36/// /0606 10139 20133 30201 40253 50004=
07207,1999-10-28 21:00:00,13.9,1025.4,0.2,96,13.3,10000,14.816,,,100,,,,,,,,,,,og-post,,,,AAXX 28214 07207 32960 41008 10139 20133 30202 40254 51002 80002 222// 300// 333 92427=
07207,1999-10-28 22:00:00,14,1025.3,-0.2,97,13.5,,22.224,,,70,,,,,,,,,,,og-post,,,,AAXX 28224 07207 36/// /0712 10140 20135 30201 40253 56002=
07207,1999-10-28 23:00:00,13.9,1024.8,-0.5,97,13.4,,18.52,,,80,,,,,,,,,,,og-post,,,,AAXX 28234 07207 36/// /0810 10139 20134 30196 40248 58005=
07207,1999-10-29 00:00:00,14.7,1024.7,-0.6,97,14.2,,18.52,,,90,,,,,,,,,,,og-post,,,,AAXX 29004 07207 36/// /0910 10147 20142 30195 40247 58006=
07207,1999-10-29 01:00:00,14.7,1024.3,-1,97,14.2,,22.224,,,90,,,,,,,,,,,og-post,,,,AAXX 29014 07207 36/// /0912 10147 20142 30191 40243 56010=
07207,1999-10-29 02:00:00,14.4,1023.9,-0.9,97,13.9,,22.224,,,90,,,,,,,,,,,og-post,,,,AAXX 29024 07207 36/// /0912 10144 20139 30187 40239 58009=
07207,1999-10-29 03:00:00,14.2,1023.4,-1.4,97,13.7,,22.224,,,90,,,,,,,,,,,og-post,,,,AAXX 29034 07207 36/// /0912 10142 20137 30182 40234 58014=
07207,1999-10-29 04:00:00,14.5,1022.8,-1.5,95,13.7,,25.928,,,90,,,,,,,,,,,og-post,,,,AAXX 29044 07207 36/// /0914 10145 20137 30176 40228 58015=
07207,1999-10-29 05:00:00,14.5,1022.4,-1.5,94,13.5,,25.928,,,90,,,,,,,,,,,og-post,,,,AAXX 29054 07207 36/// /0914 10145 20135 30172 40224 56015=
07207,1999-10-29 06:00:00,14.7,1022,-1.2,93,13.6,10000,25.928,,,90,,,,,,,,,,,og-post,,,,AAXX 29064 07207 32660 70914 10147 20136 30168 40220 56012 8557/ 222// 300// 333 10148 20130 92427=
07207,1999-10-29 07:00:00,14.6,1021.8,-0.9,94,13.6,,25.928,,,90,,,,,,,,,,,og-post,,,,AAXX 29074 07207 36/// /0914 10146 20136 30166 40218 56009=
07207,1999-10-29 08:00:00,14.8,1022.2,-0.3,94,13.8,,25.928,,,90,,,,,,,,,,,og-post,,,,AAXX 29084 07207 36/// /0914 10148 20138 30170 40222 55003=
07207,1999-10-29 09:00:00,15.1,1022,-0,94,14.1,8000,22.224,,,90,,,,,,,,,,,og-post,,,,AAXX 29094 07207 32658 80912 10151 20141 30168 40220 55000 8557/ 222// 326// 333 92436=
07207,1999-10-29 10:00:00,15.9,1021.2,-0.7,93,14.8,,22.224,,,100,,,,,,,,,,,og-post,,,,AAXX 29104 07207 36/// /1012 10159 20148 30161 40212 58007=
07207,1999-10-29 11:00:00,16.7,1020.2,-1.9,89,14.9,,25.928,,,100,,,,,,,,,,,og-post,,,,AAXX 29114 07207 36/// /1014 10167 20149 30151 40202 58019=
07207,1999-10-29 12:00:00,17,1019.4,-2.7,89,15.2,8000,18.52,,,110,,,,,,,,,,,og-post,,,,AAXX 29124 07207 32958 61110 10170 20152 30143 40194 58027 84032 222// 326// 333 92426=
07207,1999-10-29 13:00:00,17.1,1018.4,-2.9,89,15.3,,18.52,,,110,,,,,,,,,,,og-post,,,,AAXX 29134 07207 36/// /1110 10171 20153 30133 40184 58029=
07207,1999-10-29 14:00:00,17.4,1017.3,-3,87,15.2,,18.52,,,110,,,,,,,,,,,og-post,,,,AAXX 29144 07207 36/// /1110 10174 20152 30122 40173 57030=
07207,1999-10-29 15:00:00,17.2,1016.7,-2.7,90,15.5,8000,18.52,,,120,,,,,,,,,,,og-post,,,,AAXX 29154 07207 32658 81210 10172 20155 30116 40167 56027 885// 222// 326// 333 92426=
07207,1999-10-29 16:00:00,17.6,1015.7,-2.6,88,15.6,,22.224,,,110,,,,,,,,,,,og-post,,,,AAXX 29164 07207 36/// /1112 10176 20156 30106 40157 56026=
07207,1999-10-29 17:00:00,18.2,1014.6,-2.7,86,15.8,,25.928,,,110,,,,,,,,,,,og-post,,,,AAXX 29174 07207 36/// /1114 10182 20158 30095 40146 58027=
07207,1999-10-29 18:00:00,17.9,1014.3,-2.3,89,16.1,8000,25.928,,,110,14.5,18.3,,,,,,,,,og-post,,,,AAXX 29184 07207 32658 61114 10179 20161 30092 40143 56023 86500 222// 326// 333 10183 20145 92426=
07207,1999-10-29 19:00:00,17.4,1014.2,-1.4,91,15.9,,22.224,,,120,,,,,,,,,,,og-post,,,,AAXX 29194 07207 36/// /1212 10174 20159 30091 40142 56014=
07207,1999-10-29 20:00:00,16.9,1013.7,-0.8,93,15.8,,14.816,,,130,,,,,,,,,,,og-post,,,,AAXX 29204 07207 36/// /1308 10169 20158 30086 40137 58008=
07207,1999-10-29 21:00:00,16.6,1013.4,-0.9,95,15.8,15000,14.816,,,150,,,,,,,,,,,og-post,,,,AAXX 29214 07207 32565 31508 10166 20158 30083 40134 58009 83200 222// 326// 333 92427=
07207,1999-10-29 22:00:00,16.4,1012.7,-1.6,94,15.4,,18.52,,,210,,,,,,,,,,,og-post,,,,AAXX 29224 07207 36/// /2110 10164 20154 30076 40127 58016=
07207,1999-10-29 23:00:00,16.2,1012.4,-1.3,94,15.2,,22.224,,,230,,,,,,,,,,,og-post,,,,AAXX 29234 07207 36/// /2312 10162 20152 30073 40124 56013=
07207,1999-10-30 00:00:00,16,1012.2,-1.2,95,15.2,,18.52,,,240,,,,,,,,,,,og-post,,,,AAXX 30004 07207 36/// /2410 10160 20152 30071 40122 56012=
07207,1999-10-30 01:00:00,15.8,1011.4,-1.2,95,15,,3.704,,,250,,,,,,,,,,,og-post,,,,AAXX 30014 07207 36/// /2502 10158 20150 30063 40114 58012=
07207,1999-10-30 02:00:00,15.8,1010.9,-1.5,96,15.2,,11.112,,,230,,,,,,,,,,,og-post,,,,AAXX 30024 07207 36/// /2306 10158 20152 30058 40109 58015=
07207,1999-10-30 03:00:00,15.9,1010.7,-1.6,95,15.1,20000,14.816,,,200,,,,,,,,,,,og-post,,,,AAXX 30034 07207 32970 02008 10159 20151 30056 40107 56016 222// 326// 333 92428=
07207,1999-10-30 04:00:00,16,1010.7,-0.7,94,15,,25.928,,,210,,,,,,,,,,,og-post,,,,AAXX 30044 07207 36/// /2114 10160 20150 30056 40107 56007=
07207,1999-10-30 05:00:00,16.2,1010.1,-0.8,94,15.2,,22.224,,,200,,,,,,,,,,,og-post,,,,AAXX 30054 07207 36/// /2012 10162 20152 30050 40101 58008=
07207,1999-10-30 06:00:00,16.2,1009.6,-1.1,93,15.1,20000,25.928,,,190,15.7,17.9,,,,,,,,,og-post,,,,AAXX 30064 07207 32670 61914 10162 20151 30045 40096 58011 86500 222// 326// 333 10179 20157 92428=
07207,1999-10-30 07:00:00,16.4,1009.6,-1.1,92,15.1,,31.484,,,190,,,,,,,,,,,og-post,,,,AAXX 30074 07207 36/// /1917 10164 20151 30045 40096 56011=
07207,1999-10-30 09:00:00,17.2,1009.6,0.1,86,14.8,20000,42.596,,,220,,,,,,,,,,,og-post,,,,AAXX 30094 07207 32670 72223 10172 20148 30045 40096 50001 875// 222// 326// 333 92438=
07207,1999-10-30 12:00:00,16.4,1007.8,-1.9,86,14.1,20000,53.708,,,220,,,,0.2,0.2,,,,,60,og-post,,,,AAXX 30124 07207 /1470 82229 10164 20141 30027 40078 56019 69921 76022 8572/ 222// 326// 333 69927 92448=
07207,1999-10-30 13:00:00,15.1,1007.2,-1.9,94,14.1,,57.412,,94.452,230,,,2,,,,,,,,og-post,,,,AAXX 30134 07207 26/// /2331 10151 20141 30021 40072 58019 333 60025 91051=
07207,1999-10-30 14:00:00,12.3,1009.4,0.6,94,11.4,,42.596,96.304,68.524,280,,,4,,,,,,,,og-post,,,,AAXX 30144 07207 26/// /2823 10123 20114 30043 40094 53006 333 60045 91037 91152=
07207,1999-10-30 15:00:00,14.2,1010.4,2.6,82,11.2,,35.188,100.008,,270,,,,7,,,,,,,og-post,,,,AAXX 30154 07207 26/// /2719 10142 20112 30053 40104 53026 333 60077 91154=
07207,1999-10-30 16:00:00,14.2,1011.4,4.2,86,11.9,,38.892,72.228,,260,,,,,,,,,,,og-post,,,,AAXX 30164 07207 36/// /2621 10142 20119 30063 40114 51042 333 91139=
07207,1999-10-30 17:00:00,15.1,1012.1,3.3,68,9.2,,46.3,75.932,72.228,270,,,,,,,,,,,og-post,,,,AAXX 30174 07207 36/// /2725 10151 20092 30070 40121 51033 333 91039 91141=
07207,1999-10-30 18:00:00,15,1013.7,2.9,71,9.8,,42.596,100.008,72.228,270,12,17.5,,,,7,,,,,og-post,,,,AAXX 30184 07207 16/// /2723 10150 20098 30086 40137 51029 60072 333 10175 20120 91039 91154=
07207,1999-10-30 19:00:00,14.8,1013.9,3.3,68,9,,50.004,79.636,79.636,270,,,,,,,,,,,og-post,,,,AAXX 30194 07207 36/// /2727 10148 20090 30088 40139 53033 333 91043 91143=
07207,1999-10-30 20:00:00,14.8,1015.1,2.7,71,9.6,,42.596,75.932,64.82,280,,,,,,,,,,,og-post,,,,AAXX 30204 07207 36/// /2823 10148 20096 30100 40151 51027 333 91035 91141=
07207,1999-10-30 21:00:00,14.5,1016.7,3,73,9.7,,46.3,79.636,,290,,,,,,,,,,,og-post,,,,AAXX 30214 07207 36/// /2925 10145 20097 30116 40167 52030 333 91143=
07207,1999-10-30 22:00:00,14.6,1017.5,3.1,70,9.2,,38.892,64.82,,270,,,,,,,,,,,og-post,,,,AAXX 30224 07207 36/// /2721 10146 20092 30123 40175 53031 333 91135=
07207,1999-10-30 23:00:00,14.6,1018.6,2.9,71,9.4,,38.892,64.82,,270,,,,,,,,,,,og-post,,,,AAXX 30234 07207 36/// /2721 10146 20094 30134 40186 51029 333 91135=
07207,1999-10-31 00:00:00,14.8,1018.9,2.7,72,9.8,,42.596,79.636,64.82,270,,,,,,,,,,,og-post,,,,AAXX 31004 07207 36/// /2723 10148 20098 30137 40189 51027 333 91035 91143=
07207,1999-10-31 01:00:00,14.7,1019.6,1.9,73,9.9,,35.188,64.82,,270,,,,,,,,,,,og-post,,,,AAXX 31014 07207 36/// /2719 10147 20099 30144 40196 52019 333 91135=
07207,1999-10-31 02:00:00,14.8,1020.1,1.9,71,9.6,,42.596,,,260,,,,,,,,,,,og-post,,,,AAXX 31024 07207 36/// /2623 10148 20096 30149 40201 53019=
07207,1999-10-31 03:00:00,15.1,1020.5,1.5,78,11.3,20000,35.188,64.82,53.708,250,,,,,,,,,,,og-post,,,,AAXX 31034 07207 32570 52519 10151 20113 30153 40205 51015 82230 222// 326// 333 91029 91135 92448=
07207,1999-10-31 04:00:00,15.1,1020.8,1.2,78,11.3,,38.892,,,260,,,,,,,,,,,og-post,,,,AAXX 31044 07207 36/// /2621 10151 20113 30156 40208 51012=
07207,1999-10-31 05:00:00,14,1021.7,1.4,77,10,,35.188,53.708,,280,,,,,,,,,,,og-post,,,,AAXX 31054 07207 36/// /2819 10140 20100 30165 40217 53014 333 91129=
07207,1999-10-31 06:00:00,14.7,1022.1,1.7,71,9.5,20000,25.928,64.82,,270,14,15.2,,,,,,,,,og-post,,,,AAXX 31064 07207 32970 52714 10147 20095 30169 40221 51017 85030 222// 326// 333 10152 20140 91135 92448=
07207,1999-10-31 07:00:00,15,1022.5,1.7,69,9.4,,22.224,,,250,,,,,,,,,,,og-post,,,,AAXX 31074 07207 36/// /2512 10150 20094 30173 40225 51017=
07207,1999-10-31 08:00:00,15.2,1023.2,1.6,70,9.8,,22.224,,,240,,,,,,,,,,,og-post,,,,AAXX 31084 07207 36/// /2412 10152 20098 30180 40232 53016=
07207,1999-10-31 09:00:00,15.6,1023.6,1.5,69,9.9,,25.928,,,240,,,,,,,,,,,og-post,,,,AAXX 31094 07207 36/// /2414 10156 20099 30184 40236 53015=
07207,1999-10-31 10:00:00,15.9,1023.6,1.1,68,10,,25.928,,,220,,,,,,,,,,,og-post,,,,AAXX 31104 07207 36/// /2214 10159 20100 30184 40236 51011=
07207,1999-10-31 11:00:00,15.9,1023.5,0.2,74,11.3,,31.484,,,210,,,,,,,,,,,og-post,,,,AAXX 31114 07207 36/// /2117 10159 20113 30183 40235 50002=
07207,1999-10-31 12:00:00,16.3,1023.1,-0.4,68,10.4,25000,29.632,,,210,,,,,,,,,,,og-post,,,,AAXX 31124 07207 32575 22116 10163 20104 30180 40231 58004 82200 222// 326// 333 92438=
07207,1999-10-31 13:00:00,16.2,1022.8,-0.8,72,11.2,,25.928,,,200,,,,,,,,,,,og-post,,,,AAXX 31134 07207 36/// /2014 10162 20112 30177 40228 58008=
07207,1999-10-31 14:00:00,15.8,1022.3,-1.3,69,10.1,,29.632,,,200,,,,,,,,,,,og-post,,,,AAXX 31144 07207 36/// /2016 10158 20101 30171 40223 58013=
07207,1999-10-31 15:00:00,16.1,1021.3,-1.6,68,10.2,25000,31.484,,,190,,,,,,,,,,,og-post,,,,AAXX 31154 07207 32575 51917 10161 20102 30162 40213 58016 85200 222// 326// 333 92438=
07207,1999-10-31 16:00:00,15.4,1020.8,-1.9,72,10.4,,31.484,,,190,,,,,,,,,,,og-post,,,,AAXX 31164 07207 36/// /1917 10154 20104 30156 40208 56019=
07207,1999-10-31 17:00:00,15.3,1020.6,-1.7,74,10.7,,35.188,,,190,,,,,,,,,,,og-post,,,,AAXX 31174 07207 36/// /1919 10153 20107 30154 40206 56017=
07207,1999-10-31 18:00:00,15.6,1020,-1.3,81,12.4,20000,35.188,,,180,14.8,16.6,,,,,,,,,og-post,,,,AAXX 31184 07207 32570 61819 10156 20124 30149 40200 56013 86200 222// 326// 333 10166 20148 92438=
07207,1999-10-31 19:00:00,15.8,1019.7,-1,83,12.9,,35.188,,,170,,,,,,,,,,,og-post,,,,AAXX 31194 07207 36/// /1719 10158 20129 30146 40197 58010=
07207,1999-10-31 20:00:00,15.9,1019.3,-1.2,82,12.8,,38.892,,,170,,,,,,,,,,,og-post,,,,AAXX 31204 07207 36/// /1721 10159 20128 30142 40193 58012=
07207,1999-10-31 21:00:00,16,1018,-2.1,85,13.5,18000,38.892,,,160,,,,,,,,,,,og-post,,,,AAXX 31214 07207 32568 51621 10160 20135 30129 40180 58021 85200 222// 326// 333 92447=
07207,1999-10-31 22:00:00,16.6,1017.4,-2.5,85,14.1,,46.3,,,160,,,,,,,,,,,og-post,,,,AAXX 31224 07207 36/// /1625 10166 20141 30123 40174 58025=
07207,1999-10-31 23:00:00,16.9,1016.4,-2.9,86,14.5,,46.3,,,170,,,,,,,,,,,og-post,,,,AAXX 31234 07207 36/// /1725 10169 20145 30113 40164 56029=
07207,1999-11-01 00:00:00,17,1015.7,-2.3,86,14.6,,42.596,,,180,,,,,,,,,,,og-post,,,,AAXX 01004 07207 36/// /1823 10170 20146 30106 40157 57023=
07207,1999-11-01 01:00:00,16.4,1015.4,-2,91,14.9,,46.3,61.116,,210,,,,,,,,,,,og-post,,,,AAXX 01014 07207 36/// /2125 10164 20149 30103 40154 56020 333 91133=
07207,1999-11-01 02:00:00,16.2,1014.6,-1.9,93,15.1,,31.484,,,210,,,,,,,,,,,og-post,,,,AAXX 01024 07207 36/// /2117 10162 20151 30095 40146 58019=
07207,1999-11-01 03:00:00,16.1,1014,-1.5,94,15.1,,31.484,61.116,,210,,,,,,,,,,,og-post,,,,AAXX 01034 07207 36/// /2117 10161 20151 30089 40140 57015 333 91133=
07207,1999-11-01 04:00:00,16.3,1013.5,-1.8,95,15.5,,35.188,,,220,,,,,,,,,,,og-post,,,,AAXX 01044 07207 36/// /2219 10163 20155 30084 40135 56018=
07207,1999-11-01 05:00:00,16.2,1012.9,-1.7,95,15.4,,29.632,,,220,,,,,,,,,,,og-post,,,,AAXX 01054 07207 36/// /2216 10162 20154 30078 40129 58017=
07207,1999-11-01 06:00:00,16.4,1011.9,-2.3,95,15.6,12000,29.632,61.116,,200,15.6,17.1,,,,,,,,,og-post,,,,AAXX 01064 07207 32562 72016 10164 20156 30068 40119 58023 878// 222// 326// 333 10171 20156 91133 92437=
07207,1999-11-01 07:00:00,16.4,1011.7,-1.9,96,15.8,,42.596,,,200,,,6,,,,,,,,og-post,,,,AAXX 01074 07207 26/// /2023 10164 20158 30066 40117 56019 333 60065=
07207,1999-11-01 08:00:00,17.2,1012,-1.1,94,16.2,,46.3,,,210,,,0.2,,,,,,,,og-post,,,,AAXX 01084 07207 26/// /2125 10172 20162 30069 40120 56011 333 69925=
07207,1999-11-01 09:00:00,17.9,1011.7,-0.4,90,16.2,15000,57.412,,,220,,,,6,,,,,,21,og-post,,,,AAXX 01094 07207 21565 82231 10179 20162 30066 40117 57004 72162 888// 222// 326// 333 60067 92447=
07207,1999-11-01 10:00:00,18,1011.9,0.4,89,16.2,,57.412,79.636,79.636,220,,,,,,,,,,,og-post,,,,AAXX 01104 07207 36/// /2231 10180 20162 30068 40119 53004 333 91043 91143=
07207,1999-11-01 11:00:00,17.7,1011.7,-0,92,16.4,,61.116,79.636,,220,,,,,,,,,,,og-post,,,,AAXX 01114 07207 36/// /2233 10177 20164 30066 40117 55000 333 91143=
07207,1999-11-01 12:00:00,17.9,1011.7,-0.1,91,16.4,12000,57.412,83.34,,220,,,,,6,,,,,2,og-post,,,,AAXX 01124 07207 11662 82231 10179 20164 30066 40117 58001 60061 70262 885// 222// 326// 333 91145 92447=
07207,1999-11-01 13:00:00,17.5,1011.6,-0.3,93,16.4,,50.004,72.228,72.228,240,,,,,,,,,,,og-post,,,,AAXX 01134 07207 36/// /2427 10175 20164 30065 40116 56003 333 91039 91139=
07207,1999-11-01 14:00:00,17.4,1011.7,-0.1,94,16.4,,53.708,75.932,72.228,240,,,0.4,,,,,,,,og-post,,,,AAXX 01144 07207 26/// /2429 10174 20164 30066 40117 58001 333 69945 91039 91141=
07207,1999-11-01 15:00:00,16.5,1012.3,0.7,94,15.5,6000,50.004,75.932,72.228,260,,,,0.8,,,,,,2,og-post,,,,AAXX 01154 07207 21356 82627 10165 20155 30072 40123 53007 70262 887// 222// 326// 333 69987 91039 91141 92446=
07207,1999-11-01 16:00:00,15.8,1013.3,1.5,96,15.2,,29.632,64.82,,260,,,0.4,,,,,,,,og-post,,,,AAXX 01164 07207 26/// /2616 10158 20152 30082 40133 53015 333 69945 91135=
07207,1999-11-01 17:00:00,15,1014.3,2.6,96,14.4,,29.632,50.004,,280,,,3,,,,,,,,og-post,,,,AAXX 01174 07207 26/// /2816 10150 20144 30092 40143 53026 333 60035 91127=
07207,1999-11-01 18:00:00,15,1015,2.5,95,14.2,5000,22.224,75.932,,270,14.9,18,,5,,12,,,,61,og-post,,,,AAXX 01184 07207 /1350 82712 10150 20142 30099 40150 51025 60122 76162 887// 222// 326// 333 10180 20149 60057 91141 92446=
07207,1999-11-01 19:00:00,15.3,1015.6,2.2,95,14.5,,22.224,,,250,,,0.4,,,,,,,,og-post,,,,AAXX 01194 07207 26/// /2512 10153 20145 30105 40156 51022 333 69945=
07207,1999-11-01 20:00:00,14.2,1016.2,1.9,93,13.1,,31.484,,,270,,,1,,,,,,,,og-post,,,,AAXX 01204 07207 26/// /2717 10142 20131 30111 40162 51019 333 60015=
07207,1999-11-01 21:00:00,14.3,1016.1,1.3,93,13.2,5000,18.52,,,280,,,,3,,,,,,21,og-post,,,,AAXX 01214 07207 21350 82810 10143 20132 30110 40161 51013 72162 887// 222// 326// 333 60037 92446=
07207,1999-11-01 22:00:00,14.5,1016.4,0.8,87,12.4,,18.52,,,280,,,0.2,,,,,,,,og-post,,,,AAXX 01224 07207 26/// /2810 10145 20124 30113 40164 51008 333 69925=
07207,1999-11-01 23:00:00,14.5,1016.8,0.6,88,12.5,,18.52,,,290,,,,,,,,,,,og-post,,,,AAXX 01234 07207 36/// /2910 10145 20125 30117 40168 53006=
07207,1999-11-02 00:00:00,14.6,1016.3,0.1,88,12.6,,22.224,,,290,,,,0.4,3,,,,,,og-post,,,,AAXX 02004 07207 /6/// /2912 10146 20126 30112 40163 50001 60031 333 69947=
07207,1999-11-02 01:00:00,14.8,1017,0.6,89,13,,18.52,,,280,,,,,,,,,,,og-post,,,,AAXX 02014 07207 36/// /2810 10148 20130 30119 40170 53006=
07207,1999-11-02 02:00:00,13.4,1017.2,0.3,84,10.8,,14.816,,,320,,,1,,,,,,,,og-post,,,,AAXX 02024 07207 26/// /3208 10134 20108 30120 40172 53003 333 60015=
07207,1999-11-02 03:00:00,13.5,1017.7,1.4,87,11.4,10000,11.112,,,310,,,,2,,,,,,61,og-post,,,,AAXX 02034 07207 21360 83106 10135 20114 30125 40177 51014 76162 887// 222// 326// 333 60027 92447=
07207,1999-11-02 04:00:00,14.1,1018,0.9,79,10.5,,22.224,,,330,,,,,,,,,,,og-post,,,,AAXX 02044 07207 26/// /3312 10141 20105 30128 40180 53009 333 69905=
07207,1999-11-02 05:00:00,13.5,1018.6,1.5,79,9.9,,31.484,,,340,,,0.4,,,,,,,,og-post,,,,AAXX 02054 07207 26/// /3417 10135 20099 30134 40186 53015 333 69945=
07207,1999-11-02 06:00:00,13.4,1019.2,1.4,74,8.9,15000,31.484,,,340,12.8,15.4,,0.4,,6,,,,21,og-post,,,,AAXX 02064 07207 /1365 83417 10134 20089 30140 40192 52014 60062 72162 887// 222// 326// 333 10154 20128 69947 92447=
07207,1999-11-02 07:00:00,13,1020.4,2.2,81,9.8,,22.224,,,340,,,,,,,,,,,og-post,,,,AAXX 02074 07207 36/// /3412 10130 20098 30152 40204 53022=
07207,1999-11-02 08:00:00,13.1,1022.1,3.5,78,9.4,,29.632,,,340,,,,,,,,,,,og-post,,,,AAXX 02084 07207 36/// /3416 10131 20094 30169 40221 53035=
07207,1999-11-02 09:00:00,13.2,1023.7,4.5,73,8.5,25000,25.928,,,340,,,,,,,,,,,og-post,,,,AAXX 02094 07207 32575 63414 10132 20085 30185 40237 53045 86800 222// 327// 333 92438=
07207,1999-11-02 11:00:00,14.3,1025.4,3.3,65,7.8,,31.484,,,330,,,,,,,,,,,og-post,,,,AAXX 02114 07207 36/// /3317 10143 20078 30202 40254 51033=
07207,1999-11-02 12:00:00,14.4,1026.1,2.2,67,8.4,25000,29.632,50.004,,340,,,,,,,,,,,og-post,,,,AAXX 02124 07207 32575 43416 10144 20084 30209 40261 51022 84201 222// 327// 333 91127 92438=
07207,1999-11-02 13:00:00,14.2,1026.6,1.8,65,7.7,,29.632,,,330,,,,,,,,,,,og-post,,,,AAXX 02134 07207 36/// /3316 10142 20077 30214 40266 51018=
07207,1999-11-02 14:00:00,14.6,1027.2,1.7,62,7.4,,25.928,,,320,,,,,,,,,,,og-post,,,,AAXX 02144 07207 36/// /3214 10146 20074 30220 40272 53017=
07207,1999-11-02 15:00:00,14.3,1028.1,1.8,63,7.4,25000,22.224,,,320,,,,,,,,,,,og-post,,,,AAXX 02154 07207 32475 53212 10143 20074 30229 40281 53018 84301 222// 327// 333 92438=
07207,1999-11-02 16:00:00,13.6,1028.8,2.1,65,7.2,,22.224,,,310,,,,,,,,,,,og-post,,,,AAXX 02164 07207 36/// /3112 10136 20072 30236 40288 53021=
07207,1999-11-02 17:00:00,13.3,1029.6,2.3,71,8.2,,22.224,,,320,,,,,,,,,,,og-post,,,,AAXX 02174 07207 36/// /3212 10133 20082 30244 40296 53023=
07207,1999-11-02 18:00:00,13.4,1030.3,2.4,71,8.3,25000,25.928,,,320,12.6,15,,,,,,,,,og-post,,,,AAXX 02184 07207 32575 43214 10134 20083 30251 40303 51024 84200 222// 327// 333 10150 20126 92438=
07207,1999-11-02 19:00:00,12.9,1031,2.2,70,7.6,,25.928,,,340,,,,,,,,,,,og-post,,,,AAXX 02194 07207 36/// /3414 10129 20076 30257 40310 51022=
07207,1999-11-02 20:00:00,12.9,1031.5,1.8,69,7.4,,22.224,,,340,,,,,,,,,,,og-post,,,,AAXX 02204 07207 36/// /3412 10129 20074 30262 40315 51018=
07207,1999-11-02 21:00:00,12.6,1032.2,1.8,71,7.5,25000,18.52,,,330,,,,,,,,,,,og-post,,,,AAXX 02214 07207 32575 33310 10126 20075 30269 40322 52018 82201 222// 327// 333 92438=
07207,1999-11-02 22:00:00,12,1032.6,1.5,70,6.7,,14.816,,,340,,,,,,,,,,,og-post,,,,AAXX 02224 07207 36/// /3408 10120 20067 30273 40326 52015=
07207,1999-11-02 23:00:00,11,1032.7,1.2,77,7.1,,11.112,,,360,,,,,,,,,,,og-post,,,,AAXX 02234 07207 36/// /3606 10110 20071 30274 40327 51012=
07207,1999-11-03 00:00:00,10.6,1032.8,0.6,80,7.3,,11.112,,,360,,,,,,,,,,,og-post,,,,AAXX 03004 07207 36/// /3606 10106 20073 30275 40328 51006=
07207,1999-11-03 01:00:00,9.8,1032.7,0.1,82,6.9,,11.112,,,10,,,,,,,,,,,og-post,,,,AAXX 03014 07207 36/// /0106 10098 20069 30274 40327 50001=
07207,1999-11-03 02:00:00,10.3,1032.6,-0.1,83,7.5,,7.408,,,10,,,,,,,,,,,og-post,,,,AAXX 03024 07207 36/// /0104 10103 20075 30273 40326 58001=
07207,1999-11-03 03:00:00,10.8,1032.4,-0.4,85,8.4,,11.112,,,20,,,,,,,,,,,og-post,,,,AAXX 03034 07207 36/// /0206 10108 20084 30271 40324 57004=
07207,1999-11-03 04:00:00,10.5,1032.3,-0.4,88,8.6,,7.408,,,40,,,,,,,,,,,og-post,,,,AAXX 03044 07207 36/// /0404 10105 20086 30270 40323 56004=
07207,1999-11-03 05:00:00,11.1,1032.7,0.2,85,8.7,,14.816,,,50,,,,,,,,,,,og-post,,,,AAXX 03054 07207 36/// /0508 10111 20087 30274 40327 53002=
07207,1999-11-03 06:00:00,10.1,1032.9,0.5,87,8,20000,11.112,,,80,9.6,13.3,,,,,,,,,og-post,,,,AAXX 03064 07207 32570 40806 10101 20080 30276 40329 53005 84200 222// 327// 333 10133 20096 92438=
07207,1999-11-03 07:00:00,10.8,1033.3,1,87,8.7,,11.112,,,80,,,,,,,,,,,og-post,,,,AAXX 03074 07207 36/// /0806 10108 20087 30280 40333 52010=
07207,1999-11-03 08:00:00,11.7,1033.7,0.9,88,9.8,,11.112,,,90,,,,,,,,,,,og-post,,,,AAXX 03084 07207 36/// /0906 10117 20098 30284 40337 53009=
07207,1999-11-03 09:00:00,11.9,1033.9,1,88,10,,11.112,,,80,,,,,,,,,,,og-post,,,,AAXX 03094 07207 36/// /0806 10119 20100 30286 40339 51010=
07207,1999-11-03 10:00:00,13.4,1033.6,0.2,80,10,,11.112,,,120,,,,,,,,,,,og-post,,,,AAXX 03104 07207 36/// /1206 10134 20100 30283 40336 50002=
07207,1999-11-03 11:00:00,13.4,1033.1,-0.6,81,10.2,,11.112,,,120,,,,,,,,,,,og-post,,,,AAXX 03114 07207 36/// /1206 10134 20102 30278 40331 58006=
07207,1999-11-03 12:00:00,13.7,1032.3,-1.5,80,10.3,25000,11.112,,,130,,,,,,,,,,,og-post,,,,AAXX 03124 07207 32575 51306 10137 20103 30271 40323 58015 83230 222// 327// 333 92428=
07207,1999-11-03 13:00:00,14.3,1031.8,-1.6,79,10.7,,22.224,,,160,,,,,,,,,,,og-post,,,,AAXX 03134 07207 36/// /1612 10143 20107 30266 40318 58016=
07207,1999-11-03 14:00:00,14.6,1030.9,-2.2,76,10.4,,18.52,,,150,,,,,,,,,,,og-post,,,,AAXX 03144 07207 36/// /1510 10146 20104 30257 40309 56022=
07207,1999-11-03 15:00:00,13.7,1030.5,-1.8,78,9.9,30000,14.816,,,130,,,,,,,,,,,og-post,,,,AAXX 03154 07207 32580 61308 10137 20099 30253 40305 57018 85231 222// 327// 333 92428=
07207,1999-11-03 16:00:00,13.3,1030.1,-1.5,76,9.2,,14.816,,,140,,,,,,,,,,,og-post,,,,AAXX 03164 07207 36/// /1408 10133 20092 30249 40301 56015=
07207,1999-11-03 17:00:00,13.2,1029.9,-1,79,9.6,,14.816,,,140,,,,,,,,,,,og-post,,,,AAXX 03174 07207 36/// /1408 10132 20096 30247 40299 56010=
07207,1999-11-03 18:00:00,13.2,1029.7,-0.6,80,9.8,20000,14.816,,,140,10.1,15,,,,,,,,,og-post,,,,AAXX 03184 07207 32570 51408 10132 20098 30245 40297 56006 84201 222// 327// 333 10150 20101 92428=
07207,1999-11-03 19:00:00,12.9,1029.4,-0.7,78,9.2,,14.816,,,140,,,,,,,,,,,og-post,,,,AAXX 03194 07207 36/// /1408 10129 20092 30242 40294 58007=
07207,1999-11-03 20:00:00,12.9,1029.1,-0.8,73,8.2,,18.52,,,150,,,,,,,,,,,og-post,,,,AAXX 03204 07207 36/// /1510 10129 20082 30239 40291 58008=
07207,1999-11-03 21:00:00,12.8,1028.8,-0.8,77,8.9,20000,11.112,,,130,,,,,,,,,,,og-post,,,,AAXX 03214 07207 32570 41306 10128 20089 30236 40288 57008 84200 222// 327// 333 92428=
07207,1999-11-03 22:00:00,12.7,1028.3,-1.2,76,8.6,,14.816,,,120,,,,,,,,,,,og-post,,,,AAXX 03224 07207 36/// /1208 10127 20086 30231 40283 58012=
07207,1999-11-03 23:00:00,12.7,1027.8,-1.3,73,8,,18.52,,,120,,,,,,,,,,,og-post,,,,AAXX 03234 07207 36/// /1210 10127 20080 30226 40278 58013=
07207,1999-11-04 00:00:00,12.8,1027.7,-1.1,,,,18.52,,,130,,,,,,,,,,,og-post,,,,AAXX 04004 07207 36/// /1310 10128 0085 30225 40277 56011=
07207,1999-11-04 01:00:00,12.6,1027.1,-1.4,71,7.5,,22.224,,,140,,,,,,,,,,,og-post,,,,AAXX 04014 07207 36/// /1412 10126 20075 30219 40271 58014=
07207,1999-11-04 02:00:00,12.6,1026.5,-1.5,73,7.9,,22.224,,,140,,,,,,,,,,,og-post,,,,AAXX 04024 07207 36/// /1412 10126 20079 30213 40265 58015=
07207,1999-11-04 03:00:00,12.4,1025.4,-2.3,73,7.7,,22.224,,,130,,,,,,,,,,,og-post,,,,AAXX 04034 07207 36/// /1312 10124 20077 30202 40254 58023=
07207,1999-11-04 04:00:00,12.2,1025.3,-1.7,73,7.5,,22.224,,,140,,,,,,,,,,,og-post,,,,AAXX 04044 07207 36/// /1412 10122 20075 30201 40253 56017=
07207,1999-11-04 05:00:00,12.1,1025.2,-1.4,71,7,,29.632,,,150,,,,,,,,,,,og-post,,,,AAXX 04054 07207 36/// /1516 10121 20070 30200 40252 56014=
07207,1999-11-04 06:00:00,12.1,1025,-0.6,75,7.8,20000,25.928,50.004,,150,12.1,13.2,,,,,,,,,og-post,,,,AAXX 04064 07207 32570 51514 10121 20078 30198 40250 56006 84201 222// 327// 333 10132 20121 91127 92438=
07207,1999-11-04 07:00:00,12.1,1024.2,-1.2,75,7.8,,29.632,,,150,,,,,,,,,,,og-post,,,,AAXX 04074 07207 36/// /1516 10121 20078 30190 40242 58012=
07207,1999-11-04 08:00:00,12.5,1024.2,-0.9,74,8,,22.224,,,140,,,,,,,,,,,og-post,,,,AAXX 04084 07207 36/// /1412 10125 20080 30190 40242 56009=
07207,1999-11-04 09:00:00,12.6,1024,-1,71,7.5,30000,25.928,,,140,,,,,,,,,,,og-post,,,,AAXX 04094 07207 32580 51414 10126 20075 30188 40240 56010 83202 222// 327// 333 92438=
07207,1999-11-04 10:00:00,12.7,1023.5,-0.6,72,7.8,,29.632,,,150,,,,,,,,,,,og-post,,,,AAXX 04104 07207 36/// /1516 10127 20078 30183 40235 58006=
07207,1999-11-04 11:00:00,12.8,1023.3,-0.8,73,8.1,,25.928,,,140,,,,,,,,,,,og-post,,,,AAXX 04114 07207 36/// /1414 10128 20081 30181 40233 58008=
07207,1999-11-04 12:00:00,13.3,1022.6,-1.4,72,8.4,30000,25.928,,,150,,,,,,,,,,,og-post,,,,AAXX 04124 07207 32580 51514 10133 20084 30174 40226 58014 82202 222// 327// 333 92438=
07207,1999-11-04 13:00:00,13.9,1022,-1.4,64,7.2,,22.224,,,160,,,,,,,,,,,og-post,,,,AAXX 04134 07207 36/// /1612 10139 20072 30168 40220 58014=
07207,1999-11-04 14:00:00,13.9,1021.4,-2.1,69,8.3,,22.224,,,150,,,,,,,,,,,og-post,,,,AAXX 04144 07207 36/// /1512 10139 20083 30162 40214 56021=
07207,1999-11-04 17:00:00,12.8,1019.9,-1.4,74,8.3,,18.52,,,170,,,,,,,,,,,og-post,,,,AAXX 04174 07207 36/// /1710 10128 20083 30147 40199 58014=
07207,1999-11-04 18:00:00,12.9,1019.3,-1.5,74,8.4,30000,25.928,,,160,12,14.1,,,,,,,,,og-post,,,,AAXX 04184 07207 32980 71614 10129 20084 30141 40193 58015 8702/ 222// 327// 333 10141 20120 92438=
07207,1999-11-04 19:00:00,13.1,1018.7,-1.9,70,7.8,,25.928,,,160,,,,,,,,,,,og-post,,,,AAXX 04194 07207 36/// /1614 10131 20078 30135 40187 56019=
07207,1999-11-04 21:00:00,13.6,1017.6,-1.6,63,6.7,30000,29.632,,,180,,,,,,,,,,,og-post,,,,AAXX 04214 07207 32980 51816 10136 20067 30124 40176 56016 8503/ 222// 327// 333 92438=
07207,1999-11-05 01:00:00,13.8,1015.4,-2.2,69,8.2,,31.484,,,210,,,,,,,,,,,og-post,,,,AAXX 05014 07207 36/// /2117 10138 20082 30102 40154 56022=
07207,1999-11-05 02:00:00,13.8,1014.4,-2.1,73,9,,31.484,,,210,,,,,,,,,,,og-post,,,,AAXX 05024 07207 36/// /2117 10138 20090 30092 40144 58021=
07207,1999-11-05 03:00:00,13.9,1013,-3,74,9.3,20000,31.484,,,210,,,,,,,,,,,og-post,,,,AAXX 05034 07207 32670 82117 10139 20093 30079 40130 58030 88500 222// 327// 333 92438=
07207,1999-11-05 04:00:00,14,1011.6,-3.7,76,9.8,,38.892,,,200,,,,,,,,,,,og-post,,,,AAXX 05044 07207 36/// /2021 10140 20098 30065 40116 58037=
07207,1999-11-05 05:00:00,14.1,1010.8,-3.6,81,10.9,,35.188,,,200,,,,,,,,,,,og-post,,,,AAXX 05054 07207 36/// /2019 10141 20109 30057 40108 56036=
07207,1999-11-05 06:00:00,14.4,1010.8,-2.4,85,11.9,20000,46.3,,,220,12.8,14.4,,,,,,,,,og-post,,,,AAXX 05064 07207 32670 82225 10144 20119 30057 40108 56024 885// 222// 327// 333 10144 20128 92448=
07207,1999-11-05 07:00:00,14.7,1009.6,-2,87,12.6,,46.3,,,210,,,,,,,,,,,og-post,,,,AAXX 05074 07207 36/// /2125 10147 20126 30045 40096 56020=
07207,1999-11-05 08:00:00,15.1,1009.1,-1.6,86,12.8,,46.3,,,210,,,,,,,,,,,og-post,,,,AAXX 05084 07207 36/// /2125 10151 20128 30040 40091 58016=
07207,1999-11-05 09:00:00,15.6,1008.4,-2.3,85,13.1,,53.708,,,220,,,,,,,,,,,og-post,,,,AAXX 05094 07207 36/// /2229 10156 20131 30033 40084 56023=
07207,1999-11-05 10:00:00,16,1007.7,-2.1,83,13.1,,50.004,75.932,,220,,,,,,,,,,,og-post,,,,AAXX 05104 07207 36/// /2227 10160 20131 30026 40077 56021 333 91141=
07207,1999-11-05 11:00:00,16.3,1006.6,-2.6,82,13.2,,53.708,79.636,79.636,230,,,,,,,,,,,og-post,,,,AAXX 05114 07207 36/// /2329 10163 20132 30015 40066 57026 333 91043 91143=
07207,1999-11-05 12:00:00,16.3,1005.6,-2.4,83,13.4,12000,57.412,83.34,79.636,230,,,,,,,,,,,og-post,,,,AAXX 05124 07207 32662 82331 10163 20134 30005 40056 58024 885// 222// 327// 333 91043 91145 92447=
07207,1999-11-05 13:00:00,16.2,1003.8,-3.3,84,13.5,,57.412,90.748,87.044,230,,,,,,,,,,,og-post,,,,AAXX 05134 07207 36/// /2331 10162 20135 39988 40038 58033 333 91047 91149=
07207,1999-11-05 14:00:00,13.2,1004.1,-2.5,93,12.1,,57.412,100.008,100.008,270,,,2,,,,,,,,og-post,,,,AAXX 05144 07207 26/// /2731 10132 20121 39990 40041 56025 333 60025 91054 91154=
07207,1999-11-05 15:00:00,11.3,1005.5,0.3,90,9.7,7000,46.3,100.008,68.524,290,,,,3,,,,,,61,og-post,,,,AAXX 05154 07207 21457 82925 10113 20097 30004 40055 53003 76162 887// 222// 327// 333 60037 91037 91154 92446=
07207,1999-11-05 16:00:00,13.2,1006.3,2,81,10,,50.004,75.932,75.932,280,,,0.2,,,,,,,,og-post,,,,AAXX 05164 07207 26/// /2827 10132 20100 30012 40063 53020 333 69925 91041 91141=
07207,1999-11-05 17:00:00,13.6,1007,2.8,66,7.4,,50.004,87.044,79.636,290,,,,,,,,,,,og-post,,,,AAXX 05174 07207 36/// /2927 10136 20074 30019 40070 51028 333 91043 91147=
07207,1999-11-05 18:00:00,13.4,1008,2.4,71,8.3,12000,50.004,100.008,83.34,290,11.2,16.3,,0.2,,3,,,,2,og-post,,,,AAXX 05184 07207 /1562 42927 10134 20083 30029 40080 53024 60032 70262 84200 222// 326// 333 10163 20112 69927 91045 91154 92447=
07207,1999-11-05 19:00:00,13.5,1008.7,2.4,71,8.4,,53.708,94.452,75.932,290,,,,,,,,,,,og-post,,,,AAXX 05194 07207 36/// /2929 10135 20084 30036 40087 52024 333 91041 91151=
07207,1999-11-05 20:00:00,11.3,1009.8,2.8,83,8.5,,46.3,79.636,75.932,290,,,0.6,,,,,,,,og-post,,,,AAXX 05204 07207 26/// /2925 10113 20085 30046 40098 51028 333 69965 91041 91143=
07207,1999-11-05 21:00:00,13.1,1009.9,1.7,70,7.8,15000,50.004,94.452,,290,,,,1,,,,,,2,og-post,,,,AAXX 05214 07207 21565 52927 10131 20078 30048 40099 51017 70262 85200 222// 326// 333 60017 91151 92447=
07207,1999-11-05 23:00:00,12.8,1009.9,0.4,68,7,,46.3,79.636,68.524,280,,,0.2,,,,,,,,og-post,,,,AAXX 05234 07207 26/// /2825 10128 20070 30048 40099 50004 333 69925 91037 91143=
07207,1999-11-06 00:00:00,12.3,1010.4,0.7,73,7.6,,42.596,94.452,,290,,,,0.8,2,,,,,,og-post,,,,AAXX 06004 07207 /6/// /2923 10123 20076 30052 40104 52007 60021 333 69987 91151=
07207,1999-11-06 01:00:00,11.3,1010.9,0.6,84,8.7,,31.484,83.34,57.412,320,,,2,,,,,,,,og-post,,,,AAXX 06014 07207 26/// /3217 10113 20087 30057 40109 53006 333 60025 91031 91145=
07207,1999-11-06 02:00:00,11.4,1011,0.9,74,6.9,,46.3,100.008,90.748,320,,,0.6,,,,,,,,og-post,,,,AAXX 06024 07207 26/// /3225 10114 20069 30058 40110 51009 333 69965 91049 91154=
07207,1999-11-06 03:00:00,11.6,1011.9,1.5,75,7.3,15000,42.596,100.008,68.524,320,,,,4,,,,,,1,og-post,,,,AAXX 06034 07207 21565 43223 10116 20073 30067 40119 53015 70161 84200 222// 326// 333 60047 91037 91154 92447=
07207,1999-11-06 04:00:00,11.3,1012.8,2.1,68,5.6,,46.3,75.932,72.228,320,,,,,,,,,,,og-post,,,,AAXX 06044 07207 36/// /3225 10113 20056 30076 40128 53021 333 91039 91141=
07207,1999-11-06 05:00:00,11.1,1014.1,2.8,70,5.8,,38.892,68.524,64.82,320,,,,,,,,,,,og-post,,,,AAXX 06054 07207 36/// /3221 10111 20058 30089 40141 53028 333 91035 91137=
07207,1999-11-06 06:00:00,11.3,1015.4,3.5,68,5.6,15000,42.596,100.008,68.524,330,9.1,13.6,,,,6,,,,2,og-post,,,,AAXX 06064 07207 11565 53323 10113 20056 30102 40154 53035 60062 70261 85200 222// 326// 333 10136 20091 91037 91154 92447=
07207,1999-11-06 07:00:00,10.9,1016.9,4.1,74,6.5,,42.596,68.524,,340,,,,,,,,,,,og-post,,,,AAXX 06074 07207 36/// /3423 10109 20065 30117 40169 53041 333 91137=
07207,1999-11-06 08:00:00,13.1,1009.7,1.5,71,8,15000,50.004,94.452,,290,,,,1,,,,,,2,og-post,,,,AAXX 06084 07207 21565 52927 10131 20080 30046 40097 51015 70262 85200 222// 326// 333 60017 91151 92447=
07207,1999-11-06 09:00:00,11.5,1019.7,4.3,71,6.4,20000,35.188,68.524,,340,,,,,,,,,,,og-post,,,,AAXX 06094 07207 32570 43419 10115 20064 30145 40197 51043 84200 222// 326// 333 91137 92448=
07207,1999-11-06 10:00:00,12.1,1020.6,3.6,65,5.7,,31.484,53.708,,340,,,,,,,,,,,og-post,,,,AAXX 06104 07207 36/// /3417 10121 20057 30154 40206 51036 333 91129=
07207,1999-11-06 11:00:00,12.6,1022,3.2,64,6,,31.484,,,330,,,,,,,,,,,og-post,,,,AAXX 06114 07207 36/// /3317 10126 20060 30168 40220 53032=
07207,1999-11-06 12:00:00,12.2,1021.6,2.4,61,4.9,20000,35.188,68.524,,340,,,,,,,,,,,og-post,,,,AAXX 06124 07207 32570 53419 10122 20049 30164 40216 51024 84202 222// 326// 333 91137 92448=
07207,1999-11-06 13:00:00,12.8,1021.9,1.2,62,5.7,,29.632,,,340,,,,,,,,,,,og-post,,,,AAXX 06134 07207 36/// /3416 10128 20057 30167 40219 51012=
07207,1999-11-06 14:00:00,12.6,1022.2,0.3,62,5.5,,29.632,,,340,,,,,,,,,,,og-post,,,,AAXX 06144 07207 36/// /3416 10126 20055 30170 40222 53003=
07207,1999-11-06 15:00:00,12.8,1022.8,1.2,54,3.7,20000,29.632,,,330,,,,,,,,,,,og-post,,,,AAXX 06154 07207 32570 53316 10128 20037 30176 40228 53012 84202 222// 326// 333 92448=
07207,1999-11-06 16:00:00,12.4,1023.3,1.5,59,4.6,,25.928,,,340,,,,,,,,,,,og-post,,,,AAXX 06164 07207 36/// /3414 10124 20046 30181 40233 53015=
07207,1999-11-06 17:00:00,10.7,1024.1,1.9,62,3.7,,18.52,,,350,,,,,,,,,,,og-post,,,,AAXX 06174 07207 36/// /3510 10107 20037 30188 40241 53019=
07207,1999-11-06 18:00:00,10.7,1025,2.3,66,4.6,25000,18.52,,,350,10.3,13.1,,,,,,,,,og-post,,,,AAXX 06184 07207 32575 53510 10107 20046 30197 40250 53023 84202 222// 326// 333 10131 20103 92438=
07207,1999-11-06 19:00:00,10.2,1025.5,2.2,68,4.6,,18.52,,,360,,,,,,,,,,,og-post,,,,AAXX 06194 07207 36/// /3610 10102 20046 30202 40255 51022=
07207,1999-11-06 20:00:00,9.6,1026.1,2,72,4.8,,18.52,,,360,,,,,,,,,,,og-post,,,,AAXX 06204 07207 36/// /3610 10096 20048 30208 40261 51020=
07207,1999-11-06 21:00:00,9.2,1026.5,1.5,73,4.6,25000,18.52,,,10,,,,,,,,,,,og-post,,,,AAXX 06214 07207 32575 20110 10092 20046 30212 40265 52015 82200 222// 326// 333 92438=
07207,1999-11-06 22:00:00,9.1,1026.9,1.4,72,4.3,,18.52,,,10,,,,,,,,,,,og-post,,,,AAXX 06224 07207 36/// /0110 10091 20043 30216 40269 51014=
07207,1999-11-06 23:00:00,9.2,1027.2,1,73,4.6,,18.52,,,360,,,,,,,,,,,og-post,,,,AAXX 06234 07207 36/// /3610 10092 20046 30219 40272 51010=
07207,1999-11-07 00:00:00,8.9,1027.6,1,73,4.3,,18.52,,,360,,,,,,,,,,,og-post,,,,AAXX 07004 07207 36/// /3610 10089 20043 30223 40276 53010=
07207,1999-11-07 01:00:00,8.9,1027.8,0.9,75,4.7,,18.52,,,10,,,,,,,,,,,og-post,,,,AAXX 07014 07207 36/// /0110 10089 20047 30225 40278 51009=
07207,1999-11-07 02:00:00,8.7,1027.9,0.6,77,4.9,,14.816,,,10,,,,,,,,,,,og-post,,,,AAXX 07024 07207 36/// /0108 10087 20049 30226 40279 50006=
07207,1999-11-07 03:00:00,9,1028.1,0.5,75,4.8,25000,14.816,,,10,,,,,,,,,,,og-post,,,,AAXX 07034 07207 32575 20108 10090 20048 30228 40281 52005 82200 222// 326// 333 92438=
07207,1999-11-07 04:00:00,8.9,1028.6,0.7,78,5.3,,14.816,,,10,,,,,,,,,,,og-post,,,,AAXX 07044 07207 36/// /0108 10089 20053 30233 40286 53007=
07207,1999-11-07 05:00:00,8.8,1028.6,0.9,78,5.2,,11.112,,,20,,,,,,,,,,,og-post,,,,AAXX 07054 07207 36/// /0206 10088 20052 30233 40286 51009=
07207,1999-11-07 06:00:00,10.3,1028.9,0.9,75,6.1,20000,11.112,,,340,8.4,11.4,,,,,,,,,og-post,,,,AAXX 07064 07207 32970 33406 10103 20061 30236 40289 51009 83030 222// 326// 333 10114 20084 92438=
07207,1999-11-07 07:00:00,10,1029.7,1.3,81,6.9,,14.816,,,10,,,,,,,,,,,og-post,,,,AAXX 07074 07207 36/// /0108 10100 20069 30244 40297 53013=
07207,1999-11-07 08:00:00,11.1,1030.4,1.8,77,7.2,,11.112,,,360,,,,,,,,,,,og-post,,,,AAXX 07084 07207 36/// /3606 10111 20072 30251 40304 53018=
07207,1999-11-07 09:00:00,11.7,1030.9,1.8,79,8.2,25000,11.112,,,30,,,,,,,,,,,og-post,,,,AAXX 07094 07207 32675 80306 10117 20082 30256 40309 51018 885// 222// 326// 333 92428=
07207,1999-11-07 10:00:00,12.3,1031.2,1.4,82,9.3,,7.408,,,30,,,,,,,,,,,og-post,,,,AAXX 07104 07207 36/// /0304 10123 20093 30259 40312 51014=
07207,1999-11-07 11:00:00,13.2,1031.5,1,75,8.9,,7.408,,,10,,,,,,,,,,,og-post,,,,AAXX 07114 07207 36/// /0104 10132 20089 30263 40315 52010=
07207,1999-11-07 12:00:00,13.2,1031.3,0.6,74,8.7,25000,11.112,,,350,,,,,,,,,,,og-post,,,,AAXX 07124 07207 32675 83506 10132 20087 30261 40313 50006 888// 222// 326// 333 92428=
07207,1999-11-07 13:00:00,13.6,1031.2,0.1,71,8.4,,11.112,,,340,,,,,,,,,,,og-post,,,,AAXX 07134 07207 36/// /3406 10136 20084 30260 40312 50001=
07207,1999-11-07 14:00:00,14.3,1031.1,-0.4,67,8.3,,11.112,,,320,,,,,,,,,,,og-post,,,,AAXX 07144 07207 36/// /3206 10143 20083 3029 40311 56004=
07207,1999-11-07 15:00:00,13.5,1031.3,-0,72,8.6,25000,7.408,,,340,,,,,,,,,,,og-post,,,,AAXX 07154 07207 32675 73404 10135 20086 30261 40313 55000 878// 222// 326// 333 92428=
07207,1999-11-07 16:00:00,12.9,1031.6,0.3,75,8.6,,3.704,,,350,,,,,,,,,,,og-post,,,,AAXX 07164 07207 36/// /3502 10129 20086 30263 40316 53003=
07207,1999-11-07 17:00:00,12.5,1032,0.7,78,8.8,,3.704,,,330,,,,,,,,,,,og-post,,,,AAXX 07174 07207 36/// /3302 10125 20088 30267 40320 53007=
07207,1999-11-07 18:00:00,12,1032.4,1.1,82,9,25000,3.704,,,60,9.4,14.7,,,,,,,,,og-post,,,,AAXX 07184 07207 32675 70602 10120 20090 30271 40324 53011 878// 222// 326// 333 10147 20094 92428=
07207,1999-11-07 19:00:00,12.5,1032.8,1.2,82,9.5,,,,,,,,,,,,,,,,og-post,,,,AAXX 07194 07207 36/// /0000 10125 20095 30275 40328 52012=
07207,1999-11-07 20:00:00,12.4,1033,1,84,9.8,,3.704,,,110,,,,,,,,,,,og-post,,,,AAXX 07204 07207 36/// /1102 10124 20098 30277 40330 51010=
07207,1999-11-07 21:00:00,12.7,1033.2,0.8,83,9.9,25000,,,,,,,,,,,,,,,og-post,,,,AAXX 07214 07207 32675 80000 10127 20099 30279 40332 51008 888// 222// 326// 333 92428=
07207,1999-11-07 22:00:00,12.4,1033.5,0.7,83,9.6,,,,,,,,,,,,,,,,og-post,,,,AAXX 07224 07207 36/// /0000 10124 20096 30282 40335 53007=
07207,1999-11-07 23:00:00,12.3,1033.7,0.7,82,9.3,,,,,,,,,,,,,,,,og-post,,,,AAXX 07234 07207 36/// /0000 10123 20093 30284 40337 52007=
07207,1999-11-08 01:00:00,12.3,1033.4,-0.1,83,9.5,,3.704,,,70,,,,,,,,,,,og-post,,,,AAXX 08014 07207 36/// /0702 10123 20095 30281 40334 58001=
07207,1999-11-08 02:00:00,12.5,1033.5,-0.1,85,10,,,,,,,,,,,,,,,,og-post,,,,AAXX 08024 07207 36/// /0000 10125 20100 30282 40335 57001=
07207,1999-11-08 03:00:00,12.2,1033.5,-0.3,86,9.9,25000,,,,,,,,,,,,,,,og-post,,,,AAXX 08034 07207 32675 80000 10122 20099 30282 40335 56003 888// 222// 326// 333 92428=
07207,1999-11-08 04:00:00,12.7,1033.3,-0.1,85,10.2,,,,,,,,,,,,,,,,og-post,,,,AAXX 08044 07207 36/// /0000 10127 20102 30280 40333 58001=
07207,1999-11-08 05:00:00,11.8,1033.4,-0.1,88,9.9,,3.704,,,20,,,,,,,,,,,og-post,,,,AAXX 08054 07207 36/// /0202 10118 20099 30281 40334 55001=
07207,1999-11-08 06:00:00,12,1033.3,-0.1,84,9.4,25000,7.408,,,50,11.7,12.8,,,,,,,,,og-post,,,,AAXX 08064 07207 32675 80504 10120 20094 30280 40333 56001 888// 222// 326// 333 10128 20117 92428=
07207,1999-11-08 07:00:00,12.1,1033.8,0.6,84,9.5,,3.704,,,360,,,,,,,,,,,og-post,,,,AAXX 08074 07207 36/// /3602 10121 20095 30285 40338 53006=
07207,1999-11-08 08:00:00,12.2,1034.5,1,85,9.8,,11.112,,,300,,,0.2,,,,,,,,og-post,,,,AAXX 08084 07207 26/// /3006 10122 20098 30292 40345 53010 333 69925=
07207,1999-11-08 09:00:00,12.4,1034.8,1.5,83,9.6,,7.408,,,280,,,,0.2,,,,,,,og-post,,,,AAXX 08094 07207 26/// /2804 10124 20096 30295 40348 51015 333 69927=
07207,1999-11-08 10:00:00,13.1,1034.9,1,80,9.7,,11.112,,,290,,,,,,,,,,,og-post,,,,AAXX 08104 07207 36/// /2906 10131 20097 30296 40349 51010=
07207,1999-11-08 11:00:00,13.2,1035,0.6,83,10.4,,7.408,,,290,,,,,,,,,,,og-post,,,,AAXX 08114 07207 36/// /2904 10132 20104 30297 40350 51006=
07207,1999-11-08 12:00:00,14,1034.3,-0.3,78,10.2,25000,11.112,,,330,,,,,0.2,,,,,1,og-post,,,,AAXX 08124 07207 11675 73306 10140 20102 30291 40343 58003 69921 70182 878// 222// 326// 333 92428=
07207,1999-11-08 13:00:00,14.2,1034.1,-0.7,73,9.4,,11.112,,,330,,,,,,,,,,,og-post,,,,AAXX 08134 07207 36/// /3306 10142 20094 30289 40341 58007=
07207,1999-11-08 14:00:00,14.1,1033.8,-1.1,72,9.1,,14.816,,,320,,,,,,,,,,,og-post,,,,AAXX 08144 07207 36/// /3208 10141 20091 30286 40338 56011=
07207,1999-11-08 15:00:00,13.8,1033.8,-0.5,72,8.8,30000,14.816,,,330,,,,,,,,,,,og-post,,,,AAXX 08154 07207 32680 73308 10138 20088 30286 40338 55005 875// 222// 326// 333 92428=
07207,1999-11-08 16:00:00,13.7,1034,-0.3,75,9.4,,14.816,,,340,,,,,,,,,,,og-post,,,,AAXX 08164 07207 36/// /3408 10137 20094 30287 40340 56003=
07207,1999-11-08 17:00:00,12.8,1034.2,0.3,84,10.2,,18.52,,,10,,,,,,,,,,,og-post,,,,AAXX 08174 07207 36/// /0110 10128 20102 30289 40342 53003=
07207,1999-11-08 18:00:00,12.1,1034.4,0.5,88,10.2,25000,7.408,,,20,11.8,14.4,,,,0.2,,,,,og-post,,,,AAXX 08184 07207 12675 70204 10121 20102 30291 40344 53005 69922 875// 222// 326// 333 10144 20118 92428=
07207,1999-11-08 19:00:00,12.8,1034.6,0.7,86,10.5,,14.816,,,340,,,,,,,,,,,og-post,,,,AAXX 08194 07207 36/// /3408 10128 20105 30293 40346 51007=
07207,1999-11-08 20:00:00,12.1,1034.7,0.4,93,11,,14.816,,,350,,,0.2,,,,,,,,og-post,,,,AAXX 08204 07207 26/// /3508 10121 20110 30294 40347 51004 333 69925=
07207,1999-11-08 21:00:00,12.4,1034.6,0.1,93,11.3,20000,18.52,,,350,,,,0.4,,,,,,,og-post,,,,AAXX 08214 07207 22570 33510 10124 20113 30293 40346 51001 83200 222// 326// 333 69947 92428=
07207,1999-11-08 22:00:00,12.1,1034.4,-0.2,94,11.2,,14.816,,,10,,,,,,,,,,,og-post,,,,AAXX 08224 07207 36/// /0108 10121 20112 30291 40344 57002=
07207,1999-11-09 00:00:00,12.3,1034.1,-0.5,92,11,,14.816,,,10,,,,,0.4,,,,,,og-post,,,,AAXX 09004 07207 16/// /0108 10123 20110 30288 40341 56005 69941=
07207,1999-11-09 01:00:00,12.2,1033.9,-0.5,92,10.9,,18.52,,,30,,,,,,,,,,,og-post,,,,AAXX 09014 07207 36/// /0310 10122 20109 30286 40339 57005=
07207,1999-11-09 02:00:00,11.8,1034,-0.2,92,10.5,,14.816,,,40,,,,,,,,,,,og-post,,,,AAXX 09024 07207 36/// /0408 10118 20105 30287 40340 55002=
07207,1999-11-09 03:00:00,11.6,1033.9,-0.2,93,10.5,20000,11.112,,,40,,,,,,,,,,,og-post,,,,AAXX 09034 07207 32670 60406 10116 20105 30286 40339 56002 86800 222// 326// 333 92428=
07207,1999-11-09 04:00:00,11.4,1034.1,0.2,93,10.3,,14.816,,,60,,,,,,,,,,,og-post,,,,AAXX 09044 07207 36/// /0608 10114 20103 30288 40341 53002=
07207,1999-11-09 05:00:00,11.5,1034.4,0.4,93,10.4,,14.816,,,60,,,,,,,,,,,og-post,,,,AAXX 09054 07207 36/// /0608 10115 20104 30291 40344 53004=
07207,1999-11-09 06:00:00,11.4,1034.5,0.6,92,10.1,15000,14.816,,,70,11.4,12.8,,,,0.4,,,,,og-post,,,,AAXX 09064 07207 12465 80708 10114 20101 30292 40345 51006 69942 88600 222// 326// 333 10128 20114 92427=
07207,1999-11-09 07:00:00,11.3,1034.9,0.8,92,10,,11.112,,,80,,,,,,,,,,,og-post,,,,AAXX 09074 07207 36/// /0806 10113 20100 30296 40349 53008=
07207,1999-11-09 08:00:00,11.6,1035.4,1,90,10,,14.816,,,60,,,,,,,,,,,og-post,,,,AAXX 09084 07207 36/// /0608 10116 20100 30301 40354 53010=
07207,1999-11-09 09:00:00,12.2,1035.9,1.4,91,10.8,30000,18.52,,,50,,,,,,,,,,,og-post,,,,AAXX 09094 07207 32680 80510 10122 20108 30306 40359 53014 885// 222// 327// 333 92428=
07207,1999-11-09 10:00:00,12,1036.1,1.2,88,10.1,,25.928,,,60,,,,,,,,,,,og-post,,,,AAXX 09104 07207 36/// /0614 10120 20101 30308 40361 51012=
07207,1999-11-09 11:00:00,13.5,1036.1,0.7,77,9.6,,18.52,,,80,,,,,,,,,,,og-post,,,,AAXX 09114 07207 36/// /0810 10135 20096 30308 40361 51007=
07207,1999-11-09 12:00:00,13.8,1035.6,-0.4,74,9.3,30000,22.224,,,70,,,,,,,,,,,og-post,,,,AAXX 09124 07207 32580 20712 10138 20093 30303 40356 58004 82104 222// 327// 333 92428=
07207,1999-11-09 13:00:00,13.9,1035.3,-0.8,69,8.3,,25.928,,,70,,,,,,,,,,,og-post,,,,AAXX 09134 07207 36/// /0714 10139 20083 30300 40353 58008=
07207,1999-11-09 14:00:00,14.1,1035.3,-0.8,73,9.3,,22.224,,,60,,,,,,,,,,,og-post,,,,AAXX 09144 07207 36/// /0612 10141 20093 30300 40353 55008=
07207,1999-11-09 15:00:00,14,1035.3,-0.1,71,8.8,30000,11.112,,,70,,,,,,,,,,,og-post,,,,AAXX 09154 07207 32580 40706 10140 20088 30300 40353 56001 81171 222// 327// 333 92428=
07207,1999-11-09 16:00:00,13.7,1035.3,0.1,74,9.2,,14.816,,,50,,,,,,,,,,,og-post,,,,AAXX 09164 07207 36/// /0508 10137 20092 30300 40353 51001=
07207,1999-11-09 17:00:00,13.3,1035.7,0.4,79,9.7,,18.52,,,40,,,,,,,,,,,og-post,,,,AAXX 09174 07207 36/// /0410 10133 20097 30304 40357 53004=
07207,1999-11-09 18:00:00,12.2,1036.1,0.9,90,10.6,,22.224,,,50,11.2,14.4,,,,,,,,,og-post,,,,AAXX 09184 07207 36/// /0512 10122 20106 30308 40361 53009 333 10144 20112=
07207,1999-11-09 19:00:00,12,1036.1,0.7,85,9.6,,22.224,,,60,,,,,,,,,,,og-post,,,,AAXX 09194 07207 36/// /0612 10120 20096 30308 40361 51007=
07207,1999-11-09 20:00:00,11.3,1036.4,0.6,79,7.8,,29.632,,,60,,,,,,,,,,,og-post,,,,AAXX 09204 07207 36/// /0616 10113 20078 30311 40364 51006=
07207,1999-11-09 21:00:00,11.1,1036.5,0.5,73,6.4,25000,25.928,,,50,,,,,,,,,,,og-post,,,,AAXX 09214 07207 32675 30514 10111 20064 30312 40365 53005 83500 222// 327// 333 92428=
07207,1999-11-09 22:00:00,10.5,1036.7,0.5,76,6.5,,25.928,,,50,,,,,,,,,,,og-post,,,,AAXX 09224 07207 36/// /0514 10105 20065 30314 40367 51005=
07207,1999-11-09 23:00:00,10.2,1036.8,0.4,81,7.1,,29.632,,,60,,,,,,,,,,,og-post,,,,AAXX 09234 07207 36/// /0616 10102 20071 30315 40368 52004=
07207,1999-11-10 00:00:00,10.1,1036.9,0.4,83,7.3,,25.928,,,60,,,,,,,,,,,og-post,,,,AAXX 10004 07207 36/// /0614 10101 20073 30316 40369 51004=
07207,1999-11-10 03:00:00,9.9,1036.4,-0.3,86,7.7,,25.928,,,50,,,,,,,,,,,og-post,,,,AAXX 10034 07207 36/// /0514 10099 20077 30311 40364 58003=
07207,1999-11-10 04:00:00,10.1,1036.4,-0.4,86,7.9,,29.632,,,50,,,,,,,,,,,og-post,,,,AAXX 10044 07207 36/// /0516 10101 20079 30311 40364 57004=
07207,1999-11-10 05:00:00,10.5,1036.3,-0.3,85,8.1,,29.632,,,40,,,,,,,,,,,og-post,,,,AAXX 10054 07207 36/// /0416 10105 20081 30310 40363 56003=
07207,1999-11-10 06:00:00,9.9,1036.5,-0,87,7.8,20000,25.928,,,40,9.6,12.2,,,,,,,,,og-post,,,,AAXX 10064 07207 32570 30414 10099 20078 30312 40365 55000 83800 222// 327// 333 10122 20096 92428=
07207,1999-11-10 07:00:00,9.7,1036.8,0.4,88,7.8,,22.224,,,40,,,,,,,,,,,og-post,,,,AAXX 10074 07207 36/// /0412 10097 20078 30315 40368 53004=
07207,1999-11-10 08:00:00,9.8,1036.9,0.5,88,7.9,,22.224,,,40,,,,,,,,,,,og-post,,,,AAXX 10084 07207 36/// /0412 10098 20079 30316 40369 52005=
07207,1999-11-10 09:00:00,10.7,1036.8,0.4,86,8.5,30000,25.928,,,40,,,,,,,,,,,og-post,,,,AAXX 10094 07207 32580 30414 10107 20085 30315 40368 51004 82201 222// 327// 333 92428=
07207,1999-11-10 10:00:00,11.2,1036.7,-0.2,81,8.1,,29.632,53.708,,40,,,,,,,,,,,og-post,,,,AAXX 10104 07207 36/// /0416 10112 20081 30314 40367 58002 333 91129=
07207,1999-11-10 11:00:00,11.9,1036,-0.8,77,8,,29.632,,,30,,,,,,,,,,,og-post,,,,AAXX 10114 07207 36/// /0316 10119 20080 30307 40360 58008=
07207,1999-11-10 12:00:00,12.5,1035.4,-1.4,74,8,30000,29.632,53.708,,40,,,,,,,,,,,og-post,,,,AAXX 10124 07207 32580 60416 10125 20080 30301 40354 58014 82250 222// 327// 333 91129 92428=
07207,1999-11-10 13:00:00,12.2,1034.6,-2,73,7.5,,35.188,53.708,,30,,,,,,,,,,,og-post,,,,AAXX 10134 07207 36/// /0319 10122 20075 30293 40346 58020 333 91129=
07207,1999-11-10 14:00:00,12.6,1034.3,-1.8,67,6.6,,38.892,,,30,,,,,,,,,,,og-post,,,,AAXX 10144 07207 36/// /0321 10126 20066 30290 40343 56018=
07207,1999-11-10 15:00:00,11.7,1033.8,-1.6,72,6.8,30000,31.484,,,20,,,,,,,,,,,og-post,,,,AAXX 10154 07207 32680 70217 10117 20068 30285 40338 56016 875// 333 92428=
07207,1999-11-10 16:00:00,11.1,1033.4,-1.4,76,7,,38.892,,,20,,,,,,,,,,,og-post,,,,AAXX 10164 07207 36/// /0221 10111 20070 30281 40334 58014=
07207,1999-11-10 17:00:00,10.9,1033.4,-1,79,7.4,,31.484,,,30,,,,,,,,,,,og-post,,,,AAXX 10174 07207 36/// /0317 10109 20074 30281 40334 56010=
07207,1999-11-10 18:00:00,10.9,1033.3,-0.6,83,8.1,30000,25.928,,,30,9.4,12.9,,,,,,,,,og-post,,,,AAXX 10184 07207 32680 80314 10109 20081 30280 40333 56006 885// 333 10129 20094 92428=
07207,1999-11-10 19:00:00,10.9,1033.1,-0.2,81,7.8,,25.928,53.708,,30,,,,,,,,,,,og-post,,,,AAXX 10194 07207 36/// /0314 10109 20078 30278 40331 58002 333 91129=
07207,1999-11-10 20:00:00,10.8,1032.9,-0.4,81,7.7,,31.484,,,40,,,,,,,,,,,og-post,,,,AAXX 10204 07207 36/// /0417 10108 20077 30276 40329 58004=
07207,1999-11-10 21:00:00,10.3,1032.8,-0.5,83,7.5,25000,29.632,53.708,,40,,,,,,,,,,,og-post,,,,AAXX 10214 07207 32575 30416 10103 20075 30275 40328 56005 83200 333 91129 92428=
07207,1999-11-10 22:00:00,10.1,1032.9,-0.1,81,7,,31.484,,,50,,,,,,,,,,,og-post,,,,AAXX 10224 07207 36/// /0517 10101 20070 30276 40329 55001=
07207,1999-11-10 23:00:00,10.3,1033,-0,73,5.7,,35.188,64.82,,50,,,,,,,,,,,og-post,,,,AAXX 10234 07207 36/// /0519 10103 20057 30277 40330 55000 333 91135=
07207,1999-11-11 00:00:00,9.4,1032.8,0.1,66,3.4,,42.596,68.524,,60,,,,,,,,,,,og-post,,,,AAXX 11004 07207 36/// /0623 10094 20034 30275 40328 52001 333 91137=
07207,1999-11-11 01:00:00,9.1,1032.4,-0.4,65,2.9,,38.892,61.116,61.116,60,,,,,,,,,,,og-post,,,,AAXX 11014 07207 36/// /0621 10091 20029 30271 40324 58004 333 91033 91133=
07207,1999-11-11 02:00:00,8.9,1031.9,-0.7,64,2.5,,38.892,61.116,,60,,,,,,,,,,,og-post,,,,AAXX 11024 07207 36/// /0621 10089 20025 30266 40319 58007 333 91133=
07207,1999-11-11 03:00:00,8.7,1031.8,-0.8,64,2.3,25000,38.892,61.116,61.116,60,,,,,,,,,,,og-post,,,,AAXX 11034 07207 32575 10621 10087 20023 30265 40318 56008 81200 333 91033 91133 92428=
07207,1999-11-11 04:00:00,8.4,1031.6,-0.9,65,2.2,,38.892,64.82,57.412,60,,,,,,,,,,,og-post,,,,AAXX 11044 07207 36/// /0621 10084 20022 30263 40316 56009 333 91031 91135=
07207,1999-11-11 05:00:00,9,1031.4,-0.6,66,3,,31.484,,53.708,50,,,,,,,,,,,og-post,,,,AAXX 11054 07207 36/// /0517 10090 20030 30261 40314 58006 333 91029=
07207,1999-11-11 06:00:00,8.9,1031.3,-0.7,64,2.5,25000,38.892,68.524,,50,8.2,11.1,,,,,,,,,og-post,,,,AAXX 11064 07207 32975 20521 10089 20025 30260 40313 56007 82030 333 10111 20082 91137 92428=
07207,1999-11-11 07:00:00,8,1031.4,-0.3,70,2.9,,31.484,,,40,,,,,,,,,,,og-post,,,,AAXX 11074 07207 36/// /0417 10080 20029 30260 40314 55003=
07207,1999-11-11 08:00:00,8.5,1031.5,0.1,71,3.6,,42.596,64.82,64.82,60,,,,,,,,,,,og-post,,,,AAXX 11084 07207 36/// /0623 10085 20036 30262 40315 53001 333 91035 91135=
07207,1999-11-11 09:00:00,8.7,1031.7,0.4,73,4.1,25000,38.892,64.82,,70,,,,,,,,,,,og-post,,,,AAXX 11094 07207 32575 20721 10087 20041 30264 40317 52004 82200 333 91135 92428=
07207,1999-11-11 10:00:00,9.4,1031.4,0.1,72,4.6,,31.484,61.116,,60,,,,,,,,,,,og-post,,,,AAXX 11104 07207 36/// /0617 10094 20046 30261 40314 50001 333 91133=
07207,1999-11-11 11:00:00,10.4,1031,-0.5,69,5,,35.188,61.116,,70,,,,,,,,,,,og-post,,,,AAXX 11114 07207 36/// /0719 10104 20050 30257 40310 58005 333 91133=
07207,1999-11-11 12:00:00,11.2,1030.1,-1.6,63,4.4,30000,42.596,64.82,,60,,,,,,,,,,,og-post,,,,AAXX 11124 07207 32580 20623 10112 20044 30248 40301 58016 82200 333 91135 92428=
07207,1999-11-11 13:00:00,11.7,1029.6,-1.8,57,3.5,,38.892,64.82,,60,,,,,,,,,,,og-post,,,,AAXX 11134 07207 36/// /0621 10117 20035 30243 40296 58018 333 91135=
07207,1999-11-11 14:00:00,11.8,1029,-2,60,4.3,,31.484,57.412,,50,,,,,,,,,,,og-post,,,,AAXX 11144 07207 36/// /0517 10118 20043 30237 40290 56020 333 91131=
07207,1999-11-11 15:00:00,11.3,1028.6,-1.6,63,4.5,30000,35.188,64.82,,50,,,,,,,,,,,og-post,,,,AAXX 11154 07207 32580 50519 10113 20045 30233 40286 56016 85200 333 91135 92428=
07207,1999-11-11 16:00:00,10.3,1028,-1.6,59,2.7,,31.484,,53.708,40,,,,,,,,,,,og-post,,,,AAXX 11164 07207 36/// /0417 10103 20027 30227 40280 56016 333 91029=
07207,1999-11-11 17:00:00,9.4,1027.9,-0.8,66,3.4,,25.928,57.412,,40,,,,,,,,,,,og-post,,,,AAXX 11174 07207 36/// /0414 10094 20034 30226 40279 56008 333 91131=
07207,1999-11-11 18:00:00,9.6,1027.8,-0.6,61,2.5,30000,42.596,64.82,,50,7.7,12,,,,,,,,,og-post,,,,AAXX 11184 07207 32580 30523 10096 20025 30225 40278 56006 83200 333 10120 20077 91135 92428=
07207,1999-11-11 19:00:00,9.7,1027.5,-0.6,61,2.6,,38.892,,,50,,,,,,,,,,,og-post,,,,AAXX 11194 07207 36/// /0521 10097 20026 30222 40275 58006=
07207,1999-11-11 20:00:00,9.5,1027.1,-0.8,66,3.5,,35.188,,,50,,,,,,,,,,,og-post,,,,AAXX 11204 07207 36/// /0519 10095 20035 30218 40271 58008=
07207,1999-11-11 21:00:00,9.3,1026.8,-1,67,3.5,25000,35.188,,57.412,60,,,,,,,,,,,og-post,,,,AAXX 11214 07207 32575 60619 10093 20035 30215 40268 57010 86800 333 91031 92428=
07207,1999-11-11 22:00:00,8.8,1026.4,-1.1,69,3.4,,38.892,,,60,,,,,,,,,,,og-post,,,,AAXX 11224 07207 36/// /0621 10088 20034 30211 40264 57011=
07207,1999-11-11 23:00:00,8.2,1026.3,-0.8,70,3.1,,38.892,,57.412,70,,,,,,,,,,,og-post,,,,AAXX 11234 07207 36/// /0721 10082 20031 30210 40263 56008 333 91031=
07207,1999-11-12 00:00:00,7.8,1025.9,-0.9,74,3.5,,31.484,,,60,,,,,,,,,,,og-post,,,,AAXX 12004 07207 36/// /0617 10078 20035 30206 40259 56009=
07207,1999-11-12 01:00:00,7.1,1025.4,-0.9,75,3,,35.188,,,60,,,,,,,,,,,og-post,,,,AAXX 12014 07207 36/// /0619 10071 20030 30201 40254 58009=
07207,1999-11-12 02:00:00,7.1,1024.9,-1.4,74,2.8,,35.188,,,60,,,,,,,,,,,og-post,,,,AAXX 12024 07207 36/// /0619 10071 20028 30196 40249 58014=
07207,1999-11-12 03:00:00,7.1,1024.3,-1.6,75,3,,31.484,,,70,,,,,,,,,,,og-post,,,,AAXX 12034 07207 36/// /0717 10071 20030 30190 40243 58016=
07207,1999-11-12 04:00:00,7.1,1023.8,-1.6,76,3.2,,35.188,57.412,,60,,,,,,,,,,,og-post,,,,AAXX 12044 07207 36/// /0619 10071 20032 30185 40238 58016 333 91131=
07207,1999-11-12 05:00:00,7,1023.6,-1.2,75,2.9,,38.892,,,70,,,,,,,,,,,og-post,,,,AAXX 12054 07207 36/// /0721 10070 20029 30183 40236 56012=
07207,1999-11-12 06:00:00,6.7,,-1,77,3,25000,31.484,57.412,,60,6.6,9.7,,,,,,,,,og-post,,,,AAXX 12064 07207 32575 50617 10067 20030 30181 4234 56010 85800 333 10097 20066 91131 92428=
07207,1999-11-12 07:00:00,7,1023.4,-0.5,76,3.1,,35.188,,,60,,,,,,,,,,,og-post,,,,AAXX 12074 07207 36/// /0619 10070 20031 30181 40234 56005=
07207,1999-11-12 08:00:00,7.2,1023.4,-0.2,76,3.3,,31.484,57.412,,80,,,,,,,,,,,og-post,,,,AAXX 12084 07207 36/// /0817 10072 20033 30181 40234 55002 333 91131=
07207,1999-11-12 09:00:00,6.9,1023.4,-0,79,3.5,20000,35.188,57.412,,70,,,,,,,,,,,og-post,,,,AAXX 12094 07207 32570 80719 10069 20035 30181 40234 55000 888// 333 91131 92428=
07207,1999-11-12 10:00:00,6.9,1023.2,-0.2,80,3.7,,35.188,57.412,,70,,,,,,,,,,,og-post,,,,AAXX 12104 07207 36/// /0719 10069 20037 30179 40232 58002 333 91131=
07207,1999-11-12 11:00:00,7.3,1023,-0.4,79,3.9,,38.892,,,80,,,,,,,,,,,og-post,,,,AAXX 12114 07207 36/// /0821 10073 20039 30177 40230 58004=
07207,1999-11-12 12:00:00,7.8,1022.8,-0.6,77,4,18000,35.188,57.412,,80,,,,,,,,,,,og-post,,,,AAXX 12124 07207 32568 70819 10078 20040 30175 40228 57006 878// 333 91131 92427=
07207,1999-11-12 13:00:00,7.6,1022.4,-0.7,79,4.2,,31.484,,,70,,,,,,,,,,,og-post,,,,AAXX 12134 07207 36/// /0717 10076 20042 30171 40224 58007=
07207,1999-11-12 14:00:00,8,1021.6,-1.3,78,4.4,,31.484,,,60,,,,,,,,,,,og-post,,,,AAXX 12144 07207 36/// /0617 10080 20044 30163 40216 58013=
07207,1999-11-12 15:00:00,8.2,1021.2,-1.6,77,4.4,12000,35.188,57.412,,60,,,,,,,,,,,og-post,,,,AAXX 12154 07207 32562 70619 10082 20044 30159 40212 56016 878// 333 91131 92427=
07207,1999-11-12 16:00:00,7.7,1021,-1.4,84,5.2,,35.188,,,60,,,,,,,,,,,og-post,,,,AAXX 12164 07207 36/// /0619 10077 20052 30157 40210 56014=
07207,1999-11-12 17:00:00,7.2,1021,-0.5,90,5.7,,35.188,,,60,,,0.8,,,,,,,,og-post,,,,AAXX 12174 07207 26/// /0619 10072 20057 30157 40210 56005 333 69985=
07207,1999-11-12 18:00:00,7.5,1021,-0.3,91,6.1,6000,31.484,57.412,53.708,70,6.6,8.5,,1,,1,,,,60,og-post,,,,AAXX 12184 07207 /1356 80717 10075 20061 30157 40210 56003 60012 76062 887// 333 10085 20066 60017 91029 91131 92426=
07207,1999-11-12 19:00:00,8.3,1020.5,-0.5,86,6.1,,31.484,,,60,,,0.2,,,,,,,,og-post,,,,AAXX 12194 07207 26/// /0617 10083 20061 30152 40205 58005 333 69925=
07207,1999-11-12 20:00:00,8.6,1020.3,-0.6,81,5.5,,31.484,,,80,,,,,,,,,,,og-post,,,,AAXX 12204 07207 26/// /0817 10086 20055 30150 40203 57006 333 69905=
07207,1999-11-12 21:00:00,8.6,1019.7,-1.3,82,5.7,15000,38.892,61.116,,80,,,,0.2,,,,,,61,og-post,,,,AAXX 12214 07207 21365 80821 10086 20057 30144 40197 58013 76162 887// 333 69927 91133 92427=
07207,1999-11-12 22:00:00,8.1,1018.8,-1.8,85,5.7,,42.596,96.304,,60,,,0.4,,,,,,,,og-post,,,,AAXX 12224 07207 26/// /0623 10081 20057 30135 40188 58018 333 69945 91152=
07207,1999-11-12 23:00:00,8.3,1018,-2.3,80,5.1,,42.596,,64.82,50,,,0.8,,,,,,,,og-post,,,,AAXX 12234 07207 26/// /0523 10083 20051 30127 40180 56023 333 69985 91035=
07207,1999-11-13 00:00:00,8.2,1017.5,-2.2,75,4,,50.004,96.304,72.228,60,,,,1,1,,,,,,og-post,,,,AAXX 13004 07207 /6/// /0627 10082 20040 30122 40175 56022 60011 333 60017 91039 91152=
07207,1999-11-13 01:00:00,7.9,1016.7,-2,75,3.8,,50.004,75.932,72.228,60,,,,,,,,,,,og-post,,,,AAXX 13014 07207 26/// /0627 10079 20038 30114 40167 58020 333 69905 91039 91141=
07207,1999-11-13 02:00:00,7.4,1016.6,-1.6,80,4.2,,46.3,75.932,64.82,60,,,,,,,,,,,og-post,,,,AAXX 13024 07207 26/// /0625 10074 20042 30113 40166 56016 333 69905 91035 91141=
07207,1999-11-13 03:00:00,7.4,1016.1,-1.5,78,3.8,8000,42.596,75.932,64.82,60,,,,,,,,,,21,og-post,,,,AAXX 13034 07207 21458 80623 10074 20038 30108 40161 56015 72162 887// 333 69907 91035 91141 92436=
07207,1999-11-13 04:00:00,7.3,1016.1,-0.7,79,3.9,,42.596,68.524,,60,,,,,,,,,,,og-post,,,,AAXX 13044 07207 36/// /0623 10073 20039 30108 40161 56007 333 91137=
07207,1999-11-13 05:00:00,6.3,1015.7,-0.7,89,4.6,,50.004,72.228,72.228,50,,,0.2,,,,,,,,og-post,,,,AAXX 13054 07207 26/// /0527 10063 20046 30104 40157 57007 333 69925 91039 91139=
07207,1999-11-13 06:00:00,7,1015.7,-0.8,83,4.3,6000,46.3,75.932,64.82,50,6.3,8.9,,0.2,,2,,,,2,og-post,,,,AAXX 13064 07207 /1456 80525 10070 20043 30104 40157 58008 60022 70262 887// 333 10089 20063 69927 91035 91141 92436=
07207,1999-11-13 07:00:00,7.1,1016.1,0.1,83,4.4,,46.3,,,60,,,,,,,,,,,og-post,,,,AAXX 13074 07207 36/// /0625 10071 20044 30108 40161 53001=
07207,1999-11-13 08:00:00,7.2,1016.3,0.6,82,4.3,,38.892,68.524,61.116,70,,,,,,,,,,,og-post,,,,AAXX 13084 07207 36/// /0721 10072 20043 30110 40163 53006 333 91033 91137=
07207,1999-11-13 09:00:00,7.4,1016.5,1,82,4.5,8000,42.596,,,70,,,,,,,,,,,og-post,,,,AAXX 13094 07207 32658 70723 10074 20045 30112 40165 51010 875// 333 92436=
07207,1999-11-13 10:00:00,7.9,1016.1,0.1,82,5,,35.188,64.82,57.412,70,,,,,,,,,,,og-post,,,,AAXX 13104 07207 36/// /0719 10079 20050 30108 40161 50001 333 91031 91135=
07207,1999-11-13 11:00:00,8.3,1016.6,0.3,80,5.1,,38.892,,61.116,70,,,,,,,,,,,og-post,,,,AAXX 13114 07207 36/// /0721 10083 20051 30113 40166 53003 333 91033=
07207,1999-11-13 12:00:00,9.2,1016,-0.3,77,5.4,8000,42.596,,,70,,,,,,,,,,,og-post,,,,AAXX 13124 07207 32958 70723 10092 20054 30108 40160 58003 8702/ 333 92436=
07207,1999-11-13 13:00:00,8.8,1015.5,-0.5,79,5.4,,38.892,68.524,68.524,60,,,,,,,,,,,og-post,,,,AAXX 13134 07207 36/// /0621 10088 20054 30102 40155 58005 333 91037 91137=
07207,1999-11-13 14:00:00,9.5,1014.8,-1.7,73,4.9,,42.596,68.524,,60,,,,,,,,,,,og-post,,,,AAXX 13144 07207 36/// /0623 10095 20049 30096 40148 58017 333 91137=
07207,1999-11-13 15:00:00,9.5,1014.7,-1.1,71,4.5,12000,46.3,68.524,,50,,,,,,,,,,,og-post,,,,AAXX 13154 07207 32662 70525 10095 20045 30095 40147 56011 875// 222// 300// 333 91137 92437=
07207,1999-11-13 16:00:00,9.7,1015,-0.3,68,4.1,,46.3,72.228,72.228,60,,,,,,,,,,,og-post,,,,AAXX 13164 07207 36/// /0625 10097 20041 30098 40150 55003 333 91039 91139=
07207,1999-11-13 17:00:00,9.5,1015.1,0.4,71,4.5,,46.3,,,50,,,,,,,,,,,og-post,,,,AAXX 13174 07207 36/// /0525 10095 20045 30099 40151 53004=
07207,1999-11-13 18:00:00,9.3,1015.6,1,71,4.3,10000,50.004,72.228,,50,7,9.8,,,,,,,,,og-post,,,,AAXX 13184 07207 32660 80527 10093 20043 30104 40156 51010 885// 222// 300// 333 10098 20070 91139 92447=
07207,1999-11-13 19:00:00,9,1015.7,0.5,72,4.2,,50.004,,68.524,50,,,,,,,,,,,og-post,,,,AAXX 13194 07207 36/// /0527 10090 20042 30104 40157 51005 333 91037=
07207,1999-11-13 20:00:00,8.6,1015.9,0.7,73,4,,42.596,72.228,64.82,50,,,,,,,,,,,og-post,,,,AAXX 13204 07207 36/// /0523 10086 20040 30106 40159 51007 333 91035 91139=
07207,1999-11-13 21:00:00,8,1016.4,0.7,72,3.3,8000,38.892,72.228,,60,,,,,,,,,,,og-post,,,,AAXX 13214 07207 32658 80621 10080 20033 30111 40164 53007 885// 222// 300// 333 91139 92446=
07207,1999-11-14 00:00:00,7.4,1016.1,-0.2,60,0.2,,53.708,79.636,72.228,50,,,,,,,,,,,og-post,,,,AAXX 14004 07207 36/// /0529 10074 20002 30108 40161 55002 333 91039 91143=
07207,1999-11-14 03:00:00,7.7,1016.1,-0,77,3.9,,46.3,79.636,68.524,60,,,,,,,,,,,og-post,,,,AAXX 14034 07207 36/// /0625 10077 20039 30108 40161 55000 333 91037 91143=
07207,1999-11-14 04:00:00,7.9,1016.1,0.1,84,5.4,,46.3,,,50,,,,,,,,,,,og-post,,,,AAXX 14044 07207 36/// /0525 10079 20054 30108 40161 50001=
07207,1999-11-14 05:00:00,8.4,1016.7,0.5,85,6,,38.892,,,50,,,,,,,,,,,og-post,,,,AAXX 14054 07207 36/// /0521 10084 20060 30114 40167 53005=
07207,1999-11-14 07:00:00,9.6,1017,1,84,7,,46.3,68.524,68.524,60,,,,,,,,,,,og-post,,,,AAXX 14074 07207 36/// /0625 10096 20070 30118 40170 51010 333 91037 91137=
07207,1999-11-14 08:00:00,10,1017.4,0.8,86,7.8,,31.484,72.228,,50,,,,,,,,,,,og-post,,,,AAXX 14084 07207 36/// /0517 10100 20078 30122 40174 51008 333 91139=
07207,1999-11-14 09:00:00,10.9,1017.4,0.4,84,8.3,20000,35.188,72.228,,50,,,,,,,,,,,og-post,,,,AAXX 14094 07207 32670 70519 10109 20083 30122 40174 51004 8653/ 222// 300// 333 91139 92438=
07207,1999-11-14 10:00:00,11.1,1017.4,0.4,84,8.5,,38.892,,,40,,,,,,,,,,,og-post,,,,AAXX 14104 07207 36/// /0421 10111 20085 30122 40174 51004=
07207,1999-11-14 11:00:00,11.3,1017.6,0.1,84,8.7,,35.188,68.524,,50,,,,,,,,,,,og-post,,,,AAXX 14114 07207 36/// /0519 10113 20087 30124 40176 53001 333 91137=
07207,1999-11-14 12:00:00,11.6,1017,-0.3,82,8.6,20000,38.892,72.228,,50,,,,,,,,,,,og-post,,,,AAXX 14124 07207 32670 70521 10116 20086 30118 40170 58003 875// 222// 300// 333 91139 92438=
07207,1999-11-14 13:00:00,11.5,1016.8,-0.7,84,8.9,,25.928,53.708,,40,,,,,,,,,,,og-post,,,,AAXX 14134 07207 36/// /0414 10115 20089 30116 40168 58007 333 91129=
07207,1999-11-14 14:00:00,11.5,1016.3,-1.2,85,9.1,,31.484,50.004,,30,,,,,,,,,,,og-post,,,,AAXX 14144 07207 36/// /0317 10115 20091 30111 40163 58012 333 91127=
07207,1999-11-14 15:00:00,11.6,1016.3,-0.7,84,9,20000,31.484,53.708,,30,,,,,,,,,,,og-post,,,,AAXX 14154 07207 32570 70317 10116 20090 30111 40163 56007 8583/ 222// 300// 333 91129 92438=
07207,1999-11-14 16:00:00,11.4,1016.6,-0.3,83,8.6,,29.632,50.004,,40,,,,,,,,,,,og-post,,,,AAXX 14164 07207 36/// /0416 10114 20086 30114 40166 55003 333 91127=
07207,1999-11-14 17:00:00,11.1,1017,0.6,86,8.8,,31.484,50.004,,40,,,,,,,,,,,og-post,,,,AAXX 14174 07207 36/// /0417 10111 20088 30118 40170 53006 333 91127=
07207,1999-11-14 18:00:00,11.1,1017.5,1.1,86,8.8,,29.632,53.708,,40,9.2,12.1,,,,,,,,,og-post,,,,AAXX 14184 07207 36/// /0416 10111 20088 30123 40175 53011 333 10121 20092 91129=
07207,1999-11-14 19:00:00,11,1017.5,0.8,86,8.8,,31.484,,,40,,,,,,,,,,,og-post,,,,AAXX 14194 07207 36/// /0417 10110 20088 30123 40175 50008=
07207,1999-11-14 20:00:00,11,1017.9,0.9,86,8.8,,25.928,,,40,,,,,,,,,,,og-post,,,,AAXX 14204 07207 36/// /0414 10110 20088 30127 40179 51009=
07207,1999-11-14 21:00:00,10.7,1018.1,0.5,87,8.6,20000,25.928,,,30,,,,,,,,,,,og-post,,,,AAXX 14214 07207 32570 50314 10107 20086 30129 40181 53005 85800 222//300// 333 92438=
07207,1999-11-14 22:00:00,10.8,1018.3,0.7,88,8.9,,22.224,,,30,,,,,,,,,,,og-post,,,,AAXX 14224 07207 36/// /0312 10108 20089 30131 40183 51007=
07207,1999-11-14 23:00:00,10.7,1018.3,0.4,88,8.8,,22.224,,,30,,,,,,,,,,,og-post,,,,AAXX 14234 07207 36/// /0312 10107 20088 30131 40183 51004=
07207,1999-11-15 00:00:00,10.8,1018.4,0.4,87,8.7,,25.928,,,30,,,,,,,,,,,og-post,,,,AAXX 15004 07207 36/// /0314 10108 20087 30132 40184 51004=
07207,1999-11-15 01:00:00,10.7,1018.5,0.2,86,8.5,,25.928,,,40,,,,,,,,,,,og-post,,,,AAXX 15014 07207 36/// /0414 10107 20085 30133 40185 53002=
07207,1999-11-15 02:00:00,10.3,1018.9,0.6,83,7.5,,25.928,,,40,,,,,,,,,,,og-post,,,,AAXX 15024 07207 36/// /0414 10103 20075 30137 40189 53006=
07207,1999-11-15 03:00:00,9.7,1019.1,0.6,82,6.8,,25.928,,,40,,,,,,,,,,,og-post,,,,AAXX 15034 07207 36/// /0414 10097 20068 30138 40191 53006=
07207,1999-11-15 04:00:00,9.6,1019.4,0.9,83,6.9,,22.224,,,30,,,,,,,,,,,og-post,,,,AAXX 15044 07207 36/// /0312 10096 20069 30141 40194 51009=
07207,1999-11-15 05:00:00,9.5,1019.7,0.8,82,6.6,,22.224,,,20,,,,,,,,,,,og-post,,,,AAXX 15054 07207 36/// /0212 10095 20066 30144 40197 53008=
07207,1999-11-15 06:00:00,9.5,1019.9,0.8,79,6,,25.928,,,30,9.4,11.1,,,,,,,,,og-post,,,,AAXX 15064 07207 36/// /0314 10095 20060 30146 40199 51008 333 10111 20094=
07207,1999-11-15 07:00:00,8.5,1020.1,0.7,81,5.4,,22.224,,,30,,,,,,,,,,,og-post,,,,AAXX 15074 07207 36/// /0312 10085 20054 30148 40201 51007=
07207,1999-11-15 08:00:00,9.9,1020.6,0.9,80,6.6,,25.928,,,30,,,,,,,,,,,og-post,,,,AAXX 15084 07207 36/// /0314 10099 20066 30153 40206 53009=
07207,1999-11-15 09:00:00,10.1,1020.9,1.2,78,6.4,25000,29.632,,,30,,,,,,,,,,,og-post,,,,AAXX 15094 07207 32575 70316 10101 20064 30156 40209 53012 82270 222// 300// 333 92428=
07207,1999-11-15 10:00:00,10.3,1021.3,1.3,81,7.2,,25.928,,,30,,,,,,,,,,,og-post,,,,AAXX 15104 07207 36/// /0314 10103 20072 30160 40213 51013=
07207,1999-11-15 11:00:00,10.6,1021.2,0.6,80,7.3,,25.928,,,30,,,,,,,,,,,og-post,,,,AAXX 15114 07207 36/// /0314 10106 20073 30160 40212 51006=
07207,1999-11-15 12:00:00,11.6,1021.2,0.1,77,7.7,25000,29.632,,,30,,,,,,,,,,,og-post,,,,AAXX 15124 07207 32575 50316 10116 20077 30160 40212 50001 82230 222// 300// 333 92428=
07207,1999-11-15 13:00:00,11.2,1020.5,-0.7,75,6.9,,22.224,,,20,,,,,,,,,,,og-post,,,,AAXX 15134 07207 36/// /0212 10112 20069 30153 40205 58007=
07207,1999-11-15 14:00:00,10.9,1020.1,-1,74,6.5,,18.52,,,30,,,,,,,,,,,og-post,,,,AAXX 15144 07207 36/// /0310 10109 20065 30149 40201 58010=
07207,1999-11-15 15:00:00,10.9,1020.2,-0.9,71,5.9,25000,18.52,,,30,,,,,,,,,,,og-post,,,,AAXX 15154 07207 32575 50310 10109 20059 30150 40202 56009 83230 222// 300// 333 92428=
07207,1999-11-15 16:00:00,10.1,1020.7,0.2,67,4.3,,18.52,,,50,,,,,,,,,,,og-post,,,,AAXX 15164 07207 36/// /0510 10101 20043 30154 40207 53002=
07207,1999-11-15 17:00:00,8.8,1021,0.7,68,3.2,,18.52,,,60,,,,,,,,,,,og-post,,,,AAXX 15174 07207 36/// /0610 10088 20032 30157 40210 53007=
07207,1999-11-15 18:00:00,8,1021.7,1.3,65,1.8,25000,18.52,,,50,7.7,12.1,,,,,,,,,og-post,,,,AAXX 15184 07207 32575 30510 10080 20018 30164 40217 53013 83200 222// 300// 333 10121 20077 92428=
07207,1999-11-15 19:00:00,7.1,1022.2,1.5,67,1.4,,18.52,,,40,,,,,,,,,,,og-post,,,,AAXX 15194 07207 36/// /0410 10071 20014 30169 40222 53015=
07207,1999-11-15 20:00:00,7,1022.5,1.4,63,0.5,,14.816,,,40,,,,,,,,,,,og-post,,,,AAXX 15204 07207 36/// /0408 10070 20005 30172 40225 51014=
07207,1999-11-15 21:00:00,7.4,1022.5,0.8,53,-1.5,30000,22.224,,,60,,,,,,,,,,,og-post,,,,AAXX 15214 07207 32980 10612 10074 21015 30172 40225 50008 80001 222// 300// 333 92428=
07207,1999-11-15 22:00:00,7,1022.4,0.1,56,-1.2,,22.224,,,60,,,,,,,,,,,og-post,,,,AAXX 15224 07207 36/// /0612 10070 21012 30171 40224 50001=
07207,1999-11-15 23:00:00,6.3,1022.7,0.1,55,-2.1,,18.52,,,40,,,,,,,,,,,og-post,,,,AAXX 15234 07207 36/// /0410 10063 21021 30174 40227 53001=
07207,1999-11-16 00:00:00,5.3,1022.6,0,64,-0.9,,18.52,,,50,,,,,,,,,,,og-post,,,,AAXX 16004 07207 36/// /0510 10053 21009 30172 40226 50000=
07207,1999-11-16 01:00:00,5,1022.1,-0.4,67,-0.6,,18.52,,,50,,,,,,,,,,,og-post,,,,AAXX 16014 07207 36/// /0510 10050 21006 30167 40221 58004=
07207,1999-11-16 02:00:00,5.5,1022.2,-0.7,69,0.3,,14.816,,,40,,,,,,,,,,,og-post,,,,AAXX 16024 07207 36/// /0408 10055 20003 30168 40222 55007=
07207,1999-11-16 03:00:00,4.7,1022,-0.6,70,-0.3,20000,14.816,,,50,,,,,,,,,,,og-post,,,,AAXX 16034 07207 32970 20508 10047 21003 30166 40220 56006 82031 222// 300// 333 92428=
07207,1999-11-16 04:00:00,4.2,1021.5,-0.6,71,-0.6,,14.816,,,70,,,,,,,,,,,og-post,,,,AAXX 16044 07207 36/// /0708 10042 21006 30161 40215 58006=
07207,1999-11-16 05:00:00,4.5,1021.3,-0.9,71,-0.3,,11.112,,,60,,,,,,,,,,,og-post,,,,AAXX 16054 07207 36/// /0606 10045 21003 30159 40213 56009=
07207,1999-11-16 06:00:00,5.3,1021.1,-0.8,63,-1.2,20000,3.704,,,110,3.4,8,,,,,,,,,og-post,,,,AAXX 16064 07207 32970 51102 10053 21012 30157 40211 56008 85050 222// 300// 333 10080 20034 92428=
07207,1999-11-16 07:00:00,5.8,1021.2,-0.2,60,-1.3,,,,,,,,,,,,,,,,og-post,,,,AAXX 16074 07207 36/// /0000 10058 21013 30159 40212 55002=
07207,1999-11-16 08:00:00,7.1,1021.5,0.2,64,0.8,,,,,,,,,,,,,,,,og-post,,,,AAXX 16084 07207 36/// /0000 10071 20008 30162 40215 53002=
07207,1999-11-16 09:00:00,8.8,1021.6,0.6,63,2.2,25000,7.408,,,270,,,,,,,,,,,og-post,,,,AAXX 16094 07207 32675 62704 10088 20022 30163 40216 52006 86500 222// 329// 333 92428=
07207,1999-11-16 10:00:00,9.7,1021.8,0.6,74,5.3,,14.816,,,320,,,,,,,,,,,og-post,,,,AAXX 16104 07207 36/// /3208 10097 20053 30165 40218 53006=
07207,1999-11-16 11:00:00,10.4,1021.5,0,76,6.4,,22.224,,,330,,,,,,,,,,,og-post,,,,AAXX 16114 07207 36/// /3312 10104 20064 30162 40215 50000=
07207,1999-11-16 12:00:00,11.4,1021,-0.3,70,6.1,30000,29.632,,,340,,,,,,,,,,,og-post,,,,AAXX 16124 07207 32580 43416 10114 20061 30158 40210 58003 84200 222// 300// 333 92428=
07207,1999-11-16 13:00:00,11.6,1020.6,-1.1,56,3.1,,29.632,,,340,,,,,,,,,,,og-post,,,,AAXX 16134 07207 36/// /3416 10116 20031 30154 40206 58011=
07207,1999-11-16 14:00:00,10.4,1020.5,-0.9,71,5.4,,29.632,,,340,,,,,,,,,,,og-post,,,,AAXX 16144 07207 36/// /3416 10104 20054 30153 40205 57009=
07207,1999-11-16 15:00:00,11.1,1020.5,-0.6,63,4.3,30000,25.928,,,340,,,,,,,,,,,og-post,,,,AAXX 16154 07207 32580 53414 10111 20043 30153 40205 56006 85200 222// 300// 333 92438=
07207,1999-11-16 16:00:00,9.9,1020.8,-0,70,4.7,,29.632,57.412,,360,,,,,,,,,,,og-post,,,,AAXX 16164 07207 36/// /3616 10099 20047 30155 40208 55000 333 91131=
07207,1999-11-16 17:00:00,8.7,1021,0.5,73,4.1,,25.928,53.708,,350,,,,,,,,,,,og-post,,,,AAXX 16174 07207 36/// /3514 10087 20041 30157 40210 53005 333 91129=
07207,1999-11-16 18:00:00,9,1021.4,0.8,74,4.6,20000,29.632,57.412,,350,5.2,12.1,,,,,,,,,og-post,,,,AAXX 16184 07207 32570 63516 10090 20046 30161 40214 53008 86200 222// 300// 333 10121 20052 91131 92438=
07207,1999-11-16 19:00:00,9.6,1021.5,0.9,71,4.6,,29.632,,,340,,,,,,,,,,,og-post,,,,AAXX 16194 07207 36/// /3416 10096 20046 30162 40215 51009=
07207,1999-11-16 20:00:00,9.6,1021.2,0.1,71,4.6,,31.484,53.708,,340,,,,,,,,,,,og-post,,,,AAXX 16204 07207 36/// /3417 10096 20046 30159 40212 50001 333 91129=
07207,1999-11-16 21:00:00,9.8,1021.3,-0.1,69,4.4,20000,42.596,64.82,64.82,340,,,,,,,,,,,og-post,,,,AAXX 16214 07207 32570 53423 10098 20044 30160 40213 55001 85200 222// 300// 333 91035 91135 92438=
07207,1999-11-16 22:00:00,8.7,1021.9,0.3,69,3.3,,31.484,57.412,,350,,,,,,,,,,,og-post,,,,AAXX 16224 07207 36/// /3517 10087 20033 30166 40219 53003 333 91131=
07207,1999-11-16 23:00:00,8.5,1021.7,0.4,74,4.1,,25.928,,,350,,,,,,,,,,,og-post,,,,AAXX 16234 07207 36/// /3514 10085 20041 30164 40217 50004=
07207,1999-11-17 00:00:00,8.3,1021.8,0.5,71,3.4,,29.632,64.82,,350,,,,,,,,,,,og-post,,,,AAXX 17004 07207 36/// /3516 10083 20034 30165 40218 51005 333 91135=
07207,1999-11-17 01:00:00,8.5,1021.8,-0,73,3.9,,25.928,,,350,,,,,,,,,,,og-post,,,,AAXX 17014 07207 36/// /3514 10085 20039 30165 40218 55000=
07207,1999-11-17 02:00:00,7.8,1021.8,0.1,76,3.8,,22.224,,,360,,,,,,,,,,,og-post,,,,AAXX 17024 07207 36/// /3612 10078 20038 30165 40218 52001=
07207,1999-11-17 03:00:00,8.5,1022,0.1,73,3.9,,25.928,,,350,,,,,,,,,,,og-post,,,,AAXX 17034 07207 36/// /3514 10085 20039 30167 40220 53001=
07207,1999-11-17 04:00:00,8.8,1021.5,-0.1,74,4.4,,31.484,53.708,,340,,,0.2,,,,,,,,og-post,,,,AAXX 17044 07207 26/// /3417 10088 20044 30162 40215 58001 333 69925 91129=
07207,1999-11-17 05:00:00,8.5,1021.8,0.1,71,3.6,,25.928,53.708,,340,,,,,,,,,,,og-post,,,,AAXX 17054 07207 36/// /3414 10085 20036 30165 40218 53001 333 91129=
07207,1999-11-17 06:00:00,9,1022,0.2,72,4.2,20000,31.484,53.708,53.708,340,7.5,10.2,,0.2,,0.2,,,,,og-post,,,,AAXX 17064 07207 /2570 53417 10090 20042 30167 40220 53002 69922 85230 222// 300// 333 10102 20075 69927 91029 91129 92448=
07207,1999-11-17 07:00:00,9.4,1022.1,0.7,72,4.6,,38.892,,,330,,,,,,,,,,,og-post,,,,AAXX 17074 07207 36/// /3321 10094 20046 30168 40221 51007=
07207,1999-11-17 08:00:00,9.7,1022.5,0.7,73,5.1,,42.596,68.524,68.524,330,,,,,,,,,,,og-post,,,,AAXX 17084 07207 36/// /3323 10097 20051 30172 40225 53007 333 91037 91137=
07207,1999-11-17 09:00:00,9.7,1023,1,73,5.1,25000,42.596,68.524,,340,,,,,,,,,,,og-post,,,,AAXX 17094 07207 32575 63423 10097 20051 30177 40230 53010 84232 222// 300// 333 91137 92448=
07207,1999-11-17 10:00:00,9.8,1023.2,0.9,66,3.8,,38.892,64.82,,340,,,,,,,,,,,og-post,,,,AAXX 17104 07207 36/// /3421 10098 20038 30179 40232 51009 333 91135=
07207,1999-11-17 11:00:00,10.3,1023.5,0.8,67,4.5,,42.596,,,340,,,,,,,,,,,og-post,,,,AAXX 17114 07207 36/// /3423 10103 20045 30182 40235 51008=
07207,1999-11-17 12:00:00,10.5,1023.4,0.4,64,4,25000,38.892,68.524,,330,,,,,,,,,,,og-post,,,,AAXX 17124 07207 32575 63321 10105 20040 30181 40234 52004 84231 222// 300// 333 91137 92448=
07207,1999-11-17 13:00:00,9.8,1023.2,0,71,4.8,,35.188,61.116,53.708,350,,,,,,,,,,,og-post,,,,AAXX 17134 07207 26/// /3519 10098 20048 30179 40232 50000 333 69905 91029 91133=
07207,1999-11-17 14:00:00,10.5,1023,-0.5,60,3.1,,42.596,,64.82,340,,,,,,,,,,,og-post,,,,AAXX 17144 07207 26/// /3423 10105 20031 30177 40230 58005 333 69905 91035=
07207,1999-11-17 15:00:00,10.7,1023.5,0.2,65,4.4,25000,35.188,64.82,,340,,,,,,,,,,25,og-post,,,,AAXX 17154 07207 21575 63419 10107 20044 30182 40235 53002 72582 86801 333 69907 91135 92448=
07207,1999-11-17 16:00:00,8.4,1023.9,0.8,79,5,,18.52,,,10,,,,,,,,,,,og-post,,,,AAXX 17164 07207 36/// /0110 10084 20050 30186 40239 53008=
07207,1999-11-17 17:00:00,8,1024.1,1.3,80,4.8,,18.52,,,10,,,,,,,,,,,og-post,,,,AAXX 17174 07207 36/// /0110 10080 20048 30188 40241 51013=
07207,1999-11-17 18:00:00,8.3,1024.8,1.1,79,4.9,25000,18.52,64.82,,340,7.3,10.9,,,,,,,,2,og-post,,,,AAXX 17184 07207 11575 53410 10083 20049 30195 40248 53011 69902 70282 83230 333 10109 20073 91135 92448=
07207,1999-11-17 19:00:00,9.7,1025,1,66,3.7,,29.632,,,340,,,,,,,,,,,og-post,,,,AAXX 17194 07207 36/// /3416 10097 20037 30197 40250 53010=
07207,1999-11-17 20:00:00,9.6,1024.7,0.6,68,4,,31.484,53.708,,340,,,,,,,,,,,og-post,,,,AAXX 17204 07207 36/// /3417 10096 20040 30194 40247 50006 333 91129=
07207,1999-11-17 21:00:00,9.9,1024.8,0,71,4.9,25000,25.928,53.708,,340,,,,,,,,,,,og-post,,,,AAXX 17214 07207 32575 73414 10099 20049 30195 40248 50000 8223/ 333 91129 92448=
07207,1999-11-17 22:00:00,9.9,1024.6,-0.4,73,5.3,,29.632,50.004,,340,,,,,,,,,,,og-post,,,,AAXX 17224 07207 36/// /3416 10099 20053 30193 40246 57004 333 91127=
07207,1999-11-17 23:00:00,10.2,1024.2,-0.5,76,6.2,,22.224,,,340,,,,,,,,,,,og-post,,,,AAXX 17234 07207 36/// /3412 10102 20062 30189 40242 58005=
07207,1999-11-18 00:00:00,10.2,1023.4,-1.5,81,7.1,,14.816,53.708,,330,,,,,,,,,,,og-post,,,,AAXX 18004 07207 36/// /3308 10102 20071 30181 40234 58015 333 91129=
07207,1999-11-18 01:00:00,10.1,1022.4,-2.3,90,8.5,,14.816,,,290,,,0.6,,,,,,,,og-post,,,,AAXX 18014 07207 26/// /2908 10101 20085 30171 40224 58023 333 69965=
07207,1999-11-18 02:00:00,10.9,1021.2,-2.8,93,9.8,,29.632,,,330,,,2,,,,,,,,og-post,,,,AAXX 18024 07207 26/// /3316 10109 20098 30160 40212 58028 333 60025=
07207,1999-11-18 03:00:00,11.2,1020.2,-3.2,89,9.5,,29.632,,,320,,,,3,,,,,,,og-post,,,,AAXX 18034 07207 26/// /3216 10112 20095 30150 40202 57032 333 60037=
07207,1999-11-18 04:00:00,11.1,1020.1,-3.2,89,9.4,15000,29.632,,,320,,,,3,,,,,,61,og-post,,,,AAXX 18044 07207 21465 83216 10111 20094 30149 40201 57032 76162 887// 333 60037 92447=
07207,1999-11-18 05:00:00,11.7,1018,-3.3,89,9.9,,35.188,68.524,,310,,,2,,,,,,,,og-post,,,,AAXX 18054 07207 26/// /3119 10117 20099 30128 40180 56033 333 60025 91137=
07207,1999-11-18 06:00:00,11.8,1017,-3.2,91,10.4,,31.484,68.524,57.412,310,8.5,11.9,,5,,8,,,,,og-post,,,,AAXX 18064 07207 /6/// /3117 10118 20104 30118 40170 56032 60082 333 10119 20085 60057 91031 91137=
07207,1999-11-18 07:00:00,12.1,1016.4,-2.5,89,10.3,,29.632,57.412,,300,,,,,,,,,,,og-post,,,,AAXX 18074 07207 26/// /3016 10121 20103 30112 40164 56025 333 69905 91131=
07207,1999-11-18 08:00:00,12.1,1015.5,-2.5,89,10.3,,31.484,61.116,,310,,,1,,,,,,,,og-post,,,,AAXX 18084 07207 26/// /3117 10121 20103 30103 40155 56025 333 60015 91133=
07207,1999-11-18 09:00:00,11.9,1014.6,-2.1,90,10.3,,38.892,68.524,68.524,290,,,,1,,,,,,,og-post,,,,AAXX 18094 07207 26/// /2921 10119 20103 30094 40146 57021 333 60017 91037 91137=
07207,1999-11-18 10:00:00,12.8,1013.9,-2.3,86,10.5,,42.596,75.932,72.228,290,,,,,,,,,,,og-post,,,,AAXX 18104 07207 26/// /2923 10128 20105 30087 40139 56023 333 69905 91039 91141=
07207,1999-11-18 11:00:00,12.5,1012.6,-2.8,91,11.1,,50.004,75.932,75.932,290,,,,,,,,,,,og-post,,,,AAXX 18114 07207 36/// /2927 10125 20111 30074 40126 58028 333 91041 91141=
07207,1999-11-18 12:00:00,12.5,1010.1,-4.5,95,11.7,4000,57.412,87.044,87.044,290,,,,0.6,2,,,,,61,og-post,,,,AAXX 18124 07207 /1440 82931 10125 20117 30050 40101 58045 60021 76186 887// 333 69967 91047 91147 92446=
07207,1999-11-18 13:00:00,13.2,1009,-4.6,96,12.6,,42.596,90.748,68.524,290,,,0.2,,,,,,,,og-post,,,,AAXX 18134 07207 26/// /2923 10132 20126 30039 40090 56046 333 69925 91037 91149=
07207,1999-11-18 14:00:00,13.7,1008.7,-3.8,93,12.6,,38.892,61.116,,320,,,0.2,,,,,,,,og-post,,,,AAXX 18144 07207 26/// /3221 10137 20126 30036 40087 56038 333 69925 91133=
07207,1999-11-18 15:00:00,12.8,1009.5,-0.7,89,11,20000,38.892,90.748,61.116,360,,,,1,,,,,,80,og-post,,,,AAXX 18154 07207 21470 63621 10128 20110 30044 40095 55007 78082 86700 222// 329// 333 60017 91033 91149 92448=
07207,1999-11-18 16:00:00,11.5,1010.6,1.6,87,9.4,,35.188,,53.708,10,,,,,,,,,,,og-post,,,,AAXX 18164 07207 26/// /0119 10115 20094 30054 40106 53016 333 69905 91029=
07207,1999-11-18 19:00:00,7.9,1015.1,4.2,72,3.2,,42.596,64.82,64.82,20,,,,,,,,,,,og-post,,,,AAXX 18194 07207 36/// /0223 10079 20032 30098 40151 53042 333 91035 91135=
07207,1999-11-18 20:00:00,6.7,1016.2,4.1,70,1.6,,31.484,64.82,,20,,,,,,,,,,,og-post,,,,AAXX 18204 07207 36/// /0217 10067 20016 30109 40162 51041 333 91135=
07207,1999-11-18 21:00:00,6.6,1017,3.5,67,0.9,25000,29.632,64.82,,20,,,,,,,,,,,og-post,,,,AAXX 18214 07207 32975 30216 10066 20009 30117 40170 51035 83030 222// 329// 333 91135 92438=
07207,1999-11-18 22:00:00,6,1018.1,2.8,68,0.6,,25.928,,,20,,,,,,,,,,,og-post,,,,AAXX 18224 07207 36/// /0214 10060 20006 30128 40181 51028=
07207,1999-11-18 23:00:00,5.2,1018.5,2.3,69,0,,18.52,,,20,,,,,,,,,,,og-post,,,,AAXX 18234 07207 36/// /0210 10052 20000 30132 40185 51023=
07207,1999-11-19 00:00:00,5.1,1019.1,2.1,70,0.1,,22.224,64.82,,20,,,,,,,,,,,og-post,,,,AAXX 19004 07207 36/// /0212 10051 20001 30138 40191 51021 333 91135=
07207,1999-11-19 01:00:00,6.1,1019.5,1.3,68,0.6,,25.928,,,10,,,,,,,,,,,og-post,,,,AAXX 19014 07207 36/// /0114 10061 20006 30142 40195 51013=
07207,1999-11-19 02:00:00,6.1,1019.6,1.2,71,1.2,,29.632,,,10,,,,,,,,,,,og-post,,,,AAXX 19024 07207 36/// /0116 10061 20012 30143 40196 51012=
07207,1999-11-19 03:00:00,6.3,1019.9,0.9,72,1.6,25000,29.632,,,10,,,,,,,,,,,og-post,,,,AAXX 19034 07207 32975 20116 10063 20016 30146 40199 51009 82030 222// 329// 333 92438=
07207,1999-11-19 04:00:00,6.2,1020.1,0.6,74,1.9,,29.632,,,10,,,,,,,,,,,og-post,,,,AAXX 19044 07207 36/// /0116 10062 20019 30148 40201 51006=
07207,1999-11-19 06:00:00,6.3,1019.9,0,74,2,20000,29.632,53.708,,10,5,9.1,,,,,,,,,og-post,,,,AAXX 19064 07207 32570 20116 10063 20020 30146 40199 50000 82200 222// 329// 333 10091 20050 91129 92438=
07207,1999-11-19 07:00:00,6.5,1020,-0.2,73,2,,29.632,,,10,,,,,,,,,,,og-post,,,,AAXX 19074 07207 36/// /0116 10065 20020 30147 40200 55002=
07207,1999-11-19 08:00:00,6.7,1020.3,0.4,72,2,,25.928,,,10,,,,,,,,,,,og-post,,,,AAXX 19084 07207 36/// /0114 10067 20020 30150 40203 53004=
07207,1999-11-19 09:00:00,7.9,1020,0.1,64,1.5,25000,29.632,,,360,,,,,,,,,,,og-post,,,,AAXX 19094 07207 32575 23616 10079 20015 30147 40200 50001 82200 222// 329// 333 92438=
07207,1999-11-19 10:00:00,8.6,1020,0.1,65,2.4,,35.188,,,350,,,,,,,,,,,og-post,,,,AAXX 19104 07207 36/// /3519 10086 20024 30147 40200 51001=
07207,1999-11-19 11:00:00,9,1019.7,-0.7,62,2.1,,38.892,,,350,,,,,,,,,,,og-post,,,,AAXX 19114 07207 36/// /3521 10090 20021 30144 40197 58007=
07207,1999-11-19 12:00:00,9.4,1019.1,-1.1,61,2.3,25000,38.892,61.116,,360,,,,,,,,,,,og-post,,,,AAXX 19124 07207 32575 33621 10094 20023 30138 40191 58011 83200 222// 329// 333 91133 92438=
07207,1999-11-19 13:00:00,9.3,1018.6,-1.4,65,3.1,,46.3,72.228,,350,,,,,,,,,,,og-post,,,,AAXX 19134 07207 36/// /3525 10093 20031 30133 40186 57014 333 91139=
07207,1999-11-19 14:00:00,9.2,1018.3,-1.4,64,2.8,,35.188,64.82,64.82,10,,,,,,,,,,,og-post,,,,AAXX 19144 07207 36/// /0119 10092 20028 30130 40183 56014 333 91035 91135=
07207,1999-11-19 15:00:00,8.8,1018.1,-0.7,66,2.8,30000,31.484,72.228,53.708,10,,,,,,,,,,15,og-post,,,,AAXX 19154 07207 31580 40117 10088 20028 30128 40181 56007 71511 84900 222// 300// 333 91029 91139 92448=
07207,1999-11-19 16:00:00,7.5,1018.4,-0.2,72,2.8,,42.596,68.524,68.524,20,,,,,,,,,,,og-post,,,,AAXX 19164 07207 36/// /0223 10075 20028 30131 40184 55002 333 91037 91137=
07207,1999-11-19 17:00:00,7,1018.7,0.3,74,2.7,,38.892,64.82,61.116,20,,,,,,,,,,,og-post,,,,AAXX 19174 07207 36/// /0221 10070 20027 30134 40187 53003 333 91033 91135=
07207,1999-11-19 18:00:00,7,1019.2,1.1,75,2.9,20000,31.484,72.228,,20,6.3,9.9,,,,,,,,,og-post,,,,AAXX 19184 07207 32570 30217 10070 20029 30139 40192 53011 83200 222// 300// 333 10099 20063 91139 92448=
07207,1999-11-19 19:00:00,7.2,1019.5,1,71,2.3,,35.188,,,20,,,,,,,,,,,og-post,,,,AAXX 19194 07207 36/// /0219 10072 20023 30142 40195 52010=
07207,1999-11-19 20:00:00,5.5,1020,1.3,86,3.3,,29.632,68.524,,30,,,,,,,,,,,og-post,,,,AAXX 19204 07207 36/// /0316 10055 20033 30147 40200 51013 333 91137=
07207,1999-11-19 21:00:00,5.7,1020.1,1,84,3.2,20000,29.632,68.524,,30,,,,,,,,,,,og-post,,,,AAXX 19214 07207 32570 40316 10057 20032 30148 40201 52010 84200 222// 300// 333 91137 92448=
07207,1999-11-19 22:00:00,5.6,1020.2,0.9,83,2.9,,29.632,,,30,,,,,,,,,,,og-post,,,,AAXX 19224 07207 36/// /0316 10056 20029 30149 40202 51009=
07207,1999-11-19 23:00:00,5.9,1020.5,0.4,82,3.1,,25.928,,,30,,,,,,,,,,,og-post,,,,AAXX 19234 07207 36/// /0314 10059 20031 30152 40205 52004=
07207,1999-11-20 00:00:00,5.9,1020.9,0.8,83,3.2,,25.928,68.524,,40,,,,,,,,,,,og-post,,,,AAXX 20004 07207 36/// /0414 10059 20032 30156 40209 53008 333 91137=
07207,1999-11-20 01:00:00,5.5,1021.2,0.9,78,2,,22.224,,,40,,,,,,,,,,,og-post,,,,AAXX 20014 07207 36/// /0412 10055 20020 30159 40212 53009=
07207,1999-11-20 02:00:00,4.8,1021.3,0.8,83,2.2,,22.224,,,40,,,,,,,,,,,og-post,,,,AAXX 20024 07207 36/// /0412 10048 20022 30159 40213 51008=
07207,1999-11-20 03:00:00,4.6,1021.2,0.2,84,2.1,20000,22.224,,,30,,,,,,,,,,,og-post,,,,AAXX 20034 07207 32570 40312 10046 20021 30158 40212 50002 84200 222// 300// 333 92438=
07207,1999-11-20 04:00:00,3.8,1021.1,-0.2,89,2.2,,18.52,,,20,,,,,,,,,,,og-post,,,,AAXX 20044 07207 36/// /0210 10038 20022 30157 40211 58002=
07207,1999-11-20 05:00:00,4.7,1020.9,-0.5,89,3,,22.224,,,20,,,,,,,,,,,og-post,,,,AAXX 20054 07207 36/// /0212 10047 20030 30155 40209 58005=
07207,1999-11-20 06:00:00,4.6,1020.7,-0.5,88,2.8,20000,22.224,,,20,3.7,7.4,,,,,,,,,og-post,,,,AAXX 20064 07207 32570 30212 10046 20028 30153 40207 58005 83200 222// 300// 333 10074 20037 92438=
07207,1999-11-20 07:00:00,5.2,1020.7,-0.4,88,3.4,,29.632,,,30,,,,,,,,,,,og-post,,,,AAXX 20074 07207 36/// /0316 10052 20034 30153 40207 55004=
07207,1999-11-20 08:00:00,4.7,1021.1,0.2,86,2.6,,22.224,,,30,,,,,,,,,,,og-post,,,,AAXX 20084 07207 36/// /0312 10047 20026 30157 40211 53002=
07207,1999-11-20 09:00:00,5.4,1021,0.5,86,3.3,25000,22.224,,,20,,,,,,,,,,,og-post,,,,AAXX 20094 07207 32575 50212 10054 20033 30157 40210 53005 84230 222// 300// 333 92438=
07207,1999-11-20 10:00:00,7.4,1020.6,0,78,3.8,,31.484,,,20,,,,,,,,,,,og-post,,,,AAXX 20104 07207 36/// /0217 10074 20038 30153 40206 50000=
07207,1999-11-20 11:00:00,7.9,1020.4,-0.7,76,3.9,,31.484,,,20,,,,,,,,,,,og-post,,,,AAXX 20114 07207 36/// /0217 10079 20039 30151 40204 58007=
07207,1999-11-20 12:00:00,8.5,1019.6,-1.5,75,4.3,25000,29.632,57.412,50.004,10,,,,,,,,,,,og-post,,,,AAXX 20124 07207 32575 60116 10085 20043 30143 40196 58015 86200 222// 300// 333 91027 91131 92438=
07207,1999-11-20 13:00:00,8.5,1018.6,-2.1,63,1.9,,38.892,,,20,,,,,,,,,,,og-post,,,,AAXX 20134 07207 36/// /0221 10085 20019 30133 40186 58021=
07207,1999-11-20 14:00:00,8.2,1017.8,-2.4,67,2.4,,35.188,68.524,,20,,,,,,,,,,,og-post,,,,AAXX 20144 07207 36/// /0219 10082 20024 30125 40178 58024 333 91137=
07207,1999-11-20 15:00:00,7.7,1017.6,-1.8,73,3.2,25000,35.188,68.524,,20,,,,,,,,,,,og-post,,,,AAXX 20154 07207 32575 60219 10077 20032 30123 40176 56018 84270 222// 300// 333 91137 92438=
07207,1999-11-20 16:00:00,5.4,1017.9,-0.7,91,4.1,,18.52,,,40,,,1,,,,,,,,og-post,,,,AAXX 20164 07207 26/// /0410 10054 20041 30126 40179 55007 333 60015=
07207,1999-11-20 17:00:00,4.8,1017.9,0.2,93,3.8,,22.224,,,20,,,0.6,,,,,,,,og-post,,,,AAXX 20174 07207 26/// /0212 10048 20038 30126 40179 53002 333 69965=
07207,1999-11-20 18:00:00,4.9,1018.1,0.3,91,3.6,8000,25.928,68.524,,20,4.5,9.2,,2,,2,,,,61,og-post,,,,AAXX 20184 07207 /1458 80214 10049 20036 30128 40181 51003 60022 76186 888// 222// 300// 333 10092 20045 60027 91137 92436=
07207,1999-11-21 08:00:00,1.7,1018.8,0.6,80,-1.4,,14.816,,,40,,,,,,,,,,,og-post,,,,AAXX 21084 07207 36/// /0408 10017 21014 30134 40188 52006=
07207,1999-11-21 09:00:00,2.2,1018.9,0.3,79,-1.1,25000,22.224,,,30,,,,,,,,,,,og-post,,,,AAXX 21094 07207 32475 40312 10022 21011 30135 40189 53003 81130 222// 300// 333 92428=
07207,1999-11-21 10:00:00,4.4,1018.9,0.5,67,-1.2,,29.632,,,40,,,,,,,,,,,og-post,,,,AAXX 21104 07207 36/// /0416 10044 21012 30135 40189 51005=
07207,1999-11-21 11:00:00,4.8,1019,-0.1,61,-2.1,,31.484,57.412,,50,,,,,,,,,,,og-post,,,,AAXX 21114 07207 36/// /0517 10048 21021 30136 40190 58001 333 91131=
07207,1999-11-21 12:00:00,4.7,1018.7,-0.2,66,-1.1,30000,25.928,57.412,,40,,,,,,,,,,,og-post,,,,AAXX 21124 07207 32980 60414 10047 21011 30133 40187 58002 86070 222// 300// 333 91131 92428=
07207,1999-11-21 13:00:00,4.7,1018.6,-0.4,67,-0.9,,22.224,,,30,,,,,,,,,,,og-post,,,,AAXX 21134 07207 36/// /0312 10047 21009 30132 40186 57004=
07207,1999-11-21 14:00:00,5.3,1018,-0.8,71,0.5,,14.816,,,20,,,,,,,,,,,og-post,,,,AAXX 21144 07207 36/// /0208 10053 20005 30127 40180 58008=
07207,1999-11-21 15:00:00,5.4,1018,-0.6,74,1.1,25000,25.928,,,30,,,,,,,,,,,og-post,,,,AAXX 21154 07207 32675 80314 10054 20011 30127 40180 56006 885// 222// 300// 333 92428=
07207,1999-11-21 16:00:00,5,1018,-0.6,70,0,,29.632,,,20,,,,,,,,,,,og-post,,,,AAXX 21164 07207 36/// /0216 10050 20000 30127 40180 56006=
07207,1999-11-21 17:00:00,4.3,1018.3,0.2,76,0.5,,22.224,,,30,,,,,,,,,,,og-post,,,,AAXX 21174 07207 36/// /0312 10043 20005 30129 40183 53002=
07207,1999-11-21 18:00:00,4.2,1018.4,0.3,61,-2.6,25000,22.224,,,40,0.7,5.5,,,,,,,,,og-post,,,,AAXX 21184 07207 32675 50412 10042 21026 30130 40184 53003 85500 222// 300// 333 10055 20007 92428=
07207,1999-11-21 19:00:00,4,1018.9,0.9,57,-3.7,,25.928,,,50,,,,,,,,,,,og-post,,,,AAXX 21194 07207 36/// /0514 10040 21037 30135 40189 53009=
07207,1999-11-21 20:00:00,3.8,1019.7,1.4,58,-3.7,,22.224,,,50,,,,,,,,,,,og-post,,,,AAXX 21204 07207 36/// /0512 10038 21037 30143 40197 53014=
07207,1999-11-21 21:00:00,3.6,1019.9,1.5,63,-2.8,25000,14.816,,,70,,,,,,,,,,,og-post,,,,AAXX 21214 07207 32675 60708 10036 21028 30145 40199 51015 86500 222// 300// 333 92428=
07207,1999-11-21 22:00:00,3.6,1019.9,1,62,-3,,11.112,,,90,,,,,,,,,,,og-post,,,,AAXX 21224 07207 36/// /0906 10036 21030 30145 40199 51010=
07207,1999-11-21 23:00:00,3.1,1020.2,0.5,66,-2.6,,11.112,,,50,,,,,,,,,,,og-post,,,,AAXX 21234 07207 36/// /0506 10031 21026 30148 40202 53005=
07207,1999-11-22 00:00:00,3.3,1020,0.1,66,-2.4,,11.112,,,80,,,,,,,,,,,og-post,,,,AAXX 22004 07207 36/// /0806 10033 21024 30146 40200 50001=
07207,1999-11-22 01:00:00,3.4,1020.2,0.3,64,-2.7,,7.408,,,40,,,,,,,,,,,og-post,,,,AAXX 22014 07207 36/// /0404 10034 21027 30148 40202 51003=
07207,1999-11-22 02:00:00,3.9,1020.3,0.1,56,-4.1,,,,,,,,,,,,,,,,og-post,,,,AAXX 22024 07207 36/// /0000 10039 21041 30149 40203 53001=
07207,1999-11-22 03:00:00,4.2,1020.2,0.3,59,-3.1,25000,7.408,,,340,,,,,,,,,,,og-post,,,,AAXX 22034 07207 32675 83404 10042 21031 30148 40202 51003 885// 222// 300// 333 92428=
07207,1999-11-22 04:00:00,4,1020.1,-0.1,65,-2,,7.408,,,350,,,,,,,,,,,og-post,,,,AAXX 22044 07207 36/// /3504 10040 21020 30147 40201 58001=
07207,1999-11-22 05:00:00,6.3,1020.2,-0,64,0,,14.816,,,310,,,,,,,,,,,og-post,,,,AAXX 22054 07207 36/// /3108 10063 20000 30149 40202 55000=
07207,1999-11-22 06:00:00,6.7,1020.4,0.3,75,2.6,20000,14.816,,,300,3,6.8,,,,,,,,,og-post,,,,AAXX 22064 07207 32670 83008 10067 20026 30151 40204 53003 885// 222// 300// 333 10068 20030 92428=
07207,1999-11-22 07:00:00,6.3,1020.4,0.2,83,3.6,,14.816,,,330,,,,,,,,,,,og-post,,,,AAXX 22074 07207 36/// /3308 10063 20036 30151 40204 50002=
07207,1999-11-22 08:00:00,7.1,1021,0.7,83,4.4,,11.112,,,270,,,,,,,,,,,og-post,,,,AAXX 22084 07207 36/// /2706 10071 20044 30157 40210 53007=
07207,1999-11-22 09:00:00,8.3,1021.2,0.7,77,4.5,20000,18.52,,,290,,,,,,,,,,,og-post,,,,AAXX 22094 07207 32570 82910 10083 20045 30159 40212 53007 8627/ 222// 300// 333 92428=
07207,1999-11-22 10:00:00,8.3,1021.6,1.2,82,5.4,,11.112,,,270,,,,,,,,,,,og-post,,,,AAXX 22104 07207 36/// /2706 10083 20054 30163 40216 51012=
07207,1999-11-22 11:00:00,9.2,1021.6,0.8,75,5,,7.408,,,330,,,,,,,,,,,og-post,,,,AAXX 22114 07207 36/// /3304 10092 20050 30163 40216 51008=
07207,1999-11-22 12:00:00,9,1021.6,0.4,63,2.3,,22.224,,,330,,,,,,,,,,,og-post,,,,AAXX 22124 07207 36/// /3312 10090 20023 30163 40216 50004=
07207,1999-11-22 13:00:00,9.1,1021.5,0.3,64,2.7,25000,22.224,,,330,,,,,,,,,,,og-post,,,,AAXX 22134 07207 32575 83312 10091 20027 30162 40215 50003 8527/ 222// 300// 333 92428=
07207,1999-11-22 14:00:00,9.4,1021.3,-0.4,73,4.8,,18.52,,,280,,,,,,,,,,,og-post,,,,AAXX 22144 07207 36/// /2810 10094 20048 30160 40213 57004=
07207,1999-11-22 15:00:00,9.9,1021.1,-0.4,78,6.2,25000,25.928,,,280,,,,,,,,,,,og-post,,,,AAXX 22154 07207 32675 82814 10099 20062 30158 40211 58004 885// 222// 300// 333 92428=
07207,1999-11-22 16:00:00,10.3,1020.9,-0.4,86,8.1,,25.928,,,280,,,,,,,,,,,og-post,,,,AAXX 22164 07207 36/// /2814 10103 20081 30157 40209 56004=
07207,1999-11-22 17:00:00,11,1021,-0.2,85,8.6,,29.632,,,280,,,,,,,,,,,og-post,,,,AAXX 22174 07207 36/// /2816 10110 20086 30158 40210 55002=
07207,1999-11-22 18:00:00,11.8,1021.2,0.2,86,9.5,20000,29.632,,,290,6.1,11.8,,,,,,,,,og-post,,,,AAXX 22184 07207 32570 72916 10118 20095 30160 40212 53002 878// 222// 300// 333 10118 20061 92438=
07207,1999-11-22 19:00:00,10.2,1022.3,1.3,91,8.8,,31.484,,,350,,,,,,,,,,,og-post,,,,AAXX 22194 07207 36/// /3517 10102 20088 30170 40223 53013=
07207,1999-11-22 20:00:00,8.7,1022.8,1.8,90,7.2,,18.52,,,10,,,,,,,,,,,og-post,,,,AAXX 22204 07207 36/// /0110 10087 20072 30175 40228 53018=
07207,1999-11-22 21:00:00,8.2,1023.4,2.1,89,6.5,25000,18.52,,,350,,,,,,,,,,,og-post,,,,AAXX 22214 07207 32975 23510 10082 20065 30181 40234 51021 82030 222// 300// 333 92428=
07207,1999-11-22 22:00:00,8.1,1023.8,1.6,86,5.9,,14.816,,,10,,,,,,,,,,,og-post,,,,AAXX 22224 07207 36/// /0108 10081 20059 30185 40238 52016=
07207,1999-11-22 23:00:00,8.2,1024.3,1.5,84,5.7,,14.816,,,350,,,,,,,,,,,og-post,,,,AAXX 22234 07207 36/// /3508 10082 20057 30190 40243 51015=
07207,1999-11-23 00:00:00,8,1024.7,1.3,83,5.3,,14.816,,,350,,,,,,,,,,,og-post,,,,AAXX 23004 07207 36/// /3508 10080 20053 30194 40247 51013=
07207,1999-11-23 01:00:00,8.2,1024.8,0.9,81,5.1,,11.112,,,350,,,,,,,,,,,og-post,,,,AAXX 23014 07207 36/// /3506 10082 20051 30195 40248 51009=
07207,1999-11-23 02:00:00,8.9,1025.1,0.8,83,6.2,,14.816,,,350,,,,,,,,,,,og-post,,,,AAXX 23024 07207 36/// /3508 10089 20062 30198 40251 51008=
07207,1999-11-23 03:00:00,10,1025,0.4,82,7.1,25000,11.112,,,320,,,,,,,,,,,og-post,,,,AAXX 23034 07207 32975 53206 10100 20071 30197 40250 51004 85030 222// 300// 333 92428=
07207,1999-11-23 04:00:00,8.4,1025.1,0.3,84,5.9,,14.816,,,10,,,,,,,,,,,og-post,,,,AAXX 23044 07207 36/// /0108 10084 20059 30198 40251 51003=
07207,1999-11-23 05:00:00,8,1025.5,0.4,86,5.8,,14.816,,,10,,,,,,,,,,,og-post,,,,AAXX 23054 07207 36/// /0108 10080 20058 30202 40255 53004=
07207,1999-11-23 06:00:00,8.2,1025.7,0.5,83,5.5,25000,14.816,,,360,7.7,11.9,,,,,,,,,og-post,,,,AAXX 23064 07207 32575 53608 10082 20055 30204 40257 53005 81230 333 10119 20077 92428=
07207,1999-11-23 07:00:00,9.5,1026,0.8,82,6.6,,7.408,,,340,,,,,,,,,,,og-post,,,,AAXX 23074 07207 36/// /3404 10095 20066 30207 40260 53008=
07207,1999-11-23 08:00:00,9.6,1026.3,1,83,6.9,,7.408,,,340,,,,,,,,,,,og-post,,,,AAXX 23084 07207 36/// /3404 10096 20069 30210 40263 53010=
07207,1999-11-23 09:00:00,11.6,1026.7,1,79,8.1,,7.408,,,300,,,,,,,,,,,og-post,,,,AAXX 23094 07207 36/// /3004 10116 20081 30214 40267 53010=
07207,1999-11-23 10:00:00,11.9,1027.2,1.3,82,8.9,,14.816,,,290,,,,,,,,,,,og-post,,,,AAXX 23104 07207 36/// /2908 10119 20089 30219 40272 52013=
07207,1999-11-23 11:00:00,11.8,1027.4,0.8,77,7.9,,14.816,,,290,,,,,,,,,,,og-post,,,,AAXX 23114 07207 36/// /2908 10118 20079 30221 40274 51008=
07207,1999-11-23 12:00:00,11.5,1027,0.3,82,8.5,25000,18.52,,,280,,,,,,,,,,16,og-post,,,,AAXX 23124 07207 31575 72810 10115 20085 30217 40270 50003 71622 86830 333 92428=
07207,1999-11-23 13:00:00,12,1026.7,-0.4,84,9.4,,14.816,,,270,,,,,,,,,,,og-post,,,,AAXX 23134 07207 36/// /2708 10120 20094 30215 40267 58004=
07207,1999-11-23 14:00:00,12.1,1026.5,-0.8,83,9.3,,14.816,,,280,,,,,,,,,,,og-post,,,,AAXX 23144 07207 36/// /2808 10121 20093 30213 40265 56008=
07207,1999-11-23 15:00:00,12.6,1026.3,-0.5,82,9.6,25000,14.816,,,280,,,,,,,,,,,og-post,,,,AAXX 23154 07207 32575 52808 10126 20096 30211 40263 56005 82231 333 92428=
07207,1999-11-23 16:00:00,11.7,1026.7,-0.1,80,8.4,,7.408,,,300,,,,,,,,,,,og-post,,,,AAXX 23164 07207 36/// /3004 10117 20084 30214 40267 55001=
07207,1999-11-23 17:00:00,11.7,1026.9,0.3,84,9.1,,7.408,,,320,,,,,,,,,,,og-post,,,,AAXX 23174 07207 36/// /3204 10117 20091 30216 40269 53003=
07207,1999-11-23 18:00:00,11.4,1027.3,0.8,85,9,,7.408,,,320,8.2,12.7,,,,,,,,,og-post,,,,AAXX 23184 07207 36/// /3204 10114 20090 30220 40273 53008 333 10127 20082=
07207,1999-11-23 19:00:00,11.5,1027.4,0.7,85,9.1,,3.704,,,300,,,,,,,,,,,og-post,,,,AAXX 23194 07207 36/// /3002 10115 20091 30221 40274 52007=
07207,1999-11-23 20:00:00,10.9,1027.7,0.8,85,8.5,,7.408,,,320,,,,,,,,,,,og-post,,,,AAXX 23204 07207 36/// /3204 10109 20085 30224 40277 51008=
07207,1999-11-23 21:00:00,11.5,1027.7,0.5,88,9.6,25000,11.112,,,230,,,,,,,,,,,og-post,,,,AAXX 23214 07207 32575 42306 10115 20096 30224 40277 51005 81232 333 92428=
07207,1999-11-23 22:00:00,11.3,1027.8,0.3,86,9,,14.816,,,280,,,,,,,,,,,og-post,,,,AAXX 23224 07207 36/// /2808 10113 20090 30225 40278 51003=
07207,1999-11-23 23:00:00,11.5,1027.7,0,88,9.6,,7.408,,,270,,,,,,,,,,,og-post,,,,AAXX 23234 07207 36/// /2704 10115 20096 30224 40277 50000=
07207,1999-11-24 00:00:00,11.5,1027.9,0.1,84,8.9,,11.112,,,270,,,,,,,,,,,og-post,,,,AAXX 24004 07207 36/// /2706 10115 20089 30226 40279 52001=
07207,1999-11-24 01:00:00,11.5,1027.6,-0.2,88,9.6,,11.112,,,270,,,,,,,,,,,og-post,,,,AAXX 24014 07207 36/// /2706 10115 20096 30223 40276 58002=
07207,1999-11-24 02:00:00,11.7,1027.7,-0,84,9.1,,11.112,,,270,,,,,,,,,,,og-post,,,,AAXX 24024 07207 36/// /2706 10117 20091 30224 40277 54000=
07207,1999-11-24 03:00:00,11.6,1027.7,-0.2,86,9.3,25000,11.112,,,250,,,,,,,,,,,og-post,,,,AAXX 24034 07207 32575 22506 10116 20093 30224 40277 56002 82200 333 92428=
07207,1999-11-24 04:00:00,11.7,1027.6,0.1,86,9.4,,11.112,,,250,,,,,,,,,,,og-post,,,,AAXX 24044 07207 36/// /2506 10117 20094 30223 40276 52001=
07207,1999-11-24 05:00:00,11.7,1027.6,-0.1,84,9.1,,11.112,,,240,,,,,,,,,,,og-post,,,,AAXX 24054 07207 36/// /2406 10117 20091 30223 40276 56001=
07207,1999-11-24 06:00:00,11.8,1027.9,0.3,84,9.2,25000,14.816,,,240,10.8,11.8,,,,,,,,,og-post,,,,AAXX 24064 07207 32575 42408 10118 20092 30226 40279 53003 84200 333 10118 20108 92428=
07207,1999-11-24 07:00:00,11.8,1028.1,0.5,83,9,,14.816,,,240,,,,,,,,,,,og-post,,,,AAXX 24074 07207 36/// /2408 10118 20090 30228 40281 53005=
07207,1999-11-24 08:00:00,11.9,1028.7,1,85,9.5,,14.816,,,240,,,,,,,,,,,og-post,,,,AAXX 24084 07207 36/// /2408 10119 20095 30234 40287 53010=
07207,1999-11-24 09:00:00,12.4,1029,1.3,84,9.8,30000,14.816,,,240,,,,,,,,,,,og-post,,,,AAXX 24094 07207 32580 32408 10124 20098 30238 40290 53013 83100 333 92428=
07207,1999-11-24 11:00:00,13.1,1029.4,0.8,82,10.1,,18.52,,,230,,,,,,,,,,,og-post,,,,AAXX 24114 07207 36/// /2310 10131 20101 30242 40294 51008=
07207,1999-11-24 12:00:00,13.3,1029.1,0,81,10.1,30000,18.52,,,230,,,,,,,,,,,og-post,,,,AAXX 24124 07207 32580 32310 10133 20101 30239 40291 50000 83101 333 92428=
07207,1999-11-24 13:00:00,13.4,1028.9,-0.3,81,10.2,,18.52,,,230,,,,,,,,,,,og-post,,,,AAXX 24134 07207 36/// /2310 10134 20102 30237 40289 58003=
07207,1999-11-24 16:00:00,13,1029.1,0.4,84,10.4,,22.224,,,260,,,,,,,,,,,og-post,,,,AAXX 24164 07207 36/// /2612 10130 20104 30239 40291 53004=
07207,1999-11-24 17:00:00,13,1029.3,0.7,84,10.4,,18.52,,,250,,,,,,,,,,,og-post,,,,AAXX 24174 07207 36/// /2510 10130 20104 30241 40293 52007=
07207,1999-11-24 18:00:00,12.8,1029.4,,85,10.3,25000,18.52,,,230,,,,,,,,,,,og-post,,,,AAXX 24184 07207 32975 72310 10128 20103 30242 40294=
07207,1999-11-24 20:00:00,12.8,1029.8,0.5,87,10.7,,22.224,,,240,,,,,,,,,,,og-post,,,,AAXX 24204 07207 36/// /2412 10128 20107 30246 40298 53005=
07207,1999-11-25 01:00:00,12.8,1030.5,0.2,87,10.7,,22.224,,,240,,,,,,,,,,,og-post,,,,AAXX 25014 07207 36/// /2412 10128 20107 30253 40305 50002=
07207,1999-11-25 02:00:00,12.9,1030.5,0.2,82,9.9,,25.928,,,260,,,,,,,,,,,og-post,,,,AAXX 25024 07207 36/// /2614 10129 20099 30253 40305 51002=
07207,1999-11-25 03:00:00,12.7,1030.7,-0,85,10.2,25000,22.224,,,260,,,,,,,,,,,og-post,,,,AAXX 25034 07207 32575 72612 10127 20102 30254 40307 55000 8123/=
07207,1999-11-25 04:00:00,12.5,1030.6,0.1,86,10.2,,18.52,,,250,,,,,,,,,,,og-post,,,,AAXX 25044 07207 36/// /2510 10125 20102 30253 40306 51001=
07207,1999-11-25 08:00:00,12.4,1031.7,,83,9.6,,18.52,,,210,,,,,,,,,,,og-post,,,,AAXX 25084 07207 36/// /2110 10124 20096 30264 40317=
07207,1999-11-25 09:00:00,12.8,1032.3,1.5,86,10.5,30000,18.52,,,230,,,,,,,,,,,og-post,,,,AAXX 25094 07207 32980 72310 10128 20105 30270 40323 53015 8707/ 333 92428=
07207,1999-11-25 10:00:00,12.8,1032.5,1.6,81,9.6,,18.52,,,240,,,,,,,,,,,og-post,,,,AAXX 25104 07207 36/// /2410 10128 20096 30272 40325 51016=
07207,1999-11-25 11:00:00,13.1,1032.6,0.8,82,10.1,,22.224,,,240,,,,,,,,,,,og-post,,,,AAXX 25114 07207 36/// /2412 10131 20101 30273 40326 51008=
07207,1999-11-25 12:00:00,12.9,1032.7,0.4,85,10.4,30000,18.52,,,230,,,,,,,,,,,og-post,,,,AAXX 25124 07207 32580 72310 10129 20104 30274 40327 51004 81270 333 92428=
07207,1999-11-25 13:00:00,13.1,1032.3,-0.2,85,10.6,,18.52,,,240,,,,,,,,,,,og-post,,,,AAXX 25134 07207 36/// /2410 10131 20106 30270 40323 58002=
07207,1999-11-25 14:00:00,13.3,1031.8,-0.7,86,11,,18.52,,,230,,,,,,,,,,,og-post,,,,AAXX 25144 07207 36/// /2310 10133 20110 30266 40318 58007=
07207,1999-11-25 15:00:00,13.2,1031.7,-0.8,83,10.4,30000,18.52,,,230,,,,,,,,,,,og-post,,,,AAXX 25154 07207 32580 32310 10132 20104 30265 40317 56008 82201 222// 300// 333 92428=
07207,1999-11-25 16:00:00,12.8,1031.9,-0.4,82,9.8,,18.52,,,220,,,,,,,,,,,og-post,,,,AAXX 25164 07207 36/// /2210 10128 20098 30266 40319 55004=
07207,1999-11-25 17:00:00,12.2,1031.9,-0,84,9.6,,18.52,,,220,,,,,,,,,,,og-post,,,,AAXX 25174 07207 36/// /2210 10122 20096 30266 40319 55000=
07207,1999-11-25 18:00:00,12.1,1031.6,-0.2,85,9.7,20000,22.224,,,200,11.7,13.5,,,,,,,,,og-post,,,,AAXX 25184 07207 32970 42012 10121 20097 30263 40316 58002 80001 222// 300// 333 10135 20117 92428=
07207,1999-11-25 19:00:00,12.1,1031.7,-0.2,83,9.3,,22.224,,,210,,,,,,,,,,,og-post,,,,AAXX 25194 07207 36/// /2112 10121 20093 30264 40317 55002=
07207,1999-11-25 20:00:00,12,1031.4,-0.5,82,9,,25.928,,,200,,,,,,,,,,,og-post,,,,AAXX 25204 07207 36/// /2014 10120 20090 30261 40314 56005=
07207,1999-11-25 21:00:00,12,1031,-0.6,81,8.8,20000,25.928,,,190,,,,,,,,,,,og-post,,,,AAXX 25214 07207 32570 31914 10120 20088 30257 40310 58006 83200 222// 300// 333 92428=
07207,1999-11-25 22:00:00,11.9,1030.7,-0.9,80,8.6,,22.224,,,180,,,,,,,,,,,og-post,,,,AAXX 25224 07207 36/// /1812 10119 20086 30254 40307 56009=
07207,1999-11-25 23:00:00,11.6,1030.1,-1.4,87,9.5,,35.188,,,170,,,,,,,,,,,og-post,,,,AAXX 25234 07207 36/// /1719 10116 20095 30248 40301 58014=
07207,1999-11-26 00:00:00,10.4,1029.4,-1.4,91,9,,42.596,,,160,,,,,,,,,,,og-post,,,,AAXX 26004 07207 36/// /1623 10104 20090 30241 40294 58014=
07207,1999-11-26 01:00:00,10,1029.4,-1.2,88,8.1,,29.632,,,160,,,,,,,,,,,og-post,,,,AAXX 26014 07207 36/// /1616 10100 20081 30241 40294 56012=
07207,1999-11-26 02:00:00,9.7,1029.2,-0.9,90,8.1,,29.632,,,150,,,,,,,,,,,og-post,,,,AAXX 26024 07207 36/// /1516 10097 20081 30239 40292 58009=
07207,1999-11-26 03:00:00,9.5,1028,-1.5,88,7.6,20000,31.484,,,150,,,,,,,,,,,og-post,,,,AAXX 26034 07207 32570 71517 10095 20076 30227 40280 58015 87500 222// 300// 333 92428=
07207,1999-11-26 04:00:00,9,1027.4,-2.1,91,7.6,,31.484,,,150,,,,,,,,,,,og-post,,,,AAXX 26044 07207 36/// /1517 10090 20076 30221 40274 58021=
07207,1999-11-26 05:00:00,9.2,1026.4,-2.7,91,7.8,,31.484,57.412,,150,,,,,,,,,,,og-post,,,,AAXX 26054 07207 36/// /1517 10092 20078 30211 40264 56027 333 91131=
07207,1999-11-26 06:00:00,9.4,1026.1,-2,89,7.7,18000,31.484,57.412,,150,8.8,12.1,,,,,,,,,og-post,,,,AAXX 26064 07207 32568 61517 10094 20077 30208 40261 57020 86200 222// 300// 333 10121 20088 91131 92437=
07207,1999-11-26 07:00:00,9.5,1025.7,-1.8,90,7.9,,35.188,,,160,,,,,,,,,,,og-post,,,,AAXX 26074 07207 36/// /1619 10095 20079 30204 40257 56018=
07207,1999-11-26 08:00:00,9.9,1024.7,-1.6,88,8,,42.596,,,160,,,,,,,,,,,og-post,,,,AAXX 26084 07207 36/// /1623 10099 20080 30194 40247 58016=
07207,1999-11-26 09:00:00,10.7,1024.7,-1.3,85,8.3,20000,35.188,,,180,,,,,,,,,,,og-post,,,,AAXX 26094 07207 32570 61819 10107 20083 30194 40247 55013 86200 222// 300// 333 92438=
07207,1999-11-26 10:00:00,11.3,1024.3,-1.3,85,8.9,,35.188,,,180,,,,,,,,,,,og-post,,,,AAXX 26104 07207 36/// /1819 10113 20089 30191 40243 56013=
07207,1999-11-26 11:00:00,11.8,1024.3,-0.3,83,9,,38.892,,,190,,,,,,,,,,,og-post,,,,AAXX 26114 07207 36/// /1921 10118 20090 30191 40243 57003=
07207,1999-11-26 12:00:00,11.8,1023.7,-0.7,83,9,20000,31.484,,,210,,,,,,,,,,,og-post,,,,AAXX 26124 07207 32970 72117 10118 20090 30185 40237 58007 87070 222// 300// 333 92438=
07207,1999-11-26 13:00:00,12.2,1022.6,-1.8,82,9.2,,31.484,,,220,,,,,,,,,,,og-post,,,,AAXX 26134 07207 36/// /2217 10122 20092 30174 40226 58018=
07207,1999-11-26 14:00:00,12.5,1021.9,-2.4,83,9.7,,29.632,,,220,,,,,,,,,,,og-post,,,,AAXX 26144 07207 36/// /2216 10125 20097 30167 40219 58024=
07207,1999-11-26 15:00:00,12.7,1021.6,-2.1,84,10.1,,31.484,,,220,,,,,,,,,,,og-post,,,,AAXX 26154 07207 36/// /2217 10127 20101 30164 40216 56021=
07207,1999-11-26 16:00:00,12.9,1021.8,-0.9,84,10.3,,29.632,,,230,,,,,,,,,,,og-post,,,,AAXX 26164 07207 36/// /2316 10129 20103 30166 40218 55009=
07207,1999-11-26 17:00:00,13.1,1021.9,-0,79,9.5,,29.632,,,240,,,,,,,,,,,og-post,,,,AAXX 26174 07207 36/// /2416 10131 20095 30167 40219 55000=
07207,1999-11-26 18:00:00,13.2,1022,0.2,81,10,15000,29.632,,,230,9.3,13.2,,,,,,,,,og-post,,,,AAXX 26184 07207 32665 82316 10132 20100 30168 40220 51002 885// 222// 300// 333 10132 20093 92437=
07207,1999-11-26 19:00:00,13,1021.9,0.1,85,10.5,,31.484,,,240,,,,,,,,,,,og-post,,,,AAXX 26194 07207 36/// /2417 10130 20105 30167 40219 51001=
07207,1999-11-26 20:00:00,13,1021.7,-0.1,88,11.1,,31.484,,,230,,,,,,,,,,,og-post,,,,AAXX 26204 07207 36/// /2317 10130 20111 30165 40217 58001=
07207,1999-11-26 21:00:00,13.2,1021.7,-0.2,88,11.3,15000,31.484,53.708,,240,,,,,,,,,,,og-post,,,,AAXX 26214 07207 32665 82417 10132 20113 30165 40217 58002 885// 222// 300// 333 91129 92437=
07207,1999-11-26 22:00:00,13,1021.4,-0.5,92,11.7,,35.188,,,240,,,,,,,,,,,og-post,,,,AAXX 26224 07207 36/// /2419 10130 20117 30162 40214 58005=
07207,1999-11-26 23:00:00,13.1,1021.3,-0.5,92,11.8,,38.892,,,240,,,,,,,,,,,og-post,,,,AAXX 26234 07207 36/// /2421 10131 20118 30161 40213 57005=
07207,1999-11-27 00:00:00,12.6,1021.5,-0.1,92,11.3,,31.484,61.116,53.708,270,,,,0.2,0.2,,,,,,og-post,,,,AAXX 27004 07207 /6/// /2717 10126 20113 30163 40215 55001 69921 333 69927 91029 91133=
07207,1999-11-27 01:00:00,12.5,1021.8,0.5,92,11.2,,25.928,,,270,,,0.2,,,,,,,,og-post,,,,AAXX 27014 07207 26/// /2714 10125 20112 30166 40218 53005 333 69925=
07207,1999-11-27 02:00:00,12.3,1022.4,1.2,89,10.5,,25.928,,,280,,,,,,,,,,,og-post,,,,AAXX 27024 07207 36/// /2814 10123 20105 30172 40224 52012=
07207,1999-11-27 03:00:00,12,1022.6,1,89,10.2,15000,22.224,,,280,,,,0.2,,,,,,1,og-post,,,,AAXX 27034 07207 21965 32812 10120 20102 30174 40226 52010 70161 83030 222// 300// 333 69927 92437=
07207,1999-11-27 04:00:00,12.1,1023,1.1,88,10.2,,22.224,,,280,,,,,,,,,,,og-post,,,,AAXX 27044 07207 36/// /2812 10121 20102 30178 40230 51011=
07207,1999-11-27 05:00:00,12.1,1023.3,0.8,87,10,,22.224,,,280,,,,,,,,,,,og-post,,,,AAXX 27054 07207 36/// /2812 10121 20100 30181 40233 53008=
07207,1999-11-27 06:00:00,12.2,1023.8,1,88,10.3,15000,22.224,,,270,11.8,13.2,,,,0.4,,,,2,og-post,,,,AAXX 27064 07207 11965 32712 10122 20103 30186 40238 52010 69942 70261 83030 222// 300// 333 10132 20118 92437=
07207,1999-11-27 07:00:00,12.5,1024.4,1.4,88,10.6,,22.224,,,260,,,,,,,,,,,og-post,,,,AAXX 27074 07207 36/// /2612 10125 20106 30192 40244 53014=
07207,1999-11-27 08:00:00,12.4,1024.8,1.4,87,10.3,,18.52,,,270,,,,,,,,,,,og-post,,,,AAXX 27084 07207 36/// /2710 10124 20103 30196 40248 51014=
07207,1999-11-27 09:00:00,12.6,1025.7,1.8,86,10.3,18000,18.52,,,280,,,,,,,,,,,og-post,,,,AAXX 27094 07207 32568 72810 10126 20103 30205 40257 53018 82237 222// 326// 333 92437=
07207,1999-11-27 10:00:00,13,1026,1.6,84,10.4,,7.408,,,270,,,,,,,,,,,og-post,,,,AAXX 27104 07207 36/// /2704 10130 20104 30208 40260 51016=
07207,1999-11-27 11:00:00,13.2,1026.1,1.2,86,10.9,,11.112,,,240,,,,,,,,,,,og-post,,,,AAXX 27114 07207 36/// /2406 10132 20109 30209 40261 51012=
07207,1999-11-27 12:00:00,13.7,1025.6,0,86,11.4,20000,18.52,,,220,,,,,,,,,,,og-post,,,,AAXX 27124 07207 32570 72210 10137 20114 30204 40256 50000 82237 222// 326// 333 92438=
07207,1999-11-27 13:00:00,13.3,1025.5,-0.6,86,11,,22.224,,,220,,,,,,,,,,,og-post,,,,AAXX 27134 07207 36/// /2212 10133 20110 30203 40255 57006=
07207,1999-11-27 15:00:00,13.4,1025.1,-0.4,86,11.1,20000,25.928,,,200,,,,,,,,,,,og-post,,,,AAXX 27154 07207 32570 62014 10134 20111 30199 40251 58004 83231 222// 326// 333 92438=
07207,1999-11-27 18:00:00,13.1,1024.1,-0.9,93,12,18000,38.892,53.708,,220,12.3,13.9,,,,,,,,,og-post,,,,AAXX 27184 07207 32668 82221 10131 20120 30189 40241 58009 8653/ 222// 326// 333 10139 20123 91129 92437=
07207,1999-11-27 21:00:00,13.3,1024.2,0.2,87,11.2,15000,38.892,,,220,,,,,,,,,,,og-post,,,,AAXX 27214 07207 32665 82221 10133 20112 30190 40242 53002 885// 222// 326// 333 92437=
07207,1999-11-28 00:00:00,13.2,1023.8,-0.6,84,10.6,,31.484,,,200,,,,,,,,,,,og-post,,,,AAXX 28004 07207 36/// /2017 10132 20106 30186 40238 57006=
07207,1999-11-28 06:00:00,12.9,1019.8,-1.5,81,9.7,20000,46.3,,68.524,180,12.7,13.4,,,,,,,,,og-post,,,,AAXX 28064 07207 32970 41825 10129 20097 30146 40198 56015 80002 222// 326// 333 10134 20127 91037 92448=
07207,1999-11-28 09:00:00,13.1,1019.6,-0.3,79,9.5,20000,46.3,68.524,,200,,,,,,,,,,,og-post,,,,AAXX 28094 07207 32970 62025 10131 20095 30144 40196 56003 83032 222// 326// 333 91137 92448=
07207,1999-11-28 12:00:00,13,1018.9,-0.6,85,10.5,18000,38.892,68.524,,190,,,,,,,,,,,og-post,,,,AAXX 28124 07207 32968 81921 10130 20105 30137 40189 58006 84032 222// 326// 333 91137 92447=
07207,1999-11-28 15:00:00,12.9,1017.7,-1.3,88,11,,35.188,,,190,,,,,,,,,,,og-post,,,,AAXX 28154 07207 36/// /1919 10129 20110 30125 40177 56013=
07207,1999-11-28 18:00:00,12.6,1017.7,0.1,86,10.3,12000,31.484,,,190,12.5,13.3,,,,,,,,,og-post,,,,AAXX 28184 07207 32962 81917 10126 20103 30125 40177 53001 8803/ 222// 326// 333 10133 20125 92447=
07207,1999-11-28 21:00:00,12.6,1017.3,-0.5,79,9.1,,29.632,,,190,,,,,,,,,,,og-post,,,,AAXX 28214 07207 36/// /1916 10126 20091 30121 40173 58005=
07207,1999-11-29 00:00:00,12.6,1016.7,-0.6,86,10.3,,29.632,,,180,,,,,,,,,,,og-post,,,,AAXX 29004 07207 36/// /1816 10126 20103 30115 40167 58006=
07207,1999-11-29 03:00:00,12.7,1016.5,-0.2,89,10.9,12000,22.224,,,180,,,,,,,,,,,og-post,,,,AAXX 29034 07207 32962 71812 10127 20109 30113 40165 56002 87070 222// 326// 333 92447=
07207,1999-11-29 06:00:00,13.1,1017.8,1.2,92,11.8,10000,29.632,,,200,12.3,13.1,,,,,,,,,og-post,,,,AAXX 29064 07207 32960 72016 10131 20118 30126 40178 53012 87070 222// 326// 333 10131 20123 92447=
07207,1999-11-29 09:00:00,13.3,1019.9,2.3,88,11.4,10000,22.224,,,210,,,,,,,,,,,og-post,,,,AAXX 29094 07207 32960 82112 10133 20114 30147 40199 53023 84078 222// 326// 333 92437=
07207,1999-11-29 12:00:00,13.8,1021.4,1.3,91,12.4,10000,18.52,,,170,,,,,,,,,,,og-post,,,,AAXX 29124 07207 32960 81710 10138 20124 30162 40214 51013 83078 222// 326// 333 92437=
07207,1999-11-29 14:00:00,13.5,1022,1,91,12.1,,11.112,,,160,,,,,,,,,,,og-post,,,,AAXX 29144 07207 36/// /1606 10135 20121 30168 40220 53010=
07207,1999-11-29 15:00:00,13.3,1022.8,1.5,92,12,10000,11.112,,,120,,,,,,,,,,,og-post,,,,AAXX 29154 07207 32960 61206 10133 20120 30176 40228 53015 80008 222// 326// 333 92437=
07207,1999-11-29 16:00:00,12.8,1023.8,2,93,11.7,,11.112,,,120,,,,,,,,,,,og-post,,,,AAXX 29164 07207 36/// /1206 10128 20117 30186 40238 53020=
07207,1999-11-29 17:00:00,12.4,1024.6,2.6,94,11.5,,11.112,,,120,,,,,,,,,,,og-post,,,,AAXX 29174 07207 36/// /1206 10124 20115 30194 40246 51026=
07207,1999-11-29 18:00:00,12.3,1025.5,2.7,95,11.5,8000,7.408,,,130,12.3,14.2,,,,,,,,,og-post,,,,AAXX 29184 07207 32958 51304 10123 20115 30203 40255 51027 80008 222// 326// 333 10142 20123 92436=
07207,1999-11-29 19:00:00,12.2,1026,2.1,95,11.4,,11.112,,,140,,,,,,,,,,,og-post,,,,AAXX 29194 07207 36/// /1406 10122 20114 30208 40260 51021=
07207,1999-11-29 20:00:00,12.3,1027,2.5,96,11.7,,11.112,,,130,,,,,,,,,,,og-post,,,,AAXX 29204 07207 36/// /1306 10123 20117 30218 40270 51025=
07207,1999-11-29 21:00:00,12.4,1027.6,2.1,96,11.8,8000,14.816,,,150,,,,,,,,,,,og-post,,,,AAXX 29214 07207 32958 21508 10124 20118 30224 40276 52021 82030 222// 326// 333 92436=
07207,1999-11-29 22:00:00,12.3,1028.1,2,96,11.7,,11.112,,,130,,,,,,,,,,,og-post,,,,AAXX 29224 07207 36/// /1306 10123 20117 30229 40281 51020=
07207,1999-11-29 23:00:00,12.2,1028.6,1.7,96,11.6,,11.112,,,150,,,,,,,,,,,og-post,,,,AAXX 29234 07207 36/// /1506 10122 20116 30234 40286 52017=
07207,1999-11-30 00:00:00,12,1029,1.4,96,11.4,,11.112,,,130,,,,,,,,,,,og-post,,,,AAXX 30004 07207 36/// /1306 10120 20114 30237 40290 51014=
07207,1999-11-30 01:00:00,12,1029.1,0.9,97,11.5,,14.816,,,170,,,,,,,,,,,og-post,,,,AAXX 30014 07207 36/// /1708 10120 20115 30238 40291 51009=
07207,1999-11-30 02:00:00,12.1,1029.1,0.3,97,11.6,,14.816,,,170,,,,,,,,,,,og-post,,,,AAXX 30024 07207 36/// /1708 10121 20116 30238 40291 51003=
07207,1999-11-30 03:00:00,12.2,1029.4,0.3,96,11.6,15000,7.408,,,220,,,,,,,,,,,og-post,,,,AAXX 30034 07207 32965 02204 10122 20116 30241 40294 53003 222// 326// 333 92437=
07207,1999-11-30 04:00:00,9.7,1029.6,0.4,97,9.2,,3.704,,,60,,,,,,,,,,,og-post,,,,AAXX 30044 07207 36/// /0602 10097 20092 30243 40296 53004=
07207,1999-11-30 06:00:00,10,1029.8,0.4,98,9.7,100,11.112,,,80,8.9,12.4,,0.2,,0.2,,,,47,og-post,,,,AAXX 30064 07207 /1/01 90806 10100 20097 30245 40298 53004 69922 74700 222// 326// 333 10124 20089 69927 92431=
07207,1999-11-30 07:00:00,10,1030.8,1.3,98,9.7,,14.816,,,70,,,,,,,,,,,og-post,,,,AAXX 30074 07207 36/// /0708 10100 20097 30255 40308 53013=
07207,1999-11-30 08:00:00,10.3,1031.2,1.6,98,10,,11.112,,,100,,,,,,,,,,,og-post,,,,AAXX 30084 07207 36/// /1006 10103 20100 30259 40312 53016=
07207,1999-11-30 09:00:00,10.4,1031.8,2,98,10.1,100,7.408,,,80,,,,,,,,,,45,og-post,,,,AAXX 30094 07207 31/01 90804 10104 20101 30265 40318 51020 7450 222// 326// 333 92421=
07207,1999-11-30 10:00:00,10.6,1032.1,1.3,98,10.3,,11.112,,,100,,,,,,,,,,,og-post,,,,AAXX 30104 07207 36/// /1006 10106 20103 30268 40321 51013=
07207,1999-11-30 11:00:00,10.5,1032,0.9,98,10.2,,11.112,,,100,,,,,,,,,,,og-post,,,,AAXX 30114 07207 36/// /1006 10105 20102 30267 40320 50009=
07207,1999-11-30 12:00:00,10.7,1031.7,-0.1,98,10.4,2000,7.408,,,90,,,,,,,,,,28,og-post,,,,AAXX 30124 07207 31420 80904 10107 20104 30264 40317 58001 72844 886// 222// 326// 333 92425=
07207,1999-11-30 15:00:00,10.8,1030.9,-0.7,97,10.3,12000,3.704,,,30,,,,,,,,,,,og-post,,,,AAXX 30154 07207 32462 80302 10108 20103 30256 40309 56007 886// 222// 326// 333 92427=
07207,1999-11-30 16:00:00,10.3,1031,-0.4,97,9.8,,,,,,,,,,,,,,,,og-post,,,,AAXX 30164 07207 36/// /0000 10103 20098 30257 40310 55004=
07207,1999-11-30 17:00:00,9.5,1031.2,0.1,97,9,,,,,,,,,,,,,,,,og-post,,,,AAXX 30174 07207 36/// /0000 10095 20090 30259 40312 53001=
07207,1999-11-30 18:00:00,9.5,1031.6,0.7,97,9,10000,7.408,,,330,9.2,11.1,,,,,,,,,og-post,,,,AAXX 30184 07207 32560 53304 10095 20090 30263 40316 53007 83230 222// 326// 333 10111 20092 92427=
07207,1999-11-30 20:00:00,8.7,1031.8,0.6,91,7.3,,14.816,,,350,,,,,,,,,,,og-post,,,,AAXX 30204 07207 36/// /3508 10087 20073 30265 40318 51006=
07207,1999-11-30 21:00:00,7.8,1032.1,0.4,90,6.3,10000,14.816,,,350,,,,,,,,,,,og-post,,,,AAXX 30214 07207 32560 43508 10078 20063 30267 40321 53004 84600 222// 326// 333 92427=
07207,1999-11-30 22:00:00,7.4,1032,0.3,89,5.7,,14.816,,,350,,,,,,,,,,,og-post,,,,AAXX 30224 07207 36/// /3508 10074 20057 30266 40320 50003=
07207,1999-11-30 23:00:00,8.8,1031.9,0.1,89,7.1,,11.112,,,340,,,,,,,,,,,og-post,,,,AAXX 30234 07207 36/// /3406 10088 20071 30266 40319 51001=
07207,1999-12-01 00:00:00,10.3,1031.7,-0.3,81,7.2,,14.816,,,330,,,,,,,,,,,og-post,,,,AAXX 01004 07207 36/// /3308 10103 20072 30264 40317 58003=
07207,1999-12-01 01:00:00,10.9,1031.4,-0.5,81,7.8,,14.816,,,310,,,,,,,,,,,og-post,,,,AAXX 01014 07207 36/// /3108 10109 20078 30261 40314 58005=
07207,1999-12-01 02:00:00,11.5,1031.1,-0.8,78,7.8,,18.52,,,290,,,,,,,,,,,og-post,,,,AAXX 01024 07207 36/// /2910 10115 20078 30258 40311 58008=
07207,1999-12-01 03:00:00,11.7,1030.8,-0.9,81,8.6,,14.816,,,280,,,,,,,,,,,og-post,,,,AAXX 01034 07207 36/// /2808 10117 20086 30255 40308 57009=
07207,1999-12-01 04:00:00,12,1030.4,-1,80,8.7,,18.52,,,280,,,,,,,,,,,og-post,,,,AAXX 01044 07207 36/// /2810 10120 20087 30251 40304 58010=
07207,1999-12-01 05:00:00,12.1,1030.2,-0.8,83,9.3,,25.928,,,280,,,,,,,,,,,og-post,,,,AAXX 01054 07207 36/// /2814 10121 20093 30249 40302 56008=
07207,1999-12-01 06:00:00,11.5,1030.4,-0.4,91,10.1,18000,18.52,,,290,7.3,12.2,,,,,,,,,og-post,,,,AAXX 01064 07207 32668 72910 10115 20101 30251 40304 55004 875// 222// 326// 333 10122 20073 92427=
07207,1999-12-01 07:00:00,11.6,1030.4,-0,90,10,,22.224,,,290,,,,,,,,,,,og-post,,,,AAXX 01074 07207 36/// /2912 10116 20100 30251 40304 55000=
07207,1999-12-01 08:00:00,11.9,1030.8,0.5,88,10,,22.224,,,290,,,,,,,,,,,og-post,,,,AAXX 01084 07207 36/// /2912 10119 20100 30255 40308 53005=
07207,1999-12-01 09:00:00,12.2,1031,0.7,85,9.8,20000,25.928,,,290,,,,,,,,,,,og-post,,,,AAXX 01094 07207 32670 82914 10122 20098 30257 40310 53007 885// 222// 326// 333 92438=
07207,1999-12-01 10:00:00,12.5,1031.3,0.9,85,10,,18.52,,,280,,,,,,,,,,,og-post,,,,AAXX 01104 07207 36/// /2810 10125 20100 30260 40313 51009=
07207,1999-12-01 12:00:00,13,1030.6,-0.4,80,9.6,20000,29.632,,,290,,,,,,,,,,,og-post,,,,AAXX 01124 07207 32670 72916 10130 20096 30254 40306 58004 875// 222// 326// 333 92438=
07207,1999-12-01 13:00:00,12.7,1030.2,-1.1,84,10.1,,22.224,,,280,,,,,,,,,,,og-post,,,,AAXX 01134 07207 36/// /2812 10127 20101 30250 40302 58011=
07207,1999-12-01 14:00:00,12.2,1029.8,-1.4,89,10.4,,25.928,,,290,,,,,,,,,,,og-post,,,,AAXX 01144 07207 36/// /2914 10122 20104 30245 40298 56014=
07207,1999-12-01 15:00:00,12.3,1029.5,-1.2,88,10.4,20000,22.224,,,290,,,,,,,,,,,og-post,,,,AAXX 01154 07207 32670 82912 10123 20104 30242 40295 56012 885// 222// 326// 333 92438=
07207,1999-12-01 16:00:00,12.3,1029.7,-0.3,89,10.5,,18.52,,,290,,,,,,,,,,,og-post,,,,AAXX 01164 07207 36/// /2910 10123 20105 30244 40297 55003=
07207,1999-12-01 17:00:00,12.4,1030,0.3,89,10.6,,22.224,,,290,,,,,,,,,,,og-post,,,,AAXX 01174 07207 36/// /2912 10124 20106 30247 40300 53003=
07207,1999-12-01 18:00:00,12.5,1030.3,0.8,89,10.7,20000,22.224,,,290,11.4,13.3,,,,,,,,,og-post,,,,AAXX 01184 07207 32670 82912 10125 20107 30250 40303 52008 885// 222// 326// 333 10133 20114 92438=
07207,1999-12-01 19:00:00,12.4,1030.3,0.6,90,10.8,,18.52,,,310,,,,,,,,,,,og-post,,,,AAXX 01194 07207 36/// /3110 10124 20108 30250 40303 51006=
07207,1999-12-01 20:00:00,12.4,1030.4,0.3,92,11.1,,18.52,,,290,,,,,,,,,,,og-post,,,,AAXX 01204 07207 36/// /2910 10124 20111 30251 40304 51003=
07207,1999-12-01 21:00:00,12.3,1030.4,0.1,93,11.2,15000,22.224,,,280,,,,,,,,,,,og-post,,,,AAXX 01214 07207 32665 82812 10123 20112 30251 40304 51001 885// 222// 326// 333 92437=
07207,1999-12-01 22:00:00,12.4,1030.4,-0,92,11.1,,22.224,,,280,,,,,,,,,,,og-post,,,,AAXX 01224 07207 36/// /2812 10124 20111 30251 40304 54000=
07207,1999-12-01 23:00:00,12.3,1030.2,-0.1,94,11.4,,18.52,,,290,,,,,,,,,,,og-post,,,,AAXX 01234 07207 36/// /2910 10123 20114 30249 40302 58001=
07207,1999-12-02 00:00:00,12.3,1030.3,-0,93,11.2,,22.224,,,290,,,,,,,,,,,og-post,,,,AAXX 02004 07207 36/// /2912 10123 20112 30250 40303 55000=
07207,1999-12-02 01:00:00,12.3,1030.2,-0.2,93,11.2,,22.224,,,290,,,,,,,,,,,og-post,,,,AAXX 02014 07207 36/// /2912 10123 20112 30249 40302 57002=
07207,1999-12-02 02:00:00,12,1029.7,-0.5,94,11.1,,25.928,,,290,,,,,,,,,,,og-post,,,,AAXX 02024 07207 36/// /2914 10120 20111 30244 40297 58005=
07207,1999-12-02 03:00:00,12,1029.8,-0.6,94,11.1,15000,25.928,,,290,,,,,,,,,,,og-post,,,,AAXX 02034 07207 32665 82914 10120 20111 30245 40298 55006 885// 222// 326// 333 92437=
07207,1999-12-02 06:00:00,10.4,1030.4,0.7,96,9.8,18000,3.704,,,350,10.4,12.6,,,,,,,,,og-post,,,,AAXX 02064 07207 32668 33502 10104 20098 30251 40304 53007 83500 222// 326// 333 10126 20104 92437=
07207,1999-12-02 09:00:00,10.4,1032.2,1.8,97,9.9,10000,14.816,,,20,,,,,,,,,,,og-post,,,,AAXX 02094 07207 32660 80208 10104 20099 30269 40322 53018 885// 222// 326// 333 92427=
07207,1999-12-02 12:00:00,11.7,1032.1,-0.1,78,8,20000,7.408,,,330,,,,,,,,,,,og-post,,,,AAXX 02124 07207 32670 73304 10117 20080 30268 40321 58001 875// 222// 326// 333 92428=
07207,1999-12-02 13:00:00,11.6,1031.9,-0.4,75,7.3,,11.112,,,330,,,,,,,,,,,og-post,,,,AAXX 02134 07207 36/// /3306 10116 20073 30266 40319 58004=
07207,1999-12-02 14:00:00,11.3,1031.5,-1.1,73,6.6,,11.112,,,340,,,,,,,,,,,og-post,,,,AAXX 02144 07207 36/// /3406 10113 20066 30262 40315 56011=
07207,1999-12-02 15:00:00,11.3,1031.3,-0.8,71,6.2,20000,11.112,,,330,,,,,,,,,,,og-post,,,,AAXX 02154 07207 32970 33306 10113 20062 30260 40313 56008 83031 222// 326// 333 92428=
07207,1999-12-02 16:00:00,10.5,1031,-0.7,72,5.7,,7.408,,,330,,,,,,,,,,,og-post,,,,AAXX 02164 07207 36/// /3304 10105 20057 30257 40310 56007=
07207,1999-12-02 17:00:00,8.8,1031.2,-0.4,77,5,,7.408,,,340,,,,,,,,,,,og-post,,,,AAXX 02174 07207 36/// /3404 10088 20050 30259 40312 56004=
07207,1999-12-02 18:00:00,8.6,1030.9,-0.4,79,5.2,20000,3.704,,,290,8.4,12,,,,,,,,,og-post,,,,AAXX 02184 07207 32970 42902 10086 20052 30256 40309 57004 83032 222// 326// 333 10120 20084 92428=
07207,1999-12-02 19:00:00,9.1,1030.4,-0.7,78,5.5,,3.704,,,290,,,,,,,,,,,og-post,,,,AAXX 02194 07207 36/// /2902 10091 20055 30251 40304 58007=
07207,1999-12-02 20:00:00,10,1030.1,-1,77,6.2,,7.408,,,240,,,,,,,,,,,og-post,,,,AAXX 02204 07207 36/// /2404 10100 20062 30248 40301 58010=
07207,1999-12-02 21:00:00,10.3,1029.7,-1.2,76,6.3,20000,11.112,,,230,,,,,,,,,,,og-post,,,,AAXX 02214 07207 32970 12306 10103 20063 30244 40297 56012 80001 222// 326// 333 92428=
07207,1999-12-02 22:00:00,10.9,1029.3,-1.2,78,7.2,,11.112,,,230,,,,,,,,,,,og-post,,,,AAXX 02224 07207 36/// /2306 10109 20072 30240 40293 58012=
07207,1999-12-02 23:00:00,11.5,1028.5,-1.6,81,8.4,,14.816,,,240,,,,,,,,,,,og-post,,,,AAXX 02234 07207 36/// /2408 10115 20084 30232 40285 58016=
07207,1999-12-03 00:00:00,12,1028,-1.8,84,9.4,,18.52,,,230,,,,,,,,,,,og-post,,,,AAXX 03004 07207 36/// /2310 10120 20094 30227 40280 56018=
07207,1999-12-03 01:00:00,11.9,1027.3,-1.9,86,9.6,,18.52,,,260,,,,,,,,,,,og-post,,,,AAXX 03014 07207 36/// /2610 10119 20096 30220 40273 56019=
07207,1999-12-03 02:00:00,12,1026.1,-2.2,89,10.2,,18.52,,,240,,,,,,,,,,,og-post,,,,AAXX 03024 07207 36/// /2410 10120 20102 30209 40261 58022=
07207,1999-12-03 03:00:00,12.3,1025.5,-2.4,84,9.7,25000,22.224,,,250,,,,,,,,,,,og-post,,,,AAXX 03034 07207 32675 82512 10123 20097 30203 40255 56024 885// 222// 326// 333 92428=
07207,1999-12-03 04:00:00,12.4,1024.6,-2.6,88,10.5,,18.52,,,250,,,,,,,,,,,og-post,,,,AAXX 03044 07207 36/// /2510 10124 20105 30194 40246 56026=
07207,1999-12-03 05:00:00,12.1,1024.1,-2,87,10,,25.928,,,250,,,,,,,,,,,og-post,,,,AAXX 03054 07207 36/// /2514 10121 20100 30189 40241 56020=
07207,1999-12-03 06:00:00,12,1023.4,-2.1,88,10.1,20000,35.188,57.412,,240,8.9,12.4,,,,,,,,,og-post,,,,AAXX 03064 07207 32670 72419 10120 20101 30182 40234 57021 875// 222// 326// 333 10124 20089 91131 92438=
07207,1999-12-03 07:00:00,12,1023.2,-1.4,87,9.9,,35.188,,,240,,,,,,,,,,,og-post,,,,AAXX 03074 07207 36/// /2419 10120 20099 30180 40232 56014=
07207,1999-12-03 08:00:00,12,1022.8,-1.3,88,10.1,,31.484,,,250,,,,,,,,,,,og-post,,,,AAXX 03084 07207 36/// /2517 10120 20101 30176 40228 56013=
07207,1999-12-03 09:00:00,12.1,1022.6,-0.8,89,10.3,20000,31.484,,,250,,,,,,,,,,,og-post,,,,AAXX 03094 07207 32670 82517 10121 20103 30174 40226 58008 885// 222// 326// 333 92438=
07207,1999-12-03 10:00:00,12,1022.3,-0.7,87,9.9,,42.596,,,260,,,,,,,,,,,og-post,,,,AAXX 03104 07207 36/// /2623 10120 20099 30171 40223 56007=
07207,1999-12-03 11:00:00,12.4,1022,-0.8,86,10.1,,35.188,61.116,,260,,,,,,,,,,,og-post,,,,AAXX 03114 07207 36/// /2619 10124 20101 30168 40220 58008 333 91133=
07207,1999-12-03 12:00:00,12.6,1021.2,-1.4,84,10,25000,38.892,,,260,,,,,,,,,,,og-post,,,,AAXX 03124 07207 32675 82621 10126 20100 30160 40212 58014 885// 222// 326// 333 92438=
07207,1999-12-03 13:00:00,12.8,1020.5,-1.9,81,9.6,,38.892,,,270,,,,,,,,,,,og-post,,,,AAXX 03134 07207 36/// /2721 10128 20096 30153 40205 58019=
07207,1999-12-03 14:00:00,12.7,1019.8,-2.1,81,9.5,,42.596,,,270,,,,,,,,,,,og-post,,,,AAXX 03144 07207 36/// /2723 10127 20095 30146 40198 56021=
07207,1999-12-03 15:00:00,12.7,1019.8,-1.4,85,10.2,20000,42.596,68.524,,270,,,,,,,,,,,og-post,,,,AAXX 03154 07207 32570 82723 10127 20102 30146 40198 56014 888// 222// 326// 333 91137 92448=
07207,1999-12-03 16:00:00,12.5,1019.9,-0.4,89,10.7,,35.188,61.116,,280,,,,,,,,,,,og-post,,,,AAXX 03164 07207 36/// /2819 10125 20107 30147 40199 55004 333 91133=
07207,1999-12-03 17:00:00,12.4,1020,0.1,91,11,,35.188,57.412,57.412,280,,,,,,,,,,,og-post,,,,AAXX 03174 07207 36/// /2819 10124 20110 30148 40200 53001 333 91031 91131=
07207,1999-12-03 18:00:00,12.6,1019.8,0,89,10.8,10000,35.188,68.524,,280,11.4,12.9,,,,,,,,,og-post,,,,AAXX 03184 07207 32560 82819 10126 20108 30146 40198 50000 888// 222// 326// 333 10129 20114 91137 92447=
07207,1999-12-03 20:00:00,11.8,1019.6,-0.5,94,10.9,,31.484,,,280,,,,,,,,,,,og-post,,,,AAXX 03204 07207 36/// /2817 10118 20109 30144 40196 57005=
07207,1999-12-03 21:00:00,12.5,1019.6,-0.2,90,10.9,8000,35.188,57.412,,280,,,,,,,,,,,og-post,,,,AAXX 03214 07207 32558 82819 10125 20109 30144 40196 58002 888// 222// 326// 333 91131 92446=
07207,1999-12-03 22:00:00,12.5,1019.1,-0.7,90,10.9,,31.484,,,270,,,,,,,,,,,og-post,,,,AAXX 03224 07207 36/// /2717 10125 20109 30139 40191 58007=
07207,1999-12-03 23:00:00,12.6,1019,-0.8,90,11,,31.484,,,270,,,,,,,,,,,og-post,,,,AAXX 03234 07207 36/// /2717 10126 20110 30138 40190 58008=
07207,1999-12-04 00:00:00,12.6,1018.8,-0.7,88,10.7,,31.484,57.412,,270,,,,,,,,,,,og-post,,,,AAXX 04004 07207 36/// /2717 10126 20107 30136 40188 56007 333 91131=
07207,1999-12-04 01:00:00,11.5,1018,-1.1,93,10.4,,38.892,61.116,61.116,280,,,,,,,,,,,og-post,,,,AAXX 04014 07207 36/// /2821 10115 20104 30128 40180 58011 333 91033 91133=
07207,1999-12-04 02:00:00,11.2,1017.3,-1.5,95,10.4,,38.892,61.116,,270,,,,,,,,,,,og-post,,,,AAXX 04024 07207 36/// /2721 10112 20104 30121 40173 58015 333 91133=
07207,1999-12-04 03:00:00,11.2,1016.8,-2,92,9.9,,35.188,61.116,,270,,,,,,,,,,,og-post,,,,AAXX 04034 07207 36/// /2719 10112 20099 30116 40168 56020 333 91133=
07207,1999-12-04 04:00:00,11.4,1016.1,-1.8,95,10.6,,31.484,57.412,,270,,,,,,,,,,,og-post,,,,AAXX 04044 07207 36/// /2717 10114 20106 30109 40161 56018 333 91131=
07207,1999-12-04 05:00:00,10,1016,-1.2,95,9.2,,25.928,61.116,,330,,,,,,,,,,,og-post,,,,AAXX 04054 07207 36/// /3314 10100 20092 30108 40160 56012 333 91133=
07207,1999-12-04 06:00:00,8.8,1016.9,-0,95,8,8000,22.224,61.116,,10,8.8,12.8,,,,,,,,60,og-post,,,,AAXX 04064 07207 /1558 80112 10088 20080 30116 40169 55000 69902 76062 887// 222// 326// 333 10128 20088 69907 91133 92436=
07207,1999-12-04 07:00:00,8.4,1017.1,1,95,7.6,,11.112,,,360,,,,,,,,,,,og-post,,,,AAXX 04074 07207 26/// /3606 10084 20076 30118 40171 53010 333 69905=
07207,1999-12-04 08:00:00,8.9,1017.8,1.7,95,8.1,,18.52,,,340,,,,,,,,,,,og-post,,,,AAXX 04084 07207 26/// /3410 10089 20081 30125 40178 51017 333 69905=
07207,1999-12-04 09:00:00,9.8,1018.4,1.6,87,7.7,20000,18.52,,,340,,,,,,,,,,21,og-post,,,,AAXX 04094 07207 21570 73410 10098 20077 30132 40184 53016 72162 878// 222// 326// 333 69907 92438=
07207,1999-12-04 10:00:00,10.2,1019.1,2.1,82,7.3,,25.928,,,330,,,,,,,,,,,og-post,,,,AAXX 04104 07207 36/// /3314 10102 20073 30139 40191 52021=
07207,1999-12-04 11:00:00,10.2,1019.7,2,81,7.1,,25.928,,,340,,,,,,,,,,,og-post,,,,AAXX 04114 07207 36/// /3414 10102 20071 30145 40197 51020=
07207,1999-12-04 13:00:00,10.2,1019.5,0.2,74,5.8,,29.632,,,330,,,,,,,,,,,og-post,,,,AAXX 04134 07207 36/// /3316 10102 20058 30143 40195 50002=
07207,1999-12-04 14:00:00,10.7,1019.5,-0.2,74,6.3,,29.632,,53.708,320,,,4,,,,,,,,og-post,,,,AAXX 04144 07207 26/// /3216 10107 20063 30143 40195 56002 333 60045 91029=
07207,1999-12-04 15:00:00,10.2,1019.7,0.1,72,5.4,25000,29.632,53.708,,320,,,,,,,,,,25,og-post,,,,AAXX 04154 07207 31575 43216 10102 20054 30145 40197 53001 72581 83801 222// 326// 333 91129 92438=
07207,1999-12-04 16:00:00,9.8,1020.2,0.7,74,5.4,,35.188,,,330,,,,,,,,,,,og-post,,,,AAXX 04164 07207 36/// /3319 10098 20054 30149 40202 53007=
07207,1999-12-04 17:00:00,9.3,1020.9,1.4,72,4.5,,35.188,53.708,,340,,,,,,,,,,,og-post,,,,AAXX 04174 07207 36/// /3419 10093 20045 30156 40209 53014 333 91129=
07207,1999-12-04 18:00:00,9,1021.6,1.9,70,3.8,25000,31.484,53.708,,340,8.3,10.9,,,,,,,,2,og-post,,,,AAXX 04184 07207 11575 33417 10090 20038 30163 40216 53019 69902 70281 83800 222// 326// 333 10109 20083 91129 92438=
07207,1999-12-04 19:00:00,9.2,1022.3,1.9,69,3.8,,29.632,,,340,,,,,,,,,,,og-post,,,,AAXX 04194 07207 36/// /3416 10092 20038 30170 40223 52019=
07207,1999-12-04 20:00:00,8.9,1023.1,2.2,73,4.3,,38.892,,,340,,,,,,,,,,,og-post,,,,AAXX 04204 07207 36/// /3421 10089 20043 30178 40231 53022=
07207,1999-12-04 21:00:00,8.7,1023.9,2.2,70,3.5,,31.484,,,340,,,,,,,,,,,og-post,,,,AAXX 04214 07207 36/// /3417 10087 20035 30186 40239 53022=
07207,1999-12-04 22:00:00,8.1,1024.4,2.2,68,2.6,,29.632,,,350,,,,,,,,,,,og-post,,,,AAXX 04224 07207 36/// /3516 10081 20026 30191 40244 51022=
07207,1999-12-04 23:00:00,7.7,1025.1,2,71,2.8,,22.224,,,340,,,,,,,,,,,og-post,,,,AAXX 04234 07207 36/// /3412 10077 20028 30198 40251 51020=
07207,1999-12-05 00:00:00,7.3,1025.9,2.1,71,2.4,,22.224,,,10,,,,,,,,,,,og-post,,,,AAXX 05004 07207 36/// /0112 10073 20024 30206 40259 53021=
07207,1999-12-05 01:00:00,7.5,1026.3,1.8,72,2.8,,25.928,,,350,,,,,,,,,,,og-post,,,,AAXX 05014 07207 36/// /3514 10075 20028 30210 40263 51018=
07207,1999-12-05 02:00:00,6.4,1026.7,1.5,76,2.5,,18.52,,,10,,,,,,,,,,,og-post,,,,AAXX 05024 07207 36/// /0110 10064 20025 30213 40267 51015=
07207,1999-12-05 03:00:00,5.8,1027.3,1.4,78,2.3,,14.816,,,360,,,,,,,,,,,og-post,,,,AAXX 05034 07207 36/// /3608 10058 20023 30219 40273 52014=
07207,1999-12-05 04:00:00,6.1,1027.6,1.2,77,2.4,,14.816,,,350,,,,,,,,,,,og-post,,,,AAXX 05044 07207 36/// /3508 10061 20024 30222 40276 51012=
07207,1999-12-05 05:00:00,6.3,1027.9,1.1,75,2.2,,18.52,,,10,,,,,,,,,,,og-post,,,,AAXX 05054 07207 36/// /0110 10063 20022 30225 40279 51011=
07207,1999-12-05 06:00:00,5.1,1028.7,1.3,79,1.8,25000,18.52,,,20,5.1,9.4,,,,,,,,,og-post,,,,AAXX 05064 07207 32975 00210 10051 20018 30233 40287 53013 222// 326// 333 10094 20051 92438=
07207,1999-12-05 07:00:00,5.6,1029.4,1.7,80,2.4,,18.52,,,10,,,,,,,,,,,og-post,,,,AAXX 05074 07207 36/// /0110 10056 20024 30240 40294 53017=
07207,1999-12-05 08:00:00,5.8,1029.7,1.9,80,2.6,,14.816,,,10,,,,,,,,,,,og-post,,,,AAXX 05084 07207 36/// /0108 10058 20026 30243 40297 51019=
07207,1999-12-05 09:00:00,7.2,1030.4,1.7,77,3.4,30000,11.112,,,350,,,,,,,,,,,og-post,,,,AAXX 05094 07207 32980 33506 10072 20034 30250 40304 52017 81078 222// 326// 333 92428=
07207,1999-12-05 10:00:00,9.4,1031.1,1.7,71,4.4,,7.408,,,10,,,,,,,,,,,og-post,,,,AAXX 05104 07207 36/// /0104 10094 20044 30258 40311 53017=
07207,1999-12-05 11:00:00,9.8,1031.6,2,64,3.3,,11.112,,,330,,,,,,,,,,,og-post,,,,AAXX 05114 07207 36/// /3306 10098 20033 30263 40316 51020=
07207,1999-12-05 12:00:00,10.1,1031.3,0.8,64,3.6,30000,11.112,,,300,,,,,,,,,,,og-post,,,,AAXX 05124 07207 32580 53006 10101 20036 30260 40313 50008 82108 222// 326// 333 92428=
07207,1999-12-05 14:00:00,9.6,1031.5,-0.1,65,3.4,,11.112,,,330,,,,,,,,,,,og-post,,,,AAXX 05144 07207 36/// /3306 10096 20034 30262 40315 55001=
07207,1999-12-05 15:00:00,9.3,1031.2,0,63,2.6,,14.816,,,330,,,,,,,,,,,og-post,,,,AAXX 05154 07207 36/// /3308 10093 20026 30259 40312 50000=
07207,1999-12-05 16:00:00,8,1031.4,-0.1,70,2.9,,7.408,,,10,,,,,,,,,,,og-post,,,,AAXX 05164 07207 36/// /0104 10080 20029 30260 40314 55001=
07207,1999-12-05 17:00:00,7.2,1031.4,-0.2,73,2.7,,7.408,,,340,,,,,,,,,,,og-post,,,,AAXX 05174 07207 36/// /3404 10072 20027 30260 40314 56002=
07207,1999-12-05 18:00:00,7.5,1031.6,0.4,72,2.8,30000,7.408,,,330,4.8,10.6,,,,,,,,,og-post,,,,AAXX 05184 07207 32580 33304 10075 20028 30262 40316 52004 83200 222// 326// 333 10106 20048 92428=
07207,1999-12-05 19:00:00,8.5,1032.1,0.8,72,3.8,,7.408,,,290,,,,,,,,,,,og-post,,,,AAXX 05194 07207 36/// /2904 10085 20038 30268 40321 53008=
07207,1999-12-05 20:00:00,9.5,1032.1,0.8,68,3.9,,11.112,,,270,,,,,,,,,,,og-post,,,,AAXX 05204 07207 36/// /2706 10095 20039 30268 40321 51008=
07207,1999-12-05 21:00:00,10,1032.1,0.6,66,4,25000,7.408,,,230,,,,,,,,,,,og-post,,,,AAXX 05214 07207 32675 62304 10100 20040 30268 40321 51006 86500 222// 326// 333 92428=
07207,1999-12-05 22:00:00,9.9,1031.9,-0.2,70,4.7,,18.52,,,210,,,,,,,,,,,og-post,,,,AAXX 05224 07207 36/// /2110 10099 20047 30266 40319 58002=
07207,1999-12-05 23:00:00,10.2,1031.9,-0,72,5.4,,18.52,,,220,,,,,,,,,,,og-post,,,,AAXX 05234 07207 36/// /2210 10102 20054 30266 40319 54000=
07207,1999-12-06 00:00:00,10.3,1031.7,-0.4,71,5.3,,18.52,,,240,,,,,,,,,,,og-post,,,,AAXX 06004 07207 36/// /2410 10103 20053 30264 40317 57004=
07207,1999-12-06 01:00:00,10.4,1031.1,-0.8,72,5.6,,18.52,,,240,,,,,,,,,,,og-post,,,,AAXX 06014 07207 36/// /2410 10104 20056 30258 40311 58008=
07207,1999-12-06 02:00:00,10.7,1030.7,-1.2,68,5,,18.52,,,260,,,,,,,,,,,og-post,,,,AAXX 06024 07207 36/// /2610 10107 20050 30254 40307 58012=
07207,1999-12-06 03:00:00,10.7,1030.6,-1.1,70,5.5,25000,22.224,,,260,,,,,,,,,,,og-post,,,,AAXX 06034 07207 32575 52612 10107 20055 30253 40306 56011 85200 222// 326// 333 92438=
07207,1999-12-06 04:00:00,10.7,1029.7,-1.4,70,5.5,,25.928,,,250,,,,,,,,,,,og-post,,,,AAXX 06044 07207 36/// /2514 10107 20055 30244 40297 58014=
07207,1999-12-06 05:00:00,10.9,1029.3,-1.4,68,5.2,,29.632,,,260,,,,,,,,,,,og-post,,,,AAXX 06054 07207 36/// /2616 10109 20052 30240 40293 57014=
07207,1999-12-06 06:00:00,11,1029,-1.5,70,5.7,25000,29.632,,,260,7.3,11.1,,,,,,,,,og-post,,,,AAXX 06064 07207 32675 72616 10110 20057 30237 40290 56015 875// 222// 326// 333 10111 20073 92438=
07207,1999-12-06 07:00:00,11.2,1028.9,-0.9,72,6.3,,22.224,,,250,,,,,,,,,,,og-post,,,,AAXX 06074 07207 36/// /2512 10112 20063 30236 40289 56009=
07207,1999-12-06 08:00:00,11.2,1028.9,-0.3,68,5.5,,31.484,,,250,,,,,,,,,,,og-post,,,,AAXX 06084 07207 36/// /2517 10112 20055 30236 40289 55003=
07207,1999-12-06 09:00:00,11.5,1029,-0,72,6.6,25000,29.632,,,250,,,,,,,,,,,og-post,,,,AAXX 06094 07207 32675 82516 10115 20066 30237 40290 55000 885// 222// 326// 333 92438=
07207,1999-12-06 11:00:00,11.8,1028.4,-0.6,72,6.9,,29.632,,,260,,,,,,,,,,,og-post,,,,AAXX 06114 07207 36/// /2616 10118 20069 30231 40284 58006=
07207,1999-12-06 12:00:00,11.7,1027.8,-1.3,71,6.6,25000,31.484,53.708,,250,,,,,,,,,,,og-post,,,,AAXX 06124 07207 32675 82517 10117 20066 30225 40278 58013 885// 222// 326// 333 91129 92438=
07207,1999-12-06 13:00:00,11.9,1027.4,-1.7,74,7.4,,31.484,50.004,,250,,,,,,,,,,,og-post,,,,AAXX 06134 07207 36/// /2517 10119 20074 30221 40274 56017 333 91127=
07207,1999-12-06 14:00:00,11.9,1026.8,-1.6,74,7.4,,35.188,,,240,,,,,,,,,,,og-post,,,,AAXX 06144 07207 36/// /2419 10119 20074 30215 40268 58016=
07207,1999-12-06 15:00:00,11.8,1026.6,-1.3,73,7.1,25000,29.632,,,250,,,,,,,,,,,og-post,,,,AAXX 06154 07207 32675 82516 10118 20071 30213 40266 56013 885// 222// 326// 333 92438=
07207,1999-12-06 16:00:00,11.9,1026,-1.1,75,7.6,,29.632,,,250,,,,,,,,,,,og-post,,,,AAXX 06164 07207 36/// /2516 10119 20076 30208 40260 57011=
07207,1999-12-06 17:00:00,11.9,1025.7,-0.8,74,7.4,,29.632,,,250,,,,,,,,,,,og-post,,,,AAXX 06174 07207 36/// /2516 10119 20074 30205 40257 58008=
07207,1999-12-06 18:00:00,12.1,1025.6,-0.9,76,8,20000,25.928,,,250,11,12.1,,,,,,,,,og-post,,,,AAXX 06184 07207 32670 82514 10121 20080 30204 40256 56009 885// 222// 326// 333 10121 20110 92438=
07207,1999-12-06 19:00:00,12.2,1025.4,-0.6,75,7.9,,31.484,,,250,,,,,,,,,,,og-post,,,,AAXX 06194 07207 36/// /2517 10122 20079 30202 40254 57006=
07207,1999-12-06 20:00:00,12.2,1025.1,-0.7,72,7.3,,35.188,,,240,,,,,,,,,,,og-post,,,,AAXX 06204 07207 36/// /2419 10122 20073 30199 40251 57007=
07207,1999-12-06 21:00:00,12.3,1024.7,-0.9,77,8.4,20000,25.928,,,250,,,,,,,,,,,og-post,,,,AAXX 06214 07207 32670 82514 10123 20084 30195 40247 58009 885// 222// 326// 333 92438=
07207,1999-12-06 22:00:00,12.4,1024.5,-0.7,73,7.7,,31.484,53.708,,250,,,,,,,,,,,og-post,,,,AAXX 06224 07207 36/// /2517 10124 20077 30193 40245 56007 333 91129=
07207,1999-12-06 23:00:00,12.3,1024.1,-1.2,81,9.1,,31.484,,,240,,,,,,,,,,,og-post,,,,AAXX 06234 07207 36/// /2417 10123 20091 30189 40241 58012=
07207,1999-12-07 00:00:00,12.5,1023.5,-1.2,80,9.1,,35.188,,,240,,,,,,,,,,,og-post,,,,AAXX 07004 07207 36/// /2419 10125 20091 30183 40235 58012=
07207,1999-12-07 01:00:00,12.4,1022.5,-1.9,78,8.7,,35.188,,,240,,,,,,,,,,,og-post,,,,AAXX 07014 07207 36/// /2419 10124 20087 30173 40225 58019=
07207,1999-12-07 02:00:00,12.5,1022.1,-2.1,78,8.8,,35.188,,,240,,,,,,,,,,,og-post,,,,AAXX 07024 07207 36/// /2419 10125 20088 30169 40221 56021=
07207,1999-12-07 03:00:00,12.5,1021.9,-1.5,76,8.4,20000,31.484,,,260,,,,,,,,,,,og-post,,,,AAXX 07034 07207 32670 82617 10125 20084 30167 40219 56015 885// 222// 326// 333 92438=
07207,1999-12-07 04:00:00,12.2,1021.1,-1.5,79,8.7,,35.188,,,260,,,,,,,,,,,og-post,,,,AAXX 07044 07207 36/// /2619 10122 20087 30159 40211 58015=
07207,1999-12-07 05:00:00,12.1,1020.4,-1.6,84,9.5,,29.632,,,250,,,,,,,,,,,og-post,,,,AAXX 07054 07207 36/// /2516 10121 20095 30152 40204 58016=
07207,1999-12-07 06:00:00,11.9,1020.1,-1.9,89,10.1,20000,31.484,,,240,11.9,12.6,,,,,,,,,og-post,,,,AAXX 07064 07207 32670 82417 10119 20101 30149 40201 56019 885// 222// 326// 333 10126 20119 92438=
07207,1999-12-07 07:00:00,11.7,1020,-1,94,10.8,,31.484,,,250,,,,,,,,,,,og-post,,,,AAXX 07074 07207 36/// /2517 10117 20108 30148 40200 56010=
07207,1999-12-07 08:00:00,12.3,1019.9,-0.4,90,10.7,,35.188,,,260,,,,,,,,,,,og-post,,,,AAXX 07084 07207 36/// /2619 10123 20107 30147 40199 57004=
07207,1999-12-07 09:00:00,12.1,1019.9,-0.3,93,11,10000,38.892,57.412,,260,,,,,,,,,,15,og-post,,,,AAXX 07094 07207 31560 82621 10121 20110 30147 40199 58003 71522 887// 222// 326// 333 91131 92447=
07207,1999-12-07 10:00:00,12,1019.9,-0.2,96,11.4,,38.892,,,260,,,0.2,,,,,,,,og-post,,,,AAXX 07104 07207 26/// /2621 10120 20114 30147 40199 56002 333 69925=
07207,1999-12-07 11:00:00,12.4,1020.1,-0,96,11.8,,38.892,61.116,,270,,,,,,,,,,,og-post,,,,AAXX 07114 07207 36/// /2721 10124 20118 30149 40201 55000 333 91133=
07207,1999-12-07 12:00:00,12.8,1019.4,-0.7,93,11.7,15000,29.632,61.116,,270,,,,0.2,0.2,,,,,1,og-post,,,,AAXX 07124 07207 /1565 72716 10128 20117 30142 40194 58007 69921 70162 872// 222// 326// 333 69927 91133 92437=
07207,1999-12-07 13:00:00,12.7,1019,-0.8,91,11.3,,31.484,,,280,,,,,,,,,,,og-post,,,,AAXX 07134 07207 36/// /2817 10127 20113 30138 40190 58008=
07207,1999-12-07 14:00:00,13,1019,-0.9,83,10.2,,31.484,61.116,,290,,,,,,,,,,,og-post,,,,AAXX 07144 07207 36/// /2917 10130 20102 30138 40190 56009 333 91133=
07207,1999-12-07 15:00:00,12.6,1019,-0.4,77,8.7,20000,35.188,61.116,,290,,,,,,,,,,,og-post,,,,AAXX 07154 07207 32570 32919 10126 20087 30138 40190 56004 83200 222// 326// 333 91133 92438=
07207,1999-12-07 16:00:00,12.3,1019.4,0.3,75,8,,35.188,,,290,,,,,,,,,,,og-post,,,,AAXX 07164 07207 36/// /2919 10123 20080 30142 40194 53003=
07207,1999-12-07 17:00:00,12.5,1019.5,0.6,80,9.1,,31.484,,,280,,,,,,,,,,,og-post,,,,AAXX 07174 07207 36/// /2817 10125 20091 30143 40195 53006=
07207,1999-12-07 18:00:00,12.2,1019.9,0.9,83,9.4,20000,29.632,61.116,,280,11.6,13,,,,0.2,,,,,og-post,,,,AAXX 07184 07207 12570 42816 10122 20094 30147 40199 51009 69922 84200 222// 326// 333 10130 20116 91133 92438=
07207,1999-12-07 19:00:00,12.4,1020.2,0.8,83,9.6,,25.928,,,270,,,,,,,,,,,og-post,,,,AAXX 07194 07207 36/// /2714 10124 20096 30150 40202 53008=
07207,1999-12-07 20:00:00,12.1,1020.5,0.9,81,8.9,,29.632,,,290,,,,,,,,,,,og-post,,,,AAXX 07204 07207 36/// /2916 10121 20089 30153 40205 51009=
07207,1999-12-07 21:00:00,12,1020.5,0.7,80,8.7,20000,29.632,50.004,,280,,,,,,,,,,,og-post,,,,AAXX 07214 07207 32570 22816 10120 20087 30153 40205 51007 82200 222// 326// 333 91127 92438=
07207,1999-12-07 22:00:00,12.2,1020.4,0.2,80,8.9,,25.928,,,270,,,,,,,,,,,og-post,,,,AAXX 07224 07207 36/// /2714 10122 20089 30152 40204 50002=
07207,1999-12-07 23:00:00,12.2,1020.2,-0.3,78,8.5,,25.928,,,270,,,,,,,,,,,og-post,,,,AAXX 07234 07207 36/// /2714 10122 20085 30150 40202 58003=
07207,1999-12-08 00:00:00,12.1,1020.1,-0.5,81,8.9,,25.928,50.004,,270,,,,,,,,,,,og-post,,,,AAXX 08004 07207 36/// /2714 10121 20089 30149 40201 58005 333 91127=
07207,1999-12-08 01:00:00,11.9,1019.8,-0.7,82,8.9,,29.632,,,270,,,,,,,,,,,og-post,,,,AAXX 08014 07207 36/// /2716 10119 20089 30146 40198 58007=
07207,1999-12-08 02:00:00,12.1,1019.5,-0.8,82,9.1,,31.484,,,270,,,,,,,,,,,og-post,,,,AAXX 08024 07207 36/// /2717 10121 20091 30143 40195 58008=
07207,1999-12-08 03:00:00,12.1,1019,-1.1,82,9.1,20000,31.484,,,260,,,,,,,,,,,og-post,,,,AAXX 08034 07207 32570 22617 10121 20091 30138 40190 58011 82200 222// 326// 333 92438=
07207,1999-12-08 04:00:00,12.1,1018.4,-1.5,82,9.1,,29.632,,,260,,,,,,,,,,,og-post,,,,AAXX 08044 07207 36/// /2616 10121 20091 30132 40184 58015=
07207,1999-12-08 05:00:00,12.2,1018,-1.5,83,9.4,,31.484,,,260,,,,,,,,,,,og-post,,,,AAXX 08054 07207 36/// /2617 10122 20094 30128 40180 58015=
07207,1999-12-08 06:00:00,12.2,1017.4,-1.6,83,9.4,25000,31.484,,,260,11.6,12.4,,,,,,,,,og-post,,,,AAXX 08064 07207 32575 32617 10122 20094 30122 40174 56016 83200 222// 326// 333 10124 20116 92448=
07207,1999-12-08 07:00:00,10.6,1017,-1.6,89,8.9,,31.484,,57.412,260,,,0.4,,,,,,,,og-post,,,,AAXX 08074 07207 26/// /2617 10106 20089 30118 40170 58016 333 69945 91031=
07207,1999-12-08 08:00:00,11.9,1016.4,-1.5,86,9.6,,31.484,,,240,,,0.6,,,,,,,,og-post,,,,AAXX 08084 07207 26/// /2417 10119 20096 30112 40164 58015 333 69965=
07207,1999-12-08 09:00:00,11.8,1016,-1.4,88,9.9,25000,31.484,,57.412,260,,,,1,,,,,,,og-post,,,,AAXX 08094 07207 22575 62617 10118 20099 30108 40160 57014 86800 222// 326// 333 60017 91031 92448=
07207,1999-12-08 10:00:00,12.5,1015.5,-1.5,83,9.7,,35.188,57.412,,250,,,,,,,,,,,og-post,,,,AAXX 08104 07207 36/// /2519 10125 20097 30103 40155 56015 333 91131=
07207,1999-12-08 11:00:00,12.6,1014.6,-1.7,82,9.6,,46.3,68.524,64.82,240,,,,,,,,,,,og-post,,,,AAXX 08114 07207 36/// /2425 10126 20096 30094 40146 58017 333 91035 91137=
07207,1999-12-08 12:00:00,12.8,1013.6,-2.4,80,9.4,25000,50.004,68.524,,240,,,,,1,,,,,1,og-post,,,,AAXX 08124 07207 11575 52427 10128 20094 30084 40136 58024 60011 70181 82270 222// 326// 333 91137 92448=
07207,1999-12-08 13:00:00,12.6,1012.3,-3.1,83,9.8,,50.004,,,240,,,,,,,,,,,og-post,,,,AAXX 08134 07207 36/// /2427 10126 20098 30071 40123 58031=
07207,1999-12-08 14:00:00,12.7,1011.2,-3.7,84,10.1,,42.596,72.228,68.524,250,,,,,,,,,,,og-post,,,,AAXX 08144 07207 36/// /2523 10127 20101 30060 40112 58037 333 91037 91139=
07207,1999-12-08 15:00:00,12.7,1010.3,-3.4,87,10.6,18000,42.596,72.228,68.524,250,,,,,,,,,,,og-post,,,,AAXX 08154 07207 32568 82523 10127 20106 30052 40103 56034 887// 222// 326// 333 91037 91139 92447=
07207,1999-12-08 16:00:00,12.4,1010,-2.6,87,10.3,,46.3,87.044,75.932,250,,,0.2,,,,,,,,og-post,,,,AAXX 08164 07207 26/// /2525 10124 20103 30048 40100 56026 333 69925 91041 91147=
07207,1999-12-08 17:00:00,12.1,1009.1,-1.9,90,10.5,,50.004,72.228,72.228,240,,,,,,,,,,,og-post,,,,AAXX 08174 07207 36/// /2427 10121 20105 30039 40091 57019 333 91039 91139=
07207,1999-12-08 18:00:00,12.5,1008.4,-1.9,91,11.1,12000,42.596,87.044,72.228,250,10.3,12.9,,0.6,,2,,,,2,og-post,,,,AAXX 08184 07207 /1562 82523 10125 20111 30033 40084 56019 60022 70282 887// 222// 326// 333 10129 20103 69967 91039 91147 92447=
07207,1999-12-08 19:00:00,12.4,1008.1,-1.6,92,11.1,,38.892,68.524,61.116,250,,,0.2,,,,,,,,og-post,,,,AAXX 08194 07207 26/// /2521 10124 20111 30030 40081 56016 333 69925 91033 91137=
07207,1999-12-08 21:00:00,10.6,1007.7,-0.8,94,9.7,,29.632,72.228,,280,,,,3,,,,,,,og-post,,,,AAXX 08214 07207 26/// /2816 10106 20097 30025 40077 55008 333 60037 91139=
07207,1999-12-08 22:00:00,11.2,1007.2,-1.2,93,10.1,,31.484,,,280,,,0.8,,,,,,,,og-post,,,,AAXX 08224 07207 26/// /2817 10112 20101 30020 40072 56012 333 69985=
07207,1999-12-08 23:00:00,11.4,1007.2,-0.4,74,6.9,,35.188,,,290,,,,,,,,,,,og-post,,,,AAXX 08234 07207 36/// /2919 10114 20069 30020 40072 57004=
07207,1999-12-09 00:00:00,11.4,1007.1,-0.5,77,7.5,,29.632,72.228,,290,,,,0.8,3,,,,,,og-post,,,,AAXX 09004 07207 /6/// /2916 10114 20075 30019 40071 56005 60031 333 69987 91139=
07207,1999-12-09 01:00:00,11.5,1006.4,-0.8,73,6.8,,35.188,53.708,,280,,,,,,,,,,,og-post,,,,AAXX 09014 07207 36/// /2819 10115 20068 30012 40064 58008 333 91129=
07207,1999-12-09 02:00:00,11.1,1006.1,-1.1,74,6.6,,35.188,,,290,,,,,,,,,,,og-post,,,,AAXX 09024 07207 36/// /2919 10111 20066 30009 40061 58011=
07207,1999-12-09 03:00:00,10,1006,-1.1,81,6.9,10000,38.892,61.116,,290,,,,,,,,,,,og-post,,,,AAXX 09034 07207 32560 82921 10100 20069 30008 40060 55011 887// 222// 326// 333 91133 92447=
07207,1999-12-09 04:00:00,9.4,1005.6,-0.9,84,6.8,,31.484,75.932,,290,,,0.2,,,,,,,,og-post,,,,AAXX 09044 07207 26/// /2917 10094 20068 30004 40056 57009 333 69925 91141=
07207,1999-12-09 05:00:00,10.2,1005,-0.8,72,5.4,,38.892,61.116,,290,,,,,,,,,,,og-post,,,,AAXX 09054 07207 36/// /2921 10102 20054 39998 40050 58008 333 91133=
07207,1999-12-09 06:00:00,10.4,1004.7,-1.2,77,6.5,15000,38.892,75.932,,280,8.9,12.8,,0.2,,4,,,,2,og-post,,,,AAXX 09064 07207 /1565 52821 10104 20065 39995 40047 56012 60042 70282 84230 222// 326// 333 10128 20089 69927 91141 92447=
07207,1999-12-09 07:00:00,10.2,1004.6,-1,75,6,,29.632,61.116,,270,,,,,,,,,,,og-post,,,,AAXX 09074 07207 36/// /2716 10102 20060 39994 40046 56010 333 91133=
07207,1999-12-09 08:00:00,10.1,1004.7,-0.2,73,5.5,,31.484,72.228,,280,,,,,,,,,,,og-post,,,,AAXX 09084 07207 36/// /2817 10101 20055 39995 40047 55002 333 91139=
07207,1999-12-09 09:00:00,10.7,1004.5,-0,72,5.9,15000,38.892,72.228,64.82,280,,,,,,,,,,15,og-post,,,,AAXX 09094 07207 31565 62821 10107 20059 39993 40045 55000 71522 86200 222// 326// 333 91035 91139 92448=
07207,1999-12-09 10:00:00,10.3,1004.6,0.1,76,6.3,,35.188,64.82,,280,,,,,,,,,,,og-post,,,,AAXX 09104 07207 36/// /2819 10103 20063 39994 40046 51001 333 91135=
07207,1999-12-09 11:00:00,9.9,1004.3,-0.4,78,6.2,,25.928,75.932,,280,,,,,,,,,,,og-post,,,,AAXX 09114 07207 36/// /2814 10099 20062 39991 40043 58004 333 91141=
07207,1999-12-09 12:00:00,10.8,1003.3,-1.3,68,5.1,15000,35.188,75.932,,280,,,,,,,,,,15,og-post,,,,AAXX 09124 07207 31565 62819 10108 20051 39981 40033 58013 71522 83202 222// 326// 333 91141 92448=
07207,1999-12-09 13:00:00,9.8,1002.7,-1.8,78,6.2,,35.188,72.228,,290,,,0.2,,,,,,,,og-post,,,,AAXX 09134 07207 26/// /2919 10098 20062 39975 40027 58018 333 69925 91139=
07207,1999-12-09 14:00:00,9.2,1002.4,-2.1,77,5.4,,31.484,75.932,,280,,,0.8,,,,,,,,og-post,,,,AAXX 09144 07207 26/// /2817 10092 20054 39972 40024 56021 333 69985 91141=
07207,1999-12-09 15:00:00,9.4,1002.1,-1.1,73,4.8,10000,29.632,75.932,,270,,,,1,,,,,,15,og-post,,,,AAXX 09154 07207 21460 72716 10094 20048 39969 40021 56011 71582 86362 222// 326// 333 60017 91141 92447=
07207,1999-12-09 16:00:00,8.9,1002.6,-0.2,71,3.9,,31.484,75.932,,290,,,0.6,,,,,,,,og-post,,,,AAXX 09164 07207 26/// /2917 10089 20039 39974 40026 55002 333 69965 91141=
07207,1999-12-09 17:00:00,9,1002.9,0.7,72,4.2,,38.892,61.116,61.116,300,,,,,,,,,,,og-post,,,,AAXX 09174 07207 36/// /3021 10090 20042 39977 40029 53007 333 91033 91133=
07207,1999-12-09 18:00:00,9.3,1003.3,1.1,69,3.9,10000,38.892,75.932,61.116,290,7,10.9,,0.6,,2,,,,,og-post,,,,AAXX 09184 07207 /2460 42921 10093 20039 39981 40033 53011 60022 84300 222// 326// 333 10109 20070 69967 91033 91141 92447=
07207,1999-12-09 19:00:00,7.7,1004.1,1.5,80,4.5,,38.892,75.932,68.524,300,,,0.4,,,,,,,,og-post,,,,AAXX 09194 07207 26/// /3021 10077 20045 39989 40041 53015 333 69945 91037 91141=
07207,1999-12-09 20:00:00,8.5,1004.7,1.9,76,4.5,,35.188,64.82,64.82,330,,,0.2,,,,,,,,og-post,,,,AAXX 09204 07207 26/// /3319 10085 20045 39995 40047 52019 333 69925 91035 91135=
07207,1999-12-09 21:00:00,9.1,1005.2,1.9,72,4.3,10000,35.188,75.932,,320,,,,0.6,,,,,,,og-post,,,,AAXX 09214 07207 22560 73219 10091 20043 30000 40052 51019 87400 222// 326// 333 69967 91141 92447=
07207,1999-12-09 22:00:00,9.8,1005.3,1,71,4.8,,31.484,61.116,61.116,310,,,0.2,,,,,,,,og-post,,,,AAXX 09224 07207 26/// /3117 10098 20048 30001 40053 51010 333 69925 91033 91133=
07207,1999-12-09 23:00:00,9.7,1006,1.2,67,3.9,,31.484,72.228,53.708,310,,,0.4,,,,,,,,og-post,,,,AAXX 09234 07207 26/// /3117 10097 20039 30008 40060 53012 333 69945 91029 91139=
07207,1999-12-10 00:00:00,8.9,1006.1,1.1,76,4.9,,38.892,75.932,68.524,290,,,,0.6,1,,,,,,og-post,,,,AAXX 10004 07207 /6/// /2921 10089 20049 30009 40061 53011 60011 333 69967 91037 91141=
07207,1999-12-10 01:00:00,8.8,1006.6,1.2,65,2.6,,38.892,72.228,72.228,300,,,,,,,,,,,og-post,,,,AAXX 10014 07207 36/// /3021 10088 20026 30014 40066 51012 333 91039 91139=
07207,1999-12-10 02:00:00,8.2,1007.2,1.2,71,3.3,,31.484,68.524,,320,,,,,,,,,,,og-post,,,,AAXX 10024 07207 36/// /3217 10082 20033 30020 40072 53012 333 91137=
07207,1999-12-10 03:00:00,7.2,1007.6,1.5,78,3.6,10000,31.484,72.228,68.524,310,,,,2,,,,,,89,og-post,,,,AAXX 10034 07207 21460 73117 10072 20036 30024 40076 53015 78922 84300 222// 326// 333 60027 91037 91139 92447=
07207,1999-12-10 04:00:00,9.2,1008,1.5,70,4,,31.484,64.82,61.116,310,,,0.4,,,,,,,,og-post,,,,AAXX 10044 07207 26/// /3117 10092 20040 30028 40080 51015 333 69945 91033 91135=
07207,1999-12-10 05:00:00,8.9,1008.6,1.5,76,4.9,,31.484,75.932,61.116,290,,,,,,,,,,,og-post,,,,AAXX 10054 07207 26/// /2917 10089 20049 30034 40086 52015 333 69905 91033 91141=
07207,1999-12-10 06:00:00,8.9,1009.2,1.6,67,3.1,20000,42.596,75.932,61.116,320,7,10,,0.4,,4,,,,27,og-post,,,,AAXX 10064 07207 /1570 33223 10089 20031 30040 40092 53016 60042 72781 83200 222// 326// 333 10100 20070 69947 91033 91141 92448=
07207,1999-12-10 07:00:00,9.2,1010.2,2.2,59,1.6,,31.484,,53.708,320,,,,,,,,,,,og-post,,,,AAXX 10074 07207 36/// /3217 10092 20016 30050 40102 53022 333 91029=
07207,1999-12-10 08:00:00,8.7,1010.9,2.5,77,4.9,,25.928,68.524,,320,,,0.4,,,,,,,,og-post,,,,AAXX 10084 07207 26/// /3214 10087 20049 30057 40109 53025 333 69945 91137=
07207,1999-12-10 09:00:00,9.2,1011.7,2.5,74,4.8,20000,22.224,68.524,,310,,,,0.4,,,,,,,og-post,,,,AAXX 10094 07207 22570 63112 10092 20048 30065 40117 51025 83205 222// 326// 333 69947 91137 92448=
07207,1999-12-10 10:00:00,9.5,1012.7,2.5,74,5.1,,25.928,64.82,,320,,,0.4,,,,,,,,og-post,,,,AAXX 10104 07207 26/// /3214 10095 20051 30075 40127 53025 333 69945 91135=
07207,1999-12-10 11:00:00,9.4,1012.8,1.9,78,5.8,,18.52,,,330,,,,,,,,,,,og-post,,,,AAXX 10114 07207 36/// /3310 10094 20058 30076 40128 51019=
07207,1999-12-10 12:00:00,10.7,1012.4,0.7,71,5.7,20000,31.484,68.524,,280,,,,0.4,0.8,,,,,3,og-post,,,,AAXX 10124 07207 /1570 62817 10107 20057 30072 40124 50007 69981 70382 84206 222// 326// 333 69947 91137 92448=
07207,1999-12-10 13:00:00,10.6,1011.9,-0.7,68,4.9,,31.484,,,270,,,,,,,,,,,og-post,,,,AAXX 10134 07207 36/// /2717 10106 20049 30067 40119 58007=
07207,1999-12-10 14:00:00,10,1011.3,-1.6,82,7.1,,31.484,,,250,,,0.2,,,,,,,,og-post,,,,AAXX 10144 07207 26/// /2517 10100 20071 30061 40113 58016 333 69925=
07207,1999-12-10 15:00:00,9.9,1010.3,-2.1,87,7.8,8000,29.632,57.412,,240,,,,1,,,,,,21,og-post,,,,AAXX 10154 07207 21558 82416 10099 20078 30051 40103 58021 72162 887// 222// 326// 333 60017 91131 92446=
07207,1999-12-10 16:00:00,10,1009.5,-2.5,92,8.8,,38.892,,,240,,,2,,,,,,,,og-post,,,,AAXX 10164 07207 26/// /2421 10100 20088 30043 40095 58025 333 60025=
07207,1999-12-10 17:00:00,11.9,1008.6,-2.5,93,10.8,,38.892,64.82,64.82,260,,,0.8,,,,,,,,og-post,,,,AAXX 10174 07207 26/// /2621 10119 20108 30034 40086 56025 333 69985 91035 91135=
07207,1999-12-10 19:00:00,12.5,1008,-1.2,92,11.2,,42.596,68.524,,270,,,0.2,,,,,,,,og-post,,,,AAXX 10194 07207 26/// /2723 10125 20112 30029 40080 56012 333 69925 91137=
07207,1999-12-10 20:00:00,12.9,1007.2,-1.2,90,11.3,,50.004,75.932,68.524,260,,,,,,,,,,,og-post,,,,AAXX 10204 07207 36/// /2627 10129 20113 30021 40072 58012 333 91037 91141=
07207,1999-12-10 21:00:00,12.9,1006.3,-2,90,11.3,8000,53.708,79.636,79.636,260,,,,0.2,,,,,,2,og-post,,,,AAXX 10214 07207 21558 82629 10129 20113 30012 40063 58020 70262 887// 222// 326// 333 69927 91043 91143 92456=
07207,1999-12-10 22:00:00,13.1,1006,-2,90,11.5,,53.708,79.636,75.932,260,,,,,,,,,,,og-post,,,,AAXX 10224 07207 36/// /2629 10131 20115 30009 40060 56020 333 91041 91143=
07207,1999-12-10 23:00:00,12.8,1005.8,-1.6,92,11.5,,57.412,87.044,83.34,270,,,0.2,,,,,,,,og-post,,,,AAXX 10234 07207 26/// /2731 10128 20115 30007 40058 56016 333 69925 91045 91147=
07207,1999-12-11 00:00:00,12.6,1005.9,-0.5,94,11.7,,50.004,87.044,75.932,280,,,,0.4,0.6,,,,,,og-post,,,,AAXX 11004 07207 /6/// /2827 10126 20117 30008 40059 55005 69961 333 69947 91041 91147=
07207,1999-12-11 01:00:00,13.1,1006,0.1,90,11.5,,53.708,83.34,79.636,280,,,,,,,,,,,og-post,,,,AAXX 11014 07207 36/// /2829 10131 20115 30009 40060 53001 333 91043 91145=
07207,1999-12-11 02:00:00,13.2,1006.1,0.6,88,11.3,,50.004,79.636,75.932,280,,,,,,,,,,,og-post,,,,AAXX 11024 07207 36/// /2827 10132 20113 30010 40061 51006 333 91041 91143=
07207,1999-12-11 03:00:00,13,1006.1,0.3,92,11.7,8000,46.3,83.34,72.228,280,,,,,,,,,,2,og-post,,,,AAXX 11034 07207 31558 82825 10130 20117 30010 40061 50003 70262 887// 222// 326// 333 91039 91145 92456=
07207,1999-12-11 04:00:00,13.2,1006,-0.2,89,11.4,,46.3,75.932,68.524,280,,,0.2,,,,,,,,og-post,,,,AAXX 11044 07207 26/// /2825 10132 20114 30009 40060 58002 333 69925 91037 91141=
07207,1999-12-11 05:00:00,13.1,1005.8,-0.3,90,11.5,,50.004,83.34,83.34,270,,,,,,,,,,,og-post,,,,AAXX 11054 07207 36/// /2727 10131 20115 30007 40058 57003 333 91045 91145=
07207,1999-12-11 06:00:00,12.9,1006.1,0.1,91,11.5,8000,46.3,83.34,,280,12.5,13.3,,0.2,,0.8,,,,2,og-post,,,,AAXX 11064 07207 /1558 82825 10129 20115 30010 40061 53001 69982 70262 887// 222// 326// 333 10133 20125 69927 91145 92456=
07207,1999-12-11 07:00:00,13.1,1006,-0.1,90,11.5,,42.596,68.524,,270,,,,,,,,,,,og-post,,,,AAXX 11074 07207 36/// /2723 10131 20115 30009 40060 58001 333 91137=
07207,1999-12-11 08:00:00,13.3,1006.1,0.2,89,11.5,,53.708,79.636,79.636,270,,,,,,,,,,,og-post,,,,AAXX 11084 07207 36/// /2729 10133 20115 30010 40061 52002 333 91043 91143=
07207,1999-12-11 09:00:00,13.4,1005.6,-0.6,88,11.5,10000,57.412,83.34,83.34,260,,,,,,,,,,,og-post,,,,AAXX 11094 07207 32560 82631 10134 20115 30005 40056 58006 887// 222// 326// 333 91045 91145 92457=
07207,1999-12-11 10:00:00,13.5,1005.8,-0,87,11.4,,57.412,87.044,83.34,260,,,,,,,,,,,og-post,,,,AAXX 11104 07207 36/// /2631 10135 20114 30007 40058 55000 333 91045 91147=
07207,1999-12-11 11:00:00,13.5,1004.9,-0.7,87,11.4,,61.116,94.452,94.452,260,,,,,,,,,,,og-post,,,,AAXX 11114 07207 36/// /2633 10135 20114 39998 40049 58007 333 91051 91151=
07207,1999-12-11 12:00:00,13.4,1004.6,-0.8,87,11.3,8000,61.116,94.452,87.044,260,,,,,,,,,,,og-post,,,,AAXX 11124 07207 32558 82633 10134 20113 39995 40046 58008 887// 222// 326// 333 91047 91151 92456=
07207,1999-12-11 13:00:00,13.6,1004.3,-1.8,87,11.5,,64.82,96.304,96.304,260,,,,,,,,,,,og-post,,,,AAXX 11134 07207 36/// /2635 10136 20115 39992 40043 56018 333 91052 91152=
07207,1999-12-11 14:00:00,13.6,1003.5,-2.2,87,11.5,,64.82,96.304,96.304,260,,,,,,,,,,,og-post,,,,AAXX 11144 07207 36/// /2635 10136 20115 39984 40035 56022 333 91052 91152=
07207,1999-12-11 15:00:00,13.6,1003.1,-1.4,87,11.5,7000,64.82,96.304,90.748,260,,,,,,,,,,,og-post,,,,AAXX 11154 07207 32557 82635 10136 20115 39980 40031 56014 887// 222// 326// 333 91049 91152 92456=
07207,1999-12-11 16:00:00,13.4,1003.2,-0.7,88,11.5,,64.82,94.452,94.452,260,,,,,,,,,,,og-post,,,,AAXX 11164 07207 36/// /2635 10134 20115 39981 40032 58007 333 91051 91151=
07207,1999-12-11 17:00:00,13,1002.9,-0.8,92,11.7,,61.116,90.748,87.044,260,,,,,,,,,,,og-post,,,,AAXX 11174 07207 36/// /2633 10130 20117 39978 40029 56008 333 91047 91149=
07207,1999-12-11 18:00:00,12.6,1002.4,-0.8,96,12,6000,57.412,96.304,94.452,260,12.5,13.7,,0.4,,0.4,,,,,og-post,,,,AAXX 11184 07207 /2456 82631 10126 20120 39973 40024 58008 69942 887// 222// 326// 333 10137 20125 69947 91051 91152 92456=
07207,1999-12-11 19:00:00,13.5,1002,-1.1,89,11.7,,64.82,96.304,96.304,260,,,0.2,,,,,,,,og-post,,,,AAXX 11194 07207 26/// /2635 10135 20117 39969 40020 58011 333 69925 91052 91152=
07207,1999-12-11 20:00:00,13.5,1001.5,-1.4,89,11.7,,53.708,94.452,83.34,260,,,0.2,,,,,,,,og-post,,,,AAXX 11204 07207 26/// /2629 10135 20117 39964 40015 56014 333 69925 91045 91151=
07207,1999-12-11 21:00:00,13.4,1000.5,-1.7,90,11.8,6000,57.412,96.304,94.452,250,,,,0.4,,,,,,2,og-post,,,,AAXX 11214 07207 21456 82531 10134 20118 39954 40005 58017 70282 887// 222// 326// 333 69947 91051 91152 92456=
07207,1999-12-11 22:00:00,12.9,999.7,-2.2,94,12,,53.708,94.452,83.34,250,,,0.8,,,,,,,,og-post,,,,AAXX 11224 07207 26/// /2529 10129 20120 39946 49997 58022 333 69985 91045 91151=
07207,1999-12-11 23:00:00,13.1,997.6,-3.8,93,12,,64.82,,94.452,240,,,1,,,,,,,,og-post,,,,AAXX 11234 07207 26/// /2435 10131 20120 39925 49976 58038 333 60015 91051=
07207,1999-12-12 00:00:00,13,995.8,-4.8,94,12.1,,75.932,103.712,103.712,240,,,,3,4,,,,,,og-post,,,,AAXX 12004 07207 /6/// /2441 10130 20121 39907 49958 58048 60041 333 60037 91056 91156=
07207,1999-12-12 01:00:00,13,992.7,-6.6,92,11.7,,79.636,,118.528,240,,,1,,,,,,,,og-post,,,,AAXX 12014 07207 26/// /2443 10130 20117 39877 49927 58066 333 60015 91064=
07207,1999-12-12 02:00:00,12.7,990.1,-7.5,94,11.8,,83.34,118.528,118.528,230,,,2,,,,,,,,og-post,,,,AAXX 12024 07207 26/// /2345 10127 20118 39851 49901 58075 333 60025 91064 91164=
07207,1999-12-12 03:00:00,11.6,992.4,-3,91,10.2,6000,42.596,133.344,68.524,280,,,,4,,,,,,2,og-post,,,,AAXX 12034 07207 21456 82823 10116 20102 39873 49924 55030 70282 887// 222// 326// 333 60047 91037 91172 92456=
07207,1999-12-12 04:00:00,11.9,992.6,-0.6,86,9.6,,64.82,103.712,94.452,270,,,1,,,,,,,,og-post,,,,AAXX 12044 07207 26/// /2735 10119 20096 39875 49926 56006 333 60015 91051 91156=
07207,1999-12-12 05:00:00,11.5,992.7,2.1,78,7.8,,72.228,103.712,103.712,270,,,,,,,,,,,og-post,,,,AAXX 12054 07207 36/// /2739 10115 20078 39876 49927 50021 333 91056 91156=
07207,1999-12-12 06:00:00,10.4,994.5,1.8,86,8.2,6000,79.636,133.344,114.824,280,8.7,13.6,,2,,10,,,,61,og-post,,,,AAXX 12064 07207 /1456 82843 10104 20082 39894 49945 53018 60102 76186 887// 222// 326// 333 10136 20087 60027 91062 91172 92456=
07207,1999-12-12 07:00:00,10.2,997.7,5,83,7.4,,72.228,125.936,107.416,290,,,,,,,,,,,og-post,,,,AAXX 12074 07207 26/// /2939 10102 20074 39926 49977 53050 333 69905 91058 91168=
07207,1999-12-12 08:00:00,10.2,999.6,7.2,78,6.5,,68.524,111.12,107.416,290,,,,,,,,,,,og-post,,,,AAXX 12084 07207 26/// /2937 10102 20065 39945 49996 53072 333 69905 91058 91160=
07207,1999-12-12 09:00:00,10.5,1001.7,7.5,77,6.6,6000,57.412,125.936,94.452,290,,,,0.2,,,,,,21,og-post,,,,AAXX 12094 07207 21456 72931 10105 20066 39966 40017 51075 72162 877// 222// 326// 333 69927 91051 91168 92456=
07207,1999-12-12 10:00:00,10.9,1003.9,6,70,5.7,,57.412,96.304,90.748,290,,,,,,,,,,,og-post,,,,AAXX 12104 07207 36/// /2931 10109 20057 39987 40039 51060 333 91049 91152=
07207,1999-12-12 11:00:00,10.4,1005.9,5.7,77,6.5,,46.3,96.304,79.636,290,,,0.2,,,,,,,,og-post,,,,AAXX 12114 07207 26/// /2925 10104 20065 30007 40059 53057 333 69925 91043 91152=
07207,1999-12-12 12:00:00,10.7,1006.5,4.4,69,5.3,8000,50.004,125.936,90.748,290,,,,0.8,1,,,,,27,og-post,,,,AAXX 12124 07207 /1458 62927 10107 20053 30013 40065 51044 60011 72786 86302 222// 326// 333 69987 91049 91168 92456=
07207,1999-12-12 13:00:00,10.8,1007.8,3.8,68,5.1,,50.004,94.452,87.044,290,,,,,,,,,,,og-post,,,,AAXX 12134 07207 36/// /2927 10108 20051 30026 40078 51038 333 91047 91151=
07207,1999-12-12 14:00:00,10.7,1008.8,2.9,68,5,,42.596,75.932,72.228,290,,,,,,,,,,,og-post,,,,AAXX 12144 07207 36/// /2923 10107 20050 30036 40088 53029 333 91039 91141=
07207,1999-12-12 15:00:00,10.5,1009.6,3,68,4.9,8000,50.004,94.452,83.34,290,,,,,,,,,,15,og-post,,,,AAXX 12154 07207 31458 62927 10105 20049 30044 40096 51030 71582 86900 222// 326// 333 91045 91151 92457=
07207,1999-12-12 16:00:00,10.4,1010.7,2.5,67,4.5,,46.3,87.044,75.932,290,,,0.2,,,,,,,,og-post,,,,AAXX 12164 07207 26/// /2925 10104 20045 30055 40107 51025 333 69925 91041 91147=
07207,1999-12-12 17:00:00,10.4,1011.5,1.9,66,4.3,,46.3,94.452,83.34,290,,,,,,,,,,,og-post,,,,AAXX 12174 07207 36/// /2925 10104 20043 30063 40115 51019 333 91045 91151=
07207,1999-12-12 18:00:00,8.6,1012.9,3.4,80,5.4,8000,46.3,100.008,87.044,290,6.6,11.5,,0.8,,2,,,,25,og-post,,,,AAXX 12184 07207 /1458 62925 10086 20054 30077 40129 53034 60022 72582 86900 222// 326// 333 10115 20066 69987 91047 91154 92457=
07207,1999-12-12 19:00:00,8.7,1013.7,3.4,81,5.6,,35.188,83.34,61.116,290,,,0.2,,,,,,,,og-post,,,,AAXX 12194 07207 26/// /2919 10087 20056 30085 40137 51034 333 69925 91033 91145=
07207,1999-12-12 20:00:00,9.6,1014.1,2.9,67,3.8,,42.596,79.636,79.636,290,,,,,,,,,,,og-post,,,,AAXX 12204 07207 36/// /2923 10096 20038 30089 40141 51029 333 91043 91143=
07207,1999-12-12 21:00:00,9.4,1015,1.9,73,4.8,8000,31.484,90.748,53.708,300,,,,0.2,,,,,,2,og-post,,,,AAXX 12214 07207 21458 53017 10094 20048 30098 40150 51019 70282 85900 222// 326// 333 69927 91029 91149 92457=
07207,1999-12-12 22:00:00,10.2,1015.2,1.5,68,4.6,,35.188,83.34,64.82,290,,,,,,,,,,,og-post,,,,AAXX 12224 07207 36/// /2919 10102 20046 30100 40152 51015 333 91035 91145=
07207,1999-12-12 23:00:00,10.1,1016,1.5,67,4.3,,35.188,75.932,64.82,300,,,,,,,,,,,og-post,,,,AAXX 12234 07207 36/// /3019 10101 20043 30108 40160 51015 333 91035 91141=
07207,1999-12-13 00:00:00,10.4,1016.1,1.1,68,4.8,,31.484,90.748,61.116,290,,,,,0.2,,,,,,og-post,,,,AAXX 13004 07207 16/// /2917 10104 20048 30109 40161 51011 69921 333 91033 91149=
07207,1999-12-13 01:00:00,10.3,1016.2,0.8,66,4.2,,42.596,68.524,,290,,,,,,,,,,,og-post,,,,AAXX 13014 07207 36/// /2923 10103 20042 30110 40162 51008 333 91137=
07207,1999-12-13 02:00:00,10.3,1016.5,0.6,72,5.5,,38.892,64.82,64.82,280,,,,,,,,,,,og-post,,,,AAXX 13024 07207 36/// /2821 10103 20055 30113 40165 53006 333 91035 91135=
07207,1999-12-13 03:00:00,9.9,1016.5,0.3,77,6.1,,31.484,68.524,61.116,280,,,,,,,,,,,og-post,,,,AAXX 13034 07207 36/// /2817 10099 20061 30113 40165 52003 333 91033 91137=
07207,1999-12-13 04:00:00,8.9,1016.2,-0.1,77,5.1,,18.52,,,290,,,0.4,,,,,,,,og-post,,,,AAXX 13044 07207 26/// /2910 10089 20051 30109 40162 58001 333 69945=
07207,1999-12-13 05:00:00,10.6,1,,76,6.6,,35.188,,,280,,,,,,,,,,,og-post,,,,AAXX 13054 07207 26/// /2819 10106 20066 30102=
07207,1999-12-13 06:00:00,10.4,1015.1,-1.4,77,6.5,15000,31.484,68.524,53.708,280,7.9,10.7,,0.8,,1,,,,2,og-post,,,,AAXX 13064 07207 /1565 52817 10104 20065 30099 40151 56014 60012 70282 85200 222// 326// 333 10107 20079 69987 91029 91137 92457=
07207,1999-12-13 07:00:00,10.3,1014.8,-1.4,74,5.9,,31.484,57.412,,280,,,,,,,,,,,og-post,,,,AAXX 13074 07207 36/// /2817 10103 20059 30096 40148 56014 333 91131=
07207,1999-12-13 08:00:00,9.2,1014.9,-0.5,82,6.3,,38.892,72.228,72.228,280,,,0.6,,,,,,,,og-post,,,,AAXX 13084 07207 26/// /2821 10092 20063 30097 40149 56005 333 69965 91039 91139=
07207,1999-12-13 09:00:00,10.3,1014.6,-0.5,80,7,18000,29.632,72.228,,270,,,,1,,,,,,25,og-post,,,,AAXX 13094 07207 21468 72716 10103 20070 30094 40146 56005 72582 8622/ 222// 326// 333 60017 91139 92447=
07207,1999-12-13 10:00:00,10.9,1014.1,-0.7,79,7.4,,38.892,68.524,,270,,,,,,,,,,,og-post,,,,AAXX 13104 07207 36/// /2721 10109 20074 30089 40141 58007 333 91137=
07207,1999-12-13 11:00:00,11.4,1013.3,-1.5,76,7.3,,42.596,72.228,64.82,260,,,,,,,,,,,og-post,,,,AAXX 13114 07207 26/// /2623 10114 20073 30081 40133 58015 333 69905 91035 91139=
07207,1999-12-13 12:00:00,11.5,1012.3,-2.5,76,7.4,18000,46.3,75.932,75.932,260,,,,,1,,,,,25,og-post,,,,AAXX 13124 07207 /1568 82625 10115 20074 30071 40123 58025 60011 72582 8625/ 222// 326// 333 69907 91041 91141 92447=
07207,1999-12-13 13:00:00,11.5,1011.4,-2.8,77,7.6,,50.004,75.932,75.932,260,,,,,,,,,,,og-post,,,,AAXX 13134 07207 36/// /2627 10115 20076 30062 40114 57028 333 91041 91141=
07207,1999-12-13 15:00:00,11.6,1009.1,-3,80,8.3,12000,57.412,75.932,,260,,,,0.6,,,,,,25,og-post,,,,AAXX 13154 07207 21462 82631 10116 20083 30039 40091 56030 72582 8637/ 222// 326// 333 69967 91141 92447=
07207,1999-12-13 16:00:00,11.6,1008.8,-2.2,79,8.1,,53.708,83.34,79.636,270,,,,,,,,,,,og-post,,,,AAXX 13164 07207 36/// /2729 10116 20081 30036 40088 56022 333 91043 91145=
07207,1999-12-13 17:00:00,11.7,1008.2,-2.2,79,8.2,,50.004,75.932,75.932,270,,,,,,,,,,,og-post,,,,AAXX 13174 07207 36/// /2727 10117 20082 30030 40082 56022 333 91041 91141=
07207,1999-12-13 19:00:00,11.3,1007,-1.8,87,9.2,,42.596,79.636,64.82,270,,,,,,,,,,,og-post,,,,AAXX 13194 07207 36/// /2723 10113 20092 30018 40070 56018 333 91035 91143=
07207,1999-12-13 20:00:00,10.8,1006.6,-1.8,86,8.6,,53.708,75.932,75.932,260,,,,,,,,,,,og-post,,,,AAXX 13204 07207 36/// /2629 10108 20086 30014 40066 56018 333 91041 91141=
07207,1999-12-13 21:00:00,11.5,1005.6,-1.9,85,9.1,,46.3,79.636,75.932,270,,,,,,,,,,,og-post,,,,AAXX 13214 07207 36/// /2725 10115 20091 30005 40056 58019 333 91041 91143=
07207,1999-12-13 22:00:00,10.4,1005.3,-1.7,91,9,,46.3,87.044,68.524,290,,,0.4,,,,,,,,og-post,,,,AAXX 13224 07207 26/// /2925 10104 20090 30001 40053 56017 333 69945 91037 91147=
07207,1999-12-13 23:00:00,9.7,1005.2,-1.3,92,8.5,,31.484,75.932,53.708,290,,,0.8,,,,,,,,og-post,,,,AAXX 13234 07207 26/// /2917 10097 20085 30000 40052 55013 333 69985 91029 91141=
07207,1999-12-14 00:00:00,9.8,1004.9,-0.6,91,8.4,,29.632,87.044,,320,,,,2,2,,,,,,og-post,,,,AAXX 14004 07207 /6/// /3216 10098 20084 39997 40049 56006 60021 333 60027 91147=
07207,1999-12-14 01:00:00,9.6,1004.7,-0.5,89,7.9,,25.928,,,310,,,,,,,,,,,og-post,,,,AAXX 14014 07207 36/// /3114 10096 20079 39995 40047 58005=
07207,1999-12-14 02:00:00,9.2,1004.3,-1.1,84,6.6,,31.484,50.004,,300,,,,,,,,,,,og-post,,,,AAXX 14024 07207 36/// /3017 10092 20066 39991 40043 57011 333 91127=
07207,1999-12-14 03:00:00,10.1,1004.1,-0.8,79,6.6,12000,29.632,61.116,,320,,,,,,,,,,2,og-post,,,,AAXX 14034 07207 31462 83216 10101 20066 39989 40041 56008 70282 8627/ 222// 326// 333 91133 92447=
07207,1999-12-14 04:00:00,9.8,1004,-0.5,71,4.8,,25.928,,,300,,,,,,,,,,,og-post,,,,AAXX 14044 07207 36/// /3014 10098 20048 39988 40040 56005=
07207,1999-12-14 05:00:00,8.4,1004.2,-0,78,4.8,,29.632,53.708,,330,,,,,,,,,,,og-post,,,,AAXX 14054 07207 36/// /3316 10084 20048 39990 40042 55000 333 91129=
07207,1999-12-14 06:00:00,8.3,1004.4,0.3,77,4.5,20000,29.632,61.116,,330,8,11.9,,,,2,,,,,og-post,,,,AAXX 14064 07207 12470 83316 10083 20045 39992 40044 53003 60022 8327/ 222// 326// 333 10119 20080 91133 92448=
07207,1999-12-14 07:00:00,8.8,1004.4,0.5,71,3.8,,25.928,,,320,,,,,,,,,,,og-post,,,,AAXX 14074 07207 36/// /3214 10088 20038 39992 40044 51005=
07207,1999-12-14 08:00:00,8.4,1004.8,0.4,71,3.5,,35.188,,57.412,330,,,,,,,,,,,og-post,,,,AAXX 14084 07207 36/// /3319 10084 20035 39996 40048 52004 333 91031=
07207,1999-12-14 09:00:00,8.6,1005.1,0.6,70,3.4,20000,25.928,,,320,,,,,,,,,,,og-post,,,,AAXX 14094 07207 32470 73214 10086 20034 39999 40051 53006 85276 222// 326// 333 92438=
07207,1999-12-14 10:00:00,8.6,1005.3,0.8,62,1.7,,29.632,,,330,,,,,,,,,,,og-post,,,,AAXX 14104 07207 36/// /3316 10086 20017 30001 40053 51008=
07207,1999-12-14 11:00:00,8.7,1005.2,0.4,63,2.1,,22.224,,,320,,,,,,,,,,,og-post,,,,AAXX 14114 07207 36/// /3212 10087 20021 30000 40052 50004=
07207,1999-12-14 12:00:00,8.5,1004.8,-0.4,64,2.1,20000,25.928,,,320,,,,,,,,,,,og-post,,,,AAXX 14124 07207 32470 63214 10085 20021 39996 40048 58004 85276 222// 326// 333 92438=
07207,1999-12-14 13:00:00,8.6,1004.7,-0.7,62,1.7,,22.224,,,330,,,,,,,,,,,og-post,,,,AAXX 14134 07207 36/// /3312 10086 20017 39995 40047 56007=
07207,1999-12-14 14:00:00,8.4,1004.5,-0.6,65,2.2,,22.224,,,340,,,,,,,,,,,og-post,,,,AAXX 14144 07207 36/// /3412 10084 20022 39993 40045 56006=
07207,1999-12-14 15:00:00,7,1004.7,-0,79,3.6,20000,11.112,,,270,,,,1,,,,,,,og-post,,,,AAXX 14154 07207 22470 62706 10070 20036 39995 40047 55000 85276 222// 326// 333 60017 92438=
07207,1999-12-14 16:00:00,6.5,1004.7,0.1,82,3.7,,14.816,,,10,,,0.6,,,,,,,,og-post,,,,AAXX 14164 07207 26/// /0108 10065 20037 39995 40047 52001 333 69965=
07207,1999-12-14 17:00:00,7.1,1005,0.4,80,3.9,,11.112,,,330,,,0.4,,,,,,,,og-post,,,,AAXX 14174 07207 26/// /3306 10071 20039 39998 40050 51004 333 69945=
07207,1999-12-14 19:00:00,5.9,1006.1,1.2,81,2.9,,14.816,,,310,,,,,,,,,,,og-post,,,,AAXX 14194 07207 36/// /3108 10059 20029 30008 40061 53012=
07207,1999-12-14 20:00:00,5.9,1006.3,1.1,81,2.9,,14.816,,,340,,,,,,,,,,,og-post,,,,AAXX 14204 07207 36/// /3408 10059 20029 30010 40063 53011=
07207,1999-12-14 21:00:00,4.4,1006.6,1.4,82,1.6,20000,18.52,,,10,,,,,,,,,,,og-post,,,,AAXX 14214 07207 32570 10110 10044 20016 30013 40066 51014 81200 222// 326// 333 92438=
07207,1999-12-14 22:00:00,3.9,1006.9,0.8,84,1.4,,11.112,,,350,,,,,,,,,,,og-post,,,,AAXX 14224 07207 36/// /3506 10039 20014 30016 40069 53008=
07207,1999-12-14 23:00:00,4,1007.2,1,84,1.5,,18.52,,,10,,,,,,,,,,,og-post,,,,AAXX 14234 07207 36/// /0110 10040 20015 30019 40072 53010=
07207,1999-12-15 00:00:00,4,1007.7,1.1,83,1.4,,18.52,,,10,,,,,,,,,,,og-post,,,,AAXX 15004 07207 36/// /0110 10040 20014 30024 40077 53011=
07207,1999-12-15 01:00:00,4.2,1007.6,0.7,84,1.7,,18.52,,,350,,,,,,,,,,,og-post,,,,AAXX 15014 07207 36/// /3510 10042 20017 30023 40076 50007=
07207,1999-12-15 02:00:00,4.2,1007.9,0.5,83,1.6,,18.52,,,10,,,,,,,,,,,og-post,,,,AAXX 15024 07207 36/// /0110 10042 20016 30026 40079 51005=
07207,1999-12-15 03:00:00,4.4,1008.4,0.6,81,1.4,20000,18.52,,,360,,,,,,,,,,,og-post,,,,AAXX 15034 07207 32970 03610 10044 20014 30031 40084 53006 222// 326// 333 92438=
07207,1999-12-15 04:00:00,5.5,1008.8,1.2,76,1.6,,25.928,,,20,,,,,,,,,,,og-post,,,,AAXX 15044 07207 36/// /0214 10055 20016 30035 40088 53012=
07207,1999-12-15 05:00:00,4.4,1009.8,1.9,84,1.9,,29.632,53.708,,10,,,,,,,,,,,og-post,,,,AAXX 15054 07207 36/// /0116 10044 20019 30045 40098 53019 333 91129=
07207,1999-12-15 06:00:00,4.3,1009.9,1.6,84,1.8,20000,22.224,53.708,,10,,,,,,,,,,,og-post,,,,AAXX 15064 07207 32570 20112 10043 20018 30046 40099 51016 82200 222// 326// 333 10070 20038 91129 92438=
07207,1999-12-15 07:00:00,3.8,1010.6,2.2,86,1.7,,31.484,,,20,,,,,,,,,,,og-post,,,,AAXX 15074 07207 36/// /0217 10038 20017 30053 40106 51022=
07207,1999-12-15 08:00:00,3.1,1012.2,2.2,88,1.3,,31.484,,,20,,,,,,,,,,,og-post,,,,AAXX 15084 07207 36/// /0217 10031 20013 30069 40122 53022=
07207,1999-12-15 09:00:00,3.8,1013.9,4,88,2,20000,29.632,,,20,,,,,,,,,,,og-post,,,,AAXX 15094 07207 32570 30216 10038 20020 30086 40139 53040 83230 222// 326// 333 92438=
07207,1999-12-15 12:00:00,6.8,1017,2.9,73,2.3,20000,35.188,57.412,,20,,,,,,,,,,,og-post,,,,AAXX 15124 07207 32570 30219 10068 20023 30117 40170 51029 83300 222// 326// 333 91131 92438=
07207,1999-12-15 13:00:00,6.8,1017.4,2,73,2.3,,35.188,,53.708,20,,,,,,,,,,,og-post,,,,AAXX 15134 07207 36/// /0219 10068 20023 30121 40174 51020 333 91029=
07207,1999-12-15 14:00:00,6.3,1018.2,1.8,65,0.2,,35.188,,57.412,30,,,,,,,,,,,og-post,,,,AAXX 15144 07207 36/// /0319 10063 20002 30129 40182 53018 333 91031=
07207,1999-12-15 15:00:00,6.3,1018.9,2,59,-1.1,30000,42.596,68.524,,20,,,,,,,,,,,og-post,,,,AAXX 15154 07207 32580 40223 10063 21011 30136 40189 53020 84200 222// 326// 333 91137 92438=
07207,1999-12-15 16:00:00,5.3,1020.1,2.8,68,-0.1,,42.596,79.636,64.82,20,,,,,,,,,,,og-post,,,,AAXX 15164 07207 36/// /0223 10053 21001 30148 40201 53028 333 91035 91143=
07207,1999-12-15 18:00:00,5,1022.9,3.8,70,0,20000,35.188,79.636,,20,,,,,,,,,,,og-post,,,,AAXX 15184 07207 32570 40219 10050 20000 30175 40229 51038 84200 222// 326// 333 10070 20030 91143 92438=
07207,1999-12-15 19:00:00,5,1024.1,3.8,71,0.2,,31.484,64.82,,20,,,,,,,,,,,og-post,,,,AAXX 15194 07207 36/// /0217 10050 20002 30187 40241 51038 333 91135=
07207,1999-12-15 20:00:00,4.5,1024.6,3,75,0.5,,29.632,,,20,,,,,,,,,,,og-post,,,,AAXX 15204 07207 36/// /0216 10045 20005 30192 40246 51030=
07207,1999-12-15 21:00:00,4.4,1025.5,2.6,76,0.6,20000,31.484,64.82,,10,,,,,,,,,,,og-post,,,,AAXX 15214 07207 32570 30117 10044 20006 30201 40255 51026 83200 222// 326// 333 91135 92438=
07207,1999-12-15 22:00:00,5,1025.8,1.7,75,0.9,,31.484,50.004,,360,,,,,,,,,,,og-post,,,,AAXX 15224 07207 36/// /3617 10050 20009 30204 40258 51017 333 91127=
07207,1999-12-15 23:00:00,5.1,1026.3,1.7,74,0.9,,29.632,,,10,,,,,,,,,,,og-post,,,,AAXX 15234 07207 36/// /0116 10051 20009 30209 40263 51017 33391127=
07207,1999-12-16 00:00:00,5.2,1026.9,1.5,71,0.4,,31.484,64.82,,10,,,,,,,,,,,og-post,,,,AAXX 16004 07207 36/// /0117 10052 20004 30215 40269 53015 333 91135=
07207,1999-12-16 01:00:00,5.2,1026.8,1.1,70,0.2,,31.484,57.412,53.708,10,,,,,,,,,,,og-post,,,,AAXX 16014 07207 36/// /0117 10052 20002 30214 40268 50011 333 91029 91131=
07207,1999-12-16 02:00:00,5.1,1027.3,0.9,69,-0.1,,31.484,,,10,,,,,,,,,,,og-post,,,,AAXX 16024 07207 36/// /0117 10051 21001 30219 40273 51009=
07207,1999-12-16 03:00:00,5.2,1027.6,0.6,67,-0.4,20000,31.484,57.412,,10,,,,,,,,,,,og-post,,,,AAXX 16034 07207 32570 10117 10052 21004 30222 40276 53006 81200 222// 326// 333 91131 92438=
07207,1999-12-16 04:00:00,5.2,1027.9,1,69,0,,29.632,57.412,,10,,,,,,,,,,,og-post,,,,AAXX 16044 07207 36/// /0116 10052 20000 30225 40279 51010 333 91131=
07207,1999-12-16 05:00:00,5.6,1028.3,0.9,70,0.6,,31.484,,,10,,,,,,,,,,,og-post,,,,AAXX 16054 07207 36/// /0117 10056 20006 30229 40283 52009=
07207,1999-12-16 06:00:00,5.7,1028.5,1,72,1.1,20000,25.928,57.412,,10,4.1,5.7,,,,,,,,,og-post,,,,AAXX 16064 07207 32970 00114 10057 20011 30231 40285 53010 222// 326// 333 10057 20041 91131 92438=
07207,1999-12-16 07:00:00,5.4,1029.1,1.2,76,1.5,,18.52,,,10,,,,,,,,,,,og-post,,,,AAXX 16074 07207 36/// /0110 10054 20015 30237 40291 53012=
07207,1999-12-16 08:00:00,6.6,1029.4,1.2,77,2.9,,35.188,53.708,,350,,,,,,,,,,,og-post,,,,AAXX 16084 07207 36/// /3519 10066 20029 30240 40294 51012 333 91129=
07207,1999-12-16 09:00:00,6.8,1029.9,1.3,78,3.2,25000,29.632,53.708,,350,,,,,,,,,,,og-post,,,,AAXX 16094 07207 32575 43516 10068 20032 30245 40299 52013 84230 222// 300// 333 91129 92425=
07207,1999-12-16 10:00:00,8.1,1030.3,1.3,76,4.1,,29.632,,,340,,,,,,,,,,,og-post,,,,AAXX 16104 07207 36/// /3416 10081 20041 30250 40303 53013=
07207,1999-12-16 11:00:00,8.4,1030.5,1.1,72,3.7,,35.188,,,350,,,,,,,,,,,og-post,,,,AAXX 16114 07207 36/// /3519 10084 20037 30252 40305 51011=
07207,1999-12-16 12:00:00,8.8,1030.2,0.4,73,4.2,30000,29.632,57.412,,350,,,,,,,,,,,og-post,,,,AAXX 16124 07207 32580 43516 10088 20042 30249 40302 50004 83230 222// 300// 333 91131 92428=
07207,1999-12-16 13:00:00,8.9,1030.3,-0.1,74,4.5,,29.632,,,350,,,,,,,,,,,og-post,,,,AAXX 16134 07207 36/// /3516 10089 20045 30250 40303 55001=
07207,1999-12-16 14:00:00,9.3,1030.1,-0.2,71,4.3,,29.632,,,360,,,,,,,,,,,og-post,,,,AAXX 16144 07207 36/// /3616 10093 20043 30248 40301 56002=
07207,1999-12-16 15:00:00,9.1,1030.1,-0,71,4.1,30000,25.928,,,10,,,,,,,,,,,og-post,,,,AAXX 16154 07207 32580 50114 10091 20041 30248 40301 54000 84231 222// 327// 333 92428=
07207,1999-12-16 16:00:00,8,1030.6,0.4,74,3.7,,18.52,,,10,,,,,,,,,,,og-post,,,,AAXX 16164 07207 36/// /0110 10080 20037 30253 40306 53004=
07207,1999-12-16 17:00:00,6.7,1031.4,1.1,78,3.1,,14.816,,,10,,,,,,,,,,,og-post,,,,AAXX 16174 07207 36/// /0108 10067 20031 30260 40314 53011=
07207,1999-12-16 18:00:00,6.6,1031.6,1.3,80,3.4,30000,18.52,,,10,5.1,9.6,,,,,,,,,og-post,,,,AAXX 16184 07207 32580 40110 10066 20034 30262 40316 51013 84201 222// 327// 333 10096 20051 92428=
07207,1999-12-16 19:00:00,6.4,1032.1,1.2,80,3.2,,18.52,,,10,,,,,,,,,,,og-post,,,,AAXX 16194 07207 36/// /0110 10064 20032 30267 40321 51012=
07207,1999-12-16 20:00:00,6.3,1032.4,1.1,81,3.3,,14.816,,,10,,,,,,,,,,,og-post,,,,AAXX 16204 07207 36/// /0108 10063 20033 30270 40324 52011=
07207,1999-12-16 21:00:00,6.5,1032.5,0.9,81,3.5,25000,14.816,,,10,,,,,,,,,,,og-post,,,,AAXX 16214 07207 32575 70108 10065 20035 30271 40325 51009 8721/ 222// 327// 333 92428=
07207,1999-12-16 22:00:00,6.3,1032.1,0,80,3.1,,11.112,,,360,,,,,,,,,,,og-post,,,,AAXX 16224 07207 36/// /3606 10063 20031 30267 40321 50000=
07207,1999-12-16 23:00:00,7,1031.8,-0.5,80,3.8,,11.112,,,340,,,,,,,,,,,og-post,,,,AAXX 16234 07207 36/// /3406 10070 20038 30264 40318 58005=
07207,1999-12-17 00:00:00,7.6,1031.6,-1,76,3.6,,14.816,,,340,,,,,,,,,,,og-post,,,,AAXX 17004 07207 36/// /3408 10076 20036 30262 40316 56010=
07207,1999-12-17 01:00:00,7.7,1031,-1.2,75,3.6,,11.112,,,320,,,,,,,,,,,og-post,,,,AAXX 17014 07207 36/// /3206 10077 20036 30256 40310 58012=
07207,1999-12-17 02:00:00,9.3,1030.3,-1.5,70,4.1,,18.52,,,280,,,,,,,,,,,og-post,,,,AAXX 17024 07207 36/// /2810 10093 20041 30250 40303 58015=
07207,1999-12-17 03:00:00,9.6,1029.7,-1.8,65,3.4,25000,25.928,,,270,,,,,,,,,,,og-post,,,,AAXX 17034 07207 32575 72714 10096 20034 30244 40297 58018 878// 222// 327// 333 92438=
07207,1999-12-17 04:00:00,9.6,1029.3,-1.7,65,3.4,,29.632,,,280,,,,,,,,,,,og-post,,,,AAXX 17044 07207 36/// /2816 10096 20034 30240 40293 58017=
07207,1999-12-17 05:00:00,10,1028.3,-1.9,68,4.4,,31.484,50.004,,280,,,,,,,,,,,og-post,,,,AAXX 17054 07207 36/// /2817 10100 20044 30230 40283 58019 333 91127=
07207,1999-12-17 06:00:00,10,1027.7,-2,69,4.6,25000,31.484,,,280,6,10.1,,,,,,,,,og-post,,,,AAXX 17064 07207 32675 62817 10100 20046 30224 40277 57020 86500 222// 327// 333 10101 20060 92438=
07207,1999-12-17 07:00:00,10.3,1027.3,-1.8,71,5.3,,42.596,,61.116,270,,,,,,,,,,,og-post,,,,AAXX 17074 07207 36/// /2723 10103 20053 30220 40273 56018 333 91033=
07207,1999-12-17 08:00:00,10.3,1026.8,-1.5,73,5.7,,38.892,64.82,64.82,270,,,,,,,,,,,og-post,,,,AAXX 17084 07207 36/// /2721 10103 20057 30215 40268 56015 333 91035 91135=
07207,1999-12-17 09:00:00,10.8,1026.3,-1.3,72,6,15000,42.596,68.524,68.524,270,,,,,,,,,,,og-post,,,,AAXX 17094 07207 32665 82723 10108 20060 30210 40263 58013 88500 222// 327// 333 91037 91137 92437=
07207,1999-12-17 10:00:00,10.7,1026,-1.5,78,7,,50.004,75.932,72.228,270,,,,,,,,,,,og-post,,,,AAXX 17104 07207 36/// /2727 10107 20070 30207 40260 57015 333 91039 91141=
07207,1999-12-17 11:00:00,10.4,1025.4,-1.5,84,7.8,,50.004,75.932,72.228,260,,,,,,,,,,,og-post,,,,AAXX 17114 07207 36/// /2627 10104 20078 30201 40254 58015 333 91039 91141=
07207,1999-12-17 12:00:00,10.5,1024.4,-2,88,8.6,8000,53.708,75.932,75.932,260,,,,0.4,0.4,,,,,60,og-post,,,,AAXX 17124 07207 /1458 82629 10105 20086 30191 40244 58020 69941 76062 887// 222// 327// 333 69947 91041 91141 92446=
07207,1999-12-17 13:00:00,10.4,1023,-3,92,9.2,,57.412,87.044,87.044,260,,,,,,,,,,,og-post,,,,AAXX 17134 07207 26/// /2631 10104 20092 30177 40230 58030 333 69905 91047 91147=
07207,1999-12-17 14:00:00,10.5,1022,-3.1,94,9.6,,50.004,75.932,75.932,270,,,0.2,,,,,,,,og-post,,,,AAXX 17144 07207 26/// /2727 10105 20096 30168 40220 58031 333 69925 91041 91141=
07207,1999-12-17 15:00:00,10.9,1022,-2.4,95,10.1,6000,50.004,87.044,72.228,270,,,,0.2,,,,,,2,og-post,,,,AAXX 17154 07207 21456 82727 10109 20101 30168 40220 56024 70262 887// 222// 326// 333 69927 91039 91147 92446=
07207,1999-12-17 16:00:00,11.2,1021.5,-1.5,95,10.4,,46.3,79.636,68.524,270,,,0.2,,,,,,,,og-post,,,,AAXX 17164 07207 26/// /2725 10112 20104 30163 40215 56015 333 69925 91037 91143=
07207,1999-12-17 17:00:00,11.3,1020.9,-1.4,96,10.7,,42.596,75.932,,270,,,0.2,,,,,,,,og-post,,,,AAXX 17174 07207 26/// /2723 10113 20107 30157 40209 58014 333 69925 91141=
07207,1999-12-17 18:00:00,11.5,1020.8,-1.1,96,10.9,4000,42.596,87.044,,270,10,11.5,,1,,2,,,,2,og-post,,,,AAXX 17184 07207 /1440 82723 10115 20109 30156 40208 56011 60022 70262 887// 222// 326// 333 10115 20100 60017 91147 92446=
07207,1999-12-17 19:00:00,11.7,1020.7,-0.8,97,11.2,,38.892,64.82,61.116,270,,,0.2,,,,,,,,og-post,,,,AAXX 17194 07207 26/// /2721 10117 20112 30155 40207 56008 333 69925 91033 91135=
07207,1999-12-17 21:00:00,11.9,1020.5,-0,97,11.4,6000,42.596,64.82,,280,,,,2,,,,,,62,og-post,,,,AAXX 17214 07207 21456 82823 10119 20114 30153 40205 55000 76262 887// 222// 326// 333 60027 91135 92446=
07207,1999-12-17 22:00:00,11.9,1020.5,0.1,97,11.4,,42.596,,64.82,280,,,1,,,,,,,,og-post,,,,AAXX 17224 07207 26/// /2823 10119 20114 30153 40205 53001 333 60015 91035=
07207,1999-12-17 23:00:00,11.9,1020.4,0.1,97,11.4,,42.596,64.82,64.82,290,,,0.8,,,,,,,,og-post,,,,AAXX 17234 07207 26/// /2923 10119 20114 30152 40204 50001 333 69985 91035 91135=
07207,1999-12-18 00:00:00,12,1020.4,-0.3,98,11.7,,42.596,64.82,,290,,,,2,4,,,,,,og-post,,,,AAXX 18004 07207 /6/// /2923 10120 20117 30152 40204 56003 60041 333 60027 91135=
07207,1999-12-18 01:00:00,11.9,1020.1,-0.2,98,11.6,,38.892,64.82,,290,,,0.4,,,,,,,,og-post,,,,AAXX 18014 07207 26/// /2921 10119 20116 30149 40201 57002 333 69945 91135=
07207,1999-12-18 02:00:00,12,1020,-0.6,98,11.7,,38.892,90.748,90.748,290,,,0.2,,,,,,,,og-post,,,,AAXX 18024 07207 26/// /2921 10120 20117 30148 40200 58006 333 69925 91049 91149=
07207,1999-12-18 03:00:00,12,1019.5,-0.9,98,11.7,,38.892,90.748,,280,,,,0.8,,,,,,,og-post,,,,AAXX 18034 07207 26/// /2821 10120 20117 30143 40195 58009 333 69987 91149=
07207,1999-12-18 04:00:00,12.3,1018.9,-1.4,97,11.8,,42.596,64.82,64.82,280,,,0.2,,,,,,,,og-post,,,,AAXX 18044 07207 26/// /2823 10123 20118 30137 40189 58014 333 69925 91035 91135=
07207,1999-12-18 05:00:00,12.3,1018.6,-1.3,96,11.7,,46.3,68.524,68.524,280,,,0.2,,,,,,,,og-post,,,,AAXX 18054 07207 26/// /2825 10123 20117 30134 40186 56013 333 69925 91037 91137=
07207,1999-12-18 06:00:00,12.4,1018.7,-0.7,96,11.8,4000,46.3,90.748,,280,11.5,12.4,,0.6,,6,,,,21,og-post,,,,AAXX 18064 07207 /1440 82825 10124 20118 30135 40187 56007 60062 72162 887// 222// 326// 333 10124 20115 69967 91149 92446=
07207,1999-12-18 07:00:00,12.5,1018.9,-0,95,11.7,,46.3,75.932,,280,,,,,,,,,,,og-post,,,,AAXX 18074 07207 36/// /2825 10125 20117 30137 40189 55000 333 91141=
07207,1999-12-18 08:00:00,12.3,1018.9,0.2,96,11.7,,50.004,,68.524,280,,,0.2,,,,,,,,og-post,,,,AAXX 18084 07207 26/// /2827 10123 20117 30137 40189 53002 333 69925 91037=
07207,1999-12-18 09:00:00,12.3,1019.4,0.6,97,11.8,3000,46.3,75.932,68.524,280,,,,0.2,,,,,,60,og-post,,,,AAXX 18094 07207 21430 82825 10123 20118 30142 40194 53006 76062 887// 222// 326// 333 69927 91037 91141 92445=
07207,1999-12-18 10:00:00,12.3,1019.6,0.7,97,11.8,,46.3,72.228,68.524,280,,,,,,,,,,,og-post,,,,AAXX 18104 07207 26/// /2825 10123 20118 30144 40196 53007 333 69905 91037 91139=
07207,1999-12-18 11:00:00,12.4,1019.7,0.6,97,11.9,,50.004,68.524,,280,,,,,,,,,,,og-post,,,,AAXX 18114 07207 26/// /2827 10124 20119 30145 40197 50006 333 69905 91137=
07207,1999-12-18 12:00:00,12.5,1019.2,-0.1,97,12,4000,46.3,96.304,,280,,,,,0.2,,,,,10,og-post,,,,AAXX 18124 07207 /1440 82825 10125 20120 30140 40192 58001 69921 71062 887// 222// 326// 333 69907 91152 92446=
07207,1999-12-18 13:00:00,12.4,1018.9,-0.9,96,11.8,,46.3,68.524,,280,,,,,,,,,,,og-post,,,,AAXX 18134 07207 36/// /2825 10124 20118 30137 40189 58009 333 91137=
07207,1999-12-18 14:00:00,12.4,1018.3,-0.8,97,11.9,,46.3,64.82,,280,,,,,,,,,,,og-post,,,,AAXX 18144 07207 36/// /2825 10124 20119 30131 40183 56008 333 91135=
07207,1999-12-18 15:00:00,12.3,1018.4,-0.8,96,11.7,3000,50.004,75.932,72.228,280,,,,,,,,,,10,og-post,,,,AAXX 18154 07207 31430 82827 10123 20117 30132 40184 55008 71022 886// 222// 326// 333 91039 91141 92445=
07207,1999-12-18 16:00:00,12.3,1018.2,-0.3,96,11.7,,46.3,75.932,68.524,280,,,,,,,,,,,og-post,,,,AAXX 18164 07207 36/// /2825 10123 20117 30130 40182 55003 333 91037 91141=
07207,1999-12-18 17:00:00,12.4,1018.4,0.1,94,11.5,,42.596,72.228,,280,,,,,,,,,,,og-post,,,,AAXX 18174 07207 36/// /2823 10124 20115 30132 40184 50001 333 91139=
07207,1999-12-18 18:00:00,12.6,1018.1,-0.3,92,11.3,5000,42.596,75.932,,270,12.2,12.6,,,,0.2,,,,,og-post,,,,AAXX 18184 07207 12450 82723 10126 20113 30129 40181 58003 69922 886// 222// 326// 333 10126 20122 91141 92446=
07207,1999-12-18 19:00:00,12.5,1018,-0.6,92,11.2,,42.596,68.524,,270,,,,,,,,,,,og-post,,,,AAXX 18194 07207 36/// /2723 10125 20112 30128 40180 56006 333 91137=
07207,1999-12-18 20:00:00,12.6,1017.2,-1.2,92,11.3,,50.004,75.932,75.932,260,,,,,,,,,,,og-post,,,,AAXX 18204 07207 36/// /2627 10126 20113 30120 40172 58012 333 91041 91141=
07207,1999-12-18 21:00:00,12.6,1016.2,-1.8,92,11.3,,53.708,79.636,75.932,260,,,,,,,,,,,og-post,,,,AAXX 18214 07207 36/// /2629 10126 20113 30110 40162 58018 333 91041 91143=
07207,1999-12-18 22:00:00,12.1,1015.4,-2.5,96,11.5,,53.708,83.34,,260,,,0.4,,,,,,,,og-post,,,,AAXX 18224 07207 26/// /2629 10121 20115 30102 40154 58025 333 69945 91145=
07207,1999-12-18 23:00:00,12.4,1015.2,-2.3,97,11.9,,50.004,83.34,72.228,270,,,0.4,,,,,,,,og-post,,,,AAXX 18234 07207 26/// /2727 10124 20119 30100 40152 56023 333 69945 91039 91145=
07207,1999-12-19 00:00:00,12.4,1014.5,-1.8,97,11.9,,46.3,83.34,,270,,,,0.8,0.8,,,,,,og-post,,,,AAXX 19004 07207 /6/// /2725 10124 20119 30093 40145 57018 69981 333 69987 91145=
07207,1999-12-19 01:00:00,12.5,1013.4,-2,97,12,,42.596,68.524,64.82,270,,,,,,,,,,,og-post,,,,AAXX 19014 07207 36/// /2723 10125 20120 30082 40134 58020 333 91035 91137=
07207,1999-12-19 02:00:00,12.7,1012.9,-2.1,97,12.2,,46.3,72.228,68.524,280,,,,,,,,,,,og-post,,,,AAXX 19024 07207 36/// /2825 10127 20122 30077 40129 56021 333 91037 91139=
07207,1999-12-19 03:00:00,12.4,1012.5,-1.9,97,11.9,,42.596,72.228,,280,,,,0.2,,,,,,,og-post,,,,AAXX 19034 07207 26/// /2823 10124 20119 30073 40125 56019 333 69927 91139=
07207,1999-12-19 04:00:00,12.2,1012.1,-1.3,96,11.6,,46.3,75.932,72.228,290,,,,,,,,,,,og-post,,,,AAXX 19044 07207 36/// /2925 10122 20116 30069 40121 58013 333 91039 91141=
07207,1999-12-19 05:00:00,12.1,1012,-1.1,91,10.7,,31.484,72.228,61.116,290,,,,,,,,,,,og-post,,,,AAXX 19054 07207 36/// /2917 10121 20107 30068 40120 56011 333 91033 91139=
07207,1999-12-19 06:00:00,11.3,1012.3,-0.3,92,10,15000,25.928,75.932,,300,11.1,12.8,,,,1,,,,2,og-post,,,,AAXX 19064 07207 11465 73014 10113 20100 30071 40123 55003 60012 70262 876// 222// 326// 333 10128 20111 91141 92447=
07207,1999-12-19 07:00:00,10.7,1012.6,0.6,95,9.9,,31.484,53.708,,320,,,0.2,,,,,,,,og-post,,,,AAXX 19074 07207 26/// /3217 10107 20099 30074 40126 53006 333 69925 91129=
07207,1999-12-19 08:00:00,10.4,1013.9,1.9,92,9.2,,31.484,,57.412,360,,,,,,,,,,,og-post,,,,AAXX 19084 07207 36/// /3617 10104 20092 30087 40139 53019 333 91031=
07207,1999-12-19 09:00:00,7.7,1016,3.7,90,6.2,12000,42.596,64.82,61.116,20,,,,0.2,,,,,,2,og-post,,,,AAXX 19094 07207 21562 80223 10077 20062 30107 40160 53037 70262 885// 222// 326// 333 69927 91033 91135 92447=
07207,1999-12-19 10:00:00,7.1,1017.5,4.8,88,5.3,,42.596,68.524,,20,,,,,,,,,,,og-post,,,,AAXX 19104 07207 36/// /0223 10071 20053 30122 40175 52048 333 91137=
07207,1999-12-19 11:00:00,7.3,1018.5,4.3,77,3.5,,46.3,68.524,68.524,30,,,,,,,,,,,og-post,,,,AAXX 19114 07207 36/// /0325 10073 20035 30132 40185 51043 333 91037 91137=
07207,1999-12-19 12:00:00,7.2,1019.6,3.6,69,1.9,25000,38.892,79.636,61.116,40,,,,,0.2,,,,,1,og-post,,,,AAXX 19124 07207 11975 20421 10072 20019 30143 40196 51036 69921 70162 82040 222// 326// 333 91033 91143 92438=
07207,1999-12-19 13:00:00,7.2,1020.3,2.8,68,1.7,,38.892,,,40,,,,,,,,,,,og-post,,,,AAXX 19134 07207 36/// /0421 10072 20017 30150 40203 51028=
07207,1999-12-19 14:00:00,7.1,1020.8,2.5,69,1.8,,31.484,61.116,53.708,40,,,,,,,,,,,og-post,,,,AAXX 19144 07207 36/// /0417 10071 20018 30155 40208 51025 333 91029 91133=
07207,1999-12-19 15:00:00,6.2,1021.2,1.5,70,1.1,,31.484,,,40,,,,,,,,,,,og-post,,,,AAXX 19154 07207 36/// /0417 10062 20011 30159 40212 51015=
07207,1999-12-19 16:00:00,5.6,1022.1,1.7,71,0.8,,29.632,,,40,,,,,,,,,,,og-post,,,,AAXX 19164 07207 36/// /0416 10056 20008 30167 40221 53017=
07207,1999-12-19 17:00:00,5.1,1023.2,2.4,72,0.5,,25.928,,,40,,,,,,,,,,,og-post,,,,AAXX 19174 07207 36/// /0414 10051 20005 30178 40232 53024=
07207,1999-12-19 18:00:00,4.3,1024.3,3,76,0.5,25000,18.52,,,40,4.3,11.4,,,,0.2,,,,,og-post,,,,AAXX 19184 07207 12575 30410 10043 20005 30189 40243 53030 69922 83200 222// 326// 333 10114 20043 92438=
07207,1999-12-19 19:00:00,4.3,1025.2,3.2,76,0.5,,25.928,,,50,,,,,,,,,,,og-post,,,,AAXX 19194 07207 36/// /0514 10043 20005 30198 40252 51032=
07207,1999-12-19 20:00:00,4.4,1026.2,2.9,71,-0.4,,29.632,,,60,,,,,,,,,,,og-post,,,,AAXX 19204 07207 36/// /0616 10044 21004 30208 40262 51029=
07207,1999-12-19 21:00:00,3.2,1026.5,2.2,74,-1,25000,31.484,,,70,,,,,,,,,,,og-post,,,,AAXX 19214 07207 32975 40717 10032 21010 30211 40265 51022 84030 222// 326// 333 92438=
07207,1999-12-19 22:00:00,2.5,1027.1,1.7,61,-4.2,,35.188,53.708,,70,,,,,,,,,,,og-post,,,,AAXX 19224 07207 36/// /0719 10025 21042 30217 40271 51017 333 91129=
07207,1999-12-19 23:00:00,2.4,1027.8,1.8,64,-3.7,,31.484,,,70,,,,,,,,,,,og-post,,,,AAXX 19234 07207 36/// /0717 10024 21037 30224 40278 53018=
07207,1999-12-20 00:00:00,1.9,1028.3,1.6,68,-3.4,,25.928,53.708,,70,,,,,,,,,,,og-post,,,,AAXX 20004 07207 36/// /0714 10019 21034 30228 40283 51016 333 91129=
07207,1999-12-20 01:00:00,2.2,1027.8,0.7,69,-2.9,,25.928,53.708,,90,,,,,,,,,,,og-post,,,,AAXX 20014 07207 36/// /0914 10022 21029 30223 40278 50007 333 91129=
07207,1999-12-20 02:00:00,1.9,1028.1,0.1,69,-3.2,,22.224,,,90,,,,,,,,,,,og-post,,,,AAXX 20024 07207 36/// /0912 10019 21032 30226 40281 53001=
07207,1999-12-20 03:00:00,2,1028.4,0.2,70,-2.9,25000,22.224,53.708,,100,,,,,,,,,,,og-post,,,,AAXX 20034 07207 32975 11012 10020 21029 30229 40284 53002 80001 222// 326// 333 91129 92428=
07207,1999-12-20 04:00:00,1.8,1028,0.2,68,-3.5,,22.224,,,90,,,,,,,,,,,og-post,,,,AAXX 20044 07207 36/// /0912 10018 21035 30225 40280 50002=
07207,1999-12-20 05:00:00,2.4,1028,0.1,66,-3.3,,29.632,,,100,,,,,,,,,,,og-post,,,,AAXX 20054 07207 36/// /1016 10024 21033 30226 40280 52001=
07207,1999-12-20 06:00:00,2.3,1028.3,0.1,68,-3,25000,25.928,53.708,,100,1.7,4.7,,,,,,,,,og-post,,,,AAXX 20064 07207 32975 11014 10023 21030 30228 40283 53001 80001 222// 326// 333 10047 20017 91129 92428=
07207,1999-12-20 08:00:00,1.9,1029,0.8,72,-2.6,,22.224,,,90,,,,,,,,,,,og-post,,,,AAXX 20084 07207 36/// /0912 10019 21026 30235 40290 51008=
07207,1999-12-20 09:00:00,3.5,1029.5,1.3,72,-1.1,30000,18.52,,,120,,,,,,,,,,,og-post,,,,AAXX 20094 07207 32580 31210 10035 21011 30241 40295 53013 82101 222// 326// 333 92428=
07207,1999-12-20 10:00:00,4.1,1029.3,0.5,71,-0.7,,14.816,,,120,,,,,,,,,,,og-post,,,,AAXX 20104 07207 36/// /1208 10041 21007 30239 40293 50005=
07207,1999-12-20 11:00:00,4.5,1029.3,0.3,71,-0.3,,18.52,,,130,,,,,,,,,,,og-post,,,,AAXX 20114 07207 36/// /1310 10045 21003 30239 40293 51003=
07207,1999-12-20 12:00:00,4.5,1028.8,-0.8,69,-0.7,30000,25.928,,,140,,,,,,,,,,,og-post,,,,AAXX 20124 07207 32580 41414 10045 21007 30234 40288 58008 84200 222// 326// 333 92428=
07207,1999-12-20 13:00:00,4.7,1028.3,-1,68,-0.7,,25.928,,,150,,,,,,,,,,,og-post,,,,AAXX 20134 07207 36/// /1514 10047 21007 30229 40283 58010=
07207,1999-12-20 15:00:00,4.9,1027,-1.8,70,-0.1,30000,29.632,,,150,,,,,,,,,,,og-post,,,,AAXX 20154 07207 32580 71516 10049 21001 30216 40270 58018 84254 222// 326// 333 92428=
07207,1999-12-20 16:00:00,5,1026.8,-1.4,71,0.2,,31.484,,,160,,,,,,,,,,,og-post,,,,AAXX 20164 07207 36/// /1617 10050 20002 30214 40268 56014=
07207,1999-12-20 17:00:00,5.3,1026.4,-1.3,72,0.7,,35.188,,,160,,,,,,,,,,,og-post,,,,AAXX 20174 07207 36/// /1619 10053 20007 30210 40264 56013=
07207,1999-12-20 18:00:00,5.6,1026.3,-0.6,72,1,20000,38.892,,,160,1.2,5.7,,,,,,,,,og-post,,,,AAXX 20184 07207 32570 81621 10056 20010 30209 40263 56006 84250 222// 326// 333 10057 20012 92428=
07207,1999-12-20 19:00:00,5.7,1026.1,-0.8,72,1.1,,38.892,,,160,,,,,,,,,,,og-post,,,,AAXX 20194 07207 36/// /1621 10057 20011 30207 40261 56008=
07207,1999-12-20 20:00:00,5.9,1026,-0.3,71,1.1,,38.892,,,170,,,,,,,,,,,og-post,,,,AAXX 20204 07207 36/// /1721 10059 20011 30206 40260 57003=
07207,1999-12-20 21:00:00,6.1,1025.6,-0.7,68,0.6,20000,42.596,,,160,,,,,,,,,,,og-post,,,,AAXX 20214 07207 32570 61623 10061 20006 30202 40256 57007 83250 222// 326// 333 92428=
07207,1999-12-20 22:00:00,6.2,1025.1,-0.9,73,1.7,,46.3,,,160,,,,,,,,,,,og-post,,,,AAXX 20224 07207 36/// /1625 10062 20017 30197 40251 58009=
07207,1999-12-20 23:00:00,6.3,1024.9,-1.1,75,2.2,,46.3,,,160,,,,,,,,,,,og-post,,,,AAXX 20234 07207 36/// /1625 10063 20022 30195 40249 57011=
07207,1999-12-21 00:00:00,6.4,1025,-0.7,73,1.9,,42.596,,,170,,,,,,,,,,,og-post,,,,AAXX 21004 07207 36/// /1723 10064 20019 30196 40250 55007=
07207,1999-12-21 01:00:00,6.9,1024.4,-0.6,75,2.8,,42.596,,,170,,,,,,,,,,,og-post,,,,AAXX 21014 07207 36/// /1723 10069 20028 30191 40244 58006=
07207,1999-12-21 02:00:00,7.4,1023.7,-1,77,3.6,,42.596,64.82,,170,,,,,,,,,,,og-post,,,,AAXX 21024 07207 36/// /1723 10074 20036 30184 40237 58010 333 91135=
07207,1999-12-21 03:00:00,7.9,1023.9,-1.1,74,3.6,20000,35.188,64.82,,180,,,,,,,,,,,og-post,,,,AAXX 21034 07207 32570 81819 10079 20036 30186 40239 55011 85250 222// 326// 333 91135 92428=
07207,1999-12-21 04:00:00,8.2,1023.8,-0.4,74,3.8,,31.484,53.708,,190,,,,,,,,,,,og-post,,,,AAXX 21044 07207 36/// /1917 10082 20038 30185 40238 56004 333 91129=
07207,1999-12-21 05:00:00,8.1,1023.5,-0.2,78,4.5,,31.484,,,180,,,,,,,,,,,og-post,,,,AAXX 21054 07207 36/// /1817 10081 20045 30182 40235 58002=
07207,1999-12-21 06:00:00,8.1,1023.2,-0.7,82,5.2,10000,31.484,64.82,,180,5.6,8.3,,0.6,,0.6,,,,61,og-post,,,,AAXX 21064 07207 /1660 81817 10081 20052 30179 40232 58007 69962 76162 88500 222// 326// 333 10083 20056 69967 91135 92427=
07207,1999-12-21 08:00:00,8.3,1022.4,-1.1,84,5.8,,46.3,,,170,,,0.2,,,,,,,,og-post,,,,AAXX 21084 07207 26/// /1725 10083 20058 30171 40224 56011 333 69925=
07207,1999-12-21 09:00:00,8.6,1023.5,0.3,83,5.9,12000,38.892,,,180,,,,0.8,,,,,,21,og-post,,,,AAXX 21094 07207 21662 81821 10086 20059 30182 40235 53003 72162 88500 222// 326// 333 69987 92437=
07207,1999-12-21 11:00:00,9.3,1022.9,0.6,83,6.6,,38.892,64.82,,180,,,,,,,,,,,og-post,,,,AAXX 21114 07207 36/// /1821 10093 20066 30176 40229 50006 333 91135=
07207,1999-12-21 12:00:00,9.1,1022.8,-0.9,85,6.7,10000,38.892,,,170,,,,0.6,1,,,,,21,og-post,,,,AAXX 21124 07207 /1660 81721 10091 20067 30175 40228 56009 60011 72162 88500 222// 317// 333 69967 92437=
07207,1999-12-21 13:00:00,8.3,1022.4,-0.6,92,7.1,,38.892,,,170,,,1,,,,,,,,og-post,,,,AAXX 21134 07207 26/// /1721 10083 20071 30171 40224 58006 333 60015=
07207,1999-12-21 14:00:00,8.9,1022.1,-0.7,92,7.7,,38.892,,,160,,,1,,,,,,,,og-post,,,,AAXX 21144 07207 26/// /1621 10089 20077 30168 40221 58007 333 60015=
07207,1999-12-21 15:00:00,9,1022,-0.8,94,8.1,6000,38.892,,,160,,,,3,,,,,,60,og-post,,,,AAXX 21154 07207 21456 81621 10090 20081 30167 40220 56008 76062 887// 222// 326// 333 60037 92436=
07207,1999-12-21 17:00:00,9,1021.8,-0.4,96,8.4,,46.3,,,160,,,0.2,,,,,,,,og-post,,,,AAXX 21174 07207 26/// /1625 10090 20084 30165 40218 57004 333 69925=
07207,1999-12-21 18:00:00,9.5,1021.9,-0.1,96,8.9,8000,46.3,,,170,7.8,9.5,,0.4,,4,,,,2,og-post,,,,AAXX 21184 07207 /1458 81725 10095 20089 30166 40219 58001 60042 70262 887// 222// 326// 333 10095 20078 69947 92446=
07207,1999-12-21 20:00:00,9.9,1022.3,0.4,97,9.4,,46.3,,,170,,,,,,,,,,,og-post,,,,AAXX 21204 07207 36/// /1725 10099 20094 30170 40223 53004=
07207,1999-12-21 21:00:00,10.3,1022.1,0.2,98,10,6000,46.3,,,160,,,,0.2,,,,,,61,og-post,,,,AAXX 21214 07207 21456 81625 10103 20100 30168 40221 50002 76162 887// 222// 326// 333 69927 92446=
07207,1999-12-22 01:00:00,11.8,1020.9,-1.2,98,11.5,,29.632,,,180,,,0.2,,,,,,,,og-post,,,,AAXX 22014 07207 26/// /1816 10118 20115 30157 40209 58012 333 69925=
07207,1999-12-22 02:00:00,12,1020.5,-1.2,98,11.7,,31.484,,,190,,,0.2,,,,,,,,og-post,,,,AAXX 22024 07207 26/// /1917 10120 20117 30153 40205 57012 333 69925=
07207,1999-12-22 03:00:00,11.6,1021,-0.2,98,11.3,15000,22.224,,,250,,,,0.4,,,,,,21,og-post,,,,AAXX 22034 07207 21665 82512 10116 20113 30158 40210 55002 72162 885// 222// 326// 333 69947 92447=
07207,1999-12-22 04:00:00,11.6,1020.7,-0.2,97,11.1,,22.224,,,220,,,,,,,,,,,og-post,,,,AAXX 22044 07207 36/// /2212 10116 20111 30155 40207 56002=
07207,1999-12-22 05:00:00,11.8,1020.6,0.3,96,11.2,,29.632,,,190,,,,,,,,,,,og-post,,,,AAXX 22054 07207 36/// /1916 10118 20112 30154 40206 51003=
07207,1999-12-22 06:00:00,12.1,1020.2,-0.9,97,11.6,20000,35.188,,,190,9.4,12.1,,,,1,,,,2,og-post,,,,AAXX 22064 07207 11670 81919 10121 20116 30150 40202 56009 60012 70262 885// 222// 326// 333 10121 20094 92448=
07207,1999-12-22 07:00:00,12.2,1019.8,-0.7,96,11.6,,31.484,,,180,,,,,,,,,,,og-post,,,,AAXX 22074 07207 36/// /1817 10122 20116 30146 40198 58007=
07207,1999-12-22 08:00:00,12.2,1019.6,-0.9,94,11.3,,38.892,,,190,,,,,,,,,,,og-post,,,,AAXX 22084 07207 36/// /1921 10122 20113 30144 40196 57009=
07207,1999-12-22 09:00:00,12.5,1019.3,-0.8,91,11.1,10000,42.596,64.82,64.82,190,,,,0.2,,,,,,,og-post,,,,AAXX 22094 07207 22560 81923 10125 20111 30141 40193 57008 887// 222// 326// 333 69927 91035 91135 92437=
07207,1999-12-22 10:00:00,12,1019.3,-0.6,95,11.2,,50.004,,,200,,,0.6,,,,,,,,og-post,,,,AAXX 22104 07207 26/// /2027 10120 20112 30141 40193 56006 333 69965=
07207,1999-12-22 11:00:00,12.5,1018.9,-0.7,93,11.4,,57.412,,,200,,,0.2,,,,,,,,og-post,,,,AAXX 22114 07207 26/// /2031 10125 20114 30137 40189 57007 333 69925=
07207,1999-12-22 12:00:00,12.6,1018.6,-0.8,93,11.5,,50.004,,,200,,,,1,1,,,,,,og-post,,,,AAXX 22124 07207 /6/// /2027 10126 20115 30134 40186 58008 60011 333 60017=
07207,1999-12-22 13:00:00,12.9,1018,-1.3,90,11.3,,50.004,,,200,,,,,,,,,,,og-post,,,,AAXX 22134 07207 36/// /2027 10129 20113 30128 40180 58013=
07207,1999-12-22 14:00:00,13.2,1017.4,,89,11.4,,50.004,,,200,,,,,,,,,,,og-post,,,,AAXX 22144 07207 46/// /2027 10132 20114 30122 40174=
07207,1999-12-22 15:00:00,13.6,1017.2,,86,11.3,8000,50.004,,,210,,,,,,,,,,,og-post,,,,AAXX 22154 07207 42658 82127 10136 20113 30120 40172 885// 222// 326// 333 92446=
07207,1999-12-22 16:00:00,13.5,1017.3,,88,11.6,,50.004,,,220,,,,,,,,,,,og-post,,,,AAXX 22164 07207 36/// /2227 10135 20116 30121 40173=
07207,1999-12-22 17:00:00,13.3,1017,-0.4,89,11.5,,50.004,,,220,,,,,,,,,,,og-post,,,,AAXX 22174 07207 36/// /2227 10133 20115 30118 40170 56004=
07207,1999-12-22 18:00:00,13,1016.7,-0.6,90,11.4,8000,42.596,,,210,12,13.7,,0.2,,,,,,,og-post,,,,AAXX 22184 07207 22658 82123 10130 20114 30115 40167 58006 885// 222// 326// 333 10137 20120 69927 92446=
07207,1999-12-22 19:00:00,12.9,1016.5,-0.6,91,11.5,,38.892,,,200,,,,,,,,,,,og-post,,,,AAXX 22194 07207 36/// /2021 10129 20115 30113 40165 57006=
07207,1999-12-22 20:00:00,13.2,1016.4,-0.4,89,11.4,,42.596,68.524,68.524,210,,,,,,,,,,,og-post,,,,AAXX 22204 07207 36/// /2123 10132 20114 30112 40164 56004 333 91037 91137=
07207,1999-12-22 21:00:00,13,1016.3,-0.6,90,11.4,7000,46.3,68.524,68.524,210,,,,,,,,,,2,og-post,,,,AAXX 22214 07207 31657 82125 10130 20114 30111 40163 58006 70282 885// 222// 326// 333 91037 91137 92446=
07207,1999-12-22 22:00:00,10.3,1017.7,1.2,94,9.4,,38.892,90.748,,290,,,0.2,,,,,,,,og-post,,,,AAXX 22224 07207 26/// /2921 10103 20094 30125 40177 53012 333 69925 91149=
07207,1999-12-22 23:00:00,9.8,1019,2.6,95,9,,31.484,57.412,,280,,,0.6,,,,,,,,og-post,,,,AAXX 22234 07207 26/// /2817 10098 20090 30138 40190 53026 333 69965 91131=
07207,1999-12-23 00:00:00,9,1020,3.6,95,8.2,,25.928,90.748,,320,,,,2,2,,,,,,og-post,,,,AAXX 23004 07207 /6/// /3214 10090 20082 30147 40200 51036 60021 333 60027 91149=
07207,1999-12-23 01:00:00,9.2,1020.6,2.6,91,7.8,,18.52,,,330,,,0.2,,,,,,,,og-post,,,,AAXX 23014 07207 26/// /3310 10092 20078 30153 40206 51026 333 69925=
07207,1999-12-23 02:00:00,9,1021.3,2.1,90,7.4,,7.408,,,310,,,,,,,,,,,og-post,,,,AAXX 23024 07207 36/// /3104 10090 20074 30160 40213 51021=
07207,1999-12-23 03:00:00,10.1,1021.6,1.7,84,7.5,,29.632,,,280,,,,0.2,,,,,,,og-post,,,,AAXX 23034 07207 26/// /2816 10101 20075 30163 40216 51017 333 69927=
07207,1999-12-23 04:00:00,10.1,1022,1.5,82,7.2,,25.928,,,280,,,,,,,,,,,og-post,,,,AAXX 23044 07207 36/// /2814 10101 20072 30167 40220 51015=
07207,1999-12-23 05:00:00,10.3,1022.3,0.9,81,7.2,,18.52,,,280,,,,,,,,,,,og-post,,,,AAXX 23054 07207 36/// /2810 10103 20072 30170 40223 51009=
07207,1999-12-23 06:00:00,10.7,1022.9,1.3,83,7.9,20000,22.224,,,260,8.8,13.3,,,,2,,,,1,og-post,,,,AAXX 23064 07207 11670 42612 10107 20079 30176 40229 53013 60022 70182 84200 222// 326// 333 10133 20088 92435=
07207,1999-12-23 07:00:00,10.7,1023.7,1.7,82,7.8,,22.224,,,270,,,,,,,,,,,og-post,,,,AAXX 23074 07207 36/// /2712 10107 20078 30184 40237 53017=
07207,1999-12-23 08:00:00,11,1024.1,1.8,84,8.4,,22.224,,,250,,,,,,,,,,,og-post,,,,AAXX 23084 07207 36/// /2512 10110 20084 30188 40241 51018=
07207,1999-12-23 09:00:00,11.2,1024.2,1.4,84,8.6,25000,22.224,,,230,,,,,,,,,,,og-post,,,,AAXX 23094 07207 32675 42312 10112 20086 30190 40242 51014 84200 222// 326// 333 92438=
07207,1999-12-23 10:00:00,11.4,1024.3,0.8,84,8.8,,31.484,,,220,,,,,,,,,,,og-post,,,,AAXX 23104 07207 36/// /2217 10114 20088 30191 40243 51008=
07207,1999-12-23 11:00:00,11.7,1024.3,0.4,79,8.2,,25.928,,,230,,,,,,,,,,,og-post,,,,AAXX 23114 07207 36/// /2314 10117 20082 30191 40243 51004=
07207,1999-12-23 12:00:00,11.8,1023.6,-0.7,82,8.8,25000,35.188,,,220,,,,,,,,,,,og-post,,,,AAXX 23124 07207 32675 42219 10118 20088 30184 40236 58007 84200 222// 326// 333 92438=
07207,1999-12-23 13:00:00,11.3,1023,-1.4,83,8.5,,18.52,,,240,,,,,,,,,,,og-post,,,,AAXX 23134 07207 36/// /2410 10113 20085 30178 40230 58014=
07207,1999-12-23 14:00:00,11.9,1022,-2.3,82,8.9,,35.188,,,220,,,,,,,,,,,og-post,,,,AAXX 23144 07207 36/// /2219 10119 20089 30168 40220 58023=
07207,1999-12-23 15:00:00,11.9,1021.4,-2.2,78,8.2,30000,35.188,,,230,,,,,,,,,,,og-post,,,,AAXX 23154 07207 32580 42319 10119 20082 30162 40214 57022 84200 222// 326// 333 92438=
07207,1999-12-23 16:00:00,11.6,1021.1,-1.9,81,8.5,,42.596,,,220,,,,,,,,,,,og-post,,,,AAXX 23164 07207 36/// /2223 10116 20085 30159 40211 56019=
07207,1999-12-23 17:00:00,11.7,1020.8,-1.2,76,7.6,,46.3,,,220,,,,,,,,,,,og-post,,,,AAXX 23174 07207 36/// /2225 10117 20076 30156 40208 56012=
07207,1999-12-23 20:00:00,11.6,1018.5,-2.3,82,8.6,,50.004,68.524,,220,,,,,,,,,,,og-post,,,,AAXX 23204 07207 36/// /2227 10116 20086 30133 40185 58023 333 91137=
07207,1999-12-23 21:00:00,11.4,1018,-2.5,84,8.8,25000,53.708,,,220,,,,,,,,,,,og-post,,,,AAXX 23214 07207 32575 42229 10114 20088 30128 40180 56025 81230 222// 326// 333 92448=
07207,1999-12-23 22:00:00,11.6,1018,-1.9,85,9.2,,50.004,75.932,,230,,,,,,,,,,,og-post,,,,AAXX 23224 07207 36/// /2327 10116 20092 30128 40180 56019 333 91141=
07207,1999-12-23 23:00:00,11.8,1017.8,-0.8,84,9.2,,46.3,75.932,72.228,230,,,,,,,,,,,og-post,,,,AAXX 23234 07207 36/// /2325 10118 20092 30126 40178 56008 333 91039 91141=
07207,1999-12-24 00:00:00,11.9,1016.5,-1.5,85,9.5,,42.596,75.932,64.82,230,,,,,,,,,,,og-post,,,,AAXX 24004 07207 36/// /2323 10119 20095 30113 40165 58015 333 91035 91141=
07207,1999-12-24 01:00:00,12,1015.7,-2.2,83,9.2,,50.004,,75.932,230,,,,,,,,,,,og-post,,,,AAXX 24014 07207 36/// /2327 10120 20092 30105 40157 58022 333 91041=
07207,1999-12-24 02:00:00,11.9,1015,-2.7,85,9.5,,53.708,83.34,75.932,230,,,,,,,,,,,og-post,,,,AAXX 24024 07207 36/// /2329 10119 20095 30098 40150 56027 333 91041 91145=
07207,1999-12-24 03:00:00,12.1,1014.2,-2.4,86,9.8,,53.708,83.34,75.932,230,,,,,,,,,,,og-post,,,,AAXX 24034 07207 36/// /2329 10121 20098 30090 40142 58024 333 91041 91145=
07207,1999-12-24 04:00:00,12.2,1013.5,-2.4,86,9.9,,50.004,87.044,79.636,230,,,,,,,,,,,og-post,,,,AAXX 24044 07207 36/// /2327 10122 20099 30083 40135 57024 333 91043 91147=
07207,1999-12-24 05:00:00,12.2,1012.4,-2.7,87,10.1,,57.412,87.044,79.636,230,,,,,,,,,,,og-post,,,,AAXX 24054 07207 36/// /2331 10122 20101 30072 40124 58027 333 91043 91147=
07207,1999-12-24 06:00:00,12.1,1012.1,-2.3,88,10.2,20000,57.412,87.044,83.34,230,11.1,12.3,,0.2,,0.2,,,,61,og-post,,,,AAXX 24064 07207 /1470 82331 10121 20102 30069 40121 56023 69922 76122 887// 222// 326// 333 10123 20111 69927 91045 91147 92448=
07207,1999-12-24 07:00:00,12.2,1011.7,-2.1,89,10.4,,57.412,90.748,83.34,230,,,0.2,,,,,,,,og-post,,,,AAXX 24074 07207 26/// /2331 10122 20104 30065 40117 56021 333 69925 91045 91149=
07207,1999-12-24 08:00:00,11.7,1011.4,-1.1,94,10.8,,53.708,,90.748,240,,,1,,,,,,,,og-post,,,,AAXX 24084 07207 26/// /2429 10117 20108 30062 40114 56011 333 60015 91049=
07207,1999-12-24 09:00:00,11.7,1011.1,-0.8,95,10.9,6000,57.412,90.748,83.34,230,,,,2,,,,,,21,og-post,,,,AAXX 24094 07207 21456 82331 10117 20109 30059 40111 56008 72162 887// 222// 326// 333 60027 91045 91149 92456=
07207,1999-12-24 10:00:00,12.2,1010.5,-1.1,91,10.8,,57.412,94.452,87.044,230,,,,,,,,,,,og-post,,,,AAXX 24104 07207 36/// /2331 10122 20108 30053 40105 58011 333 91047 91151=
07207,1999-12-24 11:00:00,12,1010.5,-0.6,93,10.9,,53.708,94.452,75.932,230,,,0.2,,,,,,,,og-post,,,,AAXX 24114 07207 26/// /2329 10120 20109 30053 40105 58006 333 69925 91041 91151=
07207,1999-12-24 12:00:00,11.9,1009.7,-1.7,93,10.8,6000,53.708,94.452,83.34,240,,,,0.4,2,,,,,21,og-post,,,,AAXX 24124 07207 /1356 82429 10119 20108 30045 40097 58017 60021 72162 887// 222// 326// 333 69947 91045 91151 92456=
07207,1999-12-24 13:00:00,12.3,1008,-2.5,89,10.5,,61.116,90.748,90.748,230,,,0.2,,,,,,,,og-post,,,,AAXX 24134 07207 26/// /2333 10123 20105 30029 40080 58025 333 69925 91049 91149=
07207,1999-12-24 14:00:00,11.7,1006.9,-3.4,94,10.8,,61.116,96.304,90.748,230,,,1,,,,,,,,og-post,,,,AAXX 24144 07207 26/// /2333 10117 20108 30018 40069 56034 333 60015 91049 91152=
07207,1999-12-24 15:00:00,11.7,1005.8,-3.5,95,10.9,6000,64.82,96.304,83.34,220,,,,2,,,,,,61,og-post,,,,AAXX 24154 07207 21356 82235 10117 20109 30007 40058 56035 76162 887// 222// 326// 333 60027 91045 91152 92456=
07207,1999-12-24 16:00:00,12.6,1005,-3,89,10.8,,68.524,100.008,100.008,230,,,0.2,,,,,,,,og-post,,,,AAXX 24164 07207 26/// /2337 10126 20108 39999 40050 58030 333 69925 91054 91154=
07207,1999-12-24 17:00:00,12.7,1004.1,-3.1,88,10.8,,72.228,100.008,100.008,230,,,0.2,,,,,,,,og-post,,,,AAXX 24174 07207 26/// /2339 10127 20108 39990 40041 56031 333 69925 91054 91154=
07207,1999-12-24 18:00:00,12.9,1003,-3.2,87,10.8,6000,72.228,107.416,107.416,230,11.5,13,,0.4,,5,,,,61,og-post,,,,AAXX 24184 07207 /1356 82339 10129 20108 39979 40030 58032 60052 76162 887// 222// 326// 333 10130 20115 69947 91058 91158 92456=
07207,1999-12-24 19:00:00,12.7,1001.3,-3.4,90,11.1,,72.228,118.528,103.712,230,,,,,,,,,,,og-post,,,,AAXX 24194 07207 26/// /2339 10127 20111 39962 40013 58034 333 69905 91056 91164=
07207,1999-12-24 20:00:00,12,1000.3,-3.9,95,11.2,,79.636,133.344,107.416,230,,,0.6,,,,,,,,og-post,,,,AAXX 24204 07207 26/// /2343 10120 20112 39952 40003 56039 333 69965 91058 91172=
07207,1999-12-24 21:00:00,12,998.7,-3.4,97,11.5,6000,75.932,133.344,111.12,230,,,,5,,,,,,61,og-post,,,,AAXX 24214 07207 21356 82341 10120 20115 39936 49987 56034 76162 887// 222// 326// 333 60057 91060 91172 92456=
07207,1999-12-24 22:00:00,12.1,998.4,-3.2,,,,75.932,122.232,114.824,230,,,7,,,,,,,,og-post,,,,AAXX 24224 07207 26/// /2341 10121 2//// 39933 49984 58032 333 60075 91062 91166=
07207,1999-12-24 23:00:00,11,999.2,-0.9,44,-0.8,,50.004,100.008,90.748,260,,,5,,,,,,,,og-post,,,,AAXX 24234 07207 26/// /2627 10110 21008 39941 49992 55009 333 60055 91049 91154=
07207,1999-12-25 00:00:00,11.8,999,-0.3,49,1.4,,57.412,133.344,83.34,260,,,,12,17,,,,,,og-post,,,,AAXX 25004 07207 /6/// /2631 10118 20014 39939 49990 56003 60171 333 60127 91045 91172=
07207,1999-12-25 05:00:00,8,1002.4,2.6,21,-13,,57.412,90.748,90.748,300,,,0.2,,,,,,,,og-post,,,,AAXX 25054 07207 26/// /3031 10080 21130 39972 40024 53026 333 69925 91049 91149=
07207,1999-12-25 06:00:00,9.2,1002.6,2.4,7,-24.8,6000,57.412,96.304,87.044,280,7.9,13.1,,1,,19,,,,2,og-post,,,,AAXX 25064 07207 /1356 82831 10092 21248 39974 40026 51024 60192 70262 887// 222// 326// 333 10131 20079 60017 91047 91152 92466=
07207,1999-12-25 09:00:00,10.7,1002.8,0.1,11,-18.5,12000,46.3,75.932,64.82,270,,,,1,,,,,,1,og-post,,,,AAXX 25094 07207 21662 72725 10107 21185 39976 40028 53101 70162 8757/ 222// 326// 333 60017 91035 91141 92457=
07207,1999-12-25 10:00:00,10,1003.8,1.8,13,-17.1,,50.004,96.304,75.932,270,,,1,,,,,,,,og-post,,,,AAXX 25104 07207 26/// /2727 10100 21171 39986 40038 53018 333 60015 91041 91152=
07207,1999-12-25 11:00:00,9.6,1004.9,3.2,10,-20.5,,68.524,100.008,100.008,270,,,0.6,,,,,,,,og-post,,,,AAXX 25114 07207 26/// /2737 10096 21205 39997 40049 51032 333 69965 91054 91154=
07207,1999-12-25 12:00:00,10.9,1005.4,2.8,6,-25.2,10000,61.116,107.416,94.452,280,,,,2,3,,,,,3,og-post,,,,AAXX 25124 07207 /1560 72833 10109 21252 30002 40054 51028 60031 70382 8737/ 222// 326// 333 60027 91051 91158 92456=
07207,1999-12-25 13:00:00,10.3,1005.9,2,6,-25.7,,50.004,100.008,79.636,290,,,0.2,,,,,,,,og-post,,,,AAXX 25134 07207 26/// /2927 10103 21257 30007 40059 51020 333 69925 91043 91154=
07207,1999-12-25 14:00:00,10.7,1005.5,0.5,2,-36.8,,53.708,90.748,83.34,270,,,,,,,,,,,og-post,,,,AAXX 25144 07207 36/// /2729 10107 21368 30003 40055 50005 333 91045 91149=
07207,1999-12-25 15:00:00,10.6,1005.9,0.5,,,15000,57.412,100.008,79.636,270,,,,0.2,,,,,,2,og-post,,,,AAXX 25154 07207 21665 72731 10106 2//// 30007 40059 52005 70282 875// 222// 326// 333 69927 91043 91154 92457=
07207,1999-12-25 17:00:00,11,1005.8,0.6,11,-18.3,,50.004,72.228,72.228,260,,,,,,,,,,,og-post,,,,AAXX 25174 07207 36/// /2627 10110 21183 30006 40058 50006 333 91039 91139=
07207,1999-12-25 18:00:00,11.3,1006.5,0.4,17,-12.8,15000,50.004,100.008,72.228,270,7.4,11.3,,,,4,,,,2,og-post,,,,AAXX 25184 07207 11465 82727 10113 21128 30013 40065 53004 60042 70282 8472/ 222// 326// 333 10113 20074 91039 91154 92457=
07207,1999-12-25 22:00:00,12.1,1003.7,-3.6,58,4.1,,50.004,72.228,,260,,,,,,,,,,,og-post,,,,AAXX 25224 07207 36/// /2627 10121 20041 39986 40037 58036 333 91139=
07207,1999-12-25 23:00:00,11.7,1001.2,-5.7,71,6.6,,35.188,,,230,,,,,,,,,,,og-post,,,,AAXX 25234 07207 36/// /2319 10117 20066 39961 40012 58057=
07207,1999-12-26 01:00:00,10.9,994.6,-9.2,9,-20.7,,57.412,,79.636,220,,,0.6,,,,,,,,og-post,,,,AAXX 26014 07207 26/// /2231 10109 21207 39895 49946 58092 333 69965 91043=
07207,1999-12-26 02:00:00,12,989.8,-11.2,34,-3.4,,75.932,107.416,107.416,240,,,1,,,,,,,,og-post,,,,AAXX 26024 07207 26/// /2441 10120 21034 39847 49898 58112 333 60015 91058 91158=
07207,1999-12-26 03:00:00,13.2,987.2,-11.4,92,11.9,,75.932,125.936,125.936,250,,,,2,,,,,,,og-post,,,,AAXX 26034 07207 26/// /2541 10132 20119 39822 49872 56114 333 60027 91068 91168=
07207,1999-12-26 04:00:00,13.3,987.6,-6.4,78,9.5,,94.452,140.752,129.64,270,,,0.4,,,,,,,,og-post,,,,AAXX 26044 07207 26/// /2751 10133 20095 39826 49876 55064 333 69945 91070 91176=
07207,1999-12-26 05:00:00,12,991.9,2.3,12,-16.5,,72.228,137.048,103.712,280,,,,,,,,,,,og-post,,,,AAXX 26054 07207 36/// /2839 10120 21165 39868 49919 53023 333 91056 91174=
07207,1999-12-26 06:00:00,11.5,995.4,8.5,87,9.4,6000,68.524,140.752,96.304,290,10,13.7,,0.4,,5,,,,2,og-post,,,,AAXX 26064 07207 /1456 82937 10115 20094 39903 49954 53085 60052 70262 887// 222// 326// 333 10137 20100 69947 91052 91176 92466=
07207,1999-12-26 07:00:00,10.5,998.4,0.5,77,6.6,,50.004,111.12,83.34,300,,,,,,,,,,,og-post,,,,AAXX 26074 07207 36/// /3027 10105 20066 39933 49984 51105 333 91045 91160=
07207,1999-12-26 08:00:00,10.9,999.7,8.2,36,-3.6,,53.708,90.748,83.34,290,,,,,,,,,,,og-post,,,,AAXX 26084 07207 36/// /2929 10109 21036 39946 49997 51082 333 91045 91149=
07207,1999-12-26 09:00:00,11.4,1001.5,6.2,3,-32.2,15000,50.004,111.12,75.932,280,,,,,,,,,,,og-post,,,,AAXX 26094 07207 32565 52827 10114 21322 39964 40015 51062 85200 222// 326// 333 91041 91160 92467=
07207,1999-12-26 11:00:00,12.1,1001.3,1.3,,,,53.708,79.636,79.636,260,,,,,,,,,,,og-post,,,,AAXX 26114 07207 36/// /2629 10121 2//// 39962 40013 50013 333 91043 91143=
07207,1999-12-26 12:00:00,12.2,999.9,-2.1,,,8000,53.708,111.12,94.452,250,,,,,,,,,,,og-post,,,,AAXX 26124 07207 32458 82529 10122 2//// 39948 49999 58021 887// 222// 326// 333 91051 91160 92466=
07207,1999-12-26 13:00:00,12.5,998,-3.8,,,,72.228,,111.12,260,,,,,,,,,,,og-post,,,,AAXX 26134 07207 36/// /2639 10125 2//// 39929 49980 56038 333 91060=
07207,1999-12-26 14:00:00,12.2,999.4,-1.9,17,-12.1,,75.932,122.232,111.12,280,,,4,,,,,,,,og-post,,,,AAXX 26144 07207 26/// /2841 10122 21121 39943 49994 55019 333 60045 91060 91166=
07207,1999-12-26 15:00:00,12.5,999.7,0.2,10,-18.2,6000,61.116,122.232,94.452,280,,,,4,,,,,,62,og-post,,,,AAXX 26154 07207 21256 82833 10125 21182 39946 49997 53002 76262 887// 222// 326// 333 60047 91051 91166 92466=
07207,1999-12-26 16:00:00,11.5,999.5,1.1,24,-8.3,,61.116,111.12,87.044,280,,,0.2,,,,,,,,og-post,,,,AAXX 26164 07207 26/// /2833 10115 21083 39944 49995 51011 333 69925 91047 91160=
07207,1999-12-26 17:00:00,11.8,999.8,0.1,22,-9.2,,61.116,96.304,90.748,280,,,,,,,,,,,og-post,,,,AAXX 26174 07207 26/// /2833 10118 21092 39947 49998 50001 333 69905 91049 91152=
07207,1999-12-26 18:00:00,11.4,999.3,-0.1,26,-7.4,6000,61.116,122.232,111.12,280,10.3,12.7,,0.6,,5,,,,21,og-post,,,,AAXX 26184 07207 /1256 82833 10114 21074 39942 49993 57001 60052 72162 887// 222// 326// 333 10127 20103 69967 91060 91166 92466=
07207,1999-12-26 19:00:00,10.5,1000.5,0.8,36,-3.9,,57.412,118.528,83.34,290,,,0.2,,,,,,,,og-post,,,,AAXX 26194 07207 26/// /2931 10105 21039 39953 40005 53008 333 69925 91045 91164=
07207,1999-12-26 20:00:00,11.2,1000.7,1.3,35,-3.7,,61.116,103.712,96.304,290,,,,,,,,,,,og-post,,,,AAXX 26204 07207 36/// /2933 10112 21037 39956 40007 53013 333 91052 91156=
07207,1999-12-26 22:00:00,8.5,1002.3,1.9,12,-19.2,,57.412,103.712,103.712,290,,,1,,,,,,,,og-post,,,,AAXX 26224 07207 26/// /2931 10085 21192 39971 40023 53019 333 60015 91056 91156=
07207,1999-12-26 23:00:00,10.2,1002.6,2.1,9,-21.2,,64.82,100.008,100.008,290,,,,,,,,,,,og-post,,,,AAXX 26234 07207 36/// /2935 10102 21212 39974 40026 51021 333 91054 91154=
07207,1999-12-27 00:00:00,9.2,1004.2,3,9,-22,,31.484,118.528,57.412,290,,,,2,2,,,,,,og-post,,,,AAXX 27004 07207 /6/// /2917 10092 21220 39990 40042 53030 60021 333 60027 91031 91164=
07207,1999-12-27 01:00:00,9.4,1004.4,2.1,4,-30.6,,46.3,72.228,72.228,290,,,0.2,,,,,,,,og-post,,,,AAXX 27014 07207 26/// /2925 10094 21306 39992 40044 50021 333 69925 91039 91139=
07207,1999-12-27 03:00:00,10.3,1005,0.7,,,,35.188,94.452,61.116,290,,,,0.2,,,,,,,og-post,,,,AAXX 27034 07207 26/// /2919 10103 2//// 39998 40050 53007 333 69927 91033 91151=
07207,1999-12-27 04:00:00,10.2,1005.4,0.7,,,,46.3,75.932,72.228,290,,,,,,,,,,,og-post,,,,AAXX 27044 07207 36/// /2925 10102 2//// 30002 40054 53007 333 91039 91141=
07207,1999-12-27 05:00:00,10.1,1005,0.9,3,-33.1,,35.188,72.228,61.116,290,,,,,,,,,,,og-post,,,,AAXX 27054 07207 36/// /2919 10101 21331 39998 40050 51009 333 91033 91139=
07207,1999-12-27 06:00:00,10,1003.8,-1.5,,,10000,35.188,94.452,,290,8,11.6,,,,2,,,,2,og-post,,,,AAXX 27064 07207 11660 82919 10100 2//// 39986 40038 58015 60022 70262 885// 222// 326// 333 10116 20080 91151 92457=
07207,1999-12-27 07:00:00,9.9,1002.3,-3,,,,31.484,,,280,,,,,,,,,,,og-post,,,,AAXX 27074 07207 36/// /2817 10099 2//// 39971 40023 58030=
07207,1999-12-27 08:00:00,10.3,1001.2,-3.9,,,,25.928,,,270,,,,,,,,,,,og-post,,,,AAXX 27084 07207 36/// /2714 10103 2//// 39960 40012 56039=
07207,1999-12-27 09:00:00,9.3,998.3,-5.4,,,15000,14.816,,,260,,,,,,,,,,,og-post,,,,AAXX 27094 07207 32665 82608 10093 2//// 39931 49983 58054 885// 222// 326// 333 92447=
07207,1999-12-27 10:00:00,8.2,997.3,-5.1,82,5.3,,29.632,,,190,,,2,,,,,,,,og-post,,,,AAXX 27104 07207 26/// /1916 10082 20053 39921 49973 58051 333 60025=
07207,1999-12-27 11:00:00,7.5,993.8,-7.6,,,,38.892,,,160,,,4,,,,,,,,og-post,,,,AAXX 27114 07207 26/// /1621 10075 2//// 39886 49938 58076 333 60045=
07207,1999-12-27 12:00:00,7.7,988.1,-10.4,,,6000,53.708,79.636,75.932,150,,,,10,10,,,,,63,og-post,,,,AAXX 27124 07207 /1256 81529 10077 2//// 39830 49881 58104 60101 76362 887// 222// 327// 333 60107 91041 91143 92456=
07207,1999-12-27 13:00:00,8.7,982.4,-14.8,,,,64.82,96.304,87.044,160,,,3,,,,,,,,og-post,,,,AAXX 27134 07207 26/// /1635 10087 2//// 39773 49824 58148 333 60035 91047 91152=
07207,1999-12-27 14:00:00,12.8,976.8,-16.7,,,,64.82,103.712,100.008,250,,,1,,,,,,,,og-post,,,,AAXX 27144 07207 26/// /2535 10128 2//// 39718 49768 56167 333 60015 91054 91156=
07207,1999-12-27 15:00:00,12.7,970.5,-16.9,,,4000,72.228,114.824,114.824,250,,,,11,,,,,,25,og-post,,,,AAXX 27154 07207 21440 82539 10127 2//// 39655 49705 58169 72582 887// 222// 326// 333 60117 91062 91162 92456=
07207,1999-12-27 16:00:00,9.8,965.5,-16.5,,,,72.228,129.64,114.824,250,,,0.8,,,,,,,,og-post,,,,AAXX 27164 07207 26/// /2539 10098 2//// 39605 49655 56165 333 69985 91062 91170=
07207,1999-12-27 17:00:00,10.5,965.3,-11.2,,,,46.3,103.712,75.932,310,,,0.8,,,,,,,,og-post,,,,AAXX 27174 07207 26/// /3125 10105 2//// 39603 49653 55112 333 69985 91041 91156=
07207,1999-12-27 18:00:00,6.6,970.5,0.4,,,4000,83.34,129.64,125.936,330,6.3,13.1,,2,,23,,,,25,og-post,,,,AAXX 27184 07207 /1440 83345 10066 2//// 39654 49705 53004 60232 72582 887// 222// 326// 333 10131 20063 60027 91068 91170 92456=
07207,1999-12-27 19:00:00,6.1,982.4,0.8,,,,94.452,151.864,148.16,330,,,0.2,,,,,,,,og-post,,,,AAXX 27194 07207 26/// /3351 10061 2//// 39773 49824 53178 333 69925 91080 91182=
07207,1999-12-27 20:00:00,7.3,989.2,,,,,79.636,133.344,118.528,330,,,,,,,,,,,og-post,,,,AAXX 27204 07207 36/// /3343 10073 2//// 39840 49892 53235 333 91064 91172=
07207,1999-12-27 21:00:00,7.5,993.4,,,,5000,64.82,151.864,96.304,330,,,,0.2,,,,,,2,og-post,,,,AAXX 27214 07207 21450 83335 10075 2//// 39882 49934 51220 70282 887// 222// 326// 333 69927 91052 91182 92456=
07207,1999-12-27 22:00:00,7.3,996.7,0.5,,,,57.412,94.452,83.34,330,,,,,,,,,,,og-post,,,,AAXX 27224 07207 36/// /3331 10073 2//// 39915 49967 51135 333 91045 91151=
07207,1999-12-27 23:00:00,7,999.5,0.6,,,,61.116,96.304,83.34,330,,,0.2,,,,,,,,og-post,,,,AAXX 27234 07207 26/// /3333 10070 2//// 39943 49995 51106 333 69925 91045 91152=
07207,1999-12-28 00:00:00,7.3,1001.5,8.5,,,,46.3,151.864,68.524,330,,,,0.2,0.4,,,,,,og-post,,,,AAXX 28004 07207 /6/// /3325 10073 2//// 39963 40015 51085 69941 333 69927 91037 91182=
07207,1999-12-28 01:00:00,8,1002.1,5.4,,,,42.596,79.636,64.82,330,,,,,,,,,,,og-post,,,,AAXX 28014 07207 36/// /3323 10080 2//// 39969 40021 51054 333 91035 91143=
07207,1999-12-28 02:00:00,8.4,1003.1,3.5,,,,42.596,75.932,68.524,320,,,,,,,,,,,og-post,,,,AAXX 28024 07207 36/// /3223 10084 2//// 39979 40031 51035 333 91037 91141=
07207,1999-12-28 03:00:00,8.7,1003.9,2.3,,,,38.892,83.34,68.524,310,,,,0.4,,,,,,,og-post,,,,AAXX 28034 07207 26/// /3121 10087 2//// 39987 40039 52023 333 69947 91037 91145=
07207,1999-12-28 04:00:00,8.5,1004.6,2.3,,,,35.188,75.932,61.116,310,,,,,,,,,,,og-post,,,,AAXX 28044 07207 36/// /3119 10085 2//// 39994 40046 51023 333 91033 91141=
07207,1999-12-28 05:00:00,8.3,1005,1.7,,,,38.892,68.524,64.82,320,,,,,,,,,,,og-post,,,,AAXX 28054 07207 36/// /3221 10083 2//// 39998 40050 51017 333 91035 91137=
07207,1999-12-28 06:00:00,6.3,1005.9,1.8,,,18000,29.632,83.34,,330,5.1,8.8,,0.8,,2,,,,2,og-post,,,,AAXX 28064 07207 /1568 63316 10063 2//// 30006 40059 53018 60022 70282 86900 222// 326// 333 10088 20051 69987 91145 92457=
07207,1999-12-28 07:00:00,6.7,1006.6,2.1,,,,35.188,57.412,,330,,,,,,,,,,,og-post,,,,AAXX 28074 07207 36/// /3319 10067 2//// 30013 40066 53021 333 91131=
07207,1999-12-28 08:00:00,7.2,1007.1,2,,,,35.188,64.82,,320,,,0.2,,,,,,,,og-post,,,,AAXX 28084 07207 26/// /3219 10072 2//// 30018 40071 51020 333 69925 91135=
07207,1999-12-28 09:00:00,7.6,1008,2.2,,,20000,35.188,64.82,57.412,330,,,,0.2,,,,,,15,og-post,,,,AAXX 28094 07207 21570 63319 10076 2//// 30027 40080 53022 71582 86900 222// 326// 333 69927 91031 91135 92448=
07207,1999-12-28 10:00:00,8.2,1008.2,1.6,,,,42.596,61.116,,330,,,,,,,,,,,og-post,,,,AAXX 28104 07207 36/// /3323 10082 2//// 30030 40082 52016 333 91133=
07207,1999-12-28 11:00:00,7.3,1009,2.1,,,,25.928,72.228,,290,,,,,,,,,,,og-post,,,,AAXX 28114 07207 36/// /2914 10073 2//// 30037 40090 51021 333 91139=
07207,1999-12-28 12:00:00,7,1009.1,1,,,15000,25.928,72.228,,310,,,,0.2,0.4,,,,,25,og-post,,,,AAXX 28124 07207 /1565 63114 10070 2//// 30038 40091 50010 69941 72582 86900 222// 326// 333 69927 91139 92448=
07207,1999-12-28 13:00:00,8.1,1009.3,0.9,,,,25.928,61.116,,310,,,,,,,,,,,og-post,,,,AAXX 28134 07207 36/// /3114 10081 2//// 30040 40093 51009 333 91133=
07207,1999-12-28 14:00:00,8.5,1009.1,0.2,,,,29.632,57.412,50.004,320,,,,,,,,,,,og-post,,,,AAXX 28144 07207 36/// /3216 10085 2//// 30039 40091 53002 333 91027 91131=
07207,1999-12-28 15:00:00,5.2,1010.2,1.4,,,25000,22.224,64.82,,20,,,,0.2,,,,,,25,og-post,,,,AAXX 28154 07207 21475 60212 10052 2//// 30049 40102 53014 72581 86900 222// 326// 333 69927 91135 92448=
07207,1999-12-28 16:00:00,5.6,1010.7,1.5,,,,14.816,,,340,,,,,,,,,,,og-post,,,,AAXX 28164 07207 36/// /3408 10056 2//// 30054 40107 53015=
07207,1999-12-28 17:00:00,6.6,1011.4,2.1,,,,25.928,,,340,,,,,,,,,,,og-post,,,,AAXX 28174 07207 36/// /3414 10066 2//// 30061 40114 51021=
07207,1999-12-28 18:00:00,5.7,1012.3,2.1,,,25000,25.928,64.82,,350,5,9,,,,0.6,,,,1,og-post,,,,AAXX 28184 07207 11575 33514 10057 2//// 30070 40123 53021 69962 70181 83200 222// 326// 333 10090 20050 91135 92438=
07207,1999-12-28 19:00:00,5.9,1013.2,2.5,,,,25.928,,,350,,,,,,,,,,,og-post,,,,AAXX 28194 07207 36/// /3514 10059 2//// 30079 40132 53025=
07207,1999-12-28 20:00:00,6.2,1014,2.6,,,,18.52,,,340,,,,,,,,,,,og-post,,,,AAXX 28204 07207 36/// /3410 10062 2//// 30087 40140 51026=
07207,1999-12-28 21:00:00,6.5,1014.4,2.1,,,25000,22.224,,,340,,,,,,,,,,,og-post,,,,AAXX 28214 07207 32575 13412 10065 2//// 30091 40144 51021 81200 222// 326// 333 92438=
07207,1999-12-28 22:00:00,5.6,1015,1.8,,,,22.224,,,350,,,,,,,,,,,og-post,,,,AAXX 28224 07207 36/// /3512 10056 2//// 30097 40150 51018=
07207,1999-12-28 23:00:00,5.2,1015.4,1.5,,,,18.52,,,360,,,,,,,,,,,og-post,,,,AAXX 28234 07207 36/// /3610 10052 2//// 30101 40154 51015=
07207,1999-12-29 00:00:00,4.2,1016.2,1.6,,,,14.816,,,20,,,,,,,,,,,og-post,,,,AAXX 29004 07207 36/// /0208 10042 2//// 30108 40162 53016=
07207,1999-12-29 01:00:00,4.2,1016.3,1.2,,,,18.52,,,10,,,,,,,,,,,og-post,,,,AAXX 29014 07207 36/// /0110 10042 2//// 30109 40163 51012=
07207,1999-12-29 02:00:00,4.2,1016.8,1.2,,,,18.52,,,10,,,,,,,,,,,og-post,,,,AAXX 29024 07207 36/// /0110 10042 2//// 30114 40168 51012=
07207,1999-12-29 03:00:00,4.1,1017.5,1.3,,,,14.816,,,10,,,,,,,,,,,og-post,,,,AAXX 29034 07207 36/// /0108 10041 2//// 30121 40175 53013=
07207,1999-12-29 04:00:00,4.1,1017.8,1.6,,,,18.52,,,10,,,,,,,,,,,og-post,,,,AAXX 29044 07207 36/// /0110 10041 2//// 30124 40178 51016=
07207,1999-12-29 05:00:00,4,1017.8,1.1,,,,18.52,,,350,,,,,,,,,,,og-post,,,,AAXX 29054 07207 36/// /3510 10040 2//// 30124 40178 51011=
07207,1999-12-29 06:00:00,4.3,1018.4,0.9,,,30000,14.816,,,10,3.4,6.7,,,,,,,,,og-post,,,,AAXX 29064 07207 32980 00108 10043 2//// 30130 40184 53009 222// 326// 333 10067 20034 92438=
07207,1999-12-29 07:00:00,4.6,1019.2,1.4,,,,14.816,,,350,,,,,,,,,,,og-post,,,,AAXX 29074 07207 36/// /3508 10046 2//// 30138 40192 53014=
07207,1999-12-29 09:00:00,5.4,1020.7,2.3,,,30000,14.816,,,350,,,,,,,,,,,og-post,,,,AAXX 29094 07207 32980 03508 10054 2//// 30153 40207 51023 222// 326// 333 92438=
07207,1999-12-29 10:00:00,7.2,1021.1,2.1,,,,14.816,,,340,,,,,,,,,,,og-post,,,,AAXX 29104 07207 36/// /3408 10072 2//// 30158 40211 51021=
07207,1999-12-29 11:00:00,8,1022,2.1,,,,25.928,,,340,,,,,,,,,,,og-post,,,,AAXX 29114 07207 36/// /3414 10080 2//// 30167 40220 53021=
07207,1999-12-29 12:00:00,8.6,1022,1.5,,,30000,18.52,,,330,,,,,,,,,,,og-post,,,,AAXX 29124 07207 32580 33310 10086 2//// 30167 40220 51015 82230 222// 326// 333 92438=
07207,1999-12-29 13:00:00,8.8,1022.2,1.1,,,,18.52,,,350,,,,,,,,,,,og-post,,,,AAXX 29134 07207 36/// /3510 10088 2//// 30169 40222 51011=
07207,1999-12-29 14:00:00,8.7,1022.2,0.3,,,,25.928,,,330,,,,,,,,,,,og-post,,,,AAXX 29144 07207 36/// /3314 10087 2//// 30169 40222 52003=
07207,1999-12-29 15:00:00,8.6,1022.9,0.8,,,30000,18.52,,,340,,,,,,,,,,,og-post,,,,AAXX 29154 07207 32580 43410 10086 2//// 30176 40229 53008 82230 222// 326// 333 92438=
07207,1999-12-29 16:00:00,7.8,1023.1,0.9,,,,14.816,,,350,,,,,,,,,,,og-post,,,,AAXX 29164 07207 36/// /3508 10078 2//// 30178 40231 53009=
07207,1999-12-29 17:00:00,6.2,1024,1.6,,,,11.112,,,10,,,,,,,,,,,og-post,,,,AAXX 29174 07207 36/// /0106 10062 2//// 30186 40240 53016=
07207,1999-12-29 19:00:00,5.9,1025.5,2.2,,,,14.816,,,10,,,,,,,,,,,og-post,,,,AAXX 29194 07207 36/// /0108 10059 2//// 30201 40255 51022=
07207,1999-12-29 20:00:00,5.7,1025.8,1.8,,,,14.816,,,10,,,,,,,,,,,og-post,,,,AAXX 29204 07207 36/// /0108 10057 2//// 30204 40258 51018=
07207,1999-12-29 21:00:00,5.8,1027,2,,,20000,14.816,,,10,,,,,,,,,,,og-post,,,,AAXX 29214 07207 32570 50108 10058 2//// 30216 40270 53020 85230 222// 326// 333 92428=
07207,1999-12-29 22:00:00,6.4,1026.9,1.4,,,,14.816,,,350,,,,,,,,,,,og-post,,,,AAXX 29224 07207 36/// /3508 10064 2//// 30215 40269 50014=
07207,1999-12-29 23:00:00,5.6,1027.8,2,,,,14.816,,,350,,,,,,,,,,,og-post,,,,AAXX 29234 07207 36/// /3508 10056 2//// 30224 40278 51020=
07207,1999-12-30 00:00:00,5.5,1028.2,1,,,,14.816,,,10,,,,,,,,,,,og-post,,,,AAXX 30004 07207 36/// /0108 10055 2//// 30228 40282 53010=
07207,1999-12-30 01:00:00,5.5,1027.8,0.9,,,,14.816,,,360,,,,,,,,,,,og-post,,,,AAXX 30014 07207 36/// /3608 10055 2//// 30224 40278 50009=
07207,1999-12-30 02:00:00,6.3,1027.6,-0.2,,,,11.112,,,340,,,,,,,,,,,og-post,,,,AAXX 30024 07207 36/// /3406 10063 2//// 30222 40276 58002=
07207,1999-12-30 03:00:00,6.4,1028.4,0.1,,,,11.112,,,340,,,,,,,,,,,og-post,,,,AAXX 30034 07207 36/// /3406 10064 2//// 30230 40284 53001=
07207,1999-12-30 04:00:00,6,1028.2,0.4,,,,11.112,,,340,,,,,,,,,,,og-post,,,,AAXX 30044 07207 36/// /3406 10060 2//// 30228 40282 52004=
07207,1999-12-30 05:00:00,6.9,1028.2,0.5,,,,11.112,,,320,,,,,,,,,,,og-post,,,,AAXX 30054 07207 36/// /3206 10069 2//// 30228 40282 51005=
07207,1999-12-30 06:00:00,6.7,1028.2,-0.1,,,18000,7.408,,,330,5.3,7,,,,,,,,,og-post,,,,AAXX 30064 07207 32968 43304 10067 2//// 30228 40282 56001 82032 222// 326// 333 10070 20053 92427=
07207,1999-12-30 07:00:00,7.6,1028.3,0.1,,,,7.408,,,290,,,,,,,,,,,og-post,,,,AAXX 30074 07207 36/// /2904 10076 2//// 30229 40283 53001=
07207,1999-12-30 08:00:00,8.7,1028,-0.1,,,,14.816,,,270,,,,,,,,,,,og-post,,,,AAXX 30084 07207 36/// /2708 10087 2//// 30227 40280 58001=
07207,1999-12-30 09:00:00,9.2,1028.4,0.3,,,25000,22.224,,,260,,,,,,,,,,,og-post,,,,AAXX 30094 07207 32575 72612 10092 2//// 30231 40284 53003 8527/ 222// 326// 333 92428=
07207,1999-12-30 10:00:00,9.6,1028.4,0.2,,,,22.224,,,260,,,,,,,,,,,og-post,,,,AAXX 30104 07207 36/// /2612 10096 2//// 30231 40284 53002=
07207,1999-12-30 11:00:00,9.8,1028.1,0,,,,25.928,,,260,,,,,,,,,,,og-post,,,,AAXX 30114 07207 36/// /2614 10098 2//// 30228 40281 50000=
07207,1999-12-30 12:00:00,10.1,1026.9,-1.3,,,25000,29.632,,,260,,,,,,,,,,,og-post,,,,AAXX 30124 07207 32575 82616 10101 2//// 30216 40269 58013 8527/ 222// 326// 333 92438=
07207,1999-12-30 13:00:00,10.2,1026.5,-1.9,,,,35.188,,,270,,,,,,,,,,,og-post,,,,AAXX 30134 07207 36/// /2719 10102 2//// 30212 40265 58019=
07207,1999-12-30 14:00:00,10.2,1025.1,-2.8,,,,38.892,,,260,,,,,,,,,,,og-post,,,,AAXX 30144 07207 36/// /2621 10102 2//// 30198 40251 58028=
07207,1999-12-30 15:00:00,9.6,1025,-1.8,,,,35.188,64.82,64.82,270,,,,,,,,,,,og-post,,,,AAXX 30154 07207 36/// /2719 10096 2//// 30197 40250 56018 333 91035 91135=
07207,1999-12-30 16:00:00,9.8,1024,-2.3,,,,35.188,57.412,,260,,,0.2,,,,,,,,og-post,,,,AAXX 30164 07207 26/// /2619 10098 2//// 30187 40240 56023 333 69925 91131=
07207,1999-12-30 17:00:00,9.3,1023.6,-1.5,,,,38.892,72.228,61.116,280,,,,,,,,,,,og-post,,,,AAXX 30174 07207 36/// /2821 10093 2//// 30183 40236 57015 333 91033 91139=
07207,1999-12-30 18:00:00,9.3,1023.3,-1.8,,,15000,42.596,72.228,,260,6.5,10.4,,0.6,,0.6,,,,51,og-post,,,,AAXX 30184 07207 /1565 82623 10093 2//// 30180 40233 56018 69962 75162 888// 222// 326// 333 10104 20065 69967 91139 92447=
07207,1999-12-30 19:00:00,10.1,1023,-0.8,,,,42.596,,,280,,,,,,,,,,,og-post,,,,AAXX 30194 07207 26/// /2823 10101 2//// 30177 40230 55008 333 69905=
07207,1999-12-30 20:00:00,9.5,1022.6,-1.1,,,,42.596,,68.524,280,,,0.2,,,,,,,,og-post,,,,AAXX 30204 07207 26/// /2823 10095 2//// 30173 40226 56011 333 69925 91037=
07207,1999-12-30 21:00:00,9.6,1022.1,-0.9,,,15000,38.892,68.524,,270,,,,0.6,,,,,,60,og-post,,,,AAXX 30214 07207 21465 82721 10096 2//// 30168 40221 58009 76062 887// 222// 326// 333 69967 91137 92447=
07207,1999-12-30 22:00:00,9.9,1022,-1,,,,46.3,68.524,,280,,,,,,,,,,,og-post,,,,AAXX 30224 07207 26/// /2825 10099 2//// 30167 40220 55010 333 69905 91137=
07207,1999-12-30 23:00:00,10.1,1021.6,-1,,,,42.596,64.82,64.82,280,,,0.2,,,,,,,,og-post,,,,AAXX 30234 07207 26/// /2823 10101 2//// 30163 40216 57010 333 69925 91035 91135=
07207,1999-12-31 00:00:00,10.5,1021.4,-0.5,,,,42.596,68.524,64.82,290,,,,0.6,1,,,,,,og-post,,,,AAXX 31004 07207 /6/// /2923 10105 2//// 30161 40214 58005 60011 333 69967 91035 91137=
07207,1999-12-31 01:00:00,11,1021.1,-0.9,,,,35.188,68.524,57.412,290,,,,,,,,,,,og-post,,,,AAXX 31014 07207 26/// /2919 10110 2//// 30158 40211 56009 333 69905 91031 91137=
07207,1999-12-31 02:00:00,10.9,1021.2,-0.4,,,,22.224,53.708,,310,,,,,,,,,,,og-post,,,,AAXX 31024 07207 26/// /3112 10109 2//// 30159 40212 56004 333 69905 91129=
07207,1999-12-31 03:00:00,10.9,1021.1,-0.3,,,,18.52,68.524,,310,,,,,,,,,,,og-post,,,,AAXX 31034 07207 26/// /3110 10109 2//// 30158 40211 56003 333 69907 91137=
07207,1999-12-31 04:00:00,10.7,1020.8,-0.4,,,,25.928,,,310,,,,,,,,,,,og-post,,,,AAXX 31044 07207 36/// /3114 10107 2//// 30155 40208 58004=
07207,1999-12-31 05:00:00,10.8,1021,-0.3,,,,22.224,,,310,,,,,,,,,,,og-post,,,,AAXX 31054 07207 36/// /3112 10108 2//// 30157 40210 55003=
07207,1999-12-31 06:00:00,10.6,1021.3,0.1,,,20000,22.224,68.524,,320,9.3,11,,,,1,,,,1,og-post,,,,AAXX 31064 07207 11570 23212 10106 2//// 30160 40213 53001 60012 70160 82200 222// 326// 333 10110 20093 91137 92438=
07207,1999-12-31 07:00:00,10.3,1021.9,1.2,,,,18.52,,,330,,,,,,,,,,,og-post,,,,AAXX 31074 07207 36/// /3310 10103 2//// 30166 40219 53012=
07207,1999-12-31 08:00:00,10.2,1022.3,1.4,,,,18.52,,,330,,,,,,,,,,,og-post,,,,AAXX 31084 07207 36/// /3310 10102 2//// 30170 40223 51014=
07207,1999-12-31 09:00:00,10.3,1023.3,1.9,,,20000,18.52,,,330,,,,,,,,,,,og-post,,,,AAXX 31094 07207 32670 63310 10103 2//// 30180 40233 53019 86500 222// 326// 333 92438=
07207,1999-12-31 10:00:00,10.7,1024.1,2.2,,,,14.816,,,320,,,,,,,,,,,og-post,,,,AAXX 31104 07207 36/// /3208 10107 2//// 30188 40241 53022=
07207,1999-12-31 11:00:00,11.2,1024,1.5,,,,11.112,,,310,,,,,,,,,,,og-post,,,,AAXX 31114 07207 36/// /3106 10112 2//// 30187 40240 50015=
07207,1999-12-31 12:00:00,10.9,1023.9,0.6,,,20000,11.112,,,300,,,,,,,,,,,og-post,,,,AAXX 31124 07207 32670 83006 10109 2//// 30186 40239 50006 885// 222// 326// 333 92438=
07207,1999-12-31 13:00:00,10.7,1024.1,-0,,,,7.408,,,310,,,,,,,,,,,og-post,,,,AAXX 31134 07207 36/// /3104 10107 2//// 30188 40241 54000=
07207,1999-12-31 14:00:00,10.9,1023.6,-0.4,,,,11.112,,,300,,,0.2,,,,,,,,og-post,,,,AAXX 31144 07207 26/// /3006 10109 2//// 30183 40236 58004 333 69925=
07207,1999-12-31 15:00:00,10.7,1023.9,-0.3,,,4000,22.224,,,310,,,,0.2,,,,,,10,og-post,,,,AAXX 31154 07207 21440 83112 10107 2//// 30186 40239 57003 71052 887// 222// 326// 333 69927 92436=
07207,1999-12-31 16:00:00,10.4,1024,0.1,,,,22.224,,,320,,,0.2,,,,,,,,og-post,,,,AAXX 31164 07207 26/// /3212 10104 2//// 30187 40240 53001 333 69925=
07207,1999-12-31 17:00:00,10.2,1024.4,0.7,,,,18.52,,,320,,,,,,,,,,,og-post,,,,AAXX 31174 07207 36/// /3210 10102 2//// 30191 40244 53007=
07207,1999-12-31 18:00:00,10.4,1024.7,0.9,,,20000,18.52,,,320,10,11.5,,0.2,,0.4,,,,2,og-post,,,,AAXX 31184 07207 /1570 73210 10104 2//// 30194 40247 52009 69942 70252 8523/ 222// 326// 333 10115 20100 69927 92438=
07207,1999-12-31 19:00:00,10.4,1025.1,1.1,,,,11.112,,,320,,,,,,,,,,,og-post,,,,AAXX 31194 07207 36/// /3206 10104 2//// 30198 40251 53011=
07207,1999-12-31 20:00:00,10.4,1025.5,1.1,,,,14.816,,,290,,,,,,,,,,,og-post,,,,AAXX 31204 07207 36/// /2908 10104 2//// 30202 40255 52011=
07207,1999-12-31 21:00:00,10.6,1025.8,1.2,,,,14.816,,,290,,,,,,,,,,,og-post,,,,AAXX 31214 07207 36/// /2908 10106 2//// 30205 40258 51012=
07207,1999-12-31 22:00:00,10.3,1026.1,0.9,,,,11.112,,,280,,,,,,,,,,,og-post,,,,AAXX 31224 07207 36/// /2806 10103 2//// 30208 40261 51009=
07207,1999-12-31 23:00:00,10.6,1026.2,0.6,,,,11.112,,,280,,,,,,,,,,,og-post,,,,AAXX 31234 07207 36/// /2806 10106 2//// 30209 40262 51006=
