station_id,dh_utc,temperature,pression,pression_variation_3h,humidite,point_de_rosee,visibilite,vent_moyen,vent_rafales,vent_rafales_10min,vent_direction,temperature_min,temperature_max,pluie_1h,pluie_3h,pluie_6h,pluie_12h,pluie_24h,ensoleillement,temperature_sol,temps_omm,source,radiations,neige_au_sol,nebulosite,raw_msg
07510,1997-01-01 00:00:00,-2,1007.9,0,74,-6,10000,11.112,,,40,,,,,,,,,,,wg-a,,,,AAXX 01004 07510 12760 40406 11020 21060 30002 40079 50000 60006 82530 90000=
07510,1997-01-01 03:00:00,-3,1009.6,1.7,80,-6,8000,11.112,,,10,,,,,,,,,,,wg-a,,,,AAXX 01034 07510 12758 70106 11030 21060 30019 40096 53017 60006 875// 90300=
07510,1997-01-01 06:00:00,-5,1011.6,1.9,86,-7,6000,7.408,,,340,-4.8,-0.3,,,,,,,,,wg-a,,,,AAXX 01064 07510 02756 23404 11050 21070 30038 40116 53019 60006 82500 90600 333 11003 21048 60004=
07510,1997-01-01 09:00:00,-6,1014,2.3,86,-8,500,11.112,,,330,,,,,,,,,,,wg-a,,,,AAXX 01094 07510 12300 53306 11060 21080 30061 40140 52023 60006 85600 90900=
07510,1997-01-01 12:00:00,-5,1015.1,1.2,79,-8,500,3.704,,,300,,,,,,,,,,,wg-a,,,,AAXX 01124 07510 12400 /3002 11050 21080 30073 40151 51012 60006 86500 91200=
07510,1997-01-01 15:00:00,-3,1015.5,0.4,74,-7,6000,7.408,,,40,,,,,,,,,,,wg-a,,,,AAXX 01154 07510 12756 /0404 11030 21070 30077 40155 53004 60006 81500 91500=
07510,1997-01-01 18:00:00,-5,1016.4,0.9,86,-7,500,7.408,,,30,-6.4,-2.7,,,,,,,,,wg-a,,,,AAXX 01184 07510 12/00 /0304 11050 21070 30086 40164 52009 60006 91800 333 11027 21064=
07510,1997-01-01 21:00:00,-6,1016.8,0.3,86,-8,3000,7.408,,,30,,,,,,,,,,10,wg-a,,,,AAXX 01214 07510 12/30 00304 11060 21080 30089 40168 51003 60006 71000 80000 92100=
07510,1997-01-02 00:00:00,-6,1015.9,-0.9,93,-7,3000,11.112,,,40,,,,,,,,,,10,wg-a,,,,AAXX 02004 07510 12330 70406 11060 21070 30080 40159 58009 60006 71011 87500 90000=
07510,1997-01-02 03:00:00,-6,1014.6,-1.3,93,-7,3000,7.408,,,20,,,,,,,,,,10,wg-a,,,,AAXX 02034 07510 12730 30204 11060 21070 30067 40146 56013 60006 71011 82502 90300=
07510,1997-01-02 06:00:00,-5,1012.4,-2.1,93,-6,2000,11.112,,,70,-6.3,-4.4,,,,,,,,10,wg-a,,,,AAXX 02064 07510 02/20 70706 11050 21060 30046 40124 57021 60006 71011 83032 90600 333 11044 21063 60004=
07510,1997-01-02 09:00:00,-4,1011.5,-0.9,93,-5,2000,11.112,,,30,,,,,,,,,,10,wg-a,,,,AAXX 02094 07510 12/20 70306 11040 21050 30037 40115 56009 60006 71022 83032 90900=
07510,1997-01-02 12:00:00,-1,1009.8,-1.6,74,-5,500,11.112,,,40,,,,,,,,,,,wg-a,,,,AAXX 02124 07510 12/00 /0406 11010 21050 30021 40098 58016 60006 83032 91200=
07510,1997-01-02 15:00:00,2,1007.6,-2.1,64,-4,7000,14.816,,,60,,,,,,,,,,,wg-a,,,,AAXX 02154 07510 12/57 30608 10020 21040 30000 40076 56021 60006 80002 91500=
07510,1997-01-02 18:00:00,0,1006.9,-0.7,74,-4,500,11.112,,,40,-4.5,2,,,,,,,,,wg-a,,,,AAXX 02184 07510 12/00 30406 10000 21040 39993 40069 58007 60006 81032 91800 333 10020 21045=
07510,1997-01-02 21:00:00,-1,1005.4,-1.5,86,-3,500,11.112,,,40,,,,,,,,,,,wg-a,,,,AAXX 02214 07510 12500 40406 11010 21030 39978 40054 55015 60006 82532 92100=
07510,1997-01-03 00:00:00,-2,1003.5,-1.9,86,-4,500,22.224,,,40,,,,,,,,,,,wg-a,,,,AAXX 03004 07510 12400 70412 11020 21040 39959 40035 58019 60006 875// 90000=
07510,1997-01-03 03:00:00,-1,1002.1,-1.4,86,-3,500,11.112,,,60,,,,,,,,,,,wg-a,,,,AAXX 03034 07510 12300 80606 11010 21030 39945 40021 58014 60006 877// 90300=
07510,1997-01-03 06:00:00,-1,1000.3,-1.8,86,-3,4000,14.816,,,50,-1.6,-0.1,,,,,,,,10,wg-a,,,,AAXX 03064 07510 02340 80508 11010 21030 39927 40003 56018 60006 71022 877// 90600 333 11001 21016 60004=
07510,1997-01-03 09:00:00,-1,999.3,-1,86,-3,4000,18.52,,,40,,,,,,,,,,10,wg-a,,,,AAXX 03094 07510 12340 80410 11010 21030 39917 49993 58010 60006 71022 8667/ 90900=
07510,1997-01-03 12:00:00,1,996.7,-2.5,75,-3,4000,18.52,,,10,,,,,,,,,,10,wg-a,,,,AAXX 03124 07510 02440 80110 10010 21030 39892 49967 58025 61000 71062 8557/ 91200 333 6100=
07510,1997-01-03 15:00:00,-1,994,-2.7,93,-2,2000,18.52,,,360,,,,0,,,,,,10,wg-a,,,,AAXX 03154 07510 12420 83610 11010 21020 39865 49940 58027 60007 71076 8557/ 91500=
07510,1997-01-03 18:00:00,0,992.5,-1.5,93,-1,1200,7.408,,,350,-0.8,0.8,,,,,,,,10,wg-a,,,,AAXX 03184 07510 02212 83504 10000 21010 39850 49925 56015 61000 71076 8677/ 91800 333 10008 21008 6006=
07510,1997-01-03 21:00:00,0,992.8,0.3,93,-1,2500,0,,,0,,,,,,,,,,66,wg-a,,,,AAXX 03214 07510 02225 8//// 10000 21010 39853 49928 53003 61000 76666 8677/ 92100 333 ////=
07510,1997-01-04 00:00:00,-1,995.7,2.8,100,-1,4000,0,,,0,,,,,,,,,,10,wg-a,,,,AAXX 04004 07510 02240 8//// 11010 21010 39881 49957 53028 60046 71062 876// 90000 333 61000=
07510,1997-01-04 03:00:00,-1,998.5,2.8,100,-1,4000,0,,,0,,,,,,,,,,10,wg-a,,,,AAXX 04034 07510 12240 8//// 11010 21010 39909 49985 53028 60006 71022 876// 90300=
07510,1997-01-04 06:00:00,-1,1001.7,3.2,93,-2,3000,0,,,0,-1,0.1,,,,,12,,,10,wg-a,,,,AAXX 04064 07510 02130 8//// 11010 21020 39941 40017 53032 60006 71022 876// 90600 333 10001 21010 60124=
07510,1997-01-04 09:00:00,-1,1004.8,3.1,93,-2,900,0,,,0,,,,,,,,,,46,wg-a,,,,AAXX 04094 07510 12109 8//// 11010 21020 39972 40048 51031 60006 74642 876// 90900=
07510,1997-01-04 12:00:00,-1,1006,1.2,100,-1,500,0,,,0,,,,,,,,,,44,wg-a,,,,AAXX 04124 07510 12705 8//// 11010 21010 39984 40060 50012 60006 74442 886// 91200=
07510,1997-01-04 15:00:00,0,1007.3,1.3,100,0,900,11.112,,,320,,,,,,,,,,42,wg-a,,,,AAXX 04154 07510 12109 83206 10000 20000 39997 40073 53013 60006 74244 886// 91500=
07510,1997-01-04 18:00:00,1,1009.1,1.8,93,0,3000,7.408,,,330,-1.4,0.8,,,,,,,,10,wg-a,,,,AAXX 04184 07510 02430 83304 10010 20000 30015 40091 51018 61000 71064 875// 91800 333 10008 21014 6100=
07510,1997-01-04 21:00:00,1,1009.9,0.8,93,0,3000,7.408,,,230,,,,,,,,,,10,wg-a,,,,AAXX 04214 07510 02430 82304 10010 20000 30023 40099 50008 61000 71062 875// 92100 333 ////=
07510,1997-01-05 00:00:00,1,1010.2,0.3,93,0,3000,7.408,,,190,,,,,,,,,,10,wg-a,,,,AAXX 05004 07510 02230 81904 10010 20000 30026 40102 50003 61000 71076 875// 90000 333 6100=
07510,1997-01-05 03:00:00,1,1009.9,-0.3,93,0,3000,3.704,,,120,,,,,,,,,,10,wg-a,,,,AAXX 05034 07510 12530 71202 10010 20000 30023 40099 56003 60006 71022 875// 90300=
07510,1997-01-05 06:00:00,0,1009,-0.9,100,0,2000,0,,,0,0,1,,,,,,,,10,wg-a,,,,AAXX 05064 07510 02520 70000 10000 20000 30014 40090 58009 60006 71011 875// 90600 333 10010 20000 61000=
07510,1997-01-05 09:00:00,0,1010.1,1,93,-1,1200,0,,,0,,,,,,,,,,10,wg-a,,,,AAXX 05094 07510 12512 50000 10000 21010 30024 40101 51010 60006 71011 84502 90900=
07510,1997-01-05 12:00:00,5,1010,0.1,87,3,4000,3.704,,,200,,,,,,,,,,10,wg-a,,,,AAXX 05124 07510 12540 72002 10050 20030 30025 40100 50001 60006 71011 86502 91200=
07510,1997-01-05 15:00:00,9,1009.5,-0.4,61,2,10000,3.704,,,260,,,,1,,,,,,,wg-a,,,,AAXX 05154 07510 12460 22602 10090 20020 30021 40095 56004 60017 82832 91500=
07510,1997-01-05 18:00:00,4,1010.4,0.8,93,3,6000,7.408,,,100,-0.9,9.9,,,,,,,,,wg-a,,,,AAXX 05184 07510 12456 41004 10040 20030 30029 40104 53008 60006 84800 91800 333 10099 21009=
07510,1997-01-05 21:00:00,1,1011.5,1,100,1,800,3.704,,,90,,,,,,,,,,41,wg-a,,,,AAXX 05214 07510 12108 /0902 10010 20010 30039 40115 51010 60006 74141 85500 92100=
07510,1997-01-06 00:00:00,3,1011.9,0.4,93,2,200,11.112,,,120,,,,,,,,,,43,wg-a,,,,AAXX 06004 07510 12/02 91206 10030 20020 30043 40119 53004 60006 74341 89/// 90000=
07510,1997-01-06 03:00:00,2,1012,0.1,100,2,400,7.408,,,120,,,,,,,,,,45,wg-a,,,,AAXX 06034 07510 12/04 91204 10020 20020 30044 40120 50001 60006 74544 89/// 90300=
07510,1997-01-06 06:00:00,2,1012.4,0.4,93,1,400,7.408,,,90,0.7,4.1,,,,,,,,45,wg-a,,,,AAXX 06064 07510 02/04 90904 10020 20010 30048 40124 53004 60006 74544 89/// 90600 333 10041 20007 60004=
07510,1997-01-06 09:00:00,2,1013.8,1.4,100,2,1100,7.408,,,120,,,,,,,,,,10,wg-a,,,,AAXX 06094 07510 12011 81204 10020 20020 30062 40138 51014 60006 71042 886// 90900=
07510,1997-01-06 12:00:00,3,1014.5,0.7,100,3,2500,7.408,,,130,,,,,,,,,,10,wg-a,,,,AAXX 06124 07510 12225 81304 10030 20030 30069 40145 50007 60006 71042 886// 91200=
07510,1997-01-06 15:00:00,6,1014.3,-0.1,75,2,8000,0,,,0,,,,,,,,,,,wg-a,,,,AAXX 06154 07510 12/58 /0000 10060 20020 30068 40143 55001 60006 82032 91500=
07510,1997-01-06 18:00:00,2,1015.8,1.4,100,2,400,3.704,,,10,1.6,6.3,,,,,,,,43,wg-a,,,,AAXX 06184 07510 12/04 90102 10020 20020 30082 40158 53014 60006 74342 89/// 91800 333 10063 20016=
07510,1997-01-06 21:00:00,2,1016.8,1,93,1,2500,3.704,,,40,,,,,,,,,,10,wg-a,,,,AAXX 06214 07510 12125 70402 10020 20010 30092 40168 51010 60006 71042 875// 92100=
07510,1997-01-07 00:00:00,1,1016.8,-0.1,100,1,3000,3.704,,,10,,,,,,,,,,10,wg-a,,,,AAXX 07004 07510 12730 70102 10010 20010 30091 40168 58001 60006 71042 87500 90000=
07510,1997-01-07 03:00:00,0,1017,0.2,93,-1,3000,7.408,,,50,,,,,,,,,,10,wg-a,,,,AAXX 07034 07510 12730 /0504 10000 21010 30093 40170 53002 60006 71022 85500 90300=
07510,1997-01-07 06:00:00,-1,1017.1,0.1,100,-1,1200,11.112,,,70,-0.7,2,,,,,,,,10,wg-a,,,,AAXX 07064 07510 02112 70706 11010 21010 30094 40171 53001 60006 71011 876// 90600 333 10020 21007 60004=
07510,1997-01-07 09:00:00,-1,1017.2,0.1,100,-1,800,7.408,,,90,,,,,,,,,,10,wg-a,,,,AAXX 07094 07510 12/08 90904 11010 21010 30095 40172 52001 60006 71042 89/// 90900=
07510,1997-01-07 12:00:00,1,1015.7,,86,-1,500,11.112,,,110,,,,,,,,,,1,wg-a,,,,AAXX 07124 07510 12300 /1106 10010 21010 30080 40157 60006 70142 86600 91200=
07510,1997-01-07 15:00:00,3,1013.1,-2.5,81,0,6000,11.112,,,110,,,,,,,,,,,wg-a,,,,AAXX 07154 07510 12/56 /1106 10030 20000 30055 40131 56025 60006 80002 91500=
07510,1997-01-07 18:00:00,0,1011.7,-1.5,93,-1,3000,7.408,,,110,-1,3.4,,,,,,,,10,wg-a,,,,AAXX 07184 07510 12/30 71104 10000 21010 30040 40117 56015 60006 71011 82032 91800 333 10034 21010=
07510,1997-01-07 21:00:00,0,1009.4,-2.2,86,-2,6000,14.816,,,100,,,,,,,,,,,wg-a,,,,AAXX 07214 07510 12/56 71008 10000 21020 30018 40094 58022 60006 80002 92100=
07510,1997-01-08 00:00:00,1,1007.3,-2.1,86,-1,8000,14.816,,,110,,,,,,,,,,,wg-a,,,,AAXX 08004 07510 12758 71108 10010 21010 39997 40073 58021 60006 8257/ 90000=
07510,1997-01-08 03:00:00,2,1004.8,-2.5,87,0,7000,18.52,,,120,,,,0,,,,,,61,wg-a,,,,AAXX 08034 07510 12657 71210 10020 20000 39972 40048 57025 60007 76162 8657/ 90300=
07510,1997-01-08 06:00:00,2,1003.2,-1.5,93,1,500,11.112,,,120,-0.2,1.8,,,,,,,,61,wg-a,,,,AAXX 08064 07510 02500 71206 10020 20010 39957 40032 56015 61000 76162 8457/ 90600 333 10018 21002 6001=
07510,1997-01-08 09:00:00,2,1002.7,-0.5,93,1,4000,11.112,,,120,,,,2,,,,,,10,wg-a,,,,AAXX 08094 07510 12640 81206 10020 20010 39952 40027 55005 60027 71062 8557/ 90900=
07510,1997-01-08 12:00:00,6,1001.3,-1.3,87,4,6000,11.112,,,140,,,,,,,,,,1,wg-a,,,,AAXX 08124 07510 02656 /1406 10060 20040 39939 40013 58013 60026 70162 85530 91200 333 61000=
07510,1997-01-08 15:00:00,10,1000,-1.2,76,6,8000,14.816,,,140,,,,,,,,,,,wg-a,,,,AAXX 08154 07510 12458 41408 10100 20060 39927 40000 56012 60006 81802 91500=
07510,1997-01-08 18:00:00,5,1000,-0.1,93,4,8000,11.112,,,130,1.6,10,,,,,,,,,wg-a,,,,AAXX 08184 07510 12758 41306 10050 20040 39926 40000 56001 60006 81502 91800 333 10100 20016=
07510,1997-01-08 21:00:00,5,999.5,-0.5,93,4,8000,11.112,,,150,,,,,,,,,,,wg-a,,,,AAXX 08214 07510 12658 41506 10050 20040 39921 49995 56005 60006 84502 92100=
07510,1997-01-09 00:00:00,4,999.8,0.2,93,3,8000,7.408,,,140,,,,,,,,,,,wg-a,,,,AAXX 09004 07510 12658 /1404 10040 20030 39923 49998 50002 60006 86500 90000=
07510,1997-01-09 03:00:00,4,999.3,-0.4,93,3,8000,7.408,,,130,,,,,,,,,,,wg-a,,,,AAXX 09034 07510 12658 71304 10040 20030 39919 49993 56004 60006 8653/ 90300=
07510,1997-01-09 06:00:00,4,999.5,0.2,93,3,7000,11.112,,,120,3.8,5.5,,,,,,,,60,wg-a,,,,AAXX 09064 07510 02457 71206 10040 20030 39921 49995 53002 61000 76062 8587/ 90600 333 10055 20038 6002=
07510,1997-01-09 09:00:00,4,1001.7,2.1,100,4,4000,7.408,,,110,,,,0,,,,,,10,wg-a,,,,AAXX 09094 07510 12440 71104 10040 20040 39942 40017 51021 60007 71062 82572 90900=
07510,1997-01-09 12:00:00,8,1004.4,2.8,81,5,500,3.704,,,330,,,,,,,,,,1,wg-a,,,,AAXX 09124 07510 12400 /3302 10080 20050 39970 40044 51028 60006 70162 83502 91200=
07510,1997-01-09 15:00:00,8,1006.7,2.3,87,6,7000,11.112,,,310,,,,,,,,,,,wg-a,,,,AAXX 09154 07510 12357 73106 10080 20060 39993 40067 53023 60006 875// 91500=
07510,1997-01-09 18:00:00,6,1009.6,2.8,87,4,10000,7.408,,,230,4.2,8.9,,,,,,,,,wg-a,,,,AAXX 09184 07510 12560 72304 10060 20040 30021 40096 51028 60006 875// 91800 333 10089 20042=
07510,1997-01-09 21:00:00,5,1011.3,1.7,87,3,11000,7.408,,,280,,,,,,,,,,,wg-a,,,,AAXX 09214 07510 12/61 /2804 10050 20030 30038 40113 53017 60006 92100=
07510,1997-01-10 00:00:00,4,1014,2.6,87,2,10000,11.112,,,340,,,,,,,,,,,wg-a,,,,AAXX 10004 07510 12460 /3406 10040 20020 30064 40140 51026 60006 86500 90000=
07510,1997-01-10 03:00:00,4,1016,2,81,1,10000,14.816,,,350,,,,,,,,,,,wg-a,,,,AAXX 10034 07510 12560 73508 10040 20010 30084 40160 53020 60006 87500 90300=
07510,1997-01-10 06:00:00,0,1017.4,1.3,93,-1,11000,0,,,0,0.3,6.2,,,,,,,,,wg-a,,,,AAXX 10064 07510 02/61 /0000 10000 21010 30097 40174 52013 60006 90600 333 10062 20003 60004=
07510,1997-01-10 09:00:00,1,1019.3,1.9,100,1,7000,3.704,,,180,,,,,,,,,,,wg-a,,,,AAXX 10094 07510 12557 71802 10010 20010 30116 40193 53019 60006 85532 90900=
07510,1997-01-10 12:00:00,5,1020.3,1.1,81,2,7000,0,,,0,,,,,,,,,,,wg-a,,,,AAXX 10124 07510 12457 70000 10050 20020 30127 40203 51011 60006 878// 91200=
07510,1997-01-10 15:00:00,6,1020.8,0.5,70,1,8000,3.704,,,120,,,,,,,,,,,wg-a,,,,AAXX 10154 07510 12458 71202 10060 20010 30132 40208 53005 60006 878// 91500=
07510,1997-01-10 18:00:00,5,1022.1,1.3,75,1,8000,7.408,,,130,-0.7,5.6,,,,,,,,,wg-a,,,,AAXX 10184 07510 12558 71304 10050 20010 30145 40221 53013 60006 875// 91800 333 10056 21007=
07510,1997-01-10 21:00:00,4,1022.7,0.6,81,1,8000,11.112,,,120,,,,,,,,,,,wg-a,,,,AAXX 10214 07510 12558 71206 10040 20010 30151 40227 53006 60006 83530 92100=
07510,1997-01-11 00:00:00,3,1023.3,0.5,87,1,8000,11.112,,,140,,,,,,,,,,,wg-a,,,,AAXX 11004 07510 12458 /1406 10030 20010 30156 40233 50005 60006 83570 90000=
07510,1997-01-11 03:00:00,3,1023.9,0.6,87,1,8000,7.408,,,130,,,,,,,,,,,wg-a,,,,AAXX 11034 07510 12758 71304 10030 20010 30162 40239 53006 60006 8357/ 90300=
07510,1997-01-11 06:00:00,2,1023.9,0,93,1,8000,11.112,,,140,2.1,4.7,,,,,,,,,wg-a,,,,AAXX 11064 07510 02/58 /1406 10020 20010 30162 40239 50000 60006 85030 90600 333 10047 20021 60004=
07510,1997-01-11 09:00:00,3,1025.5,1.6,87,1,10000,11.112,,,140,,,,,,,,,,,wg-a,,,,AAXX 11094 07510 12760 /1406 10030 20010 30178 40255 51016 60006 83530 90900=
07510,1997-01-11 12:00:00,6,1025.7,0.3,81,3,10000,7.408,,,120,,,,,,,,,,,wg-a,,,,AAXX 11124 07510 12760 71204 10060 20030 30181 40257 50003 60006 8353/ 91200=
07510,1997-01-11 15:00:00,8,1025.3,-0.3,71,3,8000,3.704,,,110,,,,,,,,,,,wg-a,,,,AAXX 11154 07510 12758 71102 10080 20030 30178 40253 55003 60006 8353/ 91500=
07510,1997-01-11 18:00:00,7,1026.2,0.8,81,4,6000,7.408,,,110,1.7,8.1,,,,,,,,,wg-a,,,,AAXX 11184 07510 12656 71104 10070 20040 30186 40262 53008 60006 875// 91800 333 10081 20017=
07510,1997-01-11 21:00:00,7,1026.7,0.5,81,4,10000,7.408,,,160,,,,,,,,,,,wg-a,,,,AAXX 11214 07510 12660 71604 10070 20040 30191 40267 50005 60006 875// 92100=
07510,1997-01-12 00:00:00,6,1026.6,-0.1,87,4,10000,3.704,,,70,,,,,,,,,,,wg-a,,,,AAXX 12004 07510 12660 70702 10060 20040 30190 40266 56001 60006 875// 90000=
07510,1997-01-12 03:00:00,3,1025.9,-0.8,93,2,6000,7.408,,,110,,,,,,,,,,,wg-a,,,,AAXX 12034 07510 12/56 01104 10030 20020 30182 40259 58008 60006 80000 90300=
07510,1997-01-12 06:00:00,2,1026,0.1,93,1,3500,7.408,,,100,1.2,7.2,,,,,,,,10,wg-a,,,,AAXX 12064 07510 02/35 01004 10020 20010 30183 40260 51001 60006 71011 80000 90600 333 10072 20012 60004=
07510,1997-01-12 09:00:00,2,1026.6,0.6,100,2,3000,7.408,,,80,,,,,,,,,,10,wg-a,,,,AAXX 12094 07510 12/30 00804 10020 20020 30189 40266 52006 60006 71000 80000 90900=
07510,1997-01-12 12:00:00,9,1025.1,-1.3,57,1,10000,7.408,,,90,,,,,,,,,,,wg-a,,,,AAXX 12124 07510 12/60 00904 10090 20010 30176 40251 58013 60006 80000 91200=
07510,1997-01-12 15:00:00,12,1023.3,-1.7,47,1,10000,11.112,,,50,,,,,,,,,,,wg-a,,,,AAXX 12154 07510 12/60 10506 10120 20010 30159 40233 56017 60006 80002 91500=
07510,1997-01-12 18:00:00,7,1023,-0.5,70,2,6000,0,,,0,0.6,11.9,,,,,,,,,wg-a,,,,AAXX 12184 07510 12/56 20000 10070 20020 30154 40230 56005 60006 80002 91800 333 10119 20006=
07510,1997-01-12 21:00:00,2,1023,-0.1,87,0,8000,3.704,,,10,,,,,,,,,,,wg-a,,,,AAXX 12214 07510 12/58 00102 10020 20000 30153 40230 58001 60006 80000 92100=
07510,1997-01-13 00:00:00,1,1022.3,-0.7,93,0,500,0,,,0,,,,,,,,,,,wg-a,,,,AAXX 13004 07510 12/00 00000 10010 20000 30146 40223 58007 60006 80000 90000=
07510,1997-01-13 03:00:00,-1,1021.8,-0.6,93,-2,3000,3.704,,,90,,,,,,,,,,10,wg-a,,,,AAXX 13034 07510 12/30 00902 11010 21020 30140 40218 58006 60006 71000 80000 90300=
07510,1997-01-13 06:00:00,0,1021.5,-0.2,93,-1,3000,7.408,,,90,-1.4,7,,,,,,,,11,wg-a,,,,AAXX 13064 07510 02/30 00904 10000 21010 30138 40215 55002 60006 71100 80000 90600 333 10070 21014 60004=
07510,1997-01-13 09:00:00,3,1022,0.5,93,2,6000,7.408,,,100,,,,,,,,,,11,wg-a,,,,AAXX 13094 07510 12/56 01004 10030 20020 30143 40220 53005 60006 71100 80000 90900=
07510,1997-01-13 12:00:00,10,1021.1,-0.7,53,1,10000,11.112,,,110,,,,,,,,,,,wg-a,,,,AAXX 13124 07510 12/60 01106 10100 20010 30136 40211 58007 60006 80000 91200=
07510,1997-01-13 15:00:00,12,1019.9,-1.1,40,-1,15000,14.816,,,100,,,,,,,,,,,wg-a,,,,AAXX 13154 07510 12/65 01008 10120 21010 30125 40199 56011 60006 80000 91500=
07510,1997-01-13 18:00:00,7,1020,0,66,1,10000,7.408,,,110,-0.3,12.8,,,,,,,,,wg-a,,,,AAXX 13184 07510 12/60 01104 10070 20010 30125 40200 50000 60006 80000 91800 333 10128 21003=
07510,1997-01-13 21:00:00,4,1020.3,0.2,81,1,10000,7.408,,,120,,,,,,,,,,,wg-a,,,,AAXX 13214 07510 12/60 01204 10040 20010 30127 40203 51002 60006 80000 92100=
07510,1997-01-14 00:00:00,5,1020.1,-0.2,87,3,10000,14.816,,,140,,,,,,,,,,,wg-a,,,,AAXX 14004 07510 12/60 01408 10050 20030 30125 40201 57002 60006 80000 90000=
07510,1997-01-14 03:00:00,3,1019.8,-0.3,100,3,10000,11.112,,,120,,,,,,,,,,,wg-a,,,,AAXX 14034 07510 12/60 01206 10030 20030 30122 40198 56003 60006 80000 90300=
07510,1997-01-14 06:00:00,2,1019.8,-0.1,93,1,8000,11.112,,,110,1.9,6.9,,,,,,,,,wg-a,,,,AAXX 14064 07510 02/58 01106 10020 20010 30121 40198 55001 60006 80000 90600 333 10069 20019 60004=
07510,1997-01-14 09:00:00,4,1020.6,0.9,93,3,6000,14.816,,,120,,,,,,,,,,,wg-a,,,,AAXX 14094 07510 32/56 01208 10040 20030 30130 40206 53009 80000 90900=
07510,1997-01-14 12:00:00,11,1020,-0.4,62,4,10000,11.112,,,110,,,,,,,,,,,wg-a,,,,AAXX 14124 07510 12/60 01106 10110 20040 30126 40200 58004 60006 80000 91200=
07510,1997-01-14 15:00:00,12,1019.3,-0.7,58,4,10000,14.816,,,100,,,,,,,,,,,wg-a,,,,AAXX 14154 07510 12/60 01008 10120 20040 30119 40193 55007 60006 80000 91500=
07510,1997-01-14 18:00:00,8,1020.5,1.1,76,4,10000,11.112,,,110,1.7,13.1,,,,,,,,,wg-a,,,,AAXX 14184 07510 12/60 01106 10080 20040 30130 40205 53011 60006 80000 91800 333 10131 20017=
07510,1997-01-15 00:00:00,4,1020.6,0.4,93,3,8000,11.112,,,100,,,,,,,,,,,wg-a,,,,AAXX 15004 07510 12/58 01006 10040 20030 30140 40206 50004 60006 80000 90000=
07510,1997-01-15 03:00:00,3,1021.8,0.1,93,2,8000,7.408,,,110,,,,,,,,,,,wg-a,,,,AAXX 15034 07510 32/58 01104 10030 20020 30141 40218 53001 80000 90300=
07510,1997-01-15 06:00:00,1,1021.8,-0,100,1,10000,11.112,,,120,1.4,8,,,,,1,,,,wg-a,,,,AAXX 15064 07510 02/60 01206 10010 20010 30141 40218 55000 60006 80000 90600 333 10080 20014 60014=
07510,1997-01-15 09:00:00,4,1022.3,0.6,87,2,15000,7.408,,,110,,,,,,,,,,,wg-a,,,,AAXX 15094 07510 32/65 01104 10040 20020 30147 40223 52006 80000 90900=
07510,1997-01-15 12:00:00,11,1021.2,-0.9,66,5,15000,14.816,,,110,,,,,,,,,,,wg-a,,,,AAXX 15124 07510 12/65 01108 10110 20050 30138 40212 58009 60006 80000 91200=
07510,1997-01-15 15:00:00,13,1020.1,-1.1,67,7,15000,14.816,,,120,,,,,,,,,,,wg-a,,,,AAXX 15154 07510 12/65 01208 10130 20070 30127 40201 56011 60006 80000 91500=
07510,1997-01-15 18:00:00,9,1020.1,-0.1,81,6,10000,11.112,,,100,1.3,13.1,,,,,,,,,wg-a,,,,AAXX 15184 07510 12/60 01006 10090 20060 30126 40201 58001 60006 80000 91800 333 10131 20013=
07510,1997-01-15 21:00:00,8,1020.7,0.6,87,6,10000,11.112,,,150,,,,,,,,,,,wg-a,,,,AAXX 15214 07510 12/60 01506 10080 20060 30132 40207 53006 60006 80000 92100=
07510,1997-01-16 00:00:00,5,1020.6,-0.2,93,4,10000,11.112,,,130,,,,,,,,,,,wg-a,,,,AAXX 16004 07510 12/60 01306 10050 20040 30130 40206 58002 60006 80000 90000=
07510,1997-01-16 03:00:00,4,1019.6,-1,93,3,10000,14.816,,,130,,,,,,,,,,,wg-a,,,,AAXX 16034 07510 32/60 01308 10040 20030 30120 40196 56010 80000 90300=
07510,1997-01-16 06:00:00,4,1018.8,-0.8,100,4,10000,11.112,,,160,3.7,8.7,,,,,,,,,wg-a,,,,AAXX 16064 07510 02/60 31606 10040 20040 30112 40188 55008 60006 82031 90600 333 10087 20037 60004=
07510,1997-01-16 09:00:00,7,1018.4,,87,5,10000,14.816,,,130,,,,,,,,,,21,wg-a,,,,AAXX 16094 07510 32760 31308 10070 20050 30109 40184 72161 81530 90900=
07510,1997-01-16 12:00:00,12,1017.1,-1.2,71,7,12000,18.52,,,140,,,,,,,,,,1,wg-a,,,,AAXX 16124 07510 12/62 01410 10120 20070 30097 40171 58012 60006 70161 80000 91200=
07510,1997-01-16 15:00:00,15,1015.1,-1.9,63,8,15000,18.52,,,130,,,,,,,,,,,wg-a,,,,AAXX 16154 07510 12/65 11310 10150 20080 30078 40151 56019 60006 80002 91500=
07510,1997-01-16 18:00:00,11,1015.1,-0.1,82,8,15000,14.816,,,130,4.3,14.6,,,,,,,,,wg-a,,,,AAXX 16184 07510 12/65 21308 10110 20080 30077 40151 55001 60006 81032 91800 333 10146 20043=
07510,1997-01-16 21:00:00,10,1014.4,-0.7,82,7,15000,22.224,,,140,,,,,,,,,,,wg-a,,,,AAXX 16214 07510 12/65 31412 10100 20070 30070 40144 57007 60006 82032 92100=
07510,1997-01-17 00:00:00,8,1013.3,-1.1,93,7,15000,18.52,,,130,,,,,,,,,,,wg-a,,,,AAXX 17004 07510 12/65 11310 10080 20070 30059 40133 56011 60006 81030 90000=
07510,1997-01-17 03:00:00,8,1012.6,-0.7,93,7,15000,18.52,,,130,,,,,,,,,,,wg-a,,,,AAXX 17034 07510 12765 71310 10080 20070 30052 40126 56007 60006 8553/ 90300=
07510,1997-01-17 06:00:00,8,1013,0.4,93,7,10000,14.816,,,150,8.2,11,,,,,,,,60,wg-a,,,,AAXX 17064 07510 02660 71508 10080 20070 30056 40130 53004 61000 76061 8457/ 90600 333 10110 20082 6000=
07510,1997-01-17 09:00:00,9,1014.6,1.6,93,8,500,14.816,,,150,,,,2,,,,,,60,wg-a,,,,AAXX 17094 07510 12500 81508 10090 20080 30072 40146 51016 60027 76066 8557/ 90900=
07510,1997-01-17 12:00:00,10,1015.5,0.9,100,10,2500,11.112,,,210,,,,1,,,,,,10,wg-a,,,,AAXX 17124 07510 02225 82106 10100 20100 30081 40155 50009 60036 71065 8677/ 91200 333 60017=
07510,1997-01-17 15:00:00,12,1016.9,1.4,88,10,10000,14.816,,,310,,,,1,,,,,,1,wg-a,,,,AAXX 17154 07510 12460 83108 10120 20100 30095 40169 53014 60017 70165 8582/ 91500=
07510,1997-01-17 18:00:00,10,1019.2,2.3,93,9,10000,11.112,,,300,8.4,12,,1,,,,,,1,wg-a,,,,AAXX 17184 07510 02260 73006 10100 20090 30118 40192 51023 60006 70186 81102 91800 333 10120 20084 60017=
07510,1997-01-17 21:00:00,6,1021.2,1.8,93,5,2500,7.408,,,230,,,,,,,,,,10,wg-a,,,,AAXX 17214 07510 12/25 /2304 10060 20050 30136 40212 51018 60006 710// 92100=
07510,1997-01-18 00:00:00,4,1021.4,0.2,93,3,500,3.704,,,190,,,,,,,,,,41,wg-a,,,,AAXX 18004 07510 12/05 /1902 10040 20030 30138 40214 51002 60006 74141 80000 90000=
07510,1997-01-18 03:00:00,3,1020.2,-1.2,100,3,400,7.408,,,130,,,,,,,,,,41,wg-a,,,,AAXX 18034 07510 12/04 01304 10030 20030 30126 40202 57012 60006 74144 80000 90300=
07510,1997-01-18 06:00:00,4,1019.4,-0.8,100,4,600,11.112,,,150,2.9,9.9,,,,,4,,,44,wg-a,,,,AAXX 18064 07510 02/06 91506 10040 20040 30118 40194 58008 60006 74444 89/// 90600 333 10099 20029 60044=
07510,1997-01-18 09:00:00,6,1018.1,-1.2,100,6,8000,22.224,,,120,,,,,,,,,,10,wg-a,,,,AAXX 18094 07510 12258 81212 10060 20060 30106 40181 56012 60006 71042 876// 90900=
07510,1997-01-18 12:00:00,8,1014.3,-3.8,93,7,10000,25.928,,,140,,,,,,,,,,1,wg-a,,,,AAXX 18124 07510 12360 81414 10080 20070 30068 40143 58038 60006 70142 876// 91200=
07510,1997-01-18 15:00:00,9,1011.1,-3.1,87,7,11000,18.52,,,150,,,,,,,,,,,wg-a,,,,AAXX 18154 07510 12/61 /1510 10090 20070 30037 40111 56031 60006 91500=
07510,1997-01-18 18:00:00,9,1010.4,-0.7,93,8,15000,18.52,,,150,4,9.3,,,,,,,,21,wg-a,,,,AAXX 18184 07510 02765 81510 10090 20080 30030 40104 55007 61000 72162 8457/ 91800 333 10093 20040 6000=
07510,1997-01-18 21:00:00,9,1010.5,0.1,93,8,15000,11.112,,,160,,,,,,,,,,,wg-a,,,,AAXX 18214 07510 12765 71606 10090 20080 30031 40105 52001 60006 8351/ 92100=
07510,1997-01-19 00:00:00,9,1010.3,-0.2,87,7,15000,11.112,,,160,,,,,,,,,,,wg-a,,,,AAXX 19004 07510 12665 /1606 10090 20070 30029 40103 58002 60006 85532 90000=
07510,1997-01-19 03:00:00,9,1009.7,-0.6,87,7,15000,11.112,,,170,,,,,,,,,,,wg-a,,,,AAXX 19034 07510 12665 71706 10090 20070 30023 40097 56006 60006 8553/ 90300=
07510,1997-01-19 06:00:00,9,1010,0.3,81,6,15000,11.112,,,260,8.4,9.2,,,,,,,,,wg-a,,,,AAXX 19064 07510 02565 72606 10090 20060 30026 40100 53003 60006 878// 90600 333 10092 20084 60004=
07510,1997-01-19 09:00:00,8,1011,1,93,7,10000,14.816,,,170,,,,1,,,,,,21,wg-a,,,,AAXX 19094 07510 12460 /1708 10080 20070 30036 40110 53010 60017 72186 875// 90900=
07510,1997-01-19 12:00:00,11,1011,0.1,82,8,20000,7.408,,,170,,,,,,,,,,1,wg-a,,,,AAXX 19124 07510 12570 71704 10110 20080 30037 40110 50001 60016 70186 85802 91200=
07510,1997-01-19 15:00:00,13,1010.7,-0.3,67,7,15000,7.408,,,210,,,,,,,,,,,wg-a,,,,AAXX 19154 07510 12565 72104 10130 20070 30034 40107 55003 60006 81832 91500=
07510,1997-01-19 18:00:00,9,1010.8,0,81,6,15000,3.704,,,110,7.4,13.5,,,,,,,,,wg-a,,,,AAXX 19184 07510 12/65 71102 10090 20060 30034 40108 50000 60006 83032 91800 333 10135 20074=
07510,1997-01-19 21:00:00,6,1011.6,0.7,93,5,15000,3.704,,,90,,,,,,,,,,,wg-a,,,,AAXX 19214 07510 12/65 50902 10060 20050 30041 40116 52007 60006 81037 92100=
07510,1997-01-20 00:00:00,7,1011.2,-0.4,93,6,15000,11.112,,,50,,,,,,,,,,,wg-a,,,,AAXX 20004 07510 12765 70506 10070 20060 30037 40112 58004 60006 8257/ 90000=
07510,1997-01-20 03:00:00,7,1010.5,-0.6,93,6,15000,7.408,,,40,,,,,,,,,,,wg-a,,,,AAXX 20034 07510 12765 70404 10070 20060 30031 40105 55006 60006 8257/ 90300=
07510,1997-01-20 06:00:00,8,1009.2,-1.3,87,6,15000,11.112,,,30,5.8,8.6,,,,,1,,,,wg-a,,,,AAXX 20064 07510 02765 80306 10080 20060 30018 40092 56013 60006 8257/ 90600 333 10086 20058 60014=
07510,1997-01-20 09:00:00,8,1011.5,2.3,87,6,15000,14.816,,,20,,,,,,,,,,,wg-a,,,,AAXX 20094 07510 12765 80208 10080 20060 30041 40115 51023 60006 8257/ 90900=
07510,1997-01-20 12:00:00,10,1012.2,0.7,76,6,15000,22.224,,,50,,,,,,,,,,3,wg-a,,,,AAXX 20124 07510 02565 70512 10100 20060 30048 40122 51007 61000 70362 8557/ 91200 333 6100=
07510,1997-01-20 15:00:00,11,1011.7,-0.5,71,6,15000,18.52,,,40,,,,,,,,,,,wg-a,,,,AAXX 20154 07510 12665 /0410 10110 20060 30043 40117 55005 60006 8557/ 91500=
07510,1997-01-20 18:00:00,10,1012.7,1,82,7,15000,18.52,,,30,7.4,11,,,,,,,,60,wg-a,,,,AAXX 20184 07510 02665 70310 10100 20070 30053 40127 53010 61000 76062 8557/ 91800 333 10110 20074 6000=
07510,1997-01-20 21:00:00,10,1013.2,0.5,76,6,15000,22.224,,,40,,,,,,,,,,3,wg-a,,,,AAXX 20214 07510 02665 70412 10100 20060 30058 40132 52005 61000 70362 8557/ 92100 333 ////=
07510,1997-01-21 00:00:00,9,1013.6,0.4,81,6,12000,18.52,,,50,,,,,,,,,,21,wg-a,,,,AAXX 21004 07510 02462 70510 10090 20060 30062 40136 50004 61000 72162 875// 90000 333 6100=
07510,1997-01-21 03:00:00,8,1013.2,-0.4,87,6,12000,11.112,,,50,,,,,,,,,,,wg-a,,,,AAXX 21034 07510 12562 70506 10080 20060 30058 40132 55004 60006 84532 90300=
07510,1997-01-21 06:00:00,8,1012.1,-1.1,87,6,12000,11.112,,,50,7.7,10,,,,,,,,,wg-a,,,,AAXX 21064 07510 02562 70506 10080 20060 30047 40121 56011 60006 8453/ 90600 333 10100 20077 60004=
07510,1997-01-21 09:00:00,10,1012.8,0.7,87,8,15000,14.816,,,80,,,,,,,,,,,wg-a,,,,AAXX 21094 07510 12465 80808 10100 20080 30054 40128 53007 60006 885// 90900=
07510,1997-01-21 12:00:00,14,1012.3,-0.4,77,10,15000,11.112,,,140,,,,,,,,,,,wg-a,,,,AAXX 21124 07510 12465 61406 10140 20100 30050 40123 58004 60006 84550 91200=
07510,1997-01-21 15:00:00,16,1011.4,-0.8,72,11,15000,0,,,0,,,,,,,,,,,wg-a,,,,AAXX 21154 07510 12465 /0000 10160 20110 30042 40114 56008 60006 85832 91500=
07510,1997-01-21 18:00:00,14,1012.1,0.6,88,12,8000,11.112,,,150,8.4,15.8,,,,,,,,60,wg-a,,,,AAXX 21184 07510 02458 81506 10140 20120 30048 40121 53006 61000 76062 8587/ 91800 333 10158 20084 6000=
07510,1997-01-21 21:00:00,13,1013.1,1,94,12,8000,7.408,,,220,,,,1,,,,,,60,wg-a,,,,AAXX 21214 07510 12358 82204 10130 20120 30058 40131 53010 60017 76066 8687/ 92100=
07510,1997-01-22 00:00:00,11,1014.4,1.2,87,9,8000,7.408,,,180,,,,6,,,,,,60,wg-a,,,,AAXX 22004 07510 02358 81804 10110 20090 30070 40144 51012 60086 76066 8687/ 90000 333 60067=
07510,1997-01-22 03:00:00,10,1015.1,0.7,93,9,10000,11.112,,,210,,,,4,,,,,,80,wg-a,,,,AAXX 22034 07510 12560 82106 10100 20090 30077 40151 52007 60047 78086 8587/ 90300=
07510,1997-01-22 06:00:00,10,1016.2,1.1,93,9,10000,11.112,,,170,9.2,13.9,,,,,12,,,3,wg-a,,,,AAXX 22064 07510 02660 71706 10100 20090 30088 40162 53011 60006 70386 8553/ 90600 333 10139 20092 60124=
07510,1997-01-22 09:00:00,12,1017.4,1.2,88,10,10000,11.112,,,150,,,,,,,,,,,wg-a,,,,AAXX 22094 07510 12660 /1506 10120 20100 30100 40174 51012 60006 83800 90900=
07510,1997-01-22 12:00:00,16,1017.6,0.3,72,11,10000,11.112,,,140,,,,,,,,,,,wg-a,,,,AAXX 22124 07510 12560 /1406 10160 20110 30103 40176 50003 60006 81100 91200=
07510,1997-01-22 15:00:00,17,1017.6,0.1,59,9,15000,7.408,,,250,,,,,,,,,,,wg-a,,,,AAXX 22154 07510 12665 32504 10170 20090 30104 40176 53001 60006 83800 91500=
07510,1997-01-22 18:00:00,11,1018.3,0.5,87,9,15000,0,,,0,9.2,17.7,,,,,,,,,wg-a,,,,AAXX 22184 07510 12765 40000 10110 20090 30109 40183 52005 60006 81532 91800 333 10177 20092=
07510,1997-01-22 21:00:00,11,1018.3,0.5,87,9,15000,0,,,0,9.2,17.7,,,,,,,,,wg-a,,,,AAXX 22214 07510 12765 40000 10110 20090 30109 40183 52005 60006 8153/ 92100 333 10177 20092=
07510,1997-01-23 00:00:00,10,1018.4,-0.4,93,9,15000,7.408,,,50,,,,,,,,,,,wg-a,,,,AAXX 23004 07510 12565 70504 10100 20090 30110 40184 58004 60006 8453/ 90000=
07510,1997-01-23 03:00:00,10,1018.1,-0.3,93,9,500,0,,,0,,,,2,,,,,,60,wg-a,,,,AAXX 23034 07510 12400 70000 10100 20090 30107 40181 57003 60027 76062 8257/ 90300=
07510,1997-01-23 06:00:00,10,1017.5,-0.6,100,10,3000,11.112,,,40,7.9,11.1,,,,,,,,60,wg-a,,,,AAXX 23064 07510 02530 80406 10100 20100 30101 40175 56006 61000 76062 8457/ 90600 333 10111 20079 6003=
07510,1997-01-23 09:00:00,11,1018.1,0.6,94,10,4500,7.408,,,60,,,,0,,,,,,10,wg-a,,,,AAXX 23094 07510 12245 80604 10110 20100 30107 40181 52006 60007 71062 8657/ 90900=
07510,1997-01-23 12:00:00,12,1018.5,0.4,94,11,500,11.112,,,140,,,,0,,,,,,21,wg-a,,,,AAXX 23124 07510 02200 81406 10120 20110 30111 40185 50004 60016 72162 8457/ 91200 333 60007=
07510,1997-01-23 18:00:00,13,1018.8,0.6,82,10,12000,11.112,,,100,10.2,14.5,,,,,,,,1,wg-a,,,,AAXX 23184 07510 12662 /1006 10130 20100 30115 40188 53006 60006 70162 86500 91800 333 10145 20102=
07510,1997-01-23 21:00:00,14,1019.9,1.1,77,10,12000,14.816,,,100,,,,,,,,,,,wg-a,,,,AAXX 23214 07510 12662 71008 10140 20100 30126 40199 51011 60006 875// 92100=
07510,1997-01-24 00:00:00,13,1020.9,0.9,77,9,11000,7.408,,,60,,,,,,,,,,,wg-a,,,,AAXX 24004 07510 12/61 /0604 10130 20090 30135 40209 51009 60006 90000=
07510,1997-01-24 03:00:00,12,1020.7,-0.2,88,10,10000,14.816,,,70,,,,,,,,,,,wg-a,,,,AAXX 24034 07510 12460 70708 10120 20100 30133 40207 58002 60006 875// 90300=
07510,1997-01-24 06:00:00,10,1021.4,0.6,93,9,8000,3.704,,,90,9.9,13.8,,,,,1,,,,wg-a,,,,AAXX 24064 07510 02458 70902 10100 20090 30139 40214 52006 60006 875// 90600 333 10138 20099 60014=
07510,1997-01-24 09:00:00,10,1023.7,2.3,100,10,500,3.704,,,160,,,,,,,,,,,wg-a,,,,AAXX 24094 07510 12400 81602 10100 20100 30162 40237 52023 60006 875// 90900=
07510,1997-01-24 12:00:00,12,1024.3,0.7,88,10,6000,3.704,,,160,,,,,,,,,,,wg-a,,,,AAXX 24124 07510 12556 81602 10120 20100 30169 40243 50007 60006 875// 91200=
07510,1997-01-24 15:00:00,12,1024.4,0.1,94,11,6000,3.704,,,190,,,,,,,,,,21,wg-a,,,,AAXX 24154 07510 02256 81902 10120 20110 30170 40244 53001 61000 72162 875// 91500 333 ////=
07510,1997-01-24 18:00:00,12,1025.7,1.3,94,11,500,3.704,,,140,9.5,12.9,,,,,,,,10,wg-a,,,,AAXX 24184 07510 02300 81402 10120 20110 30183 40257 53013 61000 71065 875// 91800 333 10129 20095 6100=
07510,1997-01-25 00:00:00,11,1027.1,0.2,100,11,1500,3.704,,,310,,,,0,,,,,,28,wg-a,,,,AAXX 25004 07510 02015 83102 10110 20110 30190 40271 51002 60006 72842 886// 90000 333 60007=
07510,1997-01-25 03:00:00,11,1026.8,-0.3,94,10,800,7.408,,,40,,,,,,,,,,45,wg-a,,,,AAXX 25034 07510 32/08 90404 10110 20100 30193 40268 56003 74554 89/// 90300=
07510,1997-01-25 06:00:00,11,1026.5,-0.3,94,10,800,7.408,,,60,10.5,11.8,,,,,,,,45,wg-a,,,,AAXX 25064 07510 02/08 90604 10110 20100 30190 40265 55003 61000 74565 89/// 90600 333 10118 20105 6003=
07510,1997-01-25 09:00:00,11,1026.9,0.4,100,11,1800,3.704,,,30,,,,1,,,,,,10,wg-a,,,,AAXX 25094 07510 12218 80302 10110 20110 30194 40269 53004 60017 71065 877// 90900=
07510,1997-01-25 12:00:00,12,1026.5,-0.3,94,11,3000,7.408,,,110,,,,,,,,,,10,wg-a,,,,AAXX 25124 07510 12230 81104 10120 20110 30191 40265 58003 60016 71065 877// 91200=
07510,1997-01-25 15:00:00,12,1025.6,-0.9,94,11,3000,11.112,,,110,,,,,,,,,,10,wg-a,,,,AAXX 25154 07510 12230 81106 10120 20110 30182 40256 56009 60006 71022 877// 91500=
07510,1997-01-25 18:00:00,11,1025.9,0.2,94,10,500,3.704,,,100,10.6,12.1,,,,,,,,,wg-a,,,,AAXX 25184 07510 12400 71002 10110 20100 30184 40259 53002 60006 85531 91800 333 10121 20106=
07510,1997-01-25 21:00:00,9,1026.1,0.2,93,8,1500,3.704,,,360,,,,,,,,,,40,wg-a,,,,AAXX 25214 07510 12/15 /3602 10090 20080 30186 40261 52002 60006 74041 83031 92100=
07510,1997-01-26 00:00:00,6,1025.9,-0.3,93,5,400,0,,,0,,,,0,,,,,,42,wg-a,,,,AAXX 26004 07510 02004 30000 10060 20050 30183 40259 58003 60006 74241 83601 90000 333 60007=
07510,1997-01-26 03:00:00,5,1025.4,-0.5,100,5,400,3.704,,,280,,,,,,,,,,44,wg-a,,,,AAXX 26034 07510 12004 32802 10050 20050 30178 40254 58005 60006 74444 83601 90300=
07510,1997-01-26 06:00:00,4,1025.1,-0.3,100,4,300,0,,,0,4.4,11,,,,,1,,,44,wg-a,,,,AAXX 26064 07510 02003 70000 10040 20040 30175 40251 56003 60006 74444 876// 90600 333 10110 20044 60014=
07510,1997-01-26 09:00:00,5,1025.8,0.7,100,5,100,7.408,,,60,,,,,,,,,,45,wg-a,,,,AAXX 26094 07510 12/01 90604 10050 20050 30182 40258 53007 60006 74544 89/// 90900=
07510,1997-01-26 12:00:00,8,1026.1,0.4,100,8,100,3.704,,,50,,,,,,,,,,43,wg-a,,,,AAXX 26124 07510 12/01 90502 10080 20080 30186 40261 50004 60006 74344 89/// 91200=
07510,1997-01-26 15:00:00,9,1025.4,-0.7,100,9,100,3.704,,,50,,,,,,,,,,45,wg-a,,,,AAXX 26154 07510 12/01 90502 10090 20090 30179 40254 56007 60006 74544 89/// 91500=
07510,1997-01-26 18:00:00,7,1026.2,0.7,100,7,100,7.408,,,360,4.3,8.9,,,,,,,,43,wg-a,,,,AAXX 26184 07510 12/01 93604 10070 20070 30186 40262 53007 60006 74344 89/// 91800 333 10089 20043=
07510,1997-01-26 21:00:00,6,1027,0.8,100,6,100,11.112,,,30,,,,,,,,,,45,wg-a,,,,AAXX 26214 07510 32/01 90306 10060 20060 30194 40270 52008 74544 89/// 92100=
07510,1997-01-27 00:00:00,5,1027.4,0.4,100,5,200,7.408,,,20,,,,,,,,,,43,wg-a,,,,AAXX 27004 07510 12/02 90204 10050 20050 30198 40274 50004 60006 74344 89/// 90000=
07510,1997-01-27 03:00:00,5,1027.7,0.3,100,5,200,11.112,,,350,,,,,,,,,,,wg-a,,,,AAXX 27034 07510 32/02 /3506 10050 20050 30201 40277 51003 90300=
07510,1997-01-27 06:00:00,5,1028.6,0.8,93,4,900,11.112,,,360,4.5,6.8,,,,,1,,,43,wg-a,,,,AAXX 27064 07510 02/09 93606 10050 20040 30209 40286 51008 60006 74344 89/// 90600 333 10068 20045 60014=
07510,1997-01-27 09:00:00,4,1030.4,1.8,100,4,500,14.816,,,40,,,,,,,,,,2,wg-a,,,,AAXX 27094 07510 12200 80408 10040 20040 30227 40304 51018 60006 70242 886// 90900=
07510,1997-01-27 12:00:00,5,1031.2,0.8,93,4,6000,11.112,,,350,,,,,,,,,,2,wg-a,,,,AAXX 27124 07510 12356 83506 10050 20040 30235 40312 50008 60006 70242 886// 91200=
07510,1997-01-27 15:00:00,5,1031.3,0.1,87,3,7000,11.112,,,20,,,,,,,,,,,wg-a,,,,AAXX 27154 07510 12457 80206 10050 20030 30236 40313 53001 60006 886// 91500=
07510,1997-01-27 18:00:00,4,1032.8,1.5,87,2,8000,18.52,,,40,4,5.3,,,,,,,,,wg-a,,,,AAXX 27184 07510 12458 80410 10040 20020 30251 40328 53015 60006 886// 91800 333 10053 20040=
07510,1997-01-27 21:00:00,5,1033.8,1,81,2,8000,14.816,,,30,,,,,,,,,,,wg-a,,,,AAXX 27214 07510 12458 80308 10050 20020 30261 40338 51010 60006 886// 92100=
07510,1997-01-28 00:00:00,5,1034.3,0.5,81,2,8000,11.112,,,40,,,,,,,,,,,wg-a,,,,AAXX 28004 07510 12458 80406 10050 20020 30266 40343 51005 60006 885// 90000=
07510,1997-01-28 03:00:00,4,1034.3,-0,75,0,8000,14.816,,,20,,,,,,,,,,,wg-a,,,,AAXX 28034 07510 12558 70208 10040 20000 30266 40343 55000 60006 875// 90300=
07510,1997-01-28 06:00:00,0,1034.8,0.4,93,-1,8000,11.112,,,10,0.1,4.9,,,,,,,,,wg-a,,,,AAXX 28064 07510 02/58 50106 10000 21010 30270 40348 53004 60006 80001 90600 333 10049 20001 60004=
07510,1997-01-28 09:00:00,0,1035.3,0.5,86,-2,10000,14.816,,,10,,,,,,,,,,,wg-a,,,,AAXX 28094 07510 12460 /0108 10000 21020 30275 40353 51005 60006 85600 90900=
07510,1997-01-28 12:00:00,4,1033.6,-1.6,60,-3,10000,22.224,,,50,,,,,,,,,,,wg-a,,,,AAXX 28124 07510 12460 40512 10040 21030 30259 40336 58016 60006 84500 91200=
07510,1997-01-28 15:00:00,3,1032.3,-1.3,65,-3,12000,18.52,,,60,,,,,,,,,,,wg-a,,,,AAXX 28154 07510 12562 80610 10030 21030 30246 40323 56013 60006 885// 91500=
07510,1997-01-28 18:00:00,3,1032.7,0.4,70,-2,8000,14.816,,,60,0,4.7,,,,,,,,70,wg-a,,,,AAXX 28184 07510 02558 80608 10030 21020 30250 40327 53004 61000 77071 875// 91800 333 10047 20000 6100=
07510,1997-01-28 21:00:00,3,1033.2,0.5,75,-1,6000,11.112,,,110,,,,,,,,,,1,wg-a,,,,AAXX 28214 07510 02556 71106 10030 21010 30255 40332 53005 61000 70172 875// 92100 333 ////=
07510,1997-01-29 00:00:00,1,1033.2,-0.1,80,-2,6000,7.408,,,100,,,,,,,,,,1,wg-a,,,,AAXX 29004 07510 02556 /1004 10010 21020 30254 40332 55001 61000 70171 81500 90000 333 ////=
07510,1997-01-29 03:00:00,-1,1033,-0.2,93,-2,6000,7.408,,,70,,,,,,,,,,,wg-a,,,,AAXX 29034 07510 12/56 00704 11010 21020 30252 40330 56002 60006 80000 90300=
07510,1997-01-29 06:00:00,-1,1032.4,-0.6,93,-2,500,11.112,,,60,-0.8,2.7,,,,,,,,,wg-a,,,,AAXX 29064 07510 02800 20606 11010 21020 30246 40324 58006 60006 82500 90600 333 10027 21008 61000=
07510,1997-01-29 09:00:00,2,1032.7,0.3,87,0,500,11.112,,,110,,,,,,,,,,,wg-a,,,,AAXX 29094 07510 12/00 /1106 10020 20000 30249 40327 51003 60006 81030 90900=
07510,1997-01-29 12:00:00,8,1031.5,-1,61,1,8000,11.112,,,70,,,,0,,,,,,,wg-a,,,,AAXX 29124 07510 02/58 20706 10080 20010 30239 40315 58010 60006 82032 91200 333 60007=
07510,1997-01-29 15:00:00,11,1030.1,-1.3,66,5,8000,18.52,,,110,,,,,,,,,,,wg-a,,,,AAXX 29154 07510 12/58 /1110 10110 20050 30226 40301 56013 60006 81032 91500=
07510,1997-01-29 18:00:00,7,1030.8,0.6,81,4,6000,7.408,,,80,-1.3,11.1,,,,,,,,,wg-a,,,,AAXX 29184 07510 12/56 /0804 10070 20040 30232 40308 53006 60006 81032 91800 333 10111 21013=
07510,1997-01-29 21:00:00,5,1031.1,0.2,87,3,8000,3.704,,,100,,,,,,,,,,,wg-a,,,,AAXX 29214 07510 12/58 01002 10050 20030 30234 40311 51002 60006 80000 92100=
07510,1997-01-30 00:00:00,3,1031.4,0.3,100,3,500,3.704,,,90,,,,,,,,,,11,wg-a,,,,AAXX 30004 07510 12/00 00902 10030 20030 30237 40314 50003 60006 71100 80000 90000=
07510,1997-01-30 03:00:00,3,1030.7,-0.7,100,3,2500,7.408,,,80,,,,,,,,,,10,wg-a,,,,AAXX 30034 07510 12/25 40804 10030 20030 30230 40307 58007 60006 71000 80002 90300=
07510,1997-01-30 06:00:00,2,1030.9,0.2,100,2,1500,7.408,,,80,1.8,7.4,,,,,,,,11,wg-a,,,,AAXX 30064 07510 02/15 40804 10020 20020 30232 40309 51002 60006 71111 80002 90600 333 10074 20018 60004=
07510,1997-01-30 09:00:00,4,1031.7,0.8,100,4,2000,3.704,,,80,,,,,,,,,,10,wg-a,,,,AAXX 30094 07510 12/20 40802 10040 20040 30240 40317 53008 60006 71000 80002 90900=
07510,1997-01-30 12:00:00,12,1030.9,-0.6,71,7,8000,22.224,,,110,,,,,,,,,,,wg-a,,,,AAXX 30124 07510 12/58 /1112 10120 20070 30234 40309 58006 60006 80002 91200=
07510,1997-01-30 15:00:00,14,1029.2,-1.6,63,7,10000,18.52,,,130,,,,,,,,,,,wg-a,,,,AAXX 30154 07510 12/60 31310 10140 20070 30218 40292 56016 60006 80002 91500=
07510,1997-01-30 18:00:00,9,1028.9,-0.4,87,7,500,7.408,,,90,1.9,14.4,,,,,,,,,wg-a,,,,AAXX 30184 07510 12/00 30904 10090 20070 30214 40289 56004 60006 80002 91800 333 10144 20019=
07510,1997-01-31 00:00:00,7,1028.5,-0.4,87,5,500,7.408,,,100,,,,,,,,,,,wg-a,,,,AAXX 31004 07510 12/00 31004 10070 20050 30209 40285 58004 60006 80002 90000=
07510,1997-01-31 03:00:00,5,1027.9,-0.7,93,4,4000,11.112,,,60,,,,0,,,,,,10,wg-a,,,,AAXX 31034 07510 12/40 30606 10050 20040 30202 40279 57007 60007 71000 80002 90300=
07510,1997-01-31 12:00:00,12,1027,-0.7,67,6,10000,14.816,,,100,,,,,,,,,,,wg-a,,,,AAXX 31124 07510 12/60 41008 10120 20060 30196 40270 58007 60006 80001 91200=
07510,1997-01-31 15:00:00,15,1025.8,-1.1,51,5,15000,11.112,,,100,,,,,,,,,,,wg-a,,,,AAXX 31154 07510 12/65 31006 10150 20050 30185 40258 56011 60006 80001 91500=
07510,1997-01-31 18:00:00,11,1026.9,0.9,71,6,8000,7.408,,,70,3.7,15.8,,,,,,,,,wg-a,,,,AAXX 31184 07510 12/58 30704 10110 20060 30194 40269 53009 60006 81032 91800 333 10158 20037=
07510,1997-01-31 21:00:00,7,1027.5,0.5,93,6,500,7.408,,,30,,,,,,,,,,,wg-a,,,,AAXX 31214 07510 12/00 40304 10070 20060 30199 40275 52005 60006 82032 92100=
07510,1997-02-01 00:00:00,6,1028,0.5,93,5,500,3.704,,,340,,,,,,,,,,,wg-a,,,,AAXX 01004 07510 12700 73402 10060 20050 30204 40280 52005 60006 875// 90000=
07510,1997-02-01 03:00:00,5,1028,-0,93,4,500,3.704,,,260,,,,,,,,,,11,wg-a,,,,AAXX 01034 07510 12700 42602 10050 20040 30204 40280 55000 60006 71111 83532 90300=
07510,1997-02-01 06:00:00,5,1028.3,0.2,93,4,3000,0,,,0,4.6,10.8,,,,,,,,10,wg-a,,,,AAXX 01064 07510 02230 40000 10050 20040 30206 40283 53002 60006 71011 83602 90600 333 10108 20046 60004=
07510,1997-02-01 09:00:00,8,1028.9,0.7,93,7,1500,0,,,0,,,,,,,,,,10,wg-a,,,,AAXX 01094 07510 12215 70000 10080 20070 30213 40289 51007 60006 71011 876// 90900=
07510,1997-02-01 15:00:00,13,1028,-0.7,82,10,11000,11.112,,,360,,,,,,,,,,,wg-a,,,,AAXX 01154 07510 12/61 /3606 10130 20100 30206 40280 56007 60006 91500=
07510,1997-02-01 18:00:00,10,1028.7,0.6,87,8,6000,3.704,,,110,3.6,13.6,,,,,,,,,wg-a,,,,AAXX 01184 07510 12456 /1102 10100 20080 30212 40287 53006 60006 86800 91800 333 10136 20036=
07510,1997-02-01 21:00:00,8,1028.8,-0,93,7,400,11.112,,,20,,,,,,,,,,10,wg-a,,,,AAXX 01214 07510 12/04 90206 10080 20070 30212 40288 55000 60006 71041 89/// 92100=
07510,1997-02-02 06:00:00,6,1026.8,-0.5,100,6,200,11.112,,,50,6,10.2,,,,,,,,45,wg-a,,,,AAXX 02064 07510 02/02 90506 10060 20060 30192 40268 58005 60006 74544 89/// 90600 333 10102 20060 60004=
07510,1997-02-02 09:00:00,6,1026.7,-0.1,100,6,200,7.408,,,110,,,,,,,,,,45,wg-a,,,,AAXX 02094 07510 12/02 91104 10060 20060 30191 40267 57001 60006 74544 89/// 90900=
07510,1997-02-02 12:00:00,7,1026.6,-0.1,100,7,2500,3.704,,,170,,,,,,,,,,10,wg-a,,,,AAXX 02124 07510 12125 /1702 10070 20070 30190 40266 58001 60006 71042 876// 91200=
07510,1997-02-02 15:00:00,8,1025.1,-1.4,93,7,6000,11.112,,,90,,,,,,,,,,60,wg-a,,,,AAXX 02154 07510 02356 80906 10080 20070 30176 40251 56014 61000 76062 876// 91500 333 ////=
07510,1997-02-02 18:00:00,7,1025.6,0.4,100,7,1500,11.112,,,60,5.5,8,,,,,,,,61,wg-a,,,,AAXX 02184 07510 02115 80606 10070 20070 30180 40256 53004 61000 76165 877// 91800 333 10080 20055 6003=
07510,1997-02-02 21:00:00,7,1026.2,0.6,93,6,1500,14.816,,,40,,,,2,,,,,,21,wg-a,,,,AAXX 02214 07510 12115 80408 10070 20060 30186 40262 53006 60027 72165 877// 92100=
07510,1997-02-03 00:00:00,6,1026.9,0.7,100,6,1500,14.816,,,20,,,,1,,,,,,10,wg-a,,,,AAXX 03004 07510 02215 80208 10060 20060 30193 40269 51007 60036 71065 877// 90000 333 60017=
07510,1997-02-03 03:00:00,5,1027.7,0.8,93,4,3500,11.112,,,340,,,,,,,,,,10,wg-a,,,,AAXX 03034 07510 02235 83406 10050 20040 30201 40277 53008 61000 71052 875// 90300 333 ////=
07510,1997-02-03 06:00:00,5,1028.7,0.9,93,4,2500,14.816,,,360,4.5,7.2,,,,,6,,,10,wg-a,,,,AAXX 03064 07510 02225 73608 10050 20040 30210 40287 53009 60006 71052 876// 90600 333 10072 20045 60064=
07510,1997-02-03 09:00:00,5,1029.7,1,87,3,7000,14.816,,,340,,,,,,,,,,,wg-a,,,,AAXX 03094 07510 12257 43408 10050 20030 30220 40297 51010 60006 84600 90900=
07510,1997-02-03 12:00:00,8,1029.9,0.3,76,4,15000,11.112,,,30,,,,,,,,,,,wg-a,,,,AAXX 03124 07510 12465 30306 10080 20040 30223 40299 50003 60006 83800 91200=
07510,1997-02-03 15:00:00,10,1028.6,-1.2,62,3,20000,22.224,,,360,,,,,,,,,,,wg-a,,,,AAXX 03154 07510 12570 33612 10100 20030 30211 40286 56012 60006 82801 91500=
07510,1997-02-03 18:00:00,7,1029.5,0.8,81,4,8000,11.112,,,10,3.8,10.1,,,,,,,,,wg-a,,,,AAXX 03184 07510 12/58 50106 10070 20040 30219 40295 52008 60006 80002 91800 333 10101 20038=
07510,1997-02-03 21:00:00,5,1030.3,0.7,93,4,1500,7.408,,,10,,,,,,,,,,28,wg-a,,,,AAXX 03214 07510 12115 90104 10050 20040 30226 40303 51007 60006 72842 896// 92100=
07510,1997-02-04 00:00:00,3,1028.5,-0.4,100,3,300,7.408,,,120,2.8,6.4,,,,,,,,10,wg-a,,,,AAXX 04004 07510 02103 91204 10030 20030 30208 40285 55004 60006 71042 896// 90000 333 10064 20028 60004=
07510,1997-02-04 03:00:00,3,1028.9,-1,100,3,300,7.408,,,170,,,,,,,,,,45,wg-a,,,,AAXX 04034 07510 12/03 91704 10030 20030 30212 40289 58010 60006 74542 89/// 90300=
07510,1997-02-04 06:00:00,3,1028.5,-0.4,100,3,300,7.408,,,120,2.8,6.4,,,,,,,,45,wg-a,,,,AAXX 04064 07510 02/03 91204 10030 20030 30208 40285 55004 60006 74542 89/// 90600 333 10064 20028 60004=
07510,1997-02-04 09:00:00,3,1028.6,0.1,100,3,1800,14.816,,,160,,,,,,,,,,10,wg-a,,,,AAXX 04094 07510 12118 71608 10030 20030 30209 40286 53001 60006 71042 876// 90900=
07510,1997-02-04 12:00:00,5,1027.6,-0.9,100,5,500,11.112,,,140,,,,,,,,,,,wg-a,,,,AAXX 04124 07510 12/00 /1406 10050 20050 30200 40276 58009 60006 91200=
07510,1997-02-04 15:00:00,9,1025.7,-1.8,76,5,10000,7.408,,,120,,,,,,,,,,,wg-a,,,,AAXX 04154 07510 12460 71204 10090 20050 30182 40257 56018 60006 86202 91500=
07510,1997-02-04 18:00:00,6,1025.5,-0.3,87,4,10000,7.408,,,130,2,8.7,,,,,,,,,wg-a,,,,AAXX 04184 07510 12560 71304 10060 20040 30179 40255 56003 60006 81532 91800 333 10087 20020=
07510,1997-02-04 21:00:00,4,1025.7,0.2,100,4,10000,3.704,,,140,,,,,,,,,,,wg-a,,,,AAXX 04214 07510 12/60 71402 10040 20040 30181 40257 51002 60006 85032 92100=
07510,1997-02-05 00:00:00,6,1025.4,-0.3,100,6,9000,11.112,,,190,,,,,,,,,,,wg-a,,,,AAXX 05004 07510 12559 71906 10060 20060 30178 40254 58003 60006 875// 90000=
07510,1997-02-05 03:00:00,8,1024.6,-0.7,93,7,9000,11.112,,,210,,,,,,,,,,,wg-a,,,,AAXX 05034 07510 12459 72106 10080 20070 30171 40246 58007 60006 8553/ 90300=
07510,1997-02-05 06:00:00,10,1024.4,-0.2,93,9,8000,18.52,,,230,4.3,10,,0,,,,,,60,wg-a,,,,AAXX 05064 07510 02358 72310 10100 20090 30169 40244 56002 60004 76062 875// 90600 333 10100 20043 60007=
07510,1997-02-05 09:00:00,11,1025.5,1.2,100,11,18000,18.52,,,250,,,,3,,,,,,21,wg-a,,,,AAXX 05094 07510 12268 72510 10110 20110 30181 40255 53012 60037 72162 875// 90900=
07510,1997-02-05 12:00:00,13,1027,1.5,88,11,7000,29.632,,,280,,,,0,,,,,,80,wg-a,,,,AAXX 05124 07510 02457 72816 10130 20110 30196 40270 51015 60036 78086 878// 91200 333 60007=
07510,1997-02-05 15:00:00,13,1028,1,72,8,25000,18.52,,,320,,,,0,,,,,,1,wg-a,,,,AAXX 05154 07510 12575 33210 10130 20080 30206 40280 53010 60007 70186 82202 91500=
07510,1997-02-05 18:00:00,9,1030.8,2.7,81,6,15000,11.112,,,280,9.3,14.2,,,,,,,,3,wg-a,,,,AAXX 05184 07510 12565 42806 10090 20060 30233 40308 52027 60006 70386 81202 91800 333 10142 20093=
07510,1997-02-05 21:00:00,4,1032.3,1.3,93,3,15000,3.704,,,230,,,,,,,,,,11,wg-a,,,,AAXX 05214 07510 12/65 22302 10040 20030 30246 40323 51013 60006 71100 80002 92100=
07510,1997-02-06 00:00:00,2,1033.5,1.1,100,2,500,3.704,,,230,,,,,,,,,,44,wg-a,,,,AAXX 06004 07510 12105 32302 10020 20020 30257 40335 51011 60006 74440 83600 90000=
07510,1997-02-06 03:00:00,0,1032.4,-1.1,100,0,800,0,,,0,,,,,,,,,,42,wg-a,,,,AAXX 06034 07510 12108 40000 10000 20000 30246 40324 57011 60006 74244 84600 90300=
07510,1997-02-06 06:00:00,1,1031.9,-0.5,100,1,200,7.408,,,120,0.2,9.3,,,,,3,,,43,wg-a,,,,AAXX 06064 07510 02/02 91204 10010 20010 30241 40319 56005 60006 74344 89/// 90600 333 10093 20002 60034=
07510,1997-02-06 09:00:00,2,1032.3,0.5,100,2,200,11.112,,,120,,,,,,,,,,43,wg-a,,,,AAXX 06094 07510 32/02 91206 10020 20020 30246 40323 51005 74344 89/// 90900=
07510,1997-02-06 12:00:00,10,1031.5,-0.6,71,5,15000,14.816,,,150,,,,,,,,,,3,wg-a,,,,AAXX 06124 07510 12/65 21508 10100 20050 30240 40315 58006 60006 70341 82030 91200=
07510,1997-02-06 15:00:00,14,1029.6,-1.8,44,2,18000,11.112,,,110,,,,,,,,,,,wg-a,,,,AAXX 06154 07510 12/68 31106 10140 20020 30222 40296 56018 60006 83031 91500=
07510,1997-02-06 18:00:00,10,1029,-0.7,62,3,15000,3.704,,,110,0.7,14.7,,,,,,,,,wg-a,,,,AAXX 06184 07510 12/65 21102 10100 20030 30215 40290 55007 60006 82031 91800 333 10147 20007=
07510,1997-02-06 21:00:00,4,1028.6,-0.6,87,2,15000,3.704,,,250,,,,,,,,,,,wg-a,,,,AAXX 06214 07510 12/65 02502 10040 20020 30209 40286 56006 60006 80000 92100=
07510,1997-02-07 00:00:00,1,1028.6,-0,100,1,15000,3.704,,,120,,,,,,,,,,,wg-a,,,,AAXX 07004 07510 12/65 01202 10010 20010 30209 40286 55000 60006 80000 90000=
07510,1997-02-07 03:00:00,2,1028.5,-0.1,93,1,8000,0,,,0,,,,,,,,,,11,wg-a,,,,AAXX 07034 07510 12/58 /0000 10020 20010 30208 40285 55001 60006 71111 83032 90300=
07510,1997-02-07 06:00:00,3,1028.7,0.2,100,3,8000,7.408,,,120,1,9.8,,,,,1,,,,wg-a,,,,AAXX 07064 07510 02/58 /1204 10030 20030 30210 40287 52002 60006 90600 333 10098 20010 60014=
07510,1997-02-07 09:00:00,5,1030.1,1.4,87,3,12000,7.408,,,140,,,,,,,,,,14,wg-a,,,,AAXX 07094 07510 12/62 61404 10050 20030 30224 40301 52014 60006 71422 85082 90900=
07510,1997-02-07 12:00:00,13,1030.3,0.4,54,4,15000,7.408,,,150,,,,,,,,,,,wg-a,,,,AAXX 07124 07510 12/65 61504 10130 20040 30228 40303 50004 60006 80009 91200=
07510,1997-02-07 15:00:00,16,1029.3,-0.9,51,6,15000,7.408,,,80,,,,,,,,,,14,wg-a,,,,AAXX 07154 07510 12/65 40804 10160 20060 30219 40293 56009 60006 71411 83082 91500=
07510,1997-02-07 18:00:00,12,1030.3,0.9,62,5,15000,7.408,,,100,3,16,,,,,,,,,wg-a,,,,AAXX 07184 07510 12/65 41004 10120 20050 30228 40303 53009 60006 81032 91800 333 10160 20030=
07510,1997-02-07 21:00:00,6,1031.6,1.2,87,4,15000,0,,,0,,,,,,,,,,,wg-a,,,,AAXX 07214 07510 12/65 40000 10060 20040 30240 40316 52012 60006 82032 92100=
07510,1997-02-08 00:00:00,8,1032.2,0.6,71,3,15000,11.112,,,150,,,,,,,,,,,wg-a,,,,AAXX 08004 07510 12/65 51506 10080 20030 30246 40322 53006 60006 84032 90000=
07510,1997-02-08 03:00:00,6,1032,-0.2,81,3,15000,11.112,,,130,,,,,,,,,,,wg-a,,,,AAXX 08034 07510 12865 61306 10060 20030 30244 40320 58002 60006 85530 90300=
07510,1997-02-08 06:00:00,5,1032.2,0.1,87,3,15000,11.112,,,130,4.4,11.9,,,,,,,,,wg-a,,,,AAXX 08064 07510 02865 21306 10050 20030 30245 40322 52001 60006 82500 90600 333 10119 20044 60004=
07510,1997-02-08 09:00:00,7,1032.7,0.6,87,5,10000,11.112,,,130,,,,,,,,,,,wg-a,,,,AAXX 08094 07510 12860 31306 10070 20050 30251 40327 51006 60006 825/2 90900=
07510,1997-02-08 12:00:00,14,1032.2,-0.3,58,6,10000,7.408,,,100,,,,,,,,,,,wg-a,,,,AAXX 08124 07510 12/60 31004 10140 20060 30248 40322 58003 60006 80002 91200=
07510,1997-02-08 15:00:00,16,1030.7,-1.5,45,4,10000,3.704,,,110,,,,,,,,,,,wg-a,,,,AAXX 08154 07510 12/60 21102 10160 20040 30233 40307 56015 60006 80002 91500=
07510,1997-02-08 18:00:00,12,1030.9,0.1,67,6,8000,3.704,,,70,3.8,16.6,,,,,,,,,wg-a,,,,AAXX 08184 07510 12/58 30702 10120 20060 30234 40309 53001 60006 80002 91800 333 10166 20038=
07510,1997-02-08 21:00:00,6,1031.6,0.6,87,4,8000,3.704,,,60,,,,,,,,,,,wg-a,,,,AAXX 08214 07510 12/58 00602 10060 20040 30240 40316 53006 60006 80000 92100=
07510,1997-02-09 00:00:00,5,1031.6,-0.1,100,5,8000,7.408,,,110,,,,,,,,,,,wg-a,,,,AAXX 09004 07510 12/58 01104 10050 20050 30239 40316 58001 60006 80000 90000=
07510,1997-02-09 03:00:00,3,1031,-0.6,100,3,6000,3.704,,,90,,,,,,,,,,11,wg-a,,,,AAXX 09034 07510 12/56 00902 10030 20030 30233 40310 58006 60006 71100 80000 90300=
07510,1997-02-09 06:00:00,1,1030.7,-0.4,93,0,900,7.408,,,140,0.4,11.6,,,,,,,,42,wg-a,,,,AAXX 09064 07510 02109 21404 10010 20000 30229 40307 57004 60006 74240 82600 90600 333 10116 20004 60004=
07510,1997-02-09 09:00:00,6,1031.3,0.8,93,5,1500,11.112,,,140,,,,0,,,,,,10,wg-a,,,,AAXX 09094 07510 12/15 /1406 10060 20050 30237 40313 53008 60007 71040 80001 90900=
07510,1997-02-09 12:00:00,16,1031,-0.1,48,5,10000,7.408,,,220,,,,,,,,,,2,wg-a,,,,AAXX 09124 07510 12/60 02204 10160 20050 30236 40310 58001 60006 70240 80000 91200=
07510,1997-02-09 15:00:00,17,1029.8,-1.1,48,6,15000,11.112,,,260,,,,,,,,,,,wg-a,,,,AAXX 09154 07510 12/65 02606 10170 20060 30225 40298 56011 60006 80000 91500=
07510,1997-02-09 18:00:00,11,1030.3,0.3,87,9,15000,7.408,,,230,0.6,17.4,,,,,,,,,wg-a,,,,AAXX 09184 07510 12/65 02304 10110 20090 30228 40303 53003 60006 80000 91800 333 10174 20006=
07510,1997-02-09 21:00:00,8,1031,0.6,93,7,200,7.408,,,340,,,,,,,,,,45,wg-a,,,,AAXX 09214 07510 12/02 93404 10080 20070 30234 40310 50006 60006 74541 89/// 92100=
07510,1997-02-10 00:00:00,7,1030.5,-0.5,100,7,100,3.704,,,70,,,,,,,,,,45,wg-a,,,,AAXX 10004 07510 12/01 90702 10070 20070 30229 40305 58005 60006 74541 89/// 90000=
07510,1997-02-10 03:00:00,6,1028.6,-1.9,100,6,100,7.408,,,130,,,,,,,,,,45,wg-a,,,,AAXX 10034 07510 12/01 91304 10060 20060 30210 40286 57019 60006 74544 89/// 90300=
07510,1997-02-10 06:00:00,3,1027.9,-0.8,100,3,300,7.408,,,130,3.4,11.2,,,,,1,,,45,wg-a,,,,AAXX 10064 07510 02/03 91304 10030 20030 30202 40279 58008 60006 74544 89/// 90600 333 10112 20034 60014=
07510,1997-02-10 09:00:00,6,1027.6,-0.2,93,5,8000,7.408,,,150,,,,,,,,,,1,wg-a,,,,AAXX 10094 07510 12/58 21504 10060 20050 30200 40276 55002 60006 70141 80001 90900=
07510,1997-02-10 12:00:00,16,1026.3,-1,39,2,9000,22.224,,,230,,,,,,,,,,1,wg-a,,,,AAXX 10124 07510 12/59 /2312 10160 20020 30190 40263 57010 60006 70141 80002 91200=
07510,1997-02-10 15:00:00,14,1026.2,-0.2,63,7,12000,18.52,,,250,,,,,,,,,,,wg-a,,,,AAXX 10154 07510 12762 72510 10140 20070 30188 40262 55002 60006 81532 91500=
07510,1997-02-10 18:00:00,12,1027.2,1,82,9,6000,18.52,,,270,2.5,16.8,,,,,,,,61,wg-a,,,,AAXX 10184 07510 02456 82710 10120 20090 30198 40272 53010 61000 76162 8552/ 91800 333 10168 20025 6000=
07510,1997-02-10 21:00:00,11,1027.8,0.5,94,10,8000,22.224,,,240,,,,5,,,,,,61,wg-a,,,,AAXX 10214 07510 12258 82412 10110 20100 30203 40278 51005 60057 76166 877// 92100=
07510,1997-02-11 00:00:00,11,1028,0.2,100,11,500,22.224,,,260,,,,4,,,,,,61,wg-a,,,,AAXX 11004 07510 02200 82612 10110 20110 30205 40280 53002 60096 76166 877// 90000 333 60047=
07510,1997-02-11 03:00:00,11,1027.2,-0.8,94,10,3500,18.52,,,240,,,,4,,,,,,51,wg-a,,,,AAXX 11034 07510 12235 82410 10110 20100 30197 40272 58008 60047 75165 877// 90300=
07510,1997-02-11 06:00:00,11,1027.1,-0.1,100,11,3000,14.816,,,240,10.2,11.6,,,,,,,,51,wg-a,,,,AAXX 11064 07510 02230 82408 10110 20110 30196 40271 58001 61000 75165 877// 90600 333 10116 20102 6016=
07510,1997-02-11 09:00:00,10,1028.5,1.4,100,10,3500,7.408,,,360,,,,2,,,,,,10,wg-a,,,,AAXX 11094 07510 12135 73604 10100 20100 30210 40285 53014 60027 71065 877// 90900=
07510,1997-02-11 12:00:00,13,1028.4,0,82,10,25000,14.816,,,250,,,,,,,,,,1,wg-a,,,,AAXX 11124 07510 12475 72508 10130 20100 30210 40284 50000 60026 70165 8287/ 91200=
07510,1997-02-11 15:00:00,12,1027.8,-0.6,94,11,2500,14.816,,,230,,,,0,,,,,,58,wg-a,,,,AAXX 11154 07510 12225 82308 10120 20110 30204 40278 55006 60007 75865 875// 91500=
07510,1997-02-11 18:00:00,13,1028,0.2,94,12,500,25.928,,,260,9.7,13.5,,,,,,,,10,wg-a,,,,AAXX 11184 07510 02300 82614 10130 20120 30206 40280 53002 61000 71065 877// 91800 333 10135 20097 6001=
07510,1997-02-11 21:00:00,13,1028.1,0.1,94,12,11000,25.928,,,260,,,,,,,,,,,wg-a,,,,AAXX 11214 07510 32/61 /2614 10130 20120 30207 40281 51001 92100=
07510,1997-02-12 00:00:00,12,1028.5,0.4,94,11,12000,22.224,,,250,,,,,,,,,,3,wg-a,,,,AAXX 12004 07510 02362 72512 10120 20110 30211 40285 51004 61000 70352 876// 90000 333 ////=
07510,1997-02-12 03:00:00,12,1028.3,-0.2,94,11,10000,14.816,,,220,,,,,,,,,,,wg-a,,,,AAXX 12034 07510 12460 72208 10120 20110 30209 40283 58002 60006 875// 90300=
07510,1997-02-12 06:00:00,11,1027.6,-0.8,100,11,10000,11.112,,,220,11.2,13,,,,,4,,,,wg-a,,,,AAXX 12064 07510 02260 72206 10110 20110 30201 40276 56008 60006 85502 90600 333 10130 20112 60044=
07510,1997-02-12 09:00:00,12,1027,-0.5,94,11,10000,14.816,,,210,,,,,,,,,,,wg-a,,,,AAXX 12094 07510 12660 72108 10120 20110 30196 40270 58005 60006 875// 90900=
07510,1997-02-12 12:00:00,15,1025.1,-1.8,72,10,10000,14.816,,,260,,,,0,,,,,,,wg-a,,,,AAXX 12124 07510 02460 72608 10150 20100 30178 40251 58018 60006 878// 91200 333 60007=
07510,1997-02-12 15:00:00,15,1022.9,-2.2,72,10,20000,18.52,,,230,,,,,,,,,,,wg-a,,,,AAXX 12154 07510 12570 72310 10150 20100 30156 40229 56022 60006 86801 91500=
07510,1997-02-12 18:00:00,13,1022.2,-0.8,82,10,9000,14.816,,,240,10.3,15,,,,,,,,61,wg-a,,,,AAXX 12184 07510 02659 82408 10130 20100 30148 40222 55008 61000 76162 8557/ 91800 333 10150 20103 6000=
07510,1997-02-12 21:00:00,13,1022,-0.2,82,10,11000,35.188,,,250,,,,1,,,,,,,wg-a,,,,AAXX 12214 07510 12/61 /2519 10130 20100 30146 40220 56002 60017 92100=
07510,1997-02-13 00:00:00,12,1022,0,88,10,15000,25.928,,,250,,,,,,,,,,1,wg-a,,,,AAXX 13004 07510 12565 /2514 10120 20100 30146 40220 50000 60016 70161 85800 90000=
07510,1997-02-13 03:00:00,12,1020.5,-1.5,82,9,15000,35.188,,61.116,260,,,,,,,,,,,wg-a,,,,AAXX 13034 07510 12565 72619 10120 20090 30131 40205 57015 60006 878// 90300 333 91033=
07510,1997-02-13 06:00:00,13,1020.1,-0.4,77,9,10000,35.188,,,260,11.8,13,,,,,1,,,,wg-a,,,,AAXX 13064 07510 02460 72619 10130 20090 30127 40201 58004 60006 878// 90600 333 10130 20118 60014=
07510,1997-02-13 09:00:00,11,1021.7,1.6,87,9,6000,35.188,,61.116,280,,,,1,,,,,,61,wg-a,,,,AAXX 13094 07510 12456 82819 10110 20090 30143 40217 53016 60017 76162 8681/ 90900 333 91033=
07510,1997-02-13 12:00:00,12,1023.8,2.1,58,4,8000,35.188,,57.412,300,,,,,,,,,,1,wg-a,,,,AAXX 13124 07510 02558 83019 10120 20040 30164 40238 53021 60016 70186 8317/ 91200 333 61000 91031=
07510,1997-02-13 18:00:00,10,1022.4,-0.9,66,4,10000,11.112,,,230,10.2,12.8,,,,,,,,,wg-a,,,,AAXX 13184 07510 12660 72306 10100 20040 30149 40224 58009 60006 8357/ 91800 333 10128 20102=
07510,1997-02-14 00:00:00,11,1016.6,-3.4,94,10,500,25.928,,,220,,,,2,,,,,,60,wg-a,,,,AAXX 14004 07510 02200 82214 10110 20100 30092 40166 56034 60036 76062 875// 90000 333 60027=
07510,1997-02-14 03:00:00,13,1014.2,-2.3,94,12,500,38.892,,,260,,,,4,,,,,,21,wg-a,,,,AAXX 14034 07510 12300 82621 10130 20120 30069 40142 56023 60047 72162 877// 90300=
07510,1997-02-14 06:00:00,13,1013.2,-1,94,12,500,35.188,,55.56,260,8.7,13.1,,,,,,,,61,wg-a,,,,AAXX 14064 07510 02400 82619 10130 20120 30059 40132 56010 61000 76162 8587/ 90600 333 10131 20087 6010 91030=
07510,1997-02-14 09:00:00,13,1013.9,0.7,94,12,500,38.892,,,270,,,,7,,,,,,10,wg-a,,,,AAXX 14094 07510 12300 82721 10130 20120 30066 40139 53007 60077 71066 878// 90900=
07510,1997-02-14 12:00:00,13,1013.1,-0.8,94,12,2500,35.188,,,250,,,,5,,,,,,10,wg-a,,,,AAXX 14124 07510 02325 82519 10130 20120 30058 40131 58008 60126 71065 878// 91200 333 60057=
07510,1997-02-14 15:00:00,13,1010.5,-2.6,94,12,2000,22.224,,,260,,,,4,,,,,,10,wg-a,,,,AAXX 14154 07510 12320 82612 10130 20120 30032 40105 56026 60047 71086 877// 91500=
07510,1997-02-14 18:00:00,12,1009.1,-1.4,88,10,15000,25.928,,,260,12.1,14.4,,,,,,,,25,wg-a,,,,AAXX 14184 07510 02565 /2614 10120 20100 30018 40091 57014 61000 72586 85800 91800 333 10144 20121 6004=
07510,1997-02-14 21:00:00,13,1007.4,-1.7,77,9,10000,46.3,,,260,,,,,,,,,,,wg-a,,,,AAXX 14214 07510 12460 72625 10130 20090 30001 40074 58017 60006 875// 92100=
07510,1997-02-15 00:00:00,11,1008.1,0.7,94,10,8000,31.484,,,280,,,,2,,,,,,80,wg-a,,,,AAXX 15004 07510 02458 72817 10110 20100 30008 40081 53007 60026 78086 878// 90000 333 60027=
07510,1997-02-15 03:00:00,11,1010.1,2,87,9,10000,35.188,,53.708,300,,,,0,,,,,,25,wg-a,,,,AAXX 15034 07510 12460 73019 10110 20090 30028 40101 53020 60007 72586 878// 90300 333 91029=
07510,1997-02-15 06:00:00,8,1016.7,6.4,87,6,15000,29.632,,62.968,320,8.4,12.6,,,,,22,,,1,wg-a,,,,AAXX 15064 07510 02465 73216 10080 20060 30092 40167 53064 60006 70186 878// 90600 333 10126 20084 60224 91034=
07510,1997-02-15 09:00:00,8,1023.5,6.8,76,4,15000,25.928,,,330,,,,,,,,,,,wg-a,,,,AAXX 15094 07510 12465 /3314 10080 20040 30160 40235 51068 60006 86800 90900=
07510,1997-02-15 12:00:00,10,1026.1,2.6,50,0,20000,18.52,,,340,,,,,,,,,,,wg-a,,,,AAXX 15124 07510 12570 23410 10100 20000 30186 40261 51026 60006 82100 91200=
07510,1997-02-15 15:00:00,12,1026.1,-0,38,-2,20000,11.112,,,330,,,,,,,,,,,wg-a,,,,AAXX 15154 07510 12670 /3306 10120 21020 30186 40261 55000 60006 81102 91500=
07510,1997-02-15 18:00:00,8,1026.7,0.6,66,2,20000,11.112,,,340,7.7,11.9,,,,,,,,,wg-a,,,,AAXX 15184 07510 12/70 43406 10080 20020 30192 40267 53006 60006 80002 91800 333 10119 20077=
07510,1997-02-15 21:00:00,3,1026.8,-0.1,93,2,10000,0,,,0,,,,,,,,,,,wg-a,,,,AAXX 15214 07510 12/60 30000 10030 20020 30191 40268 55001 60006 80002 92100=
07510,1997-02-16 00:00:00,2,1025.6,-1.2,93,1,8000,3.704,,,130,,,,,,,,,,,wg-a,,,,AAXX 16004 07510 12/58 21302 10020 20010 30179 40256 57012 60006 80002 90000=
07510,1997-02-16 03:00:00,1,1024.2,-1.4,100,1,10000,7.408,,,120,,,,,,,,,,,wg-a,,,,AAXX 16034 07510 12/60 21204 10010 20010 30165 40242 58014 60006 80002 90300=
07510,1997-02-16 06:00:00,0,1023,-1.2,93,-1,15000,7.408,,,130,0.2,8.2,,,,,,,,,wg-a,,,,AAXX 16064 07510 02/65 11304 10000 21010 30153 40230 56012 60006 80002 90600 333 10082 20002 60004=
07510,1997-02-16 09:00:00,5,1022.2,-0.7,75,1,10000,14.816,,,130,,,,,,,,,,,wg-a,,,,AAXX 16094 07510 32/60 /1308 10050 20010 30146 40222 58007 90900=
07510,1997-02-16 12:00:00,11,1021.6,-0.4,47,0,15000,3.704,,,40,,,,,,,,,,,wg-a,,,,AAXX 16124 07510 12/65 70402 10110 20000 30142 40216 56004 60006 81082 91200=
07510,1997-02-16 15:00:00,14,1020.5,-1.1,41,1,15000,11.112,,,250,,,,,,,,,,,wg-a,,,,AAXX 16154 07510 12/65 72506 10140 20010 30131 40205 55011 60006 83082 91500=
07510,1997-02-16 18:00:00,10,1022.3,1.7,82,7,10000,11.112,,,240,-0.3,13.8,,,,,,,,21,wg-a,,,,AAXX 16184 07510 02560 72406 10100 20070 30148 40223 53017 61000 72162 8457/ 91800 333 10138 21003 6100=
07510,1997-02-16 21:00:00,10,1023.3,1,93,9,10000,11.112,,,240,,,,0,,,,,,3,wg-a,,,,AAXX 16214 07510 12460 72406 10100 20090 30158 40233 51010 60007 70362 8387/ 92100=
07510,1997-02-17 00:00:00,9,1024.3,1,100,9,10000,14.816,,,250,,,,,,,,,,1,wg-a,,,,AAXX 17004 07510 12460 32508 10090 20090 30168 40243 51010 60006 70161 82830 90000=
07510,1997-02-17 03:00:00,9,1024.3,-0,93,8,8000,14.816,,,220,,,,,,,,,,11,wg-a,,,,AAXX 17034 07510 12458 32208 10090 20080 30168 40243 54000 60006 71100 83600 90300=
07510,1997-02-17 06:00:00,7,1025.1,0.7,100,7,10000,7.408,,,190,6.7,10.1,,,,,1,,,11,wg-a,,,,AAXX 17064 07510 02560 51904 10070 20070 30175 40251 53007 60006 71111 85800 90600 333 10101 20067 60014=
07510,1997-02-17 09:00:00,9,1026.2,1.2,100,9,12000,7.408,,,190,,,,,,,,,,,wg-a,,,,AAXX 17094 07510 12262 /1904 10090 20090 30187 40262 51012 60006 82802 90900=
07510,1997-02-17 12:00:00,13,1026.8,0.7,72,8,12000,18.52,,,250,,,,,,,,,,,wg-a,,,,AAXX 17124 07510 12562 72510 10130 20080 30194 40268 50007 60006 85832 91200=
07510,1997-02-17 15:00:00,13,1026,-0.8,72,8,12000,22.224,,,250,,,,,,,,,,,wg-a,,,,AAXX 17154 07510 12562 72512 10130 20080 30186 40260 55008 60006 84832 91500=
07510,1997-02-17 18:00:00,11,1027,0.9,82,8,12000,11.112,,,240,6.7,14.6,,,,,,,,,wg-a,,,,AAXX 17184 07510 12562 72406 10110 20080 30195 40270 53009 60006 8113/ 91800 333 10146 20067=
07510,1997-02-17 21:00:00,10,1027.7,0.7,87,8,10000,11.112,,,200,,,,,,,,,,60,wg-a,,,,AAXX 17214 07510 02560 72006 10100 20080 30202 40277 53007 61000 76062 8387/ 92100 333 ////=
07510,1997-02-18 00:00:00,10,1026.9,-0.8,82,7,10000,14.816,,,200,,,,,,,,,,1,wg-a,,,,AAXX 18004 07510 02760 62008 10100 20070 30194 40269 56008 61000 70162 82870 90000 333 6100=
07510,1997-02-18 03:00:00,9,1025.5,-1.4,76,5,10000,14.816,,,200,,,,,,,,,,,wg-a,,,,AAXX 18034 07510 12660 72008 10090 20050 30180 40255 57014 60006 84572 90300=
07510,1997-02-18 06:00:00,10,1025.7,,71,5,10000,14.816,,,220,8.9,11.2,,,,,,,,,wg-a,,,,AAXX 18064 07510 12660 72208 10100 20050 30182 40257 60006 875// 90600 333 10112 20089=
07510,1997-02-18 09:00:00,11,1027,1.3,94,10,2000,22.224,,,230,,,,1,,,,,,10,wg-a,,,,AAXX 18094 07510 12220 72312 10110 20100 30195 40270 51013 60017 71062 8757/ 90900=
07510,1997-02-18 12:00:00,13,1028,1.1,88,11,15000,31.484,,,270,,,,1,,,,,,21,wg-a,,,,AAXX 18124 07510 02365 72717 10130 20110 30206 40280 53011 60026 72162 8557/ 91200 333 60017=
07510,1997-02-18 15:00:00,14,1029.1,1.1,72,9,15000,29.632,,,270,,,,,,,,,,,wg-a,,,,AAXX 18154 07510 12565 72716 10140 20090 30217 40291 53011 60006 83802 91500=
07510,1997-02-18 18:00:00,12,1031.8,2.6,82,9,10000,25.928,,,270,10,14.1,,,,,,,,,wg-a,,,,AAXX 18184 07510 12460 72714 10120 20090 30243 40318 52026 60006 878// 91800 333 10141 20100=
07510,1997-02-18 21:00:00,9,1034.4,2.5,87,7,10000,14.816,,,250,,,,,,,,,,,wg-a,,,,AAXX 18214 07510 12/60 02508 10090 20070 30268 40344 53025 60006 80000 92100=
07510,1997-02-19 00:00:00,6,1035.4,0.9,93,5,10000,11.112,,,220,,,,,,,,,,,wg-a,,,,AAXX 19004 07510 12/60 02206 10060 20050 30277 40354 51009 60006 80000 90000=
07510,1997-02-19 03:00:00,6,1035.3,-0.1,93,5,7000,3.704,,,220,,,,,,,,,,11,wg-a,,,,AAXX 19034 07510 12557 42202 10060 20050 30276 40353 55001 60006 71100 84500 90300=
07510,1997-02-19 06:00:00,4,1034,-1.3,93,3,1500,3.704,,,140,3.8,12.3,,,,,2,,,12,wg-a,,,,AAXX 19064 07510 02/15 /1402 10040 20030 30263 40340 56013 60006 71200 80000 90600 333 10123 20038 60024=
07510,1997-02-19 09:00:00,6,1033.4,-0.5,100,6,400,11.112,,,140,,,,,,,,,,42,wg-a,,,,AAXX 19094 07510 12004 71406 10060 20060 30258 40334 56005 60006 74241 876// 90900=
07510,1997-02-19 12:00:00,12,1031.1,-2.2,82,9,10000,18.52,,,170,,,,,,,,,,3,wg-a,,,,AAXX 19124 07510 12460 71710 10120 20090 30236 40311 57022 60006 70341 85502 91200=
07510,1997-02-19 15:00:00,14,1027.9,-3.1,67,8,10000,14.816,,,160,,,,,,,,,,,wg-a,,,,AAXX 19154 07510 12/60 71608 10140 20080 30205 40279 56031 60006 80002 91500=
07510,1997-02-19 18:00:00,11,1028.8,0.8,82,8,10000,3.704,,,150,3.2,14.4,,,,,,,,11,wg-a,,,,AAXX 19184 07510 12/60 71502 10110 20080 30213 40288 52008 60006 71122 80002 91800 333 10144 20032=
07510,1997-02-19 21:00:00,11,1029.9,1.1,82,8,10000,14.816,,,230,,,,,,,,,,,wg-a,,,,AAXX 19214 07510 12560 82308 10110 20080 30224 40299 51011 60006 83502 92100=
07510,1997-02-20 00:00:00,12,1031.4,1.5,88,10,10000,18.52,,,260,,,,,,,,,,,wg-a,,,,AAXX 20004 07510 12460 72610 10120 20100 30239 40314 53015 60006 875// 90000=
07510,1997-02-20 03:00:00,13,1031.6,0.3,88,11,10000,14.816,,,280,,,,,,,,,,21,wg-a,,,,AAXX 20034 07510 02460 72808 10130 20110 30242 40316 52003 61000 72162 875// 90300 333 ////=
07510,1997-02-20 06:00:00,11,1032.3,0.6,94,10,10000,7.408,,,220,9.5,12.8,,,,,,,,3,wg-a,,,,AAXX 20064 07510 02360 72204 10110 20100 30248 40323 53006 60006 70362 875// 90600 333 10128 20095 61000=
07510,1997-02-20 12:00:00,15,1032.6,-0.5,72,10,10000,11.112,,,230,,,,,,,,,,,wg-a,,,,AAXX 20124 07510 12560 72306 10150 20100 30252 40326 58005 60006 87800 91200=
07510,1997-02-20 15:00:00,15,1031.2,-1.4,63,8,10000,14.816,,,270,,,,,,,,,,,wg-a,,,,AAXX 20154 07510 12560 72708 10150 20080 30238 40312 56014 60006 878// 91500=
07510,1997-02-20 18:00:00,13,1030.9,-0.3,82,10,15000,3.704,,,230,10.9,16.2,,,,,,,,,wg-a,,,,AAXX 20184 07510 12765 72302 10130 20100 30235 40309 56003 60006 875// 91800 333 10162 20109=
07510,1997-02-20 21:00:00,11,1031.7,0.7,94,10,15000,3.704,,,240,,,,,,,,,,,wg-a,,,,AAXX 20214 07510 12765 72402 10110 20100 30242 40317 51007 60006 875// 92100=
07510,1997-02-21 00:00:00,11,1031.7,-0,94,10,15000,3.704,,,260,,,,,,,,,,,wg-a,,,,AAXX 21004 07510 12765 72602 10110 20100 30242 40317 55000 60006 875// 90000=
07510,1997-02-21 03:00:00,10,1031.4,-0.3,100,10,8000,7.408,,,210,,,,,,,,,,,wg-a,,,,AAXX 21034 07510 12658 72104 10100 20100 30239 40314 58003 60006 875// 90300=
07510,1997-02-21 06:00:00,10,1031.9,0.5,93,9,7000,3.704,,,250,9.7,13,,,,,,,,11,wg-a,,,,AAXX 21064 07510 02557 72502 10100 20090 30244 40319 53005 60006 71122 875// 90600 333 10130 20097 60004=
07510,1997-02-21 12:00:00,15,1033.7,0.4,77,11,15000,3.704,,,240,,,,,,,,,,,wg-a,,,,AAXX 21124 07510 12465 72402 10150 20110 30263 40337 50004 60006 878// 91200=
07510,1997-02-21 15:00:00,16,1032.4,-1.3,63,9,15000,3.704,,,30,,,,,,,,,,,wg-a,,,,AAXX 21154 07510 12565 80302 10160 20090 30250 40324 56013 60006 84802 91500=
07510,1997-02-21 18:00:00,13,1032.6,0.2,72,8,15000,11.112,,,350,9.7,16.9,,,,,,,,,wg-a,,,,AAXX 21184 07510 12665 /3506 10130 20080 30252 40326 53002 60006 82401 91800 333 10169 20097=
07510,1997-02-21 21:00:00,10,1032.6,-0.1,82,7,15000,3.704,,,30,,,,,,,,,,,wg-a,,,,AAXX 21214 07510 12/65 50302 10100 20070 30251 40326 58001 60006 80002 92100=
07510,1997-02-22 00:00:00,7,1031.8,-0.9,93,6,10000,7.408,,,50,,,,,,,,,,,wg-a,,,,AAXX 22004 07510 12/60 20504 10070 20060 30242 40318 58009 60006 80002 90000=
07510,1997-02-22 03:00:00,4,1030.1,-1.8,100,4,10000,0,,,0,,,,,,,,,,11,wg-a,,,,AAXX 22034 07510 12/60 30000 10040 20040 30224 40301 58018 60006 71100 80002 90300=
07510,1997-02-22 06:00:00,4,1028.7,-1.4,100,4,500,3.704,,,60,3.1,13.2,,,,,,,,11,wg-a,,,,AAXX 22064 07510 02/00 30602 10040 20040 30210 40287 56014 60006 71100 80002 90600 333 10132 20031 60004=
07510,1997-02-22 09:00:00,9,1028.5,-0,93,8,7000,11.112,,,100,,,,,,,,,,,wg-a,,,,AAXX 22094 07510 12/57 /1006 10090 20080 30210 40285 55000 60006 80002 90900=
07510,1997-02-22 12:00:00,15,1026.5,-1.9,59,7,10000,14.816,,,120,,,,,,,,,,,wg-a,,,,AAXX 22124 07510 12/60 /1208 10150 20070 30191 40265 58019 60006 91200=
07510,1997-02-22 15:00:00,17,1023.9,-2.5,52,7,15000,11.112,,,100,,,,,,,,,,,wg-a,,,,AAXX 22154 07510 12/65 51006 10170 20070 30166 40239 56025 60006 80002 91500=
07510,1997-02-22 18:00:00,14,1023.2,-0.8,67,8,15000,11.112,,,120,3.4,17.8,,,,,,,,,wg-a,,,,AAXX 22184 07510 12/65 61206 10140 20080 30158 40232 57008 60006 80002 91800 333 10178 20034=
07510,1997-02-22 21:00:00,13,1022.7,-0.5,77,9,15000,14.816,,,150,,,,,,,,,,,wg-a,,,,AAXX 22214 07510 12/65 51508 10130 20090 30153 40227 57005 60006 83032 92100=
07510,1997-02-23 00:00:00,10,1022.4,-0.4,87,8,10000,7.408,,,150,,,,,,,,,,,wg-a,,,,AAXX 23004 07510 12/60 31504 10100 20080 30149 40224 58004 60006 81032 90000=
07510,1997-02-23 03:00:00,9,1021.2,-1.2,87,7,10000,18.52,,,150,,,,,,,,,,,wg-a,,,,AAXX 23034 07510 12/60 71510 10090 20070 30137 40212 58012 60006 83032 90300=
07510,1997-02-23 06:00:00,9,1020.8,-0.4,87,7,8000,11.112,,,150,8.4,13.9,,,,,,,,,wg-a,,,,AAXX 23064 07510 02/58 71506 10090 20070 30133 40208 56004 60006 83032 90600 333 10139 20084 60004=
07510,1997-02-23 09:00:00,10,1021,0.3,87,8,500,7.408,,,150,,,,,,,,,,60,wg-a,,,,AAXX 23094 07510 02700 81504 10100 20080 30136 40210 53003 61000 76062 8357/ 90900 333 ////=
07510,1997-02-23 12:00:00,13,1019.6,-1.4,82,10,8000,14.816,,,180,,,,,,,,,,2,wg-a,,,,AAXX 23124 07510 02758 71808 10130 20100 30122 40196 58014 61000 70262 8357/ 91200 333 6100=
07510,1997-02-23 15:00:00,13,1017.4,-2.1,82,10,6000,7.408,,,200,,,,,,,,,,,wg-a,,,,AAXX 23154 07510 12/56 /2004 10130 20100 30101 40174 56021 60006 91500=
07510,1997-02-23 18:00:00,12,1017,-0.5,88,10,6000,0,,,0,8.4,13.6,,,,,,,,,wg-a,,,,AAXX 23184 07510 12756 /0000 10120 20100 30096 40170 55005 60006 81532 91800 333 10136 20084=
07510,1997-02-23 21:00:00,10,1016.6,-0.4,93,9,3000,3.704,,,160,,,,,,,,,,11,wg-a,,,,AAXX 23214 07510 12530 /1602 10100 20090 30092 40166 58004 60006 71111 82532 92100=
07510,1997-02-24 00:00:00,10,1015.2,-1.4,100,10,4500,18.52,,,160,,,,,,,,,,10,wg-a,,,,AAXX 24004 07510 12/45 61610 10100 20100 30078 40152 58014 60006 71011 82032 90000=
07510,1997-02-24 06:00:00,10,1014,-0,93,9,6000,11.112,,,200,9,12.1,,,,,,,,60,wg-a,,,,AAXX 24064 07510 02656 72006 10100 20090 30066 40140 55000 61000 76062 8453/ 90600 333 10121 20090 6001=
07510,1997-02-24 09:00:00,12,1014,0.1,88,10,8000,11.112,,,190,,,,0,,,,,,21,wg-a,,,,AAXX 24094 07510 12558 71906 10120 20100 30067 40140 53001 60007 72162 84571 90900=
07510,1997-02-24 12:00:00,15,1013.9,-0.1,77,11,10000,25.928,,,220,,,,0,,,,,,21,wg-a,,,,AAXX 24124 07510 02560 72214 10150 20110 30066 40139 58001 60016 72162 8557/ 91200 333 60007=
07510,1997-02-24 15:00:00,16,1012.4,-1.4,68,10,11000,22.224,,,210,,,,,,,,,,,wg-a,,,,AAXX 24154 07510 32/61 /2112 10160 20100 30052 40124 56014 91500=
07510,1997-02-24 18:00:00,14,1013.2,0.7,82,11,15000,18.52,,,220,10.2,15.8,,,,,,,,21,wg-a,,,,AAXX 24184 07510 02565 72210 10140 20110 30059 40132 52007 61000 72162 8557/ 91800 333 10158 20102 6000=
07510,1997-02-25 00:00:00,13,1014.3,1.4,94,12,10000,14.816,,,220,,,,1,,,,,,21,wg-a,,,,AAXX 25004 07510 02660 72208 10130 20120 30070 40143 51014 60026 72162 8557/ 90000 333 60017=
07510,1997-02-25 03:00:00,14,1015,0.7,88,12,10000,25.928,,,250,,,,,,,,,,,wg-a,,,,AAXX 25034 07510 12460 72514 10140 20120 30077 40150 51007 60006 8557/ 90300=
07510,1997-02-25 06:00:00,14,1015.3,0.3,88,12,15000,14.816,,,210,12.7,15,,,,,,,,21,wg-a,,,,AAXX 25064 07510 02565 72108 10140 20120 30080 40153 52003 61000 72162 8357/ 90600 333 10150 20127 6004=
07510,1997-02-25 09:00:00,15,1016.6,1.3,77,11,15000,18.52,,,230,,,,,,,,,,,wg-a,,,,AAXX 25094 07510 12565 72310 10150 20110 30093 40166 53013 60006 8357/ 90900=
07510,1997-02-25 12:00:00,17,1016.9,0.4,72,12,15000,25.928,,,260,,,,,,,,,,,wg-a,,,,AAXX 25124 07510 12565 72614 10170 20120 30097 40169 51004 60006 8481/ 91200=
07510,1997-02-25 15:00:00,17,1017,0.1,68,11,15000,25.928,,,250,,,,,,,,,,,wg-a,,,,AAXX 25154 07510 12565 72514 10170 20110 30098 40170 53001 60006 8481/ 91500=
07510,1997-02-25 18:00:00,15,1018.4,1.3,72,10,15000,18.52,,,250,13.4,18.1,,,,,,,,,wg-a,,,,AAXX 25184 07510 12565 72510 10150 20100 30111 40184 53013 60006 8583/ 91800 333 10181 20134=
07510,1997-02-25 21:00:00,15,1019.8,1.4,63,8,15000,25.928,,,260,,,,,,,,,,,wg-a,,,,AAXX 25214 07510 12665 72614 10150 20080 30125 40198 51014 60006 8657/ 92100=
07510,1997-02-26 00:00:00,14,1020.3,0.5,72,9,15000,25.928,,,240,,,,,,,,,,,wg-a,,,,AAXX 26004 07510 12665 72414 10140 20090 30130 40203 51005 60006 8457/ 90000=
07510,1997-02-26 03:00:00,15,1020.7,0.4,67,9,15000,29.632,,48.152,260,,,,,,,,,,60,wg-a,,,,AAXX 26034 07510 02665 72616 10150 20090 30134 40207 51004 61000 76062 8357/ 90300 333 //// 91026=
07510,1997-02-26 06:00:00,12,1022.6,1.8,94,11,15000,31.484,,,260,12,15.3,,,,,,,,21,wg-a,,,,AAXX 26064 07510 02265 72617 10120 20110 30152 40226 53018 61000 72162 8657/ 90600 333 10153 20120 6001=
07510,1997-02-26 09:00:00,12,1024.9,2.3,88,10,10000,25.928,,,250,,,,0,,,,,,21,wg-a,,,,AAXX 26094 07510 12360 72514 10120 20100 30175 40249 53023 60007 72162 8583/ 90900=
07510,1997-02-26 12:00:00,15,1026.7,1.8,51,5,15000,50.004,,,280,,,,,,,,,,1,wg-a,,,,AAXX 26124 07510 12565 /2827 10150 20050 30193 40267 53018 60006 70161 86800 91200=
07510,1997-02-26 15:00:00,11,1029.2,2.4,82,8,10000,35.188,,51.856,280,,,,1,,,,,,25,wg-a,,,,AAXX 26154 07510 12560 72819 10110 20080 30217 40292 53024 60017 72586 878// 91500 333 91028=
07510,1997-02-26 18:00:00,11,1032.1,2.9,66,5,10000,35.188,,,280,10.8,15.6,,,,,,,,1,wg-a,,,,AAXX 26184 07510 02560 32819 10110 20050 30246 40321 53029 60006 70186 83800 91800 333 10156 20108 61000=
07510,1997-02-27 00:00:00,7,1036.3,1.7,93,6,10000,11.112,,,230,,,,,,,,,,,wg-a,,,,AAXX 27004 07510 12560 42306 10070 20060 30287 40363 53017 60006 84500 90000=
07510,1997-02-27 03:00:00,7,1038.2,1.8,87,5,10000,7.408,,,250,,,,,,,,,,,wg-a,,,,AAXX 27034 07510 12560 72504 10070 20050 30305 40382 51018 60006 85830 90300=
07510,1997-02-27 06:00:00,4,1038.7,0.4,93,3,8000,7.408,,,130,3.8,11.4,,,,,1,,,,wg-a,,,,AAXX 27064 07510 02/58 11304 10040 20030 30309 40387 53004 60006 80002 90600 333 10114 20038 60014=
07510,1997-02-27 09:00:00,10,1039.3,0.8,82,7,10000,11.112,,,150,,,,,,,,,,,wg-a,,,,AAXX 27094 07510 12/60 01506 10100 20070 30317 40393 51008 60006 80000 90900=
07510,1997-02-27 12:00:00,14,1038,-1.2,51,4,20000,14.816,,,150,,,,,,,,,,,wg-a,,,,AAXX 27124 07510 12/70 /1508 10140 20040 30305 40380 57012 60006 80000 91200=
07510,1997-02-28 00:00:00,9,1033,-1.4,61,2,10000,18.52,,,130,,,,,,,,,,,wg-a,,,,AAXX 28004 07510 12/60 11310 10090 20020 30254 40330 57014 60006 80002 90000=
07510,1997-02-28 03:00:00,7,1030.6,-2.4,70,2,10000,18.52,,,130,,,,,,,,,,,wg-a,,,,AAXX 28034 07510 12/60 01310 10070 20020 30230 40306 58024 60006 80000 90300=
07510,1997-02-28 06:00:00,6,1030.1,-0.5,70,1,10000,11.112,,,150,6.2,12.5,,,,,,,,,wg-a,,,,AAXX 28064 07510 02/60 01506 10060 20010 30225 40301 55005 60006 80000 90600 333 10125 20062 60004=
07510,1997-02-28 09:00:00,11,1030.9,0.9,47,0,10000,11.112,,,150,,,,,,,,,,,wg-a,,,,AAXX 28094 07510 12/60 41506 10110 20000 30234 40309 53009 60006 80002 90900=
07510,1997-02-28 12:00:00,21,1029.8,-0.8,30,3,10000,7.408,,,160,,,,,,,,,,,wg-a,,,,AAXX 28124 07510 12/60 51604 10210 20030 30226 40298 58008 60006 80002 91200=
07510,1997-02-28 15:00:00,23,1028.8,-1,29,4,10000,11.112,,,250,,,,,,,,,,,wg-a,,,,AAXX 28154 07510 12/60 72506 10230 20040 30216 40288 56010 60006 80002 91500=
07510,1997-02-28 18:00:00,17,1029.5,0.5,52,7,10000,7.408,,,270,5.4,23.5,,,,,,,,,wg-a,,,,AAXX 28184 07510 12/60 72704 10170 20070 30222 40295 52005 60006 83032 91800 333 10235 20054=
07510,1997-02-28 21:00:00,11,1029.8,0.2,76,7,15000,3.704,,,270,,,,,,,,,,,wg-a,,,,AAXX 28214 07510 12/65 72702 10110 20070 30223 40298 50002 60006 84032 92100=
07510,1997-03-01 00:00:00,8,1029.8,-0.1,87,6,15000,3.704,,,330,,,,,,,,,,,wg-a,,,,AAXX 01004 07510 12/65 33302 10080 20060 30222 40298 58001 60006 80002 90000=
07510,1997-03-01 03:00:00,9,1028.8,-0.9,87,7,15000,7.408,,,40,,,,,,,,,,,wg-a,,,,AAXX 01034 07510 12/65 70404 10090 20070 30213 40288 58009 60006 84032 90300=
07510,1997-03-01 06:00:00,8,1028.8,-0.1,87,6,15000,7.408,,,120,7.5,16.8,,,,,,,,,wg-a,,,,AAXX 01064 07510 02/65 71204 10080 20060 30212 40288 58001 60006 84032 90600 333 10168 20075 60004=
07510,1997-03-01 09:00:00,10,1029.5,0.8,66,4,20000,11.112,,,120,,,,,,,,,,,wg-a,,,,AAXX 01094 07510 12770 71206 10100 20040 30220 40295 52008 60006 82532 90900=
07510,1997-03-01 12:00:00,15,1028.5,-0.9,55,6,8000,3.704,,,80,,,,,,,,,,,wg-a,,,,AAXX 01124 07510 12/58 70802 10150 20060 30211 40285 58009 60006 80002 91200=
07510,1997-03-01 15:00:00,18,1026.5,-1.9,52,8,8000,3.704,,,70,,,,,,,,,,,wg-a,,,,AAXX 01154 07510 12/58 70702 10180 20080 30192 40265 56019 60006 80002 91500=
07510,1997-03-01 18:00:00,16,1026.3,-0.2,59,8,500,3.704,,,60,7.7,18.9,,,,,,,,,wg-a,,,,AAXX 01184 07510 12/00 50602 10160 20080 30190 40263 55002 60006 83032 91800 333 10189 20077=
07510,1997-03-01 21:00:00,10,1026.6,0.1,87,8,8000,3.704,,,120,,,,,,,,,,,wg-a,,,,AAXX 01214 07510 12/58 31202 10100 20080 30191 40266 51001 60006 80002 92100=
07510,1997-03-02 00:00:00,7,1026,-0.7,93,6,8000,0,,,0,,,,,,,,,,,wg-a,,,,AAXX 02004 07510 12/58 /0000 10070 20060 30184 40260 58007 60006 80002 90000=
07510,1997-03-02 03:00:00,6,1026.3,0.3,100,6,8000,3.704,,,250,,,,,,,,,,11,wg-a,,,,AAXX 02034 07510 12/58 /2502 10060 20060 30187 40263 53003 60006 71100 80002 90300=
07510,1997-03-02 06:00:00,5,1027.5,1.2,100,5,8000,0,,,0,5,16,,,,,,,,11,wg-a,,,,AAXX 02064 07510 02/58 /0000 10050 20050 30199 40275 53012 60006 71100 80002 90600 333 10160 20050 60004=
07510,1997-03-02 09:00:00,11,1029.8,2.4,87,9,8000,3.704,,,260,,,,0,,,,,,,wg-a,,,,AAXX 02094 07510 12/58 22602 10110 20090 30223 40298 53024 60007 80002 90900=
07510,1997-03-02 12:00:00,17,1030.4,0.8,68,11,10000,11.112,,,340,,,,,,,,,,,wg-a,,,,AAXX 02124 07510 12560 53406 10170 20110 30231 40304 50008 60006 85102 91200=
07510,1997-03-02 15:00:00,19,1030.2,-0.2,52,9,10000,14.816,,,290,,,,,,,,,,,wg-a,,,,AAXX 02154 07510 12560 62908 10190 20090 30229 40302 55002 60006 81101 91500=
07510,1997-03-02 18:00:00,15,1031.7,1.4,67,9,10000,11.112,,,300,4.6,19,,,,,,,,,wg-a,,,,AAXX 02184 07510 12/60 43006 10150 20090 30243 40317 53014 60006 80001 91800 333 10190 20046=
07510,1997-03-02 21:00:00,11,1033.2,1.4,87,9,10000,7.408,,,250,,,,,,,,,,,wg-a,,,,AAXX 02214 07510 12/60 12504 10110 20090 30257 40332 51014 60006 80001 92100=
07510,1997-03-03 00:00:00,9,1033.7,0.4,100,9,500,11.112,,,250,,,,,,,,,,12,wg-a,,,,AAXX 03004 07510 12/05 92506 10090 20090 30261 40337 51004 60006 71241 89/// 90000=
07510,1997-03-03 03:00:00,7,1033.9,0.2,100,7,300,3.704,,,130,,,,,,,,,,45,wg-a,,,,AAXX 03034 07510 32/03 91302 10070 20070 30263 40339 51002 74544 89/// 90300=
07510,1997-03-03 06:00:00,7,1034.3,0.4,100,7,300,3.704,,,130,6.5,14.7,,,,,,,,44,wg-a,,,,AAXX 03064 07510 02/03 /1302 10070 20070 30267 40343 53004 60006 74444 80001 90600 333 10147 20065 60004=
07510,1997-03-03 09:00:00,9,1034.9,0.6,100,9,200,7.408,,,90,,,,,,,,,,43,wg-a,,,,AAXX 03094 07510 12/02 90904 10090 20090 30273 40349 53006 60006 74344 89/// 90900=
07510,1997-03-03 12:00:00,17,1033.4,-1.2,68,11,15000,11.112,,,110,,,,,,,,,,3,wg-a,,,,AAXX 03124 07510 12/65 31106 10170 20110 30261 40334 58012 60006 70341 80002 91200=
07510,1997-03-03 15:00:00,21,1031.5,-1.8,53,11,15000,7.408,,,90,,,,,,,,,,,wg-a,,,,AAXX 03154 07510 12/65 50904 10210 20110 30243 40315 56018 60006 80002 91500=
07510,1997-03-03 18:00:00,19,1031,-0.6,64,12,10000,11.112,,,130,6.6,22,,,,,,,,,wg-a,,,,AAXX 03184 07510 12/60 61306 10190 20120 30237 40310 56006 60006 83032 91800 333 10220 20066=
07510,1997-03-03 21:00:00,14,1030.9,-0.2,82,11,10000,7.408,,,140,,,,,,,,,,,wg-a,,,,AAXX 03214 07510 12/60 31404 10140 20110 30235 40309 58002 60006 80002 92100=
07510,1997-03-04 00:00:00,12,1030.3,-0.7,82,9,10000,7.408,,,140,,,,,,,,,,,wg-a,,,,AAXX 04004 07510 12/60 31404 10120 20090 30228 40303 58007 60006 80002 90000=
07510,1997-03-04 03:00:00,12,1029.1,-1.1,82,9,10000,7.408,,,150,,,,,,,,,,,wg-a,,,,AAXX 04034 07510 12/60 51504 10120 20090 30217 40291 58011 60006 82032 90300=
07510,1997-03-04 06:00:00,10,1028.8,-0.4,87,8,10000,7.408,,,150,10.3,18.5,,,,,,,,,wg-a,,,,AAXX 04064 07510 02/60 41504 10100 20080 30213 40288 55004 60006 81032 90600 333 10185 20103 60004=
07510,1997-03-04 09:00:00,14,1029.4,0.7,67,8,8000,11.112,,,210,,,,,,,,,,,wg-a,,,,AAXX 04094 07510 12/58 /2106 10140 20080 30220 40294 52007 60006 82032 90900=
07510,1997-03-04 12:00:00,18,1029.5,0.2,64,11,9000,18.52,,,280,,,,,,,,,,,wg-a,,,,AAXX 04124 07510 12/59 72810 10180 20110 30222 40295 53002 60006 83032 91200=
07510,1997-03-04 15:00:00,18,1029.1,-0.4,56,9,9000,7.408,,,280,,,,,,,,,,,wg-a,,,,AAXX 04154 07510 12/59 72804 10180 20090 30218 40291 56004 60006 83032 91500=
07510,1997-03-04 18:00:00,15,1029.5,0.3,77,11,10000,18.52,,,300,9.3,18.4,,,,,,,,,wg-a,,,,AAXX 04184 07510 12760 73010 10150 20110 30221 40295 53003 60006 8353/ 91800 333 10184 20093=
07510,1997-03-04 21:00:00,12,1030.8,1.3,94,11,10000,11.112,,,260,,,,,,,,,,,wg-a,,,,AAXX 04214 07510 12460 72606 10120 20110 30234 40308 51013 60006 875// 92100=
07510,1997-03-05 00:00:00,13,1031.1,0.3,88,11,10000,14.816,,,250,,,,,,,,,,,wg-a,,,,AAXX 05004 07510 12360 72508 10130 20110 30237 40311 51003 60006 875// 90000=
07510,1997-03-05 03:00:00,12,1031.2,0,88,10,10000,7.408,,,290,,,,,,,,,,,wg-a,,,,AAXX 05034 07510 12560 72904 10120 20100 30237 40312 50000 60006 875// 90300=
07510,1997-03-05 06:00:00,12,1031.9,0.7,82,9,15000,3.704,,,300,11.4,14.7,,,,,,,,,wg-a,,,,AAXX 05064 07510 02565 73002 10120 20090 30244 40319 51007 60006 875// 90600 333 10147 20114 60004=
07510,1997-03-05 09:00:00,12,1032.7,0.8,82,9,15000,7.408,,,220,,,,,,,,,,,wg-a,,,,AAXX 05094 07510 12565 82204 10120 20090 30252 40327 51008 60006 875// 90900=
07510,1997-03-05 12:00:00,13,1032.6,-0,82,10,15000,14.816,,,290,,,,,,,,,,,wg-a,,,,AAXX 05124 07510 12565 82908 10130 20100 30252 40326 54000 60006 875// 91200=
07510,1997-03-05 15:00:00,14,1031.8,-0.8,77,10,15000,14.816,,,300,,,,,,,,,,,wg-a,,,,AAXX 05154 07510 12465 73008 10140 20100 30244 40318 57008 60006 878// 91500=
07510,1997-03-05 18:00:00,13,1032.4,0.5,82,10,11000,7.408,,,330,11.4,14,,,,,,,,,wg-a,,,,AAXX 05184 07510 12/61 /3304 10130 20100 30249 40324 52005 60006 91800 333 10140 20114=
07510,1997-03-06 00:00:00,9,1032.1,-0.3,93,8,10000,3.704,,,210,,,,,,,,,,,wg-a,,,,AAXX 06004 07510 12560 32102 10090 20080 30245 40321 58003 60006 83530 90000=
07510,1997-03-06 06:00:00,9,1031.6,-0.2,93,8,8000,3.704,,,160,7.9,12.8,,,,,,,,,wg-a,,,,AAXX 06064 07510 02458 71602 10090 20080 30240 40316 56002 60006 8557/ 90600 333 10128 20079 60004=
07510,1997-03-06 09:00:00,11,1032.6,1.1,94,10,8000,7.408,,,180,,,,,,,,,,,wg-a,,,,AAXX 06094 07510 12458 71804 10110 20100 30251 40326 51011 60006 825// 90900=
07510,1997-03-06 12:00:00,15,1032.4,-0.1,72,10,10000,3.704,,,60,,,,,,,,,,,wg-a,,,,AAXX 06124 07510 12460 70602 10150 20100 30250 40324 58001 60006 878// 91200=
07510,1997-03-06 15:00:00,18,1030.6,-1.7,56,9,10000,3.704,,,90,,,,,,,,,,,wg-a,,,,AAXX 06154 07510 12560 60902 10180 20090 30233 40306 56017 60006 86800 91500=
07510,1997-03-06 18:00:00,15,1030.6,-0.1,67,9,10000,7.408,,,30,8.6,18.4,,,,,,,,,wg-a,,,,AAXX 06184 07510 12660 50304 10150 20090 30232 40306 55001 60006 85500 91800 333 10184 20086=
07510,1997-03-07 00:00:00,7,1031.2,-0.6,93,6,500,0,,,0,,,,,,,,,,12,wg-a,,,,AAXX 07004 07510 12500 /0000 10070 20060 30236 40312 58006 60006 71211 81500 90000=
07510,1997-03-07 06:00:00,5,1030,-0.5,93,4,2000,3.704,,,10,4.7,14.9,,,,,,,,40,wg-a,,,,AAXX 07064 07510 02720 20102 10050 20040 30223 40300 56005 60006 74041 82500 90600 333 10149 20047 60004=
07510,1997-03-07 09:00:00,11,1030.1,0.3,94,10,4000,7.408,,,110,,,,,,,,,,10,wg-a,,,,AAXX 07094 07510 12640 31104 10110 20100 30226 40301 53003 60006 71000 83500 90900=
07510,1997-03-07 12:00:00,16,1029,-1,51,6,10000,11.112,,,90,,,,,,,,,,,wg-a,,,,AAXX 07124 07510 12660 /0906 10160 20060 30216 40290 58010 60006 84200 91200=
07510,1997-03-07 15:00:00,17,1026.9,-2,48,6,15000,11.112,,,50,,,,,,,,,,,wg-a,,,,AAXX 07154 07510 12665 /0506 10170 20060 30196 40269 56020 60006 81400 91500=
07510,1997-03-07 18:00:00,16,1027.2,0.2,55,7,15000,7.408,,,40,4.1,17.7,,,,,,,,,wg-a,,,,AAXX 07184 07510 12665 /0404 10160 20070 30198 40272 53002 60006 81500 91800 333 10177 20041=
07510,1997-03-07 21:00:00,10,1028.1,0.8,82,7,15000,7.408,,,280,,,,,,,,,,,wg-a,,,,AAXX 07214 07510 12/65 02804 10100 20070 30206 40281 51008 60006 80000 92100=
07510,1997-03-08 00:00:00,6,1028.6,0.4,87,4,12000,0,,,0,,,,,,,,,,,wg-a,,,,AAXX 08004 07510 12/62 00000 10060 20040 30210 40286 52004 60006 80000 90000=
07510,1997-03-08 03:00:00,4,1028.8,0.1,93,3,12000,0,,,0,,,,,,,,,,,wg-a,,,,AAXX 08034 07510 12/62 00000 10040 20030 30211 40288 50001 60006 80000 90300=
07510,1997-03-08 06:00:00,2,1030.1,1.3,93,1,12000,3.704,,,240,2.1,15.4,,,,,,,,,wg-a,,,,AAXX 08064 07510 02/62 02402 10020 20010 30224 40301 53013 60006 80000 90600 333 10154 20021 60004=
07510,1997-03-08 09:00:00,10,1031.6,1.7,87,8,8000,7.408,,,50,,,,,,,,,,,wg-a,,,,AAXX 08094 07510 12/58 /0504 10100 20080 30241 40316 51017 60006 81030 90900=
07510,1997-03-08 12:00:00,18,1030.9,-0.5,45,6,8000,7.408,,,50,,,,,,,,,,,wg-a,,,,AAXX 08124 07510 12/58 /0504 10180 20060 30236 40309 58005 60006 81030 91200=
07510,1997-03-08 15:00:00,19,1029.5,-1.4,40,5,10000,11.112,,,80,,,,,,,,,,,wg-a,,,,AAXX 08154 07510 12/60 /0806 10190 20050 30222 40295 56014 60006 91500=
07510,1997-03-08 18:00:00,18,1029.8,0.3,42,5,15000,7.408,,,70,1.8,19.9,,,,,,,,,wg-a,,,,AAXX 08184 07510 12/65 00704 10180 20050 30225 40298 53003 60006 80000 91800 333 10199 20018=
07510,1997-03-09 00:00:00,8,1029.8,-0.6,87,6,15000,3.704,,,290,,,,,,,,,,,wg-a,,,,AAXX 09004 07510 12/65 12902 10080 20060 30222 40298 58006 60006 80002 90000=
07510,1997-03-09 03:00:00,6,1029.3,-0.5,93,5,10000,3.704,,,60,,,,,,,,,,,wg-a,,,,AAXX 09034 07510 12/60 10602 10060 20050 30217 40293 58005 60006 80002 90300=
07510,1997-03-09 06:00:00,4,1029.8,0.4,93,3,8000,3.704,,,110,4,17.5,,,,,,,,11,wg-a,,,,AAXX 09064 07510 02/58 /1102 10040 20030 30221 40298 53004 60006 71100 80002 90600 333 10175 20040 60004=
07510,1997-03-09 09:00:00,13,1030.6,1.1,67,7,8000,11.112,,,150,,,,,,,,,,,wg-a,,,,AAXX 09094 07510 12/58 01506 10130 20070 30232 40306 51011 60006 80000 90900=
07510,1997-03-09 12:00:00,21,1029.5,-0.9,40,7,15000,11.112,,,130,,,,,,,,,,,wg-a,,,,AAXX 09124 07510 12/65 01306 10210 20070 30223 40295 58009 60006 80000 91200=
07510,1997-03-09 15:00:00,24,1027.3,-2.1,31,6,15000,7.408,,,180,,,,,,,,,,,wg-a,,,,AAXX 09154 07510 12/65 01804 10240 20060 30202 40273 56021 60006 80000 91500=
07510,1997-03-09 18:00:00,19,1028,0.5,43,6,15000,11.112,,,100,3.6,24.6,,,,,,,,,wg-a,,,,AAXX 09184 07510 12/65 01006 10190 20060 30207 40280 53005 60006 80000 91800 333 10246 20036=
07510,1997-03-09 21:00:00,13,1028.9,0.8,62,6,10000,3.704,,,140,,,,,,,,,,,wg-a,,,,AAXX 09214 07510 12/60 /1402 10130 20060 30215 40289 51008 60006 92100=
07510,1997-03-10 00:00:00,10,1029.1,0.1,71,5,10000,7.408,,,130,,,,,,,,,,,wg-a,,,,AAXX 10004 07510 12/60 01304 10100 20050 30216 40291 53001 60006 80000 90000=
07510,1997-03-10 03:00:00,9,1029.3,0.1,71,4,10000,7.408,,,130,,,,,,,,,,,wg-a,,,,AAXX 10034 07510 12/60 01304 10090 20040 30217 40293 50001 60006 80000 90300=
07510,1997-03-10 06:00:00,7,1030.8,1.5,76,3,10000,11.112,,,110,7,19.3,,,,,,,,,wg-a,,,,AAXX 10064 07510 02/60 11106 10070 20030 30232 40308 53015 60006 80002 90600 333 10193 20070 60004=
07510,1997-03-10 09:00:00,14,1031.7,1.1,44,2,15000,14.816,,,130,,,,,,,,,,,wg-a,,,,AAXX 10094 07510 12/65 11308 10140 20020 30243 40317 51011 60006 80002 90900=
07510,1997-03-10 12:00:00,19,1030.5,-1.1,30,1,15000,14.816,,,120,,,,,,,,,,,wg-a,,,,AAXX 10124 07510 12/65 01208 10190 20010 30232 40305 58011 60006 80000 91200=
07510,1997-03-10 15:00:00,21,1029,-1.4,30,3,15000,7.408,,,120,,,,,,,,,,,wg-a,,,,AAXX 10154 07510 12/65 11204 10210 20030 30218 40290 56014 60006 80002 91500=
07510,1997-03-10 18:00:00,18,1029,-0.1,39,4,15000,3.704,,,120,6.8,21.3,,,,,,,,,wg-a,,,,AAXX 10184 07510 12/65 01202 10180 20040 30217 40290 55001 60006 80000 91800 333 10213 20068=
07510,1997-03-10 21:00:00,10,1029.5,0.3,71,5,15000,0,,,0,,,,,,,,,,,wg-a,,,,AAXX 10214 07510 12/65 00000 10100 20050 30220 40295 52003 60006 80000 92100=
07510,1997-03-11 00:00:00,6,1029.2,-0.4,87,4,10000,0,,,0,,,,,,,,,,,wg-a,,,,AAXX 11004 07510 12/60 00000 10060 20040 30216 40292 57004 60006 80000 90000=
07510,1997-03-11 03:00:00,5,1029,-0.3,93,4,10000,0,,,0,,,,,,,,,,,wg-a,,,,AAXX 11034 07510 12/60 00000 10050 20040 30213 40290 58003 60006 80000 90300=
07510,1997-03-11 06:00:00,3,1029.4,0.4,100,3,10000,7.408,,,100,3.2,18,,,,,,,,,wg-a,,,,AAXX 11064 07510 02/60 01004 10030 20030 30217 40294 53004 60006 80000 90600 333 10180 20032 60004=
07510,1997-03-11 09:00:00,14,1029.5,0.4,55,5,8000,7.408,,,100,,,,,,,,,,,wg-a,,,,AAXX 11094 07510 12/58 01004 10140 20050 30221 40295 52004 60006 80000 90900=
07510,1997-03-11 12:00:00,23,1028.9,-0.4,25,2,10000,7.408,,,90,,,,,,,,,,,wg-a,,,,AAXX 11124 07510 12/60 00904 10230 20020 30217 40289 58004 60006 80000 91200=
07510,1997-03-11 15:00:00,24,1027.6,-1.3,20,0,10000,7.408,,,30,,,,,,,,,,,wg-a,,,,AAXX 11154 07510 12/60 00304 10240 20000 30204 40276 56013 60006 80000 91500=
07510,1997-03-11 18:00:00,21,1027.7,0.1,28,2,10000,11.112,,,320,3.3,24.2,,,,,,,,,wg-a,,,,AAXX 11184 07510 12/60 13206 10210 20020 30205 40277 53001 60006 80002 91800 333 10242 20033=
07510,1997-03-12 00:00:00,8,1029.8,0.5,81,5,10000,11.112,,,240,,,,,,,,,,,wg-a,,,,AAXX 12004 07510 12/60 02406 10080 20050 30222 40298 51005 60006 80000 90000=
07510,1997-03-12 03:00:00,8,1030.2,0.4,100,8,300,11.112,,,240,,,,,,,,,,47,wg-a,,,,AAXX 12034 07510 12/03 92406 10080 20080 30226 40302 50004 60006 74741 89/// 90300=
07510,1997-03-12 06:00:00,8,1031.7,1.5,100,8,300,11.112,,,230,7.1,20.4,,,,,,,,45,wg-a,,,,AAXX 12064 07510 02/03 92306 10080 20080 30241 40317 53015 60006 74541 89/// 90600 333 10204 20071 60004=
07510,1997-03-12 09:00:00,9,1033.3,1.6,100,9,3000,11.112,,,190,,,,,,,,,,10,wg-a,,,,AAXX 12094 07510 12130 81906 10090 20090 30257 40333 51016 60006 71042 886// 90900=
07510,1997-03-12 12:00:00,16,1033.2,0.1,68,10,8000,3.704,,,260,,,,,,,,,,1,wg-a,,,,AAXX 12124 07510 12/58 22602 10160 20100 30258 40332 50001 60006 70141 80002 91200=
07510,1997-03-12 15:00:00,21,1031.2,-1.8,46,9,10000,3.704,,,70,,,,,,,,,,,wg-a,,,,AAXX 12154 07510 12/60 00702 10210 20090 30240 40312 56018 60006 80000 91500=
07510,1997-03-12 18:00:00,17,1031.7,0.4,68,11,10000,14.816,,,330,8.2,21.8,,,,,,,,,wg-a,,,,AAXX 12184 07510 12/60 23308 10170 20110 30244 40317 53004 60006 80002 91800 333 10218 20082=
07510,1997-03-13 00:00:00,9,1032.2,-0.3,93,8,300,0,,,0,,,,,,,,,,,wg-a,,,,AAXX 13004 07510 12/03 /0000 10090 20080 30246 40322 58003 60006 90000=
07510,1997-03-13 03:00:00,8,1031.3,-0.9,93,7,300,7.408,,,40,,,,,,,,,,45,wg-a,,,,AAXX 13034 07510 32/03 90404 10080 20070 30237 40313 58009 74544 89/// 90300=
07510,1997-03-13 06:00:00,8,1031,-0.3,100,8,300,3.704,,,40,7.4,17,,,,,,,,45,wg-a,,,,AAXX 13064 07510 02/03 90402 10080 20080 30234 40310 56003 60006 74544 89/// 90600 333 10170 20074 60004=
07510,1997-03-13 09:00:00,8,1031.5,0.5,100,8,100,7.408,,,50,,,,,,,,,,43,wg-a,,,,AAXX 13094 07510 32/01 90504 10080 20080 30239 40315 52005 74344 89/// 90900=
07510,1997-03-13 12:00:00,12,1030.7,-0.7,88,10,4000,7.408,,,50,,,,,,,,,,10,wg-a,,,,AAXX 13124 07510 12240 /0504 10120 20100 30232 40307 58007 60006 71041 81600 91200=
07510,1997-03-13 15:00:00,18,1028.5,-2,49,7,8000,7.408,,,50,,,,,,,,,,,wg-a,,,,AAXX 13154 07510 12/58 /0504 10180 20070 30212 40285 56020 60006 80001 91500=
07510,1997-03-13 18:00:00,16,1028.1,-0.5,63,9,6000,11.112,,,10,7.5,18.4,,,,,,,,,wg-a,,,,AAXX 13184 07510 12/56 /0106 10160 20090 30207 40281 55005 60006 80001 91800 333 10184 20075=
07510,1997-03-13 21:00:00,11,1028.6,0.4,87,9,6000,7.408,,,320,,,,,,,,,,,wg-a,,,,AAXX 13214 07510 12/56 /3204 10110 20090 30211 40286 51004 60006 80001 92100=
07510,1997-03-14 00:00:00,9,1029.1,0.5,100,9,800,11.112,,,320,,,,,,,,,,45,wg-a,,,,AAXX 14004 07510 12/08 93206 10090 20090 30216 40291 51005 60006 74541 89/// 90000=
07510,1997-03-14 06:00:00,10,1029.5,0.4,93,9,500,7.408,,,280,8.7,15.6,,,,,,,,2,wg-a,,,,AAXX 14064 07510 02200 72804 10100 20090 30220 40295 53004 60006 70242 875// 90600 333 10156 20087 60004=
07510,1997-03-14 09:00:00,11,1030.9,1.4,87,9,500,7.408,,,290,,,,,,,,,,,wg-a,,,,AAXX 14094 07510 12400 82904 10110 20090 30234 40309 52014 60006 885// 90900=
07510,1997-03-14 12:00:00,12,1030.8,-0.1,82,9,7000,18.52,,,290,,,,,,,,,,,wg-a,,,,AAXX 14124 07510 12457 72910 10120 20090 30233 40308 58001 60006 875// 91200=
07510,1997-03-14 15:00:00,13,1029.7,-1,72,8,10000,18.52,,,310,,,,,,,,,,,wg-a,,,,AAXX 14154 07510 12560 73110 10130 20080 30223 40297 56010 60006 875// 91500=
07510,1997-03-14 18:00:00,12,1030.1,0.4,82,9,8000,11.112,,,270,9.7,13.7,,,,,,,,,wg-a,,,,AAXX 14184 07510 12558 72706 10120 20090 30227 40301 52004 60006 875// 91800 333 10137 20097=
07510,1997-03-14 21:00:00,11,1030.6,0.4,94,10,6000,14.816,,,260,,,,,,,,,,50,wg-a,,,,AAXX 14214 07510 02256 72608 10110 20100 30231 40306 51004 61000 75052 877// 92100 333 ////=
07510,1997-03-15 00:00:00,12,1029.9,-0.6,100,12,6000,11.112,,,290,,,,1,,,,,,20,wg-a,,,,AAXX 15004 07510 02256 72906 10120 20120 30225 40299 58006 60016 72052 877// 90000 333 60017=
07510,1997-03-15 06:00:00,12,1029.7,0.4,94,11,500,7.408,,,310,11.2,12.3,,,,,1,,,2,wg-a,,,,AAXX 15064 07510 02100 73104 10120 20110 30222 40297 53004 60006 70252 877// 90600 333 10123 20112 60014=
07510,1997-03-15 09:00:00,13,1030.4,0.8,94,12,4000,11.112,,,330,,,,1,,,,,,50,wg-a,,,,AAXX 15094 07510 12240 73306 10130 20120 30230 40304 52008 60017 75052 877// 90900=
07510,1997-03-15 12:00:00,15,1030.3,-0.1,88,13,10000,11.112,,,320,,,,,,,,,,1,wg-a,,,,AAXX 15124 07510 02460 73206 10150 20130 30229 40303 58001 60016 70152 878// 91200 333 61000=
07510,1997-03-15 15:00:00,15,1029.4,-0.9,88,13,15000,7.408,,,320,,,,,,,,,,,wg-a,,,,AAXX 15154 07510 12465 73204 10150 20130 30220 40294 56009 60006 878// 91500=
07510,1997-03-15 18:00:00,13,1029.6,0.2,94,12,8000,7.408,,,340,11.9,15.5,,,,,,,,50,wg-a,,,,AAXX 15184 07510 02358 73404 10130 20120 30222 40296 51002 61000 75052 875// 91800 333 10155 20119 6001=
07510,1997-03-15 21:00:00,11,1030.6,0.9,94,10,10000,11.112,,,330,,,,0,,,,,,1,wg-a,,,,AAXX 15214 07510 12660 /3306 10110 20100 30231 40306 51009 60007 70151 83500 92100=
07510,1997-03-16 00:00:00,11,1030.6,0,94,10,8000,3.704,,,280,,,,,,,,,,2,wg-a,,,,AAXX 16004 07510 12658 72802 10110 20100 30231 40306 50000 60006 70251 875// 90000=
07510,1997-03-16 03:00:00,10,1029.9,-0.7,93,9,8000,3.704,,,290,,,,,,,,,,,wg-a,,,,AAXX 16034 07510 12258 72902 10100 20090 30224 40299 58007 60006 875// 90300=
07510,1997-03-16 06:00:00,9,1030,0.1,100,9,6000,3.704,,,10,8.9,13.2,,,,,1,,,11,wg-a,,,,AAXX 16064 07510 02656 /0102 10090 20090 30225 40300 53001 60006 71122 86500 90600 333 10132 20089 60014=
07510,1997-03-16 12:00:00,17,1029.3,-1.1,59,9,10000,14.816,,,20,,,,,,,,,,,wg-a,,,,AAXX 16124 07510 12560 40208 10170 20090 30220 40293 58011 60006 84200 91200=
07510,1997-03-16 18:00:00,16,1027.2,-0.3,55,7,15000,14.816,,,20,9.1,18.2,,,,,,,,,wg-a,,,,AAXX 16184 07510 12/65 10208 10160 20070 30199 40272 55003 60006 80002 91800 333 10182 20091=
07510,1997-03-16 21:00:00,12,1027.6,0.2,71,7,15000,3.704,,,360,,,,,,,,,,,wg-a,,,,AAXX 16214 07510 12/65 03602 10120 20070 30201 40276 52002 60006 80000 92100=
07510,1997-03-17 00:00:00,6,1027.3,-0.4,93,5,12000,3.704,,,340,,,,,,,,,,,wg-a,,,,AAXX 17004 07510 12/62 03402 10060 20050 30197 40273 58004 60006 80000 90000=
07510,1997-03-17 03:00:00,4,1026.6,-0.8,93,3,10000,0,,,0,,,,,,,,,,,wg-a,,,,AAXX 17034 07510 12/60 00000 10040 20030 30189 40266 58008 60006 80000 90300=
07510,1997-03-17 06:00:00,3,1026.6,-0,93,2,10000,3.704,,,350,3,16,,,,,,,,11,wg-a,,,,AAXX 17064 07510 02/60 13502 10030 20020 30189 40266 55000 60006 71100 80001 90600 333 10160 20030 60004=
07510,1997-03-17 09:00:00,12,1027.2,0.9,76,8,7000,3.704,,,70,,,,0,,,,,,,wg-a,,,,AAXX 17094 07510 12457 20702 10120 20080 30198 40272 51009 60007 81102 90900=
07510,1997-03-17 12:00:00,20,1026.1,-0.9,46,8,8000,3.704,,,20,,,,,,,,,,,wg-a,,,,AAXX 17124 07510 12/58 /0202 10200 20080 30189 40261 58009 60006 80001 91200=
07510,1997-03-17 15:00:00,23,1024.3,-1.7,41,9,8000,7.408,,,110,,,,,,,,,,,wg-a,,,,AAXX 17154 07510 12/58 /1104 10230 20090 30172 40243 56017 60006 80001 91500=
07510,1997-03-17 18:00:00,19,1023.9,-0.5,56,10,15000,14.816,,,310,2.8,24,,,,,,,,,wg-a,,,,AAXX 17184 07510 12/65 13108 10190 20100 30167 40239 55005 60006 80001 91800 333 10240 20028=
07510,1997-03-17 21:00:00,12,1024.2,0.1,76,8,15000,3.704,,,310,,,,,,,,,,,wg-a,,,,AAXX 17214 07510 12/65 13102 10120 20080 30168 40242 50001 60006 80001 92100=
07510,1997-03-18 00:00:00,8,1023.8,-0.5,93,7,15000,7.408,,,250,,,,,,,,,,,wg-a,,,,AAXX 18004 07510 12/65 02504 10080 20070 30163 40238 58005 60006 80000 90000=
07510,1997-03-18 03:00:00,7,1023,-0.9,93,6,300,7.408,,,240,,,,,,,,,,44,wg-a,,,,AAXX 18034 07510 12/03 92404 10070 20060 30154 40230 58009 60006 74441 89/// 90300=
07510,1997-03-18 06:00:00,10,1023.2,0.3,100,10,900,14.816,,,260,6.3,18.7,,,,,,,,45,wg-a,,,,AAXX 18064 07510 02/09 92608 10100 20100 30157 40232 52003 60006 74541 89/// 90600 333 10187 20063 60004=
07510,1997-03-18 09:00:00,11,1023.6,0.5,94,10,500,18.52,,,290,,,,,,,,,,1,wg-a,,,,AAXX 18094 07510 12300 82910 10110 20100 30162 40236 53005 60006 70142 886// 90900=
07510,1997-03-18 12:00:00,16,1023.4,-0.1,63,9,10000,14.816,,,300,,,,,,,,,,1,wg-a,,,,AAXX 18124 07510 12460 /3008 10160 20090 30161 40234 58001 60006 70141 82500 91200=
07510,1997-03-18 15:00:00,15,1021.9,-1.5,72,10,10000,22.224,,,300,,,,,,,,,,,wg-a,,,,AAXX 18154 07510 12460 73012 10150 20100 30146 40219 56015 60006 83502 91500=
07510,1997-03-18 18:00:00,12,1021.8,-0.2,82,9,10000,14.816,,,300,9.7,17.3,,,,,,,,,wg-a,,,,AAXX 18184 07510 12460 83008 10120 20090 30144 40218 55002 60006 885// 91800 333 10173 20097=
07510,1997-03-18 21:00:00,12,1021.8,-0,88,10,10000,11.112,,,260,,,,,,,,,,,wg-a,,,,AAXX 18214 07510 12460 72606 10120 20100 30144 40218 55000 60006 875// 92100=
07510,1997-03-19 00:00:00,11,1021.5,-0.3,82,8,10000,11.112,,,250,,,,,,,,,,,wg-a,,,,AAXX 19004 07510 12460 /2506 10110 20080 30141 40215 58003 60006 86500 90000=
07510,1997-03-19 06:00:00,8,1019.9,0.2,93,7,10000,11.112,,,260,8.4,12.2,,,,,,,,3,wg-a,,,,AAXX 19064 07510 02660 /2606 10080 20070 30124 40199 52002 60006 70386 86502 90600 333 10122 20084 60004=
07510,1997-03-19 12:00:00,14,1020.1,-0.6,58,6,10000,31.484,,,290,,,,0,,,,,,3,wg-a,,,,AAXX 19124 07510 02560 /2917 10140 20060 30128 40201 55006 60016 70386 86800 91200 333 60007=
07510,1997-03-19 15:00:00,13,1019.2,-1,58,5,10000,25.928,,,290,,,,,,,,,,,wg-a,,,,AAXX 19154 07510 12660 72914 10130 20050 30118 40192 56010 60006 878// 91500=
07510,1997-03-19 18:00:00,11,1019.9,0.7,66,5,10000,14.816,,,310,8.1,14.1,,,,,,,,,wg-a,,,,AAXX 19184 07510 12560 73108 10110 20050 30125 40199 53007 60006 878// 91800 333 10141 20081=
07510,1997-03-19 21:00:00,9,1021.5,1.5,76,5,10000,3.704,,,280,,,,,,,,,,,wg-a,,,,AAXX 19214 07510 12660 22802 10090 20050 30140 40215 52015 60006 82500 92100=
07510,1997-03-20 00:00:00,7,1021.6,0.1,87,5,10000,3.704,,,280,,,,,,,,,,,wg-a,,,,AAXX 20004 07510 12660 22802 10070 20050 30141 40216 50001 60006 82500 90000=
07510,1997-03-20 03:00:00,4,1021.6,-0.1,93,3,10000,0,,,0,,,,,,,,,,,wg-a,,,,AAXX 20034 07510 12760 20000 10040 20030 30140 40216 58001 60006 82500 90300=
07510,1997-03-20 06:00:00,3,1021.8,0.1,93,2,10000,0,,,0,2.6,11.4,,,,,1,,,11,wg-a,,,,AAXX 20064 07510 02760 /0000 10030 20020 30141 40218 53001 60006 71100 81530 90600 333 10114 20026 60014=
07510,1997-03-20 09:00:00,11,1022.4,0.9,71,6,10000,7.408,,,120,,,,,,,,,,,wg-a,,,,AAXX 20094 07510 12/60 11204 10110 20060 30150 40224 52009 60006 80002 90900=
07510,1997-03-20 12:00:00,14,1021.5,-0.9,47,3,15000,7.408,,,90,,,,,,,,,,,wg-a,,,,AAXX 20124 07510 12665 60904 10140 20030 30141 40215 58009 60006 86200 91200=
07510,1997-03-20 15:00:00,15,1019.9,-1.5,41,2,15000,11.112,,,60,,,,,,,,,,,wg-a,,,,AAXX 20154 07510 12665 /0606 10150 20020 30126 40199 56015 60006 81402 91500=
07510,1997-03-20 18:00:00,14,1019.7,-0.2,47,3,15000,11.112,,,20,2.4,16,,,,,,,,,wg-a,,,,AAXX 20184 07510 12/65 60206 10140 20030 30124 40197 55002 60006 80002 91800 333 10160 20024=
07510,1997-03-20 21:00:00,10,1020.5,0.7,62,3,15000,11.112,,,40,,,,,,,,,,,wg-a,,,,AAXX 20214 07510 12/65 40406 10100 20030 30131 40205 53007 60006 80002 92100=
07510,1997-03-21 00:00:00,8,1020.6,0,71,3,15000,7.408,,,50,,,,,,,,,,,wg-a,,,,AAXX 21004 07510 12/65 20504 10080 20030 30131 40206 50000 60006 80002 90000=
07510,1997-03-21 03:00:00,5,1020.4,-0.3,81,2,15000,3.704,,,40,,,,,,,,,,,wg-a,,,,AAXX 21034 07510 12/65 20402 10050 20020 30128 40204 56003 60006 80002 90300=
07510,1997-03-21 06:00:00,3,1021,0.5,87,1,10000,7.408,,,40,2.4,13.9,,,,,,,,,wg-a,,,,AAXX 21064 07510 02/60 40404 10030 20010 30133 40210 53005 60006 80002 90600 333 10139 20024 60004=
07510,1997-03-21 09:00:00,9,1021.9,1.1,66,3,15000,11.112,,,40,,,,,,,,,,,wg-a,,,,AAXX 21094 07510 12/65 60406 10090 20030 30144 40219 53011 60006 80002 90900=
07510,1997-03-21 12:00:00,15,1021,-0.7,39,1,20000,22.224,,,40,,,,,,,,,,,wg-a,,,,AAXX 21124 07510 12/70 70412 10150 20010 30137 40210 58007 60006 80002 91200=
07510,1997-03-21 15:00:00,17,1019.5,-1.5,29,-1,20000,18.52,,,60,,,,,,,,,,,wg-a,,,,AAXX 21154 07510 12/70 70610 10170 21010 30122 40195 56015 60006 80002 91500=
07510,1997-03-21 18:00:00,16,1020,0.5,42,3,15000,18.52,,,20,2.4,18.2,,,,,,,,,wg-a,,,,AAXX 21184 07510 12/65 60210 10160 20030 30127 40200 53005 60006 80002 91800 333 10182 20024=
07510,1997-03-21 21:00:00,12,1021.4,1.3,58,4,10000,14.816,,,30,,,,,,,,,,,wg-a,,,,AAXX 21214 07510 12/60 20308 10120 20040 30140 40214 51013 60006 80002 92100=
07510,1997-03-22 00:00:00,10,1021.8,0.3,62,3,10000,11.112,,,20,,,,,,,,,,,wg-a,,,,AAXX 22004 07510 12/60 00206 10100 20030 30143 40218 50003 60006 80000 90000=
07510,1997-03-22 06:00:00,6,1022.4,0.7,81,3,10000,7.408,,,20,5.8,15.8,,,,,,,,,wg-a,,,,AAXX 22064 07510 02/60 10204 10060 20030 30148 40224 52007 60006 80002 90600 333 10158 20058 60004=
07510,1997-03-22 09:00:00,10,1023.1,0.8,71,5,10000,11.112,,,50,,,,,,,,,,,wg-a,,,,AAXX 22094 07510 12/60 10506 10100 20050 30156 40231 51008 60006 80002 90900=
07510,1997-03-22 12:00:00,16,1022,-0.9,42,3,10000,11.112,,,70,,,,,,,,,,,wg-a,,,,AAXX 22124 07510 12/60 20706 10160 20030 30147 40220 58009 60006 80002 91200=
07510,1997-03-22 15:00:00,18,1020.3,-1.6,34,2,10000,14.816,,,20,,,,,,,,,,,wg-a,,,,AAXX 22154 07510 12/60 20208 10180 20020 30131 40203 56016 60006 80002 91500=
07510,1997-03-22 18:00:00,16,1020.3,-0.1,34,0,10000,11.112,,,10,5.8,18.6,,,,,,,,,wg-a,,,,AAXX 22184 07510 12/60 20106 10160 20000 30130 40203 55001 60006 80002 91800 333 10186 20058=
07510,1997-03-22 21:00:00,11,1021.1,0.7,54,2,10000,11.112,,,10,,,,,,,,,,,wg-a,,,,AAXX 22214 07510 12/60 00106 10110 20020 30137 40211 53007 60006 80000 92100=
07510,1997-03-23 00:00:00,5,1020.2,-1.1,81,2,10000,3.704,,,330,,,,,,,,,,,wg-a,,,,AAXX 23004 07510 12/60 03302 10050 20020 30126 40202 58011 60006 80000 90000=
07510,1997-03-23 03:00:00,2,1019.3,-1,93,1,10000,3.704,,,260,,,,,,,,,,,wg-a,,,,AAXX 23034 07510 12/60 12602 10020 20010 30116 40193 58010 60006 80005 90300=
07510,1997-03-23 06:00:00,1,1019.5,0.2,93,0,10000,3.704,,,210,1.1,16.3,,,,,,,,11,wg-a,,,,AAXX 23064 07510 02760 62102 10010 20000 30118 40195 52002 60006 71111 815/6 90600 333 10163 20011 60004=
07510,1997-03-23 09:00:00,11,1019.9,0.7,58,3,10000,7.408,,,280,,,,,,,,,,,wg-a,,,,AAXX 23094 07510 12/60 52804 10110 20030 30125 40199 51007 60006 80002 90900=
07510,1997-03-23 12:00:00,19,1018.3,-1.4,28,0,10000,14.816,,,260,,,,,,,,,,,wg-a,,,,AAXX 23124 07510 12/60 62608 10190 20000 30111 40183 58014 60006 80002 91200=
07510,1997-03-23 15:00:00,19,1017,-1.3,32,2,15000,25.928,,,280,,,,,,,,,,,wg-a,,,,AAXX 23154 07510 12/65 52814 10190 20020 30098 40170 56013 60006 80002 91500=
07510,1997-03-23 18:00:00,14,1017.6,0.5,44,2,15000,14.816,,,300,0.9,19.6,,,,,,,,,wg-a,,,,AAXX 23184 07510 12/65 33008 10140 20020 30103 40176 53005 60006 80002 91800 333 10196 20009=
07510,1997-03-23 21:00:00,10,1017.8,0.1,82,7,15000,11.112,,,280,,,,,,,,,,,wg-a,,,,AAXX 23214 07510 12/65 62806 10100 20070 30104 40178 53001 60006 83032 92100=
07510,1997-03-24 00:00:00,10,1016.7,-1.1,93,9,15000,11.112,,,270,,,,,,,,,,,wg-a,,,,AAXX 24004 07510 12465 72706 10100 20090 30093 40167 56011 60006 875// 90000=
07510,1997-03-24 03:00:00,12,1015.9,-0.8,88,10,10000,14.816,,,300,,,,,,,,,,,wg-a,,,,AAXX 24034 07510 12460 73008 10120 20100 30085 40159 57008 60006 875// 90300=
07510,1997-03-24 06:00:00,12,1015.7,-0.2,88,10,8000,14.816,,,280,9.8,14.2,,,,,,,,50,wg-a,,,,AAXX 24064 07510 02358 72808 10120 20100 30083 40157 56002 61000 75052 877// 90600 333 10142 20098 6100=
07510,1997-03-24 09:00:00,13,1015.7,0.1,94,12,2000,18.52,,,290,,,,0,,,,,,50,wg-a,,,,AAXX 24094 07510 12420 72910 10130 20120 30084 40157 51001 60007 75055 877// 90900=
07510,1997-03-24 12:00:00,15,1015,-0.7,72,10,10000,25.928,,,310,,,,0,,,,,,3,wg-a,,,,AAXX 24124 07510 02460 73114 10150 20100 30077 40150 58007 60016 70352 878// 91200 333 60007=
07510,1997-03-24 15:00:00,13,1013.7,-1.3,82,10,10000,18.52,,,280,,,,2,,,,,,25,wg-a,,,,AAXX 24154 07510 12460 72810 10130 20100 30064 40137 56013 60027 72586 878// 91500=
07510,1997-03-24 18:00:00,10,1013.7,,93,9,10000,11.112,,,310,10.2,14.8,,,,,,,,61,wg-a,,,,AAXX 24184 07510 02260 83106 10100 20090 30063 40137 61000 76186 8557/ 91800 333 10148 20102 6007=
07510,1997-03-24 21:00:00,9,1014.8,1.1,93,8,10000,14.816,,,270,,,,0,,,,,,1,wg-a,,,,AAXX 24214 07510 12560 /2708 10090 20080 30074 40148 52011 60007 70161 81500 92100=
07510,1997-03-25 00:00:00,9,1015.5,0.7,93,8,10000,11.112,,,310,,,,,,,,,,3,wg-a,,,,AAXX 25004 07510 12560 43106 10090 20080 30081 40155 53007 60006 70361 84800 90000=
07510,1997-03-25 03:00:00,8,1016.4,0.8,87,6,10000,11.112,,,320,,,,,,,,,,,wg-a,,,,AAXX 25034 07510 12/60 /3206 10080 20060 30089 40164 52008 60006 90300=
07510,1997-03-25 06:00:00,6,1017.9,1.5,93,5,8000,3.704,,,270,5.1,10.3,,,,,9,,,40,wg-a,,,,AAXX 25064 07510 02458 /2702 10060 20050 30104 40179 53015 60006 74011 84500 90600 333 10103 20051 60094=
07510,1997-03-25 09:00:00,10,1019.3,1.5,87,8,10000,7.408,,,340,,,,0,,,,,,,wg-a,,,,AAXX 25094 07510 12460 33404 10100 20080 30119 40193 51015 60007 82832 90900=
07510,1997-03-25 12:00:00,14,1019.6,0.4,63,7,15000,11.112,,,310,,,,,,,,,,,wg-a,,,,AAXX 25124 07510 12565 53106 10140 20070 30123 40196 50004 60006 85800 91200=
07510,1997-03-25 15:00:00,14,1019.5,-0.1,67,8,15000,11.112,,,350,,,,,,,,,,,wg-a,,,,AAXX 25154 07510 12665 63506 10140 20080 30122 40195 57001 60006 85801 91500=
07510,1997-03-25 18:00:00,13,1020.9,1.3,77,9,15000,18.52,,,330,5,15.8,,,,,,,,,wg-a,,,,AAXX 25184 07510 12665 23310 10130 20090 30135 40209 53013 60006 82801 91800 333 10158 20050=
07510,1997-03-25 21:00:00,10,1022.7,1.7,87,8,15000,7.408,,,310,,,,,,,,,,,wg-a,,,,AAXX 25214 07510 12765 33104 10100 20080 30152 40227 51017 60006 81501 92100=
07510,1997-03-26 00:00:00,7,1022.9,0.2,93,6,800,3.704,,,270,,,,,,,,,,10,wg-a,,,,AAXX 26004 07510 12708 22702 10070 20060 30154 40229 50002 60006 71040 81501 90000=
07510,1997-03-26 03:00:00,5,1022.4,-0.6,93,4,800,7.408,,,280,,,,,,,,,,41,wg-a,,,,AAXX 26034 07510 12008 32804 10050 20040 30148 40224 58006 60006 74144 83600 90300=
07510,1997-03-26 06:00:00,4,1023.6,1.2,93,3,600,3.704,,,260,3.3,13.1,,,,,,,,42,wg-a,,,,AAXX 26064 07510 02006 42602 10040 20030 30160 40236 53012 60006 74244 84600 90600 333 10131 20033 60004=
07510,1997-03-26 12:00:00,18,1024.3,0.3,49,7,15000,7.408,,,320,,,,,,,,,,1,wg-a,,,,AAXX 26124 07510 12665 43204 10180 20070 30170 40243 50003 60006 70140 82202 91200=
07510,1997-03-26 18:00:00,15,1024.3,0.7,63,8,15000,11.112,,,310,3.2,18.9,,,,,,,,,wg-a,,,,AAXX 26184 07510 12665 73106 10150 20080 30170 40243 53007 60006 81402 91800 333 10189 20032=
07510,1997-03-26 21:00:00,11,1026.1,1.6,76,7,15000,3.704,,,10,,,,,,,,,,,wg-a,,,,AAXX 26214 07510 12/65 30102 10110 20070 30186 40261 51016 60006 80002 92100=
07510,1997-03-27 00:00:00,7,1026.2,0,93,6,15000,0,,,0,,,,,,,,,,,wg-a,,,,AAXX 27004 07510 12/65 50000 10070 20060 30186 40262 50000 60006 80002 90000=
07510,1997-03-27 03:00:00,6,1026.1,-0.1,100,6,15000,3.704,,,280,,,,,,,,,,,wg-a,,,,AAXX 27034 07510 12/65 42802 10060 20060 30185 40261 58001 60006 83032 90300=
07510,1997-03-27 06:00:00,5,1026.7,0.6,93,4,11000,0,,,0,5.2,15,,,,,,,,,wg-a,,,,AAXX 27064 07510 02/61 /0000 10050 20040 30191 40267 53006 60006 90600 333 10150 20052 60004=
07510,1997-03-27 09:00:00,14,1026.9,0.4,55,5,15000,3.704,,,170,,,,,,,,,,,wg-a,,,,AAXX 27094 07510 12765 51702 10140 20050 30195 40269 50004 60006 85532 90900=
07510,1997-03-27 12:00:00,19,1025.8,-1,37,4,20000,3.704,,,170,,,,,,,,,,,wg-a,,,,AAXX 27124 07510 12770 41702 10190 20040 30185 40258 58010 60006 82532 91200=
07510,1997-03-27 15:00:00,21,1024,-1.7,38,6,20000,11.112,,,60,,,,,,,,,,,wg-a,,,,AAXX 27154 07510 12/70 00606 10210 20060 30168 40240 58017 60006 80000 91500=
07510,1997-03-27 18:00:00,19,1023.5,-0.5,52,9,20000,11.112,,,20,5.2,21.9,,,,,,,,,wg-a,,,,AAXX 27184 07510 12/70 00206 10190 20090 30163 40235 55005 60006 80000 91800 333 10219 20052=
07510,1997-03-27 21:00:00,14,1024.2,0.5,77,10,20000,11.112,,,10,,,,,,,,,,,wg-a,,,,AAXX 27214 07510 12/70 00106 10140 20100 30168 40242 51005 60006 80000 92100=
07510,1997-03-28 00:00:00,11,1023.4,-0.8,94,10,10000,3.704,,,10,,,,,,,,,,,wg-a,,,,AAXX 28004 07510 12/60 00102 10110 20100 30160 40234 58008 60006 80000 90000=
07510,1997-03-28 03:00:00,10,1023.1,-0.4,100,10,800,3.704,,,340,,,,,,,,,,12,wg-a,,,,AAXX 28034 07510 12/08 93402 10100 20100 30156 40231 58004 60006 71241 89/// 90300=
07510,1997-03-28 06:00:00,10,1023.3,0.2,100,10,600,7.408,,,280,9.8,18.6,,,,,,,,43,wg-a,,,,AAXX 28064 07510 02/06 92804 10100 20100 30158 40233 53002 60006 74341 89/// 90600 333 10186 20098 60004=
07510,1997-03-28 09:00:00,12,1024.1,0.9,100,12,15000,14.816,,,350,,,,,,,,,,2,wg-a,,,,AAXX 28094 07510 12365 73508 10120 20120 30167 40241 51009 60006 70242 876// 90900=
07510,1997-03-28 12:00:00,16,1023.8,-0.2,68,10,15000,14.816,,,10,,,,,,,,,,1,wg-a,,,,AAXX 28124 07510 12565 70108 10160 20100 30165 40238 58002 60006 70142 878// 91200=
07510,1997-03-28 15:00:00,17,1022.8,-1,39,3,20000,25.928,,,360,,,,,,,,,,,wg-a,,,,AAXX 28154 07510 12670 23614 10170 20030 30155 40228 58010 60006 82800 91500=
07510,1997-03-28 18:00:00,14,1023.6,0.7,36,-1,20000,22.224,,,10,9.4,17.2,,,,,,,,,wg-a,,,,AAXX 28184 07510 12/70 00112 10140 21010 30162 40236 53007 60006 80000 91800 333 10172 20094=
07510,1997-03-28 21:00:00,10,1025.7,2,53,1,10000,18.52,,,10,,,,,,,,,,,wg-a,,,,AAXX 28214 07510 12/60 00110 10100 20010 30182 40257 53020 60006 80000 92100=
07510,1997-03-29 00:00:00,8,1026.5,0.7,57,0,15000,14.816,,,20,,,,,,,,,,,wg-a,,,,AAXX 29004 07510 12/65 00208 10080 20000 30189 40265 51007 60006 80000 90000=
07510,1997-03-29 03:00:00,5,1026.8,0.3,70,0,15000,11.112,,,40,,,,,,,,,,,wg-a,,,,AAXX 29034 07510 12/65 00406 10050 20000 30192 40268 53003 60006 80000 90300=
07510,1997-03-29 06:00:00,4,1027.3,0.4,75,0,15000,3.704,,,340,3.7,14.4,,,,,,,,,wg-a,,,,AAXX 29064 07510 02/65 13402 10040 20000 30196 40273 53004 60006 80002 90600 333 10144 20037 60004=
07510,1997-03-29 09:00:00,9,1027.7,0.6,61,2,15000,11.112,,,60,,,,,,,,,,,wg-a,,,,AAXX 29094 07510 12/65 00606 10090 20020 30202 40277 53006 60006 80000 90900=
07510,1997-03-29 12:00:00,13,1026.6,-1,35,-2,15000,22.224,,,40,,,,,,,,,,,wg-a,,,,AAXX 29124 07510 12/65 /0412 10130 21020 30192 40266 58010 60006 80000 91200=
07510,1997-03-29 15:00:00,14,1024.4,-2.2,33,-2,15000,22.224,,,40,,,,,,,,,,,wg-a,,,,AAXX 29154 07510 12/65 10412 10140 21020 30170 40244 56022 60006 80001 91500=
07510,1997-03-29 18:00:00,13,1024,-0.4,38,-1,15000,18.52,,,50,3.4,14.8,,,,,,,,,wg-a,,,,AAXX 29184 07510 12/65 10510 10130 21010 30166 40240 55004 60006 80001 91800 333 10148 20034=
07510,1997-03-29 21:00:00,10,1024.9,0.8,50,0,15000,14.816,,,50,,,,,,,,,,,wg-a,,,,AAXX 29214 07510 12/65 00508 10100 20000 30174 40249 52008 60006 80000 92100=
07510,1997-03-30 00:00:00,8,1024.6,-0.3,61,1,15000,14.816,,,40,,,,,,,,,,,wg-a,,,,AAXX 30004 07510 12/65 00408 10080 20010 30171 40246 56003 60006 80000 90000=
07510,1997-03-30 03:00:00,6,1024.7,0,70,1,15000,11.112,,,50,,,,,,,,,,,wg-a,,,,AAXX 30034 07510 12/65 00506 10060 20010 30171 40247 50000 60006 80000 90300=
07510,1997-03-30 06:00:00,4,1025,0.3,81,1,15000,11.112,,,50,4.2,13.4,,,,,,,,,wg-a,,,,AAXX 30064 07510 02/65 00506 10040 20010 30174 40250 53003 60006 80000 90600 333 10134 20042 60004=
07510,1997-03-30 09:00:00,10,1025.3,0.4,53,1,20000,18.52,,,60,,,,,,,,,,,wg-a,,,,AAXX 30094 07510 12/70 00610 10100 20010 30178 40253 51004 60006 80000 90900=
07510,1997-03-30 12:00:00,15,1023.5,-1.7,33,-1,20000,22.224,,,60,,,,,,,,,,,wg-a,,,,AAXX 30124 07510 12/70 00612 10150 21010 30161 40235 58017 60006 80000 91200=
07510,1997-03-30 15:00:00,17,1021.5,-1.9,34,1,20000,22.224,,,60,,,,,,,,,,,wg-a,,,,AAXX 30154 07510 12/70 00612 10170 20010 30142 40215 56019 60006 80000 91500=
07510,1997-03-30 18:00:00,16,1021.3,-0.2,34,0,20000,22.224,,,50,4.3,17.3,,,,,,,,,wg-a,,,,AAXX 30184 07510 12/70 00512 10160 20000 30140 40213 55002 60006 80000 91800 333 10173 20043=
07510,1997-03-30 21:00:00,12,1022.4,1,47,1,15000,14.816,,,50,,,,,,,,,,,wg-a,,,,AAXX 30214 07510 12/65 00508 10120 20010 30150 40224 51010 60006 80000 92100=
07510,1997-03-31 00:00:00,9,1022.3,-0.2,57,1,15000,11.112,,,50,,,,,,,,,,,wg-a,,,,AAXX 31004 07510 12/65 00506 10090 20010 30148 40223 58002 60006 80000 90000=
07510,1997-03-31 06:00:00,5,1021.7,0.1,75,1,15000,7.408,,,30,4.8,16.1,,,,,,,,,wg-a,,,,AAXX 31064 07510 02/65 00304 10050 20010 30141 40217 53001 60006 80000 90600 333 10161 20048 60004=
07510,1997-03-31 09:00:00,12,1021.9,0.4,50,2,15000,11.112,,,70,,,,,,,,,,,wg-a,,,,AAXX 31094 07510 12/65 00706 10120 20020 30145 40219 50004 60006 80000 90900=
07510,1997-03-31 12:00:00,17,1020.9,-0.9,34,1,15000,7.408,,,100,,,,,,,,,,,wg-a,,,,AAXX 31124 07510 12/65 01004 10170 20010 30136 40209 58009 60006 80000 91200=
07510,1997-03-31 15:00:00,18,1019.7,-1.1,32,1,15000,11.112,,,50,,,,,,,,,,,wg-a,,,,AAXX 31154 07510 12/65 00506 10180 20010 30125 40197 57011 60006 80000 91500=
07510,1997-03-31 18:00:00,18,1019.4,-0.3,37,3,15000,11.112,,,30,4.9,19.2,,,,,,,,,wg-a,,,,AAXX 31184 07510 12/65 10306 10180 20030 30122 40194 55003 60006 80002 91800 333 10192 20049=
07510,1997-03-31 21:00:00,9,1020.1,0.4,71,4,15000,7.408,,,30,,,,,,,,,,,wg-a,,,,AAXX 31214 07510 12/65 00304 10090 20040 30126 40201 51004 60006 80000 92100=
07510,1997-04-01 00:00:00,6,1019.7,-0.4,81,3,15000,0,,,0,,,,,,,,,,,wg-a,,,,AAXX 01004 07510 12/65 00000 10060 20030 30122 40197 58004 60006 80000 90000=
07510,1997-04-01 03:00:00,4,1019.1,-0.7,87,2,15000,0,,,0,,,,,,,,,,,wg-a,,,,AAXX 01034 07510 12/65 00000 10040 20020 30115 40191 56007 60006 80000 90300=
07510,1997-04-01 06:00:00,3,1019.9,0.8,93,2,10000,0,,,0,2.7,17.7,,,,,,,,11,wg-a,,,,AAXX 01064 07510 02/60 00000 10030 20020 30123 40199 53008 60006 71100 80000 90600 333 10177 20027 60004=
07510,1997-04-01 09:00:00,16,1019.8,0.2,48,5,15000,3.704,,,150,,,,,,,,,,,wg-a,,,,AAXX 01094 07510 12465 11502 10160 20050 30125 40198 50002 60006 81200 90900=
07510,1997-04-01 12:00:00,21,1019.2,-0.5,33,4,15000,3.704,,,140,,,,,,,,,,,wg-a,,,,AAXX 01124 07510 12/65 01402 10210 20040 30120 40192 58005 60006 80000 91200=
07510,1997-04-01 15:00:00,22,1017.4,-1.7,31,4,15000,14.816,,,30,,,,,,,,,,,wg-a,,,,AAXX 01154 07510 12/65 00308 10220 20040 30103 40174 56017 60006 80000 91500=
07510,1997-04-01 18:00:00,18,1017.9,0.4,39,4,15000,14.816,,,300,2.9,22.6,,,,,,,,,wg-a,,,,AAXX 01184 07510 12/65 03008 10180 20040 30107 40179 53004 60006 80000 91800 333 10226 20029=
07510,1997-04-01 21:00:00,12,1019.2,1.1,62,5,15000,7.408,,,280,,,,,,,,,,,wg-a,,,,AAXX 01214 07510 12/65 02804 10120 20050 30118 40192 52011 60006 80000 92100=
07510,1997-04-02 00:00:00,9,1018.6,-0.7,87,7,10000,3.704,,,300,,,,,,,,,,,wg-a,,,,AAXX 02004 07510 12/60 /3002 10090 20070 30111 40186 58007 60006 90000=
07510,1997-04-02 03:00:00,6,1017.9,-0.7,100,6,8000,7.408,,,270,,,,,,,,,,11,wg-a,,,,AAXX 02034 07510 12/58 02704 10060 20060 30104 40179 58007 60006 71100 80000 90300=
07510,1997-04-02 06:00:00,5,1018.5,0.5,100,5,1200,7.408,,,230,4.9,18.2,,,,,,,,40,wg-a,,,,AAXX 02064 07510 02/12 02304 10050 20050 30109 40185 53005 60006 74040 80000 90600 333 10182 20049 60004=
07510,1997-04-02 12:00:00,21,1017.7,-0.8,38,6,12000,3.704,,,60,,,,,,,,,,2,wg-a,,,,AAXX 02124 07510 12/62 00602 10210 20060 30105 40177 58008 60006 70240 80000 91200=
07510,1997-04-02 18:00:00,22,1016.3,0.1,31,4,15000,7.408,,,10,4.9,23.6,,,,,,,,,wg-a,,,,AAXX 02184 07510 12/65 00104 10220 20040 30092 40163 53001 60006 80000 91800 333 10236 20049=
07510,1997-04-02 21:00:00,15,1018.2,1.7,59,7,12000,3.704,,,290,,,,,,,,,,,wg-a,,,,AAXX 02214 07510 12/62 02902 10150 20070 30109 40182 51017 60006 80000 92100=
07510,1997-04-03 00:00:00,10,1018.3,0,76,6,12000,3.704,,,320,,,,,,,,,,,wg-a,,,,AAXX 03004 07510 12/62 03202 10100 20060 30109 40183 50000 60006 80000 90000=
07510,1997-04-03 03:00:00,8,1018.3,-0.1,81,5,10000,3.704,,,320,,,,,,,,,,,wg-a,,,,AAXX 03034 07510 12/60 03202 10080 20050 30108 40183 55001 60006 80000 90300=
07510,1997-04-03 06:00:00,6,1019,0.7,87,4,10000,11.112,,,210,5.5,22,,,,,,,,,wg-a,,,,AAXX 03064 07510 02/60 12106 10060 20040 30115 40190 53007 60006 80002 90600 333 10220 20055 60004=
07510,1997-04-03 09:00:00,16,1020.3,1.5,55,7,10000,3.704,,,290,,,,,,,,,,,wg-a,,,,AAXX 03094 07510 12/60 02902 10160 20070 30130 40203 53015 60006 80000 90900=
07510,1997-04-03 12:00:00,22,1019.8,-0.3,33,5,10000,18.52,,,340,,,,,,,,,,,wg-a,,,,AAXX 03124 07510 12760 53410 10220 20050 30127 40198 58003 60006 85100 91200=
07510,1997-04-03 15:00:00,21,1019.3,-0.6,33,4,12000,22.224,,,320,,,,,,,,,,,wg-a,,,,AAXX 03154 07510 12762 13212 10210 20040 30121 40193 56006 60006 81100 91500=
07510,1997-04-03 18:00:00,17,1020.7,1.3,42,4,12000,18.52,,,320,5.7,22.9,,,,,,,,,wg-a,,,,AAXX 03184 07510 12/62 23210 10170 20040 30134 40207 53013 60006 80002 91800 333 10229 20057=
07510,1997-04-04 00:00:00,9,1024,1.2,93,8,8000,7.408,,,300,,,,,,,,,,,wg-a,,,,AAXX 04004 07510 12/58 03004 10090 20080 30165 40240 52012 60006 80000 90000=
07510,1997-04-04 03:00:00,8,1024.9,0.9,100,8,8000,3.704,,,290,,,,,,,,,,,wg-a,,,,AAXX 04034 07510 12/58 /2902 10080 20080 30174 40249 53009 60006 90300=
07510,1997-04-04 06:00:00,8,1026.1,1.2,87,6,12000,3.704,,,270,7.6,16.6,,,,,,,,,wg-a,,,,AAXX 04064 07510 02662 /2702 10080 20060 30186 40261 51012 60006 82502 90600 333 10166 20076 60004=
07510,1997-04-04 09:00:00,12,1028.3,2.2,62,5,20000,18.52,,,30,,,,,,,,,,,wg-a,,,,AAXX 04094 07510 12570 60310 10120 20050 30208 40283 51022 60006 81102 90900=
07510,1997-04-04 12:00:00,15,1027.4,-0.8,39,1,20000,18.52,,,10,,,,,,,,,,,wg-a,,,,AAXX 04124 07510 12670 30110 10150 20010 30200 40274 58008 60006 81101 91200=
07510,1997-04-04 18:00:00,15,1027.2,0.7,41,2,20000,18.52,,,20,7.5,16.9,,,,,,,,,wg-a,,,,AAXX 04184 07510 12770 20210 10150 20020 30198 40272 53007 60006 81401 91800 333 10169 20075=
07510,1997-04-04 21:00:00,10,1028.5,1.2,62,3,12000,7.408,,,330,,,,,,,,,,,wg-a,,,,AAXX 04214 07510 12/62 33304 10100 20030 30210 40285 51012 60006 83030 92100=
07510,1997-04-05 00:00:00,8,1029.3,0.7,66,2,10000,3.704,,,10,,,,,,,,,,,wg-a,,,,AAXX 05004 07510 12/60 00102 10080 20020 30217 40293 51007 60006 80000 90000=
07510,1997-04-05 03:00:00,4,1028.5,-0.9,87,2,10000,3.704,,,270,,,,,,,,,,,wg-a,,,,AAXX 05034 07510 12/60 02702 10040 20020 30208 40285 56009 60006 80000 90300=
07510,1997-04-05 06:00:00,2,1029,0.5,93,1,15000,3.704,,,270,2.1,14.9,,,,,,,,,wg-a,,,,AAXX 05064 07510 02/65 62702 10020 20010 30213 40290 53005 60006 80002 90600 333 10149 20021 60004=
07510,1997-04-05 09:00:00,13,1028.8,0.1,38,-1,15000,7.408,,,50,,,,,,,,,,,wg-a,,,,AAXX 05094 07510 12/65 40504 10130 21010 30214 40288 50001 60006 80002 90900=
07510,1997-04-05 12:00:00,16,1027,-1.7,36,1,15000,14.816,,,40,,,,,,,,,,,wg-a,,,,AAXX 05124 07510 12/65 40408 10160 20010 30197 40270 58017 60006 80002 91200=
07510,1997-04-05 15:00:00,19,1024.7,-2.3,32,2,15000,3.704,,,310,,,,,,,,,,,wg-a,,,,AAXX 05154 07510 12/65 43102 10190 20020 30174 40247 56023 60006 80002 91500=
07510,1997-04-05 18:00:00,17,1023.8,-0.9,39,3,15000,14.816,,,20,2.2,19.3,,,,,,,,,wg-a,,,,AAXX 05184 07510 12/65 50208 10170 20030 30165 40238 56009 60006 80002 91800 333 10193 20022=
07510,1997-04-05 21:00:00,11,1024.5,0.6,62,4,15000,14.816,,,20,,,,,,,,,,,wg-a,,,,AAXX 05214 07510 12/65 50208 10110 20040 30171 40245 50006 60006 80002 92100=
07510,1997-04-06 00:00:00,8,1025,0.4,81,5,15000,3.704,,,310,,,,,,,,,,,wg-a,,,,AAXX 06004 07510 12/65 33102 10080 20050 30175 40250 50004 60006 80002 90000=
07510,1997-04-06 03:00:00,5,1023.6,-1.5,93,4,15000,3.704,,,10,,,,,,,,,,,wg-a,,,,AAXX 06034 07510 12/65 20102 10050 20040 30160 40236 56015 60006 80002 90300=
07510,1997-04-06 06:00:00,7,1023.5,-0.1,93,6,8000,11.112,,,40,5,17,,,,,,,,11,wg-a,,,,AAXX 06064 07510 02/58 /0406 10070 20060 30159 40235 55001 60006 71100 80002 90600 333 10170 20050 60004=
07510,1997-04-06 09:00:00,13,1023.6,0.3,77,9,9000,14.816,,,60,,,,0,,,,,,,wg-a,,,,AAXX 06094 07510 12/59 /0608 10130 20090 30162 40236 50003 60007 80002 90900=
07510,1997-04-06 12:00:00,17,1022.3,-1.2,55,8,10000,14.816,,,60,,,,,,,,,,,wg-a,,,,AAXX 06124 07510 12/60 10608 10170 20080 30150 40223 58012 60006 80002 91200=
07510,1997-04-06 15:00:00,21,1019.3,-2.9,40,7,10000,22.224,,,60,,,,,,,,,,,wg-a,,,,AAXX 06154 07510 12/60 /0612 10210 20070 30121 40193 56029 60006 91500=
07510,1997-04-06 18:00:00,20,1018.2,-1.1,49,9,10000,25.928,,,50,6.7,21.6,,,,,,,,,wg-a,,,,AAXX 06184 07510 12/60 /0514 10200 20090 30110 40182 56011 60006 91800 333 10216 20067=
07510,1997-04-06 21:00:00,15,1020.1,1.8,55,6,12000,25.928,,,70,,,,,,,,,,,wg-a,,,,AAXX 06214 07510 12/62 10714 10150 20060 30128 40201 53018 60006 80002 92100=
07510,1997-04-07 00:00:00,12,1020.3,0.1,67,6,12000,11.112,,,60,,,,,,,,,,,wg-a,,,,AAXX 07004 07510 12/62 10606 10120 20060 30129 40203 50001 60006 80002 90000=
07510,1997-04-07 03:00:00,10,1019.2,-1.1,71,5,12000,18.52,,,60,,,,,,,,,,,wg-a,,,,AAXX 07034 07510 12/62 00610 10100 20050 30118 40192 56011 60006 80000 90300=
07510,1997-04-07 06:00:00,9,1019.6,0.3,57,1,12000,11.112,,,60,8.5,19.6,,,,,,,,,wg-a,,,,AAXX 07064 07510 02/62 30606 10090 20010 30121 40196 53003 60006 80001 90600 333 10196 20085 60004=
07510,1997-04-07 12:00:00,20,1017.5,-1.2,28,1,25000,18.52,,,70,,,,,,,,,,,wg-a,,,,AAXX 07124 07510 12/75 60710 10200 20010 30103 40175 58012 60006 80002 91200=
07510,1997-04-07 18:00:00,22,1016,-0,25,1,25000,11.112,,,100,8.5,24,,,,,,,,,wg-a,,,,AAXX 07184 07510 12/75 61006 10220 20010 30089 40160 55000 60006 80002 91800 333 10240 20085=
07510,1997-04-07 21:00:00,17,1017.4,1.3,39,3,25000,11.112,,,70,,,,,,,,,,,wg-a,,,,AAXX 07214 07510 12/75 60706 10170 20030 30102 40174 53013 60006 80002 92100=
07510,1997-04-08 00:00:00,15,1018.1,0.6,44,3,15000,11.112,,,100,,,,,,,,,,,wg-a,,,,AAXX 08004 07510 12/65 51006 10150 20030 30108 40181 50006 60006 80002 90000=
07510,1997-04-08 03:00:00,13,1018.4,0.2,47,2,15000,11.112,,,80,,,,,,,,,,,wg-a,,,,AAXX 08034 07510 12/65 60806 10130 20020 30110 40184 51002 60006 80002 90300=
07510,1997-04-08 06:00:00,12,1019.5,1.1,47,1,15000,14.816,,,100,11.8,22.3,,,,,,,,,wg-a,,,,AAXX 08064 07510 02/65 71008 10120 20010 30121 40195 53011 60006 82032 90600 333 10223 20118 60004=
07510,1997-04-08 09:00:00,16,1020.3,0.9,51,6,15000,11.112,,,120,,,,,,,,,,,wg-a,,,,AAXX 08094 07510 12/65 51206 10160 20060 30130 40203 52009 60006 80002 90900=
07510,1997-04-08 12:00:00,21,1020.3,0.1,40,7,15000,7.408,,,100,,,,,,,,,,,wg-a,,,,AAXX 08124 07510 12/65 51004 10210 20070 30131 40203 50001 60006 80002 91200=
07510,1997-04-08 15:00:00,22,1019.6,-0.6,35,6,15000,11.112,,,20,,,,,,,,,,,wg-a,,,,AAXX 08154 07510 12/65 60206 10220 20060 30125 40196 58006 60006 80002 91500=
07510,1997-04-08 18:00:00,21,1020.2,0.5,40,7,15000,3.704,,,110,11.7,23.3,,,,,,,,,wg-a,,,,AAXX 08184 07510 12/65 61102 10210 20070 30130 40202 53005 60006 80002 91800 333 10233 20117=
07510,1997-04-08 21:00:00,17,1022.5,2.2,45,5,15000,25.928,,,140,,,,,,,,,,,wg-a,,,,AAXX 08214 07510 12/65 61414 10170 20050 30152 40225 52022 60006 80002 92100=
07510,1997-04-09 00:00:00,13,1024.1,1.5,58,5,15000,14.816,,,120,,,,,,,,,,,wg-a,,,,AAXX 09004 07510 12/65 61208 10130 20050 30167 40241 52015 60006 80002 90000=
07510,1997-04-09 03:00:00,10,1024.8,0.6,71,5,12000,11.112,,,100,,,,,,,,,,,wg-a,,,,AAXX 09034 07510 12/62 01006 10100 20050 30173 40248 51006 60006 80000 90300=
07510,1997-04-09 06:00:00,9,1025.8,1,81,6,12000,11.112,,,110,7.8,21,,,,,,,,,wg-a,,,,AAXX 09064 07510 02/62 31106 10090 20060 30183 40258 53010 60006 80001 90600 333 10210 20078 60004=
07510,1997-04-09 09:00:00,15,1026.3,0.7,59,7,12000,25.928,,,130,,,,,,,,,,,wg-a,,,,AAXX 09094 07510 12/62 31314 10150 20070 30190 40263 50007 60006 80001 90900=
07510,1997-04-09 12:00:00,20,1025.9,-0.3,40,6,15000,22.224,,,110,,,,,,,,,,,wg-a,,,,AAXX 09124 07510 12/65 51112 10200 20060 30187 40259 58003 60006 80001 91200=
07510,1997-04-09 15:00:00,22,1025.2,-0.7,38,7,15000,22.224,,,120,,,,,,,,,,,wg-a,,,,AAXX 09154 07510 12/65 31212 10220 20070 30180 40252 58007 60006 80001 91500=
07510,1997-04-09 18:00:00,20,1025.9,0.7,40,6,10000,18.52,,,110,8.6,22.4,,,,,,,,,wg-a,,,,AAXX 09184 07510 12/60 /1110 10200 20060 30187 40259 53007 60006 91800 333 10224 20086=
07510,1997-04-09 21:00:00,15,1027.8,1.7,59,7,15000,7.408,,,120,,,,,,,,,,,wg-a,,,,AAXX 09214 07510 12/65 21204 10150 20070 30204 40278 53017 60006 80001 92100=
07510,1997-04-10 00:00:00,12,1029.2,1.3,62,5,15000,11.112,,,140,,,,,,,,,,,wg-a,,,,AAXX 10004 07510 12/65 11406 10120 20050 30217 40292 51013 60006 80001 90000=
07510,1997-04-10 03:00:00,9,1029.2,0,71,4,15000,7.408,,,130,,,,,,,,,,,wg-a,,,,AAXX 10034 07510 12/65 11304 10090 20040 30217 40292 50000 60006 80001 90300=
07510,1997-04-10 06:00:00,7,1030.1,0.8,87,5,15000,7.408,,,110,6.8,20.4,,,,,,,,,wg-a,,,,AAXX 10064 07510 02/65 31104 10070 20050 30225 40301 53008 60006 80001 90600 333 10204 20068 60004=
07510,1997-04-10 09:00:00,14,1030.1,0.2,55,5,15000,14.816,,,120,,,,,,,,,,,wg-a,,,,AAXX 10094 07510 12/65 11208 10140 20050 30227 40301 53002 60006 80001 90900=
07510,1997-04-10 12:00:00,20,1028.7,-1.3,35,4,15000,11.112,,,100,,,,,,,,,,,wg-a,,,,AAXX 10124 07510 12/65 11006 10200 20040 30214 40287 58013 60006 80001 91200=
07510,1997-04-10 15:00:00,23,1027,-1.6,29,4,15000,14.816,,,90,,,,,,,,,,,wg-a,,,,AAXX 10154 07510 12/65 10908 10230 20040 30198 40270 56016 60006 80001 91500=
07510,1997-04-10 18:00:00,22,1026.7,-0.3,31,4,15000,7.408,,,20,7.4,23.3,,,,,,,,,wg-a,,,,AAXX 10184 07510 12/65 00204 10220 20040 30195 40267 56003 60006 80000 91800 333 10233 20074=
07510,1997-04-10 21:00:00,15,1027.9,1,55,6,15000,3.704,,,280,,,,,,,,,,,wg-a,,,,AAXX 10214 07510 12/65 02802 10150 20060 30205 40279 51010 60006 80000 92100=
07510,1997-04-11 00:00:00,10,1027.8,-0.2,82,7,15000,7.408,,,280,,,,,,,,,,,wg-a,,,,AAXX 11004 07510 12/65 02804 10100 20070 30203 40278 57002 60006 80000 90000=
07510,1997-04-11 03:00:00,7,1026.8,-1.1,87,5,15000,0,,,0,,,,,,,,,,,wg-a,,,,AAXX 11034 07510 12/65 00000 10070 20050 30192 40268 56011 60006 80000 90300=
07510,1997-04-11 06:00:00,7,1026.5,-0.3,93,6,15000,3.704,,,10,6.4,22.3,,,,,,,,11,wg-a,,,,AAXX 11064 07510 02/65 /0102 10070 20060 30189 40265 55003 60006 71100 80002 90600 333 10223 20064 60004=
07510,1997-04-11 09:00:00,19,1026.2,-0,43,6,15000,3.704,,,40,,,,,,,,,,,wg-a,,,,AAXX 11094 07510 12/65 00402 10190 20060 30189 40262 54000 60006 80000 90900=
07510,1997-04-11 12:00:00,24,1024.4,-1.6,22,1,15000,14.816,,,350,,,,,,,,,,,wg-a,,,,AAXX 11124 07510 12/65 03508 10240 20010 30173 40244 58016 60006 80000 91200=
07510,1997-04-11 18:00:00,23,1021.6,-0.7,22,0,15000,14.816,,,360,6.9,25.1,,,,,,,,,wg-a,,,,AAXX 11184 07510 12/65 03608 10230 20000 30145 40216 55007 60006 80000 91800 333 10251 20069=
07510,1997-04-11 21:00:00,16,1022.7,0.9,48,5,15000,7.408,,,340,,,,,,,,,,,wg-a,,,,AAXX 11214 07510 12/65 03404 10160 20050 30154 40227 51009 60006 80000 92100=
07510,1997-04-12 00:00:00,13,1022.4,-0.4,62,6,15000,0,,,0,,,,,,,,,,,wg-a,,,,AAXX 12004 07510 12/65 00000 10130 20060 30150 40224 58004 60006 80000 90000=
07510,1997-04-12 03:00:00,12,1022,-0.4,71,7,15000,11.112,,,40,,,,,,,,,,,wg-a,,,,AAXX 12034 07510 12/65 00406 10120 20070 30146 40220 56004 60006 80000 90300=
07510,1997-04-12 06:00:00,10,1022.6,0.5,76,6,10000,18.52,,,40,9.3,23.1,,,,,,,,,wg-a,,,,AAXX 12064 07510 02/60 30410 10100 20060 30151 40226 53005 60006 80001 90600 333 10231 20093 60004=
07510,1997-04-12 09:00:00,12,1023,0.5,58,4,15000,22.224,,,30,,,,,,,,,,,wg-a,,,,AAXX 12094 07510 12/65 30312 10120 20040 30156 40230 52005 60006 80001 90900=
07510,1997-04-12 12:00:00,15,1022,-0.9,39,1,15000,22.224,,,40,,,,,,,,,,,wg-a,,,,AAXX 12124 07510 12/65 40412 10150 20010 30147 40220 58009 60006 80001 91200=
07510,1997-04-12 15:00:00,17,1020.8,-1.2,25,-3,15000,22.224,,,30,,,,,,,,,,,wg-a,,,,AAXX 12154 07510 12/65 60312 10170 21030 30135 40208 58012 60006 80001 91500=
07510,1997-04-12 18:00:00,16,1021,0.2,23,-5,20000,18.52,,,30,9.6,17.8,,,,,,,,,wg-a,,,,AAXX 12184 07510 12/70 20310 10160 21050 30137 40210 53002 60006 80002 91800 333 10178 20096=
07510,1997-04-12 23:00:00,9,1022.9,0.1,46,-2,15000,14.816,,,40,,,,,,,,,,,wg-a,,,,AAXX 12234 07510 12/65 00408 10090 21020 30154 40229 52001 60006 80000 92300=
07510,1997-04-13 00:00:00,9,1022.9,0.1,46,-2,15000,14.816,,,40,,,,,,,,,,,wg-a,,,,AAXX 13004 07510 12/65 00408 10090 21020 30154 40229 52001 60006 80000 90000=
07510,1997-04-13 03:00:00,7,1022.2,-0.8,57,-1,15000,11.112,,,50,,,,,,,,,,,wg-a,,,,AAXX 13034 07510 12/65 00506 10070 21010 30146 40222 56008 60006 80000 90300=
07510,1997-04-13 06:00:00,5,1022.5,0.3,65,-1,15000,14.816,,,40,5.3,16,,,,,,,,,wg-a,,,,AAXX 13064 07510 02/65 00408 10050 21010 30149 40225 53003 60006 80000 90600 333 10160 20053 60004=
07510,1997-04-13 09:00:00,10,1022.6,0.2,46,-1,15000,18.52,,,50,,,,,,,,,,,wg-a,,,,AAXX 13094 07510 12/65 00510 10100 21010 30151 40226 50002 60006 80000 90900=
07510,1997-04-13 12:00:00,15,1020.8,-1.6,33,-1,15000,18.52,,,40,,,,,,,,,,,wg-a,,,,AAXX 13124 07510 12/65 00410 10150 21010 30135 40208 58016 60006 80000 91200=
07510,1997-04-13 18:00:00,18,1018.8,-0.4,30,0,15000,18.52,,,30,5.4,18.6,,,,,,,,,wg-a,,,,AAXX 13184 07510 12/65 00310 10180 20000 30116 40188 55004 60006 80000 91800 333 10186 20054=
07510,1997-04-13 21:00:00,13,1019.9,0.9,44,1,15000,14.816,,,20,,,,,,,,,,,wg-a,,,,AAXX 13214 07510 12/65 00208 10130 20010 30125 40199 53009 60006 80000 92100=
07510,1997-04-14 00:00:00,10,1019.9,-0.1,50,0,15000,7.408,,,10,,,,,,,,,,,wg-a,,,,AAXX 14004 07510 12/65 00104 10100 20000 30124 40199 58001 60006 80000 90000=
07510,1997-04-14 03:00:00,7,1019.4,-0.5,61,0,15000,7.408,,,30,,,,,,,,,,,wg-a,,,,AAXX 14034 07510 12/65 00304 10070 20000 30119 40194 55005 60006 80000 90300=
07510,1997-04-14 06:00:00,6,1020,0.5,70,1,15000,3.704,,,20,5.5,17.6,,,,,,,,,wg-a,,,,AAXX 14064 07510 02/65 00202 10060 20010 30124 40200 53005 60006 80000 90600 333 10176 20055 60004=
07510,1997-04-14 09:00:00,13,1020.3,0.5,47,2,15000,7.408,,,40,,,,,,,,,,,wg-a,,,,AAXX 14094 07510 12/65 00404 10130 20020 30129 40203 51005 60006 80000 90900=
07510,1997-04-14 12:00:00,19,1019.6,-0.5,30,1,15000,7.408,,,100,,,,,,,,,,,wg-a,,,,AAXX 14124 07510 12/65 01004 10190 20010 30124 40196 58005 60006 80000 91200=
07510,1997-04-14 15:00:00,22,1018.2,-1.3,23,0,15000,14.816,,29.632,60,,,,,,,,,,,wg-a,,,,AAXX 14154 07510 12/65 00608 10220 20000 30111 40182 56013 60006 80000 91500 333 91016=
07510,1997-04-14 18:00:00,22,1018.2,-0,29,3,15000,7.408,,,20,5.9,22,,,,,,,,,wg-a,,,,AAXX 14184 07510 12/65 00204 10220 20030 30111 40182 55000 60006 80000 91800 333 10220 20059=
07510,1997-04-14 21:00:00,16,1020,1.6,45,4,15000,14.816,,,30,,,,,,,,,,,wg-a,,,,AAXX 14214 07510 12/65 00308 10160 20040 30127 40200 53016 60006 80000 92100=
07510,1997-04-15 00:00:00,13,1020.2,0.1,51,3,15000,7.408,,,20,,,,,,,,,,,wg-a,,,,AAXX 15004 07510 12/65 00204 10130 20030 30128 40202 53001 60006 80000 90000=
07510,1997-04-15 03:00:00,10,1020.2,-0,57,2,15000,7.408,,,40,,,,,,,,,,,wg-a,,,,AAXX 15034 07510 12/65 00404 10100 20020 30128 40202 55000 60006 80000 90300=
07510,1997-04-15 06:00:00,9,1021.1,0.8,61,2,10000,7.408,,,30,8.3,21.5,,,,,,,,,wg-a,,,,AAXX 15064 07510 02/60 /0304 10090 20020 30136 40211 53008 60006 90600 333 10215 20083 60004=
07510,1997-04-15 09:00:00,15,1021.7,0.8,48,4,20000,11.112,,,50,,,,,,,,,,,wg-a,,,,AAXX 15094 07510 12/70 00506 10150 20040 30144 40217 51008 60006 80000 90900=
07510,1997-04-15 12:00:00,21,1021.3,-0.3,33,4,20000,14.816,,,30,,,,,,,,,,,wg-a,,,,AAXX 15124 07510 12/70 00308 10210 20040 30141 40213 58003 60006 80000 91200=
07510,1997-04-15 15:00:00,23,1019.8,-1.4,27,3,20000,18.52,,,30,,,,,,,,,,,wg-a,,,,AAXX 15154 07510 12/70 00310 10230 20030 30127 40198 56014 60006 80000 91500=
07510,1997-04-15 18:00:00,19,1020.3,0.4,40,5,20000,18.52,,,30,8.8,22.8,,,,,,,,,wg-a,,,,AAXX 15184 07510 12/70 00310 10190 20050 30131 40203 53004 60006 80000 91800 333 10228 20088=
07510,1997-04-15 21:00:00,15,1021.6,1.2,48,4,20000,18.52,,,30,,,,,,,,,,,wg-a,,,,AAXX 15214 07510 12/70 00310 10150 20040 30143 40216 51012 60006 80000 92100=
07510,1997-04-16 00:00:00,12,1021.2,-0.5,50,2,15000,14.816,,,40,,,,,,,,,,,wg-a,,,,AAXX 16004 07510 12/65 00408 10120 20020 30138 40212 57005 60006 80000 90000=
07510,1997-04-16 03:00:00,9,1021,-0.3,57,1,15000,11.112,,,50,,,,,,,,,,,wg-a,,,,AAXX 16034 07510 12/65 00506 10090 20010 30135 40210 55003 60006 80000 90300=
07510,1997-04-16 06:00:00,7,1021,-0,61,0,15000,11.112,,,50,6.2,19.4,,,,,,,,,wg-a,,,,AAXX 16064 07510 02/65 00506 10070 20000 30135 40210 55000 60006 80000 90600 333 10194 20062 60004=
07510,1997-04-16 09:00:00,13,1020.5,-0.4,44,1,20000,14.816,,,50,,,,,,,,,,,wg-a,,,,AAXX 16094 07510 12/70 00508 10130 20010 30131 40205 58004 60006 80000 90900=
07510,1997-04-16 12:00:00,18,1018.3,-2,26,-2,20000,22.224,,,50,,,,,,,,,,,wg-a,,,,AAXX 16124 07510 12/70 00512 10180 21020 30111 40183 58020 60006 80000 91200=
07510,1997-04-16 15:00:00,21,1015.6,-2.6,18,-4,15000,18.52,,,60,,,,,,,,,,,wg-a,,,,AAXX 16154 07510 12/65 10610 10210 21040 30085 40156 56026 60006 80001 91500=
07510,1997-04-16 18:00:00,20,1014.4,-1.3,24,-1,15000,22.224,,,40,6.7,21.6,,,,,,,,,wg-a,,,,AAXX 16184 07510 12/65 10412 10200 21010 30072 40144 56013 60006 80001 91800 333 10216 20067=
07510,1997-04-16 21:00:00,14,1015.2,0.7,38,0,15000,22.224,,,50,,,,,,,,,,,wg-a,,,,AAXX 16214 07510 12/65 10512 10140 20000 30079 40152 52007 60006 80001 92100=
07510,1997-04-17 00:00:00,12,1014.8,-0.5,40,-1,15000,18.52,,,60,,,,,,,,,,,wg-a,,,,AAXX 17004 07510 12/65 00610 10120 21010 30074 40148 58005 60006 80000 90000=
07510,1997-04-17 03:00:00,9,1013.8,-1,49,-1,15000,14.816,,,60,,,,,,,,,,,wg-a,,,,AAXX 17034 07510 12/65 00608 10090 21010 30064 40138 57010 60006 80000 90300=
07510,1997-04-17 06:00:00,7,1014.1,0.2,53,-2,20000,18.52,,,40,6.6,20,,,,,,,,,wg-a,,,,AAXX 17064 07510 02/70 10410 10070 21020 30066 40141 53002 60006 80001 90600 333 10200 20066 60004=
07510,1997-04-17 09:00:00,12,1013.8,-0.2,38,-2,20000,22.224,,,50,,,,,,,,,,,wg-a,,,,AAXX 17094 07510 12/70 10512 10120 21020 30064 40138 58002 60006 80001 90900=
07510,1997-04-17 12:00:00,17,1011.9,-1.7,20,-6,20000,22.224,,40.744,50,,,,,,,,,,,wg-a,,,,AAXX 17124 07510 12/70 10512 10170 21060 30047 40119 58017 60006 80001 91200 333 91022=
07510,1997-04-17 15:00:00,18,1010.6,-1.3,18,-7,20000,25.928,,,50,,,,,,,,,,,wg-a,,,,AAXX 17154 07510 12/70 10514 10180 21070 30034 40106 58013 60006 80001 91500=
07510,1997-04-17 18:00:00,17,1010.6,-0,19,-7,20000,29.632,,,40,6.8,18.3,,,,,,,,,wg-a,,,,AAXX 17184 07510 12/70 10416 10170 21070 30034 40106 55000 60006 80001 91800 333 10183 20068=
07510,1997-04-17 21:00:00,13,1012.3,1.6,33,-3,20000,22.224,,,70,,,,,,,,,,,wg-a,,,,AAXX 17214 07510 12770 20712 10130 21030 30050 40123 51016 60006 82401 92100=
07510,1997-04-18 00:00:00,11,1014.4,2,62,4,20000,25.928,,,110,,,,,,,,,,,wg-a,,,,AAXX 18004 07510 12770 11114 10110 20040 30070 40144 51020 60006 815/0 90000=
07510,1997-04-18 03:00:00,9,1014.4,-0,66,3,15000,22.224,,,90,,,,,,,,,,,wg-a,,,,AAXX 18034 07510 12765 20912 10090 20030 30070 40144 55000 60006 81502 90300=
07510,1997-04-18 06:00:00,8,1014.9,0.4,66,2,15000,18.52,,,90,7.9,16.6,,,,,,,,,wg-a,,,,AAXX 18064 07510 02765 10910 10080 20020 30074 40149 53004 60006 81500 90600 333 10166 20079 60004=
07510,1997-04-18 12:00:00,17,1012.7,-1.5,36,2,15000,25.928,,,120,,,,,,,,,,,wg-a,,,,AAXX 18124 07510 12665 /1214 10170 20020 30055 40127 58015 60006 81802 91200=
07510,1997-04-18 15:00:00,19,1011,-1.7,34,3,15000,25.928,,,100,,,,,,,,,,,wg-a,,,,AAXX 18154 07510 12765 61014 10190 20030 30038 40110 56017 60006 84802 91500=
07510,1997-04-18 18:00:00,17,1010.7,-0.3,39,3,15000,18.52,,,110,8.4,20,,,,,,,,,wg-a,,,,AAXX 18184 07510 12765 71110 10170 20030 30035 40107 55003 60006 8252/ 91800 333 10200 20084=
07510,1997-04-18 21:00:00,15,1011.3,0.5,51,5,15000,11.112,,,120,,,,,,,,,,,wg-a,,,,AAXX 18214 07510 12765 71206 10150 20050 30040 40113 50005 60006 8457/ 92100=
07510,1997-04-19 00:00:00,14,1010.5,-0.8,51,4,15000,11.112,,,100,,,,,,,,,,,wg-a,,,,AAXX 19004 07510 12665 81006 10140 20040 30032 40105 58008 60006 8557/ 90000=
07510,1997-04-19 03:00:00,12,1009.3,-1.2,54,3,15000,14.816,,,110,,,,,,,,,,,wg-a,,,,AAXX 19034 07510 12765 71108 10120 20030 30020 40093 58012 60006 8353/ 90300=
07510,1997-04-19 06:00:00,11,1009,-0.3,62,4,15000,14.816,,,100,10.9,17.2,,,,,,,,60,wg-a,,,,AAXX 19064 07510 02765 71008 10110 20040 30017 40090 55003 61000 76062 8457/ 90600 333 10172 20109 6100=
07510,1997-04-19 12:00:00,14,1007.8,-0.7,72,9,15000,18.52,,,130,,,,,,,,,,60,wg-a,,,,AAXX 19124 07510 02565 71310 10140 20090 30006 40078 58007 61000 76062 8287/ 91200 333 6100=
07510,1997-04-19 18:00:00,15,1005.8,-0.8,67,9,15000,7.408,,,110,10.7,15.6,,,,,,,,1,wg-a,,,,AAXX 19184 07510 02765 71104 10150 20090 39986 40058 57008 60006 70162 8353/ 91800 333 10156 20107 61000=
07510,1997-04-19 21:00:00,13,1007,1.1,82,10,15000,3.704,,,20,,,,,,,,,,,wg-a,,,,AAXX 19214 07510 12765 70202 10130 20100 39997 40070 51011 60006 8453/ 92100=
07510,1997-04-20 00:00:00,11,1006.9,-0.1,87,9,15000,11.112,,,20,,,,,,,,,,,wg-a,,,,AAXX 20004 07510 12665 /0206 10110 20090 39996 40069 58001 60006 83530 90000=
07510,1997-04-20 03:00:00,10,1006.3,-0.7,76,6,12000,22.224,,,50,,,,,,,,,,,wg-a,,,,AAXX 20034 07510 12562 50512 10100 20060 39989 40063 57007 60006 83830 90300=
07510,1997-04-20 06:00:00,8,1007.5,1.2,71,3,12000,22.224,,,40,8,15.1,,,,,,,,,wg-a,,,,AAXX 20064 07510 02662 /0412 10080 20030 30001 40075 51012 60006 81532 90600 333 10151 20080 61000=
07510,1997-04-20 09:00:00,11,1008.2,0.8,54,2,15000,29.632,,,50,,,,,,,,,,,wg-a,,,,AAXX 20094 07510 12/65 50516 10110 20020 30009 40082 51008 60006 83032 90900=
07510,1997-04-20 12:00:00,15,1007.1,-1,36,0,15000,25.928,,46.3,70,,,,,,,,,,,wg-a,,,,AAXX 20124 07510 12/65 60714 10150 20000 39999 40071 57010 60006 83032 91200 333 91025=
07510,1997-04-20 15:00:00,17,1005.7,-1.4,20,-6,15000,35.188,,,50,,,,,,,,,,,wg-a,,,,AAXX 20154 07510 12/65 60519 10170 21060 39985 40057 56014 60006 80002 91500=
07510,1997-04-20 18:00:00,15,1006.3,0.6,27,-4,15000,29.632,,,40,7.9,17.3,,,,,,,,,wg-a,,,,AAXX 20184 07510 12/65 70416 10150 21040 39991 40063 53006 60006 80002 91800 333 10173 20079=
07510,1997-04-20 21:00:00,11,1008.7,2.3,37,-3,15000,22.224,,,50,,,,,,,,,,,wg-a,,,,AAXX 20214 07510 12/65 50512 10110 21030 30014 40087 51023 60006 80002 92100=
07510,1997-04-21 00:00:00,8,1009.7,0.9,46,-3,15000,18.52,,,50,,,,,,,,,,,wg-a,,,,AAXX 21004 07510 12/65 20510 10080 21030 30023 40097 51009 60006 80002 90000=
07510,1997-04-21 03:00:00,6,1009,-0.8,52,-3,15000,22.224,,,40,,,,,,,,,,,wg-a,,,,AAXX 21034 07510 12/65 30412 10060 21030 30015 40090 56008 60006 80002 90300=
07510,1997-04-21 06:00:00,5,1009.4,0.4,52,-4,15000,22.224,,,30,4.9,14.5,,,,,,,,,wg-a,,,,AAXX 21064 07510 02/65 10312 10050 21040 30019 40094 53004 60006 80002 90600 333 10145 20049 60004=
07510,1997-04-21 09:00:00,10,1009.2,-0.1,34,-5,15000,31.484,,,40,,,,,,,,,,,wg-a,,,,AAXX 21094 07510 12/65 10417 10100 21050 30018 40092 57001 60006 80002 90900=
07510,1997-04-21 12:00:00,14,1008.8,-0.3,23,-7,15000,25.928,,,40,,,,,,,,,,,wg-a,,,,AAXX 21124 07510 12/65 10414 10140 21070 30015 40088 58003 60006 80002 91200=
07510,1997-04-21 15:00:00,17,1007.8,-0.9,17,-8,15000,29.632,,,40,,,,,,,,,,,wg-a,,,,AAXX 21154 07510 12/65 10416 10170 21080 30006 40078 58009 60006 80002 91500=
07510,1997-04-21 18:00:00,15,1008.7,0.9,20,-8,15000,22.224,,,20,5.1,16.5,,,,,,,,,wg-a,,,,AAXX 21184 07510 12/65 10212 10150 21080 30015 40087 53009 60006 80002 91800 333 10165 20051=
07510,1997-04-21 21:00:00,10,1011.1,2.2,34,-5,15000,7.408,,,340,,,,,,,,,,,wg-a,,,,AAXX 21214 07510 12/65 13404 10100 21050 30037 40111 53022 60006 80002 92100=
07510,1997-04-22 00:00:00,7,1011.8,0.6,49,-3,15000,3.704,,,340,,,,,,,,,,,wg-a,,,,AAXX 22004 07510 12/65 13402 10070 21030 30043 40118 51006 60006 80002 90000=
07510,1997-04-22 03:00:00,2,1011.6,-0.3,69,-3,15000,3.704,,,10,,,,,,,,,,,wg-a,,,,AAXX 22034 07510 12/65 10102 10020 21030 30040 40116 56003 60006 80002 90300=
07510,1997-04-22 06:00:00,4,1013.2,1.6,60,-3,15000,3.704,,,350,1.1,15,,,,,,,,,wg-a,,,,AAXX 22064 07510 02/65 13502 10040 21030 30056 40132 53016 60006 80002 90600 333 10150 20011 60004=
07510,1997-04-22 09:00:00,12,1014,1,32,-4,20000,14.816,,,50,,,,,,,,,,,wg-a,,,,AAXX 22094 07510 12/70 10508 10120 21040 30066 40140 51010 60006 80002 90900=
07510,1997-04-22 12:00:00,16,1013.5,-0.4,20,-7,20000,18.52,,,40,,,,,,,,,,,wg-a,,,,AAXX 22124 07510 12/70 40410 10160 21070 30062 40135 58004 60006 80002 91200=
07510,1997-04-22 15:00:00,17,1012.6,-0.8,20,-6,20000,14.816,,,30,,,,,,,,,,,wg-a,,,,AAXX 22154 07510 12/70 40308 10170 21060 30054 40126 56008 60006 80002 91500=
07510,1997-04-22 18:00:00,16,1013.1,0.4,23,-5,20000,18.52,,,360,4.1,17.3,,,,,,,,,wg-a,,,,AAXX 22184 07510 12/70 43610 10160 21050 30058 40131 53004 60006 80002 91800 333 10173 20041=
07510,1997-04-22 21:00:00,9,1015.5,2.3,66,3,15000,11.112,,,340,,,,,,,,,,,wg-a,,,,AAXX 22214 07510 12/65 43406 10090 20030 30081 40155 51023 60006 80002 92100=
07510,1997-04-23 00:00:00,8,1016.4,0.8,57,0,15000,7.408,,,10,,,,,,,,,,,wg-a,,,,AAXX 23004 07510 12/65 20104 10080 20000 30089 40164 51008 60006 80002 90000=
07510,1997-04-23 03:00:00,6,1016.4,-0,65,0,15000,3.704,,,30,,,,,,,,,,,wg-a,,,,AAXX 23034 07510 12/65 20302 10060 20000 30089 40164 55000 60006 80002 90300=
07510,1997-04-23 06:00:00,4,1017.6,1.1,81,1,15000,3.704,,,40,2.7,15.9,,,,,,,,,wg-a,,,,AAXX 23064 07510 02/65 20402 10040 20010 30100 40176 53011 60006 80002 90600 333 10159 20027 60004=
07510,1997-04-23 09:00:00,13,1018.4,1,41,0,15000,7.408,,,80,,,,,,,,,,,wg-a,,,,AAXX 23094 07510 12/65 40804 10130 20000 30110 40184 51010 60006 80002 90900=
07510,1997-04-23 12:00:00,16,1018.3,0,29,-2,15000,11.112,,,40,,,,,,,,,,,wg-a,,,,AAXX 23124 07510 12/65 30406 10160 21020 30110 40183 50000 60006 80002 91200=
07510,1997-04-23 15:00:00,18,1017.4,-0.8,28,-1,15000,11.112,,,80,,,,,,,,,,,wg-a,,,,AAXX 23154 07510 12/65 20806 10180 21010 30102 40174 57008 60006 80002 91500=
07510,1997-04-23 18:00:00,17,1018.4,0.9,29,-1,15000,14.816,,,10,3.6,18.5,,,,,,,,,wg-a,,,,AAXX 23184 07510 12/65 20108 10170 21010 30111 40184 53009 60006 80002 91800 333 10185 20036=
07510,1997-04-23 21:00:00,12,1020.1,1.6,50,2,15000,11.112,,,10,,,,,,,,,,,wg-a,,,,AAXX 23214 07510 12/65 50106 10120 20020 30127 40201 52016 60006 80002 92100=
07510,1997-04-24 00:00:00,6,1020.6,0.4,81,3,15000,3.704,,,340,,,,,,,,,,,wg-a,,,,AAXX 24004 07510 12/65 03402 10060 20030 30131 40206 52004 60006 80000 90000=
07510,1997-04-24 03:00:00,3,1020.3,-0.4,87,1,15000,0,,,0,,,,,,,,,,,wg-a,,,,AAXX 24034 07510 12/65 00000 10030 20010 30127 40203 56004 60006 80000 90300=
07510,1997-04-24 06:00:00,3,1021,0.7,93,2,15000,0,,,0,1.9,16.7,,,,,,,,,wg-a,,,,AAXX 24064 07510 02/65 /0000 10030 20020 30134 40210 53007 60006 80000 90600 333 10167 20019 60004=
07510,1997-04-24 12:00:00,21,1019.7,-1.2,21,-2,15000,7.408,,,130,,,,,,,,,,,wg-a,,,,AAXX 24124 07510 12/65 01304 10210 21020 30125 40197 58012 60006 80000 91200=
07510,1997-04-24 18:00:00,23,1017,-0.7,23,1,15000,7.408,,,320,3.3,24,,,,,,,,,wg-a,,,,AAXX 24184 07510 12/65 43204 10230 20010 30099 40170 56007 60006 80001 91800 333 10240 20033=
07510,1997-04-24 21:00:00,15,1018.4,1.2,41,2,10000,11.112,,,20,,,,,,,,,,,wg-a,,,,AAXX 24214 07510 12/60 /0206 10150 20020 30111 40184 51012 60006 92100=
07510,1997-04-25 00:00:00,10,1018,-0.5,66,4,10000,0,,,0,,,,,,,,,,,wg-a,,,,AAXX 25004 07510 12/60 20000 10100 20040 30106 40180 56005 60006 81031 90000=
07510,1997-04-25 03:00:00,10,1017.9,-0.1,57,2,10000,3.704,,,150,,,,,,,,,,,wg-a,,,,AAXX 25034 07510 12/60 51502 10100 20020 30105 40179 55001 60006 81031 90300=
07510,1997-04-25 06:00:00,9,1019,1,81,6,10000,3.704,,,180,7,22.4,,,,,,,,,wg-a,,,,AAXX 25064 07510 02/60 51802 10090 20060 30115 40190 53010 60006 81032 90600 333 10224 20070 60004=
07510,1997-04-25 09:00:00,18,1019.4,0.7,49,7,10000,7.408,,,210,,,,,,,,,,,wg-a,,,,AAXX 25094 07510 12/60 /2104 10180 20070 30122 40194 53007 60006 90900=
07510,1997-04-25 12:00:00,23,1019.1,-0.2,23,1,15000,22.224,,,250,,,,,,,,,,,wg-a,,,,AAXX 25124 07510 12/65 62512 10230 20010 30120 40191 58002 60006 82032 91200=
07510,1997-04-25 15:00:00,23,1018.8,-0.3,27,3,15000,18.52,,,280,,,,,,,,,,,wg-a,,,,AAXX 25154 07510 12/65 62810 10230 20030 30117 40188 57003 60006 82032 91500=
07510,1997-04-25 18:00:00,19,1019.4,0.5,32,2,15000,14.816,,,310,8.5,23.4,,,,,,,,,wg-a,,,,AAXX 25184 07510 12765 73108 10190 20020 30122 40194 52005 60006 8257/ 91800 333 10234 20085=
07510,1997-04-25 21:00:00,15,1020.4,0.9,44,3,15000,11.112,,,230,,,,,,,,,,,wg-a,,,,AAXX 25214 07510 12765 42306 10150 20030 30131 40204 51009 60006 81530 92100=
07510,1997-04-26 00:00:00,12,1020.4,-0.1,76,8,15000,7.408,,,230,,,,,,,,,,,wg-a,,,,AAXX 26004 07510 12465 52304 10120 20080 30130 40204 58001 60006 82532 90000=
07510,1997-04-26 03:00:00,11,1019.1,-1.3,94,10,6000,7.408,,,260,,,,,,,,,,,wg-a,,,,AAXX 26034 07510 12256 72604 10110 20100 30117 40191 56013 60006 876// 90300=
07510,1997-04-26 06:00:00,12,1018.3,-0.8,94,11,3000,3.704,,,160,10.3,18.5,,,,,,,,10,wg-a,,,,AAXX 26064 07510 02130 71602 10120 20110 30109 40183 56008 60006 71022 876// 90600 333 10185 20103 60004=
07510,1997-04-26 09:00:00,16,1017.5,-0.7,77,12,7000,7.408,,,190,,,,,,,,,,,wg-a,,,,AAXX 26094 07510 12757 71904 10160 20120 30102 40175 56007 60006 876// 90900=
07510,1997-04-26 12:00:00,16,1016.1,-1.3,88,14,6000,18.52,,,250,,,,1,,,,,,61,wg-a,,,,AAXX 26124 07510 02556 72510 10160 20140 30089 40161 56013 60016 76165 878// 91200 333 60017=
07510,1997-04-26 15:00:00,16,1015.1,-1,88,14,8000,25.928,,,250,,,,1,,,,,,1,wg-a,,,,AAXX 26154 07510 12458 72514 10160 20140 30079 40151 58010 60017 70162 878// 91500=
07510,1997-04-26 18:00:00,15,1014.6,-0.6,88,13,10000,18.52,,,250,12.3,18.3,,,,,,,,1,wg-a,,,,AAXX 26184 07510 12460 72510 10150 20130 30073 40146 58006 60006 70162 878// 91800 333 10183 20123=
07510,1997-04-26 21:00:00,14,1016,1.4,88,12,10000,22.224,,,260,,,,,,,,,,60,wg-a,,,,AAXX 26214 07510 02460 72612 10140 20120 30087 40160 52014 61000 76062 878// 92100 333 ////=
07510,1997-04-27 00:00:00,13,1014.8,-1.2,94,12,10000,22.224,,,260,,,,1,,,,,,60,wg-a,,,,AAXX 27004 07510 02460 72612 10130 20120 30075 40148 56012 60016 76062 8587/ 90000 333 60017=
07510,1997-04-27 03:00:00,11,1012.8,-2,100,11,3500,7.408,,,300,,,,8,,,,,,61,wg-a,,,,AAXX 27034 07510 12135 83004 10110 20110 30055 40128 56020 60087 76166 8/57/ 90300=
07510,1997-04-27 06:00:00,12,1015,2.2,100,12,10000,14.816,,,300,11.4,14.9,,,,,,,,20,wg-a,,,,AAXX 27064 07510 02360 73008 10120 20120 30077 40150 53022 61000 72065 868// 90600 333 10149 20114 6012=
07510,1997-04-27 09:00:00,14,1017.4,2.4,88,12,10000,25.928,,,290,,,,,,,,,,,wg-a,,,,AAXX 27094 07510 12460 72914 10140 20120 30101 40174 51024 60006 85202 90900=
07510,1997-04-27 12:00:00,16,1018.3,0.9,68,10,10000,29.632,,,290,,,,,,,,,,25,wg-a,,,,AAXX 27124 07510 02560 72916 10160 20100 30110 40183 51009 61000 72586 878// 91200 333 6100=
07510,1997-04-27 18:00:00,13,1020.6,1.5,94,12,6000,18.52,,,260,12.3,16.6,,,,,,,,58,wg-a,,,,AAXX 27184 07510 02356 82610 10130 20120 30132 40206 53015 61000 75865 8657/ 91800 333 10166 20123 6000=
07510,1997-04-27 21:00:00,12,1022.2,1.6,94,11,3000,14.816,,,230,,,,0,,,,,,50,wg-a,,,,AAXX 27214 07510 12230 82308 10120 20110 30148 40222 51016 60007 75065 877// 92100=
07510,1997-04-28 00:00:00,14,1021.6,-0.5,100,14,2500,18.52,,,260,,,,1,,,,,,10,wg-a,,,,AAXX 28004 07510 02125 82610 10140 20140 30143 40216 58005 60016 71065 877// 90000 333 60017=
07510,1997-04-28 03:00:00,14,1021.2,-0.4,100,14,2000,22.224,,,270,,,,1,,,,,,10,wg-a,,,,AAXX 28034 07510 12120 82712 10140 20140 30139 40212 56004 60017 71055 877// 90300=
07510,1997-04-28 06:00:00,14,1021.9,0.7,100,14,2500,22.224,,,270,11.6,14.2,,,,,,,,10,wg-a,,,,AAXX 28064 07510 02225 82712 10140 20140 30146 40219 52007 61000 71055 877// 90600 333 10142 20116 6004=
07510,1997-04-28 12:00:00,15,1022.8,-0.2,100,15,2500,29.632,,,270,,,,1,,,,,,50,wg-a,,,,AAXX 28124 07510 02225 82716 10150 20150 30155 40228 57002 60026 75055 877// 91200 333 60017=
07510,1997-04-28 15:00:00,15,1022.8,0,94,14,12000,31.484,,,280,,,,0,,,,,,50,wg-a,,,,AAXX 28154 07510 12362 82817 10150 20140 30155 40228 50000 60007 75055 877// 91500=
07510,1997-04-28 18:00:00,14,1022.5,-0.3,94,13,10000,22.224,,,270,14.2,15.5,,,,,,,,21,wg-a,,,,AAXX 28184 07510 02460 82712 10140 20130 30152 40225 58003 61000 72165 877// 91800 333 10155 20142 6100=
07510,1997-04-28 21:00:00,14,1023.3,0.7,88,12,15000,22.224,,,280,,,,,,,,,,,wg-a,,,,AAXX 28214 07510 12465 72812 10140 20120 30159 40233 53007 60006 868// 92100=
07510,1997-04-29 03:00:00,12,1022.2,-0.6,94,11,15000,14.816,,,270,,,,,,,,,,,wg-a,,,,AAXX 29034 07510 12565 /2708 10120 20110 30148 40222 55006 60006 85800 90300=
07510,1997-04-29 06:00:00,12,1023.3,1.1,94,11,10000,11.112,,,300,11.3,14.5,,,,,3,,,,wg-a,,,,AAXX 29064 07510 02460 /3006 10120 20110 30159 40233 53011 60006 85800 90600 333 10145 20113 60034=
07510,1997-04-29 12:00:00,17,1024,0,52,7,15000,22.224,,,310,,,,,,,,,,,wg-a,,,,AAXX 29124 07510 12665 /3112 10170 20070 30167 40240 50000 60006 85200 91200=
07510,1997-04-29 18:00:00,15,1023.6,0.3,63,8,15000,14.816,,,310,12.1,17.5,,,,,,,,,wg-a,,,,AAXX 29184 07510 12665 /3108 10150 20080 30163 40236 53003 60006 86400 91800 333 10175 20121=
07510,1997-04-30 00:00:00,9,1024.3,0.1,100,9,15000,7.408,,,260,,,,,,,,,,,wg-a,,,,AAXX 30004 07510 12565 /2604 10090 20090 30168 40243 50001 60006 81500 90000=
07510,1997-04-30 03:00:00,8,1023.6,-0.7,93,7,10000,3.704,,,250,,,,,,,,,,11,wg-a,,,,AAXX 30034 07510 12460 32502 10080 20070 30161 40236 56007 60006 71100 83500 90300=
07510,1997-04-30 06:00:00,10,1024.2,0.6,100,10,8000,3.704,,,340,7.5,14.8,,,,,,,,,wg-a,,,,AAXX 30064 07510 02458 /3402 10100 20100 30167 40242 53006 60006 86500 90600 333 10148 20075 60004=
07510,1997-04-30 09:00:00,14,1024.8,0.7,72,9,15000,7.408,,,60,,,,,,,,,,,wg-a,,,,AAXX 30094 07510 12465 30604 10140 20090 30174 40248 51007 60006 83800 90900=
07510,1997-04-30 12:00:00,18,1024.2,-0.5,49,7,20000,11.112,,,70,,,,,,,,,,,wg-a,,,,AAXX 30124 07510 12670 40706 10180 20070 30169 40242 58005 60006 84800 91200=
07510,1997-04-30 15:00:00,20,1023.3,-0.8,43,7,20000,18.52,,,60,,,,,,,,,,,wg-a,,,,AAXX 30154 07510 12670 40610 10200 20070 30161 40233 58008 60006 84400 91500=
07510,1997-04-30 18:00:00,20,1022.7,-0.6,40,6,20000,18.52,,,60,10.4,21.2,,,,,,,,,wg-a,,,,AAXX 30184 07510 12670 /0610 10200 20060 30155 40227 58006 60006 81400 91800 333 10212 20104=
07510,1997-04-30 21:00:00,16,1024.3,1.5,55,7,15000,11.112,,,50,,,,,,,,,,,wg-a,,,,AAXX 30214 07510 12/65 00506 10160 20070 30170 40243 53015 60006 80000 92100=
07510,1997-05-01 00:00:00,13,1024.3,-0.1,72,8,15000,11.112,,,60,,,,,,,,,,,wg-a,,,,AAXX 01004 07510 12/65 00606 10130 20080 30169 40243 58001 60006 80000 90000=
07510,1997-05-01 03:00:00,13,1023.7,-0.6,67,7,15000,7.408,,,70,,,,,,,,,,,wg-a,,,,AAXX 01034 07510 12/65 00704 10130 20070 30163 40237 56006 60006 80000 90300=
07510,1997-05-01 06:00:00,12,1023.8,0.1,71,7,20000,14.816,,,80,10.4,20.4,,,,,,,,,wg-a,,,,AAXX 01064 07510 02/70 10808 10120 20070 30164 40238 53001 60006 80001 90600 333 10204 20104 60004=
07510,1997-05-01 09:00:00,17,1023.5,-0.2,52,7,20000,14.816,,,90,,,,,,,,,,,wg-a,,,,AAXX 01094 07510 12/70 10908 10170 20070 30162 40235 58002 60006 80001 90900=
07510,1997-05-01 12:00:00,22,1021.8,-1.6,35,6,20000,25.928,,,60,,,,,,,,,,,wg-a,,,,AAXX 01124 07510 12/70 30614 10220 20060 30146 40218 57016 60006 80001 91200=
07510,1997-05-01 15:00:00,25,1019.8,-1.9,26,4,20000,22.224,,,80,,,,,,,,,,,wg-a,,,,AAXX 01154 07510 12/70 30812 10250 20040 30127 40198 57019 60006 80001 91500=
07510,1997-05-01 18:00:00,25,1019,-0.8,24,3,20000,14.816,,,120,11.7,25.6,,0,,,,,,,wg-a,,,,AAXX 01184 07510 02/70 11208 10250 20030 30119 40190 56008 60006 80001 91800 333 10256 20117 60007=
07510,1997-05-01 21:00:00,20,1020.1,1,37,5,20000,18.52,,,60,,,,,,,,,,,wg-a,,,,AAXX 01214 07510 12/70 10610 10200 20050 30129 40201 53010 60006 80001 92100=
07510,1997-05-02 00:00:00,17,1020.3,0.1,42,4,20000,18.52,,,80,,,,,,,,,,,wg-a,,,,AAXX 02004 07510 12/70 00810 10170 20040 30130 40203 50001 60006 80000 90000=
07510,1997-05-02 03:00:00,15,1020,-0.3,51,5,20000,14.816,,,100,,,,,,,,,,,wg-a,,,,AAXX 02034 07510 12/70 01008 10150 20050 30127 40200 57003 60006 80000 90300=
07510,1997-05-02 06:00:00,14,1020.1,0.1,58,6,20000,14.816,,,110,13.2,24.9,,,,,,,,,wg-a,,,,AAXX 02064 07510 02/70 31108 10140 20060 30128 40201 53001 60006 80001 90600 333 10249 20132 60004=
07510,1997-05-02 09:00:00,21,1020,0,38,6,20000,25.928,,,130,,,,,,,,,,,wg-a,,,,AAXX 02094 07510 12/70 31314 10210 20060 30128 40200 50000 60006 80002 90900=
07510,1997-05-02 12:00:00,26,1018.6,-1.2,34,9,20000,22.224,,,120,,,,,,,,,,,wg-a,,,,AAXX 02124 07510 12/70 21212 10260 20090 30116 40186 58012 60006 80002 91200=
07510,1997-05-02 15:00:00,28,1017.2,-1.4,30,9,20000,22.224,,,110,,,,,,,,,,,wg-a,,,,AAXX 02154 07510 12/70 21112 10280 20090 30102 40172 58014 60006 80002 91500=
07510,1997-05-02 18:00:00,28,1016.7,-0.5,30,9,20000,22.224,,,120,14.4,28.9,,,,,,,,,wg-a,,,,AAXX 02184 07510 12/70 21212 10280 20090 30097 40167 56005 60006 80002 91800 333 10289 20144=
07510,1997-05-02 21:00:00,23,1018.3,1.5,41,9,20000,18.52,,,140,,,,,,,,,,,wg-a,,,,AAXX 02214 07510 12/70 21410 10230 20090 30112 40183 53015 60006 80002 92100=
07510,1997-05-03 00:00:00,19,1019,0.6,52,9,20000,18.52,,,140,,,,,,,,,,,wg-a,,,,AAXX 03004 07510 12/70 21410 10190 20090 30118 40190 50006 60006 80002 90000=
07510,1997-05-03 06:00:00,16,1019.7,0.8,88,14,15000,14.816,,,250,15.2,27.5,,,,,,,,,wg-a,,,,AAXX 03064 07510 02/65 72508 10160 20140 30124 40197 53008 60006 85082 90600 333 10275 20152 60004=
07510,1997-05-03 09:00:00,18,1021.1,1.5,73,13,15000,14.816,,,290,,,,,,,,,,,wg-a,,,,AAXX 03094 07510 12/65 72908 10180 20130 30139 40211 51015 60006 8707/ 90900=
07510,1997-05-03 12:00:00,21,1020.9,-0.2,64,14,15000,11.112,,,310,,,,,,,,,,21,wg-a,,,,AAXX 03124 07510 02765 73106 10210 20140 30137 40209 58002 61000 72162 8358/ 91200 333 6100=
07510,1997-05-03 18:00:00,23,1018.7,-0.7,53,13,15000,18.52,,,320,15.6,23.8,,,,,,,,,wg-a,,,,AAXX 03184 07510 12665 /3210 10230 20130 30116 40187 56007 60006 83881 91800 333 10238 20156=
07510,1997-05-03 21:00:00,16,1019.7,0.8,88,14,15000,7.408,,,340,,,,,,,,,,,wg-a,,,,AAXX 03214 07510 12/65 33404 10160 20140 30124 40197 51008 60006 80002 92100=
07510,1997-05-04 00:00:00,14,1018.5,-1.2,94,13,10000,7.408,,,10,,,,,,,,,,,wg-a,,,,AAXX 04004 07510 12660 30104 10140 20130 30112 40185 58012 60006 82502 90000=
07510,1997-05-04 06:00:00,13,1014.5,-1.7,100,13,500,7.408,,,130,,23.8,,,,,,,,1,wg-a,,,,AAXX 04064 07510 02/00 /1304 10130 20130 30072 40145 56017 60006 70141 81282 90600 333 10238 61000=
07510,1997-05-04 09:00:00,22,1012.5,-1.8,60,14,20000,14.816,,,140,,,,,,,,,,,wg-a,,,,AAXX 04094 07510 12/70 21408 10220 20140 30054 40125 58018 60006 81082 90900=
07510,1997-05-04 12:00:00,27,1010.6,-1.7,45,14,20000,31.484,,40.744,260,,,,,,,,,,,wg-a,,,,AAXX 04124 07510 12770 32617 10270 20140 30037 40106 56017 60006 83100 91200 333 91022=
07510,1997-05-04 15:00:00,25,1009.5,-1.2,50,14,15000,22.224,,,290,,,,,,,,,,,wg-a,,,,AAXX 04154 07510 12765 42912 10250 20140 30025 40095 58012 60006 81980 91500=
07510,1997-05-04 18:00:00,22,1006.4,-3.1,53,12,15000,14.816,,,340,13.1,27.2,,,,,,,,,wg-a,,,,AAXX 04184 07510 12765 63408 10220 20120 39994 40064 58031 60006 83532 91800 333 10272 20131=
07510,1997-05-05 00:00:00,14,1005.1,-0.3,94,13,15000,14.816,,,310,,,,4,,,,,,60,wg-a,,,,AAXX 05004 07510 02565 73108 10140 20130 39979 40051 58003 60046 76098 879// 90000 333 60047=
07510,1997-05-05 03:00:00,13,1003.8,-1.3,100,13,10000,11.112,,,170,,,,8,,,,,,60,wg-a,,,,AAXX 05034 07510 12260 71706 10130 20130 39966 40038 57013 60087 76066 878// 90300=
07510,1997-05-05 06:00:00,13,1003.1,-0.7,100,13,20000,11.112,,,180,12.7,22.2,,,,,12,,,1,wg-a,,,,AAXX 05064 07510 02270 41806 10130 20130 39959 40031 56007 60006 70161 83902 90600 333 10222 20127 60124=
07510,1997-05-05 09:00:00,17,1002.4,-0.6,82,14,20000,14.816,,,170,,,,,,,,,,,wg-a,,,,AAXX 05094 07510 12470 41708 10170 20140 39953 40024 58006 60006 84902 90900=
07510,1997-05-05 12:00:00,19,1001.2,-1.2,60,11,20000,22.224,,,210,,,,1,,,,,,21,wg-a,,,,AAXX 05124 07510 02370 72112 10190 20110 39941 40012 57012 60016 72161 8487/ 91200 333 60017=
07510,1997-05-05 15:00:00,20,1000.1,-1,53,10,20000,29.632,,59.264,260,,,,,,,,,,25,wg-a,,,,AAXX 05154 07510 02570 62616 10200 20100 39931 40001 56010 61000 72586 85832 91500 333 //// 91032=
07510,1997-05-05 18:00:00,16,998.2,-2,72,11,10000,14.816,,,190,13.2,21.8,,,,,,,,1,wg-a,,,,AAXX 05184 07510 12660 /1908 10160 20110 39911 49982 58020 60006 70186 85802 91800 333 10218 20132=
07510,1997-05-05 21:00:00,13,997.9,-0.4,94,12,6000,22.224,,,270,,,,5,,,,,,61,wg-a,,,,AAXX 05214 07510 12356 82712 10130 20120 39907 49979 55004 60057 76162 875// 92100=
07510,1997-05-06 00:00:00,11,999.1,1.1,94,10,6000,22.224,,,220,,,,4,,,,,,21,wg-a,,,,AAXX 06004 07510 02356 82212 10110 20100 39918 49991 53011 60096 72162 875// 90000 333 60047=
07510,1997-05-06 06:00:00,9,995.7,-2.1,93,8,6000,38.892,,57.412,250,8.8,16.4,,,,,,,,80,wg-a,,,,AAXX 06064 07510 02456 72521 10090 20080 39884 49957 56021 61000 78086 879// 90600 333 10164 20088 6019 91031=
07510,1997-05-06 09:00:00,11,998.9,3.3,87,9,10000,29.632,,,270,,,,2,,,,,,25,wg-a,,,,AAXX 06094 07510 12460 72716 10110 20090 39917 49989 51033 60027 72586 8798/ 90900=
07510,1997-05-06 12:00:00,12,1003.6,4.6,82,9,8000,29.632,,,300,,,,1,,,,,,25,wg-a,,,,AAXX 06124 07510 02458 /3016 10120 20090 39963 40036 53046 60036 72586 85202 91200 333 60017=
07510,1997-05-06 15:00:00,12,1006.8,3.2,67,6,10000,35.188,,51.856,300,,,,1,,,,,,25,wg-a,,,,AAXX 06154 07510 12560 /3019 10120 20060 39995 40068 51032 60017 72586 86800 91500 333 91028=
07510,1997-05-06 18:00:00,11,1008.8,2,54,2,15000,25.928,,,300,9,12.9,,,,,,,,25,wg-a,,,,AAXX 06184 07510 02565 73014 10110 20020 30015 40088 53020 61000 72586 83202 91800 333 10129 20090 6100=
07510,1997-05-07 00:00:00,7,1006.5,-2.9,87,5,15000,14.816,,,180,,,,,,,,,,,wg-a,,,,AAXX 07004 07510 12665 /1808 10070 20050 39991 40065 58029 60006 84832 90000=
07510,1997-05-07 03:00:00,8,1002.5,-4,93,7,8000,22.224,,,200,,,,1,,,,,,61,wg-a,,,,AAXX 07034 07510 12258 72012 10080 20070 39951 40025 57040 60017 76162 8587/ 90300=
07510,1997-05-07 06:00:00,8,1001.9,-0.6,93,7,10000,11.112,,,260,5.5,11,,,,,,,,25,wg-a,,,,AAXX 07064 07510 02560 72606 10080 20070 39945 40019 55006 61000 72586 84832 90600 333 10110 20055 6006=
07510,1997-05-07 09:00:00,11,1002.8,1,66,5,10000,18.52,,,290,,,,,,,,,,25,wg-a,,,,AAXX 07094 07510 02560 72910 10110 20050 39955 40028 53010 61000 72586 85802 90900 333 ////=
07510,1997-05-07 12:00:00,11,1003,0.2,50,1,15000,18.52,,,350,,,,,,,,,,3,wg-a,,,,AAXX 07124 07510 02565 73510 10110 20010 39957 40030 53002 61000 70386 8587/ 91200 333 ////=
07510,1997-05-07 15:00:00,10,1005.4,2.3,57,2,20000,25.928,,,360,,,,,,,,,,,wg-a,,,,AAXX 07154 07510 12570 73614 10100 20020 39980 40054 53023 60006 8587/ 91500=
07510,1997-05-07 18:00:00,10,1008.2,2.8,50,0,20000,25.928,,,320,8.1,11.6,,,,,,,,,wg-a,,,,AAXX 07184 07510 12670 /3214 10100 20000 30008 40082 53028 60006 83202 91800 333 10116 20081=
07510,1997-05-07 21:00:00,7,1011.7,3.4,61,0,20000,14.816,,,260,,,,,,,,,,13,wg-a,,,,AAXX 07214 07510 12670 22608 10070 20000 30042 40117 51034 60006 71300 82900 92100=
07510,1997-05-08 00:00:00,5,1013.1,1.4,87,3,20000,11.112,,,240,,,,0,,,,,,25,wg-a,,,,AAXX 08004 07510 02570 32406 10050 20030 30056 40131 51014 60006 72586 83400 90000 333 60007=
07510,1997-05-08 03:00:00,4,1012.8,-0.3,93,3,15000,3.704,,,230,,,,,,,,,,25,wg-a,,,,AAXX 08034 07510 02565 52302 10040 20030 30053 40128 58003 61000 72586 83802 90300 333 ////=
07510,1997-05-08 06:00:00,6,1012.5,-0.3,93,5,15000,14.816,,,190,3.7,10.3,,,,,,,,21,wg-a,,,,AAXX 08064 07510 02465 71908 10060 20050 30050 40125 56003 61000 72186 8587/ 90600 333 10103 20037 6001=
07510,1997-05-08 09:00:00,11,1012.2,-0.2,87,9,15000,18.52,,,230,,,,0,,,,,,25,wg-a,,,,AAXX 08094 07510 12565 72310 10110 20090 30048 40122 58002 60007 72586 87871 90900=
07510,1997-05-08 12:00:00,14,1011.7,-0.4,63,7,15000,31.484,,,270,,,,,,,,,,2,wg-a,,,,AAXX 08124 07510 12665 72717 10140 20070 30044 40117 56004 60016 70286 86871 91200=
07510,1997-05-08 15:00:00,13,1011.7,-0,82,10,6000,31.484,,,260,,,,0,,,,,,80,wg-a,,,,AAXX 08154 07510 12456 72617 10130 20100 30044 40117 55000 60007 78086 8687/ 91500=
07510,1997-05-08 18:00:00,13,1011.2,-0.5,82,10,10000,25.928,,,260,5.8,14.6,,,,,,,,25,wg-a,,,,AAXX 08184 07510 02260 72614 10130 20100 30039 40112 56005 61000 72586 8/3// 91800 333 10146 20058 6001=
07510,1997-05-09 00:00:00,13,1009.8,-1,88,11,10000,29.632,,,250,,,,2,,,,,,2,wg-a,,,,AAXX 09004 07510 02460 62516 10130 20110 30025 40098 57010 60036 70286 85830 90000 333 60027=
07510,1997-05-09 03:00:00,12,1008.7,-1.1,94,11,10000,29.632,,,250,,,,3,,,,,,25,wg-a,,,,AAXX 09034 07510 12560 62516 10120 20110 30014 40087 57011 60037 72586 85830 90300=
07510,1997-05-09 06:00:00,11,1009.7,1,94,10,10000,22.224,,,230,10.9,12.8,,,,,10,,,1,wg-a,,,,AAXX 09064 07510 02260 72312 10110 20100 30024 40097 53010 60006 70186 878// 90600 333 10128 20109 60104=
07510,1997-05-09 09:00:00,14,1011.2,1.5,77,10,10000,35.188,,,270,,,,4,,,,,,3,wg-a,,,,AAXX 09094 07510 12260 72719 10140 20100 30039 40112 53015 60047 70386 878// 90900=
07510,1997-05-09 12:00:00,15,1012.8,1.6,59,7,10000,35.188,,,280,,,,1,,,,,,1,wg-a,,,,AAXX 09124 07510 02360 62819 10150 20070 30055 40128 51016 60056 70186 86800 91200 333 60017=
07510,1997-05-09 15:00:00,16,1013.5,0.7,51,6,15000,31.484,,,270,,,,,,,,,,1,wg-a,,,,AAXX 09154 07510 02565 /2717 10160 20060 30062 40135 50007 61000 70186 86800 91500 333 ////=
07510,1997-05-09 18:00:00,14,1014.3,0.8,67,8,15000,18.52,,,260,10.9,16.4,,,,,,,,1,wg-a,,,,AAXX 09184 07510 12565 52610 10140 20080 30070 40143 51008 60006 70186 84230 91800 333 10164 20109=
07510,1997-05-09 21:00:00,11,1015.4,1,87,9,15000,7.408,,,210,,,,,,,,,,,wg-a,,,,AAXX 09214 07510 12565 /2104 10110 20090 30080 40154 53010 60006 81500 92100=
07510,1997-05-10 00:00:00,9,1015.5,0.1,100,9,10000,11.112,,,180,,,,,,,,,,,wg-a,,,,AAXX 10004 07510 12460 31806 10090 20090 30081 40155 50001 60006 83500 90000=
07510,1997-05-10 03:00:00,10,1014.3,-1.2,93,9,8000,11.112,,,180,,,,0,,,,,,,wg-a,,,,AAXX 10034 07510 12758 11806 10100 20090 30069 40143 57012 60007 81530 90300=
07510,1997-05-10 06:00:00,11,1014,-0.3,94,10,10000,11.112,,,190,9.2,14,,,,,5,,,,wg-a,,,,AAXX 10064 07510 02760 71906 10110 20100 30066 40140 55003 60006 875// 90600 333 10140 20092 60054=
07510,1997-05-10 09:00:00,14,1013.6,-0.3,77,10,10000,11.112,,,160,,,,0,,,,,,21,wg-a,,,,AAXX 10094 07510 12560 71606 10140 20100 30063 40136 57003 60007 72162 875// 90900=
07510,1997-05-10 12:00:00,20,1011.6,-1.8,56,11,15000,11.112,,,150,,,,,,,,,,3,wg-a,,,,AAXX 10124 07510 12565 71506 10200 20110 30045 40116 58018 60006 70362 86801 91200=
07510,1997-05-10 15:00:00,21,1010.8,-0.8,46,9,15000,18.52,,,250,,,,,,,,,,,wg-a,,,,AAXX 10154 07510 12665 72510 10210 20090 30037 40108 57008 60006 85802 91500=
07510,1997-05-10 18:00:00,17,1010.4,-0.5,59,9,15000,14.816,,,320,10.7,21.5,,,,,,,,,wg-a,,,,AAXX 10184 07510 12765 73208 10170 20090 30032 40104 58005 60006 84572 91800 333 10215 20107=
07510,1997-05-10 21:00:00,12,1011.2,0.7,94,11,15000,0,,,0,,,,1,,,,,,11,wg-a,,,,AAXX 10214 07510 12765 50000 10120 20110 30040 40112 50007 60017 71162 81/82 92100=
07510,1997-05-11 00:00:00,12,1012.2,1,94,11,15000,3.704,,,170,,,,,,,,,,21,wg-a,,,,AAXX 11004 07510 02765 71702 10120 20110 30049 40122 50010 60016 72161 875// 90000 333 61000=
07510,1997-05-11 03:00:00,12,1011.7,-0.5,94,11,10000,3.704,,,210,,,,1,,,,,,21,wg-a,,,,AAXX 11034 07510 12660 72102 10120 20110 30044 40117 56005 60017 72162 875// 90300=
07510,1997-05-11 06:00:00,12,1011.5,-0.2,94,11,8000,7.408,,,170,11.6,16.8,,,,,,,,60,wg-a,,,,AAXX 11064 07510 02558 71704 10120 20110 30042 40115 55002 61000 76062 875// 90600 333 10168 20116 6002=
07510,1997-05-11 09:00:00,13,1012.6,1.1,94,12,8000,0,,,0,,,,2,,,,,,21,wg-a,,,,AAXX 11094 07510 12558 80000 10130 20120 30053 40126 53011 60027 72162 8587/ 90900=
07510,1997-05-11 12:00:00,13,1014.8,2.2,88,11,27000,16.668,,,280,,,,1,,,,,,3,wg-a,,,,AAXX 11124 07510 02/77 /2809 10130 20110 30075 40148 51022 60036 70362 91200 333 60017=
07510,1997-05-11 18:00:00,15,1016.9,1.5,67,9,15000,18.52,,,240,12,16.9,,,,,,,,80,wg-a,,,,AAXX 11184 07510 02565 72410 10150 20090 30096 40169 51015 61000 78086 8587/ 91800 333 10169 20120 6100=
07510,1997-05-11 21:00:00,12,1019.4,2.4,94,11,15000,7.408,,,210,,,,,,,,,,3,wg-a,,,,AAXX 11214 07510 02565 72104 10120 20110 30120 40194 53024 61000 70386 86831 92100 333 ////=
07510,1997-05-12 00:00:00,11,1020.2,0.8,94,10,15000,7.408,,,220,,,,,,,,,,3,wg-a,,,,AAXX 12004 07510 02565 72204 10110 20100 30128 40202 51008 61000 70386 878// 90000 333 ////=
07510,1997-05-12 06:00:00,10,1021.2,1,93,9,15000,3.704,,,180,9,14.5,,,,,3,,,,wg-a,,,,AAXX 12064 07510 02565 /1802 10100 20090 30137 40212 53010 60006 86800 90600 333 10145 20090 60034=
07510,1997-05-12 09:00:00,15,1022,1,67,9,15000,0,,,0,,,,,,,,,,,wg-a,,,,AAXX 12094 07510 12465 70000 10150 20090 30147 40220 51010 60006 8483/ 90900=
07510,1997-05-12 10:00:00,17,1020.8,-0.5,59,9,15000,3.704,,,100,9.8,18.2,,,,,,,,,wg-a,,,,AAXX 12104 07510 12665 /1002 10170 20090 30151 40208 56005 60006 85832 91000 333 10182 20098=
07510,1997-05-12 12:00:00,18,1022.1,0.1,52,8,15000,3.704,,,180,,,,,,,,,,,wg-a,,,,AAXX 12124 07510 12665 71802 10180 20080 30148 40221 50001 60006 878// 91200=
07510,1997-05-12 15:00:00,18,1021.3,-0.8,56,9,15000,3.704,,,350,,,,,,,,,,,wg-a,,,,AAXX 12154 07510 12665 73502 10180 20090 30140 40213 58008 60006 878// 91500=
07510,1997-05-12 18:00:00,17,1020.8,-0.5,59,9,15000,3.704,,,100,9.8,18.2,,,,,,,,,wg-a,,,,AAXX 12184 07510 12665 61002 10170 20090 30135 40208 56005 60006 85832 91800 333 10182 20098=
07510,1997-05-12 21:00:00,14,1022,1.1,77,10,15000,3.704,,,10,,,,,,,,,,,wg-a,,,,AAXX 12214 07510 12/65 30102 10140 20100 30146 40220 53011 60006 80002 92100=
07510,1997-05-13 00:00:00,11,1021.4,-0.6,87,9,15000,7.408,,,30,,,,,,,,,,,wg-a,,,,AAXX 13004 07510 12665 30304 10110 20090 30140 40214 57006 60006 82502 90000=
07510,1997-05-13 03:00:00,11,1020.1,-1.3,94,10,10000,7.408,,,360,,,,1,,,,,,21,wg-a,,,,AAXX 13034 07510 12560 /3604 10110 20100 30127 40201 58013 60017 72161 85500 90300=
07510,1997-05-13 06:00:00,12,1019.6,-0.5,88,10,15000,11.112,,,30,10.4,17.3,,,,,1,,,2,wg-a,,,,AAXX 13064 07510 02665 /0306 10120 20100 30122 40196 57005 60006 70261 82532 90600 333 10173 20104 60014=
07510,1997-05-13 09:00:00,14,1019.7,0.2,82,11,15000,11.112,,,360,,,,,,,,,,,wg-a,,,,AAXX 13094 07510 12565 73606 10140 20110 30124 40197 52002 60006 8683/ 90900=
07510,1997-05-13 12:00:00,19,1017.9,-1.7,68,13,15000,11.112,,,60,,,,,,,,,,,wg-a,,,,AAXX 13124 07510 12565 60606 10190 20130 30107 40179 58017 60006 84832 91200=
07510,1997-05-13 15:00:00,15,1017.9,-0.1,94,14,2000,25.928,,,310,,,,5,,,,,,80,wg-a,,,,AAXX 13154 07510 12320 83114 10150 20140 30106 40179 55001 60057 78098 879// 91500=
07510,1997-05-13 18:00:00,14,1018.4,0.5,94,13,8000,14.816,,,30,12.1,20.3,,,,,,,,21,wg-a,,,,AAXX 13184 07510 02258 80308 10140 20130 30111 40184 51005 61000 72198 8698/ 91800 333 10203 20121 6024=
07510,1997-05-13 21:00:00,13,1020.5,2.1,100,13,500,3.704,,,40,,,,4,,,,,,60,wg-a,,,,AAXX 13214 07510 12300 80402 10130 20130 30132 40205 51021 60047 76062 8698/ 92100=
07510,1997-05-14 00:00:00,13,1020.6,0,100,13,500,7.408,,,360,,,,,,,,,,1,wg-a,,,,AAXX 14004 07510 02200 83604 10130 20130 30132 40206 50000 60046 70162 875// 90000 333 61000=
07510,1997-05-14 03:00:00,13,1020.2,-0.4,94,12,500,0,,,0,,,,,,,,,,50,wg-a,,,,AAXX 14034 07510 02500 80000 10130 20120 30128 40202 56004 61000 75052 875// 90300 333 ////=
07510,1997-05-14 06:00:00,13,1020.8,0.6,100,13,3500,7.408,,,90,12.5,13.6,,,,,,,,60,wg-a,,,,AAXX 14064 07510 02235 80904 10130 20130 30134 40208 53006 61000 76065 8657/ 90600 333 10136 20125 6034=
07510,1997-05-14 09:00:00,14,1021.3,0.6,94,13,8000,11.112,,,60,,,,1,,,,,,61,wg-a,,,,AAXX 14094 07510 12358 80606 10140 20130 30140 40213 51006 60017 76166 8757/ 90900=
07510,1997-05-14 12:00:00,16,1019.7,-1.6,82,13,15000,11.112,,,60,,,,0,,,,,,21,wg-a,,,,AAXX 14124 07510 02465 70606 10160 20130 30124 40197 58016 60026 72162 8587/ 91200 333 60007=
07510,1997-05-14 15:00:00,19,1018.3,-1.3,64,12,15000,7.408,,,90,,,,,,,,,,,wg-a,,,,AAXX 14154 07510 12565 70904 10190 20120 30111 40183 56013 60006 84232 91500=
07510,1997-05-14 18:00:00,19,1017.7,-0.6,68,13,15000,7.408,,,40,12.9,19.3,,,,,,,,,wg-a,,,,AAXX 14184 07510 12565 80404 10190 20130 30105 40177 55006 60006 8242/ 91800 333 10193 20129=
07510,1997-05-14 21:00:00,17,1017.9,0.2,88,15,15000,0,,,0,,,,0,,,,,,60,wg-a,,,,AAXX 14214 07510 12565 80000 10170 20150 30107 40179 53002 60007 76062 8252/ 92100=
07510,1997-05-15 00:00:00,15,1016.5,-1.5,94,14,15000,3.704,,,30,,,,2,,,,,,61,wg-a,,,,AAXX 15004 07510 02565 80302 10150 20140 30092 40165 58015 60026 76162 8357/ 90000 333 60027=
07510,1997-05-15 03:00:00,14,1014.8,-1.7,100,14,10000,3.704,,,50,,,,0,,,,,,1,wg-a,,,,AAXX 15034 07510 12760 /0502 10140 20140 30075 40148 56017 60007 70162 85530 90300=
07510,1997-05-15 06:00:00,14,1014.7,-0.1,100,14,4000,3.704,,,70,13,18.5,,,,,4,,,40,wg-a,,,,AAXX 15064 07510 02740 30702 10140 20140 30074 40147 55001 60006 74061 81530 90600 333 10185 20130 60044=
07510,1997-05-15 09:00:00,20,1014.1,-0.4,68,14,10000,7.408,,,100,,,,,,,,,,,wg-a,,,,AAXX 15094 07510 12460 /1004 10200 20140 30070 40141 58004 60006 81102 90900=
07510,1997-05-15 12:00:00,23,1013,-1,61,15,15000,11.112,,,110,,,,,,,,,,,wg-a,,,,AAXX 15124 07510 12565 61106 10230 20150 30060 40130 58010 60006 83232 91200=
07510,1997-05-15 15:00:00,23,1011.8,-1.2,57,14,15000,14.816,,,130,,,,,,,,,,,wg-a,,,,AAXX 15154 07510 12565 81308 10230 20140 30048 40118 57012 60006 8127/ 91500=
07510,1997-05-15 18:00:00,21,1012.1,0.2,69,15,15000,7.408,,,130,14.4,24.1,,,,,,,,,wg-a,,,,AAXX 15184 07510 12565 71304 10210 20150 30050 40121 53002 60006 81282 91800 333 10241 20144=
07510,1997-05-15 21:00:00,19,1012.6,0.5,83,16,10000,3.704,,,140,,,,,,,,,,60,wg-a,,,,AAXX 15214 07510 02760 71402 10190 20160 30055 40126 53005 61000 76062 8558/ 92100 333 ////=
07510,1997-05-16 00:00:00,18,1011.2,-1.5,88,16,10000,11.112,,,120,,,,0,,,,,,3,wg-a,,,,AAXX 16004 07510 02760 71206 10180 20160 30040 40112 56015 60016 70362 8358/ 90000 333 60007=
07510,1997-05-16 03:00:00,17,1010.9,-0.3,94,16,10000,0,,,0,,,,0,,,,,,,wg-a,,,,AAXX 16034 07510 12760 70000 10170 20160 30037 40109 58003 60007 8458/ 90300=
07510,1997-05-16 06:00:00,17,1010.8,-0.1,94,16,500,7.408,,,90,16.5,21.2,,,,,,,,21,wg-a,,,,AAXX 16064 07510 02700 70904 10170 20160 30036 40108 55001 61000 72162 83572 90600 333 10212 20165 6001=
07510,1997-05-16 09:00:00,21,1011.2,0.5,60,13,15000,11.112,,,120,,,,,,,,,,,wg-a,,,,AAXX 16094 07510 12765 31206 10210 20130 30041 40112 50005 60006 81532 90900=
07510,1997-05-16 12:00:00,24,1010.2,-0.9,54,14,15000,7.408,,,90,,,,,,,,,,,wg-a,,,,AAXX 16124 07510 12665 40904 10240 20140 30032 40102 58009 60006 83992 91200=
07510,1997-05-16 18:00:00,17,1010.9,0.1,88,15,3000,22.224,,,100,15.3,24.9,,,,,,,,80,wg-a,,,,AAXX 16184 07510 02530 71012 10170 20150 30037 40109 53001 61000 78098 8599/ 91800 333 10249 20153 6006=
07510,1997-05-16 21:00:00,16,1011.7,0.8,94,15,8000,7.408,,,240,,,,1,,,,,,80,wg-a,,,,AAXX 16214 07510 12658 72404 10160 20150 30045 40117 53008 60017 78096 8499/ 92100=
07510,1997-05-17 00:00:00,15,1011.8,0.1,94,14,3500,11.112,,,190,,,,11,,,,,,29,wg-a,,,,AAXX 17004 07510 02135 41906 10150 20140 30046 40118 51001 60126 72996 8278/ 90000 333 60117=
07510,1997-05-17 03:00:00,15,1011.2,-0.6,100,15,800,3.704,,,160,,,,,,,,,,45,wg-a,,,,AAXX 17034 07510 32/08 91602 10150 20150 30040 40112 56006 74565 89/// 90300=
07510,1997-05-17 06:00:00,14,1011.7,0.4,100,14,800,7.408,,,110,14.1,16.9,,,,,26,,,10,wg-a,,,,AAXX 17064 07510 02108 71104 10140 20140 30044 40117 53004 60006 71065 876// 90600 333 10169 20141 60264=
07510,1997-05-17 09:00:00,15,1012.9,1.2,94,14,7000,7.408,,,160,,,,1,,,,,,60,wg-a,,,,AAXX 17094 07510 12457 71604 10150 20140 30056 40129 51012 60017 76064 8453/ 90900=
07510,1997-05-17 12:00:00,17,1012.6,-0.2,88,15,12000,11.112,,,320,,,,10,,,,,,25,wg-a,,,,AAXX 17124 07510 02462 73206 10170 20150 30054 40126 58002 60106 72586 8587/ 91200 333 60107=
07510,1997-05-17 15:00:00,17,1013,0.4,72,12,11000,25.928,,,260,,,,,,,,,,,wg-a,,,,AAXX 17154 07510 12/61 /2614 10170 20120 30058 40130 53004 60006 91500=
07510,1997-05-17 18:00:00,16,1013.7,0.7,72,11,20000,22.224,,,240,14.3,18.9,,,,,,,,,wg-a,,,,AAXX 17184 07510 12570 72412 10160 20110 30065 40137 53007 60006 85802 91800 333 10189 20143=
07510,1997-05-18 00:00:00,12,1015.3,0,94,11,15000,14.816,,,190,,,,,,,,,,,wg-a,,,,AAXX 18004 07510 12465 41908 10120 20110 30080 40153 50000 60006 83802 90000=
07510,1997-05-18 03:00:00,10,1014.5,-0.9,100,10,8000,0,,,0,,,,,,,,,,11,wg-a,,,,AAXX 18034 07510 12458 /0000 10100 20100 30071 40145 56009 60006 71111 81500 90300=
07510,1997-05-18 06:00:00,11,1014.1,-0.4,100,11,1000,7.408,,,160,9.8,16,,,,,11,,,28,wg-a,,,,AAXX 18064 07510 02110 91604 10110 20110 30067 40141 56004 60006 72841 8960/ 90600 333 10160 20098 60114=
07510,1997-05-18 09:00:00,18,1012.9,-1,68,12,15000,18.52,,,130,,,,,,,,,,,wg-a,,,,AAXX 18094 07510 12465 31310 10180 20120 30057 40129 58010 60006 82802 90900=
07510,1997-05-18 12:00:00,22,1011.4,-1.4,57,13,15000,18.52,,,120,,,,,,,,,,,wg-a,,,,AAXX 18124 07510 12665 51210 10220 20130 30043 40114 58014 60006 84202 91200=
07510,1997-05-18 18:00:00,22,1008.2,-0.9,50,11,15000,25.928,,,130,10.9,23.7,,,,,,,,,wg-a,,,,AAXX 18184 07510 12665 61314 10220 20110 30011 40082 56009 60006 82832 91800 333 10237 20109=
07510,1997-05-18 21:00:00,19,1007.5,-0.7,64,12,15000,22.224,,,130,,,,,,,,,,,wg-a,,,,AAXX 18214 07510 12765 71312 10190 20120 30004 40075 58007 60006 8453/ 92100=
07510,1997-05-19 00:00:00,18,1006.5,-1,73,13,15000,14.816,,,130,,,,,,,,,,60,wg-a,,,,AAXX 19004 07510 02765 71308 10180 20130 39994 40065 58010 61000 76062 8453/ 90000 333 6100=
07510,1997-05-19 03:00:00,17,1005.6,-1,82,14,15000,14.816,,,360,,,,1,,,,,,60,wg-a,,,,AAXX 19034 07510 12765 73608 10170 20140 39984 40056 56010 60017 76062 8457/ 90300=
07510,1997-05-19 06:00:00,15,1007.2,1.6,100,15,8000,11.112,,,120,15,21.6,,,,,,,,21,wg-a,,,,AAXX 19064 07510 02258 71206 10150 20150 30000 40072 50016 61000 72162 8587/ 90600 333 10216 20150 6002=
07510,1997-05-19 09:00:00,19,1008.5,1,78,15,15000,14.816,,,240,,,,,,,,,,3,wg-a,,,,AAXX 19094 07510 02465 /2408 10190 20150 30014 40085 51010 61000 70386 83882 90900 333 ////=
07510,1997-05-19 12:00:00,23,1008.1,0.1,38,8,20000,35.188,,,230,,,,,,,,,,3,wg-a,,,,AAXX 19124 07510 02670 52319 10230 20080 30011 40081 50001 61000 70386 83232 91200 333 ////=
07510,1997-05-19 15:00:00,24,1007.8,-0.3,34,7,20000,35.188,,,240,,,,,,,,,,,wg-a,,,,AAXX 19154 07510 12670 22419 10240 20070 30008 40078 58003 60006 81980 91500=
07510,1997-05-19 18:00:00,23,1007.2,-0.6,36,7,20000,14.816,,,260,15.1,24.1,,,,,,,,,wg-a,,,,AAXX 19184 07510 12670 /2608 10230 20070 30002 40072 56006 60006 81900 91800 333 10241 20151=
07510,1997-05-19 21:00:00,15,1009.8,2.4,88,13,500,31.484,,,190,,,,2,,,,,,95,wg-a,,,,AAXX 19214 07510 12200 71917 10150 20130 30026 40098 53024 60027 79598 879// 92100=
07510,1997-05-20 00:00:00,14,1009.3,-0.5,94,13,20000,11.112,,,210,,,,1,,,,,,1,wg-a,,,,AAXX 20004 07510 02770 62106 10140 20130 30021 40093 56005 60036 70198 83480 90000 333 60017=
07510,1997-05-20 03:00:00,13,1010.2,0.8,88,11,20000,7.408,,,210,,,,,,,,,,,wg-a,,,,AAXX 20034 07510 12670 /2104 10130 20110 30029 40102 51008 60006 81580 90300=
07510,1997-05-20 06:00:00,13,1011.2,1,88,11,20000,7.408,,,210,11.1,23,,,,,3,,,,wg-a,,,,AAXX 20064 07510 02470 /2104 10130 20110 30039 40112 52010 60006 83800 90600 333 10230 20111 60034=
07510,1997-05-20 09:00:00,18,1011.9,0.8,59,10,20000,29.632,,,240,,,,,,,,,,,wg-a,,,,AAXX 20094 07510 12570 62416 10180 20100 30047 40119 53008 60006 86800 90900=
07510,1997-05-20 12:00:00,19,1012.7,0.8,52,9,20000,35.188,,,250,,,,,,,,,,,wg-a,,,,AAXX 20124 07510 12570 /2519 10190 20090 30055 40127 51008 60006 86800 91200=
07510,1997-05-20 15:00:00,20,1012.5,-0.1,46,8,20000,35.188,,,270,,,,,,,,,,,wg-a,,,,AAXX 20154 07510 12670 42719 10200 20080 30054 40125 56001 60006 84200 91500=
07510,1997-05-20 18:00:00,18,1013.4,0.8,52,8,20000,25.928,,,270,12.6,20.1,,,,,,,,,wg-a,,,,AAXX 20184 07510 12670 /2714 10180 20080 30062 40134 53008 60006 81100 91800 333 10201 20126=
07510,1997-05-20 21:00:00,14,1015,1.5,82,11,15000,11.112,,,250,,,,,,,,,,,wg-a,,,,AAXX 20214 07510 12665 32506 10140 20110 30077 40150 51015 60006 83800 92100=
07510,1997-05-21 00:00:00,13,1015.1,0.1,88,11,15000,11.112,,,250,,,,,,,,,,,wg-a,,,,AAXX 21004 07510 12565 32506 10130 20110 30078 40151 52001 60006 83800 90000=
07510,1997-05-21 03:00:00,12,1014.6,-0.5,100,12,15000,11.112,,,220,,,,,,,,,,,wg-a,,,,AAXX 21034 07510 12565 /2206 10120 20120 30073 40146 58005 60006 84500 90300=
07510,1997-05-21 06:00:00,14,1015.4,0.8,88,12,10000,14.816,,,250,12,18,,,,,,,,,wg-a,,,,AAXX 21064 07510 02460 72508 10140 20120 30081 40154 53008 60006 878// 90600 333 10180 20120 60004=
07510,1997-05-21 12:00:00,18,1016.5,0.5,56,9,15000,22.224,,,300,,,,,,,,,,3,wg-a,,,,AAXX 21124 07510 12665 /3012 10180 20090 30093 40165 53005 60006 70386 86200 91200=
07510,1997-05-21 15:00:00,19,1016.5,-0,49,8,15000,25.928,,,290,,,,,,,,,,,wg-a,,,,AAXX 21154 07510 12665 /2914 10190 20080 30093 40165 55000 60006 86200 91500=
07510,1997-05-21 18:00:00,17,1017.1,0.6,59,9,15000,22.224,,,300,14.1,19.7,,,,,,,,,wg-a,,,,AAXX 21184 07510 12665 43012 10170 20090 30099 40171 51006 60006 84200 91800 333 10197 20141=
07510,1997-05-22 00:00:00,10,1018.6,-0.3,100,10,15000,7.408,,,220,,,,,,,,,,,wg-a,,,,AAXX 22004 07510 12/65 42204 10100 20100 30112 40186 58003 60006 84030 90000=
07510,1997-05-22 03:00:00,10,1018,-0.6,93,9,15000,11.112,,,220,,,,,,,,,,,wg-a,,,,AAXX 22034 07510 12665 32206 10100 20090 30106 40180 57006 60006 82830 90300=
07510,1997-05-22 06:00:00,10,1018,-0,100,10,15000,3.704,,,150,9.1,17.2,,,,,,,,,wg-a,,,,AAXX 22064 07510 02665 /1502 10100 20100 30106 40180 55000 60006 81802 90600 333 10172 20091 60004=
07510,1997-05-22 09:00:00,17,1018,0.2,59,9,15000,3.704,,,180,,,,,,,,,,,wg-a,,,,AAXX 22094 07510 12565 61802 10170 20090 30108 40180 50002 60006 85802 90900=
07510,1997-05-22 12:00:00,20,1017.2,-0.8,49,9,15000,7.408,,,240,,,,,,,,,,,wg-a,,,,AAXX 22124 07510 12665 72404 10200 20090 30100 40172 58008 60006 878// 91200=
07510,1997-05-22 18:00:00,21,1014.7,-0.9,46,9,15000,14.816,,,30,10.4,21.8,,,,,,,,,wg-a,,,,AAXX 22184 07510 12765 50308 10210 20090 30076 40147 56009 60006 82802 91800 333 10218 20104=
07510,1997-05-22 21:00:00,16,1015.2,0.4,77,12,15000,11.112,,,40,,,,,,,,,,,wg-a,,,,AAXX 22214 07510 12/65 70406 10160 20120 30080 40152 53004 60006 80002 92100=
07510,1997-05-23 00:00:00,16,1013.9,-1.3,72,11,15000,11.112,,,110,,,,,,,,,,,wg-a,,,,AAXX 23004 07510 12/65 71106 10160 20110 30067 40139 58013 60006 80002 90000=
07510,1997-05-23 03:00:00,15,1012.9,-1.1,72,10,15000,11.112,,,100,,,,,,,,,,,wg-a,,,,AAXX 23034 07510 12/65 71006 10150 20100 30056 40129 57011 60006 80002 90300=
07510,1997-05-23 06:00:00,15,1012.8,-0,72,10,15000,14.816,,,100,14.6,20.7,,,,,,,,,wg-a,,,,AAXX 23064 07510 02765 71008 10150 20100 30056 40128 55000 60006 81532 90600 333 10207 20146 60004=
07510,1997-05-23 09:00:00,21,1012.1,-0.6,53,11,15000,22.224,,,110,,,,,,,,,,,wg-a,,,,AAXX 23094 07510 12665 71112 10210 20110 30050 40121 58006 60006 81102 90900=
07510,1997-05-23 12:00:00,24,1011.6,-0.4,44,11,15000,25.928,,,130,,,,,,,,,,,wg-a,,,,AAXX 23124 07510 12/65 71314 10240 20110 30046 40116 57004 60006 80002 91200=
07510,1997-05-23 15:00:00,25,1010.4,-1.2,47,13,15000,11.112,,,90,,,,,,,,,,,wg-a,,,,AAXX 23154 07510 12765 50906 10250 20130 30034 40104 56012 60006 814/2 91500=
07510,1997-05-23 18:00:00,25,1009.9,-0.5,47,13,15000,18.52,,,90,15.4,26,,,,,,,,,wg-a,,,,AAXX 23184 07510 12/65 70910 10250 20130 30029 40099 56005 60006 82082 91800 333 10260 20154=
07510,1997-05-23 21:00:00,23,1010.2,0.3,53,13,15000,14.816,,,70,,,,,,,,,,13,wg-a,,,,AAXX 23214 07510 12665 70708 10230 20130 30032 40102 53003 60006 71322 8598/ 92100=
07510,1997-05-24 00:00:00,17,1011.6,1.2,82,14,10000,18.52,,,40,,,,4,,,,,,17,wg-a,,,,AAXX 24004 07510 02560 70410 10170 20140 30044 40116 52012 60046 71798 8599/ 90000 333 60047=
07510,1997-05-24 03:00:00,17,1011.9,0.3,88,15,15000,11.112,,,160,,,,,,,,,,80,wg-a,,,,AAXX 24034 07510 02565 71606 10170 20150 30047 40119 53003 61000 78098 879// 90300 333 ////=
07510,1997-05-24 06:00:00,16,1012.7,0.8,94,15,3000,11.112,,,20,15.9,24.7,,,,,5,,,40,wg-a,,,,AAXX 24064 07510 02/30 /0206 10160 20150 30055 40127 50008 60006 740// 90600 333 10247 20159 60054=
07510,1997-05-24 09:00:00,18,1013.4,0.7,88,16,7000,14.816,,,80,,,,1,,,,,,1,wg-a,,,,AAXX 24094 07510 12357 50808 10180 20160 30062 40134 53007 60017 70186 85870 90900=
07510,1997-05-24 12:00:00,23,1013.5,0.3,69,17,10000,18.52,,,100,,,,,,,,,,1,wg-a,,,,AAXX 24124 07510 12460 41010 10230 20170 30065 40135 50003 60016 70186 83170 91200=
07510,1997-05-24 15:00:00,26,1013.4,-0.1,54,16,10000,11.112,,,100,,,,,,,,,,,wg-a,,,,AAXX 24154 07510 12660 41006 10260 20160 30064 40134 57001 60006 84200 91500=
07510,1997-05-24 18:00:00,25,1013.2,-0.2,54,15,15000,18.52,,,80,15.2,26.4,,,,,,,,,wg-a,,,,AAXX 24184 07510 12665 /0810 10250 20150 30062 40132 56002 60006 82101 91800 333 10264 20152=
07510,1997-05-25 00:00:00,19,1014.8,-0.1,83,16,15000,11.112,,,60,,,,,,,,,,,wg-a,,,,AAXX 25004 07510 12765 60606 10190 20160 30077 40148 58001 60006 82531 90000=
07510,1997-05-25 03:00:00,17,1014.9,-0,88,15,15000,11.112,,,50,,,,,,,,,,,wg-a,,,,AAXX 25034 07510 12765 60506 10170 20150 30077 40149 55000 60006 82531 90300=
07510,1997-05-25 06:00:00,17,1015.4,0.5,88,15,10000,14.816,,,50,16.3,25.1,,,,,1,,,,wg-a,,,,AAXX 25064 07510 02/60 80508 10170 20150 30082 40154 50005 60006 83037 90600 333 10251 20163 60014=
07510,1997-05-25 09:00:00,21,1015.4,0.1,64,14,15000,18.52,,,60,,,,,,,,,,,wg-a,,,,AAXX 25094 07510 12/65 70610 10210 20140 30083 40154 50001 60006 8703/ 90900=
07510,1997-05-25 12:00:00,24,1015.4,0.1,50,13,15000,18.52,,,110,,,,,,,,,,,wg-a,,,,AAXX 25124 07510 12/65 71110 10240 20130 30084 40154 50001 60006 8703/ 91200=
07510,1997-05-25 15:00:00,25,1015,-0.4,54,15,15000,18.52,,,90,,,,,,,,,,,wg-a,,,,AAXX 25154 07510 12/65 70910 10250 20150 30080 40150 58004 60006 8707/ 91500=
07510,1997-05-25 18:00:00,24,1015.3,0.3,50,13,15000,14.816,,,110,16.7,24.8,,,,,,,,,wg-a,,,,AAXX 25184 07510 12765 61108 10240 20130 30083 40153 53003 60006 81570 91800 333 10248 20167=
07510,1997-05-25 21:00:00,21,1016.2,0.8,64,14,15000,11.112,,,60,,,,,,,,,,,wg-a,,,,AAXX 25214 07510 12765 50606 10210 20140 30091 40162 53008 60006 81570 92100=
07510,1997-05-26 00:00:00,19,1016.1,-0.2,64,12,15000,14.816,,,90,,,,,,,,,,,wg-a,,,,AAXX 26004 07510 12/65 50908 10190 20120 30089 40161 58002 60006 80001 90000=
07510,1997-05-26 06:00:00,18,1016.6,-0.3,68,12,15000,11.112,,,100,15.7,24,,,,,,,,,wg-a,,,,AAXX 26064 07510 02/65 11006 10180 20120 30094 40166 56003 60006 81030 90600 333 10240 20157 60004=
07510,1997-05-26 09:00:00,24,1018,1.5,44,11,15000,18.52,,,120,,,,,,,,,,,wg-a,,,,AAXX 26094 07510 12765 21210 10240 20110 30109 40180 53015 60006 82100 90900=
07510,1997-05-26 12:00:00,28,1017,-0.9,40,13,10000,14.816,,,70,,,,,,,,,,,wg-a,,,,AAXX 26124 07510 12/60 /0708 10280 20130 30100 40170 58009 60006 91200=
07510,1997-05-26 15:00:00,29,1015.8,-1.1,40,14,15000,14.816,,,100,,,,,,,,,,,wg-a,,,,AAXX 26154 07510 12/65 11008 10290 20140 30089 40158 57011 60006 81080 91500=
07510,1997-05-26 18:00:00,29,1014.7,-1.1,43,15,15000,14.816,,,70,18,29.7,,,,,,,,,wg-a,,,,AAXX 26184 07510 12/65 30708 10290 20150 30078 40147 56011 60006 83080 91800 333 10297 20180=
07510,1997-05-26 21:00:00,25,1015.2,0.4,65,18,15000,11.112,,,30,,,,,,,,,,,wg-a,,,,AAXX 26214 07510 12765 20306 10250 20180 30082 40152 52004 60006 82580 92100=
07510,1997-05-27 00:00:00,21,1014.9,-0.4,73,16,15000,11.112,,,40,,,,,,,,,,,wg-a,,,,AAXX 27004 07510 12765 30406 10210 20160 30078 40149 58004 60006 82530 90000=
07510,1997-05-27 03:00:00,18,1014.6,-0.4,83,15,15000,3.704,,,260,,,,,,,,,,,wg-a,,,,AAXX 27034 07510 12765 12602 10180 20150 30074 40146 56004 60006 81500 90300=
07510,1997-05-27 06:00:00,18,1015.2,0.6,88,16,10000,14.816,,,240,16.7,29,,,,,,,,,wg-a,,,,AAXX 27064 07510 02/60 42408 10180 20160 30080 40152 53006 60006 82081 90600 333 10290 20167 60004=
07510,1997-05-27 08:00:00,18,1015.2,0.6,88,16,10000,14.816,,,240,16.7,29,,,,,,,,,wg-a,,,,AAXX 27084 07510 02/60 42408 10180 20160 30080 40152 53006 60006 82081 90800 333 10290 20167 60004=
07510,1997-05-27 09:00:00,23,1015.4,0.3,69,17,15000,3.704,,,110,,,,,,,,,,,wg-a,,,,AAXX 27094 07510 12/65 51102 10230 20170 30083 40154 50003 60006 84081 90900=
07510,1997-05-27 12:00:00,30,1014.5,-0.7,33,12,15000,7.408,,,230,,,,,,,,,,,wg-a,,,,AAXX 27124 07510 12765 12304 10300 20120 30076 40145 58007 60006 81101 91200=
07510,1997-05-27 18:00:00,27,1013.3,-0.1,48,15,15000,11.112,,,330,17.5,30.9,,,,,,,,,wg-a,,,,AAXX 27184 07510 12/65 03306 10270 20150 30064 40133 55001 60006 80000 91800 333 10309 20175=
07510,1997-05-28 00:00:00,19,1016.2,1.1,88,17,8000,14.816,,,340,,,,,,,,,,80,wg-a,,,,AAXX 28004 07510 02258 73408 10190 20170 30090 40162 50011 61000 78098 8598/ 90000 333 ////=
07510,1997-05-28 03:00:00,17,1014.3,-1.9,94,16,10000,3.704,,,250,,,,,,,,,,1,wg-a,,,,AAXX 28034 07510 32/60 42502 10170 20160 30071 40143 56019 70198 83032 90300=
07510,1997-05-28 06:00:00,16,1015.6,1.3,94,15,12000,7.408,,,330,,,,,,,,,,3,wg-a,,,,AAXX 28064 07510 12/62 33304 10160 20150 30084 40156 52013 60006 70398 83032 90600=
07510,1997-05-28 09:00:00,21,1015.9,0.4,69,15,12000,11.112,,,30,,,,,,,,,,,wg-a,,,,AAXX 28094 07510 12562 /0306 10210 20150 30088 40159 50004 60006 81230 90900=
07510,1997-05-28 12:00:00,26,1015.5,-0.3,51,15,12000,14.816,,,30,,,,,,,,,,,wg-a,,,,AAXX 28124 07510 12562 /0308 10260 20150 30085 40155 57003 60006 81201 91200=
07510,1997-05-28 18:00:00,27,1014.5,0.1,39,12,15000,18.52,,,30,16.3,28.6,,,,,,,,,wg-a,,,,AAXX 28184 07510 12/65 50310 10270 20120 30075 40145 53001 60006 80002 91800 333 10286 20163=
07510,1997-05-28 21:00:00,22,1016.3,1.7,53,12,15000,18.52,,,40,,,,,,,,,,,wg-a,,,,AAXX 28214 07510 12/65 30410 10220 20120 30092 40163 53017 60006 81032 92100=
07510,1997-05-29 00:00:00,18,1016.4,0,56,9,15000,14.816,,,50,,,,,,,,,,,wg-a,,,,AAXX 29004 07510 12/65 20508 10180 20090 30092 40164 50000 60006 80002 90000=
07510,1997-05-29 03:00:00,15,1016.7,0.2,59,7,15000,11.112,,,50,,,,,,,,,,,wg-a,,,,AAXX 29034 07510 12/65 20506 10150 20070 30094 40167 51002 60006 80002 90300=
07510,1997-05-29 06:00:00,15,1016.9,0.2,55,6,20000,11.112,,,60,14.1,27.3,,,,,,,,,wg-a,,,,AAXX 29064 07510 02/70 40606 10150 20060 30096 40169 52002 60006 80002 90600 333 10273 20141 60004=
07510,1997-05-29 09:00:00,21,1017.2,0.5,46,9,20000,7.408,,,90,,,,,,,,,,,wg-a,,,,AAXX 29094 07510 12/70 40904 10210 20090 30101 40172 50005 60006 80002 90900=
07510,1997-05-29 12:00:00,27,1017.4,0.3,39,12,20000,14.816,,,90,,,,,,,,,,,wg-a,,,,AAXX 29124 07510 12/70 50908 10270 20120 30104 40174 52003 60006 80002 91200=
07510,1997-05-29 15:00:00,30,1016.4,-0.9,35,13,20000,7.408,,,130,,,,,,,,,,,wg-a,,,,AAXX 29154 07510 12/70 71304 10300 20130 30095 40164 56009 60006 81082 91500=
07510,1997-05-29 18:00:00,29,1016.4,-0,43,15,20000,11.112,,,110,15.4,30.4,,,,,,,,,wg-a,,,,AAXX 29184 07510 12/70 61106 10290 20150 30095 40164 55000 60006 80002 91800 333 10304 20154=
07510,1997-05-29 21:00:00,24,1017.4,0.9,61,16,20000,11.112,,,110,,,,,,,,,,,wg-a,,,,AAXX 29214 07510 12/70 61106 10240 20160 30104 40174 53009 60006 80002 92100=
07510,1997-05-30 00:00:00,22,1017.8,0.3,65,15,15000,11.112,,,140,,,,,,,,,,,wg-a,,,,AAXX 30004 07510 12/65 51406 10220 20150 30107 40178 50003 60006 80002 90000=
07510,1997-05-30 03:00:00,19,1018.5,0.6,64,12,15000,14.816,,,120,,,,,,,,,,,wg-a,,,,AAXX 30034 07510 12/65 71208 10190 20120 30113 40185 53006 60006 80002 90300=
07510,1997-05-30 06:00:00,18,1018.8,0.3,68,12,15000,11.112,,,110,17.2,28.9,,,,,,,,,wg-a,,,,AAXX 30064 07510 02/65 71106 10180 20120 30116 40188 52003 60006 81032 90600 333 10289 20172 60004=
07510,1997-05-30 09:00:00,24,1018.5,-0.2,44,11,15000,11.112,,,110,,,,,,,,,,,wg-a,,,,AAXX 30094 07510 12/65 71106 10240 20110 30114 40185 55002 60006 81032 90900=
07510,1997-05-30 12:00:00,27,1016.8,-1.6,42,13,15000,18.52,,,70,,,,,,,,,,,wg-a,,,,AAXX 30124 07510 12/65 70710 10270 20130 30098 40168 58016 60006 81032 91200=
07510,1997-05-30 15:00:00,29,1015.1,-1.6,40,14,15000,14.816,,,80,,,,,,,,,,,wg-a,,,,AAXX 30154 07510 12/65 70808 10290 20140 30082 40151 57016 60006 81032 91500=
07510,1997-05-30 18:00:00,29,1013.2,-1.9,37,13,15000,18.52,,,60,18.4,29.7,,,,,,,,,wg-a,,,,AAXX 30184 07510 12/65 30610 10290 20130 30063 40132 56019 60006 80002 91800 333 10297 20184=
07510,1997-05-30 21:00:00,25,1013.2,-0.1,44,12,15000,14.816,,,50,,,,,,,,,,,wg-a,,,,AAXX 30214 07510 12/65 30508 10250 20120 30062 40132 55001 60006 80002 92100=
07510,1997-05-31 00:00:00,22,1012.3,-1,46,10,15000,14.816,,,60,,,,,,,,,,,wg-a,,,,AAXX 31004 07510 12/65 20608 10220 20100 30052 40123 58010 60006 80002 90000=
07510,1997-05-31 03:00:00,20,1011.1,-1.2,49,9,15000,11.112,,,70,,,,,,,,,,,wg-a,,,,AAXX 31034 07510 12/65 60706 10200 20090 30040 40111 56012 60006 80002 90300=
07510,1997-05-31 06:00:00,20,1010.3,-0.8,53,10,20000,11.112,,,80,18.5,29.1,,,,,,,,,wg-a,,,,AAXX 31064 07510 02/70 70806 10200 20100 30032 40103 58008 60006 81082 90600 333 10291 20185 60004=
07510,1997-05-31 09:00:00,23,1010.1,-0.1,53,13,20000,3.704,,,120,,,,,,,,,,,wg-a,,,,AAXX 31094 07510 12/70 71202 10230 20130 30031 40101 58001 60006 83052 90900=
07510,1997-05-31 12:00:00,27,1009.5,-0.5,51,16,20000,22.224,,,280,,,,,,,,,,,wg-a,,,,AAXX 31124 07510 12570 72812 10270 20160 30026 40095 57005 60006 83982 91200=
07510,1997-05-31 15:00:00,26,1008.6,-1,48,14,20000,18.52,,,320,,,,,,,,,,,wg-a,,,,AAXX 31154 07510 12670 73210 10260 20140 30016 40086 58010 60006 83282 91500=
07510,1997-05-31 18:00:00,25,1008.1,-0.5,50,14,20000,11.112,,,300,19.6,28,,,,,,,,,wg-a,,,,AAXX 31184 07510 12670 73006 10250 20140 30011 40081 55005 60006 82982 91800 333 10280 20196=
07510,1997-06-01 00:00:00,18,1008,-0.6,88,16,15000,11.112,,,230,,,,,,,,,,17,wg-a,,,,AAXX 01004 07510 12465 72306 10180 20160 30009 40080 57006 60006 71792 8698/ 90000=
07510,1997-06-01 03:00:00,17,1005.7,-2.3,94,16,15000,7.408,,,290,,,,1,,,,,,80,wg-a,,,,AAXX 01034 07510 12465 72904 10170 20160 39986 40057 56023 60017 78098 8698/ 90300=
07510,1997-06-01 06:00:00,17,1004.7,-1,94,16,8000,3.704,,,90,16.8,24.7,,,,,,,,60,wg-a,,,,AAXX 01064 07510 02558 70902 10170 20160 39976 40047 56010 61000 76098 8698/ 90600 333 10247 20168 6002=
07510,1997-06-01 09:00:00,18,1004.3,-0.4,88,16,10000,3.704,,,100,,,,,,,,,,21,wg-a,,,,AAXX 01094 07510 02360 71002 10180 20160 39972 40043 58004 61000 72162 8687/ 90900 333 ////=
07510,1997-06-01 12:00:00,16,1004.8,0.4,94,15,500,3.704,,,170,,,,2,,,,,,60,wg-a,,,,AAXX 01124 07510 02300 81702 10160 20150 39976 40048 50004 60026 76062 868// 91200 333 60027=
07510,1997-06-01 15:00:00,14,1005.3,0.5,88,12,8000,18.52,,,20,,,,0,,,,,,60,wg-a,,,,AAXX 01154 07510 12258 80210 10140 20120 39981 40053 51005 60007 76062 8557/ 91500=
07510,1997-06-01 18:00:00,15,1006.1,0.8,72,10,10000,18.52,,,40,13.7,18.6,,,,,,,,21,wg-a,,,,AAXX 01184 07510 02660 70410 10150 20100 39989 40061 53008 61000 72162 8557/ 91800 333 10186 20137 6100=
07510,1997-06-01 21:00:00,14,1007.5,1.4,72,9,10000,7.408,,,40,,,,,,,,,,,wg-a,,,,AAXX 01214 07510 12660 70404 10140 20090 30003 40075 53014 60006 875// 92100=
07510,1997-06-02 00:00:00,13,1007.5,-0.1,82,10,11000,7.408,,,330,,,,,,,,,,,wg-a,,,,AAXX 02004 07510 02/61 /3304 10130 20100 30002 40075 56001 61000 90000 333 ////=
07510,1997-06-02 06:00:00,12,1009.5,1.6,76,8,15000,3.704,,,290,9.3,15,,,,,2,,,,wg-a,,,,AAXX 02064 07510 02765 12902 10120 20080 30022 40095 53016 60006 81530 90600 333 10150 20093 60024=
07510,1997-06-02 09:00:00,18,1010.9,1.5,56,9,15000,3.704,,,290,,,,,,,,,,,wg-a,,,,AAXX 02094 07510 12/65 12902 10180 20090 30037 40109 51015 60006 81030 90900=
07510,1997-06-02 12:00:00,21,1011.8,1,40,7,15000,14.816,,,240,,,,,,,,,,,wg-a,,,,AAXX 02124 07510 12665 /2408 10210 20070 30047 40118 51010 60006 81100 91200=
07510,1997-06-02 18:00:00,20,1012.8,0.6,40,6,20000,18.52,,,330,11.6,22.2,,,,,,,,,wg-a,,,,AAXX 02184 07510 12770 73310 10200 20060 30057 40128 53006 60006 81432 91800 333 10222 20116=
07510,1997-06-02 21:00:00,16,1014.1,1.2,51,6,20000,7.408,,,10,,,,,,,,,,,wg-a,,,,AAXX 02214 07510 12/70 70104 10160 20060 30069 40141 53012 60006 83052 92100=
07510,1997-06-03 00:00:00,15,1015.2,1,59,7,20000,3.704,,,10,,,,,,,,,,,wg-a,,,,AAXX 03004 07510 12670 70102 10150 20070 30079 40152 51010 60006 8357/ 90000=
07510,1997-06-03 03:00:00,14,1015.6,0.4,77,10,15000,7.408,,,320,,,,0,,,,,,1,wg-a,,,,AAXX 03034 07510 12665 73204 10140 20100 30083 40156 53004 60007 70162 8357/ 90300=
07510,1997-06-03 06:00:00,14,1016.4,0.8,77,10,10000,3.704,,,270,12.7,20,,,,,,,,,wg-a,,,,AAXX 03064 07510 02/60 /2702 10140 20100 30091 40164 53008 60006 90600 333 10200 20127 60004=
07510,1997-06-03 09:00:00,19,1016.9,0.6,40,5,15000,7.408,,,110,,,,,,,,,,,wg-a,,,,AAXX 03094 07510 12665 31104 10190 20050 30097 40169 52006 60006 81131 90900=
07510,1997-06-03 12:00:00,22,1016.7,-0.1,43,9,15000,11.112,,,180,,,,,,,,,,,wg-a,,,,AAXX 03124 07510 12765 61806 10220 20090 30096 40167 58001 60006 82101 91200=
07510,1997-06-03 15:00:00,24,1015.7,-1,41,10,15000,3.704,,,130,,,,,,,,,,,wg-a,,,,AAXX 03154 07510 12765 61302 10240 20100 30086 40157 58010 60006 85201 91500=
07510,1997-06-03 18:00:00,24,1014.6,-1.1,41,10,15000,11.112,,,110,14.2,24.7,,,,,,,,,wg-a,,,,AAXX 03184 07510 12765 61106 10240 20100 30075 40146 56011 60006 84201 91800 333 10247 20142=
07510,1997-06-03 21:00:00,21,1015.3,0.7,46,9,15000,11.112,,,80,,,,,,,,,,,wg-a,,,,AAXX 03214 07510 12/65 70806 10210 20090 30082 40153 53007 60006 83052 92100=
07510,1997-06-04 00:00:00,17,1015,-0.4,68,11,15000,7.408,,,90,,,,,,,,,,,wg-a,,,,AAXX 04004 07510 12/65 50904 10170 20110 30078 40150 58004 60006 80002 90000=
07510,1997-06-04 03:00:00,16,1013.6,-1.4,72,11,15000,7.408,,,70,,,,,,,,,,,wg-a,,,,AAXX 04034 07510 12/65 40704 10160 20110 30064 40136 58014 60006 80002 90300=
07510,1997-06-04 06:00:00,16,1011.9,-1.7,77,12,15000,11.112,,,60,15.1,23.5,,,,,,,,,wg-a,,,,AAXX 04064 07510 02665 70606 10160 20120 30047 40119 56017 60006 81532 90600 333 10235 20151 60004=
07510,1997-06-04 09:00:00,22,1011.2,-0.6,57,13,15000,14.816,,,100,,,,,,,,,,,wg-a,,,,AAXX 04094 07510 12765 71008 10220 20130 30041 40112 58006 60006 83552 90900=
07510,1997-06-04 12:00:00,24,1009.4,-1.7,50,13,15000,7.408,,,340,,,,,,,,,,,wg-a,,,,AAXX 04124 07510 12765 73404 10240 20130 30024 40094 58017 60006 8558/ 91200=
07510,1997-06-04 15:00:00,24,1007.2,-2.2,57,15,15000,7.408,,,30,,,,,,,,,,21,wg-a,,,,AAXX 04154 07510 02565 70304 10240 20150 30002 40072 56022 61000 72162 8558/ 91500 333 ////=
07510,1997-06-04 18:00:00,18,1005.8,-1.5,83,15,15000,18.52,,,340,16.3,24.5,,,,,,,,1,wg-a,,,,AAXX 04184 07510 02665 73410 10180 20150 39987 40058 58015 60006 70162 8357/ 91800 333 10245 20163 61000=
07510,1997-06-04 21:00:00,18,1004.6,-1.2,83,15,15000,7.408,,,10,,,,,,,,,,,wg-a,,,,AAXX 04214 07510 12665 70104 10180 20150 39975 40046 56012 60006 8557/ 92100=
07510,1997-06-05 00:00:00,20,1002.8,-1.8,68,14,15000,14.816,,,130,,,,,,,,,,,wg-a,,,,AAXX 05004 07510 12365 71308 10200 20140 39957 40028 56018 60006 875// 90000=
07510,1997-06-05 03:00:00,16,1002,-0.8,94,15,10000,18.52,,,250,,,,,,,,,,21,wg-a,,,,AAXX 05034 07510 02360 72510 10160 20150 39949 40020 55008 61000 72165 875// 90300 333 ////=
07510,1997-06-05 06:00:00,16,1003,1,94,15,10000,14.816,,,210,15.5,19.7,,,,,,,,3,wg-a,,,,AAXX 05064 07510 02360 72108 10160 20150 39959 40030 50010 60006 70365 8687/ 90600 333 10197 20155 61000=
07510,1997-06-05 09:00:00,18,1003.4,0.4,88,16,10000,22.224,,,220,,,,0,,,,,,80,wg-a,,,,AAXX 05094 07510 12460 72212 10180 20160 39963 40034 50004 60007 78086 8683/ 90900=
07510,1997-06-05 12:00:00,23,1003.8,0.5,57,14,15000,25.928,,,220,,,,0,,,,,,1,wg-a,,,,AAXX 05124 07510 02665 /2214 10230 20140 39968 40038 50005 60016 70186 85802 91200 333 60007=
07510,1997-06-05 18:00:00,23,1002.9,-0.1,44,10,15000,7.408,,,170,16.1,24.7,,,,,,,,,wg-a,,,,AAXX 05184 07510 12665 71704 10230 20100 39959 40029 58001 60006 81232 91800 333 10247 20161=
07510,1997-06-06 00:00:00,20,1004.8,0.5,68,14,15000,14.816,,,160,,,,,,,,,,,wg-a,,,,AAXX 06004 07510 12765 31608 10200 20140 39977 40048 51005 60006 82530 90000=
07510,1997-06-06 06:00:00,18,1007.1,1.6,77,14,20000,11.112,,,180,16.8,23.3,,,,,,,,,wg-a,,,,AAXX 06064 07510 02/70 61806 10180 20140 30000 40071 53016 60006 82032 90600 333 10233 20168 60004=
07510,1997-06-06 09:00:00,25,1007.5,0.5,50,14,20000,14.816,,,170,,,,,,,,,,,wg-a,,,,AAXX 06094 07510 12/70 71708 10250 20140 30005 40075 53005 60006 81032 90900=
07510,1997-06-06 12:00:00,30,1007.1,-0.3,40,15,20000,22.224,,,200,,,,,,,,,,,wg-a,,,,AAXX 06124 07510 12770 32012 10300 20150 30002 40071 58003 60006 81132 91200=
07510,1997-06-06 15:00:00,31,1005.6,-1.4,36,14,20000,22.224,,,190,,,,,,,,,,,wg-a,,,,AAXX 06154 07510 12770 21912 10310 20140 39988 40056 56014 60006 81102 91500=
07510,1997-06-06 18:00:00,30,1005.2,-0.4,40,15,20000,18.52,,,170,18.3,31.8,,,,,,,,,wg-a,,,,AAXX 06184 07510 12670 51710 10300 20150 39984 40052 56004 60006 81232 91800 333 10318 20183=
07510,1997-06-07 00:00:00,22,1007.3,0.8,69,16,20000,3.704,,,190,,,,,,,,,,13,wg-a,,,,AAXX 07004 07510 12670 41902 10220 20160 30003 40073 53008 60006 71311 82930 90000=
07510,1997-06-07 03:00:00,20,1006.3,-1.1,83,17,20000,14.816,,,130,,,,,,,,,,13,wg-a,,,,AAXX 07034 07510 12/70 31308 10200 20170 39992 40063 58011 60006 71311 81032 90300=
07510,1997-06-07 06:00:00,20,1007.9,1.6,83,17,20000,11.112,,,210,18.8,30.4,,,,,,,,,wg-a,,,,AAXX 07064 07510 02570 62106 10200 20170 30008 40079 53016 60006 8493/ 90600 333 10304 20188 60004=
07510,1997-06-07 12:00:00,28,1009.5,0.8,37,12,20000,25.928,,,240,,,,,,,,,,,wg-a,,,,AAXX 07124 07510 12670 /2414 10280 20120 30026 40095 51008 60006 82242 91200=
07510,1997-06-07 15:00:00,28,1009.3,-0.2,35,11,20000,25.928,,,270,,,,,,,,,,,wg-a,,,,AAXX 07154 07510 12670 32714 10280 20110 30024 40093 58002 60006 81902 91500=
07510,1997-06-07 18:00:00,19,1010.2,0.7,78,15,15000,7.408,,50.004,240,18.9,28.3,,,,,,,,29,wg-a,,,,AAXX 07184 07510 02665 /2404 10190 20150 30031 40102 53007 61000 72996 85902 91800 333 10283 20189 6001 91027=
07510,1997-06-07 21:00:00,18,1012.3,2,88,16,15000,7.408,,,310,,,,,,,,,,,wg-a,,,,AAXX 07214 07510 12665 33104 10180 20160 30051 40123 53020 60006 82980 92100=
07510,1997-06-08 00:00:00,17,1014.6,2.3,82,14,15000,7.408,,,330,,,,,,,,,,,wg-a,,,,AAXX 08004 07510 12565 43304 10170 20140 30074 40146 51023 60006 83830 90000=
07510,1997-06-08 03:00:00,16,1014.3,-0.3,88,14,15000,3.704,,,50,,,,,,,,,,,wg-a,,,,AAXX 08034 07510 12565 60502 10160 20140 30071 40143 58003 60006 84830 90300=
07510,1997-06-08 06:00:00,16,1015.6,1.3,94,15,15000,7.408,,,160,14.2,20.2,,,,,1,,,,wg-a,,,,AAXX 08064 07510 02765 31604 10160 20150 30084 40156 53013 60006 82831 90600 333 10202 20142 60014=
07510,1997-06-08 12:00:00,25,1018.4,1.4,50,14,15000,14.816,,,310,,,,,,,,,,,wg-a,,,,AAXX 08124 07510 12665 /3108 10250 20140 30113 40184 51014 60006 85202 91200=
07510,1997-06-08 15:00:00,25,1019.3,0.9,39,10,15000,11.112,,,300,,,,,,,,,,,wg-a,,,,AAXX 08154 07510 12765 53006 10250 20100 30122 40193 53009 60006 83202 91500=
07510,1997-06-08 18:00:00,24,1020.6,1.3,41,10,10000,14.816,,,330,16.3,25.7,,,,,,,,,wg-a,,,,AAXX 08184 07510 12/60 /3308 10240 20100 30135 40206 51013 60006 91800 333 10257 20163=
07510,1997-06-09 00:00:00,16,1021.6,-0.5,82,13,15000,11.112,,,40,,,,,,,,,,,wg-a,,,,AAXX 09004 07510 12/65 10406 10160 20130 30143 40216 58005 60006 80002 90000=
07510,1997-06-09 03:00:00,15,1020.9,-0.7,82,12,15000,7.408,,,40,,,,,,,,,,,wg-a,,,,AAXX 09034 07510 12/65 30404 10150 20120 30136 40209 56007 60006 80002 90300=
07510,1997-06-09 06:00:00,17,1020.5,-0.4,72,12,15000,7.408,,,70,14.5,23.5,,,,,,,,,wg-a,,,,AAXX 09064 07510 02765 60704 10170 20120 30132 40205 58004 60006 81532 90600 333 10235 20145 60004=
07510,1997-06-09 09:00:00,25,1019.8,-0.5,47,13,20000,18.52,,,90,,,,,,,,,,,wg-a,,,,AAXX 09094 07510 12670 60910 10250 20130 30127 40198 58005 60006 81132 90900=
07510,1997-06-09 12:00:00,29,1018.5,-1.2,35,12,20000,25.928,,,110,,,,,,,,,,,wg-a,,,,AAXX 09124 07510 12670 /1114 10290 20120 30115 40185 56012 60006 81232 91200=
07510,1997-06-09 15:00:00,30,1016.5,-1.9,38,14,20000,25.928,,,110,,,,,,,,,,,wg-a,,,,AAXX 09154 07510 12670 /1114 10300 20140 30096 40165 56019 60006 81282 91500=
07510,1997-06-09 18:00:00,29,1015.1,-1.4,43,15,20000,18.52,,,100,16.6,30,,,,,,,,,wg-a,,,,AAXX 09184 07510 12/70 /1010 10290 20150 30082 40151 56014 60006 82032 91800 333 10300 20166=
07510,1997-06-09 21:00:00,25,1015.1,-0.1,54,15,20000,11.112,,,70,,,,,,,,,,,wg-a,,,,AAXX 09214 07510 12770 60706 10250 20150 30081 40151 55001 60006 81532 92100=
07510,1997-06-10 00:00:00,23,1013.8,-1.4,65,16,20000,11.112,,,100,,,,,,,,,,,wg-a,,,,AAXX 10004 07510 12/70 51006 10230 20160 30067 40138 58014 60006 82032 90000=
07510,1997-06-10 06:00:00,22,1011,-1,69,16,15000,18.52,,,120,20.9,29.4,,,,,,,,,wg-a,,,,AAXX 10064 07510 02765 71210 10220 20160 30039 40110 58010 60006 81582 90600 333 10294 20209 60004=
07510,1997-06-10 09:00:00,21,1013.6,2.6,88,19,6000,7.408,,,170,,,,1,,,,,,60,wg-a,,,,AAXX 10094 07510 12756 71704 10210 20190 30065 40136 53026 60017 76096 8499/ 90900=
07510,1997-06-10 12:00:00,24,1010.9,-2.6,69,18,7000,22.224,,,110,,,,,,,,,,60,wg-a,,,,AAXX 10124 07510 02757 71112 10240 20180 30039 40109 56026 60016 76096 8499/ 91200 333 61000=
07510,1997-06-10 18:00:00,28,1008.6,-1.1,58,19,15000,14.816,,,140,20.7,28.2,,,,,,,,1,wg-a,,,,AAXX 10184 07510 12765 /1408 10280 20190 30017 40086 55011 60006 70162 84390 91800 333 10282 20207=
07510,1997-06-10 21:00:00,22,1011.7,2.9,73,17,6000,14.816,,48.152,210,,,,7,,,,,,17,wg-a,,,,AAXX 10214 07510 12456 72108 10220 20170 30046 40117 53029 60077 71798 87559 92100 333 91026=
07510,1997-06-11 00:00:00,19,1009.4,-2.3,94,18,10000,14.816,,,130,,,,9,,,,,,17,wg-a,,,,AAXX 11004 07510 02260 71308 10190 20180 30023 40094 58023 60166 71798 879// 90000 333 60097=
07510,1997-06-11 03:00:00,17,1008.8,-0.6,94,16,15000,3.704,,,160,,,,0,,,,,,13,wg-a,,,,AAXX 11034 07510 12665 31602 10170 20160 30017 40088 56006 60007 71386 83900 90300=
07510,1997-06-11 06:00:00,19,1009.4,0.6,94,18,15000,14.816,,,190,16.9,27.9,,,,,18,,,1,wg-a,,,,AAXX 11064 07510 02865 /1908 10190 20180 30023 40094 53006 60006 70186 85580 90600 333 10279 20169 60184=
07510,1997-06-11 09:00:00,23,1009.9,0.6,61,15,15000,35.188,,,230,,,,,,,,,,,wg-a,,,,AAXX 11094 07510 12565 32319 10230 20150 30029 40099 51006 60006 82880 90900=
07510,1997-06-11 12:00:00,25,1011.1,1.2,65,18,15000,25.928,,,250,,,,,,,,,,,wg-a,,,,AAXX 11124 07510 12565 /2514 10250 20180 30041 40111 51012 60006 85200 91200=
07510,1997-06-11 15:00:00,25,1011.1,1.2,65,18,15000,25.928,,,250,,,,,,,,,,,wg-a,,,,AAXX 11154 07510 12565 52514 10250 20180 30041 40111 51012 60006 85200 91500=
07510,1997-06-11 18:00:00,25,1011.5,-0.4,50,14,20000,14.816,,,330,19.2,26.4,,,,,,,,,wg-a,,,,AAXX 11184 07510 12770 /3308 10250 20140 30045 40115 56004 60006 81202 91800 333 10264 20192=
07510,1997-06-11 21:00:00,20,1013.3,1.7,73,15,20000,11.112,,,20,,,,,,,,,,,wg-a,,,,AAXX 11214 07510 12/70 20206 10200 20150 30062 40133 53017 60006 80002 92100=
07510,1997-06-12 00:00:00,17,1013.5,0.1,88,15,20000,7.408,,,20,,,,,,,,,,,wg-a,,,,AAXX 12004 07510 12/70 30204 10170 20150 30063 40135 50001 60006 81032 90000=
07510,1997-06-12 03:00:00,17,1012.4,-1.1,88,15,20000,7.408,,,50,,,,,,,,,,,wg-a,,,,AAXX 12034 07510 12/70 40504 10170 20150 30052 40124 58011 60006 81032 90300=
07510,1997-06-12 06:00:00,18,1013,0.6,83,15,15000,3.704,,,340,16.5,25.1,,,,,,,,,wg-a,,,,AAXX 12064 07510 02765 73402 10180 20150 30058 40130 53006 60006 81532 90600 333 10251 20165 60004=
07510,1997-06-12 09:00:00,21,1012.6,-0.3,64,14,15000,11.112,,,20,,,,,,,,,,,wg-a,,,,AAXX 12094 07510 12/65 80206 10210 20140 30055 40126 57003 60006 85032 90900=
07510,1997-06-12 12:00:00,24,1011.9,-0.6,54,14,15000,11.112,,,360,,,,,,,,,,,wg-a,,,,AAXX 12124 07510 12665 73606 10240 20140 30049 40119 56006 60006 85232 91200=
07510,1997-06-12 15:00:00,25,1011.1,-0.8,54,15,15000,14.816,,,10,,,,,,,,,,,wg-a,,,,AAXX 12154 07510 12665 /0108 10250 20150 30041 40111 57008 60006 84202 91500=
07510,1997-06-12 18:00:00,22,1011.5,0.3,69,16,15000,18.52,,,330,17.9,25.2,,,,,,,,,wg-a,,,,AAXX 12184 07510 12665 73310 10220 20160 30044 40115 51003 60006 83802 91800 333 10252 20179=
07510,1997-06-12 21:00:00,18,1012.1,0.5,83,15,15000,11.112,,,330,,,,,,,,,,,wg-a,,,,AAXX 12214 07510 12765 63306 10180 20150 30049 40121 53005 60006 81252 92100=
07510,1997-06-13 00:00:00,17,1011.8,-0.3,88,15,15000,7.408,,,10,,,,,,,,,,,wg-a,,,,AAXX 13004 07510 12/65 60104 10170 20150 30046 40118 58003 60006 82032 90000=
07510,1997-06-13 06:00:00,18,1008.2,-1.6,83,15,10000,7.408,,,140,16.8,21.9,,,,,,,,60,wg-a,,,,AAXX 13064 07510 02760 81404 10180 20150 30011 40082 56016 61000 76062 8357/ 90600 333 10219 20168 6100=
07510,1997-06-13 09:00:00,18,1007.9,-0.3,94,17,8000,3.704,,,80,,,,5,,,,,,91,wg-a,,,,AAXX 13094 07510 12358 80802 10180 20170 30008 40079 58003 60057 79198 8497/ 90900=
07510,1997-06-13 12:00:00,22,1008.1,0.3,78,18,10000,14.816,,,330,,,,,,,,,,2,wg-a,,,,AAXX 13124 07510 02460 73308 10220 20180 30011 40081 53003 60056 70298 8383/ 91200 333 61000=
07510,1997-06-13 15:00:00,24,1008.2,0.1,69,18,15000,22.224,,,250,,,,,,,,,,,wg-a,,,,AAXX 13154 07510 12565 72512 10240 20180 30012 40082 52001 60006 8483/ 91500=
07510,1997-06-13 18:00:00,22,1009.6,1.4,69,16,15000,22.224,,,270,16.8,24.7,,,,,,,,,wg-a,,,,AAXX 13184 07510 12565 32712 10220 20160 30026 40096 51014 60006 81431 91800 333 10247 20168=
07510,1997-06-14 00:00:00,18,1011.5,0.4,88,16,15000,11.112,,,250,,,,,,,,,,,wg-a,,,,AAXX 14004 07510 12465 72506 10180 20160 30043 40115 50004 60006 878// 90000=
07510,1997-06-14 03:00:00,17,1012.3,0.8,88,15,15000,14.816,,,260,,,,0,,,,,,1,wg-a,,,,AAXX 14034 07510 12465 /2608 10170 20150 30051 40123 53008 60007 70186 86800 90300=
07510,1997-06-14 06:00:00,18,1014.4,2.1,83,15,15000,11.112,,,260,16.8,22.2,,,,,6,,,1,wg-a,,,,AAXX 14064 07510 02465 72606 10180 20150 30072 40144 53021 60006 70186 8583/ 90600 333 10222 20168 60064=
07510,1997-06-14 09:00:00,20,1016.5,2.1,56,11,10000,22.224,,,290,,,,,,,,,,2,wg-a,,,,AAXX 14094 07510 02660 62912 10200 20110 30093 40165 51021 61000 70286 86800 90900 333 ////=
07510,1997-06-14 12:00:00,22,1017.6,1.2,53,12,10000,22.224,,,280,,,,,,,,,,3,wg-a,,,,AAXX 14124 07510 02660 62812 10220 20120 30105 40176 51012 61000 70386 86800 91200 333 ////=
07510,1997-06-14 15:00:00,21,1018.2,0.6,53,11,20000,22.224,,,310,,,,,,,,,,,wg-a,,,,AAXX 14154 07510 12670 /3112 10210 20110 30111 40182 52006 60006 86200 91500=
07510,1997-06-14 18:00:00,20,1018.9,0.6,56,11,20000,18.52,,,300,17.5,22.3,,,,,,,,,wg-a,,,,AAXX 14184 07510 12670 /3010 10200 20110 30117 40189 53006 60006 83200 91800 333 10223 20175=
07510,1997-06-14 21:00:00,16,1020.3,1.3,77,12,20000,3.704,,,260,,,,,,,,,,,wg-a,,,,AAXX 14214 07510 12670 32602 10160 20120 30130 40203 53013 60006 81201 92100=
07510,1997-06-15 00:00:00,13,1020.4,0,88,11,20000,7.408,,,240,,,,,,,,,,,wg-a,,,,AAXX 15004 07510 12770 32404 10130 20110 30130 40204 50000 60006 82501 90000=
07510,1997-06-15 06:00:00,14,1019.6,0.3,94,13,15000,7.408,,,110,11,20.5,,,,,,,,,wg-a,,,,AAXX 15064 07510 02/65 11104 10140 20130 30123 40196 53003 60006 80001 90600 333 10205 20110 61000=
07510,1997-06-15 09:00:00,19,1019,-0.5,64,12,15000,11.112,,,80,,,,,,,,,,,wg-a,,,,AAXX 15094 07510 12565 20806 10190 20120 30118 40190 58005 60006 82100 90900=
07510,1997-06-15 12:00:00,22,1017.9,-1,50,11,20000,14.816,,,40,,,,,,,,,,,wg-a,,,,AAXX 15124 07510 12670 60408 10220 20110 30108 40179 58010 60006 81182 91200=
07510,1997-06-15 18:00:00,24,1016.9,-0.2,50,13,20000,14.816,,,20,14,24.8,,,,,,,,,wg-a,,,,AAXX 15184 07510 12670 30208 10240 20130 30098 40169 55002 60006 82182 91800 333 10248 20140=
07510,1997-06-15 21:00:00,19,1018.1,1.1,68,13,20000,14.816,,,350,,,,,,,,,,,wg-a,,,,AAXX 15214 07510 12670 33508 10190 20130 30109 40181 53011 60006 82182 92100=
07510,1997-06-16 00:00:00,18,1017.8,-0.3,64,11,20000,14.816,,,30,,,,,,,,,,,wg-a,,,,AAXX 16004 07510 12670 /0308 10180 20110 30106 40178 58003 60006 82532 90000=
07510,1997-06-16 03:00:00,15,1017.3,-0.6,77,11,20000,7.408,,,310,,,,,,,,,,,wg-a,,,,AAXX 16034 07510 12670 63104 10150 20110 30100 40173 57006 60006 84530 90300=
07510,1997-06-16 06:00:00,16,1017.1,-0.2,77,12,20000,7.408,,,350,15.1,23.8,,,,,,,,,wg-a,,,,AAXX 16064 07510 02670 /3504 10160 20120 30098 40171 56002 60006 83532 90600 333 10238 20151 60004=
07510,1997-06-16 09:00:00,18,1017.9,0.9,73,13,15000,7.408,,,300,,,,0,,,,,,1,wg-a,,,,AAXX 16094 07510 12765 73004 10180 20130 30107 40179 52009 60007 70162 8357/ 90900=
07510,1997-06-16 12:00:00,21,1017.6,-0.2,56,12,15000,11.112,,,300,,,,,,,,,,1,wg-a,,,,AAXX 16124 07510 12665 /3006 10210 20120 30105 40176 56002 60016 70162 83870 91200=
07510,1997-06-16 18:00:00,17,1018.1,-0.7,82,14,10000,14.816,,,260,14.8,21.5,,0,,,,,,3,wg-a,,,,AAXX 16184 07510 02460 62608 10170 20140 30109 40181 56007 60006 70362 85230 91800 333 10215 20148 60007=
07510,1997-06-17 00:00:00,13,1019,-0.3,100,13,8000,0,,,0,,,,,,,,,,,wg-a,,,,AAXX 17004 07510 12558 50000 10130 20130 30117 40190 58003 60006 83831 90000=
07510,1997-06-17 03:00:00,12,1018.4,-0.7,100,12,500,11.112,,,180,,,,0,,,,,,,wg-a,,,,AAXX 17034 07510 12500 31806 10120 20120 30110 40184 57007 60007 83801 90300=
07510,1997-06-17 06:00:00,14,1018.5,0.2,94,13,500,7.408,,,190,12.2,17.5,,,,,2,,,,wg-a,,,,AAXX 17064 07510 02400 71904 10140 20130 30112 40185 53002 60006 85832 90600 333 10175 20122 60024=
07510,1997-06-17 12:00:00,23,1018.8,-0.2,53,13,20000,18.52,,,300,,,,,,,,,,3,wg-a,,,,AAXX 17124 07510 02670 53010 10230 20130 30117 40188 58002 61000 70386 84802 91200 333 6100=
07510,1997-06-17 15:00:00,22,1018.8,-0,53,12,20000,18.52,,,320,,,,,,,,,,,wg-a,,,,AAXX 17154 07510 12670 /3210 10220 20120 30117 40188 55000 60006 85802 91500=
07510,1997-06-17 18:00:00,21,1019,0.2,56,12,20000,18.52,,,310,13.9,23.1,,,,,,,,,wg-a,,,,AAXX 17184 07510 12670 53110 10210 20120 30119 40190 53002 60006 83801 91800 333 10231 20139=
07510,1997-06-17 21:00:00,16,1020.6,1.4,82,13,20000,7.408,,,280,,,,,,,,,,,wg-a,,,,AAXX 17214 07510 12770 22804 10160 20130 30133 40206 51014 60006 81501 92100=
07510,1997-06-18 00:00:00,14,1020.8,0.2,88,12,15000,7.408,,,240,,,,,,,,,,,wg-a,,,,AAXX 18004 07510 12/65 12404 10140 20120 30135 40208 53002 60006 80001 90000=
07510,1997-06-18 03:00:00,12,1020.3,-0.6,94,11,10000,3.704,,,220,,,,,,,,,,,wg-a,,,,AAXX 18034 07510 12/60 12202 10120 20110 30129 40203 58006 60006 80001 90300=
07510,1997-06-18 06:00:00,15,1019.9,-0.3,94,14,8000,7.408,,,240,11.5,21,,,,,,,,,wg-a,,,,AAXX 18064 07510 02558 32404 10150 20140 30126 40199 56003 60006 82201 90600 333 10210 20115 60004=
07510,1997-06-18 09:00:00,20,1019.6,-0.2,68,14,12000,11.112,,,300,,,,,,,,,,,wg-a,,,,AAXX 18094 07510 12562 53006 10200 20140 30124 40196 58002 60006 85200 90900=
07510,1997-06-18 12:00:00,23,1018.8,-0.7,53,13,12000,7.408,,,300,,,,,,,,,,,wg-a,,,,AAXX 18124 07510 12562 /3004 10230 20130 30117 40188 58007 60006 86200 91200=
07510,1997-06-18 15:00:00,23,1017.2,-1.6,50,12,15000,14.816,,,320,,,,,,,,,,,wg-a,,,,AAXX 18154 07510 12665 /3208 10230 20120 30101 40172 56016 60006 86200 91500=
07510,1997-06-18 18:00:00,22,1016,-1.2,53,12,15000,18.52,,,310,14.7,24.4,,,,,,,,,wg-a,,,,AAXX 18184 07510 12665 33110 10220 20120 30089 40160 56012 60006 83402 91800 333 10244 20147=
07510,1997-06-18 21:00:00,18,1016.9,0.8,73,13,15000,11.112,,,300,,,,,,,,,,,wg-a,,,,AAXX 18214 07510 12765 63006 10180 20130 30097 40169 53008 60006 84432 92100=
07510,1997-06-19 00:00:00,15,1016,-1,94,14,10000,7.408,,,250,,,,,,,,,,,wg-a,,,,AAXX 19004 07510 12/60 32504 10150 20140 30087 40160 58010 60006 82032 90000=
07510,1997-06-19 03:00:00,14,1014.2,-1.8,94,13,6000,7.408,,,260,,,,,,,,,,,wg-a,,,,AAXX 19034 07510 12456 62604 10140 20130 30069 40142 56018 60006 84532 90300=
07510,1997-06-19 06:00:00,14,1014.2,-0,94,13,8000,11.112,,,290,13.6,21.9,,,,,,,,,wg-a,,,,AAXX 19064 07510 02458 72906 10140 20130 30069 40142 55000 60006 83872 90600 333 10219 20136 60004=
07510,1997-06-19 12:00:00,21,1013.5,-0.3,49,10,20000,25.928,,,250,,,,,,,,,,,wg-a,,,,AAXX 19124 07510 12670 /2514 10210 20100 30064 40135 58003 60006 84232 91200=
07510,1997-06-19 15:00:00,21,1013,-0.5,49,10,20000,29.632,,,250,,,,,,,,,,,wg-a,,,,AAXX 19154 07510 12670 72516 10210 20100 30059 40130 56005 60006 85802 91500=
07510,1997-06-19 18:00:00,17,1013.2,0.1,88,15,8000,18.52,,,280,14.4,21.9,,,,,,,,25,wg-a,,,,AAXX 19184 07510 02458 72810 10170 20150 30060 40132 52001 61000 72586 8683/ 91800 333 10219 20144 6002=
07510,1997-06-19 21:00:00,15,1014.1,0.8,88,13,11000,7.408,,,220,,,,,,,,,,,wg-a,,,,AAXX 19214 07510 32/61 /2204 10150 20130 30068 40141 51008 92100=
07510,1997-06-20 00:00:00,15,1013.7,-0.4,77,11,10000,11.112,,,240,,,,,,,,,,1,wg-a,,,,AAXX 20004 07510 12560 /2406 10150 20110 30064 40137 58004 60006 70186 81232 90000=
07510,1997-06-20 03:00:00,14,1012.8,-0.9,88,12,10000,11.112,,,200,,,,1,,,,,,1,wg-a,,,,AAXX 20034 07510 12560 /2006 10140 20120 30055 40128 58009 60017 70186 83232 90300=
07510,1997-06-20 06:00:00,15,1012.2,-0.5,88,13,15000,11.112,,,200,13.5,17.2,,,,,3,,,1,wg-a,,,,AAXX 20064 07510 02565 /2006 10150 20130 30050 40122 55005 60006 70186 83802 90600 333 10172 20135 60034=
07510,1997-06-20 09:00:00,19,1011.2,-0.9,60,11,15000,25.928,,,230,,,,,,,,,,,wg-a,,,,AAXX 20094 07510 12565 62314 10190 20110 30041 40112 58009 60006 85832 90900=
07510,1997-06-20 12:00:00,20,1010.9,-0.3,60,12,15000,29.632,,,250,,,,,,,,,,80,wg-a,,,,AAXX 20124 07510 02665 /2516 10200 20120 30038 40109 58003 61000 78086 85832 91200 333 6100=
07510,1997-06-20 15:00:00,22,1009.1,-1.8,53,12,15000,25.928,,,260,,,,,,,,,,1,wg-a,,,,AAXX 20154 07510 02665 72614 10220 20120 30020 40091 56018 61000 70186 8283/ 91500 333 ////=
07510,1997-06-20 18:00:00,20,1007.8,-1.3,53,10,15000,18.52,,,250,14.7,22.4,,,,,,,,2,wg-a,,,,AAXX 20184 07510 12665 72510 10200 20100 30007 40078 56013 60006 70286 8283/ 91800 333 10224 20147=
07510,1997-06-20 21:00:00,16,1008.4,0.5,94,15,10000,11.112,,,220,,,,1,,,,,,21,wg-a,,,,AAXX 20214 07510 12460 72206 10160 20150 30012 40084 53005 60017 72162 8357/ 92100=
07510,1997-06-21 00:00:00,16,1007.5,-0.9,100,16,8000,22.224,,,220,,,,3,,,,,,61,wg-a,,,,AAXX 21004 07510 02258 72212 10160 20160 30003 40075 57009 60046 76165 867// 90000 333 60037=
07510,1997-06-21 03:00:00,16,1006.6,-0.9,94,15,6000,14.816,,,220,,,,2,,,,,,60,wg-a,,,,AAXX 21034 07510 12656 72208 10160 20150 39994 40066 57009 60027 76062 8557/ 90300=
07510,1997-06-21 06:00:00,16,1006.6,-0,94,15,6000,11.112,,,210,15.6,19.8,,,,,,,,21,wg-a,,,,AAXX 21064 07510 02556 72106 10160 20150 39994 40066 54000 61000 72162 8657/ 90600 333 10198 20156 6006=
07510,1997-06-21 12:00:00,17,1006.5,-0.3,88,15,9000,18.52,,,220,,,,0,,,,,,60,wg-a,,,,AAXX 21124 07510 02459 72210 10170 20150 39994 40065 58003 60006 76062 878// 91200 333 60007=
07510,1997-06-21 18:00:00,16,1006.9,0.4,82,13,8000,14.816,,,250,15.5,18.2,,,,,,,,60,wg-a,,,,AAXX 21184 07510 02558 72508 10160 20130 39997 40069 53004 61000 76062 8587/ 91800 333 10182 20155 6001=
07510,1997-06-21 21:00:00,14,1008.2,1.3,94,13,10000,11.112,,,200,,,,1,,,,,,1,wg-a,,,,AAXX 21214 07510 12560 72006 10140 20130 30010 40082 53013 60017 70162 8487/ 92100=
07510,1997-06-22 00:00:00,14,1008.6,0.3,88,12,10000,11.112,,,220,,,,1,,,,,,1,wg-a,,,,AAXX 22004 07510 02560 /2206 10140 20120 30013 40086 51003 60016 70186 82830 90000 333 60017=
07510,1997-06-22 03:00:00,13,1007.8,-0.8,94,12,15000,18.52,,,240,,,,0,,,,,,25,wg-a,,,,AAXX 22034 07510 12565 62410 10130 20120 30005 40078 57008 60007 72586 85830 90300=
07510,1997-06-22 06:00:00,13,1008.7,0.9,100,13,10000,11.112,,,200,11.8,15.7,,,,,3,,,3,wg-a,,,,AAXX 22064 07510 02260 /2006 10130 20130 30014 40087 53009 60006 70386 86900 90600 333 10157 20118 60034=
07510,1997-06-22 09:00:00,18,1009.8,1.2,64,11,15000,22.224,,,260,,,,0,,,,,,1,wg-a,,,,AAXX 22094 07510 12565 /2612 10180 20110 30026 40098 53012 60007 70186 86900 90900=
07510,1997-06-22 12:00:00,19,1011.5,1.7,56,10,15000,35.188,,,280,,,,2,,,,,,1,wg-a,,,,AAXX 22124 07510 02665 62819 10190 20100 30043 40115 51017 60026 70186 86900 91200 333 60027=
07510,1997-06-22 15:00:00,18,1012.9,1.4,68,12,7000,29.632,,,260,,,,0,,,,,,80,wg-a,,,,AAXX 22154 07510 12657 /2616 10180 20120 30057 40129 53014 60007 78086 86900 91500=
07510,1997-06-22 18:00:00,18,1013.3,0.4,64,11,15000,29.632,,,270,13.1,19.8,,0,,,,,,1,wg-a,,,,AAXX 22184 07510 02665 52716 10180 20110 30061 40133 53004 60006 70186 85900 91800 333 10198 20131 60007=
07510,1997-06-22 21:00:00,14,1014.9,1.5,88,12,15000,18.52,,,230,,,,0,,,,,,3,wg-a,,,,AAXX 22214 07510 12565 52310 10140 20120 30076 40149 52015 60007 70386 85900 92100=
07510,1997-06-23 00:00:00,13,1015,0.1,94,12,15000,14.816,,,230,,,,3,,,,,,1,wg-a,,,,AAXX 23004 07510 02565 42308 10130 20120 30077 40150 50001 60036 70186 84800 90000 333 60037=
07510,1997-06-23 03:00:00,14,1014.8,-0.2,94,13,15000,11.112,,,220,,,,0,,,,,,25,wg-a,,,,AAXX 23034 07510 12565 72206 10140 20130 30075 40148 58002 60007 72586 878// 90300=
07510,1997-06-23 06:00:00,14,1015.5,0.7,94,13,10000,11.112,,,240,13,17.5,,,,,,,,25,wg-a,,,,AAXX 23064 07510 02560 /2406 10140 20130 30082 40155 53007 61000 72586 86800 90600 333 10175 20130 6007=
07510,1997-06-23 09:00:00,17,1016.5,1.1,82,14,15000,18.52,,,300,,,,2,,,,,,1,wg-a,,,,AAXX 23094 07510 12465 73010 10170 20140 30093 40165 52011 60027 70186 87800 90900=
07510,1997-06-23 12:00:00,19,1017.3,0.8,73,14,15000,25.928,,,270,,,,0,,,,,,25,wg-a,,,,AAXX 23124 07510 02565 /2714 10190 20140 30101 40173 51008 60026 72586 86300 91200 333 60007=
07510,1997-06-23 15:00:00,20,1018.2,0.9,60,12,15000,31.484,,,290,,,,,,,,,,,wg-a,,,,AAXX 23154 07510 12565 /2917 10200 20120 30110 40182 51009 60006 85200 91500=
07510,1997-06-23 18:00:00,18,1018.8,0.6,68,12,15000,25.928,,,290,14,20.5,,,,,,,,,wg-a,,,,AAXX 23184 07510 12565 /2914 10180 20120 30116 40188 53006 60006 86800 91800 333 10205 20140=
07510,1997-06-24 00:00:00,15,1020.6,0.2,88,13,15000,7.408,,,250,,,,,,,,,,,wg-a,,,,AAXX 24004 07510 12565 /2504 10150 20130 30133 40206 50002 60006 86802 90000=
07510,1997-06-24 03:00:00,15,1020.2,-0.4,88,13,15000,11.112,,,270,,,,,,,,,,,wg-a,,,,AAXX 24034 07510 12565 72706 10150 20130 30129 40202 56004 60006 878// 90300=
07510,1997-06-24 06:00:00,15,1020.6,0.4,88,13,15000,7.408,,,280,14,17.7,,,,,,,,80,wg-a,,,,AAXX 24064 07510 02565 72804 10150 20130 30133 40206 52004 61000 78086 878// 90600 333 10177 20140 6002=
07510,1997-06-24 09:00:00,18,1020.9,0.4,59,10,15000,18.52,,,310,,,,,,,,,,3,wg-a,,,,AAXX 24094 07510 02565 /3110 10180 20100 30137 40209 50004 61000 70386 86800 90900 333 ////=
07510,1997-06-24 12:00:00,20,1020.4,-0.5,53,10,15000,14.816,,,310,,,,,,,,,,2,wg-a,,,,AAXX 24124 07510 02665 63108 10200 20100 30132 40204 56005 61000 70286 86800 91200 333 ////=
07510,1997-06-24 15:00:00,22,1019.1,-1.2,46,10,15000,18.52,,,300,,,,,,,,,,,wg-a,,,,AAXX 24154 07510 12665 63010 10220 20100 30120 40191 58012 60006 86800 91500=
07510,1997-06-24 18:00:00,20,1018.3,-0.9,56,11,11000,18.52,,,280,14.8,22.1,,,,,,,,,wg-a,,,,AAXX 24184 07510 12/61 /2810 10200 20110 30111 40183 56009 60006 91800 333 10221 20148=
07510,1997-06-24 21:00:00,16,1018.5,0.1,72,11,15000,3.704,,,290,,,,,,,,,,,wg-a,,,,AAXX 24214 07510 12/65 22902 10160 20110 30112 40185 53001 60006 81031 92100=
07510,1997-06-25 00:00:00,13,1017.4,-1.1,88,11,12000,7.408,,,280,,,,,,,,,,,wg-a,,,,AAXX 25004 07510 12/62 02804 10130 20110 30101 40174 58011 60006 80000 90000=
07510,1997-06-25 03:00:00,11,1015.5,-2,94,10,12000,3.704,,,220,,,,,,,,,,,wg-a,,,,AAXX 25034 07510 12/62 42202 10110 20100 30081 40155 58020 60006 80001 90300=
07510,1997-06-25 06:00:00,12,1014.5,-0.9,94,11,15000,3.704,,,240,10.4,20.1,,,,,,,,,wg-a,,,,AAXX 25064 07510 02565 72402 10120 20110 30072 40145 56009 60006 81132 90600 333 10201 20104 61000=
07510,1997-06-25 09:00:00,17,1013,-1.4,72,12,15000,14.816,,,230,,,,,,,,,,,wg-a,,,,AAXX 25094 07510 12565 72308 10170 20120 30058 40130 56014 60006 8523/ 90900=
07510,1997-06-25 12:00:00,19,1012,-0.9,60,11,11000,22.224,,,260,,,,,,,,,,,wg-a,,,,AAXX 25124 07510 02/61 /2612 10190 20110 30049 40120 58009 61000 91200 333 ////=
07510,1997-06-25 15:00:00,19,1010,-2,68,13,15000,29.632,,,230,,,,,,,,,,2,wg-a,,,,AAXX 25154 07510 02565 72316 10190 20130 30029 40100 58020 61000 70286 8423/ 91500 333 ////=
07510,1997-06-25 18:00:00,18,1008.4,-1.6,73,13,15000,25.928,,,240,12.3,19.9,,,,,,,,60,wg-a,,,,AAXX 25184 07510 02465 72414 10180 20130 30013 40084 56016 61000 76086 878// 91800 333 10199 20123 6100=
07510,1997-06-25 21:00:00,16,1008.2,-0.3,100,16,500,18.52,,,270,,,,4,,,,,,21,wg-a,,,,AAXX 25214 07510 12200 82710 10160 20160 30010 40082 55003 60047 72165 875// 92100=
07510,1997-06-26 00:00:00,15,1007.5,-0.7,94,14,6000,18.52,,,270,,,,0,,,,,,51,wg-a,,,,AAXX 26004 07510 02356 72710 10150 20140 30003 40075 57007 60046 75165 875// 90000 333 60007=
07510,1997-06-26 03:00:00,14,1005.4,-2.1,94,13,8000,18.52,,,250,,,,0,,,,,,3,wg-a,,,,AAXX 26034 07510 12458 72510 10140 20130 39982 40054 56021 60007 70386 878// 90300=
07510,1997-06-26 06:00:00,15,1004.7,-0.7,94,14,500,18.52,,,260,14.1,17.6,,,,,,,,58,wg-a,,,,AAXX 26064 07510 02300 82610 10150 20140 39975 40047 55007 61000 75886 878// 90600 333 10176 20141 6005=
07510,1997-06-26 12:00:00,18,1002.5,-1,77,14,15000,31.484,,,260,,,,,,,,,,2,wg-a,,,,AAXX 26124 07510 02465 72617 10180 20140 39954 40025 58010 60026 70265 878// 91200 333 61000=
07510,1997-06-26 15:00:00,18,1001.5,-1,73,13,15000,31.484,,,260,,,,0,,,,,,2,wg-a,,,,AAXX 26154 07510 12565 72617 10180 20130 39944 40015 58010 60007 70286 878// 91500=
07510,1997-06-26 18:00:00,15,1002.6,1,88,13,10000,22.224,,,260,14.3,18.5,,,,,,,,25,wg-a,,,,AAXX 26184 07510 02360 /2612 10150 20130 39954 40026 51010 61000 72586 86800 91800 333 10185 20143 6001=
07510,1997-06-26 21:00:00,14,1003.2,0.6,72,9,10000,25.928,,,280,,,,,,,,,,3,wg-a,,,,AAXX 26214 07510 02460 32814 10140 20090 39960 40032 53006 61000 70386 83800 92100 333 ////=
07510,1997-06-27 00:00:00,13,1003.2,0,82,10,10000,22.224,,,270,,,,1,,,,,,80,wg-a,,,,AAXX 27004 07510 02560 52712 10130 20100 39960 40032 50000 60016 78086 85800 90000 333 60017=
07510,1997-06-27 03:00:00,12,1002.2,-1.1,94,11,10000,22.224,,,250,,,,3,,,,,,80,wg-a,,,,AAXX 27034 07510 12360 /2512 10120 20110 39949 40022 56011 60037 78086 86800 90300=
07510,1997-06-27 06:00:00,13,1002.1,-0,88,11,10000,22.224,,,260,11.4,15.6,,,,,,,,80,wg-a,,,,AAXX 27064 07510 02560 72612 10130 20110 39949 40021 55000 61000 78086 8685/ 90600 333 10156 20114 6008=
07510,1997-06-27 09:00:00,14,1002.4,0.3,82,11,8000,22.224,,,250,,,,0,,,,,,60,wg-a,,,,AAXX 27094 07510 12558 82512 10140 20110 39952 40024 53003 60007 76086 8587/ 90900=
07510,1997-06-27 12:00:00,16,1003.5,1.1,82,13,15000,25.928,,,260,,,,1,,,,,,21,wg-a,,,,AAXX 27124 07510 02465 72614 10160 20130 39963 40035 51011 60026 72186 8587/ 91200 333 60017=
07510,1997-06-27 18:00:00,16,1005.1,0.9,68,10,15000,22.224,,,260,12.5,18,,,,,,,,2,wg-a,,,,AAXX 27184 07510 12565 /2612 10160 20100 39979 40051 53009 60006 70286 86200 91800 333 10180 20125=
07510,1997-06-28 00:00:00,11,1006.4,0.1,87,9,15000,14.816,,,180,,,,,,,,,,,wg-a,,,,AAXX 28004 07510 12665 21808 10110 20090 39991 40064 51001 60006 82800 90000=
07510,1997-06-28 06:00:00,12,1006.2,-0.2,88,10,15000,7.408,,,220,9.5,16.7,,,,,3,,,,wg-a,,,,AAXX 28064 07510 02565 32204 10120 20100 39989 40062 56002 60006 83802 90600 333 10167 20095 60034=
07510,1997-06-28 09:00:00,17,1007.3,1.2,63,10,15000,14.816,,,190,,,,,,,,,,,wg-a,,,,AAXX 28094 07510 12565 51908 10170 20100 30001 40073 50012 60006 84831 90900=
07510,1997-06-28 12:00:00,19,1007,-0.2,60,11,15000,11.112,,,230,,,,,,,,,,,wg-a,,,,AAXX 28124 07510 12665 72306 10190 20110 39999 40070 58002 60006 86832 91200=
07510,1997-06-28 15:00:00,20,1006.3,-0.7,53,10,15000,0,,,0,,,,,,,,,,,wg-a,,,,AAXX 28154 07510 12665 70000 10200 20100 39992 40063 56007 60006 878// 91500=
07510,1997-06-28 18:00:00,14,1006.7,0.3,94,13,7000,11.112,,,280,11.6,20,,,,,,,,61,wg-a,,,,AAXX 28184 07510 02657 72806 10140 20130 39995 40067 53003 61000 76162 8687/ 91800 333 10200 20116 6004=
07510,1997-06-28 21:00:00,13,1006.4,-0.3,94,12,8000,7.408,,,290,,,,2,,,,,,61,wg-a,,,,AAXX 28214 07510 12658 82904 10130 20120 39992 40064 58003 60027 76166 8587/ 92100=
07510,1997-06-29 00:00:00,13,1005.4,-1,100,13,6000,7.408,,,300,,,,6,,,,,,61,wg-a,,,,AAXX 29004 07510 02456 83004 10130 20130 39982 40054 56010 60076 76166 875// 90000 333 60067=
07510,1997-06-29 03:00:00,12,1004.5,-1,100,12,500,18.52,,,290,,,,11,,,,,,61,wg-a,,,,AAXX 29034 07510 12300 82910 10120 20120 39972 40045 58010 60117 76166 875// 90300=
07510,1997-06-29 06:00:00,12,1004,-0.5,100,12,10000,14.816,,,280,12.3,14.4,,,,,,,,61,wg-a,,,,AAXX 29064 07510 02260 82808 10120 20120 39967 40040 56005 61000 76166 8657/ 90600 333 10144 20123 6032=
07510,1997-06-29 09:00:00,13,1004.4,0.5,94,12,10000,18.52,,,290,,,,6,,,,,,61,wg-a,,,,AAXX 29094 07510 12260 82910 10130 20120 39972 40044 51005 60067 76166 8557/ 90900=
07510,1997-06-29 12:00:00,15,1005.5,1.1,94,14,10000,18.52,,,270,,,,1,,,,,,21,wg-a,,,,AAXX 29124 07510 02260 82710 10150 20140 39983 40055 51011 60076 72162 8587/ 91200 333 60017=
07510,1997-06-29 15:00:00,15,1007.1,1.6,94,14,8000,14.816,,,300,,,,5,,,,,,61,wg-a,,,,AAXX 29154 07510 12358 83008 10150 20140 39999 40071 53016 60057 76162 8587/ 91500=
07510,1997-06-29 18:00:00,16,1008.4,1.3,82,13,10000,14.816,,,250,12.4,16.1,,5,,,,,,1,wg-a,,,,AAXX 29184 07510 02360 82508 10160 20130 30012 40084 51013 60006 70162 8587/ 91800 333 10161 20124 60057=
07510,1997-06-29 21:00:00,14,1009.8,1.3,94,13,8000,7.408,,,220,,,,8,,,,,,21,wg-a,,,,AAXX 29214 07510 12258 72204 10140 20130 30025 40098 53013 60087 72186 85872 92100=
07510,1997-06-30 00:00:00,14,1009,-0.8,94,13,8000,14.816,,,220,,,,7,,,,,,80,wg-a,,,,AAXX 30004 07510 02258 72208 10140 20130 30017 40090 58008 60146 78086 85802 90000 333 60077=
07510,1997-06-30 03:00:00,14,1008,-0.9,94,13,7000,11.112,,,220,,,,1,,,,,,61,wg-a,,,,AAXX 30034 07510 12257 72206 10140 20130 30008 40080 56009 60017 76186 8683/ 90300=
07510,1997-06-30 06:00:00,14,1008.3,0.3,94,13,3500,7.408,,,230,13,15.5,,,,,,,,61,wg-a,,,,AAXX 30064 07510 02135 82304 10140 20130 30011 40083 53003 61000 76186 878// 90600 333 10155 20130 6037=
07510,1997-06-30 09:00:00,17,1009.3,1,82,14,10000,14.816,,,270,,,,4,,,,,,3,wg-a,,,,AAXX 30094 07510 12460 72708 10170 20140 30021 40093 51010 60047 70386 878// 90900=
07510,1997-06-30 12:00:00,17,1010.2,0.9,77,13,10000,22.224,,,280,,,,,,,,,,3,wg-a,,,,AAXX 30124 07510 12460 72812 10170 20130 30030 40102 53009 60046 70386 878// 91200=
07510,1997-06-30 15:00:00,19,1010.5,0.4,68,13,15000,31.484,,,270,,,,2,,,,,,3,wg-a,,,,AAXX 30154 07510 12565 72717 10190 20130 30034 40105 51004 60027 70386 86902 91500=
07510,1997-06-30 18:00:00,17,1011.9,1.3,82,14,8000,22.224,,,260,13.7,19.5,,,,,,,,80,wg-a,,,,AAXX 30184 07510 02558 72612 10170 20140 30047 40119 51013 61000 78086 85992 91800 333 10195 20137 6000=
07510,1997-06-30 21:00:00,14,1013.5,1.5,88,12,10000,11.112,,,220,,,,0,,,,,,1,wg-a,,,,AAXX 30214 07510 12560 52206 10140 20120 30062 40135 53015 60007 70186 82802 92100=
07510,1997-07-01 00:00:00,13,1013.7,0.2,94,12,15000,11.112,,,210,,,,,,,,,,1,wg-a,,,,AAXX 01004 07510 12765 42106 10130 20120 30064 40137 50002 60006 70186 84500 90000=
07510,1997-07-01 03:00:00,13,1013,-0.7,100,13,10000,7.408,,,180,,,,,,,,,,,wg-a,,,,AAXX 01034 07510 12260 /1804 10130 20130 30057 40130 57007 60006 85800 90300=
07510,1997-07-01 06:00:00,14,1012.8,-0.2,100,14,4000,14.816,,,190,12.6,16.6,,,,,,,,80,wg-a,,,,AAXX 01064 07510 02240 61908 10140 20140 30055 40128 56002 61000 78086 86800 90600 333 10166 20126 6010=
07510,1997-07-01 12:00:00,20,1012.4,-0.5,60,12,10000,29.632,,,260,,,,,,,,,,1,wg-a,,,,AAXX 01124 07510 12560 /2616 10200 20120 30053 40124 56005 60016 70186 84802 91200=
07510,1997-07-01 15:00:00,20,1011.8,-0.6,56,11,15000,18.52,,,240,,,,,,,,,,,wg-a,,,,AAXX 01154 07510 12665 /2410 10200 20110 30047 40118 56006 60006 84202 91500=
07510,1997-07-01 18:00:00,20,1011.2,-0.6,53,10,15000,14.816,,,250,14.2,21.3,,,,,,,,,wg-a,,,,AAXX 01184 07510 12665 52508 10200 20100 30041 40112 56006 60006 81232 91800 333 10213 20142=
07510,1997-07-01 21:00:00,17,1011.3,-0,77,13,10000,3.704,,,280,,,,0,,,,,,60,wg-a,,,,AAXX 01214 07510 12660 82802 10170 20130 30041 40113 55000 60007 76062 875// 92100=
07510,1997-07-02 00:00:00,15,1010.8,-0.5,88,13,10000,7.408,,,300,,,,2,,,,,,60,wg-a,,,,AAXX 02004 07510 02560 83004 10150 20130 30036 40108 58005 60026 76062 875// 90000 333 60027=
07510,1997-07-02 03:00:00,13,1009.6,-1.3,100,13,500,3.704,,,300,,,,9,,,,,,61,wg-a,,,,AAXX 02034 07510 12300 83002 10130 20130 30023 40096 57013 60097 76166 878// 90300=
07510,1997-07-02 06:00:00,14,1009.6,-0,94,13,500,7.408,,,240,13.2,20,,,,,,,,60,wg-a,,,,AAXX 02064 07510 02400 82404 10140 20130 30023 40096 55000 61000 76066 8657/ 90600 333 10200 20132 6014=
07510,1997-07-02 09:00:00,14,1010.7,1.1,94,13,10000,11.112,,,290,,,,2,,,,,,60,wg-a,,,,AAXX 02094 07510 12260 82906 10140 20130 30034 40107 53011 60027 76062 8687/ 90900=
07510,1997-07-02 12:00:00,18,1011.7,1.1,73,13,15000,18.52,,,240,,,,0,,,,,,3,wg-a,,,,AAXX 02124 07510 02565 82410 10180 20130 30045 40117 51011 60026 70362 878// 91200 333 60007=
07510,1997-07-02 15:00:00,19,1012.3,0.6,56,10,15000,22.224,,,260,,,,,,,,,,,wg-a,,,,AAXX 02154 07510 12665 72612 10190 20100 30051 40123 51006 60006 878// 91500=
07510,1997-07-02 18:00:00,18,1013.8,1.5,56,9,15000,22.224,,,280,13.5,19.7,,,,,,,,,wg-a,,,,AAXX 02184 07510 12665 /2812 10180 20090 30066 40138 53015 60006 85802 91800 333 10197 20135=
07510,1997-07-02 21:00:00,13,1015.9,2,88,11,15000,7.408,,,210,,,,,,,,,,,wg-a,,,,AAXX 02214 07510 12665 52104 10130 20110 30086 40159 53020 60006 83832 92100=
07510,1997-07-03 00:00:00,11,1016.1,0.1,94,10,15000,11.112,,,200,,,,,,,,,,,wg-a,,,,AAXX 03004 07510 12665 32006 10110 20100 30087 40161 50001 60006 81802 90000=
07510,1997-07-03 03:00:00,11,1015.7,-0.4,94,10,15000,7.408,,,200,,,,,,,,,,,wg-a,,,,AAXX 03034 07510 12565 52004 10110 20100 30083 40157 56004 60006 84802 90300=
07510,1997-07-03 06:00:00,12,1016.4,0.8,94,11,15000,11.112,,,200,10.5,17.6,,,,,2,,,1,wg-a,,,,AAXX 03064 07510 02465 32006 10120 20110 30091 40164 53008 60006 70161 83830 90600 333 10176 20105 60024=
07510,1997-07-03 12:00:00,20,1017.4,0.2,49,9,15000,25.928,,,250,,,,,,,,,,,wg-a,,,,AAXX 03124 07510 12665 /2514 10200 20090 30102 40174 53002 60006 86800 91200=
07510,1997-07-03 15:00:00,20,1017.9,0.5,53,10,15000,25.928,,,260,,,,,,,,,,,wg-a,,,,AAXX 03154 07510 12665 /2614 10200 20100 30107 40179 53005 60006 85231 91500=
07510,1997-07-03 18:00:00,19,1018,0.1,49,8,15000,14.816,,,260,12.3,20.5,,,,,,,,,wg-a,,,,AAXX 03184 07510 12665 22608 10190 20080 30108 40180 53001 60006 82800 91800 333 10205 20123=
07510,1997-07-03 21:00:00,14,1018.9,0.8,82,11,15000,7.408,,,220,,,,,,,,,,,wg-a,,,,AAXX 03214 07510 12665 32204 10140 20110 30116 40189 53008 60006 81234 92100=
07510,1997-07-04 00:00:00,13,1018.6,-0.3,88,11,15000,3.704,,,230,,,,,,,,,,,wg-a,,,,AAXX 04004 07510 12/65 72302 10130 20110 30113 40186 58003 60006 83034 90000=
07510,1997-07-04 03:00:00,13,1018.2,-0.4,88,11,15000,7.408,,,190,,,,,,,,,,13,wg-a,,,,AAXX 04034 07510 12865 71904 10130 20110 30109 40182 56004 60006 71322 85584 90300=
07510,1997-07-04 06:00:00,13,1019.3,1.1,94,12,15000,11.112,,,220,12.6,18.6,,,,,,,,,wg-a,,,,AAXX 04064 07510 02465 72206 10130 20120 30120 40193 53011 60006 8588/ 90600 333 10186 20126 60004=
07510,1997-07-04 09:00:00,15,1020.1,0.8,94,14,10000,14.816,,,210,,,,3,,,,,,1,wg-a,,,,AAXX 04094 07510 12360 72108 10150 20140 30128 40201 51008 60037 70186 85832 90900=
07510,1997-07-04 12:00:00,17,1020.9,0.8,82,14,8000,14.816,,,260,,,,2,,,,,,80,wg-a,,,,AAXX 04124 07510 02458 72608 10170 20140 30136 40209 51008 60056 78086 85832 91200 333 60027=
07510,1997-07-04 15:00:00,19,1021,0.2,64,12,15000,29.632,,,290,,,,2,,,,,,1,wg-a,,,,AAXX 04154 07510 12565 72916 10190 20120 30138 40210 53002 60027 70186 85802 91500=
07510,1997-07-04 18:00:00,17,1022.2,1.1,72,12,15000,29.632,,,290,13.4,19.7,,,,,,,,3,wg-a,,,,AAXX 04184 07510 12565 72916 10170 20120 30149 40222 53011 60006 70386 8483/ 91800 333 10197 20134=
07510,1997-07-04 21:00:00,15,1024.2,2,88,13,8000,14.816,,,280,,,,1,,,,,,80,wg-a,,,,AAXX 04214 07510 12558 72808 10150 20130 30169 40242 53020 60017 78086 8483/ 92100=
07510,1997-07-05 00:00:00,14,1024.8,0.5,94,13,15000,7.408,,,260,,,,1,,,,,,1,wg-a,,,,AAXX 05004 07510 02465 62604 10140 20130 30174 40248 51005 60026 70186 84830 90000 333 60017=
07510,1997-07-05 06:00:00,14,1026.2,1.4,94,13,12000,3.704,,,300,13.1,17.3,,,,,10,,,3,wg-a,,,,AAXX 05064 07510 02462 /3002 10140 20130 30188 40262 53014 60006 70386 85830 90600 333 10173 20131 60104=
07510,1997-07-05 09:00:00,18,1027.3,1.2,73,13,15000,11.112,,,340,,,,0,,,,,,,wg-a,,,,AAXX 05094 07510 12565 53406 10180 20130 30200 40273 51012 60007 85800 90900=
07510,1997-07-05 12:00:00,18,1028.1,0.8,68,12,15000,7.408,,,340,,,,,,,,,,3,wg-a,,,,AAXX 05124 07510 02565 63404 10180 20120 30208 40281 51008 60006 70386 86800 91200 333 61000=
07510,1997-07-05 15:00:00,20,1028.1,0.1,56,11,15000,25.928,,,310,,,,,,,,,,,wg-a,,,,AAXX 05154 07510 12665 53114 10200 20110 30209 40281 53001 60006 85200 91500=
07510,1997-07-05 18:00:00,19,1028.9,0.7,64,12,15000,18.52,,,310,13.7,20.7,,,,,,,,,wg-a,,,,AAXX 05184 07510 12665 23110 10190 20120 30216 40289 52007 60006 82100 91800 333 10207 20137=
07510,1997-07-05 21:00:00,15,1030.8,1.8,82,12,15000,7.408,,,280,,,,,,,,,,,wg-a,,,,AAXX 05214 07510 12/65 /2804 10150 20120 30234 40308 53018 60006 80000 92100=
07510,1997-07-06 00:00:00,12,1031.2,0.3,94,11,10000,7.408,,,250,,,,,,,,,,,wg-a,,,,AAXX 06004 07510 12/60 02504 10120 20110 30237 40312 51003 60006 80000 90000=
07510,1997-07-06 03:00:00,11,1030.3,-0.9,94,10,10000,3.704,,,250,,,,,,,,,,,wg-a,,,,AAXX 06034 07510 12/60 02502 10110 20100 30228 40303 58009 60006 80000 90300=
07510,1997-07-06 06:00:00,12,1030.6,0.3,100,12,10000,7.408,,,250,10.8,19.1,,,,,,,,,wg-a,,,,AAXX 06064 07510 02/60 02504 10120 20120 30231 40306 53003 60006 80000 90600 333 10191 20108 60004=
07510,1997-07-06 09:00:00,19,1030.4,-0,78,15,10000,7.408,,,320,,,,,,,,,,,wg-a,,,,AAXX 06094 07510 12460 /3204 10190 20150 30231 40304 54000 60006 85200 90900=
07510,1997-07-06 12:00:00,22,1029.6,-0.7,57,13,15000,11.112,,,10,,,,,,,,,,,wg-a,,,,AAXX 06124 07510 12665 /0106 10220 20130 30224 40296 58007 60006 84200 91200=
07510,1997-07-06 18:00:00,24,1027.4,-0.7,50,13,15000,18.52,,,10,12.1,24.2,,,,,,,,,wg-a,,,,AAXX 06184 07510 12765 /0110 10240 20130 30203 40274 56007 60006 81100 91800 333 10242 20121=
07510,1997-07-06 21:00:00,19,1028.5,0.9,78,15,15000,7.408,,,340,,,,,,,,,,,wg-a,,,,AAXX 06214 07510 12/65 13404 10190 20150 30212 40285 53009 60006 80001 92100=
07510,1997-07-07 00:00:00,16,1028.1,-0.4,88,14,15000,3.704,,,350,,,,,,,,,,,wg-a,,,,AAXX 07004 07510 12/65 03502 10160 20140 30208 40281 58004 60006 80000 90000=
07510,1997-07-07 03:00:00,15,1026.9,-1.2,94,14,15000,3.704,,,20,,,,,,,,,,,wg-a,,,,AAXX 07034 07510 12/65 10202 10150 20140 30196 40269 56012 60006 80002 90300=
07510,1997-07-07 06:00:00,16,1027,0.1,88,14,10000,7.408,,,40,13.6,23.6,,,,,,,,,wg-a,,,,AAXX 07064 07510 02/60 /0404 10160 20140 30197 40270 52001 60006 80000 90600 333 10236 20136 60004=
07510,1997-07-07 09:00:00,22,1026.1,-0.8,60,14,10000,14.816,,,60,,,,,,,,,,,wg-a,,,,AAXX 07094 07510 12/60 00608 10220 20140 30189 40261 58008 60006 80000 90900=
07510,1997-07-07 12:00:00,25,1024.6,-1.4,47,13,15000,14.816,,,60,,,,,,,,,,,wg-a,,,,AAXX 07124 07510 12665 30608 10250 20130 30175 40246 56014 60006 83200 91200=
07510,1997-07-07 15:00:00,26,1023.1,-1.5,48,14,15000,18.52,,,60,,,,,,,,,,,wg-a,,,,AAXX 07154 07510 12765 40610 10260 20140 30160 40231 57015 60006 84500 91500=
07510,1997-07-07 18:00:00,26,1021.8,-1.3,45,13,15000,18.52,,,50,16.4,26.5,,,,,,,,,wg-a,,,,AAXX 07184 07510 12765 20510 10260 20130 30147 40218 56013 60006 82500 91800 333 10265 20164=
07510,1997-07-07 21:00:00,22,1022.2,0.3,57,13,15000,7.408,,,30,,,,,,,,,,,wg-a,,,,AAXX 07214 07510 12/65 00304 10220 20130 30150 40222 53003 60006 80000 92100=
07510,1997-07-08 00:00:00,19,1021.6,-0.6,73,14,15000,7.408,,,40,,,,,,,,,,,wg-a,,,,AAXX 08004 07510 12/65 00404 10190 20140 30144 40216 58006 60006 80000 90000=
07510,1997-07-08 06:00:00,18,1020.3,-0,77,14,15000,14.816,,,50,16.2,25.6,,,,,,,,,wg-a,,,,AAXX 08064 07510 02/65 00508 10180 20140 30131 40203 55000 60006 80000 90600 333 10256 20162 60004=
07510,1997-07-08 09:00:00,23,1019.4,-0.8,53,13,10000,22.224,,,60,,,,,,,,,,,wg-a,,,,AAXX 08094 07510 12/60 /0612 10230 20130 30123 40194 56008 60006 90900=
07510,1997-07-08 12:00:00,26,1017.7,-1.6,39,11,20000,22.224,,,60,,,,,,,,,,,wg-a,,,,AAXX 08124 07510 12670 /0612 10260 20110 30107 40177 58016 60006 81100 91200=
07510,1997-07-08 15:00:00,28,1016,-1.7,37,12,20000,18.52,,,70,,,,,,,,,,,wg-a,,,,AAXX 08154 07510 12/70 10710 10280 20120 30090 40160 57017 60006 80001 91500=
07510,1997-07-08 18:00:00,28,1014.8,-1.2,37,12,20000,18.52,,,50,18.3,28,,,,,,,,,wg-a,,,,AAXX 08184 07510 12/70 20510 10280 20120 30078 40148 56012 60006 80002 91800 333 10280 20183=
07510,1997-07-08 21:00:00,23,1014.9,-0,53,13,20000,14.816,,,50,,,,,,,,,,,wg-a,,,,AAXX 08214 07510 12/70 30508 10230 20130 30078 40149 55000 60006 80002 92100=
07510,1997-07-09 00:00:00,21,1014.9,-0,60,13,20000,7.408,,,40,,,,,,,,,,,wg-a,,,,AAXX 09004 07510 12/70 30404 10210 20130 30078 40149 55000 60006 80002 90000=
07510,1997-07-09 03:00:00,18,1013.8,-1.2,73,13,15000,7.408,,,30,,,,,,,,,,,wg-a,,,,AAXX 09034 07510 12/65 30304 10180 20130 30066 40138 58012 60006 80002 90300=
07510,1997-07-09 06:00:00,18,1013.7,-0.1,77,14,15000,14.816,,,40,16.8,27.6,,,,,,,,,wg-a,,,,AAXX 09064 07510 02/65 60408 10180 20140 30065 40137 58001 60006 80002 90600 333 10276 20168 60004=
07510,1997-07-09 12:00:00,26,1012.9,-0.5,51,15,15000,11.112,,,40,,,,,,,,,,,wg-a,,,,AAXX 09124 07510 12665 70406 10260 20150 30059 40129 57005 60006 81102 91200=
07510,1997-07-09 15:00:00,28,1012.1,-0.7,45,15,15000,11.112,,,340,,,,,,,,,,,wg-a,,,,AAXX 09154 07510 12665 73406 10280 20150 30052 40121 56007 60006 82282 91500=
07510,1997-07-09 18:00:00,22,1012.6,0.3,78,18,15000,18.52,,,220,17.8,28,,,,,,,,,wg-a,,,,AAXX 09184 07510 12665 72210 10220 20180 30055 40126 51003 60006 81182 91800 333 10280 20178=
07510,1997-07-10 00:00:00,18,1013.3,-0.3,94,17,10000,11.112,,,240,,,,,,,,,,,wg-a,,,,AAXX 10004 07510 12760 72406 10180 20170 30061 40133 58003 60006 8257/ 90000=
07510,1997-07-10 03:00:00,18,1012.6,-0.7,94,17,8000,7.408,,,230,,,,0,,,,,,60,wg-a,,,,AAXX 10034 07510 12658 72304 10180 20170 30054 40126 56007 60007 76062 8383/ 90300=
07510,1997-07-10 06:00:00,18,1012.5,-0.1,94,17,3000,14.816,,,210,17.6,21.7,,,,,,,,10,wg-a,,,,AAXX 10064 07510 02230 72108 10180 20170 30053 40125 58001 61000 71065 8675/ 90600 333 10217 20176 6000=
07510,1997-07-10 09:00:00,19,1013.3,0.9,94,18,500,11.112,,,230,,,,0,,,,,,60,wg-a,,,,AAXX 10094 07510 12200 72306 10190 20180 30062 40133 51009 60007 76062 8575/ 90900=
07510,1997-07-10 12:00:00,23,1013.4,0.2,73,18,8000,11.112,,,260,,,,,,,,,,1,wg-a,,,,AAXX 10124 07510 02558 72606 10230 20180 30064 40134 50002 60016 70162 8585/ 91200 333 61000=
07510,1997-07-10 15:00:00,22,1013.3,-0.2,78,18,8000,14.816,,,290,,,,,,,,,,17,wg-a,,,,AAXX 10154 07510 12558 52908 10220 20180 30062 40133 56002 60006 71792 8495/ 91500=
07510,1997-07-10 18:00:00,22,1014,0.7,78,18,10000,18.52,,,280,17.6,23.8,,,,,,,,1,wg-a,,,,AAXX 10184 07510 12560 /2810 10220 20180 30069 40140 53007 60006 70192 81253 91800 333 10238 20176=
07510,1997-07-11 00:00:00,19,1016.3,0.5,94,18,8000,11.112,,,260,,,,,,,,,,3,wg-a,,,,AAXX 11004 07510 02258 72606 10190 20180 30091 40163 50005 61000 70362 86602 90000 333 ////=
07510,1997-07-11 06:00:00,18,1017.5,1.2,88,16,500,11.112,,,280,18,22.1,,,,,,,,,wg-a,,,,AAXX 11064 07510 02300 72806 10180 20160 30103 40175 53012 60006 876// 90600 333 10221 20180 60004=
07510,1997-07-11 12:00:00,22,1019.1,0.6,65,15,10000,22.224,,,280,,,,,,,,,,,wg-a,,,,AAXX 11124 07510 12660 /2812 10220 20150 30120 40191 53006 60006 86809 91200=
07510,1997-07-11 15:00:00,22,1018.6,-0.5,65,15,10000,18.52,,,300,,,,,,,,,,,wg-a,,,,AAXX 11154 07510 12560 /3010 10220 20150 30115 40186 58005 60006 86800 91500=
07510,1997-07-11 18:00:00,21,1018.3,-0.3,73,16,15000,14.816,,,320,18,22.8,,,,,,,,,wg-a,,,,AAXX 11184 07510 12565 33208 10210 20160 30112 40183 55003 60006 83800 91800 333 10228 20180=
07510,1997-07-11 21:00:00,18,1019.3,0.9,83,15,15000,7.408,,,320,,,,,,,,,,,wg-a,,,,AAXX 11214 07510 12565 33204 10180 20150 30121 40193 53009 60006 81402 92100=
07510,1997-07-12 00:00:00,15,1018.9,-0.5,94,14,15000,0,,,0,,,,,,,,,,,wg-a,,,,AAXX 12004 07510 12/65 20000 10150 20140 30116 40189 58005 60006 80002 90000=
07510,1997-07-12 03:00:00,13,1018.4,-0.5,94,12,10000,0,,,0,,,,,,,,,,11,wg-a,,,,AAXX 12034 07510 12/60 20000 10130 20120 30111 40184 56005 60006 71100 80002 90300=
07510,1997-07-12 06:00:00,14,1018.5,0.1,100,14,6000,0,,,0,12.1,21.4,,,,,,,,11,wg-a,,,,AAXX 12064 07510 02556 40000 10140 20140 30112 40185 52001 60006 71100 83502 90600 333 10214 20121 60004=
07510,1997-07-12 09:00:00,21,1018,-0.3,69,15,10000,3.704,,,90,,,,,,,,,,,wg-a,,,,AAXX 12094 07510 12560 /0902 10210 20150 30109 40180 58003 60006 86200 90900=
07510,1997-07-12 12:00:00,25,1017,-0.9,54,15,15000,3.704,,,80,,,,,,,,,,,wg-a,,,,AAXX 12124 07510 12665 /0802 10250 20150 30100 40170 58009 60006 84200 91200=
07510,1997-07-12 15:00:00,27,1015.7,-1.3,48,15,15000,3.704,,,110,,,,,,,,,,,wg-a,,,,AAXX 12154 07510 12665 21102 10270 20150 30087 40157 57013 60006 82200 91500=
07510,1997-07-12 18:00:00,27,1014.8,-0.9,51,16,15000,7.408,,,140,14.5,27.5,,,,,,,,,wg-a,,,,AAXX 12184 07510 12665 /1404 10270 20160 30078 40148 56009 60006 81200 91800 333 10275 20145=
07510,1997-07-12 21:00:00,23,1015.6,0.7,65,16,15000,11.112,,,30,,,,,,,,,,,wg-a,,,,AAXX 12214 07510 12/65 10306 10230 20160 30085 40156 53007 60006 80002 92100=
07510,1997-07-13 00:00:00,20,1015.9,0.3,83,17,15000,7.408,,,40,,,,,,,,,,13,wg-a,,,,AAXX 13004 07510 12665 40404 10200 20170 30088 40159 51003 60006 71300 82982 90000=
07510,1997-07-13 03:00:00,19,1015.2,-0.8,83,16,10000,7.408,,,30,,,,0,,,,,,13,wg-a,,,,AAXX 13034 07510 12560 70304 10190 20160 30080 40152 57008 60007 71361 81982 90300=
07510,1997-07-13 06:00:00,18,1015.5,0.3,100,18,6000,18.52,,,160,17.7,27,,,,,4,,,29,wg-a,,,,AAXX 13064 07510 02556 81610 10180 20180 30083 40155 51003 60006 72996 8498/ 90600 333 10270 20177 60044=
07510,1997-07-13 09:00:00,21,1016.8,1.4,88,19,8000,14.816,,,140,,,,1,,,,,,80,wg-a,,,,AAXX 13094 07510 12558 71408 10210 20190 30097 40168 51014 60017 78086 84882 90900=
07510,1997-07-13 12:00:00,21,1016.9,0.1,88,19,500,18.52,,,50,,,,1,,,,,,80,wg-a,,,,AAXX 13124 07510 02400 80510 10210 20190 30098 40169 50001 60026 78098 8499/ 91200 333 60017=
07510,1997-07-13 15:00:00,24,1017.7,0.9,74,19,10000,22.224,,,330,,,,0,,,,,,3,wg-a,,,,AAXX 13154 07510 12560 73312 10240 20190 30107 40177 50009 60007 70396 82282 91500=
07510,1997-07-13 18:00:00,25,1016.9,-0.8,61,17,15000,11.112,,,340,18.3,24.8,,,,,,,,3,wg-a,,,,AAXX 13184 07510 12665 53406 10250 20170 30099 40169 55008 60006 70396 81182 91800 333 10248 20183=
07510,1997-07-13 21:00:00,21,1018.5,1.5,83,18,15000,7.408,,,30,,,,,,,,,,1,wg-a,,,,AAXX 13214 07510 12/65 70304 10210 20180 30114 40185 51015 60006 70192 85092 92100=
07510,1997-07-14 00:00:00,20,1019.3,0.7,88,18,10000,3.704,,,220,,,,,,,,,,13,wg-a,,,,AAXX 14004 07510 12760 82202 10200 20180 30121 40193 53007 60006 71392 879// 90000=
07510,1997-07-14 03:00:00,19,1019.1,-0.2,88,17,10000,0,,,0,,,,,,,,,,,wg-a,,,,AAXX 14034 07510 12660 /0000 10190 20170 30119 40191 58002 60006 85882 90300=
07510,1997-07-14 06:00:00,18,1020.2,1.1,100,18,6000,7.408,,,250,17.5,24.8,,,,,2,,,,wg-a,,,,AAXX 14064 07510 02/56 72504 10180 20180 30130 40202 53011 60006 82032 90600 333 10248 20175 60024=
07510,1997-07-14 09:00:00,22,1020.9,0.8,83,19,10000,7.408,,,300,,,,,,,,,,,wg-a,,,,AAXX 14094 07510 12/60 /3004 10220 20190 30138 40209 53008 60006 83032 90900=
07510,1997-07-14 12:00:00,27,1020.9,0.1,54,17,10000,7.408,,,330,,,,,,,,,,,wg-a,,,,AAXX 14124 07510 12660 53304 10270 20170 30139 40209 53001 60006 85102 91200=
07510,1997-07-14 15:00:00,27,1020.9,-0,58,18,10000,11.112,,,350,,,,,,,,,,,wg-a,,,,AAXX 14154 07510 12660 43506 10270 20180 30139 40209 55000 60006 84200 91500=
07510,1997-07-14 18:00:00,25,1021.7,0.7,57,16,15000,18.52,,,310,18.3,28.3,,,,,,,,,wg-a,,,,AAXX 14184 07510 12665 23110 10250 20160 30146 40217 53007 60006 81230 91800 333 10283 20183=
07510,1997-07-14 21:00:00,19,1023.7,1.9,83,16,15000,11.112,,,320,,,,,,,,,,,wg-a,,,,AAXX 14214 07510 12665 33206 10190 20160 30165 40237 53019 60006 81432 92100=
07510,1997-07-15 00:00:00,16,1024.7,0.9,88,14,15000,7.408,,,340,,,,,,,,,,,wg-a,,,,AAXX 15004 07510 12/65 13404 10160 20140 30174 40247 53009 60006 80002 90000=
07510,1997-07-15 03:00:00,15,1024,-0.7,94,14,10000,3.704,,,280,,,,,,,,,,,wg-a,,,,AAXX 15034 07510 12660 32802 10150 20140 30167 40240 56007 60006 81530 90300=
07510,1997-07-15 06:00:00,16,1023.9,-0.1,88,14,10000,3.704,,,320,14.1,24.9,,,,,,,,,wg-a,,,,AAXX 15064 07510 02/60 43202 10160 20140 30166 40239 55001 60006 81032 90600 333 10249 20141 60004=
07510,1997-07-15 12:00:00,26,1022.7,-1.2,30,7,20000,7.408,,,90,,,,,,,,,,,wg-a,,,,AAXX 15124 07510 12/70 50904 10260 20070 30156 40227 57012 60006 80002 91200=
07510,1997-07-15 18:00:00,28,1019.3,-1.6,35,11,20000,11.112,,,50,15.8,28.2,,,,,,,,,wg-a,,,,AAXX 15184 07510 12/70 60506 10280 20110 30123 40193 56016 60006 80002 91800 333 10282 20158=
07510,1997-07-15 21:00:00,23,1019.6,0.2,57,14,20000,3.704,,,290,,,,,,,,,,,wg-a,,,,AAXX 15214 07510 12/70 62902 10230 20140 30125 40196 53002 60006 81032 92100=
07510,1997-07-16 00:00:00,21,1018.3,-1.3,69,15,15000,11.112,,,20,,,,,,,,,,,wg-a,,,,AAXX 16004 07510 12/65 40206 10210 20150 30112 40183 58013 60006 81032 90000=
07510,1997-07-16 03:00:00,19,1017.6,-0.8,78,15,15000,7.408,,,10,,,,,,,,,,,wg-a,,,,AAXX 16034 07510 12/65 20104 10190 20150 30104 40176 56008 60006 80002 90300=
07510,1997-07-16 06:00:00,19,1016.7,-0.9,78,15,15000,11.112,,,40,18.4,27.7,,,,,,,,,wg-a,,,,AAXX 16064 07510 02/65 70406 10190 20150 30095 40167 55009 60006 80002 90600 333 10277 20184 60004=
07510,1997-07-16 12:00:00,24,1015,-0.5,65,17,15000,14.816,,,50,,,,,,,,,,,wg-a,,,,AAXX 16124 07510 12765 80508 10240 20170 30080 40150 58005 60006 8459/ 91200=
07510,1997-07-16 15:00:00,27,1013.1,-1.8,51,16,15000,22.224,,,20,,,,,,,,,,3,wg-a,,,,AAXX 16154 07510 02765 70212 10270 20160 30062 40131 57018 61000 70362 84882 91500 333 ////=
07510,1997-07-16 18:00:00,26,1012.5,-0.7,61,18,20000,14.816,,,340,19.3,27.4,,,,,,,,1,wg-a,,,,AAXX 16184 07510 12/70 73408 10260 20180 30055 40125 58007 60006 70162 86032 91800 333 10274 20193=
07510,1997-07-17 00:00:00,21,1012.6,-0.8,88,19,15000,7.408,,,240,,,,,,,,,,2,wg-a,,,,AAXX 17004 07510 02765 62404 10210 20190 30055 40126 58008 61000 70262 82582 90000 333 6100=
07510,1997-07-17 03:00:00,20,1012,-0.6,78,16,15000,18.52,,,340,,,,,,,,,,,wg-a,,,,AAXX 17034 07510 12765 73410 10200 20160 30049 40120 56006 60006 8353/ 90300=
07510,1997-07-17 06:00:00,19,1013,1,83,16,15000,18.52,,,360,18.8,26.1,,,,,,,,,wg-a,,,,AAXX 17064 07510 02765 53610 10190 20160 30059 40130 53010 60006 82570 90600 333 10261 20188 61000=
07510,1997-07-17 09:00:00,20,1014.5,1.5,78,16,15000,18.52,,,350,,,,,,,,,,60,wg-a,,,,AAXX 17094 07510 02765 73510 10200 20160 30074 40145 51015 61000 76062 8258/ 90900 333 ////=
07510,1997-07-17 12:00:00,22,1015.7,1.2,69,16,15000,18.52,,,320,,,,,,,,,,2,wg-a,,,,AAXX 17124 07510 02565 73210 10220 20160 30086 40157 51012 61000 70262 8288/ 91200 333 6100=
07510,1997-07-17 15:00:00,23,1016.9,1.2,65,16,15000,29.632,,,300,,,,,,,,,,,wg-a,,,,AAXX 17154 07510 12565 43016 10230 20160 30098 40169 53012 60006 83180 91500=
07510,1997-07-17 18:00:00,20,1018.1,1.2,73,15,15000,25.928,,,310,19,24.6,,,,,,,,,wg-a,,,,AAXX 17184 07510 12465 63114 10200 20150 30110 40181 53012 60006 84802 91800 333 10246 20190=
07510,1997-07-17 21:00:00,18,1020.2,2,94,17,11000,18.52,,,270,,,,,,,,,,,wg-a,,,,AAXX 17214 07510 32/61 /2710 10180 20170 30130 40202 53020 92100=
07510,1997-07-18 00:00:00,18,1019.6,-0.6,83,15,20000,14.816,,,270,,,,,,,,,,1,wg-a,,,,AAXX 18004 07510 02470 72708 10180 20150 30124 40196 58006 61000 70165 878// 90000 333 6100=
07510,1997-07-18 06:00:00,18,1019.6,0.4,88,16,15000,11.112,,,270,17.3,20.3,,,,,,,,,wg-a,,,,AAXX 18064 07510 02465 72706 10180 20160 30124 40196 53004 60006 878// 90600 333 10203 20173 61000=
07510,1997-07-18 09:00:00,20,1019.7,0.1,64,13,15000,22.224,,,320,,,,,,,,,,,wg-a,,,,AAXX 18094 07510 12565 /3212 10200 20130 30125 40197 52001 60006 86800 90900=
07510,1997-07-18 12:00:00,21,1020.5,0.9,56,12,15000,25.928,,,290,,,,,,,,,,,wg-a,,,,AAXX 18124 07510 12665 /2914 10210 20120 30134 40205 53009 60006 86800 91200=
07510,1997-07-18 15:00:00,21,1021.2,0.6,49,10,15000,22.224,,,320,,,,,,,,,,,wg-a,,,,AAXX 18154 07510 12665 /3212 10210 20100 30140 40212 51006 60006 85400 91500=
07510,1997-07-18 18:00:00,21,1021.2,-0,53,11,15000,11.112,,,300,17.7,21.8,,,,,,,,,wg-a,,,,AAXX 18184 07510 12665 23006 10210 20110 30140 40212 55000 60006 82400 91800 333 10218 20177=
07510,1997-07-18 21:00:00,17,1023.2,1.9,82,14,15000,7.408,,,280,,,,,,,,,,,wg-a,,,,AAXX 18214 07510 12/65 02804 10170 20140 30159 40232 53019 60006 80000 92100=
07510,1997-07-19 00:00:00,15,1023.2,0,88,13,15000,11.112,,,270,,,,,,,,,,,wg-a,,,,AAXX 19004 07510 12/65 02706 10150 20130 30159 40232 50000 60006 80000 90000=
07510,1997-07-19 03:00:00,14,1022.8,-0.4,94,13,15000,11.112,,,240,,,,,,,,,,,wg-a,,,,AAXX 19034 07510 12/65 02406 10140 20130 30155 40228 57004 60006 80000 90300=
07510,1997-07-19 06:00:00,15,1023.8,1,94,14,6000,7.408,,,230,13.5,20.5,,,,,,,,,wg-a,,,,AAXX 19064 07510 02/56 02304 10150 20140 30165 40238 53010 60006 80000 90600 333 10205 20135 60004=
07510,1997-07-19 09:00:00,21,1024.7,1,69,15,10000,7.408,,,310,,,,,,,,,,,wg-a,,,,AAXX 19094 07510 12560 23104 10210 20150 30175 40247 51010 60006 82100 90900=
07510,1997-07-19 12:00:00,25,1024.2,-0.4,41,11,15000,7.408,,,250,,,,,,,,,,,wg-a,,,,AAXX 19124 07510 12665 42504 10250 20110 30171 40242 58004 60006 84200 91200=
07510,1997-07-19 15:00:00,25,1023.7,-0.5,41,11,15000,22.224,,,330,,,,,,,,,,,wg-a,,,,AAXX 19154 07510 12665 43312 10250 20110 30166 40237 56005 60006 84200 91500=
07510,1997-07-19 18:00:00,24,1023.8,0.1,50,13,15000,18.52,,,20,14.9,25.7,,,,,,,,,wg-a,,,,AAXX 19184 07510 12665 40210 10240 20130 30167 40238 53001 60006 84800 91800 333 10257 20149=
07510,1997-07-19 21:00:00,19,1024.9,1,73,14,15000,11.112,,,340,,,,,,,,,,,wg-a,,,,AAXX 19214 07510 12/65 33406 10190 20140 30177 40249 53010 60006 81032 92100=
07510,1997-07-20 00:00:00,16,1024.6,-0.4,88,14,15000,0,,,0,,,,,,,,,,,wg-a,,,,AAXX 20004 07510 12/65 30000 10160 20140 30173 40246 58004 60006 80002 90000=
07510,1997-07-20 03:00:00,15,1023.4,-1.2,88,13,15000,3.704,,,340,,,,,,,,,,,wg-a,,,,AAXX 20034 07510 12/65 33402 10150 20130 30161 40234 56012 60006 80002 90300=
07510,1997-07-20 06:00:00,15,1023.4,-0,94,14,10000,3.704,,,300,13,23.5,,,,,,,,11,wg-a,,,,AAXX 20064 07510 02/60 53002 10150 20140 30161 40234 55000 60006 71111 80001 90600 333 10235 20130 60004=
07510,1997-07-20 09:00:00,23,1023,-0.2,61,15,15000,7.408,,,70,,,,,,,,,,,wg-a,,,,AAXX 20094 07510 12/65 10704 10230 20150 30159 40230 56002 60006 80009 90900=
07510,1997-07-20 12:00:00,26,1021.7,-1.2,42,12,15000,11.112,,,40,,,,,,,,,,,wg-a,,,,AAXX 20124 07510 12665 40406 10260 20120 30147 40217 58012 60006 84200 91200=
07510,1997-07-20 15:00:00,27,1020,-1.7,37,11,15000,11.112,,,30,,,,,,,,,,,wg-a,,,,AAXX 20154 07510 12665 /0306 10270 20110 30130 40200 56017 60006 84201 91500=
07510,1997-07-20 18:00:00,26,1019.1,-0.9,39,11,15000,22.224,,,20,15.2,27.3,,,,,,,,,wg-a,,,,AAXX 20184 07510 12665 70212 10260 20110 30121 40191 56009 60006 81101 91800 333 10273 20152=
07510,1997-07-20 21:00:00,21,1020.1,0.8,64,14,15000,14.816,,,10,,,,,,,,,,,wg-a,,,,AAXX 20214 07510 12/65 60108 10210 20140 30129 40201 53008 60006 80001 92100=
07510,1997-07-21 00:00:00,18,1019.9,-0.2,73,13,15000,7.408,,,50,,,,,,,,,,,wg-a,,,,AAXX 21004 07510 12/65 60504 10180 20130 30127 40199 58002 60006 80001 90000=
07510,1997-07-21 06:00:00,16,1018.9,-0,72,11,15000,11.112,,,50,15.6,26,,,,,,,,,wg-a,,,,AAXX 21064 07510 02/65 70506 10160 20110 30116 40189 54000 60006 82031 90600 333 10260 20156 60004=
07510,1997-07-21 09:00:00,22,1018.5,-0.2,50,11,15000,18.52,,,70,,,,,,,,,,,wg-a,,,,AAXX 21094 07510 12/65 40710 10220 20110 30114 40185 57002 60006 82031 90900=
07510,1997-07-21 12:00:00,26,1017.2,-1.2,34,9,15000,14.816,,,70,,,,,,,,,,,wg-a,,,,AAXX 21124 07510 12/65 40708 10260 20090 30102 40172 56012 60006 80002 91200=
07510,1997-07-21 15:00:00,28,1016,-1.2,30,9,15000,14.816,,,40,,,,,,,,,,,wg-a,,,,AAXX 21154 07510 12/65 50408 10280 20090 30090 40160 57012 60006 80002 91500=
07510,1997-07-21 18:00:00,27,1015,-1,32,9,15000,14.816,,,50,16.3,27.6,,,,,,,,,wg-a,,,,AAXX 21184 07510 12/65 60508 10270 20090 30080 40150 56010 60006 80002 91800 333 10276 20163=
07510,1997-07-21 21:00:00,22,1016.1,1,53,12,15000,7.408,,,50,,,,,,,,,,,wg-a,,,,AAXX 21214 07510 12/65 40504 10220 20120 30090 40161 53010 60006 81032 92100=
07510,1997-07-22 00:00:00,19,1015.8,-0.4,68,13,15000,7.408,,,40,,,,,,,,,,,wg-a,,,,AAXX 22004 07510 12/65 60404 10190 20130 30086 40158 56004 60006 81032 90000=
07510,1997-07-22 03:00:00,17,1014.8,-1,77,13,15000,7.408,,,40,,,,,,,,,,,wg-a,,,,AAXX 22034 07510 12/65 40404 10170 20130 30076 40148 58010 60006 80002 90300=
07510,1997-07-22 06:00:00,17,1015,0.2,77,13,15000,7.408,,,50,16.3,26.8,,,,,,,,,wg-a,,,,AAXX 22064 07510 02765 60504 10170 20130 30078 40150 50002 60006 81532 90600 333 10268 20163 60004=
07510,1997-07-22 09:00:00,23,1014.9,0,57,14,15000,7.408,,,40,,,,,,,,,,,wg-a,,,,AAXX 22094 07510 12765 70404 10230 20140 30078 40149 50000 60006 82582 90900=
07510,1997-07-22 12:00:00,29,1014.8,0.1,43,15,15000,7.408,,,90,,,,,,,,,,25,wg-a,,,,AAXX 22124 07510 02765 80904 10290 20150 30079 40148 53001 61000 72586 85982 91200 333 6100=
07510,1997-07-22 15:00:00,28,1014.5,-0.3,42,14,15000,18.52,,,120,,,,,,,,,,,wg-a,,,,AAXX 22154 07510 12765 71210 10280 20140 30076 40145 58003 60006 82582 91500=
07510,1997-07-22 18:00:00,28,1014.2,-0.3,55,18,15000,7.408,,,120,17.2,29,,,,,,,,,wg-a,,,,AAXX 22184 07510 12765 71204 10280 20180 30073 40142 56003 60006 81582 91800 333 10290 20172=
07510,1997-07-22 21:00:00,23,1015.9,1.5,69,17,15000,7.408,,,130,,,,,,,,,,,wg-a,,,,AAXX 22214 07510 12/65 71304 10230 20170 30088 40159 53015 60006 82082 92100=
07510,1997-07-23 00:00:00,20,1015.9,0,83,17,15000,3.704,,,130,,,,,,,,,,,wg-a,,,,AAXX 23004 07510 12/65 41302 10200 20170 30088 40159 50000 60006 81082 90000=
07510,1997-07-23 03:00:00,21,1015.6,-0.3,83,18,15000,3.704,,,140,,,,,,,,,,,wg-a,,,,AAXX 23034 07510 12/65 71402 10210 20180 30085 40156 55003 60006 83082 90300=
07510,1997-07-23 06:00:00,20,1016.1,,88,18,19000,0,,,0,19.7,27.6,,,,,,,,,wg-a,,,,AAXX 23064 07510 12769 60000 10200 20180 30089 40161 60006 8582/ 90600 333 10276 20197=
07510,1997-07-23 09:00:00,27,1017.1,1.2,62,19,15000,3.704,,,250,,,,,,,,,,,wg-a,,,,AAXX 23094 07510 12/65 72502 10270 20190 30101 40171 51012 60006 80002 90900=
07510,1997-07-23 12:00:00,30,1017.1,0.1,49,18,15000,11.112,,,270,,,,,,,,,,,wg-a,,,,AAXX 23124 07510 12665 /2706 10300 20180 30102 40171 50001 60006 85202 91200=
07510,1997-07-23 18:00:00,27,1016.2,-0.2,58,18,15000,18.52,,,280,20.1,31.3,,,,,,,,,wg-a,,,,AAXX 23184 07510 12765 22810 10270 20180 30092 40162 58002 60006 81202 91800 333 10313 20201=
07510,1997-07-24 00:00:00,21,1017.7,-0.6,88,19,10000,11.112,,,260,,,,,,,,,,,wg-a,,,,AAXX 24004 07510 12760 62606 10210 20190 30106 40177 58006 60006 855/2 90000=
07510,1997-07-24 03:00:00,20,1017.3,-0.4,94,19,10000,14.816,,,240,,,,,,,,,,,wg-a,,,,AAXX 24034 07510 12760 52408 10200 20190 30102 40173 58004 60006 83530 90300=
07510,1997-07-24 06:00:00,19,1018.3,0.9,94,18,10000,14.816,,,250,18.8,27,,,,,,,,,wg-a,,,,AAXX 24064 07510 02/60 52508 10190 20180 30111 40183 53009 60006 83032 90600 333 10270 20188 60004=
07510,1997-07-24 09:00:00,26,1019.2,1.1,48,14,15000,22.224,,,310,,,,,,,,,,,wg-a,,,,AAXX 24094 07510 12/65 63112 10260 20140 30122 40192 51011 60006 81032 90900=
07510,1997-07-24 12:00:00,27,1019.8,0.6,39,12,15000,29.632,,,290,,,,,,,,,,,wg-a,,,,AAXX 24124 07510 12/65 62916 10270 20120 30128 40198 50006 60006 81032 91200=
07510,1997-07-24 15:00:00,26,1020.4,0.6,39,11,15000,29.632,,,280,,,,,,,,,,,wg-a,,,,AAXX 24154 07510 12/65 62816 10260 20110 30134 40204 53006 60006 80002 91500=
07510,1997-07-24 18:00:00,23,1020.7,0.2,47,11,15000,25.928,,,280,19.1,27.4,,,,,,,,,wg-a,,,,AAXX 24184 07510 12/65 62814 10230 20110 30136 40207 53002 60006 80002 91800 333 10274 20191=
07510,1997-07-25 00:00:00,19,1021.4,-0.3,94,18,8000,18.52,,,240,,,,,,,,,,50,wg-a,,,,AAXX 25004 07510 02358 72410 10190 20180 30142 40214 58003 61000 75052 875// 90000 333 6100=
07510,1997-07-25 03:00:00,19,1020.9,-0.5,94,18,9000,11.112,,,250,,,,,,,,,,1,wg-a,,,,AAXX 25034 07510 02359 72506 10190 20180 30137 40209 58005 61000 70152 87500 90300 333 ////=
07510,1997-07-25 06:00:00,19,1021.8,0.9,88,17,10000,14.816,,,270,18.2,23.3,,,,,,,,20,wg-a,,,,AAXX 25064 07510 02460 72708 10190 20170 30146 40218 53009 61000 72052 878// 90600 333 10233 20182 6100=
07510,1997-07-25 09:00:00,20,1022.4,0.6,83,17,10000,25.928,,,280,,,,,,,,,,25,wg-a,,,,AAXX 25094 07510 02460 72814 10200 20170 30152 40224 53006 61000 72586 878// 90900 333 ////=
07510,1997-07-25 12:00:00,22,1022.2,-0.1,69,16,15000,25.928,,,280,,,,,,,,,,1,wg-a,,,,AAXX 25124 07510 02565 72814 10220 20160 30151 40222 58001 61000 70186 84802 91200 333 6100=
07510,1997-07-25 15:00:00,21,1021.7,-0.5,83,18,15000,25.928,,,250,,,,,,,,,,,wg-a,,,,AAXX 25154 07510 12465 72514 10210 20180 30146 40217 58005 60006 878// 91500=
07510,1997-07-25 18:00:00,19,1022,0.2,94,18,8000,22.224,,,270,18.6,23.2,,,,,,,,50,wg-a,,,,AAXX 25184 07510 02258 72712 10190 20180 30148 40220 53002 61000 75052 875// 91800 333 10232 20186 6100=
07510,1997-07-25 21:00:00,19,1022.7,0.7,100,19,8000,14.816,,,260,,,,,,,,,,50,wg-a,,,,AAXX 25214 07510 02258 82608 10190 20190 30155 40227 53007 61000 75052 877// 92100 333 ////=
07510,1997-07-26 00:00:00,19,1023,0.3,94,18,8000,18.52,,,260,,,,0,,,,,,50,wg-a,,,,AAXX 26004 07510 02258 72610 10190 20180 30158 40230 51003 60006 75052 877// 90000 333 60007=
07510,1997-07-26 03:00:00,19,1022.6,-0.4,94,18,2500,14.816,,,270,,,,1,,,,,,10,wg-a,,,,AAXX 26034 07510 12125 72708 10190 20180 30154 40226 56004 60017 71052 877// 90300=
07510,1997-07-26 06:00:00,19,1023,0.4,94,18,10000,14.816,,,270,18.4,19.8,,,,,,,,50,wg-a,,,,AAXX 26064 07510 02260 72708 10190 20180 30158 40230 53004 61000 75052 877// 90600 333 10198 20184 6002=
07510,1997-07-26 09:00:00,20,1023.8,0.8,94,19,6000,11.112,,,310,,,,1,,,,,,50,wg-a,,,,AAXX 26094 07510 12256 73106 10200 20190 30166 40238 51008 60017 75052 877// 90900=
07510,1997-07-26 12:00:00,23,1023.5,-0.2,78,19,20000,18.52,,,280,,,,,,,,,,80,wg-a,,,,AAXX 26124 07510 02470 72810 10230 20190 30164 40235 58002 60016 78086 8780/ 91200 333 61000=
07510,1997-07-26 18:00:00,23,1022.1,-0.6,73,18,11000,14.816,,,300,18.7,23.9,,,,,,,,,wg-a,,,,AAXX 26184 07510 12/61 /3008 10230 20180 30150 40221 56006 60006 91800 333 10239 20187=
07510,1997-07-26 21:00:00,21,1023,0.8,83,18,15000,7.408,,,320,,,,,,,,,,,wg-a,,,,AAXX 26214 07510 12665 73204 10210 20180 30158 40230 53008 60006 878// 92100=
07510,1997-07-27 00:00:00,20,1022.7,-0.3,88,18,15000,3.704,,,360,,,,,,,,,,,wg-a,,,,AAXX 27004 07510 12665 73602 10200 20180 30155 40227 58003 60006 875// 90000=
07510,1997-07-27 03:00:00,19,1022.5,-0.2,94,18,15000,7.408,,,330,,,,,,,,,,,wg-a,,,,AAXX 27034 07510 12265 /3304 10190 20180 30153 40225 56002 60006 85500 90300=
07510,1997-07-27 06:00:00,18,1022.7,0.2,94,17,1500,3.704,,,350,17.6,23,,,,,1,,,28,wg-a,,,,AAXX 27064 07510 02215 /3502 10180 20170 30155 40227 53002 60006 72842 86601 90600 333 10230 20176 60014=
07510,1997-07-27 09:00:00,22,1023,0.4,78,18,8000,3.704,,,10,,,,,,,,,,,wg-a,,,,AAXX 27094 07510 12458 60102 10220 20180 30159 40230 51004 60006 83802 90900=
07510,1997-07-27 12:00:00,26,1022.5,-0.4,51,15,20000,7.408,,,40,,,,,,,,,,,wg-a,,,,AAXX 27124 07510 12670 60404 10260 20150 30155 40225 56004 60006 84402 91200=
07510,1997-07-27 15:00:00,27,1021.9,-0.6,48,15,20000,11.112,,,320,,,,,,,,,,,wg-a,,,,AAXX 27154 07510 12670 73206 10270 20150 30149 40219 58006 60006 84802 91500=
07510,1997-07-27 18:00:00,25,1021.4,-0.6,61,17,20000,18.52,,,20,17.8,27.7,,,,,,,,,wg-a,,,,AAXX 27184 07510 12670 70210 10250 20170 30143 40214 56006 60006 84802 91800 333 10277 20178=
07510,1997-07-28 00:00:00,19,1022.3,-0.3,94,18,15000,3.704,,,350,,,,,,,,,,,wg-a,,,,AAXX 28004 07510 12/65 43502 10190 20180 30151 40223 58003 60006 80002 90000=
07510,1997-07-28 03:00:00,18,1021.8,-0.5,94,17,400,3.704,,,10,,,,,,,,,,44,wg-a,,,,AAXX 28034 07510 12/04 90102 10180 20170 30146 40218 57005 60006 74441 89/// 90300=
07510,1997-07-28 06:00:00,18,1021.7,-0.1,100,18,2000,3.704,,,340,17.6,24.9,,,,,,,,40,wg-a,,,,AAXX 28064 07510 02020 /3402 10180 20180 30145 40217 55001 60006 74041 81602 90600 333 10249 20176 60004=
07510,1997-07-28 09:00:00,25,1021.6,0.1,69,19,10000,7.408,,,30,,,,0,,,,,,,wg-a,,,,AAXX 28094 07510 12560 /0304 10250 20190 30146 40216 50001 60007 82202 90900=
07510,1997-07-28 12:00:00,28,1020.8,-0.8,51,17,15000,11.112,,,340,,,,,,,,,,,wg-a,,,,AAXX 28124 07510 12665 /3406 10280 20170 30138 40208 58008 60006 85282 91200=
07510,1997-07-28 15:00:00,30,1019.4,-1.3,49,18,15000,7.408,,,350,,,,,,,,,,,wg-a,,,,AAXX 28154 07510 12665 /3504 10300 20180 30125 40194 57013 60006 85200 91500=
07510,1997-07-28 18:00:00,29,1018.9,-0.5,48,17,15000,11.112,,,350,18,30.3,,,,,,,,,wg-a,,,,AAXX 28184 07510 12665 23506 10290 20170 30120 40189 55005 60006 81102 91800 333 10303 20180=
07510,1997-07-28 21:00:00,22,1020.9,1.8,73,17,15000,11.112,,,320,,,,,,,,,,,wg-a,,,,AAXX 28214 07510 12/65 13206 10220 20170 30138 40209 53018 60006 80002 92100=
07510,1997-07-29 00:00:00,20,1020.7,-0.3,83,17,15000,3.704,,,340,,,,,,,,,,,wg-a,,,,AAXX 29004 07510 12/65 13402 10200 20170 30135 40207 57003 60006 80002 90000=
07510,1997-07-29 03:00:00,17,1020.1,-0.6,94,16,15000,7.408,,,280,,,,,,,,,,,wg-a,,,,AAXX 29034 07510 12/65 12804 10170 20160 30129 40201 56006 60006 80002 90300=
07510,1997-07-29 06:00:00,18,1020.4,0.3,94,17,15000,7.408,,,330,16.6,28.9,,,,,,,,,wg-a,,,,AAXX 29064 07510 02/65 43304 10180 20170 30132 40204 53003 60006 80002 90600 333 10289 20166 60004=
07510,1997-07-29 09:00:00,25,1020.8,0.6,65,18,15000,3.704,,,80,,,,,,,,,,,wg-a,,,,AAXX 29094 07510 12/65 40802 10250 20180 30138 40208 51006 60006 80002 90900=
07510,1997-07-29 12:00:00,31,1019.9,-0.8,40,16,15000,7.408,,,170,,,,,,,,,,,wg-a,,,,AAXX 29124 07510 12665 41704 10310 20160 30130 40199 58008 60006 83231 91200=
07510,1997-07-29 15:00:00,32,1018.8,-1.1,41,17,15000,11.112,,,270,,,,,,,,,,,wg-a,,,,AAXX 29154 07510 12765 52706 10320 20170 30119 40188 57011 60006 85201 91500=
07510,1997-07-29 18:00:00,27,1019,0.1,62,19,15000,14.816,,,310,17.7,32.3,,,,,,,,,wg-a,,,,AAXX 29184 07510 12/65 23108 10270 20190 30120 40190 53001 60006 80001 91800 333 10323 20177=
07510,1997-07-29 21:00:00,22,1020.1,1,78,18,15000,7.408,,,310,,,,,,,,,,,wg-a,,,,AAXX 29214 07510 12/65 13104 10220 20180 30130 40201 53010 60006 80001 92100=
07510,1997-07-30 00:00:00,20,1020.7,0.5,88,18,15000,11.112,,,280,,,,,,,,,,,wg-a,,,,AAXX 30004 07510 12765 72806 10200 20180 30135 40207 51005 60006 86502 90000=
07510,1997-07-30 03:00:00,19,1020.3,-0.4,94,18,10000,3.704,,,280,,,,,,,,,,,wg-a,,,,AAXX 30034 07510 12260 /2802 10190 20180 30131 40203 56004 60006 86500 90300=
07510,1997-07-30 06:00:00,19,1021,0.7,94,18,4000,7.408,,,280,19,27.1,,,,,,,,10,wg-a,,,,AAXX 30064 07510 02240 72804 10190 20180 30138 40210 53007 60006 71022 875// 90600 333 10271 20190 60004=
07510,1997-07-30 09:00:00,23,1021.3,0.4,69,17,10000,3.704,,,310,,,,,,,,,,,wg-a,,,,AAXX 30094 07510 12560 /3102 10230 20170 30142 40213 51004 60006 84800 90900=
07510,1997-07-30 12:00:00,28,1020.9,-0.3,48,16,15000,11.112,,,310,,,,,,,,,,,wg-a,,,,AAXX 30124 07510 12665 33106 10280 20160 30139 40209 58003 60006 81102 91200=
07510,1997-07-30 15:00:00,29,1020.1,-0.8,37,13,15000,14.816,,,320,,,,,,,,,,,wg-a,,,,AAXX 30154 07510 12765 33208 10290 20130 30131 40201 58008 60006 81202 91500=
07510,1997-07-30 18:00:00,25,1020.3,0.1,47,13,15000,14.816,,,310,19.3,29.5,,,,,,,,,wg-a,,,,AAXX 30184 07510 12765 63108 10250 20130 30132 40203 53001 60006 814/2 91800 333 10295 20193=
07510,1997-07-30 21:00:00,20,1022,1.6,83,17,15000,11.112,,,310,,,,,,,,,,,wg-a,,,,AAXX 30214 07510 12/65 43106 10200 20170 30148 40220 52016 60006 80002 92100=
07510,1997-07-31 00:00:00,19,1022.2,0.2,88,17,10000,3.704,,,270,,,,,,,,,,,wg-a,,,,AAXX 31004 07510 12260 /2702 10190 20170 30150 40222 50002 60006 86600 90000=
07510,1997-07-31 03:00:00,18,1021.6,-0.6,94,17,10000,7.408,,,270,,,,,,,,,,,wg-a,,,,AAXX 31034 07510 12/60 /2704 10180 20170 30144 40216 56006 60006 80000 90300=
07510,1997-07-31 06:00:00,17,1022.1,0.4,94,16,12000,7.408,,,260,16.7,25.2,,,,,,,,,wg-a,,,,AAXX 31064 07510 02/62 42604 10170 20160 30148 40221 53004 60006 80002 90600 333 10252 20167 60004=
07510,1997-07-31 09:00:00,22,1022.1,0.2,69,16,15000,11.112,,,260,,,,,,,,,,,wg-a,,,,AAXX 31094 07510 12465 /2606 10220 20160 30150 40221 50002 60006 81102 90900=
07510,1997-07-31 12:00:00,27,1021.1,-0.9,48,15,15000,7.408,,,300,,,,,,,,,,,wg-a,,,,AAXX 31124 07510 12665 /3004 10270 20150 30141 40211 58009 60006 83102 91200=
07510,1997-07-31 15:00:00,28,1020,-1.1,37,12,11000,7.408,,,330,,,,,,,,,,,wg-a,,,,AAXX 31154 07510 12/61 /3304 10280 20120 30130 40200 58011 60006 91500=
07510,1997-07-31 18:00:00,26,1019.6,-0.4,45,13,15000,14.816,,,350,17.1,28.5,,,,,,,,,wg-a,,,,AAXX 31184 07510 12665 /3508 10260 20130 30126 40196 57004 60006 81402 91800 333 10285 20171=
07510,1997-08-01 00:00:00,16,1020.6,-0.5,82,13,15000,3.704,,,310,,,,,,,,,,,wg-a,,,,AAXX 01004 07510 12/65 53102 10160 20130 30133 40206 57005 60006 80002 90000=
07510,1997-08-01 03:00:00,14,1019.7,-0.9,94,13,15000,3.704,,,270,,,,,,,,,,,wg-a,,,,AAXX 01034 07510 12/65 52702 10140 20130 30124 40197 56009 60006 80002 90300=
07510,1997-08-01 06:00:00,15,1019.7,-0,94,14,15000,7.408,,,280,13.6,25.6,,,,,,,,,wg-a,,,,AAXX 01064 07510 02/65 32804 10150 20140 30124 40197 55000 60006 80002 90600 333 10256 20136 60004=
07510,1997-08-01 09:00:00,21,1019.7,0.2,69,15,15000,11.112,,,340,,,,,,,,,,,wg-a,,,,AAXX 01094 07510 12565 /3406 10210 20150 30126 40197 51002 60006 86200 90900=
07510,1997-08-01 12:00:00,25,1018.6,-1,50,14,15000,11.112,,,290,,,,,,,,,,,wg-a,,,,AAXX 01124 07510 12565 /2906 10250 20140 30116 40186 57010 60006 82401 91200=
07510,1997-08-01 18:00:00,22,1017.9,0.2,65,15,15000,22.224,,,310,15.1,27.6,,,,,,,,,wg-a,,,,AAXX 01184 07510 12665 /3112 10220 20150 30108 40179 53002 60006 81402 91800 333 10276 20151=
07510,1997-08-01 21:00:00,18,1019,1,77,14,15000,7.408,,,320,,,,,,,,,,,wg-a,,,,AAXX 01214 07510 12/65 63204 10180 20140 30118 40190 53010 60006 80002 92100=
07510,1997-08-02 00:00:00,15,1019.1,-0,88,13,15000,3.704,,,310,,,,,,,,,,,wg-a,,,,AAXX 02004 07510 12/65 33102 10150 20130 30118 40191 55000 60006 80002 90000=
07510,1997-08-02 06:00:00,14,1018.6,0.3,94,13,15000,0,,,0,13,22.4,,,,,,,,11,wg-a,,,,AAXX 02064 07510 02/65 20000 10140 20130 30113 40186 51003 60006 71100 80002 90600 333 10224 20130 60004=
07510,1997-08-02 09:00:00,22,1018.3,-0.1,65,15,15000,3.704,,,10,,,,,,,,,,,wg-a,,,,AAXX 02094 07510 12/65 10102 10220 20150 30112 40183 57001 60006 80002 90900=
07510,1997-08-02 12:00:00,28,1017,-1.2,40,13,15000,11.112,,,60,,,,,,,,,,,wg-a,,,,AAXX 02124 07510 12/65 20606 10280 20130 30100 40170 58012 60006 80002 91200=
07510,1997-08-02 15:00:00,30,1015.9,-1,31,11,15000,14.816,,,40,,,,,,,,,,,wg-a,,,,AAXX 02154 07510 12/65 30408 10300 20110 30090 40159 58010 60006 80002 91500=
07510,1997-08-02 18:00:00,29,1015.3,-0.6,48,17,15000,14.816,,,330,14.4,30.4,,,,,,,,,wg-a,,,,AAXX 02184 07510 12/65 23308 10290 20170 30084 40153 56006 60006 80002 91800 333 10304 20144=
07510,1997-08-02 21:00:00,22,1016.4,0.9,69,16,15000,3.704,,,320,,,,,,,,,,,wg-a,,,,AAXX 02214 07510 12/65 23202 10220 20160 30093 40164 53009 60006 80002 92100=
07510,1997-08-03 00:00:00,19,1016.2,-0.3,78,15,15000,3.704,,,290,,,,,,,,,,,wg-a,,,,AAXX 03004 07510 12/65 02902 10190 20150 30090 40162 58003 60006 80000 90000=
07510,1997-08-03 03:00:00,17,1015.2,-1,88,15,15000,3.704,,,250,,,,,,,,,,,wg-a,,,,AAXX 03034 07510 12/65 02502 10170 20150 30080 40152 56010 60006 80000 90300=
07510,1997-08-03 06:00:00,17,1015.6,0.4,94,16,15000,7.408,,,210,15.9,28.7,,,,,,,,,wg-a,,,,AAXX 03064 07510 02/65 12104 10170 20160 30084 40156 53004 60006 80002 90600 333 10287 20159 60004=
07510,1997-08-03 09:00:00,26,1015.3,-0.1,65,19,15000,3.704,,,200,,,,,,,,,,,wg-a,,,,AAXX 03094 07510 12/65 12002 10260 20190 30083 40153 55001 60006 80002 90900=
07510,1997-08-03 12:00:00,31,1014.3,-0.9,46,18,15000,3.704,,,60,,,,,,,,,,,wg-a,,,,AAXX 03124 07510 12765 20602 10310 20180 30074 40143 58009 60006 81202 91200=
07510,1997-08-03 15:00:00,34,1012.7,-1.5,36,17,15000,7.408,,,120,,,,,,,,,,,wg-a,,,,AAXX 03154 07510 12765 /1204 10340 20170 30059 40127 56015 60006 81202 91500=
07510,1997-08-03 18:00:00,31,1012.3,-0.4,52,20,15000,14.816,,,310,16.9,34.4,,,,,,,,,wg-a,,,,AAXX 03184 07510 12/65 13108 10310 20200 30055 40123 55004 60006 80002 91800 333 10344 20169=
07510,1997-08-03 21:00:00,25,1013.9,1.4,69,19,15000,7.408,,,300,,,,,,,,,,,wg-a,,,,AAXX 03214 07510 12/65 13004 10250 20190 30069 40139 51014 60006 80002 92100=
07510,1997-08-04 00:00:00,21,1014.2,0.2,88,19,15000,11.112,,,270,,,,,,,,,,,wg-a,,,,AAXX 04004 07510 12/65 12706 10210 20190 30071 40142 50002 60006 80002 90000=
07510,1997-08-04 03:00:00,21,1013.6,-0.6,94,20,500,11.112,,,300,,,,,,,,,,1,wg-a,,,,AAXX 04034 07510 12200 83006 10210 20200 30065 40136 57006 60006 70141 886// 90300=
07510,1997-08-04 06:00:00,21,1015.6,2,94,20,6000,11.112,,,260,20.2,31.1,,,,,,,,17,wg-a,,,,AAXX 04064 07510 02256 82606 10210 20200 30085 40156 53020 61000 71796 8598/ 90600 333 10311 20202 6000=
07510,1997-08-04 12:00:00,27,1015.3,1,70,21,12000,14.816,,,210,,,,,,,,,,3,wg-a,,,,AAXX 04124 07510 12462 /2108 10270 20210 30084 40153 51010 60026 70398 82232 91200=
07510,1997-08-04 15:00:00,28,1014.1,-1.2,66,21,15000,3.704,,,280,,,,,,,,,,,wg-a,,,,AAXX 04154 07510 12565 52802 10280 20210 30072 40141 58012 60006 83802 91500=
07510,1997-08-04 18:00:00,26,1014.2,-0,74,21,15000,11.112,,,330,20.2,29.2,,,,,,,,,wg-a,,,,AAXX 04184 07510 12565 /3306 10260 20210 30072 40142 55000 60006 83880 91800 333 10292 20202=
07510,1997-08-04 21:00:00,21,1016.4,2.1,88,19,8000,11.112,,,330,,,,0,,,,,,13,wg-a,,,,AAXX 04214 07510 12558 73306 10210 20190 30093 40164 51021 60007 71386 8798/ 92100=
07510,1997-08-05 00:00:00,20,1015.9,-0.5,94,19,500,14.816,,,20,,,,2,,,,,,80,wg-a,,,,AAXX 05004 07510 02300 70208 10200 20190 30088 40159 58005 60026 78098 879// 90000 333 60027=
07510,1997-08-05 03:00:00,20,1016,0.1,94,19,500,3.704,,,80,,,,4,,,,,,17,wg-a,,,,AAXX 05034 07510 12200 70802 10200 20190 30089 40160 53001 60047 71799 879// 90300=
07510,1997-08-05 06:00:00,19,1015.8,-0.3,94,18,2500,3.704,,,290,18.5,25.9,,,,,,,,10,wg-a,,,,AAXX 05064 07510 02125 72902 10190 20180 30086 40158 55003 61000 71098 8698/ 90600 333 10259 20185 6010=
07510,1997-08-05 09:00:00,20,1015.8,0.6,94,19,6000,11.112,,,90,,,,,,,,,,,wg-a,,,,AAXX 05094 07510 12356 70906 10200 20190 30087 40158 51006 60006 8488/ 90900=
07510,1997-08-05 12:00:00,21,1015.3,-0.5,94,20,4000,7.408,,,110,,,,1,,,,,,61,wg-a,,,,AAXX 05124 07510 02340 71104 10210 20200 30082 40153 58005 60016 76162 8588/ 91200 333 60017=
07510,1997-08-05 15:00:00,21,1014.9,-0.4,94,20,500,3.704,,,120,,,,3,,,,,,60,wg-a,,,,AAXX 05154 07510 12200 71202 10210 20200 30078 40149 58004 60037 76062 878// 91500=
07510,1997-08-05 18:00:00,22,1014.8,-0.1,88,20,10000,3.704,,,300,18.7,22.1,,,,,,,,3,wg-a,,,,AAXX 05184 07510 02260 73002 10220 20200 30077 40148 55001 60006 70362 878// 91800 333 10221 20187 61000=
07510,1997-08-05 21:00:00,20,1015.4,0.6,100,20,2500,7.408,,,310,,,,1,,,,,,10,wg-a,,,,AAXX 05214 07510 12125 83104 10200 20200 30083 40154 53006 60017 71062 877// 92100=
07510,1997-08-06 00:00:00,19,1015.3,-0.1,100,19,10000,7.408,,,280,,,,,,,,,,21,wg-a,,,,AAXX 06004 07510 02560 72804 10190 20190 30082 40153 58001 60016 72162 877// 90000 333 61000=
07510,1997-08-06 03:00:00,19,1014.1,-1.2,94,18,8000,3.704,,,50,,,,,,,,,,,wg-a,,,,AAXX 06034 07510 12/58 /0502 10190 20180 30070 40141 58012 60006 90300=
07510,1997-08-06 06:00:00,19,1014.2,-0,94,18,2000,7.408,,,260,18.4,21.7,,,,,,,,10,wg-a,,,,AAXX 06064 07510 02120 82604 10190 20180 30070 40142 55000 61000 71062 8457/ 90600 333 10217 20184 6005=
07510,1997-08-06 09:00:00,19,1014,-0.1,94,18,10000,11.112,,,350,,,,1,,,,,,21,wg-a,,,,AAXX 06094 07510 12460 83506 10190 20180 30069 40140 56001 60017 72162 8587/ 90900=
07510,1997-08-06 12:00:00,20,1013.5,-0.5,94,19,2000,11.112,,,30,,,,1,,,,,,50,wg-a,,,,AAXX 06124 07510 02220 80306 10200 20190 30064 40135 58005 60026 75065 875// 91200 333 60017=
07510,1997-08-06 15:00:00,24,1012,-1.4,78,20,10000,0,,,0,,,,,,,,,,1,wg-a,,,,AAXX 06154 07510 02460 /0000 10240 20200 30050 40120 58014 61000 70152 86800 91500 333 ////=
07510,1997-08-06 18:00:00,23,1011.3,-0.7,83,20,10000,14.816,,,310,18.4,24.8,,,,,,,,3,wg-a,,,,AAXX 06184 07510 12460 63108 10230 20200 30043 40113 56007 60006 70352 85880 91800 333 10248 20184=
07510,1997-08-06 21:00:00,20,1012.2,0.8,94,19,10000,7.408,,,350,,,,,,,,,,,wg-a,,,,AAXX 06214 07510 12260 63504 10200 20190 30051 40122 51008 60006 8478/ 92100=
07510,1997-08-07 00:00:00,19,1011.7,-0.5,100,19,8000,3.704,,,340,,,,,,,,,,10,wg-a,,,,AAXX 07004 07510 12/58 43402 10190 20190 30046 40117 58005 60006 71011 82032 90000=
07510,1997-08-07 03:00:00,18,1009.8,-1.9,94,17,10000,22.224,,,300,,,,8,,,,,,80,wg-a,,,,AAXX 07034 07510 12260 73012 10180 20170 30027 40098 58019 60087 78098 8693/ 90300=
07510,1997-08-07 06:00:00,18,1011.6,1.7,94,17,15000,7.408,,,90,16.8,22.7,,,,,9,,,1,wg-a,,,,AAXX 07064 07510 02665 50904 10180 20170 30044 40116 50017 60006 70198 83882 90600 333 10227 20168 60094=
07510,1997-08-07 09:00:00,24,1011.2,-0.2,69,18,15000,7.408,,,110,,,,,,,,,,,wg-a,,,,AAXX 07094 07510 12665 41104 10240 20180 30042 40112 58002 60006 82902 90900=
07510,1997-08-07 12:00:00,24,1012,0.8,69,18,8000,11.112,,,330,,,,,,,,,,29,wg-a,,,,AAXX 07124 07510 02658 73306 10240 20180 30050 40120 50008 61000 72998 85902 91200 333 6100=
07510,1997-08-07 15:00:00,27,1010.7,-1.2,62,19,15000,7.408,,,340,,,,,,,,,,,wg-a,,,,AAXX 07154 07510 12565 33404 10270 20190 30038 40107 58012 60006 81982 91500=
07510,1997-08-07 18:00:00,25,1011.5,0.7,65,18,15000,7.408,,,310,17.7,27.9,,,,,,,,,wg-a,,,,AAXX 07184 07510 12665 73104 10250 20180 30045 40115 53007 60006 81992 91800 333 10279 20177=
07510,1997-08-07 21:00:00,22,1013.1,1.5,83,19,15000,7.408,,,340,,,,,,,,,,,wg-a,,,,AAXX 07214 07510 12765 /3404 10220 20190 30060 40131 53015 60006 81502 92100=
07510,1997-08-08 00:00:00,20,1013.4,0.3,88,18,15000,3.704,,,310,,,,,,,,,,,wg-a,,,,AAXX 08004 07510 12/65 33102 10200 20180 30063 40134 52003 60006 80002 90000=
07510,1997-08-08 03:00:00,19,1013.5,0.1,88,17,15000,7.408,,,90,,,,,,,,,,,wg-a,,,,AAXX 08034 07510 12665 /0904 10190 20170 30064 40135 50001 60006 81888 90300=
07510,1997-08-08 06:00:00,19,1014.9,1.3,94,18,15000,7.408,,,120,17.7,24.9,,,,,,,,,wg-a,,,,AAXX 08064 07510 02/65 41204 10190 20180 30077 40149 53013 60006 81032 90600 333 10249 20177 61000=
07510,1997-08-08 09:00:00,26,1015.9,1.2,70,20,15000,11.112,,,120,,,,,,,,,,,wg-a,,,,AAXX 08094 07510 12/65 21206 10260 20200 30089 40159 51012 60006 80002 90900=
07510,1997-08-08 12:00:00,30,1015.1,-0.7,59,21,15000,14.816,,,100,,,,,,,,,,,wg-a,,,,AAXX 08124 07510 12665 41008 10300 20210 30082 40151 58007 60006 84102 91200=
07510,1997-08-08 15:00:00,32,1014.4,-0.6,49,20,15000,18.52,,,100,,,,,,,,,,,wg-a,,,,AAXX 08154 07510 12665 51010 10320 20200 30076 40144 55006 60006 84102 91500=
07510,1997-08-08 18:00:00,30,1014.2,-0.3,55,20,15000,7.408,,,120,18.7,32.3,,,,,,,,,wg-a,,,,AAXX 08184 07510 12665 71204 10300 20200 30073 40142 56003 60006 81432 91800 333 10323 20187=
07510,1997-08-09 00:00:00,24,1016,0.4,83,21,15000,3.704,,,40,,,,,,,,,,,wg-a,,,,AAXX 09004 07510 12765 70402 10240 20210 30090 40160 51004 60006 8553/ 90000=
07510,1997-08-09 06:00:00,24,1015.8,0.5,83,21,15000,7.408,,,80,23.4,30.3,,,,,,,,,wg-a,,,,AAXX 09064 07510 02765 70804 10240 20210 30088 40158 52005 60006 8553/ 90600 333 10303 20234 60004=
07510,1997-08-09 09:00:00,29,1015.9,0.2,66,22,15000,3.704,,,80,,,,,,,,,,,wg-a,,,,AAXX 09094 07510 12765 50802 10290 20220 30090 40159 51002 60006 82532 90900=
07510,1997-08-09 12:00:00,34,1014.9,-0.9,44,20,15000,7.408,,,140,,,,,,,,,,,wg-a,,,,AAXX 09124 07510 12765 21404 10340 20200 30081 40149 58009 60006 81102 91200=
07510,1997-08-09 15:00:00,34,1014,-0.9,44,20,15000,14.816,,,120,,,,,,,,,,,wg-a,,,,AAXX 09154 07510 12765 51208 10340 20200 30072 40140 58009 60006 85200 91500=
07510,1997-08-09 18:00:00,33,1013.1,-0.9,49,21,15000,14.816,,,100,23.5,34.8,,,,,,,,,wg-a,,,,AAXX 09184 07510 12765 61008 10330 20210 30063 40131 56009 60006 81202 91800 333 10348 20235=
07510,1997-08-09 21:00:00,28,1012.9,-0.3,66,21,15000,7.408,,,50,,,,,,,,,,,wg-a,,,,AAXX 09214 07510 12765 70504 10280 20210 30060 40129 58003 60006 81272 92100=
07510,1997-08-10 00:00:00,24,1013.4,0.4,89,22,15000,0,,,0,,,,,,,,,,,wg-a,,,,AAXX 10004 07510 12/65 30000 10240 20220 30064 40134 50004 60006 81032 90000=
07510,1997-08-10 03:00:00,22,1012.4,-1.1,94,21,15000,0,,,0,,,,,,,,,,,wg-a,,,,AAXX 10034 07510 12/65 20000 10220 20210 30053 40124 56011 60006 80002 90300=
07510,1997-08-10 06:00:00,23,1012.2,-0.1,94,22,15000,3.704,,,120,21.3,32.6,,,,,,,,,wg-a,,,,AAXX 10064 07510 02/65 51202 10230 20220 30052 40122 56001 60006 82/82 90600 333 10326 20213 60004=
07510,1997-08-10 09:00:00,28,1012,-0.1,58,19,15000,18.52,,,140,,,,,,,,,,,wg-a,,,,AAXX 10094 07510 12/65 51410 10280 20190 30051 40120 58001 60006 81082 90900=
07510,1997-08-10 12:00:00,34,1011,-0.9,44,20,15000,14.816,,,210,,,,,,,,,,,wg-a,,,,AAXX 10124 07510 12665 72108 10340 20200 30042 40110 56009 60006 81232 91200=
07510,1997-08-10 15:00:00,25,1013.2,2,89,23,7000,18.52,,,230,,,,1,,,,,,80,wg-a,,,,AAXX 10154 07510 12757 72310 10250 20230 30062 40132 53020 60017 78086 8493/ 91500=
07510,1997-08-10 18:00:00,24,1012.9,-0.3,89,22,12000,11.112,,,180,22.5,33.5,,,,,,,,60,wg-a,,,,AAXX 10184 07510 02562 71806 10240 20220 30059 40129 55003 61000 76086 8383/ 91800 333 10335 20225 6001=
07510,1997-08-10 21:00:00,22,1011.8,-1.1,94,21,8000,11.112,,,290,,,,0,,,,,,3,wg-a,,,,AAXX 10214 07510 12258 72906 10220 20210 30048 40118 58011 60007 70362 8463/ 92100=
07510,1997-08-11 00:00:00,22,1014,2.1,94,21,6000,7.408,,,90,,,,0,,,,,,60,wg-a,,,,AAXX 11004 07510 02256 70904 10220 20210 30069 40140 52021 60016 76062 877// 90000 333 60007=
07510,1997-08-11 03:00:00,21,1012.7,-1.3,94,20,6000,7.408,,,310,,,,11,,,,,,61,wg-a,,,,AAXX 11034 07510 12556 73104 10210 20200 30056 40127 56013 60117 76166 8783/ 90300=
07510,1997-08-11 06:00:00,21,1013.6,0.9,94,20,500,3.704,,,280,20.5,23.8,,,,,13,,,3,wg-a,,,,AAXX 11064 07510 02100 82802 10210 20200 30065 40136 50009 60006 70362 8587/ 90600 333 10238 20205 60134=
07510,1997-08-11 09:00:00,22,1015.3,1.7,94,21,10000,14.816,,,310,,,,,,,,,,,wg-a,,,,AAXX 11094 07510 12260 /3108 10220 20210 30082 40153 51017 60006 8523/ 90900=
07510,1997-08-11 12:00:00,24,1016.4,1.2,74,19,8000,25.928,,,310,,,,,,,,,,,wg-a,,,,AAXX 11124 07510 12558 73114 10240 20190 30094 40164 51012 60006 85232 91200=
07510,1997-08-11 15:00:00,26,1018.1,1.7,58,17,10000,25.928,,,310,,,,,,,,,,,wg-a,,,,AAXX 11154 07510 12560 /3114 10260 20170 30111 40181 51017 60006 83232 91500=
07510,1997-08-11 18:00:00,24,1019.3,1.1,65,17,10000,18.52,,,300,20.6,25.5,,,,,,,,,wg-a,,,,AAXX 11184 07510 12560 23010 10240 20170 30122 40193 51011 60006 81402 91800 333 10255 20206=
07510,1997-08-11 21:00:00,20,1020.9,1.5,88,18,15000,3.704,,,320,,,,,,,,,,,wg-a,,,,AAXX 11214 07510 12/65 23202 10200 20180 30137 40209 53015 60006 80002 92100=
07510,1997-08-12 00:00:00,18,1021,0.1,94,17,12000,3.704,,,240,,,,,,,,,,,wg-a,,,,AAXX 12004 07510 12/62 22402 10180 20170 30138 40210 50001 60006 80002 90000=
07510,1997-08-12 03:00:00,17,1021.3,0.3,100,17,2500,7.408,,,240,,,,,,,,,,40,wg-a,,,,AAXX 12034 07510 12625 52404 10170 20170 30141 40213 52003 60006 74011 83502 90300=
07510,1997-08-12 06:00:00,17,1021.3,-0,100,17,4000,0,,,0,16.4,24.1,,,,,,,,40,wg-a,,,,AAXX 12064 07510 02/40 20000 10170 20170 30141 40213 55000 60006 74011 80002 90600 333 10241 20164 60004=
07510,1997-08-12 09:00:00,24,1021.4,0.2,74,19,8000,7.408,,,130,,,,,,,,,,,wg-a,,,,AAXX 12094 07510 12458 /1304 10240 20190 30143 40214 50002 60006 81100 90900=
07510,1997-08-12 12:00:00,28,1020.6,-0.7,62,20,10000,7.408,,,110,,,,,,,,,,,wg-a,,,,AAXX 12124 07510 12560 /1104 10280 20200 30136 40206 58007 60006 85200 91200=
07510,1997-08-12 15:00:00,28,1019.9,-0.7,58,19,10000,14.816,,,100,,,,,,,,,,,wg-a,,,,AAXX 12154 07510 12660 41008 10280 20190 30129 40199 58007 60006 82201 91500=
07510,1997-08-12 18:00:00,28,1019.4,-0.5,62,20,15000,7.408,,,100,17.2,28.7,,,,,,,,,wg-a,,,,AAXX 12184 07510 12/65 11004 10280 20200 30124 40194 55005 60006 80002 91800 333 10287 20172=
07510,1997-08-12 21:00:00,23,1020.2,0.7,83,20,10000,0,,,0,,,,,,,,,,,wg-a,,,,AAXX 12214 07510 12/60 /0000 10230 20200 30131 40202 53007 60006 92100=
07510,1997-08-13 00:00:00,21,1020.9,0.7,94,20,10000,3.704,,,350,,,,,,,,,,,wg-a,,,,AAXX 13004 07510 12/60 23502 10210 20200 30138 40209 53007 60006 80002 90000=
07510,1997-08-13 03:00:00,21,1021.4,0.5,94,20,10000,7.408,,,350,,,,,,,,,,,wg-a,,,,AAXX 13034 07510 12/60 23504 10210 20200 30143 40214 51005 60006 80002 90300=
07510,1997-08-13 06:00:00,21,1022.9,1.4,83,18,8000,7.408,,,40,19.8,28,,,,,,,,,wg-a,,,,AAXX 13064 07510 02/58 20404 10210 20180 30157 40229 53014 60006 80002 90600 333 10280 20198 60004=
07510,1997-08-13 09:00:00,27,1023,0.3,66,20,15000,3.704,,,120,,,,,,,,,,,wg-a,,,,AAXX 13094 07510 12/65 21202 10270 20200 30160 40230 52003 60006 80002 90900=
07510,1997-08-13 12:00:00,30,1022.7,-0.2,59,21,15000,7.408,,,140,,,,,,,,,,,wg-a,,,,AAXX 13124 07510 12665 /1404 10300 20210 30158 40227 58002 60006 86800 91200=
07510,1997-08-13 18:00:00,29,1022.4,-0,62,21,15000,14.816,,,270,20.5,31.7,,,,,,,,,wg-a,,,,AAXX 13184 07510 12765 32708 10290 20210 30155 40224 55000 60006 83500 91800 333 10317 20205=
07510,1997-08-13 21:00:00,25,1023.8,1.2,69,19,15000,7.408,,,350,,,,,,,,,,,wg-a,,,,AAXX 13214 07510 12/65 23504 10250 20190 30167 40238 51012 60006 80002 92100=
07510,1997-08-14 00:00:00,22,1023.6,-0.2,78,18,15000,7.408,,,10,,,,,,,,,,,wg-a,,,,AAXX 14004 07510 12/65 00104 10220 20180 30165 40236 58002 60006 80000 90000=
07510,1997-08-14 03:00:00,20,1022.6,-1.1,88,18,15000,3.704,,,350,,,,,,,,,,,wg-a,,,,AAXX 14034 07510 12/65 03502 10200 20180 30154 40226 58011 60006 80000 90300=
07510,1997-08-14 06:00:00,20,1022.5,-0.1,88,18,15000,3.704,,,270,19.1,29.2,,,,,,,,,wg-a,,,,AAXX 14064 07510 02/65 02702 10200 20180 30153 40225 55001 60006 80000 90600 333 10292 20191 60004=
07510,1997-08-14 09:00:00,28,1022,-0.3,62,20,15000,11.112,,,120,,,,,,,,,,,wg-a,,,,AAXX 14094 07510 12/65 01206 10280 20200 30150 40220 58003 60006 80000 90900=
07510,1997-08-14 12:00:00,32,1020.5,-1.4,52,21,15000,14.816,,,110,,,,,,,,,,,wg-a,,,,AAXX 14124 07510 12665 21108 10320 20210 30136 40205 57014 60006 81132 91200=
07510,1997-08-14 15:00:00,33,1018.7,-1.7,46,20,15000,14.816,,,130,,,,,,,,,,,wg-a,,,,AAXX 14154 07510 12765 21308 10330 20200 30119 40187 56017 60006 81202 91500=
07510,1997-08-14 18:00:00,32,1018,-0.8,49,20,15000,11.112,,,120,19.8,33.6,,,,,,,,,wg-a,,,,AAXX 14184 07510 12765 31206 10320 20200 30111 40180 56008 60006 81202 91800 333 10336 20198=
07510,1997-08-14 21:00:00,26,1018.9,0.8,79,22,15000,7.408,,,300,,,,,,,,,,,wg-a,,,,AAXX 14214 07510 12/65 23004 10260 20220 30119 40189 53008 60006 81032 92100=
07510,1997-08-15 00:00:00,23,1018.9,-0.1,94,22,15000,0,,,0,,,,,,,,,,,wg-a,,,,AAXX 15004 07510 12/65 30000 10230 20220 30118 40189 58001 60006 81032 90000=
07510,1997-08-15 03:00:00,22,1018.6,-0.3,94,21,6000,7.408,,,230,,,,,,,,,,13,wg-a,,,,AAXX 15034 07510 12556 42304 10220 20210 30115 40186 56003 60006 71300 81902 90300=
07510,1997-08-15 06:00:00,22,1018.9,0.3,94,21,4000,7.408,,,230,21.2,32,,,,,,,,10,wg-a,,,,AAXX 15064 07510 02640 /2304 10220 20210 30118 40189 52003 60006 71011 81982 90600 333 10320 20212 60004=
07510,1997-08-15 12:00:00,30,1019.1,-1,62,22,10000,3.704,,,160,,,,,,,,,,,wg-a,,,,AAXX 15124 07510 12560 /1602 10300 20220 30122 40191 58010 60006 82802 91200=
07510,1997-08-15 15:00:00,31,1018.1,-1,59,22,10000,11.112,,,220,,,,,,,,,,,wg-a,,,,AAXX 15154 07510 12560 52206 10310 20220 30112 40181 58010 60006 84802 91500=
07510,1997-08-15 18:00:00,27,1018.2,-0,70,21,10000,11.112,,,310,21.8,31.2,,,,,,,,,wg-a,,,,AAXX 15184 07510 12560 73106 10270 20210 30112 40182 55000 60006 879// 91800 333 10312 20218=
07510,1997-08-15 21:00:00,24,1019,0.7,78,20,10000,3.704,,,210,,,,,,,,,,17,wg-a,,,,AAXX 15214 07510 12660 /2102 10240 20200 30119 40190 51007 60006 71792 81982 92100=
07510,1997-08-16 00:00:00,22,1018.4,-0.6,94,21,10000,7.408,,,280,,,,0,,,,,,13,wg-a,,,,AAXX 16004 07510 02560 /2804 10220 20210 30113 40184 56006 60016 71398 83882 90000 333 60007=
07510,1997-08-16 03:00:00,21,1017,-1.4,83,18,10000,11.112,,,240,,,,,,,,,,17,wg-a,,,,AAXX 16034 07510 12660 32406 10210 20180 30099 40170 58014 60006 71791 8298/ 90300=
07510,1997-08-16 06:00:00,20,1017.1,0.1,94,19,10000,3.704,,,300,19.6,26.6,,,,,,,,3,wg-a,,,,AAXX 16064 07510 02/60 23002 10200 20190 30100 40171 52001 60006 70391 81082 90600 333 10266 20196 60004=
07510,1997-08-16 09:00:00,22,1019.5,2.4,83,19,10000,11.112,,,150,,,,,,,,,,,wg-a,,,,AAXX 16094 07510 12460 71506 10220 20190 30124 40195 51024 60006 875// 90900=
07510,1997-08-16 12:00:00,28,1018.8,-0.6,58,19,10000,11.112,,,200,,,,0,,,,,,,wg-a,,,,AAXX 16124 07510 02660 22006 10280 20190 30118 40188 58006 60006 82200 91200 333 60007=
07510,1997-08-16 15:00:00,27,1017.8,-1,66,20,15000,14.816,,,310,,,,,,,,,,,wg-a,,,,AAXX 16154 07510 12665 /3108 10270 20200 30108 40178 56010 60006 85200 91500=
07510,1997-08-16 18:00:00,26,1018.1,0.3,70,20,15000,14.816,,,310,19.8,29.4,,,,,,,,,wg-a,,,,AAXX 16184 07510 12665 23108 10260 20200 30111 40181 53003 60006 82200 91800 333 10294 20198=
07510,1997-08-16 21:00:00,21,1019.6,1.4,88,19,10000,11.112,,,300,,,,,,,,,,,wg-a,,,,AAXX 16214 07510 12/60 03006 10210 20190 30125 40196 53014 60006 80000 92100=
07510,1997-08-17 00:00:00,20,1020.2,0.5,94,19,10000,0,,,0,,,,,,,,,,,wg-a,,,,AAXX 17004 07510 12860 40000 10200 20190 30130 40202 51005 60006 84500 90000=
07510,1997-08-17 03:00:00,19,1019.5,-0.7,94,18,8000,7.408,,,270,,,,,,,,,,,wg-a,,,,AAXX 17034 07510 12658 22704 10190 20180 30123 40195 55007 60006 81501 90300=
07510,1997-08-17 06:00:00,19,1019.8,0.3,94,18,6000,3.704,,,240,18.2,25.6,,,,,,,,,wg-a,,,,AAXX 17064 07510 02656 72402 10190 20180 30126 40198 53003 60006 84501 90600 333 10256 20182 60004=
07510,1997-08-17 09:00:00,24,1020.1,0.4,69,18,10000,7.408,,,30,,,,,,,,,,,wg-a,,,,AAXX 17094 07510 12460 /0304 10240 20180 30130 40201 53004 60006 84832 90900=
07510,1997-08-17 12:00:00,27,1019.3,-0.7,54,17,10000,7.408,,,250,,,,,,,,,,,wg-a,,,,AAXX 17124 07510 12560 72504 10270 20170 30123 40193 58007 60006 85802 91200=
07510,1997-08-17 15:00:00,28,1018,-1.3,51,17,15000,7.408,,,170,,,,,,,,,,,wg-a,,,,AAXX 17154 07510 12565 /1704 10280 20170 30110 40180 56013 60006 83830 91500=
07510,1997-08-17 18:00:00,26,1017.7,-0.3,65,19,15000,14.816,,,10,18.5,28.7,,,,,,,,,wg-a,,,,AAXX 17184 07510 12565 50108 10260 20190 30107 40177 55003 60006 82202 91800 333 10287 20185=
07510,1997-08-17 21:00:00,22,1019.5,1.7,83,19,15000,7.408,,,360,,,,,,,,,,,wg-a,,,,AAXX 17214 07510 12/65 63604 10220 20190 30124 40195 53017 60006 80002 92100=
07510,1997-08-18 00:00:00,19,1019,-0.6,94,18,15000,7.408,,,350,,,,,,,,,,,wg-a,,,,AAXX 18004 07510 12/65 63504 10190 20180 30118 40190 57006 60006 80002 90000=
07510,1997-08-18 03:00:00,19,1018.1,-0.9,94,18,10000,3.704,,,350,,,,,,,,,,,wg-a,,,,AAXX 18034 07510 12660 /3502 10190 20180 30109 40181 58009 60006 83502 90300=
07510,1997-08-18 06:00:00,19,1018,-0.1,94,18,4000,3.704,,,100,18.2,25.7,,,,,,,,10,wg-a,,,,AAXX 18064 07510 02640 61002 10190 20180 30108 40180 55001 60006 71022 85502 90600 333 10257 20182 60004=
07510,1997-08-18 09:00:00,26,1017.8,0,65,19,10000,3.704,,,150,,,,,,,,,,,wg-a,,,,AAXX 18094 07510 12/60 21502 10260 20190 30108 40178 50000 60006 80002 90900=
07510,1997-08-18 12:00:00,29,1017.5,-0.2,55,19,15000,3.704,,,70,,,,,,,,,,,wg-a,,,,AAXX 18124 07510 12665 70702 10290 20190 30106 40175 57002 60006 878// 91200=
07510,1997-08-18 15:00:00,29,1016.7,-0.8,55,19,15000,11.112,,,340,,,,,,,,,,,wg-a,,,,AAXX 18154 07510 12665 73406 10290 20190 30098 40167 58008 60006 8523/ 91500=
07510,1997-08-18 18:00:00,27,1016.6,-0.2,62,19,15000,11.112,,,340,18.6,29.6,,,,,,,,,wg-a,,,,AAXX 18184 07510 12/65 73406 10270 20190 30096 40166 55002 60006 8//02 91800 333 10296 20186=
07510,1997-08-18 21:00:00,23,1018.1,1.4,78,19,15000,3.704,,,300,,,,,,,,,,,wg-a,,,,AAXX 18214 07510 12/65 73002 10230 20190 30110 40181 52014 60006 85032 92100=
07510,1997-08-19 00:00:00,22,1017.7,-0.4,83,19,15000,3.704,,,140,,,,,,,,,,,wg-a,,,,AAXX 19004 07510 12765 71402 10220 20190 30106 40177 58004 60006 8253/ 90000=
07510,1997-08-19 06:00:00,20,1017,0.2,94,19,4000,0,,,0,19.8,26.5,,,,,,,,11,wg-a,,,,AAXX 19064 07510 02740 70000 10200 20190 30099 40170 53002 60006 71122 82532 90600 333 10265 20198 60004=
07510,1997-08-19 09:00:00,26,1017.2,0.3,70,20,10000,3.704,,,110,,,,,,,,,,,wg-a,,,,AAXX 19094 07510 12/60 /1102 10260 20200 30102 40172 53003 60006 83082 90900=
07510,1997-08-19 12:00:00,29,1016.2,-0.9,55,19,10000,3.704,,,170,,,,,,,,,,,wg-a,,,,AAXX 19124 07510 12660 /1702 10290 20190 30093 40162 56009 60006 83282 91200=
07510,1997-08-19 15:00:00,31,1015.1,-1.1,49,19,10000,7.408,,,220,,,,,,,,,,,wg-a,,,,AAXX 19154 07510 12660 /2204 10310 20190 30082 40151 57011 60006 83202 91500=
07510,1997-08-19 18:00:00,30,1014.5,-0.6,52,19,10000,7.408,,,130,20.3,31.7,,,,,,,,,wg-a,,,,AAXX 19184 07510 12660 /1304 10300 20190 30076 40145 56006 60006 82202 91800 333 10317 20203=
07510,1997-08-19 21:00:00,24,1016,1.4,74,19,12000,3.704,,,10,,,,,,,,,,,wg-a,,,,AAXX 19214 07510 12/62 30102 10240 20190 30090 40160 51014 60006 80002 92100=
07510,1997-08-20 00:00:00,22,1015.9,-0.2,88,20,12000,7.408,,,10,,,,,,,,,,,wg-a,,,,AAXX 20004 07510 12/62 30104 10220 20200 30088 40159 57002 60006 80002 90000=
07510,1997-08-20 03:00:00,20,1015.6,-0.3,94,19,12000,3.704,,,360,,,,,,,,,,,wg-a,,,,AAXX 20034 07510 12/62 03602 10200 20190 30085 40156 55003 60006 80000 90300=
07510,1997-08-20 06:00:00,19,1016.6,0.9,100,19,500,0,,,0,19,30.1,,,,,,,,11,wg-a,,,,AAXX 20064 07510 02/00 /0000 10190 20190 30094 40166 53009 60006 71100 80000 90600 333 10301 20190 60004=
07510,1997-08-20 09:00:00,29,1016.5,0.2,58,20,10000,7.408,,,90,,,,,,,,,,,wg-a,,,,AAXX 20094 07510 12/60 00904 10290 20200 30096 40165 51002 60006 80000 90900=
07510,1997-08-20 12:00:00,32,1016,-0.4,46,19,10000,11.112,,,120,,,,,,,,,,,wg-a,,,,AAXX 20124 07510 12760 21206 10320 20190 30092 40160 58004 60006 82100 91200=
07510,1997-08-20 15:00:00,33,1014.9,-1.1,44,19,10000,3.704,,,20,,,,,,,,,,,wg-a,,,,AAXX 20154 07510 12760 30202 10330 20190 30081 40149 57011 60006 82101 91500=
07510,1997-08-20 18:00:00,32,1015.4,0.4,43,18,20000,11.112,,,20,19.3,33.8,,,,,,,,,wg-a,,,,AAXX 20184 07510 12570 50206 10320 20180 30085 40154 53004 60006 83982 91800 333 10338 20193=
07510,1997-08-20 21:00:00,25,1016.5,1,65,18,10000,14.816,,,330,,,,0,,,,,,2,wg-a,,,,AAXX 20214 07510 12560 /3308 10250 20180 30095 40165 52010 60007 70298 83982 92100=
07510,1997-08-21 00:00:00,22,1019.9,3.3,94,21,8000,11.112,,,230,,,,3,,,,,,80,wg-a,,,,AAXX 21004 07510 02658 /2306 10220 20210 30128 40199 51033 60036 78098 83982 90000 333 60037=
07510,1997-08-21 03:00:00,22,1017.8,-2.1,94,21,8000,3.704,,,20,,,,2,,,,,,3,wg-a,,,,AAXX 21034 07510 12758 /0202 10220 20210 30107 40178 56021 60027 70396 83582 90300=
07510,1997-08-21 06:00:00,21,1018.9,1.1,94,20,2500,3.704,,,300,,,,,,,,,,40,wg-a,,,,AAXX 21064 07510 12725 /3002 10210 20200 30118 40189 52011 60006 740// 83581 90600=
07510,1997-08-21 08:00:00,21,1018.9,1.1,94,20,2500,3.704,,,300,20.6,31.4,,,,,5,,,0,wg-a,,,,AAXX 21084 07510 12725 53002 10210 20200 30118 40189 52011 60054 700// 83581 90800 333 10314 20206=
07510,1997-08-21 09:00:00,24,1020,1.2,78,20,15000,7.408,,,30,,,,,,,,,,,wg-a,,,,AAXX 21094 07510 12765 40304 10240 20200 30130 40200 51012 60006 81531 90900=
07510,1997-08-21 12:00:00,30,1019.4,-0.5,46,17,15000,11.112,,,360,,,,,,,,,,,wg-a,,,,AAXX 21124 07510 12565 33606 10300 20170 30125 40194 58005 60006 82201 91200=
07510,1997-08-21 18:00:00,28,1018.9,0.4,58,19,15000,14.816,,,310,20.6,32.5,,,,,,,,,wg-a,,,,AAXX 21184 07510 12565 53108 10280 20190 30119 40189 53004 60006 81102 91800 333 10325 20206=
07510,1997-08-22 00:00:00,21,1020.8,0.1,88,19,15000,3.704,,,350,,,,,,,,,,,wg-a,,,,AAXX 22004 07510 12/65 03502 10210 20190 30137 40208 53001 60006 80000 90000=
07510,1997-08-22 06:00:00,20,1021,0.4,94,19,10000,0,,,0,18.7,28.3,,,,,,,,11,wg-a,,,,AAXX 22064 07510 02/60 /0000 10200 20190 30138 40210 53004 60006 71100 80002 90600 333 10283 20187 60004=
07510,1997-08-22 09:00:00,27,1021.1,0.3,62,19,10000,11.112,,,60,,,,,,,,,,,wg-a,,,,AAXX 22094 07510 12/60 40606 10270 20190 30141 40211 51003 60006 80002 90900=
07510,1997-08-22 12:00:00,31,1020.2,-0.8,46,18,15000,7.408,,,50,,,,,,,,,,,wg-a,,,,AAXX 22124 07510 12665 /0504 10310 20180 30133 40202 58008 60006 81102 91200=
07510,1997-08-22 15:00:00,33,1018.4,-1.7,41,18,15000,3.704,,,340,,,,,,,,,,,wg-a,,,,AAXX 22154 07510 12765 33402 10330 20180 30116 40184 57017 60006 82102 91500=
07510,1997-08-22 18:00:00,31,1018,-0.5,49,19,15000,14.816,,,30,19.6,33.9,,,,,,,,,wg-a,,,,AAXX 22184 07510 12765 10308 10310 20190 30111 40180 56005 60006 81400 91800 333 10339 20196=
07510,1997-08-22 21:00:00,25,1018.8,0.7,74,20,15000,7.408,,,10,,,,,,,,,,,wg-a,,,,AAXX 22214 07510 12/65 00104 10250 20200 30118 40188 50007 60006 80000 92100=
07510,1997-08-23 00:00:00,22,1018.4,-0.5,88,20,15000,0,,,0,,,,,,,,,,,wg-a,,,,AAXX 23004 07510 12/65 00000 10220 20200 30113 40184 58005 60006 80000 90000=
07510,1997-08-23 03:00:00,21,1017.4,-1,88,19,15000,3.704,,,30,,,,,,,,,,,wg-a,,,,AAXX 23034 07510 12/65 00302 10210 20190 30103 40174 58010 60006 80000 90300=
07510,1997-08-23 06:00:00,19,1017.3,-0.2,94,18,10000,3.704,,,140,19.3,30.7,,,,,,,,11,wg-a,,,,AAXX 23064 07510 02/60 01402 10190 20180 30101 40173 56002 60006 71100 80000 90600 333 10307 20193 60004=
07510,1997-08-23 09:00:00,29,1017.3,0.3,55,19,10000,3.704,,,180,,,,,,,,,,,wg-a,,,,AAXX 23094 07510 12/60 01802 10290 20190 30104 40173 51003 60006 80000 90900=
07510,1997-08-23 12:00:00,34,1016,-1.2,41,19,10000,7.408,,,140,,,,,,,,,,,wg-a,,,,AAXX 23124 07510 12760 11404 10340 20190 30092 40160 58012 60006 81100 91200=
07510,1997-08-23 15:00:00,35,1014.4,-1.6,37,18,15000,7.408,,,130,,,,,,,,,,,wg-a,,,,AAXX 23154 07510 12765 21304 10350 20180 30076 40144 56016 60006 82200 91500=
07510,1997-08-23 18:00:00,32,1013.8,-0.6,49,20,15000,11.112,,,290,19.3,35.2,,,,,,,,,wg-a,,,,AAXX 23184 07510 12765 22906 10320 20200 30070 40138 55006 60006 82400 91800 333 10352 20193=
07510,1997-08-23 21:00:00,27,1014.4,0.5,70,21,15000,3.704,,,360,,,,,,,,,,,wg-a,,,,AAXX 23214 07510 12/65 03602 10270 20210 30075 40144 52005 60006 80000 92100=
07510,1997-08-24 00:00:00,23,1014.1,-0.4,89,21,10000,3.704,,,110,,,,,,,,,,,wg-a,,,,AAXX 24004 07510 12/60 /1102 10230 20210 30071 40141 58004 60006 90000=
07510,1997-08-24 03:00:00,22,1014,-0.2,88,20,10000,7.408,,,150,,,,,,,,,,,wg-a,,,,AAXX 24034 07510 12/60 /1504 10220 20200 30069 40140 58002 60006 90300=
07510,1997-08-24 06:00:00,21,1014.6,0.6,100,21,200,11.112,,,130,20.8,32.3,,,,,,,,45,wg-a,,,,AAXX 24064 07510 02/02 91306 10210 20210 30075 40146 51006 60006 74541 89/// 90600 333 10323 20208 60004=
07510,1997-08-24 09:00:00,25,1014.6,0.1,83,22,500,11.112,,,160,,,,,,,,,,3,wg-a,,,,AAXX 24094 07510 12300 /1606 10250 20220 30076 40146 50001 60006 70342 86600 90900=
07510,1997-08-24 12:00:00,31,1013.7,-0.7,59,22,8000,7.408,,,120,,,,,,,,,,3,wg-a,,,,AAXX 24124 07510 12658 /1204 10310 20220 30069 40137 58007 60006 70341 81200 91200=
07510,1997-08-24 15:00:00,34,1011.8,-1.9,39,18,10000,7.408,,,140,,,,,,,,,,,wg-a,,,,AAXX 24154 07510 12760 11404 10340 20180 30050 40118 56019 60006 81200 91500=
07510,1997-08-24 18:00:00,32,1010,-1.8,43,18,10000,11.112,,,130,21.2,34,,,,,,,,,wg-a,,,,AAXX 24184 07510 12760 11306 10320 20180 30032 40100 56018 60006 81402 91800 333 10340 20212=
07510,1997-08-24 21:00:00,25,1009.8,-0.4,74,20,10000,3.704,,,30,,,,,,,,,,,wg-a,,,,AAXX 24214 07510 12/60 30302 10250 20200 30028 40098 57004 60006 80002 92100=
07510,1997-08-25 00:00:00,24,1009.9,0.1,78,20,10000,7.408,,,100,,,,,,,,,,13,wg-a,,,,AAXX 25004 07510 12560 61004 10240 20200 30029 40099 52001 60006 71311 81982 90000=
07510,1997-08-25 03:00:00,22,1009.2,-0.7,88,20,10000,3.704,,,100,,,,,,,,,,,wg-a,,,,AAXX 25034 07510 12560 71002 10220 20200 30022 40092 58007 60006 81982 90300=
07510,1997-08-25 06:00:00,20,1010.2,0.9,94,19,8000,11.112,,,260,19.9,31.7,,,,,,,,,wg-a,,,,AAXX 25064 07510 02158 62606 10200 20190 30031 40102 53009 60006 84680 90600 333 10317 20199 60004=
07510,1997-08-25 09:00:00,25,1011.2,1.1,74,20,10000,14.816,,,250,,,,,,,,,,,wg-a,,,,AAXX 25094 07510 12460 /2508 10250 20200 30042 40112 53011 60006 85230 90900=
07510,1997-08-25 12:00:00,25,1011.2,0,69,19,10000,29.632,,,290,,,,,,,,,,,wg-a,,,,AAXX 25124 07510 12560 72916 10250 20190 30042 40112 50000 60006 8528/ 91200=
07510,1997-08-25 15:00:00,23,1011.9,0.7,83,20,10000,14.816,,,300,,,,0,,,,,,3,wg-a,,,,AAXX 25154 07510 12360 73008 10230 20200 30049 40119 51007 60007 70386 8588/ 91500=
07510,1997-08-25 18:00:00,22,1012.8,,83,19,15000,9.26,,,320,19.9,26.5,,,,,,,,,wg-a,,,,AAXX 25184 07510 12465 73205 10220 20190 30064 40128 60006 8587/ 91800 333 10265 20199=
07510,1997-08-26 00:00:00,19,1013.9,0.2,94,18,15000,7.408,,,320,,,,,,,,,,,wg-a,,,,AAXX 26004 07510 12665 73204 10190 20180 30068 40139 51002 60006 8553/ 90000=
07510,1997-08-26 03:00:00,18,1013.4,-0.6,94,17,15000,3.704,,,320,,,,,,,,,,,wg-a,,,,AAXX 26034 07510 12665 53202 10180 20170 30062 40134 57006 60006 82532 90300=
07510,1997-08-26 06:00:00,17,1013.5,0.1,94,16,15000,3.704,,,280,16.7,21.4,,,,,,,,11,wg-a,,,,AAXX 26064 07510 02665 52802 10170 20160 30063 40135 52001 60006 71122 82532 90600 333 10214 20167 60004=
07510,1997-08-26 09:00:00,23,1013.9,0.5,57,14,15000,7.408,,,290,,,,,,,,,,,wg-a,,,,AAXX 26094 07510 12565 52904 10230 20140 30068 40139 51005 60006 84232 90900=
07510,1997-08-26 12:00:00,25,1012.4,-1.4,47,13,15000,7.408,,,240,,,,,,,,,,,wg-a,,,,AAXX 26124 07510 12665 /2404 10250 20130 30054 40124 58014 60006 84232 91200=
07510,1997-08-26 18:00:00,24,1009.7,-0.8,61,16,15000,14.816,,,150,16.8,27.3,,,,,,,,,wg-a,,,,AAXX 26184 07510 12765 71508 10240 20160 30027 40097 56008 60006 82550 91800 333 10273 20168=
07510,1997-08-26 21:00:00,22,1008.6,-1.1,73,17,15000,7.408,,,150,,,,,,,,,,,wg-a,,,,AAXX 26214 07510 12765 61504 10220 20170 30016 40086 58011 60006 83530 92100=
07510,1997-08-27 00:00:00,21,1006.9,-1.8,83,18,15000,11.112,,,130,,,,,,,,,,,wg-a,,,,AAXX 27004 07510 12765 51306 10210 20180 39998 40069 58018 60006 85500 90000=
07510,1997-08-27 06:00:00,20,1005.6,0.5,88,18,15000,14.816,,,240,19.4,24.2,,,,,,,,21,wg-a,,,,AAXX 27064 07510 02465 72408 10200 20180 39985 40056 52005 61000 72161 8587/ 90600 333 10242 20194 6000=
07510,1997-08-27 09:00:00,22,1006.3,0.8,83,19,15000,11.112,,,220,,,,,,,,,,,wg-a,,,,AAXX 27094 07510 12465 72206 10220 20190 39993 40063 53008 60006 8587/ 90900=
07510,1997-08-27 12:00:00,22,1006.9,0.6,69,16,15000,11.112,,,230,,,,0,,,,,,21,wg-a,,,,AAXX 27124 07510 02465 82306 10220 20160 39999 40069 53006 60006 72162 8587/ 91200 333 60007=
07510,1997-08-27 15:00:00,20,1006.1,-0.9,83,17,10000,22.224,,,200,,,,0,,,,,,1,wg-a,,,,AAXX 27154 07510 12460 82012 10200 20170 39990 40061 56009 60007 70162 8687/ 91500=
07510,1997-08-27 18:00:00,19,1005.5,-0.6,88,17,10000,14.816,,,200,18.5,22.3,,,,,,,,21,wg-a,,,,AAXX 27184 07510 02460 82008 10190 20170 39984 40055 55006 61000 72162 888// 91800 333 10223 20185 6001=
07510,1997-08-27 21:00:00,17,1004.8,-0.7,100,17,500,7.408,,,260,,,,2,,,,,,80,wg-a,,,,AAXX 27214 07510 12200 72604 10170 20170 39977 40048 55007 60027 78086 868// 92100=
07510,1997-08-28 00:00:00,16,1006,1.1,94,15,7000,7.408,,,240,,,,7,,,,,,80,wg-a,,,,AAXX 28004 07510 02457 72404 10160 20150 39988 40060 53011 60086 78098 879// 90000 333 60077=
07510,1997-08-28 06:00:00,15,1007.5,1.5,94,14,10000,18.52,,,240,14.6,18.6,,,,,,,,25,wg-a,,,,AAXX 28064 07510 02560 /2410 10150 20140 30003 40075 53015 61000 72586 86900 90600 333 10186 20146 6012=
07510,1997-08-28 09:00:00,18,1009.5,2,77,14,2500,31.484,,,240,,,,1,,,,,,81,wg-a,,,,AAXX 28094 07510 12525 62417 10180 20140 30023 40095 51020 60017 78186 86902 90900=
07510,1997-08-28 12:00:00,16,1011.2,1.7,88,14,500,11.112,,,270,,,,3,,,,,,,wg-a,,,,AAXX 28124 07510 02/00 /2706 10160 20140 30040 40112 53017 60046 91200 333 60037=
07510,1997-08-28 18:00:00,17,1014.8,1.8,88,15,12000,14.816,,,250,14.1,19.4,,,,,,,,25,wg-a,,,,AAXX 28184 07510 02362 62508 10170 20150 30076 40148 53018 61000 72586 86902 91800 333 10194 20141 6006=
07510,1997-08-28 21:00:00,14,1017.5,2.6,94,13,12000,11.112,,,200,,,,2,,,,,,17,wg-a,,,,AAXX 28214 07510 12562 52006 10140 20130 30102 40175 51026 60027 71798 85900 92100=
07510,1997-08-29 00:00:00,16,1018.7,1.2,82,13,15000,14.816,,,260,,,,0,,,,,,17,wg-a,,,,AAXX 29004 07510 02565 72608 10160 20130 30114 40187 53012 60026 71798 879// 90000 333 60007=
07510,1997-08-29 03:00:00,15,1019,0.3,94,14,11000,11.112,,,210,,,,,,,,,,,wg-a,,,,AAXX 29034 07510 32/61 /2106 10150 20140 30117 40190 53003 90300=
07510,1997-08-29 06:00:00,15,1019.8,0.8,94,14,10000,11.112,,,220,13.8,16.6,,,,,,,,25,wg-a,,,,AAXX 29064 07510 02560 72206 10150 20140 30125 40198 53008 61000 72598 85802 90600 333 10166 20138 6022=
07510,1997-08-29 09:00:00,20,1020.8,1.1,83,17,6000,14.816,,,210,,,,,,,,,,,wg-a,,,,AAXX 29094 07510 12456 72108 10200 20170 30136 40208 51011 60006 86802 90900=
07510,1997-08-29 12:00:00,21,1020.8,0.1,73,16,10000,25.928,,,260,,,,1,,,,,,25,wg-a,,,,AAXX 29124 07510 02460 72614 10210 20160 30137 40208 51001 60016 72586 86802 91200 333 60017=
07510,1997-08-29 15:00:00,23,1020.6,-0.2,57,14,10000,29.632,,,250,,,,,,,,,,1,wg-a,,,,AAXX 29154 07510 02560 72516 10230 20140 30135 40206 58002 61000 70186 85802 91500 333 ////=
07510,1997-08-29 18:00:00,20,1020.6,-0.1,68,14,10000,11.112,,,240,14.8,22.8,,,,,,,,1,wg-a,,,,AAXX 29184 07510 12560 72406 10200 20140 30134 40206 58001 60006 70186 85832 91800 333 10228 20148=
07510,1997-08-30 00:00:00,17,1020.7,-0.4,82,14,10000,7.408,,,170,,,,,,,,,,21,wg-a,,,,AAXX 30004 07510 02760 71704 10170 20140 30135 40207 58004 61000 72162 82532 90000 333 6100=
07510,1997-08-30 03:00:00,17,1019.9,-0.8,77,13,10000,11.112,,,190,,,,,,,,,,,wg-a,,,,AAXX 30034 07510 12660 71906 10170 20130 30127 40199 58008 60006 85532 90300=
07510,1997-08-30 06:00:00,16,1020,-0,82,13,15000,7.408,,,190,15.5,20.4,,,,,1,,,,wg-a,,,,AAXX 30064 07510 02665 21904 10160 20130 30127 40200 55000 60006 81132 90600 333 10204 20155 60014=
07510,1997-08-30 09:00:00,23,1020.2,0.4,50,12,20000,3.704,,,220,,,,,,,,,,,wg-a,,,,AAXX 30094 07510 12670 12202 10230 20120 30131 40202 51004 60006 81102 90900=
07510,1997-08-30 12:00:00,26,1019.4,-0.7,48,14,20000,7.408,,,110,,,,,,,,,,,wg-a,,,,AAXX 30124 07510 12670 /1104 10260 20140 30124 40194 58007 60006 81102 91200=
07510,1997-08-30 15:00:00,28,1018,-1.4,48,16,15000,7.408,,,120,,,,,,,,,,,wg-a,,,,AAXX 30154 07510 12765 61204 10280 20160 30110 40180 58014 60006 81102 91500=
07510,1997-08-30 18:00:00,26,1016.7,-1.3,54,16,15000,11.112,,,110,15.7,28,,,,,,,,,wg-a,,,,AAXX 30184 07510 12765 61106 10260 20160 30097 40167 56013 60006 814/2 91800 333 10280 20157=
07510,1997-08-30 21:00:00,22,1015.8,-1,73,17,15000,14.816,,,120,,,,,,,,,,,wg-a,,,,AAXX 30214 07510 12765 41208 10220 20170 30087 40158 57010 60006 815/2 92100=
07510,1997-08-31 00:00:00,21,1014.2,-1.6,73,16,15000,11.112,,,140,,,,,,,,,,,wg-a,,,,AAXX 31004 07510 12/65 21406 10210 20160 30071 40142 58016 60006 80002 90000=
07510,1997-08-31 03:00:00,19,1012.9,-1.3,83,16,10000,11.112,,,160,,,,,,,,,,,wg-a,,,,AAXX 31034 07510 12/60 /1606 10190 20160 30058 40129 56013 60006 90300=
07510,1997-08-31 06:00:00,18,1013.6,0.6,83,15,12000,3.704,,,180,17.6,26.2,,,,,,,,,wg-a,,,,AAXX 31064 07510 02/62 31802 10180 20150 30064 40136 53006 60006 80002 90600 333 10262 20176 60004=
07510,1997-08-31 12:00:00,25,1016.1,1.6,65,18,15000,25.928,,,290,,,,,,,,,,,wg-a,,,,AAXX 31124 07510 12565 /2914 10250 20180 30091 40161 51016 60006 82102 91200=
07510,1997-08-31 15:00:00,25,1016.7,0.6,54,15,15000,18.52,,,280,,,,,,,,,,,wg-a,,,,AAXX 31154 07510 12665 /2810 10250 20150 30097 40167 51006 60006 81402 91500=
07510,1997-08-31 18:00:00,22,1017.4,0.6,69,16,15000,14.816,,,280,17.9,26.1,,,,,,,,,wg-a,,,,AAXX 31184 07510 12565 /2808 10220 20160 30103 40174 53006 60006 82402 91800 333 10261 20179=
07510,1997-08-31 21:00:00,19,1018.4,0.9,83,16,15000,3.704,,,270,,,,,,,,,,,wg-a,,,,AAXX 31214 07510 12765 42702 10190 20160 30112 40184 51009 60006 84500 92100=
07510,1997-09-01 00:00:00,19,1017.8,-0.6,88,17,15000,0,,,0,,,,,,,,,,,wg-a,,,,AAXX 01004 07510 12665 70000 10190 20170 30106 40178 58006 60006 875// 90000=
07510,1997-09-01 03:00:00,18,1017.3,-0.5,94,17,15000,14.816,,,340,,,,,,,,,,13,wg-a,,,,AAXX 01034 07510 12465 73408 10180 20170 30101 40173 55005 60006 71322 875// 90300=
07510,1997-09-01 06:00:00,18,1016.9,-0.4,88,16,15000,18.52,,,10,17.8,22.2,,,,,,,,,wg-a,,,,AAXX 01064 07510 02465 70110 10180 20160 30097 40169 57004 60006 8657/ 90600 333 10222 20178 60004=
07510,1997-09-01 09:00:00,17,1018,1.1,94,16,10000,11.112,,,360,,,,4,,,,,,17,wg-a,,,,AAXX 01094 07510 12560 83606 10170 20160 30108 40180 50011 60047 71798 8597/ 90900=
07510,1997-09-01 12:00:00,16,1018.1,0.1,100,16,10000,22.224,,,350,,,,7,,,,,,21,wg-a,,,,AAXX 01124 07510 02360 83512 10160 20160 30109 40181 50001 60116 72198 8697/ 91200 333 60077=
07510,1997-09-01 15:00:00,16,1017.2,-0.9,100,16,6000,18.52,,,30,,,,14,,,,,,60,wg-a,,,,AAXX 01154 07510 12256 80310 10160 20160 30100 40172 58009 60147 76062 8657/ 91500=
07510,1997-09-01 18:00:00,16,1019.3,2,100,16,10000,7.408,,,320,15.6,17.8,,0,,,,,,1,wg-a,,,,AAXX 01184 07510 02460 73204 10160 20160 30120 40193 51020 60006 70162 8353/ 91800 333 10178 20156 60007=
07510,1997-09-01 21:00:00,16,1020.7,1.4,88,14,10000,11.112,,,320,,,,,,,,,,,wg-a,,,,AAXX 01214 07510 12660 /3206 10160 20140 30134 40207 51014 60006 82532 92100=
07510,1997-09-02 00:00:00,15,1022,1.3,88,13,10000,7.408,,,280,,,,,,,,,,,wg-a,,,,AAXX 02004 07510 12760 52804 10150 20130 30147 40220 53013 60006 82532 90000=
07510,1997-09-02 03:00:00,14,1021.9,-0.1,94,13,10000,11.112,,,300,,,,,,,,,,,wg-a,,,,AAXX 02034 07510 12760 63006 10140 20130 30146 40219 58001 60006 83532 90300=
07510,1997-09-02 06:00:00,13,1022.2,0.2,94,12,12000,3.704,,,270,12.8,16.5,,,,,26,,,11,wg-a,,,,AAXX 02064 07510 02762 /2702 10130 20120 30148 40222 53002 60006 71111 81532 90600 333 10165 20128 60264=
07510,1997-09-02 09:00:00,19,1023.4,1.4,68,13,15000,7.408,,,310,,,,,,,,,,,wg-a,,,,AAXX 02094 07510 12465 /3104 10190 20130 30162 40234 51014 60006 81230 90900=
07510,1997-09-02 12:00:00,22,1023.1,-0.2,53,12,15000,7.408,,,10,,,,,,,,,,,wg-a,,,,AAXX 02124 07510 12665 /0104 10220 20120 30160 40231 58002 60006 86200 91200=
07510,1997-09-02 18:00:00,21,1022.6,0.2,56,12,15000,7.408,,,340,12.8,23.1,,,,,,,,,wg-a,,,,AAXX 02184 07510 12665 /3404 10210 20120 30154 40226 51002 60006 84202 91800 333 10231 20128=
07510,1997-09-02 21:00:00,17,1023.7,1,77,13,15000,0,,,0,,,,,,,,,,,wg-a,,,,AAXX 02214 07510 12/65 /0000 10170 20130 30164 40237 51010 60006 80002 92100=
07510,1997-09-03 00:00:00,13,1023.2,-0.6,94,12,15000,0,,,0,,,,,,,,,,,wg-a,,,,AAXX 03004 07510 12/65 10000 10130 20120 30158 40232 57006 60006 80002 90000=
07510,1997-09-03 03:00:00,11,1021.9,-1.3,100,11,15000,0,,,0,,,,,,,,,,11,wg-a,,,,AAXX 03034 07510 12/65 /0000 10110 20110 30145 40219 56013 60006 71100 80002 90300=
07510,1997-09-03 06:00:00,11,1021.7,-0.2,100,11,15000,0,,,0,10.5,20.6,,,,,,,,11,wg-a,,,,AAXX 03064 07510 02/65 20000 10110 20110 30143 40217 55002 60006 71100 80002 90600 333 10206 20105 60004=
07510,1997-09-03 09:00:00,20,1021.5,-0,68,14,15000,11.112,,,110,,,,,,,,,,,wg-a,,,,AAXX 03094 07510 12/65 11106 10200 20140 30143 40215 54000 60006 80002 90900=
07510,1997-09-03 12:00:00,24,1020.2,-1.2,57,15,15000,7.408,,,70,,,,,,,,,,,wg-a,,,,AAXX 03124 07510 12665 20704 10240 20150 30131 40202 56012 60006 82102 91200=
07510,1997-09-03 18:00:00,24,1019.3,-0.2,54,14,15000,7.408,,,160,11,26.4,,,,,,,,,wg-a,,,,AAXX 03184 07510 12/65 51604 10240 20140 30122 40193 55002 60006 80002 91800 333 10264 20110=
07510,1997-09-03 21:00:00,18,1020.2,0.8,83,15,15000,3.704,,,250,,,,,,,,,,,wg-a,,,,AAXX 03214 07510 12/65 42502 10180 20150 30130 40202 51008 60006 80002 92100=
07510,1997-09-04 00:00:00,16,1020.1,-0.2,94,15,15000,3.704,,,250,,,,,,,,,,,wg-a,,,,AAXX 04004 07510 12/65 42502 10160 20150 30128 40201 55002 60006 80002 90000=
07510,1997-09-04 03:00:00,14,1019.4,-0.7,100,14,15000,3.704,,,80,,,,,,,,,,,wg-a,,,,AAXX 04034 07510 12/65 30802 10140 20140 30121 40194 58007 60006 80002 90300=
07510,1997-09-04 06:00:00,14,1020.2,0.8,94,13,15000,3.704,,,140,13.7,24,,,,,,,,11,wg-a,,,,AAXX 04064 07510 02/65 51402 10140 20130 30129 40202 53008 60006 71111 83082 90600 333 10240 20137 60004=
07510,1997-09-04 09:00:00,23,1020.8,0.8,65,16,10000,7.408,,,190,,,,,,,,,,,wg-a,,,,AAXX 04094 07510 12/60 /1904 10230 20160 30137 40208 53008 60006 90900=
07510,1997-09-04 15:00:00,29,1018.9,-1,45,16,15000,7.408,,,180,,,,,,,,,,,wg-a,,,,AAXX 04154 07510 12765 41804 10290 20160 30119 40189 58010 60006 83402 91500=
07510,1997-09-04 18:00:00,24,1019.2,0.2,65,17,15000,11.112,,,310,13.9,29.2,,,,,,,,,wg-a,,,,AAXX 04184 07510 12/65 13106 10240 20170 30121 40192 53002 60006 80002 91800 333 10292 20139=
07510,1997-09-04 21:00:00,20,1020,0.7,83,17,15000,7.408,,,10,,,,,,,,,,,wg-a,,,,AAXX 04214 07510 12/65 10104 10200 20170 30128 40200 51007 60006 80002 92100=
07510,1997-09-05 00:00:00,17,1020,-0,94,16,15000,3.704,,,280,,,,,,,,,,,wg-a,,,,AAXX 05004 07510 12/65 02802 10170 20160 30128 40200 55000 60006 80000 90000=
07510,1997-09-05 03:00:00,16,1019,-1.1,94,15,12000,3.704,,,340,,,,,,,,,,,wg-a,,,,AAXX 05034 07510 12/62 03402 10160 20150 30117 40190 56011 60006 80000 90300=
07510,1997-09-05 06:00:00,14,1018.8,-0.2,100,14,15000,0,,,0,14.3,24.3,,,,,,,,11,wg-a,,,,AAXX 05064 07510 02/65 20000 10140 20140 30115 40188 58002 60006 71100 80002 90600 333 10243 20143 60004=
07510,1997-09-05 12:00:00,27,1018.6,-0.6,54,17,15000,7.408,,,190,,,,,,,,,,,wg-a,,,,AAXX 05124 07510 12665 21904 10270 20170 30116 40186 58006 60006 82100 91200=
07510,1997-09-05 15:00:00,28,1018.4,-0.2,58,19,15000,18.52,,,300,,,,,,,,,,,wg-a,,,,AAXX 05154 07510 12665 /3010 10280 20190 30114 40184 56002 60006 85400 91500=
07510,1997-09-05 18:00:00,24,1019.5,1,65,17,15000,14.816,,,300,14.4,28.8,,,,,,,,,wg-a,,,,AAXX 05184 07510 12/65 13008 10240 20170 30124 40195 53010 60006 80002 91800 333 10288 20144=
07510,1997-09-05 21:00:00,19,1021.3,1.7,88,17,11000,7.408,,,300,,,,,,,,,,,wg-a,,,,AAXX 05214 07510 12/61 /3004 10190 20170 30141 40213 51017 60006 92100=
07510,1997-09-06 00:00:00,19,1021.4,0.1,88,17,11000,7.408,,,290,,,,,,,,,,,wg-a,,,,AAXX 06004 07510 12/61 /2904 10190 20170 30142 40214 50001 60006 90000=
07510,1997-09-06 03:00:00,19,1021.1,-0.3,83,16,10000,11.112,,,20,,,,,,,,,,,wg-a,,,,AAXX 06034 07510 12660 70206 10190 20160 30139 40211 56003 60006 875// 90300=
07510,1997-09-06 06:00:00,18,1022.1,1,73,13,15000,14.816,,,10,18.1,23.5,,,,,,,,,wg-a,,,,AAXX 06064 07510 02665 70108 10180 20130 30149 40221 53010 60006 8557/ 90600 333 10235 20181 60004=
07510,1997-09-06 09:00:00,18,1023.3,1.2,77,14,15000,14.816,,,10,,,,,,,,,,,wg-a,,,,AAXX 06094 07510 12665 70108 10180 20140 30161 40233 52012 60006 875// 90900=
07510,1997-09-06 12:00:00,22,1023.8,0.6,60,14,15000,14.816,,,30,,,,,,,,,,,wg-a,,,,AAXX 06124 07510 12765 70308 10220 20140 30167 40238 51006 60006 8453/ 91200=
07510,1997-09-06 15:00:00,24,1023.4,-0.4,50,13,15000,18.52,,,20,,,,,,,,,,,wg-a,,,,AAXX 06154 07510 12765 40210 10240 20130 30163 40234 58004 60006 84530 91500=
07510,1997-09-06 18:00:00,22,1023.6,0.2,60,14,15000,11.112,,,10,18,24,,,,,,,,,wg-a,,,,AAXX 06184 07510 12765 30106 10220 20140 30165 40236 53002 60006 82530 91800 333 10240 20180=
07510,1997-09-06 21:00:00,19,1025,1.3,73,14,15000,11.112,,,20,,,,,,,,,,,wg-a,,,,AAXX 06214 07510 12/65 10206 10190 20140 30178 40250 51013 60006 81030 92100=
07510,1997-09-07 00:00:00,16,1025.4,0.3,88,14,15000,7.408,,,10,,,,,,,,,,,wg-a,,,,AAXX 07004 07510 12/65 10104 10160 20140 30181 40254 51003 60006 81030 90000=
07510,1997-09-07 03:00:00,15,1025.1,-0.3,88,13,15000,7.408,,,10,,,,,,,,,,,wg-a,,,,AAXX 07034 07510 12/65 10104 10150 20130 30178 40251 56003 60006 81030 90300=
07510,1997-09-07 06:00:00,14,1026,0.8,82,11,15000,11.112,,,20,13.7,22.4,,,,,,,,,wg-a,,,,AAXX 07064 07510 02/65 10206 10140 20110 30186 40260 53008 60006 81080 90600 333 10224 20137 60004=
07510,1997-09-07 09:00:00,20,1027,1.2,60,12,15000,14.816,,,30,,,,,,,,,,,wg-a,,,,AAXX 07094 07510 12/65 10308 10200 20120 30198 40270 51012 60006 81080 90900=
07510,1997-09-07 12:00:00,23,1026.3,-0.6,44,10,15000,18.52,,,30,,,,,,,,,,,wg-a,,,,AAXX 07124 07510 12/65 20310 10230 20100 30192 40263 58006 60006 80002 91200=
07510,1997-09-07 18:00:00,23,1025.4,-0.1,44,10,15000,11.112,,,10,13.7,24.8,,,,,,,,,wg-a,,,,AAXX 07184 07510 12/65 20106 10230 20100 30183 40254 55001 60006 81032 91800 333 10248 20137=
07510,1997-09-07 21:00:00,17,1026.9,1.3,77,13,15000,3.704,,,290,,,,,,,,,,,wg-a,,,,AAXX 07214 07510 12/65 22902 10170 20130 30196 40269 51013 60006 81032 92100=
07510,1997-09-08 00:00:00,15,1026.8,-0.2,82,12,15000,3.704,,,320,,,,,,,,,,,wg-a,,,,AAXX 08004 07510 12/65 03202 10150 20120 30194 40268 58002 60006 80000 90000=
07510,1997-09-08 03:00:00,14,1026.1,-0.7,82,11,15000,0,,,0,,,,,,,,,,,wg-a,,,,AAXX 08034 07510 12/65 00000 10140 20110 30187 40261 58007 60006 80000 90300=
07510,1997-09-08 06:00:00,13,1026.5,0.4,94,12,15000,3.704,,,350,12.4,23.3,,,,,,,,11,wg-a,,,,AAXX 08064 07510 02/65 03502 10130 20120 30191 40265 53004 60006 71100 80000 90600 333 10233 20124 60004=
07510,1997-09-08 09:00:00,20,1026.5,0.2,64,13,20000,11.112,,,30,,,,,,,,,,,wg-a,,,,AAXX 08094 07510 12/70 10306 10200 20130 30193 40265 51002 60006 80001 90900=
07510,1997-09-08 12:00:00,24,1025.2,-1.2,47,12,500,14.816,,,50,,,,,,,,,,,wg-a,,,,AAXX 08124 07510 12/00 10508 10240 20120 30181 40252 58012 60006 80001 91200=
07510,1997-09-08 15:00:00,26,1023.9,-1.3,42,12,500,14.816,,,20,,,,,,,,,,,wg-a,,,,AAXX 08154 07510 12/00 10208 10260 20120 30168 40239 57013 60006 80001 91500=
07510,1997-09-08 18:00:00,24,1023.6,-0.3,50,13,500,11.112,,,350,12.8,25.9,,,,,,,,,wg-a,,,,AAXX 08184 07510 12/00 03506 10240 20130 30165 40236 56003 60006 80000 91800 333 10259 20128=
07510,1997-09-08 21:00:00,19,1024.2,0.5,73,14,15000,3.704,,,330,,,,,,,,,,,wg-a,,,,AAXX 08214 07510 12/65 23302 10190 20140 30170 40242 50005 60006 80001 92100=
07510,1997-09-09 03:00:00,15,1023.1,-0.6,88,13,15000,3.704,,,10,,,,,,,,,,,wg-a,,,,AAXX 09034 07510 12/65 00102 10150 20130 30158 40231 58006 60006 80000 90300=
07510,1997-09-09 06:00:00,14,1023,-0.1,94,13,15000,7.408,,,10,13.4,24.3,,,,,,,,11,wg-a,,,,AAXX 09064 07510 02/65 10104 10140 20130 30157 40230 55001 60006 71100 80002 90600 333 10243 20134 60004=
07510,1997-09-09 09:00:00,20,1023.2,0.3,68,14,15000,3.704,,,30,,,,,,,,,,,wg-a,,,,AAXX 09094 07510 12/65 00302 10200 20140 30160 40232 51003 60006 80000 90900=
07510,1997-09-09 12:00:00,26,1022,-1,51,15,15000,7.408,,,350,,,,,,,,,,,wg-a,,,,AAXX 09124 07510 12/65 03504 10260 20150 30150 40220 58010 60006 80000 91200=
07510,1997-09-09 18:00:00,26,1019.8,-0.6,51,15,15000,11.112,,,350,14,27.6,,,,,,,,,wg-a,,,,AAXX 09184 07510 12/65 03506 10260 20150 30128 40198 56006 60006 80000 91800 333 10276 20140=
07510,1997-09-10 00:00:00,18,1020.1,-0.7,83,15,15000,7.408,,,30,,,,,,,,,,,wg-a,,,,AAXX 10004 07510 12/65 00304 10180 20150 30129 40201 58007 60006 80000 90000=
07510,1997-09-10 03:00:00,16,1019.3,-0.9,88,14,15000,7.408,,,10,,,,,,,,,,,wg-a,,,,AAXX 10034 07510 12/65 00104 10160 20140 30120 40193 58009 60006 80000 90300=
07510,1997-09-10 06:00:00,15,1018.8,-0.5,88,13,9000,7.408,,,40,14.6,25.7,,,,,,,,11,wg-a,,,,AAXX 10064 07510 02/59 /0404 10150 20130 30115 40188 55005 60006 71100 80002 90600 333 10257 20146 60004=
07510,1997-09-10 09:00:00,20,1018.5,-0.2,73,15,10000,3.704,,,70,,,,,,,,,,,wg-a,,,,AAXX 10094 07510 12760 10702 10200 20150 30113 40185 58002 60006 81500 90900=
07510,1997-09-10 12:00:00,26,1017.4,-0.9,54,16,12000,11.112,,,20,,,,,,,,,,,wg-a,,,,AAXX 10124 07510 12/62 00206 10260 20160 30104 40174 57009 60006 80000 91200=
07510,1997-09-10 18:00:00,26,1015.3,-0.3,48,14,15000,7.408,,,20,14.7,28.1,,,,,,,,,wg-a,,,,AAXX 10184 07510 12/65 00204 10260 20140 30083 40153 55003 60006 80000 91800 333 10281 20147=
07510,1997-09-11 00:00:00,15,1015.3,-0.6,94,14,15000,3.704,,,250,,,,,,,,,,,wg-a,,,,AAXX 11004 07510 12/65 02502 10150 20140 30080 40153 58006 60006 80000 90000=
07510,1997-09-11 03:00:00,13,1014.4,-0.9,100,13,12000,3.704,,,100,,,,,,,,,,,wg-a,,,,AAXX 11034 07510 12/62 01002 10130 20130 30071 40144 58009 60006 80000 90300=
07510,1997-09-11 06:00:00,14,1014.5,0.1,94,13,15000,3.704,,,120,13.1,26.1,,,,,,,,11,wg-a,,,,AAXX 11064 07510 02/65 21202 10140 20130 30072 40145 53001 60006 71100 80002 90600 333 10261 20131 60004=
07510,1997-09-11 09:00:00,23,1014.5,0.3,65,16,15000,7.408,,,210,,,,,,,,,,,wg-a,,,,AAXX 11094 07510 12/65 22104 10230 20160 30075 40145 53003 60006 80002 90900=
07510,1997-09-11 12:00:00,29,1013,-1.4,48,17,15000,14.816,,,160,,,,,,,,,,,wg-a,,,,AAXX 11124 07510 12/65 11608 10290 20170 30061 40130 58014 60006 80002 91200=
07510,1997-09-11 15:00:00,31,1011.2,-1.8,43,17,15000,14.816,,,210,,,,,,,,,,,wg-a,,,,AAXX 11154 07510 12/65 12108 10310 20170 30043 40112 56018 60006 80002 91500=
07510,1997-09-11 18:00:00,23,1011.6,0.3,78,19,15000,14.816,,,310,13.7,30.8,,,,,,,,,wg-a,,,,AAXX 11184 07510 12/65 23108 10230 20190 30046 40116 53003 60006 80002 91800 333 10308 20137=
07510,1997-09-11 21:00:00,20,1013.2,1.5,88,18,15000,3.704,,,310,,,,,,,,,,,wg-a,,,,AAXX 11214 07510 12465 /3102 10200 20180 30061 40132 51015 60006 85602 92100=
07510,1997-09-12 00:00:00,19,1013.7,0.5,94,18,7000,3.704,,,260,,,,,,,,,,,wg-a,,,,AAXX 12004 07510 12457 72602 10190 20180 30066 40137 50005 60006 87600 90000=
07510,1997-09-12 03:00:00,20,1012.7,-1,83,17,7000,0,,,0,,,,,,,,,,,wg-a,,,,AAXX 12034 07510 12557 70000 10200 20170 30056 40127 58010 60006 87600 90300=
07510,1997-09-12 06:00:00,19,1012.3,-0.4,88,17,3000,0,,,0,19.1,22.7,,,,,,,,10,wg-a,,,,AAXX 12064 07510 02430 70000 10190 20170 30052 40123 56004 60006 71022 875// 90600 333 10227 20191 60004=
07510,1997-09-12 09:00:00,19,1013,0.7,88,17,4000,3.704,,,270,,,,,,,,,,10,wg-a,,,,AAXX 12094 07510 12440 72702 10190 20170 30059 40130 52007 60006 71022 875// 90900=
07510,1997-09-12 12:00:00,18,1013.6,0.5,94,17,1200,14.816,,,330,,,,0,,,,,,10,wg-a,,,,AAXX 12124 07510 02112 73308 10180 20170 30064 40136 53005 60006 71052 876// 91200 333 60007=
07510,1997-09-12 15:00:00,19,1013.7,0.1,88,17,500,3.704,,,310,,,,0,,,,,,1,wg-a,,,,AAXX 12154 07510 12300 83102 10190 20170 30065 40137 50001 60007 70152 8582/ 91500=
07510,1997-09-12 18:00:00,18,1014.3,0.6,94,17,6000,7.408,,,280,17.7,20,,,,,,,,60,wg-a,,,,AAXX 12184 07510 02356 82804 10180 20170 30071 40143 51006 61000 76065 8582/ 91800 333 10200 20177 6100=
07510,1997-09-12 21:00:00,18,1015.7,1.4,94,17,4500,7.408,,,260,,,,1,,,,,,10,wg-a,,,,AAXX 12214 07510 12145 82604 10180 20170 30085 40157 51014 60017 71062 8557/ 92100=
07510,1997-09-13 00:00:00,17,1016.2,0.5,94,16,3500,7.408,,,210,,,,3,,,,,,10,wg-a,,,,AAXX 13004 07510 02335 82104 10170 20160 30090 40162 50005 60046 71062 875// 90000 333 60037=
07510,1997-09-13 03:00:00,17,1016.1,-0.1,94,16,8000,11.112,,,300,,,,1,,,,,,60,wg-a,,,,AAXX 13034 07510 12258 83006 10170 20160 30089 40161 55001 60017 76066 875// 90300=
07510,1997-09-13 06:00:00,15,1017.8,1.6,94,14,15000,7.408,,,10,15.2,18.4,,,,,5,,,1,wg-a,,,,AAXX 13064 07510 02665 70104 10150 20140 30105 40178 52016 60006 70162 8557/ 90600 333 10184 20152 60054=
07510,1997-09-13 09:00:00,16,1020.3,2.5,72,11,15000,14.816,,,30,,,,,,,,,,,wg-a,,,,AAXX 13094 07510 12465 70308 10160 20110 30130 40203 53025 60006 82872 90900=
07510,1997-09-13 12:00:00,18,1021.4,1.2,56,9,15000,14.816,,,20,,,,,,,,,,,wg-a,,,,AAXX 13124 07510 12565 70208 10180 20090 30142 40214 51012 60006 82832 91200=
07510,1997-09-13 15:00:00,20,1021.4,-0,46,8,25000,18.52,,,10,,,,,,,,,,,wg-a,,,,AAXX 13154 07510 12675 /0110 10200 20080 30142 40214 55000 60006 83232 91500=
07510,1997-09-13 18:00:00,18,1022.4,0.9,52,8,25000,7.408,,,330,15.1,20.2,,,,,,,,,wg-a,,,,AAXX 13184 07510 12675 73304 10180 20080 30151 40224 53009 60006 83402 91800 333 10202 20151=
07510,1997-09-14 00:00:00,10,1024.1,-0.1,87,8,20000,3.704,,,290,,,,,,,,,,,wg-a,,,,AAXX 14004 07510 12/70 32902 10100 20080 30166 40241 58001 60006 80002 90000=
07510,1997-09-14 03:00:00,8,1023.9,-0.2,93,7,20000,0,,,0,,,,,,,,,,,wg-a,,,,AAXX 14034 07510 12/70 30000 10080 20070 30164 40239 55002 60006 80002 90300=
07510,1997-09-14 06:00:00,9,1024.4,0.5,93,8,15000,7.408,,,40,7,18.1,,,,,,,,,wg-a,,,,AAXX 14064 07510 02/65 40404 10090 20080 30169 40244 53005 60006 80002 90600 333 10181 20070 60004=
07510,1997-09-14 12:00:00,19,1024.9,-0.5,40,5,15000,18.52,,,60,,,,,,,,,,,wg-a,,,,AAXX 14124 07510 12765 70610 10190 20050 30176 40249 58005 60006 83132 91200=
07510,1997-09-14 15:00:00,20,1023.1,-1.7,40,6,15000,14.816,,,70,,,,,,,,,,,wg-a,,,,AAXX 14154 07510 12765 70708 10200 20060 30159 40231 56017 60006 82532 91500=
07510,1997-09-14 18:00:00,19,1023.2,0.1,43,6,15000,14.816,,,40,8.9,20.4,,,,,,,,,wg-a,,,,AAXX 14184 07510 12765 50408 10190 20060 30160 40232 53001 60006 82532 91800 333 10204 20089=
07510,1997-09-14 21:00:00,16,1023.8,0.5,55,7,15000,11.112,,,40,,,,,,,,,,,wg-a,,,,AAXX 14214 07510 12/65 50406 10160 20070 30165 40238 53005 60006 84032 92100=
07510,1997-09-15 00:00:00,12,1023.2,-0.7,71,7,15000,7.408,,,40,,,,,,,,,,,wg-a,,,,AAXX 15004 07510 12/65 20404 10120 20070 30158 40232 58007 60006 82030 90000=
07510,1997-09-15 03:00:00,9,1022,-1.3,87,7,15000,7.408,,,20,,,,,,,,,,,wg-a,,,,AAXX 15034 07510 12/65 20204 10090 20070 30145 40220 58013 60006 82030 90300=
07510,1997-09-15 06:00:00,6,1022.1,-0,93,5,15000,3.704,,,30,6.1,18.6,,,,,,,,11,wg-a,,,,AAXX 15064 07510 02/65 /0302 10060 20050 30145 40221 55000 60006 71100 81030 90600 333 10186 20061 60004=
07510,1997-09-15 09:00:00,16,1022.3,0.5,55,7,15000,3.704,,,130,,,,,,,,,,,wg-a,,,,AAXX 15094 07510 12/65 11302 10160 20070 30150 40223 50005 60006 81030 90900=
07510,1997-09-15 12:00:00,21,1022,-0.2,40,7,15000,7.408,,,50,,,,,,,,,,,wg-a,,,,AAXX 15124 07510 12/65 10504 10210 20070 30148 40220 58002 60006 81032 91200=
07510,1997-09-15 18:00:00,21,1021.1,0.1,43,8,15000,7.408,,,40,6,24.1,,,,,,,,,wg-a,,,,AAXX 15184 07510 12/65 10404 10210 20080 30139 40211 51001 60006 81032 91800 333 10241 20060=
07510,1997-09-15 21:00:00,14,1022.2,1,82,11,15000,0,,,0,,,,,,,,,,,wg-a,,,,AAXX 15214 07510 12/65 20000 10140 20110 30149 40222 51010 60006 80002 92100=
07510,1997-09-16 00:00:00,10,1022.2,-0.1,93,9,15000,0,,,0,,,,,,,,,,,wg-a,,,,AAXX 16004 07510 12/65 20000 10100 20090 30148 40222 58001 60006 80002 90000=
07510,1997-09-16 03:00:00,10,1021.2,-1.1,93,9,15000,7.408,,,110,,,,,,,,,,,wg-a,,,,AAXX 16034 07510 12/65 51104 10100 20090 30137 40212 58011 60006 80002 90300=
07510,1997-09-16 06:00:00,10,1021.3,0.1,93,9,15000,7.408,,,120,9.2,20.9,,,,,,,,,wg-a,,,,AAXX 16064 07510 02/65 61204 10100 20090 30138 40213 53001 60006 80002 90600 333 10209 20092 60004=
07510,1997-09-16 09:00:00,18,1020.8,-0.2,83,15,15000,11.112,,,130,,,,,,,,,,,wg-a,,,,AAXX 16094 07510 12/65 41306 10180 20150 30136 40208 58002 60006 80002 90900=
07510,1997-09-16 15:00:00,28,1017.9,-1.6,42,14,15000,14.816,,,150,,,,,,,,,,,wg-a,,,,AAXX 16154 07510 12665 21508 10280 20140 30109 40179 56016 60006 81102 91500=
07510,1997-09-16 18:00:00,25,1018,0.1,57,16,15000,14.816,,,150,9.7,28.8,,,,,,,,,wg-a,,,,AAXX 16184 07510 12/65 61508 10250 20160 30110 40180 53001 60006 80002 91800 333 10288 20097=
07510,1997-09-16 21:00:00,20,1019.3,1.1,73,15,15000,11.112,,,120,,,,,,,,,,,wg-a,,,,AAXX 16214 07510 12/65 61206 10200 20150 30121 40193 51011 60006 80002 92100=
07510,1997-09-17 00:00:00,18,1019.5,0.2,83,15,15000,14.816,,,140,,,,,,,,,,,wg-a,,,,AAXX 17004 07510 12/65 51408 10180 20150 30123 40195 50002 60006 80002 90000=
07510,1997-09-17 06:00:00,15,1020.2,0.7,82,12,15000,11.112,,,120,14.7,25.1,,,,,,,,,wg-a,,,,AAXX 17064 07510 02/65 21206 10150 20120 30129 40202 53007 60006 80002 90600 333 10251 20147 60004=
07510,1997-09-17 12:00:00,27,1020.7,-0.5,48,15,20000,11.112,,,100,,,,,,,,,,,wg-a,,,,AAXX 17124 07510 12/70 51006 10270 20150 30137 40207 58005 60006 80002 91200=
07510,1997-09-17 15:00:00,29,1019.9,-0.8,40,14,20000,14.816,,,100,,,,,,,,,,,wg-a,,,,AAXX 17154 07510 12/70 51008 10290 20140 30129 40199 56008 60006 80002 91500=
07510,1997-09-17 18:00:00,26,1020.3,0.4,48,14,20000,7.408,,,110,14.7,29.4,,,,,,,,,wg-a,,,,AAXX 17184 07510 12/70 61104 10260 20140 30133 40203 53004 60006 80002 91800 333 10294 20147=
07510,1997-09-18 00:00:00,15,1021.7,0.4,88,13,20000,0,,,0,,,,,,,,,,,wg-a,,,,AAXX 18004 07510 12/70 20000 10150 20130 30144 40217 51004 60006 80002 90000=
07510,1997-09-18 06:00:00,14,1022,0.6,88,12,15000,14.816,,,110,13.8,25.5,,,,,,,,,wg-a,,,,AAXX 18064 07510 02/65 21108 10140 20120 30147 40220 53006 60006 80002 90600 333 10255 20138 60004=
07510,1997-09-18 09:00:00,21,1022.7,0.8,56,12,15000,22.224,,,120,,,,,,,,,,,wg-a,,,,AAXX 18094 07510 12/65 11212 10210 20120 30155 40227 51008 60006 80002 90900=
07510,1997-09-18 12:00:00,27,1021.7,-0.8,37,11,15000,14.816,,,120,,,,,,,,,,,wg-a,,,,AAXX 18124 07510 12/65 01208 10270 20110 30147 40217 58008 60006 80000 91200=
07510,1997-09-18 15:00:00,29,1020.4,-1.3,29,9,15000,11.112,,,130,,,,,,,,,,,wg-a,,,,AAXX 18154 07510 12/65 01306 10290 20090 30134 40204 56013 60006 80000 91500=
07510,1997-09-18 18:00:00,25,1020.4,-0.1,41,11,15000,7.408,,,120,14,29.1,,,,,,,,,wg-a,,,,AAXX 18184 07510 12/65 01204 10250 20110 30133 40204 55001 60006 80000 91800 333 10291 20140=
07510,1997-09-19 00:00:00,14,1021.1,-0.2,88,12,15000,0,,,0,,,,,,,,,,,wg-a,,,,AAXX 19004 07510 12/65 00000 10140 20120 30138 40211 58002 60006 80000 90000=
07510,1997-09-19 03:00:00,13,1020.8,-0.4,88,11,15000,0,,,0,,,,,,,,,,,wg-a,,,,AAXX 19034 07510 12/65 00000 10130 20110 30134 40208 57004 60006 80000 90300=
07510,1997-09-19 06:00:00,12,1021.2,0.4,94,11,15000,3.704,,,80,11.7,25.3,,,,,,,,11,wg-a,,,,AAXX 19064 07510 02/65 00802 10120 20110 30138 40212 53004 60006 71100 80000 90600 333 10253 20117 60004=
07510,1997-09-19 09:00:00,21,1021.5,0.5,60,13,15000,7.408,,,100,,,,,,,,,,,wg-a,,,,AAXX 19094 07510 12/65 01004 10210 20130 30143 40215 51005 60006 80000 90900=
07510,1997-09-19 12:00:00,29,1020.3,-1,33,11,15000,7.408,,,90,,,,,,,,,,,wg-a,,,,AAXX 19124 07510 12/65 00904 10290 20110 30133 40203 57010 60006 80000 91200=
07510,1997-09-19 15:00:00,30,1019.1,-1.1,35,13,15000,3.704,,,40,,,,,,,,,,,wg-a,,,,AAXX 19154 07510 12765 10402 10300 20130 30122 40191 56011 60006 81100 91500=
07510,1997-09-19 18:00:00,26,1019,-0.2,42,12,15000,7.408,,,110,12.2,30.5,,,,,,,,,wg-a,,,,AAXX 19184 07510 12/65 01104 10260 20120 30120 40190 55002 60006 80000 91800 333 10305 20122=
07510,1997-09-20 00:00:00,16,1020,-0.3,88,14,15000,7.408,,,240,,,,,,,,,,,wg-a,,,,AAXX 20004 07510 12/65 22404 10160 20140 30127 40200 58003 60006 80002 90000=
07510,1997-09-20 03:00:00,16,1019.7,-0.3,88,14,15000,0,,,0,,,,,,,,,,,wg-a,,,,AAXX 20034 07510 12/65 40000 10160 20140 30124 40197 56003 60006 84030 90300=
07510,1997-09-20 06:00:00,17,1019.9,0.3,100,17,200,3.704,,,260,15.1,26,,,,,,,,44,wg-a,,,,AAXX 20064 07510 02/02 92602 10170 20170 30127 40199 53003 60006 74441 89/// 90600 333 10260 20151 60004=
07510,1997-09-20 09:00:00,20,1020.8,0.9,94,19,10000,7.408,,,240,,,,,,,,,,3,wg-a,,,,AAXX 20094 07510 12360 72404 10200 20190 30136 40208 52009 60006 70342 8163/ 90900=
07510,1997-09-20 12:00:00,25,1021,0.3,69,19,15000,3.704,,,300,,,,,,,,,,1,wg-a,,,,AAXX 20124 07510 12565 73002 10250 20190 30139 40210 50003 60006 70142 8118/ 91200=
07510,1997-09-20 18:00:00,22,1020.4,0.2,73,17,10000,11.112,,,270,17.2,25.5,,,,,,,,,wg-a,,,,AAXX 20184 07510 12560 72706 10220 20170 30133 40204 53002 60006 81882 91800 333 10255 20172=
07510,1997-09-20 21:00:00,19,1021.4,0.9,88,17,10000,3.704,,,250,,,,,,,,,,,wg-a,,,,AAXX 20214 07510 12760 72502 10190 20170 30142 40214 51009 60006 87532 92100=
07510,1997-09-21 00:00:00,18,1021.4,-0,94,17,4000,7.408,,,230,,,,,,,,,,11,wg-a,,,,AAXX 21004 07510 12/40 52304 10180 20170 30142 40214 55000 60006 71122 82032 90000=
07510,1997-09-21 03:00:00,17,1020.9,-0.6,94,16,500,3.704,,,230,,,,,,,,,,45,wg-a,,,,AAXX 21034 07510 32/05 92302 10170 20160 30136 40209 58006 74542 89/// 90300=
07510,1997-09-21 06:00:00,17,1021.1,0.2,94,16,200,3.704,,,230,16.4,22.2,,,,,,,,45,wg-a,,,,AAXX 21064 07510 02/02 92302 10170 20160 30138 40211 53002 60006 74542 89/// 90600 333 10222 20164 60004=
07510,1997-09-21 09:00:00,20,1021.6,0.6,94,19,4000,3.704,,,300,,,,,,,,,,10,wg-a,,,,AAXX 21094 07510 12240 73002 10200 20190 30144 40216 53006 60006 71042 8663/ 90900=
07510,1997-09-21 12:00:00,24,1021.2,-0.3,69,18,10000,7.408,,,250,,,,,,,,,,1,wg-a,,,,AAXX 21124 07510 12560 /2504 10240 20180 30141 40212 58003 60006 70142 83230 91200=
07510,1997-09-21 15:00:00,25,1020.1,-1,57,16,10000,11.112,,,280,,,,,,,,,,,wg-a,,,,AAXX 21154 07510 12560 52806 10250 20160 30131 40201 56010 60006 83202 91500=
07510,1997-09-21 18:00:00,22,1020.8,0.6,69,16,10000,7.408,,,310,16.5,25.7,,,,,,,,,wg-a,,,,AAXX 21184 07510 12560 /3104 10220 20160 30137 40208 53006 60006 82832 91800 333 10257 20165=
07510,1997-09-21 21:00:00,18,1022,1.1,88,16,10000,7.408,,,20,,,,,,,,,,,wg-a,,,,AAXX 21214 07510 12560 40204 10180 20160 30148 40220 51011 60006 82830 92100=
07510,1997-09-22 00:00:00,18,1021.7,-0.3,88,16,10000,7.408,,,350,,,,,,,,,,,wg-a,,,,AAXX 22004 07510 12560 73504 10180 20160 30145 40217 58003 60006 8683/ 90000=
07510,1997-09-22 03:00:00,16,1021.2,-0.6,94,15,10000,0,,,0,,,,,,,,,,,wg-a,,,,AAXX 22034 07510 12660 /0000 10160 20150 30139 40212 56006 60006 82532 90300=
07510,1997-09-22 06:00:00,16,1021.1,-0.1,100,16,1800,3.704,,,30,15.6,21.7,,,,,,,,10,wg-a,,,,AAXX 22064 07510 02018 70302 10160 20160 30138 40211 58001 60006 71022 8353/ 90600 333 10217 20156 60004=
07510,1997-09-22 09:00:00,18,1021.9,0.9,88,16,500,7.408,,,40,,,,,,,,,,,wg-a,,,,AAXX 22094 07510 12300 70404 10180 20160 30147 40219 51009 60006 8453/ 90900=
07510,1997-09-22 12:00:00,23,1020.8,-1,69,17,10000,3.704,,,20,,,,,,,,,,,wg-a,,,,AAXX 22124 07510 12660 70202 10230 20170 30137 40208 58010 60006 8383/ 91200=
07510,1997-09-22 15:00:00,25,1019.3,-1.5,57,16,10000,7.408,,,80,,,,,,,,,,,wg-a,,,,AAXX 22154 07510 12560 70804 10250 20160 30122 40193 56015 60006 83201 91500=
07510,1997-09-22 18:00:00,22,1019.2,-0.1,69,16,10000,11.112,,,30,16.2,25,,,,,,,,,wg-a,,,,AAXX 22184 07510 12/60 /0306 10220 20160 30121 40192 55001 60006 81032 91800 333 10250 20162=
07510,1997-09-22 21:00:00,19,1020,0.7,88,17,10000,3.704,,,40,,,,,,,,,,,wg-a,,,,AAXX 22214 07510 12/60 30402 10190 20170 30128 40200 51007 60006 80002 92100=
07510,1997-09-23 00:00:00,17,1019.1,-0.9,94,16,10000,7.408,,,30,,,,,,,,,,11,wg-a,,,,AAXX 23004 07510 12/60 30304 10170 20160 30119 40191 58009 60006 71100 80002 90000=
07510,1997-09-23 03:00:00,15,1018.5,-0.7,94,14,6000,3.704,,,30,,,,,,,,,,11,wg-a,,,,AAXX 23034 07510 12/56 30302 10150 20140 30112 40185 56007 60006 71100 80002 90300=
07510,1997-09-23 06:00:00,15,1018.6,0.1,94,14,500,7.408,,,50,14.6,22.3,,,,,,,,11,wg-a,,,,AAXX 23064 07510 02/00 /0504 10150 20140 30113 40186 53001 60006 71111 80002 90600 333 10223 20146 60004=
07510,1997-09-23 09:00:00,21,1018.7,0.3,73,16,500,11.112,,,100,,,,,,,,,,,wg-a,,,,AAXX 23094 07510 12/00 /1006 10210 20160 30116 40187 51003 60006 80002 90900=
07510,1997-09-23 12:00:00,27,1017.9,-0.7,54,17,7000,11.112,,,110,,,,,,,,,,,wg-a,,,,AAXX 23124 07510 12657 /1106 10270 20170 30109 40179 58007 60006 81102 91200=
07510,1997-09-23 15:00:00,29,1016.7,-1.1,40,14,10000,14.816,,,140,,,,,,,,,,,wg-a,,,,AAXX 23154 07510 12660 /1408 10290 20140 30098 40167 56011 60006 84202 91500=
07510,1997-09-23 18:00:00,25,1016.9,0.1,50,14,10000,7.408,,,90,14.9,28.9,,,,,,,,,wg-a,,,,AAXX 23184 07510 12/60 10904 10250 20140 30099 40169 53001 60006 80002 91800 333 10289 20149=
07510,1997-09-23 21:00:00,19,1018.1,1,73,14,10000,3.704,,,40,,,,,,,,,,,wg-a,,,,AAXX 23214 07510 12/60 10402 10190 20140 30109 40181 53010 60006 80002 92100=
07510,1997-09-24 00:00:00,18,1017.7,-0.4,83,15,10000,3.704,,,50,,,,,,,,,,,wg-a,,,,AAXX 24004 07510 12/60 10502 10180 20150 30105 40177 56004 60006 80002 90000=
07510,1997-09-24 03:00:00,16,1017.6,-0.2,88,14,10000,7.408,,,50,,,,,,,,,,,wg-a,,,,AAXX 24034 07510 12/60 10504 10160 20140 30103 40176 56002 60006 80002 90300=
07510,1997-09-24 06:00:00,14,1018.1,0.5,94,13,500,3.704,,,40,14,24.9,,,,,,,,11,wg-a,,,,AAXX 24064 07510 02/00 /0402 10140 20130 30108 40181 53005 60006 71100 80002 90600 333 10249 20140 60004=
07510,1997-09-24 09:00:00,22,1018.3,0.4,65,15,10000,11.112,,,110,,,,,,,,,,,wg-a,,,,AAXX 24094 07510 12/60 /1106 10220 20150 30112 40183 52004 60006 80002 90900=
07510,1997-09-24 12:00:00,28,1017.5,-0.7,45,15,15000,11.112,,,110,,,,,,,,,,,wg-a,,,,AAXX 24124 07510 12765 11106 10280 20150 30105 40175 58007 60006 81102 91200=
07510,1997-09-24 15:00:00,29,1016.1,-1.3,37,13,15000,11.112,,,110,,,,,,,,,,,wg-a,,,,AAXX 24154 07510 12765 41106 10290 20130 30092 40161 56013 60006 83202 91500=
07510,1997-09-24 18:00:00,25,1016.3,0.1,47,13,15000,7.408,,,80,13.8,29.2,,,,,,,,,wg-a,,,,AAXX 24184 07510 12/65 30804 10250 20130 30093 40163 53001 60006 80002 91800 333 10292 20138=
07510,1997-09-24 21:00:00,18,1017.8,1.3,77,14,10000,3.704,,,360,,,,,,,,,,,wg-a,,,,AAXX 24214 07510 12/60 /3602 10180 20140 30106 40178 51013 60006 92100=
07510,1997-09-25 00:00:00,15,1017.6,-0.3,88,13,10000,0,,,0,,,,,,,,,,,wg-a,,,,AAXX 25004 07510 12/60 /0000 10150 20130 30103 40176 56003 60006 90000=
07510,1997-09-25 03:00:00,14,1017.9,0.3,94,13,10000,3.704,,,50,,,,,,,,,,,wg-a,,,,AAXX 25034 07510 12/60 /0502 10140 20130 30106 40179 50003 60006 90300=
07510,1997-09-25 06:00:00,13,1018.6,0.7,100,13,500,11.112,,,120,12.7,25.3,,,,,,,,11,wg-a,,,,AAXX 25064 07510 02/00 21206 10130 20130 30113 40186 53007 60006 71100 80002 90600 333 10253 20127 60004=
07510,1997-09-25 09:00:00,17,1020.3,,94,16,500,7.408,,,140,,,,,,,,,,45,wg-a,,,,AAXX 25094 07510 12/05 91404 10170 20160 30130 40203 60006 745// 89/// 90900=
07510,1997-09-25 12:00:00,24,1020.1,0,69,18,6000,7.408,,,80,,,,,,,,,,2,wg-a,,,,AAXX 25124 07510 12/56 30804 10240 20180 30130 40201 50000 60006 70241 80002 91200=
07510,1997-09-25 15:00:00,27,1019.2,-0.8,51,16,10000,11.112,,,110,,,,,,,,,,,wg-a,,,,AAXX 25154 07510 12560 31106 10270 20160 30122 40192 56008 60006 81202 91500=
07510,1997-09-26 00:00:00,15,1020.3,-0.4,94,14,10000,0,,,0,,,,,,,,,,,wg-a,,,,AAXX 26004 07510 12/60 30000 10150 20140 30130 40203 56004 60006 80002 90000=
07510,1997-09-26 06:00:00,14,1020.1,0.1,94,13,6000,7.408,,,110,13.4,23.9,,,,,,,,11,wg-a,,,,AAXX 26064 07510 02/56 31104 10140 20130 30128 40201 52001 60006 71100 80002 90600 333 10239 20134 60004=
07510,1997-09-26 09:00:00,21,1020.6,0.6,56,12,10000,11.112,,,120,,,,,,,,,,,wg-a,,,,AAXX 26094 07510 12/60 41206 10210 20120 30134 40206 51006 60006 80002 90900=
07510,1997-09-26 12:00:00,27,1019.1,-1.3,37,11,15000,11.112,,,110,,,,,,,,,,,wg-a,,,,AAXX 26124 07510 12/65 41106 10270 20110 30121 40191 58013 60006 80002 91200=
07510,1997-09-26 15:00:00,28,1017.4,-1.7,27,7,15000,14.816,,,90,,,,,,,,,,,wg-a,,,,AAXX 26154 07510 12/65 50908 10280 20070 30104 40174 56017 60006 80002 91500=
07510,1997-09-26 18:00:00,25,1017,-0.4,39,10,15000,7.408,,,130,13.8,29.3,,,,,,,,,wg-a,,,,AAXX 26184 07510 12/65 71304 10250 20100 30100 40170 55004 60006 80002 91800 333 10293 20138=
07510,1997-09-26 21:00:00,17,1017.1,-0.1,68,11,15000,0,,,0,,,,,,,,,,,wg-a,,,,AAXX 26214 07510 12/65 50000 10170 20110 30099 40171 58001 60006 80002 92100=
07510,1997-09-27 00:00:00,14,1016.6,-0.6,82,11,15000,0,,,0,,,,,,,,,,,wg-a,,,,AAXX 27004 07510 12/65 30000 10140 20110 30093 40166 56006 60006 80002 90000=
07510,1997-09-27 03:00:00,13,1015.7,-0.9,94,12,10000,3.704,,,100,,,,,,,,,,,wg-a,,,,AAXX 27034 07510 12/60 11002 10130 20120 30084 40157 56009 60006 80002 90300=
07510,1997-09-27 06:00:00,13,1015.5,-0.2,94,12,8000,7.408,,,120,12.8,25,,,,,,,,,wg-a,,,,AAXX 27064 07510 02/58 21204 10130 20120 30082 40155 55002 60006 80002 90600 333 10250 20128 60004=
07510,1997-09-27 09:00:00,21,1015.2,-0.1,64,14,10000,11.112,,,130,,,,,,,,,,,wg-a,,,,AAXX 27094 07510 12/60 31306 10210 20140 30081 40152 58001 60006 80002 90900=
07510,1997-09-27 12:00:00,28,1014.4,-0.7,35,11,10000,11.112,,,100,,,,,,,,,,,wg-a,,,,AAXX 27124 07510 12/60 31006 10280 20110 30074 40144 58007 60006 80002 91200=
07510,1997-09-27 15:00:00,28,1012.9,-1.4,35,11,10000,7.408,,,110,,,,,,,,,,,wg-a,,,,AAXX 27154 07510 12/60 71104 10280 20110 30060 40129 56014 60006 80002 91500=
07510,1997-09-27 18:00:00,24,1013.3,0.3,50,13,10000,0,,,0,13.4,29.1,,,,,,,,,wg-a,,,,AAXX 27184 07510 12/60 60000 10240 20130 30063 40133 53003 60006 80002 91800 333 10291 20134=
07510,1997-09-27 21:00:00,18,1013.3,-0.2,73,13,10000,0,,,0,,,,,,,,,,,wg-a,,,,AAXX 27214 07510 12/60 60000 10180 20130 30061 40133 58002 60006 80002 92100=
07510,1997-09-28 00:00:00,15,1013.6,0.2,88,13,10000,3.704,,,280,,,,,,,,,,,wg-a,,,,AAXX 28004 07510 12/60 32802 10150 20130 30063 40136 50002 60006 80002 90000=
07510,1997-09-28 03:00:00,13,1013.4,-0.2,94,12,10000,0,,,0,,,,,,,,,,11,wg-a,,,,AAXX 28034 07510 12/60 30000 10130 20120 30061 40134 55002 60006 71100 80002 90300=
07510,1997-09-28 06:00:00,12,1013.7,0.3,94,11,8000,3.704,,,90,12,23.5,,,,,,,,11,wg-a,,,,AAXX 28064 07510 02/58 40902 10120 20110 30064 40137 52003 60006 71100 81032 90600 333 10235 20120 60004=
07510,1997-09-28 09:00:00,21,1014.1,,64,14,8000,3.704,,,110,,,,,,,,,,,wg-a,,,,AAXX 28094 07510 12/58 21102 10210 20140 30072 40141 60006 8///3 90900=
07510,1997-09-28 12:00:00,28,1013.8,-0.3,35,11,10000,3.704,,,30,,,,,,,,,,,wg-a,,,,AAXX 28124 07510 12/60 20302 10280 20110 30069 40138 58003 60006 80002 91200=
07510,1997-09-28 15:00:00,29,1013,-0.8,35,12,10000,7.408,,,110,,,,,,,,,,,wg-a,,,,AAXX 28154 07510 12/60 31104 10290 20120 30061 40130 58008 60006 80002 91500=
07510,1997-09-28 18:00:00,25,1014,0.9,44,12,10000,7.408,,,120,12,30,,,,,,,,,wg-a,,,,AAXX 28184 07510 12/60 21204 10250 20120 30070 40140 53009 60006 80002 91800 333 10300 20120=
07510,1997-09-28 21:00:00,18,1016,1.8,73,13,10000,3.704,,,20,,,,,,,,,,,wg-a,,,,AAXX 28214 07510 12/60 20202 10180 20130 30088 40160 51018 60006 80002 92100=
07510,1997-09-29 00:00:00,17,1016.3,0.3,77,13,10000,3.704,,,350,,,,,,,,,,,wg-a,,,,AAXX 29004 07510 12/60 03502 10170 20130 30091 40163 53003 60006 80000 90000=
07510,1997-09-29 03:00:00,15,1016.6,0.2,88,13,10000,3.704,,,50,,,,,,,,,,,wg-a,,,,AAXX 29034 07510 12/60 /0502 10150 20130 30093 40166 51002 60006 90300=
07510,1997-09-29 06:00:00,13,1018.2,1.6,100,13,10000,3.704,,,100,13.4,25.1,,,,,,,,11,wg-a,,,,AAXX 29064 07510 02/60 61002 10130 20130 30109 40182 53016 60006 71111 80002 90600 333 10251 20134 60004=
07510,1997-09-29 09:00:00,23,1019.7,1.7,61,15,10000,7.408,,,110,,,,,,,,,,,wg-a,,,,AAXX 29094 07510 12/60 51104 10230 20150 30126 40197 51017 60006 80002 90900=
07510,1997-09-29 12:00:00,28,1019.8,0.2,37,12,12000,14.816,,,70,,,,,,,,,,,wg-a,,,,AAXX 29124 07510 12/62 50708 10280 20120 30128 40198 53002 60006 80002 91200=
07510,1997-09-29 15:00:00,29,1019.1,-0.7,27,8,12000,14.816,,,50,,,,,,,,,,,wg-a,,,,AAXX 29154 07510 12/62 50508 10290 20080 30121 40191 56007 60006 80002 91500=
07510,1997-09-29 18:00:00,26,1019.5,0.4,39,11,15000,7.408,,,40,13.3,29.8,,,,,,,,,wg-a,,,,AAXX 29184 07510 12/65 60404 10260 20110 30125 40195 51004 60006 80002 91800 333 10298 20133=
07510,1997-09-29 21:00:00,21,1021.2,1.5,60,13,15000,11.112,,,40,,,,,,,,,,,wg-a,,,,AAXX 29214 07510 12/65 30406 10210 20130 30140 40212 53015 60006 80002 92100=
07510,1997-09-30 00:00:00,16,1021.9,0.6,82,13,15000,0,,,0,,,,,,,,,,,wg-a,,,,AAXX 30004 07510 12/65 30000 10160 20130 30146 40219 51006 60006 80002 90000=
07510,1997-09-30 03:00:00,14,1022.2,0.3,88,12,15000,3.704,,,350,,,,,,,,,,,wg-a,,,,AAXX 30034 07510 12/65 13502 10140 20120 30149 40222 51003 60006 80002 90300=
07510,1997-09-30 06:00:00,12,1022.5,0.2,94,11,15000,0,,,0,12,26.1,,,,,,,,,wg-a,,,,AAXX 30064 07510 02/65 10000 10120 20110 30151 40225 52002 60006 80002 90600 333 10261 20120 60004=
07510,1997-09-30 09:00:00,22,1022.9,0.6,60,14,10000,7.408,,,90,,,,,,,,,,,wg-a,,,,AAXX 30094 07510 12/60 00904 10220 20140 30157 40229 53006 60006 80000 90900=
07510,1997-09-30 12:00:00,28,1022.5,-0.2,37,12,10000,7.408,,,50,,,,,,,,,,,wg-a,,,,AAXX 30124 07510 12/60 00504 10280 20120 30155 40225 57002 60006 80000 91200=
07510,1997-09-30 15:00:00,29,1021.3,-1.2,37,13,15000,11.112,,,80,,,,,,,,,,,wg-a,,,,AAXX 30154 07510 12/65 10806 10290 20130 30143 40213 58012 60006 80002 91500=
07510,1997-09-30 18:00:00,26,1020.9,-0.4,48,14,15000,11.112,,,20,12.2,29.8,,,,,,,,,wg-a,,,,AAXX 30184 07510 12/65 10206 10260 20140 30139 40209 56004 60006 80002 91800 333 10298 20122=
07510,1997-10-01 00:00:00,14,1021.3,-0.4,88,12,15000,0,,,0,,,,,,,,,,,wg-a,,,,AAXX 01004 07510 12/65 00000 10140 20120 30140 40213 58004 60006 80000 90000=
07510,1997-10-01 03:00:00,13,1020.8,-0.6,82,10,15000,0,,,0,,,,,,,,,,,wg-a,,,,AAXX 01034 07510 12/65 00000 10130 20100 30134 40208 58006 60006 80000 90300=
07510,1997-10-01 06:00:00,12,1020.8,0,88,10,10000,3.704,,,30,11.8,26,,,,,,,,11,wg-a,,,,AAXX 01064 07510 02/60 20302 10120 20100 30134 40208 50000 60006 71100 80002 90600 333 10260 20118 60004=
07510,1997-10-01 12:00:00,28,1019.8,-1.1,35,11,10000,3.704,,,360,,,,,,,,,,,wg-a,,,,AAXX 01124 07510 12/60 23602 10280 20110 30128 40198 58011 60006 80002 91200=
07510,1997-10-01 15:00:00,29,1018.2,-1.6,25,7,15000,18.52,,,20,,,,,,,,,,,wg-a,,,,AAXX 01154 07510 12/65 30210 10290 20070 30112 40182 56016 60006 80002 91500=
07510,1997-10-01 18:00:00,,1018.4,0.1,,10,15000,3.704,,,320,11.3,29.6,,,,,,,,,wg-a,,,,AAXX 01184 07510 12/65 33202 1//// 20100 30113 40184 52001 60006 80002 91800 333 10296 20113=
07510,1997-10-01 21:00:00,18,1018.6,0.1,73,13,15000,3.704,,,320,,,,,,,,,,,wg-a,,,,AAXX 01214 07510 12/65 33202 10180 20130 30114 40186 50001 60006 80002 92100=
07510,1997-10-02 00:00:00,14,1017.9,-0.8,82,11,15000,3.704,,,300,,,,,,,,,,,wg-a,,,,AAXX 02004 07510 12/65 33002 10140 20110 30106 40179 58008 60006 80002 90000=
07510,1997-10-02 03:00:00,14,1017.5,-0.4,82,11,15000,3.704,,,290,,,,,,,,,,,wg-a,,,,AAXX 02034 07510 12/65 32902 10140 20110 30102 40175 58004 60006 80002 90300=
07510,1997-10-02 06:00:00,13,1017.5,-0,88,11,10000,0,,,0,13,24.8,,,,,,,,,wg-a,,,,AAXX 02064 07510 02/60 00000 10130 20110 30102 40175 55000 60006 80000 90600 333 10248 20130 60004=
07510,1997-10-02 12:00:00,27,1017.6,-0.1,37,11,10000,11.112,,,10,,,,,,,,,,,wg-a,,,,AAXX 02124 07510 12/60 00106 10270 20110 30106 40176 58001 60006 80000 91200=
07510,1997-10-02 15:00:00,28,1016.4,-1.2,35,11,10000,14.816,,,10,,,,,,,,,,,wg-a,,,,AAXX 02154 07510 12/60 /0108 10280 20110 30094 40164 56012 60006 91500=
07510,1997-10-02 18:00:00,24,1016.6,0.2,54,14,15000,11.112,,,360,12.5,28.2,,,,,,,,,wg-a,,,,AAXX 02184 07510 12/65 03606 10240 20140 30096 40166 53002 60006 80000 91800 333 10282 20125=
07510,1997-10-02 21:00:00,20,1017.6,0.8,73,15,15000,11.112,,,10,,,,,,,,,,,wg-a,,,,AAXX 02214 07510 12/65 00106 10200 20150 30104 40176 53008 60006 80000 92100=
07510,1997-10-03 00:00:00,17,1017.7,0.1,82,14,15000,11.112,,,10,,,,,,,,,,,wg-a,,,,AAXX 03004 07510 12/65 00106 10170 20140 30105 40177 50001 60006 80000 90000=
07510,1997-10-03 03:00:00,15,1017.2,-0.6,94,14,15000,7.408,,,10,,,,,,,,,,,wg-a,,,,AAXX 03034 07510 12/65 00104 10150 20140 30099 40172 58006 60006 80000 90300=
07510,1997-10-03 06:00:00,14,1017.4,0.2,94,13,10000,0,,,0,13.3,24.1,,,,,,,,40,wg-a,,,,AAXX 03064 07510 02/60 /0000 10140 20130 30101 40174 53002 60006 74000 80001 90600 333 10241 20133 60004=
07510,1997-10-03 09:00:00,19,1018.1,0.8,78,15,10000,3.704,,,40,,,,,,,,,,,wg-a,,,,AAXX 03094 07510 12760 10402 10190 20150 30109 40181 51008 60006 81500 90900=
07510,1997-10-03 12:00:00,24,1017.3,-0.6,57,15,10000,11.112,,,30,,,,,,,,,,,wg-a,,,,AAXX 03124 07510 12/60 00306 10240 20150 30103 40173 58006 60006 80000 91200=
07510,1997-10-03 15:00:00,27,1016.2,-1.1,42,13,15000,11.112,,,30,,,,,,,,,,,wg-a,,,,AAXX 03154 07510 12/65 00306 10270 20130 30092 40162 56011 60006 80000 91500=
07510,1997-10-03 18:00:00,24,1017.1,0.9,54,14,15000,7.408,,,350,13,27.5,,,,,,,,,wg-a,,,,AAXX 03184 07510 12/65 03504 10240 20140 30101 40171 53009 60006 80000 91800 333 10275 20130=
07510,1997-10-03 21:00:00,18,1018.6,1.3,77,14,15000,3.704,,,350,,,,,,,,,,,wg-a,,,,AAXX 03214 07510 12/65 03502 10180 20140 30114 40186 51013 60006 80000 92100=
07510,1997-10-04 00:00:00,16,1018.9,0.2,82,13,15000,7.408,,,40,,,,,,,,,,,wg-a,,,,AAXX 04004 07510 12/65 00404 10160 20130 30116 40189 50002 60006 80000 90000=
07510,1997-10-04 03:00:00,15,1019.1,0.2,82,12,15000,3.704,,,40,,,,,,,,,,,wg-a,,,,AAXX 04034 07510 12/65 00402 10150 20120 30118 40191 50002 60006 80000 90300=
07510,1997-10-04 06:00:00,13,1019.8,0.6,88,11,10000,7.408,,,50,12.8,24.4,,,,,,,,11,wg-a,,,,AAXX 04064 07510 02/60 00504 10130 20110 30124 40198 51006 60006 71100 80000 90600 333 10244 20128 60004=
07510,1997-10-04 09:00:00,19,1020.5,0.9,60,11,15000,7.408,,,90,,,,,,,,,,,wg-a,,,,AAXX 04094 07510 12/65 00904 10190 20110 30133 40205 51009 60006 80000 90900=
07510,1997-10-04 12:00:00,25,1019.8,-0.6,41,11,15000,11.112,,,50,,,,,,,,,,,wg-a,,,,AAXX 04124 07510 12/65 00506 10250 20110 30127 40198 58006 60006 80000 91200=
07510,1997-10-04 18:00:00,23,1017.7,-0.4,41,9,15000,3.704,,,20,12.5,27.7,,,,,,,,,wg-a,,,,AAXX 04184 07510 12/65 00202 10230 20090 30106 40177 55004 60006 80000 91800 333 10277 20125=
07510,1997-10-04 21:00:00,19,1018,0.2,56,10,15000,7.408,,,50,,,,,,,,,,,wg-a,,,,AAXX 04214 07510 12/65 00504 10190 20100 30108 40180 52002 60006 80000 92100=
07510,1997-10-05 00:00:00,14,1017.1,-1,77,10,15000,7.408,,,50,,,,,,,,,,,wg-a,,,,AAXX 05004 07510 12/65 00504 10140 20100 30098 40171 58010 60006 80000 90000=
07510,1997-10-05 03:00:00,12,1016,-1.2,82,9,15000,7.408,,,40,,,,,,,,,,,wg-a,,,,AAXX 05034 07510 12/65 00404 10120 20090 30086 40160 58012 60006 80000 90300=
07510,1997-10-05 06:00:00,10,1015.2,-0.8,93,9,15000,3.704,,,90,9.8,23.2,,,,,,,,11,wg-a,,,,AAXX 05064 07510 02/65 00902 10100 20090 30078 40152 56008 60006 71100 80000 90600 333 10232 20098 60004=
07510,1997-10-05 09:00:00,20,1014.6,-0.3,68,14,15000,22.224,,,130,,,,,,,,,,,wg-a,,,,AAXX 05094 07510 12/65 01312 10200 20140 30075 40146 56003 60006 80000 90900=
07510,1997-10-05 12:00:00,27,1012.7,-1.8,45,14,15000,18.52,,,110,,,,,,,,,,,wg-a,,,,AAXX 05124 07510 12/65 01110 10270 20140 30057 40127 58018 60006 80000 91200=
07510,1997-10-05 15:00:00,28,1009.9,-2.7,42,14,15000,18.52,,,120,,,,,,,,,,,wg-a,,,,AAXX 05154 07510 12/65 01210 10280 20140 30030 40099 56027 60006 80000 91500=
07510,1997-10-05 18:00:00,24,1009,-1,57,15,15000,7.408,,,130,9.7,29.2,,,,,,,,,wg-a,,,,AAXX 05184 07510 12/65 61304 10240 20150 30020 40090 56010 60006 80002 91800 333 10292 20097=
07510,1997-10-05 21:00:00,22,1008.5,-0.5,69,16,15000,18.52,,,140,,,,,,,,,,,wg-a,,,,AAXX 05214 07510 12/65 61410 10220 20160 30015 40085 58005 60006 80002 92100=
07510,1997-10-06 00:00:00,20,1008.3,-0.3,83,17,15000,11.112,,,140,,,,,,,,,,,wg-a,,,,AAXX 06004 07510 12/65 61406 10200 20170 30012 40083 56003 60006 80002 90000=
07510,1997-10-06 03:00:00,18,1007.1,-1.2,94,17,10000,11.112,,,150,,,,,,,,,,,wg-a,,,,AAXX 06034 07510 12/60 71506 10180 20170 30000 40071 58012 60006 84032 90300=
07510,1997-10-06 06:00:00,17,1006.7,-0.4,94,16,10000,11.112,,,160,17.3,23.5,,,,,,,,,wg-a,,,,AAXX 06064 07510 02/60 71606 10170 20160 39996 40067 56004 60006 85032 90600 333 10235 20173 60004=
07510,1997-10-06 09:00:00,20,1007.4,0.7,88,18,10000,11.112,,,230,,,,,,,,,,,wg-a,,,,AAXX 06094 07510 12460 72306 10200 20180 30003 40074 53007 60006 82132 90900=
07510,1997-10-06 12:00:00,22,1007.3,0,83,19,8000,11.112,,,250,,,,0,,,,,,21,wg-a,,,,AAXX 06124 07510 02458 72506 10220 20190 30003 40073 50000 60016 72162 8489/ 91200 333 60007=
07510,1997-10-06 15:00:00,22,1006,-1.3,78,18,8000,7.408,,,130,,,,1,,,,,,21,wg-a,,,,AAXX 06154 07510 12558 71304 10220 20180 39990 40060 57013 60017 72162 84832 91500=
07510,1997-10-06 18:00:00,20,1005.5,-0.6,94,19,4000,11.112,,,130,17.3,22.4,,6,,,,,,10,wg-a,,,,AAXX 06184 07510 02540 71306 10200 20190 39984 40055 55006 60006 71098 82882 91800 333 10224 20173 60067=
07510,1997-10-06 21:00:00,19,1005.3,-0.2,94,18,4500,11.112,,,160,,,,,,,,,,10,wg-a,,,,AAXX 06214 07510 12445 71606 10190 20180 39982 40053 58002 60006 71092 8593/ 92100=
07510,1997-10-07 00:00:00,18,1005.2,-0.1,88,16,10000,14.816,,,190,,,,,,,,,,3,wg-a,,,,AAXX 07004 07510 12660 51908 10180 20160 39981 40052 58001 60006 70391 85800 90000=
07510,1997-10-07 06:00:00,16,1006.6,1.1,100,16,2000,7.408,,,200,,,,,,,,,,10,wg-a,,,,AAXX 07064 07510 12520 72004 10160 20160 39994 40066 52011 60006 71011 85502 90600=
07510,1997-10-07 12:00:00,21,1010.5,1.6,73,16,15000,18.52,,,270,,,,,,,,,,25,wg-a,,,,AAXX 07124 07510 02465 72710 10210 20160 30034 40105 52016 60006 72586 8683/ 91200 333 61000=
07510,1997-10-07 15:00:00,22,1011.1,0.6,60,14,15000,22.224,,,280,,,,,,,,,,,wg-a,,,,AAXX 07154 07510 12465 /2812 10220 20140 30040 40111 53006 60006 84830 91500=
07510,1997-10-07 18:00:00,19,1012.4,1.3,78,15,15000,3.704,,,240,16.3,22.7,,,,,,,,,wg-a,,,,AAXX 07184 07510 12465 72402 10190 20150 30053 40124 53013 60006 81832 91800 333 10227 20163=
07510,1997-10-07 21:00:00,17,1014.3,1.8,88,15,12000,7.408,,,200,,,,,,,,,,,wg-a,,,,AAXX 07214 07510 12662 72004 10170 20150 30071 40143 52018 60006 875// 92100=
07510,1997-10-08 00:00:00,15,1014.3,-0,94,14,12000,0,,,0,,,,,,,,,,,wg-a,,,,AAXX 08004 07510 12762 70000 10150 20140 30071 40143 55000 60006 825/2 90000=
07510,1997-10-08 03:00:00,16,1014.1,-0.2,94,15,12000,7.408,,,150,,,,,,,,,,,wg-a,,,,AAXX 08034 07510 12662 71504 10160 20150 30069 40141 58002 60006 86502 90300=
07510,1997-10-08 06:00:00,16,1014,-0.1,94,15,15000,3.704,,,170,15.4,18.7,,,,,,,,,wg-a,,,,AAXX 08064 07510 02565 71702 10160 20150 30068 40140 55001 60006 875// 90600 333 10187 20154 60004=
07510,1997-10-08 12:00:00,25,1014.1,-0.1,50,14,15000,29.632,,,250,,,,,,,,,,,wg-a,,,,AAXX 08124 07510 12665 72516 10250 20140 30071 40141 57001 60006 82202 91200=
07510,1997-10-08 18:00:00,21,1014.6,0.7,56,12,10000,3.704,,,250,15.6,26,,,,,,,,0,wg-a,,,,AAXX 08184 07510 12760 62502 10210 20120 30075 40146 53007 60006 700// 81032 91800 333 10260 20156=
07510,1997-10-08 21:00:00,16,1014.8,0.1,82,13,15000,0,,,0,,,,,,,,,,,wg-a,,,,AAXX 08214 07510 12/65 20000 10160 20130 30076 40148 52001 60006 80002 92100=
07510,1997-10-09 00:00:00,15,1014.6,-0.3,82,12,15000,7.408,,,160,,,,,,,,,,,wg-a,,,,AAXX 09004 07510 12/65 21604 10150 20120 30073 40146 58003 60006 80002 90000=
07510,1997-10-09 03:00:00,17,1015,0.5,82,14,12000,11.112,,,200,,,,,,,,,,,wg-a,,,,AAXX 09034 07510 12/62 52006 10170 20140 30078 40150 51005 60006 83032 90300=
07510,1997-10-09 06:00:00,17,1017.1,2.1,82,14,12000,3.704,,,250,14.5,21.1,,,,,,,,,wg-a,,,,AAXX 09064 07510 02662 72502 10170 20140 30099 40171 53021 60006 81532 90600 333 10211 20145 60004=
07510,1997-10-09 12:00:00,23,1019.6,0.5,73,18,15000,18.52,,,250,,,,,,,,,,1,wg-a,,,,AAXX 09124 07510 12465 82510 10230 20180 30125 40196 50005 60006 70165 8487/ 91200=
07510,1997-10-09 15:00:00,20,1020.2,0.5,94,19,2000,18.52,,,250,,,,0,,,,,,58,wg-a,,,,AAXX 09154 07510 12320 82510 10200 20190 30130 40202 53005 60007 75865 875// 91500=
07510,1997-10-09 18:00:00,20,1019.9,-0.3,94,19,10000,0,,,0,16.5,24.2,,,,,,,,1,wg-a,,,,AAXX 09184 07510 02560 70000 10200 20190 30127 40199 55003 60006 70165 8687/ 91800 333 10242 20165 61000=
07510,1997-10-09 21:00:00,18,1019.6,-0.3,100,18,10000,11.112,,,140,,,,,,,,,,,wg-a,,,,AAXX 09214 07510 12660 /1406 10180 20180 30124 40196 58003 60006 8257/ 92100=
07510,1997-10-10 00:00:00,17,1018.4,-1.2,100,17,10000,11.112,,,170,,,,,,,,,,,wg-a,,,,AAXX 10004 07510 12760 31706 10170 20170 30112 40184 58012 60006 8157/ 90000=
07510,1997-10-10 03:00:00,18,1016.4,-2,94,17,10000,11.112,,,170,,,,,,,,,,,wg-a,,,,AAXX 10034 07510 12760 71706 10180 20170 30092 40164 58020 60006 84532 90300=
07510,1997-10-10 06:00:00,18,1015.1,-1.3,88,16,15000,11.112,,,210,17.3,20.1,,,,,1,,,,wg-a,,,,AAXX 10064 07510 02765 72106 10180 20160 30079 40151 56013 60006 8557/ 90600 333 10201 20173 60014=
07510,1997-10-10 09:00:00,21,1015.3,0.3,88,19,8000,22.224,,,240,,,,0,,,,,,60,wg-a,,,,AAXX 10094 07510 12558 72412 10210 20190 30082 40153 50003 60007 76062 8557/ 90900=
07510,1997-10-10 12:00:00,20,1015.6,0.3,94,19,3500,29.632,,,250,,,,4,,,,,,53,wg-a,,,,AAXX 10124 07510 02235 82516 10200 20190 30085 40156 50003 60046 75365 875// 91200 333 60047=
07510,1997-10-10 15:00:00,21,1015.1,-0.5,94,20,2000,22.224,,,270,,,,4,,,,,,51,wg-a,,,,AAXX 10154 07510 12220 82712 10210 20200 30080 40151 56005 60047 75166 877// 91500=
07510,1997-10-10 18:00:00,20,1016.5,1.4,100,20,8000,18.52,,,290,17.9,21.3,,,,,,,,21,wg-a,,,,AAXX 10184 07510 02358 82910 10200 20200 30094 40165 53014 61000 72165 877// 91800 333 10213 20179 6002=
07510,1997-10-10 21:00:00,20,1018.2,1.6,94,19,8000,11.112,,,310,,,,,,,,,,20,wg-a,,,,AAXX 10214 07510 02258 73106 10200 20190 30110 40182 51016 61000 72052 875// 92100 333 ////=
07510,1997-10-11 00:00:00,19,1017.8,-0.4,94,18,10000,7.408,,,250,,,,,,,,,,3,wg-a,,,,AAXX 11004 07510 02260 72504 10190 20180 30106 40178 58004 61000 70352 875// 90000 333 ////=
07510,1997-10-11 03:00:00,18,1016.7,-1.1,100,18,10000,7.408,,,310,,,,,,,,,,,wg-a,,,,AAXX 11034 07510 12160 73104 10180 20180 30095 40167 58011 60006 875// 90300=
07510,1997-10-11 06:00:00,17,1015.7,-1,100,17,6000,3.704,,,350,17.4,20.2,,,,,,,,20,wg-a,,,,AAXX 11064 07510 02156 73502 10170 20170 30085 40157 58010 61000 72052 877// 90600 333 10202 20174 6010=
07510,1997-10-11 12:00:00,20,1013,-2.4,94,19,6000,25.928,,,250,,,,0,,,,,,51,wg-a,,,,AAXX 11124 07510 02256 72514 10200 20190 30050 40130 58024 60006 75152 877// 91200 333 60007=
07510,1997-10-11 15:00:00,20,1011.1,-1.9,100,20,3000,29.632,,,270,,,,3,,,,,,51,wg-a,,,,AAXX 11154 07510 12230 82716 10200 20200 30040 40111 56019 60037 75155 877// 91500=
07510,1997-10-11 18:00:00,20,1011.2,0.1,94,19,500,22.224,,,280,17.3,20.6,,,,,,,,50,wg-a,,,,AAXX 11184 07510 02300 72812 10200 20190 30041 40112 53001 61000 75065 877// 91800 333 10206 20173 6001=
07510,1997-10-11 21:00:00,19,1011.8,0.6,88,17,15000,25.928,,,270,,,,0,,,,,,1,wg-a,,,,AAXX 11214 07510 12465 /2714 10190 20170 30047 40118 53006 60007 70152 86800 92100=
07510,1997-10-12 00:00:00,18,1011.5,-0.4,88,16,6000,38.892,,,290,,,,1,,,,,,25,wg-a,,,,AAXX 12004 07510 02356 72921 10180 20160 30043 40115 55004 60016 72586 878// 90000 333 60017=
07510,1997-10-12 03:00:00,17,1012.2,0.7,77,13,10000,29.632,,,280,,,,,,,,,,25,wg-a,,,,AAXX 12034 07510 02560 72816 10170 20130 30050 40122 50007 61000 72586 87800 90300 333 ////=
07510,1997-10-12 06:00:00,16,1013.2,1,77,12,10000,25.928,,,300,,19.8,,,,,,,,61,wg-a,,,,AAXX 12064 07510 02560 73014 10160 20120 30060 40132 53010 61000 76186 87800 90600 333 10198 6005=
07510,1997-10-12 09:00:00,17,1015.1,1.9,68,11,15000,31.484,,,300,,,,,,,,,,25,wg-a,,,,AAXX 12094 07510 02565 63017 10170 20110 30079 40151 53019 61000 72586 8/800 90900 333 ////=
07510,1997-10-12 12:00:00,16,1016,0.9,88,14,8000,25.928,,,280,,,,1,,,,,,25,wg-a,,,,AAXX 12124 07510 02558 72814 10160 20140 30088 40160 50009 60016 72586 878// 91200 333 60017=
07510,1997-10-12 18:00:00,15,1018.5,1.4,72,10,10000,11.112,,,330,14.5,18.5,,0,,,,,,1,wg-a,,,,AAXX 12184 07510 02560 /3306 10150 20100 30112 40185 53014 60006 70186 86800 91800 333 10185 20145 60007=
07510,1997-10-12 21:00:00,11,1019.6,1,94,10,10000,7.408,,,320,,,,,,,,,,,wg-a,,,,AAXX 12214 07510 12660 33204 10110 20100 30122 40196 51010 60006 82532 92100=
07510,1997-10-13 00:00:00,12,1020.1,0.5,88,10,10000,7.408,,,320,,,,,,,,,,21,wg-a,,,,AAXX 13004 07510 02660 /3204 10120 20100 30127 40201 52005 61000 72161 85532 90000 333 6100=
07510,1997-10-13 03:00:00,11,1019.7,-0.4,87,9,10000,7.408,,,330,,,,,,,,,,,wg-a,,,,AAXX 13034 07510 12760 53304 10110 20090 30123 40197 56004 60006 84530 90300=
07510,1997-10-13 06:00:00,8,1021.3,1.5,93,7,10000,3.704,,,310,7.9,14.5,,,,,1,,,,wg-a,,,,AAXX 13064 07510 02760 63102 10080 20070 30138 40213 51015 60006 84530 90600 333 10145 20079 60014=
07510,1997-10-13 09:00:00,12,1022.7,1.5,82,9,10000,7.408,,,290,,,,,,,,,,,wg-a,,,,AAXX 13094 07510 12460 32904 10120 20090 30153 40227 53015 60006 81831 90900=
07510,1997-10-13 12:00:00,15,1022.1,-0.5,55,6,10000,18.52,,,340,,,,,,,,,,,wg-a,,,,AAXX 13124 07510 12560 /3410 10150 20060 30148 40221 58005 60006 8523/ 91200=
07510,1997-10-13 15:00:00,15,1021.9,-0.2,55,6,10000,22.224,,37.04,320,,,,,,,,,,,wg-a,,,,AAXX 13154 07510 12560 73212 10150 20060 30146 40219 57002 60006 8583/ 91500 333 91020=
07510,1997-10-13 18:00:00,11,1022.6,0.6,94,10,15000,11.112,,,260,7.7,16.6,,0,,,,,,1,wg-a,,,,AAXX 13184 07510 02565 /2606 10110 20100 30152 40226 51006 60006 70186 83830 91800 333 10166 20077 60007=
07510,1997-10-13 21:00:00,10,1023.2,0.5,87,8,15000,11.112,,,280,,,,,,,,,,,wg-a,,,,AAXX 13214 07510 12765 12806 10100 20080 30157 40232 52005 60006 81530 92100=
07510,1997-10-14 00:00:00,11,1022.9,-0.2,87,9,15000,11.112,,,330,,,,,,,,,,,wg-a,,,,AAXX 14004 07510 12565 73306 10110 20090 30155 40229 56002 60006 8453/ 90000=
07510,1997-10-14 03:00:00,10,1023.6,0.6,87,8,15000,18.52,,,10,,,,0,,,,,,,wg-a,,,,AAXX 14034 07510 12865 70110 10100 20080 30161 40236 53006 60007 875// 90300=
07510,1997-10-14 06:00:00,8,1025.4,1.8,93,7,15000,11.112,,,10,7.7,11.3,,,,,,,,,wg-a,,,,AAXX 14064 07510 02465 /0106 10080 20070 30179 40254 53018 60006 81100 90600 333 10113 20077 60004=
07510,1997-10-14 09:00:00,10,1027.5,2.1,82,7,15000,14.816,,,20,,,,,,,,,,,wg-a,,,,AAXX 14094 07510 12465 30208 10100 20070 30200 40275 51021 60006 83102 90900=
07510,1997-10-14 12:00:00,13,1027.8,0.4,62,6,15000,18.52,,,10,,,,,,,,,,,wg-a,,,,AAXX 14124 07510 12565 40110 10130 20060 30204 40278 50004 60006 84202 91200=
07510,1997-10-14 15:00:00,14,1026.5,-1.3,51,4,20000,7.408,,,20,,,,,,,,,,,wg-a,,,,AAXX 14154 07510 12670 /0204 10140 20040 30191 40265 58013 60006 84202 91500=
07510,1997-10-14 18:00:00,11,1026.9,0.3,66,5,20000,7.408,,,300,7.4,14.9,,,,,,,,,wg-a,,,,AAXX 14184 07510 12670 /3004 10110 20050 30194 40269 53003 60006 82402 91800 333 10149 20074=
07510,1997-10-14 21:00:00,8,1027.3,0.4,81,5,15000,3.704,,,260,,,,,,,,,,,wg-a,,,,AAXX 14214 07510 12/65 62602 10080 20050 30198 40273 50004 60006 81032 92100=
07510,1997-10-15 00:00:00,6,1026.3,-1.1,93,5,15000,0,,,0,,,,,,,,,,,wg-a,,,,AAXX 15004 07510 12665 /0000 10060 20050 30187 40263 58011 60006 85502 90000=
07510,1997-10-15 03:00:00,7,1025,-1.3,87,5,15000,3.704,,,220,,,,,,,,,,,wg-a,,,,AAXX 15034 07510 12665 72202 10070 20050 30174 40250 56013 60006 8553/ 90300=
07510,1997-10-15 06:00:00,9,1022.6,-2.3,76,5,15000,14.816,,,200,6.1,11.1,,,,,,,,,wg-a,,,,AAXX 15064 07510 02665 72008 10090 20050 30151 40226 56023 60006 8553/ 90600 333 10111 20061 60004=
07510,1997-10-15 12:00:00,14,1020.5,-1.3,88,12,4000,18.52,,,240,,,,,,,,,,50,wg-a,,,,AAXX 15124 07510 02440 72410 10140 20120 30132 40205 57013 61000 75052 8557/ 91200 333 6100=
07510,1997-10-15 18:00:00,16,1016.5,-1.3,94,15,500,22.224,,,250,8.7,15.9,,,,,,,,50,wg-a,,,,AAXX 15184 07510 02200 72512 10160 20150 30093 40165 56013 61000 75065 877// 91800 333 10159 20087 6001=
07510,1997-10-15 21:00:00,15,1017.1,0.5,94,14,10000,7.408,,,270,,,,3,,,,,,3,wg-a,,,,AAXX 15214 07510 12260 72704 10150 20140 30098 40171 51005 60037 70365 878// 92100=
07510,1997-10-16 00:00:00,15,1016.9,-0.2,94,14,10000,7.408,,,270,,,,0,,,,,,3,wg-a,,,,AAXX 16004 07510 02260 72704 10150 20140 30096 40169 57002 60036 70365 875// 90000 333 60007=
07510,1997-10-16 03:00:00,14,1016.4,-0.5,100,14,10000,11.112,,,320,,,,,,,,,,,wg-a,,,,AAXX 16034 07510 12560 73206 10140 20140 30091 40164 57005 60006 875// 90300=
07510,1997-10-16 06:00:00,14,1017.2,0.8,94,13,10000,7.408,,,270,13.5,16.1,,,,,5,,,40,wg-a,,,,AAXX 16064 07510 02660 72704 10140 20130 30099 40172 53008 60006 74022 875// 90600 333 10161 20135 60054=
07510,1997-10-16 09:00:00,16,1018.1,0.9,88,14,10000,3.704,,,20,,,,,,,,,,,wg-a,,,,AAXX 16094 07510 12360 70202 10160 20140 30108 40181 51009 60006 878// 90900=
07510,1997-10-16 12:00:00,18,1017.7,-0.3,64,11,10000,7.408,,,20,,,,,,,,,,,wg-a,,,,AAXX 16124 07510 12560 70204 10180 20110 30105 40177 58003 60006 86802 91200=
07510,1997-10-16 15:00:00,20,1015.9,-1.7,56,11,15000,0,,,0,,,,,,,,,,,wg-a,,,,AAXX 16154 07510 12665 /0000 10200 20110 30088 40159 56017 60006 81402 91500=
07510,1997-10-16 18:00:00,17,1015.9,-0.1,72,12,15000,7.408,,,70,13.4,20.5,,,,,,,,,wg-a,,,,AAXX 16184 07510 12665 /0704 10170 20120 30087 40159 55001 60006 81432 91800 333 10205 20134=
07510,1997-10-17 00:00:00,12,1014.6,-1.3,88,10,15000,7.408,,,110,,,,,,,,,,,wg-a,,,,AAXX 17004 07510 12/65 51104 10120 20100 30072 40146 56013 60006 80002 90000=
07510,1997-10-17 03:00:00,11,1012.6,-1.9,94,10,15000,14.816,,,130,,,,0,,,,,,,wg-a,,,,AAXX 17034 07510 12/65 41308 10110 20100 30053 40126 58019 60007 80002 90300=
07510,1997-10-17 06:00:00,11,1012.1,-0.6,94,10,15000,14.816,,,120,10.4,16.4,,,,,,,,,wg-a,,,,AAXX 17064 07510 02/65 61208 10110 20100 30047 40121 56006 60006 82032 90600 333 10164 20104 60004=
07510,1997-10-17 09:00:00,16,1012.1,0.2,77,12,15000,22.224,,,140,,,,,,,,,,,wg-a,,,,AAXX 17094 07510 12/65 51412 10160 20120 30049 40121 52002 60006 81032 90900=
07510,1997-10-17 12:00:00,22,1011.3,-0.7,57,13,15000,22.224,,,130,,,,,,,,,,,wg-a,,,,AAXX 17124 07510 12/65 71312 10220 20130 30042 40113 58007 60006 80002 91200=
07510,1997-10-17 15:00:00,22,1010.4,-0.9,57,13,15000,25.928,,,120,,,,,,,,,,,wg-a,,,,AAXX 17154 07510 12/65 71214 10220 20130 30033 40104 56009 60006 80002 91500=
07510,1997-10-17 18:00:00,19,1010.9,0.5,68,13,15000,18.52,,,130,10.5,23.9,,,,,,,,,wg-a,,,,AAXX 17184 07510 12/65 51310 10190 20130 30038 40109 53005 60006 80002 91800 333 10239 20105=
07510,1997-10-17 21:00:00,16,1011.8,0.8,82,13,15000,18.52,,,120,,,,,,,,,,,wg-a,,,,AAXX 17214 07510 12/65 31210 10160 20130 30046 40118 53008 60006 80002 92100=
07510,1997-10-18 00:00:00,15,1012.8,1,88,13,15000,18.52,,,130,,,,,,,,,,,wg-a,,,,AAXX 18004 07510 12/65 41310 10150 20130 30056 40128 53010 60006 80002 90000=
07510,1997-10-18 03:00:00,14,1013.4,0.5,94,13,15000,18.52,,,130,,,,,,,,,,,wg-a,,,,AAXX 18034 07510 12/65 11310 10140 20130 30061 40134 51005 60006 80002 90300=
07510,1997-10-18 06:00:00,14,1014.5,1.1,94,13,15000,14.816,,,120,13.8,19,,,,,,,,,wg-a,,,,AAXX 18064 07510 02/65 11208 10140 20130 30072 40145 53011 60006 80002 90600 333 10190 20138 60004=
07510,1997-10-18 09:00:00,19,1015.1,0.8,83,16,15000,29.632,,,120,,,,0,,,,,,,wg-a,,,,AAXX 18094 07510 12/65 11216 10190 20160 30080 40151 50008 60007 80002 90900=
07510,1997-10-18 11:00:00,23,1014.5,,61,15,10000,31.484,,,110,13.9,26.5,,,,,,,,,wg-a,,,,AAXX 18114 07510 32/60 /1117 10230 20150 30074 40145 91100 333 10265 20139=
07510,1997-10-18 12:00:00,25,1014.9,-0.1,54,15,15000,25.928,,,120,,,,,,,,,,,wg-a,,,,AAXX 18124 07510 12/65 21214 10250 20150 30079 40149 58001 60006 80002 91200=
07510,1997-10-18 15:00:00,26,1014.5,-0.4,48,14,15000,22.224,,,140,,,,,,,,,,,wg-a,,,,AAXX 18154 07510 12/65 21412 10260 20140 30075 40145 56004 60006 80002 91500=
07510,1997-10-18 18:00:00,22,1014.5,-0.1,60,14,10000,18.52,,,110,13.9,26.5,,,,,,,,,wg-a,,,,AAXX 18184 07510 12/60 /1110 10220 20140 30074 40145 55001 60006 91800 333 10265 20139=
07510,1997-10-18 21:00:00,20,1014.5,-0,73,15,15000,29.632,,,130,,,,,,,,,,,wg-a,,,,AAXX 18214 07510 12765 51316 10200 20150 30074 40145 55000 60006 82530 92100=
07510,1997-10-19 00:00:00,18,1014.8,0.2,77,14,15000,18.52,,,150,,,,,,,,,,,wg-a,,,,AAXX 19004 07510 12765 51510 10180 20140 30076 40148 53002 60006 83530 90000=
07510,1997-10-19 03:00:00,16,1013.6,-1.2,88,14,15000,22.224,,,130,,,,,,,,,,,wg-a,,,,AAXX 19034 07510 12765 61312 10160 20140 30064 40136 58012 60006 81532 90300=
07510,1997-10-19 06:00:00,16,1013.9,0.3,88,14,15000,18.52,,,130,15.8,21.7,,,,,,,,,wg-a,,,,AAXX 19064 07510 02765 71310 10160 20140 30067 40139 53003 60006 81532 90600 333 10217 20158 60004=
07510,1997-10-19 09:00:00,18,1014.5,0.6,83,15,15000,22.224,,,140,,,,,,,,,,,wg-a,,,,AAXX 19094 07510 12765 71412 10180 20150 30073 40145 53006 60006 81572 90900=
07510,1997-10-19 12:00:00,20,1014.1,-0.3,78,16,15000,14.816,,,140,,,,,,,,,,,wg-a,,,,AAXX 19124 07510 12765 71408 10200 20160 30070 40141 58003 60006 81572 91200=
07510,1997-10-19 15:00:00,18,1013.7,-0.5,94,17,8000,18.52,,,110,,,,3,,,,,,21,wg-a,,,,AAXX 19154 07510 12258 81110 10180 20170 30065 40137 58005 60037 72162 8557/ 91500=
07510,1997-10-19 18:00:00,19,1013.3,-0.3,88,17,10000,14.816,,,140,15.7,20.8,,,,,,,,1,wg-a,,,,AAXX 19184 07510 12760 71408 10190 20170 30062 40133 55003 60006 70162 8457/ 91800 333 10208 20157=
07510,1997-10-20 00:00:00,18,1012.5,-0.3,88,16,10000,18.52,,,140,,,,0,,,,,,60,wg-a,,,,AAXX 20004 07510 02560 71410 10180 20160 30053 40125 58003 60016 76062 875// 90000 333 60007=
07510,1997-10-20 03:00:00,17,1011,-1.5,94,16,10000,11.112,,,110,,,,,,,,,,1,wg-a,,,,AAXX 20034 07510 02560 71106 10170 20160 30038 40110 58015 61000 70162 8557/ 90300 333 ////=
07510,1997-10-20 06:00:00,17,1009.2,-1.8,94,16,10000,14.816,,,130,16.6,18.9,,,,,4,,,2,wg-a,,,,AAXX 20064 07510 02360 71308 10170 20160 30020 40092 58018 60006 70262 875// 90600 333 10189 20166 60044=
07510,1997-10-20 12:00:00,22,1007.2,-1.7,73,17,10000,14.816,,,140,,,,,,,,,,3,wg-a,,,,AAXX 20124 07510 12760 71408 10220 20170 30002 40072 56017 60006 70386 81552 91200=
07510,1997-10-20 15:00:00,24,1006.2,-1,65,17,12000,14.816,,,160,,,,,,,,,,,wg-a,,,,AAXX 20154 07510 12/62 71608 10240 20170 39992 40062 56010 60006 85072 91500=
07510,1997-10-20 18:00:00,21,1006.3,0.1,83,18,10000,11.112,,,140,16.5,24.3,,,,,,,,,wg-a,,,,AAXX 20184 07510 12660 71406 10210 20180 39993 40063 53001 60006 8457/ 91800 333 10243 20165=
07510,1997-10-20 21:00:00,20,1006.1,-0.3,88,18,10000,11.112,,,150,,,,,,,,,,60,wg-a,,,,AAXX 20214 07510 02660 71506 10200 20180 39990 40061 55003 61000 76062 8357/ 92100 333 ////=
07510,1997-10-21 00:00:00,18,1005.8,-0.3,94,17,10000,7.408,,,140,,,,,,,,,,2,wg-a,,,,AAXX 21004 07510 02660 /1404 10180 20170 39987 40058 57003 61000 70262 82570 90000 333 6100=
07510,1997-10-21 03:00:00,17,1005.5,-0.3,94,16,9000,3.704,,,130,,,,,,,,,,,wg-a,,,,AAXX 21034 07510 12659 41302 10170 20160 39984 40055 58003 60006 81530 90300=
07510,1997-10-21 06:00:00,16,1005.6,0,100,16,3000,7.408,,,90,15.8,20.8,,,,,,,,11,wg-a,,,,AAXX 21064 07510 02/30 /0904 10160 20160 39984 40056 50000 60006 71111 85032 90600 333 10208 20158 60004=
07510,1997-10-21 09:00:00,19,1006.9,1.4,88,17,7000,7.408,,,120,,,,,,,,,,,wg-a,,,,AAXX 21094 07510 12757 61204 10190 20170 39998 40069 51014 60006 82582 90900=
07510,1997-10-21 12:00:00,23,1007.6,0.8,73,18,10000,11.112,,,320,,,,,,,,,,,wg-a,,,,AAXX 21124 07510 12660 63206 10230 20180 30006 40076 51008 60006 81882 91200=
07510,1997-10-21 15:00:00,23,1008.1,0.5,73,18,10000,7.408,,,20,,,,,,,,,,,wg-a,,,,AAXX 21154 07510 12660 70204 10230 20180 30011 40081 51005 60006 82882 91500=
07510,1997-10-21 18:00:00,21,1009.2,1,83,18,10000,3.704,,,320,15.8,23.7,,,,,,,,,wg-a,,,,AAXX 21184 07510 12760 73202 10210 20180 30021 40092 53010 60006 81582 91800 333 10237 20158=
07510,1997-10-21 21:00:00,18,1009.9,0.7,88,16,10000,3.704,,,280,,,,,,,,,,,wg-a,,,,AAXX 21214 07510 12/60 32802 10180 20160 30028 40099 53007 60006 80002 92100=
07510,1997-10-22 00:00:00,17,1010.1,0.1,94,16,8000,7.408,,,50,,,,,,,,,,11,wg-a,,,,AAXX 22004 07510 12/58 30504 10170 20160 30029 40101 50001 60006 71111 80002 90000=
07510,1997-10-22 03:00:00,15,1009.4,-0.7,100,15,800,11.112,,,50,,,,,,,,,,12,wg-a,,,,AAXX 22034 07510 32/08 90506 10150 20150 30022 40094 57007 71241 89/// 90300=
07510,1997-10-22 06:00:00,15,1008.9,-0.5,94,14,200,7.408,,,50,14.6,20.6,,,,,,,,45,wg-a,,,,AAXX 22064 07510 02/02 90504 10150 20140 30017 40089 56005 60006 74541 89/// 90600 333 10206 20146 60004=
07510,1997-10-22 09:00:00,15,1009.5,0.6,100,15,2000,11.112,,,100,,,,,,,,,,10,wg-a,,,,AAXX 22094 07510 12120 /1006 10150 20150 30023 40095 50006 60006 71042 876// 90900=
07510,1997-10-22 12:00:00,18,1009.2,-0.2,88,16,500,3.704,,,120,,,,,,,,,,1,wg-a,,,,AAXX 22124 07510 12600 71202 10180 20160 30021 40092 58002 60006 70142 8588/ 91200=
07510,1997-10-22 15:00:00,21,1008.2,-1,78,17,10000,7.408,,,100,,,,,,,,,,,wg-a,,,,AAXX 22154 07510 12760 61004 10210 20170 30011 40082 56010 60006 83880 91500=
07510,1997-10-22 18:00:00,19,1008.8,0.6,88,17,8000,11.112,,,20,14.5,21,,,,,,,,25,wg-a,,,,AAXX 22184 07510 02758 /0206 10190 20170 30017 40088 53006 61000 72586 83880 91800 333 10210 20145 6000=
07510,1997-10-22 21:00:00,17,1009.4,0.5,94,16,6000,7.408,,,40,,,,,,,,,,,wg-a,,,,AAXX 22214 07510 12556 60404 10170 20160 30022 40094 51005 60006 86500 92100=
07510,1997-10-23 00:00:00,16,1010,0.6,94,15,2500,3.704,,,360,,,,,,,,,,11,wg-a,,,,AAXX 23004 07510 12625 /3602 10160 20150 30028 40100 53006 60006 71111 81500 90000=
07510,1997-10-23 03:00:00,14,1008.9,-1.1,100,14,800,7.408,,,40,,,,,,,,,,41,wg-a,,,,AAXX 23034 07510 12008 70404 10140 20140 30017 40089 56011 60006 74141 876// 90300=
07510,1997-10-23 06:00:00,14,1009.5,0.5,100,14,200,3.704,,,340,13.8,18.9,,,,,1,,,45,wg-a,,,,AAXX 23064 07510 02/02 93402 10140 20140 30022 40095 51005 60006 74541 89/// 90600 333 10189 20138 60014=
07510,1997-10-23 09:00:00,14,1011.1,1.6,100,14,500,7.408,,,330,,,,,,,,,,43,wg-a,,,,AAXX 23094 07510 12/05 93304 10140 20140 30038 40111 51016 60006 74344 89/// 90900=
07510,1997-10-23 12:00:00,17,1011.2,0.2,82,14,10000,7.408,,,10,,,,,,,,,,1,wg-a,,,,AAXX 23124 07510 12460 20104 10170 20140 30040 40112 50002 60006 70141 81102 91200=
07510,1997-10-23 18:00:00,17,1012.8,1.6,82,14,10000,3.704,,,310,13.7,20.6,,,,,,,,,wg-a,,,,AAXX 23184 07510 12560 33102 10170 20140 30056 40128 53016 60006 82802 91800 333 10206 20137=
07510,1997-10-24 00:00:00,12,1015.1,1.1,94,11,500,11.112,,,290,,,,,,,,,,,wg-a,,,,AAXX 24004 07510 12/00 02906 10120 20110 30077 40151 51011 60006 80000 90000=
07510,1997-10-24 03:00:00,11,1015.6,0.5,100,11,200,7.408,,,340,,,,,,,,,,45,wg-a,,,,AAXX 24034 07510 32/02 93404 10110 20110 30082 40156 51005 74541 89/// 90300=
07510,1997-10-24 06:00:00,12,1016.3,0.7,100,12,3000,3.704,,,280,11.3,16.7,,,,,,,,10,wg-a,,,,AAXX 24064 07510 02230 72802 10120 20120 30089 40163 53007 60006 71041 875// 90600 333 10167 20113 60004=
07510,1997-10-24 09:00:00,12,1018.1,1.8,88,10,4000,22.224,,,50,,,,,,,,,,10,wg-a,,,,AAXX 24094 07510 12240 80512 10120 20100 30107 40181 51018 60006 71022 885// 90900=
07510,1997-10-24 12:00:00,14,1018.7,0.7,77,10,500,11.112,,,60,,,,,,,,,,,wg-a,,,,AAXX 24124 07510 12300 70606 10140 20100 30114 40187 50007 60006 875// 91200=
07510,1997-10-24 15:00:00,17,1018.6,-0.1,48,6,10000,18.52,,,10,,,,,,,,,,,wg-a,,,,AAXX 24154 07510 12/60 00110 10170 20060 30113 40186 55001 60006 80000 91500=
07510,1997-10-24 18:00:00,12,1020.2,1.5,62,5,10000,14.816,,,20,11.7,17.2,,,,,,,,,wg-a,,,,AAXX 24184 07510 12/60 00208 10120 20050 30128 40202 53015 60006 80000 91800 333 10172 20117=
07510,1997-10-24 21:00:00,9,1021.4,1.1,76,5,10000,14.816,,,40,,,,,,,,,,,wg-a,,,,AAXX 24214 07510 12/60 00408 10090 20050 30139 40214 51011 60006 80000 92100=
07510,1997-10-25 00:00:00,7,1021.8,0.4,81,4,10000,7.408,,,30,,,,,,,,,,,wg-a,,,,AAXX 25004 07510 12/60 00304 10070 20040 30143 40218 53004 60006 80000 90000=
07510,1997-10-25 03:00:00,6,1021.7,-0.2,87,4,10000,11.112,,,50,,,,,,,,,,,wg-a,,,,AAXX 25034 07510 12/60 00506 10060 20040 30141 40217 58002 60006 80000 90300=
07510,1997-10-25 06:00:00,4,1022.1,0.4,93,3,10000,11.112,,,40,4.2,12.1,,,,,,,,,wg-a,,,,AAXX 25064 07510 02/60 00406 10040 20030 30145 40221 53004 60006 80000 90600 333 10121 20042 60004=
07510,1997-10-25 09:00:00,8,1022.8,0.8,76,4,10000,11.112,,,70,,,,,,,,,,,wg-a,,,,AAXX 25094 07510 12/60 00706 10080 20040 30153 40228 50008 60006 80000 90900=
07510,1997-10-25 12:00:00,14,1022,-0.7,55,5,10000,11.112,,,80,,,,,,,,,,,wg-a,,,,AAXX 25124 07510 12/60 00806 10140 20050 30146 40220 58007 60006 80000 91200=
07510,1997-10-25 15:00:00,17,1020.6,-1.3,42,4,15000,18.52,,,60,,,,,,,,,,,wg-a,,,,AAXX 25154 07510 12/65 10610 10170 20040 30133 40206 56013 60006 80002 91500=
07510,1997-10-25 18:00:00,12,1020.9,0.2,67,6,15000,3.704,,,60,4.1,16.9,,,,,,,,,wg-a,,,,AAXX 25184 07510 12/65 10602 10120 20060 30135 40209 53002 60006 80002 91800 333 10169 20041=
07510,1997-10-25 21:00:00,10,1021.3,0.3,71,5,15000,7.408,,,40,,,,,,,,,,,wg-a,,,,AAXX 25214 07510 12/65 10404 10100 20050 30138 40213 52003 60006 80002 92100=
07510,1997-10-26 00:00:00,7,1020.5,-0.8,87,5,10000,11.112,,,50,,,,,,,,,,,wg-a,,,,AAXX 26004 07510 12/60 00506 10070 20050 30130 40205 56008 60006 80000 90000=
07510,1997-10-26 03:00:00,4,1019.7,-0.9,93,3,10000,7.408,,,80,,,,,,,,,,,wg-a,,,,AAXX 26034 07510 12/60 00804 10040 20030 30121 40197 58009 60006 80000 90300=
07510,1997-10-26 06:00:00,5,1019.5,-0.2,93,4,10000,7.408,,,80,4.3,11.8,,,,,,,,,wg-a,,,,AAXX 26064 07510 02/60 00804 10050 20040 30119 40195 56002 60006 80000 90600 333 10118 20043 60004=
07510,1997-10-26 09:00:00,12,1019.8,0.5,76,8,10000,18.52,,,120,,,,,,,,,,,wg-a,,,,AAXX 26094 07510 12/60 11210 10120 20080 30124 40198 51005 60006 80002 90900=
07510,1997-10-26 12:00:00,19,1018.7,-0.9,52,9,10000,14.816,,,110,,,,,,,,,,,wg-a,,,,AAXX 26124 07510 12/60 /1108 10190 20090 30115 40187 58009 60006 91200=
07510,1997-10-26 15:00:00,21,1017.2,-1.4,38,6,15000,14.816,,,120,,,,0,,,,,,,wg-a,,,,AAXX 26154 07510 12/65 11208 10210 20060 30101 40172 56014 60007 80002 91500=
07510,1997-10-26 18:00:00,15,1017.4,-0,63,8,10000,3.704,,,60,5.2,21.6,,,,,,,,,wg-a,,,,AAXX 26184 07510 12/60 10602 10150 20080 30101 40174 55000 60006 80002 91800 333 10216 20052=
07510,1997-10-26 21:00:00,9,1017.7,0.2,87,7,10000,3.704,,,120,,,,,,,,,,,wg-a,,,,AAXX 26214 07510 12/60 11202 10090 20070 30103 40177 53002 60006 80002 92100=
07510,1997-10-27 00:00:00,9,1017,-0.8,81,6,10000,0,,,0,,,,,,,,,,,wg-a,,,,AAXX 27004 07510 12/60 00000 10090 20060 30095 40170 56008 60006 80000 90000=
07510,1997-10-27 03:00:00,7,1016.1,-0.9,87,5,8000,3.704,,,80,,,,,,,,,,,wg-a,,,,AAXX 27034 07510 12/58 00802 10070 20050 30086 40161 56009 60006 80000 90300=
07510,1997-10-27 06:00:00,7,1015.6,-0.5,93,6,8000,7.408,,,70,6.2,14.5,,,,,,,,,wg-a,,,,AAXX 27064 07510 02/58 10704 10070 20060 30081 40156 56005 60006 80002 90600 333 10145 20062 60004=
07510,1997-10-27 09:00:00,13,1016.1,0.7,67,7,10000,11.112,,,100,,,,,,,,,,,wg-a,,,,AAXX 27094 07510 12/60 11006 10130 20070 30088 40161 52007 60006 81030 90900=
07510,1997-10-27 12:00:00,21,1014.5,-1.4,46,9,12000,18.52,,,100,,,,,,,,,,,wg-a,,,,AAXX 27124 07510 12/62 01010 10210 20090 30074 40145 58014 60006 80000 91200=
07510,1997-10-27 18:00:00,17,1013.5,0.2,52,7,15000,11.112,,,40,7,22.2,,,,,,,,,wg-a,,,,AAXX 27184 07510 12/65 10406 10170 20070 30063 40135 53002 60006 80002 91800 333 10222 20070=
07510,1997-10-27 21:00:00,13,1014,0.4,62,6,15000,14.816,,,50,,,,,,,,,,,wg-a,,,,AAXX 27214 07510 12/65 10508 10130 20060 30067 40140 53004 60006 80002 92100=
07510,1997-10-28 00:00:00,10,1014.1,-0,71,5,15000,14.816,,,50,,,,,,,,,,,wg-a,,,,AAXX 28004 07510 12/65 00508 10100 20050 30067 40141 54000 60006 80000 90000=
07510,1997-10-28 03:00:00,8,1014.1,-0.1,76,4,15000,11.112,,,60,,,,,,,,,,,wg-a,,,,AAXX 28034 07510 12/65 00606 10080 20040 30066 40141 55001 60006 80000 90300=
07510,1997-10-28 06:00:00,7,1014.8,0.7,81,4,15000,14.816,,,50,6.7,17.2,,,,,,,,,wg-a,,,,AAXX 28064 07510 02/65 30508 10070 20040 30073 40148 53007 60006 80002 90600 333 10172 20067 60004=
07510,1997-10-28 12:00:00,14,1016.6,0.6,47,3,15000,22.224,,,30,,,,,,,,,,,wg-a,,,,AAXX 28124 07510 12/65 40312 10140 20030 30093 40166 52006 60006 80002 91200=
07510,1997-10-28 15:00:00,13,1017.8,1.2,47,2,15000,29.632,,,30,,,,,,,,,,,wg-a,,,,AAXX 28154 07510 12/65 10316 10130 20020 30105 40178 53012 60006 80002 91500=
07510,1997-10-28 18:00:00,8,1021.2,3.2,53,-1,15000,29.632,,,40,6.3,14.4,,,,,,,,,wg-a,,,,AAXX 28184 07510 12/65 10416 10080 21010 30137 40212 53032 60006 80002 91800 333 10144 20063=
07510,1997-10-28 21:00:00,6,1023.5,2.2,56,-2,15000,22.224,,,50,,,,,,,,,,,wg-a,,,,AAXX 28214 07510 12/65 00512 10060 21020 30159 40235 51022 60006 80000 92100=
07510,1997-10-29 00:00:00,4,1024.6,1,60,-3,10000,18.52,,,40,,,,,,,,,,,wg-a,,,,AAXX 29004 07510 12/60 /0410 10040 21030 30169 40246 51010 60006 90000=
07510,1997-10-29 03:00:00,2,1025.4,0.8,69,-3,15000,11.112,,,20,,,,,,,,,,,wg-a,,,,AAXX 29034 07510 12/65 00206 10020 21030 30177 40254 51008 60006 80000 90300=
07510,1997-10-29 06:00:00,0,1026.7,1.2,74,-4,15000,7.408,,,20,-0.9,7.9,,,,,,,,,wg-a,,,,AAXX 29064 07510 02/65 00204 10000 21040 30189 40267 52012 60006 80000 90600 333 10079 21009 60004=
07510,1997-10-29 09:00:00,3,1028,1.4,60,-4,15000,14.816,,,40,,,,,,,,,,,wg-a,,,,AAXX 29094 07510 12765 10408 10030 21040 30203 40280 51014 60006 81500 90900=
07510,1997-10-29 12:00:00,10,1027.7,-0.1,46,-1,15000,11.112,,,30,,,,,,,,,,,wg-a,,,,AAXX 29124 07510 12/65 10306 10100 21010 30202 40277 58001 60006 80002 91200=
07510,1997-10-29 15:00:00,12,1027.2,-0.5,40,-1,10000,7.408,,,340,,,,,,,,,,,wg-a,,,,AAXX 29154 07510 12/60 03404 10120 21010 30197 40272 55005 60006 80000 91500=
07510,1997-10-29 18:00:00,7,1027.9,0.6,61,0,10000,7.408,,,280,-0.5,12.4,,,,,,,,,wg-a,,,,AAXX 29184 07510 12/60 /2804 10070 20000 30203 40279 53006 60006 91800 333 10124 21005=
07510,1997-10-29 21:00:00,4,1029,1,70,-1,10000,11.112,,,20,,,,,,,,,,,wg-a,,,,AAXX 29214 07510 12/60 00206 10040 21010 30213 40290 53010 60006 80000 92100=
07510,1997-10-30 00:00:00,1,1028.7,-0.4,86,-1,10000,7.408,,,310,,,,,,,,,,,wg-a,,,,AAXX 30004 07510 12/60 03104 10010 21010 30209 40287 55004 60006 80000 90000=
07510,1997-10-30 03:00:00,-2,1027.8,-0.9,93,-3,10000,3.704,,,310,,,,,,,,,,,wg-a,,,,AAXX 30034 07510 12/60 03102 11020 21030 30200 40278 56009 60006 80000 90300=
07510,1997-10-30 06:00:00,-3,1027.7,-0.2,93,-4,10000,3.704,,,350,-3.1,7,,,,,,,,,wg-a,,,,AAXX 30064 07510 02/60 03502 11030 21040 30198 40277 56002 60006 80000 90600 333 10070 21031 60004=
07510,1997-10-30 09:00:00,3,1027.7,0.2,70,-2,10000,11.112,,,30,,,,,,,,,,,wg-a,,,,AAXX 30094 07510 12/60 10306 10030 21020 30200 40277 50002 60006 80002 90900=
07510,1997-10-30 12:00:00,12,1026.3,-1.2,28,-6,10000,14.816,,,20,,,,,,,,,,,wg-a,,,,AAXX 30124 07510 12/60 10208 10120 21060 30188 40263 58012 60006 80002 91200=
07510,1997-10-30 18:00:00,8,1025.9,0.7,46,-3,8000,7.408,,,310,-3.5,13.5,,,,,,,,,wg-a,,,,AAXX 30184 07510 12/58 73104 10080 21030 30184 40259 53007 60006 80002 91800 333 10135 21035=
07510,1997-10-30 21:00:00,6,1026.4,0.4,52,-3,8000,11.112,,,20,,,,,,,,,,,wg-a,,,,AAXX 30214 07510 12/58 70206 10060 21030 30188 40264 52004 60006 80002 92100=
07510,1997-10-31 00:00:00,4,1026,-0.5,56,-4,8000,11.112,,,20,,,,,,,,,,,wg-a,,,,AAXX 31004 07510 12/58 /0206 10040 21040 30183 40260 57005 60006 80002 90000=
07510,1997-10-31 03:00:00,3,1025.3,-0.7,65,-3,8000,3.704,,,360,,,,,,,,,,,wg-a,,,,AAXX 31034 07510 12/58 /3602 10030 21030 30176 40253 58007 60006 80002 90300=
07510,1997-10-31 06:00:00,1,1025.4,0.1,75,-3,8000,7.408,,,30,0.8,8.2,,,,,,,,,wg-a,,,,AAXX 31064 07510 02/58 /0304 10010 21030 30177 40254 50001 60006 80002 90600 333 10082 20008 60004=
07510,1997-10-31 12:00:00,10,1024.5,-1.2,43,-2,10000,11.112,,,40,,,,,,,,,,,wg-a,,,,AAXX 31124 07510 12/60 50406 10100 21020 30170 40245 58012 60006 80002 91200=
07510,1997-10-31 15:00:00,13,1023.4,-1,35,-2,10000,11.112,,,30,,,,,,,,,,,wg-a,,,,AAXX 31154 07510 12/60 50306 10130 21020 30160 40234 56010 60006 80002 91500=
07510,1997-10-31 18:00:00,9,1023.9,0.4,57,1,10000,11.112,,,10,0.8,13.4,,,,,,,,,wg-a,,,,AAXX 31184 07510 12/60 50106 10090 20010 30164 40239 53004 60006 80002 91800 333 10134 20008=
07510,1997-10-31 21:00:00,7,1024.1,0.1,66,1,10000,11.112,,,40,,,,,,,,,,,wg-a,,,,AAXX 31214 07510 12/60 10406 10070 20010 30165 40241 50001 60006 80002 92100=
07510,1997-11-01 00:00:00,3,1023.3,-0.9,81,0,10000,0,,,0,,,,,,,,,,,wg-a,,,,AAXX 01004 07510 12/60 00000 10030 20000 30156 40233 56009 60006 80000 90000=
07510,1997-11-01 03:00:00,0,1022.7,-0.7,86,-2,8000,3.704,,,290,,,,,,,,,,,wg-a,,,,AAXX 01034 07510 12/58 02902 10000 21020 30149 40227 58007 60006 80000 90300=
07510,1997-11-01 06:00:00,1,1022.1,-0.5,86,-1,4000,7.408,,,20,-0.7,9.3,,,,,,,,10,wg-a,,,,AAXX 01064 07510 02/40 20204 10010 21010 30144 40221 56005 60006 71000 80002 90600 333 10093 21007 60004=
07510,1997-11-01 09:00:00,3,1022.9,0.8,81,0,4000,11.112,,,50,,,,0,,,,,,10,wg-a,,,,AAXX 01094 07510 12/40 20506 10030 20000 30152 40229 51008 60007 71000 80002 90900=
07510,1997-11-01 12:00:00,10,1021.6,-1.1,50,0,8000,3.704,,,70,,,,,,,,,,,wg-a,,,,AAXX 01124 07510 12/58 20702 10100 20000 30141 40216 58011 60006 80002 91200=
07510,1997-11-01 15:00:00,12,1020.3,-1.2,38,-2,10000,7.408,,,40,,,,,,,,,,,wg-a,,,,AAXX 01154 07510 12/60 10404 10120 21020 30129 40203 56012 60006 80002 91500=
07510,1997-11-01 18:00:00,8,1020.5,0.1,57,0,8000,7.408,,,30,-0.1,12.2,,,,,,,,,wg-a,,,,AAXX 01184 07510 12/58 20304 10080 20000 30130 40205 53001 60006 80002 91800 333 10122 21001=
07510,1997-11-01 20:00:00,6,1,,65,0,8000,3.704,,,290,,,,,,,,,,,wg-a,,,,AAXX 01204 07510 12/58 /2902 10060 20000 60006 92000=
07510,1997-11-01 21:00:00,2,1020.2,-0.5,80,-1,8000,3.704,,,350,,,,,,,,,,,wg-a,,,,AAXX 01214 07510 12/58 23502 10020 21010 30125 40202 56005 60006 80002 92100=
07510,1997-11-02 00:00:00,-1,1019.6,-0.6,93,-2,3000,0,,,0,,,,,,,,,,10,wg-a,,,,AAXX 02004 07510 12/30 00000 11010 21020 30119 40196 58006 60006 71000 80000 90000=
07510,1997-11-02 03:00:00,-1,1018.3,-1.3,100,-1,2000,0,,,0,,,,,,,,,,10,wg-a,,,,AAXX 02034 07510 12/20 00000 11010 21010 30106 40183 58013 60006 71000 80000 90300=
07510,1997-11-02 06:00:00,0,1017.4,-0.9,100,0,2000,7.408,,,50,-1.2,7.4,,,,,,,,10,wg-a,,,,AAXX 02064 07510 02/20 00504 10000 20000 30097 40174 56009 60006 71000 80000 90600 333 10074 21012 60004=
07510,1997-11-02 12:00:00,15,1014.6,-2,48,4,8000,25.928,,,110,,,,,,,,,,,wg-a,,,,AAXX 02124 07510 12/58 21114 10150 20040 30073 40146 58020 60006 80002 91200=
07510,1997-11-02 15:00:00,15,1012.5,-2.1,55,6,8000,18.52,,,120,,,,,,,,,,,wg-a,,,,AAXX 02154 07510 12758 71210 10150 20060 30052 40125 56021 60006 81532 91500=
07510,1997-11-02 18:00:00,12,1012.5,-0,67,6,7000,7.408,,,90,0.3,16.9,,,,,,,,,wg-a,,,,AAXX 02184 07510 12757 70904 10120 20060 30052 40125 55000 60006 81532 91800 333 10169 20003=
07510,1997-11-02 21:00:00,8,1011.9,-0.7,81,5,6000,7.408,,,110,,,,,,,,,,,wg-a,,,,AAXX 02214 07510 12/56 71104 10080 20050 30045 40119 56007 60006 85032 92100=
07510,1997-11-03 00:00:00,8,1010.8,-1.1,81,5,6000,7.408,,,120,,,,,,,,,,,wg-a,,,,AAXX 03004 07510 12/56 /1204 10080 20050 30034 40108 58011 60006 86030 90000=
07510,1997-11-03 06:00:00,6,1007.4,-1.8,100,6,8000,11.112,,,100,4.6,11.6,,,,,,,,,wg-a,,,,AAXX 03064 07510 02/58 /1006 10060 20060 39999 40074 58018 60006 81030 90600 333 10116 20046 60004=
07510,1997-11-03 09:00:00,12,1006.4,-0.8,88,10,500,18.52,,,120,,,,,,,,,,,wg-a,,,,AAXX 03094 07510 12/00 41210 10120 20100 39991 40064 57008 60006 80002 90900=
07510,1997-11-03 12:00:00,19,1004.5,-1.7,60,11,10000,18.52,,,130,,,,,,,,,,,wg-a,,,,AAXX 03124 07510 12/60 31310 10190 20110 39974 40045 58017 60006 82032 91200=
07510,1997-11-03 15:00:00,19,1003,-1.5,56,10,10000,18.52,,,130,,,,,,,,,,,wg-a,,,,AAXX 03154 07510 12760 71310 10190 20100 39959 40030 56015 60006 875// 91500=
07510,1997-11-03 18:00:00,18,1002.9,-0.1,68,12,15000,14.816,,,120,6,20,,,,,,,,,wg-a,,,,AAXX 03184 07510 12665 81208 10180 20120 39958 40029 55001 60006 8457/ 91800 333 10200 20060=
07510,1997-11-03 21:00:00,16,1002,-0.9,82,13,15000,25.928,,,130,,,,0,,,,,,21,wg-a,,,,AAXX 03214 07510 12465 81314 10160 20130 39949 40020 58009 60007 72162 8557/ 92100=
07510,1997-11-04 00:00:00,15,1001.9,-0.2,88,13,15000,18.52,,,130,,,,,,,,,,1,wg-a,,,,AAXX 04004 07510 12565 81310 10150 20130 39947 40019 58002 60006 70162 8457/ 90000=
07510,1997-11-04 03:00:00,15,1001.9,0,88,13,15000,11.112,,,150,,,,,,,,,,,wg-a,,,,AAXX 04034 07510 12565 71506 10150 20130 39947 40019 50000 60006 8457/ 90300=
07510,1997-11-04 06:00:00,14,1003,1.1,94,13,15000,7.408,,,180,14.2,18.1,,,,,,,,,wg-a,,,,AAXX 04064 07510 02465 71804 10140 20130 39958 40030 53011 60006 875// 90600 333 10181 20142 60004=
07510,1997-11-04 12:00:00,15,1007,1.2,94,14,10000,7.408,,,200,,,,2,,,,,,21,wg-a,,,,AAXX 04124 07510 02260 72004 10150 20140 39998 40070 50012 60026 72162 878// 91200 333 60027=
07510,1997-11-04 18:00:00,14,1007.9,1.1,100,14,8000,14.816,,,190,14.1,16.1,,,,,,,,1,wg-a,,,,AAXX 04184 07510 12758 71908 10140 20140 30007 40079 51011 60006 70162 875// 91800 333 10161 20141=
07510,1997-11-04 21:00:00,12,1007.8,-0.2,100,12,7000,7.408,,,190,,,,,,,,,,,wg-a,,,,AAXX 04214 07510 12/57 51904 10120 20120 30005 40078 56002 60006 85030 92100=
07510,1997-11-05 00:00:00,11,1007.3,-0.5,94,10,3000,11.112,,,150,,,,0,,,,,,,wg-a,,,,AAXX 05004 07510 02130 /1506 10110 20100 30000 40073 58005 60006 83630 90000 333 60007=
07510,1997-11-05 03:00:00,10,1005.9,-1.4,100,10,3000,11.112,,,140,,,,,,,,,,11,wg-a,,,,AAXX 05034 07510 12130 /1406 10100 20100 39986 40059 58014 60006 71111 86600 90300=
07510,1997-11-05 06:00:00,9,1004.6,-1.3,100,9,7000,11.112,,,130,9.4,14.2,,,,,4,,,,wg-a,,,,AAXX 05064 07510 02/57 71306 10090 20090 39973 40046 58013 60006 84072 90600 333 10142 20094 60044=
07510,1997-11-05 12:00:00,17,1000,-3,68,11,15000,11.112,,,150,,,,,,,,,,,wg-a,,,,AAXX 05124 07510 12665 71506 10170 20110 39929 40000 58030 60006 81572 91200=
07510,1997-11-05 15:00:00,16,997.7,-2.3,82,13,10000,3.704,,,200,,,,0,,,,,,60,wg-a,,,,AAXX 05154 07510 12660 82002 10160 20130 39906 49977 56023 60007 76062 8557/ 91500=
07510,1997-11-05 18:00:00,13,996.8,-1,94,12,10000,11.112,,,170,9.1,17.1,,,,,,,,21,wg-a,,,,AAXX 05184 07510 02460 71706 10130 20120 39896 49968 56010 61000 72162 875// 91800 333 10171 20091 6001=
07510,1997-11-06 12:00:00,12,988.3,0.3,94,11,15000,14.816,,,330,,,,3,,,,,,21,wg-a,,,,AAXX 06124 07510 02265 83308 10120 20110 39811 49883 53003 60046 72162 8757/ 91200 333 60037=
07510,1997-11-06 15:00:00,12,987.3,-0.9,94,11,15000,18.52,,,300,,,,1,,,,,,60,wg-a,,,,AAXX 06154 07510 12365 83010 10120 20110 39802 49873 55009 60017 76062 8757/ 91500=
07510,1997-11-06 18:00:00,11,992,4.6,100,11,10000,11.112,,,250,11.3,12.2,,,,,,,,21,wg-a,,,,AAXX 06184 07510 02360 82506 10110 20110 39848 49920 51046 61000 72162 8557/ 91800 333 10122 20113 6002=
07510,1997-11-06 21:00:00,10,994.4,2.4,100,10,15000,11.112,,,210,,,,0,,,,,,1,wg-a,,,,AAXX 06214 07510 12665 /2106 10100 20100 39872 49944 51024 60007 70162 82570 92100=
07510,1997-11-07 00:00:00,9,996,1.5,100,9,15000,11.112,,,200,,,,0,,,,,,1,wg-a,,,,AAXX 07004 07510 02565 52006 10090 20090 39887 49960 51015 60016 70162 82570 90000 333 60007=
07510,1997-11-07 03:00:00,9,997.7,1.7,93,8,8000,18.52,,,210,,,,2,,,,,,80,wg-a,,,,AAXX 07034 07510 12558 72110 10090 20080 39904 49977 51017 60027 78086 878// 90300=
07510,1997-11-07 06:00:00,10,998.5,0.8,93,9,15000,18.52,,,180,8.3,11.4,,,,,,,,25,wg-a,,,,AAXX 07064 07510 02565 /1810 10100 20090 39912 49985 52008 61000 72586 83802 90600 333 10114 20083 6013=
07510,1997-11-07 09:00:00,12,999.7,1.3,88,10,15000,14.816,,,220,,,,,,,,,,25,wg-a,,,,AAXX 07094 07510 02265 52208 10120 20100 39925 49997 52013 61000 72586 83802 90900 333 ////=
07510,1997-11-07 12:00:00,16,998.1,-1.5,63,9,20000,18.52,,,200,,,,,,,,,,2,wg-a,,,,AAXX 07124 07510 02570 /2010 10160 20090 39910 49981 58015 61000 70286 82802 91200 333 ////=
07510,1997-11-07 18:00:00,15,995.9,-0.2,63,8,15000,22.224,,,170,9,17.7,,,,,,,,60,wg-a,,,,AAXX 07184 07510 02665 81712 10150 20080 39888 49959 58002 61000 76062 8557/ 91800 333 10177 20090 6100=
07510,1997-11-08 00:00:00,12,1000.1,2.8,94,11,6000,18.52,,,250,,,,4,,,,,,80,wg-a,,,,AAXX 08004 07510 02456 72510 10120 20110 39929 40001 53028 60096 78086 879// 90000 333 60047=
07510,1997-11-08 06:00:00,10,1004.6,2.2,93,9,15000,14.816,,,220,9.8,14.8,,,,,10,,,2,wg-a,,,,AAXX 08064 07510 02465 32208 10100 20090 39973 40046 53022 60006 70286 83900 90600 333 10148 20098 60104=
07510,1997-11-08 09:00:00,12,1006.5,1.9,94,11,15000,22.224,,,210,,,,1,,,,,,2,wg-a,,,,AAXX 08094 07510 12465 52112 10120 20110 39992 40065 51019 60017 70286 85900 90900=
07510,1997-11-08 12:00:00,15,1005.3,-1.1,88,13,15000,22.224,,,190,,,,1,,,,,,25,wg-a,,,,AAXX 08124 07510 02465 41912 10150 20130 39981 40053 58011 60026 72586 84900 91200 333 60017=
07510,1997-11-08 15:00:00,16,1002.2,-3.1,63,9,10000,22.224,,,190,,,,,,,,,,,wg-a,,,,AAXX 08154 07510 12460 71912 10160 20090 39950 40022 58031 60006 81832 91500=
07510,1997-11-08 18:00:00,14,1000.9,-1.3,82,11,10000,18.52,,,210,9.8,17.6,,,,,,,,60,wg-a,,,,AAXX 08184 07510 02560 82110 10140 20110 39937 40009 55013 61000 76061 8557/ 91800 333 10176 20098 6000=
07510,1997-11-08 21:00:00,14,1000.9,0,94,13,10000,22.224,,,230,,,,8,,,,,,61,wg-a,,,,AAXX 08214 07510 12460 82312 10140 20130 39937 40009 50000 60087 76166 8557/ 92100=
07510,1997-11-09 00:00:00,12,1001.5,0.6,100,12,10000,11.112,,,200,,,,9,,,,,,61,wg-a,,,,AAXX 09004 07510 02560 82006 10120 20120 39943 40015 53006 60186 76166 8687/ 90000 333 60097=
07510,1997-11-09 03:00:00,11,1002.5,0.9,87,9,10000,22.224,,,250,,,,4,,,,,,21,wg-a,,,,AAXX 09034 07510 12360 72512 10110 20090 39952 40025 52009 60047 72162 8587/ 90300=
07510,1997-11-09 06:00:00,10,1003.9,1.4,82,7,15000,22.224,,,240,9.3,14.2,,,,,,,,29,wg-a,,,,AAXX 09064 07510 02565 72412 10100 20070 39966 40039 53014 61000 72998 8597/ 90600 333 10142 20093 6025=
07510,1997-11-09 09:00:00,13,1004.6,0.8,77,9,15000,31.484,,44.448,230,,,,0,,,,,,25,wg-a,,,,AAXX 09094 07510 12565 72317 10130 20090 39974 40046 51008 60007 72586 85932 90900 333 91024=
07510,1997-11-09 12:00:00,11,1005.3,0.6,94,10,8000,18.52,,,250,,,,10,,,,,,81,wg-a,,,,AAXX 09124 07510 02458 82510 10110 20100 39980 40053 50006 60106 78198 8597/ 91200 333 60107=
07510,1997-11-09 15:00:00,11,1005.5,0.2,94,10,500,18.52,,,250,,,,8,,,,,,81,wg-a,,,,AAXX 09154 07510 12400 72510 10110 20100 39982 40055 50002 60087 78186 8697/ 91500=
07510,1997-11-09 18:00:00,11,1005.8,0.3,94,10,8000,22.224,,,220,9.5,14,,9,,,,,,13,wg-a,,,,AAXX 09184 07510 02558 72212 10110 20100 39985 40058 53003 60006 71398 879// 91800 333 10140 20095 60097=
07510,1997-11-09 21:00:00,11,1006.5,0.7,87,9,10000,14.816,,,240,,,,2,,,,,,1,wg-a,,,,AAXX 09214 07510 12460 82408 10110 20090 39992 40065 50007 60027 70186 879// 92100=
07510,1997-11-10 03:00:00,9,1005,-1.4,93,8,10000,14.816,,,180,,,,,,,,,,,wg-a,,,,AAXX 10034 07510 12560 51808 10090 20080 39976 40050 56014 60006 82802 90300=
07510,1997-11-10 06:00:00,10,1004.5,-0.4,93,9,8000,22.224,,,250,8.4,18.5,,,,,,,,81,wg-a,,,,AAXX 10064 07510 02358 82512 10100 20090 39972 40045 55004 61000 78186 879// 90600 333 10185 20084 6041=
07510,1997-11-10 09:00:00,10,1004.8,0.3,87,8,15000,11.112,,,230,,,,4,,,,,,25,wg-a,,,,AAXX 10094 07510 12465 /2306 10100 20080 39975 40048 53003 60047 72586 86900 90900=
07510,1997-11-10 12:00:00,12,1005.2,0.4,76,8,10000,35.188,,,270,,,,1,,,,,,80,wg-a,,,,AAXX 10124 07510 02460 62719 10120 20080 39979 40052 53004 60056 78086 86900 91200 333 60017=
07510,1997-11-10 15:00:00,10,1005.6,0.4,82,7,6000,35.188,,,270,,,,0,,,,,,80,wg-a,,,,AAXX 10154 07510 12556 72719 10100 20070 39983 40056 53004 60007 78086 85902 91500=
07510,1997-11-10 18:00:00,9,1005.1,-0.5,87,7,12000,25.928,,48.152,260,9,13.3,,,,,,,,80,wg-a,,,,AAXX 10184 07510 02562 72614 10090 20070 39978 40051 56005 61000 78086 85902 91800 333 10133 20090 6002 91026=
07510,1997-11-11 00:00:00,8,1001.1,-1.6,100,8,10000,11.112,,,170,,,,10,,,,,,61,wg-a,,,,AAXX 11004 07510 02460 71706 10080 20080 39938 40011 58016 60126 76198 878// 90000 333 60107=
07510,1997-11-11 03:00:00,9,1000.4,-0.7,93,8,15000,11.112,,,220,,,,3,,,,,,80,wg-a,,,,AAXX 11034 07510 12465 /2206 10090 20080 39931 40004 56007 60037 78098 86900 90300=
07510,1997-11-11 06:00:00,9,998.9,-1.5,93,8,6000,11.112,,,200,7.7,9.4,,,,,,,,80,wg-a,,,,AAXX 11064 07510 02356 62006 10090 20080 39916 49989 56015 61000 78098 86902 90600 333 10094 20077 6026=
07510,1997-11-11 12:00:00,9,998,-1.3,100,9,10000,14.816,,,160,,,,1,,,,,,60,wg-a,,,,AAXX 11124 07510 02460 81608 10090 20090 39907 49980 56013 60126 76098 8497/ 91200 333 60017=
07510,1997-11-11 15:00:00,10,997.8,-0.2,93,9,6000,14.816,,,200,,,,6,,,,,,80,wg-a,,,,AAXX 11154 07510 12256 82008 10100 20090 39905 49978 55002 60067 78086 8587/ 91500=
07510,1997-11-11 18:00:00,9,998.2,0.4,93,8,10000,14.816,,,210,8.7,9.7,,,,,,,,80,wg-a,,,,AAXX 11184 07510 02260 72108 10090 20080 39909 49982 53004 61000 78086 878// 91800 333 10097 20087 6001=
07510,1997-11-11 21:00:00,8,999,0.8,93,7,8000,14.816,,,200,,,,1,,,,,,80,wg-a,,,,AAXX 11214 07510 12558 72008 10080 20070 39917 49990 53008 60017 78086 879// 92100=
07510,1997-11-12 00:00:00,8,998.9,-0.1,100,8,10000,14.816,,,200,,,,2,,,,,,2,wg-a,,,,AAXX 12004 07510 02260 62008 10080 20080 39916 49989 56001 60036 70286 86900 90000 333 60027=
07510,1997-11-12 03:00:00,8,999.1,0.2,100,8,15000,11.112,,,180,,,,8,,,,,,25,wg-a,,,,AAXX 12034 07510 12565 61806 10080 20080 39918 49991 53002 60087 72586 86900 90300=
07510,1997-11-12 06:00:00,8,1000.6,1.4,100,8,10000,11.112,,,250,7,8.8,,,,,,,,27,wg-a,,,,AAXX 12064 07510 02260 72506 10080 20080 39932 40006 53014 61000 72787 879// 90600 333 10088 20070 6033=
07510,1997-11-12 09:00:00,9,1003.7,3.1,93,8,8000,14.816,,,260,,,,3,,,,,,61,wg-a,,,,AAXX 12094 07510 12358 72608 10090 20080 39963 40037 53031 60037 76198 8697/ 90900=
07510,1997-11-12 12:00:00,9,1004.8,1.1,93,8,10000,22.224,,,210,,,,4,,,,,,21,wg-a,,,,AAXX 12124 07510 02560 72112 10090 20080 39974 40048 51011 60076 72198 8697/ 91200 333 60047=
07510,1997-11-12 15:00:00,12,1006.6,1.9,82,9,15000,18.52,,,230,,,,1,,,,,,1,wg-a,,,,AAXX 12154 07510 12565 32310 10120 20090 39993 40066 51019 60017 70161 82963 91500=
07510,1997-11-12 18:00:00,9,1008.8,2.1,93,8,10000,11.112,,,210,7.7,11.6,,,,,,,,25,wg-a,,,,AAXX 12184 07510 02560 52106 10090 20080 30014 40088 51021 61000 72586 85900 91800 333 10116 20077 6001=
07510,1997-11-12 21:00:00,8,1009.7,0.9,93,7,10000,18.52,,,200,,,,0,,,,,,1,wg-a,,,,AAXX 12214 07510 12560 42010 10080 20070 30023 40097 53009 60007 70186 84500 92100=
07510,1997-11-13 00:00:00,8,1009.5,-0.2,100,8,12000,11.112,,,180,,,,1,,,,,,1,wg-a,,,,AAXX 13004 07510 02462 71806 10080 20080 30021 40095 58002 60016 70186 8583/ 90000 333 60017=
07510,1997-11-13 03:00:00,7,1008.4,-1.1,100,7,8000,11.112,,,190,,,,1,,,,,,1,wg-a,,,,AAXX 13034 07510 12258 61906 10070 20070 30010 40084 58011 60017 70186 84830 90300=
07510,1997-11-13 06:00:00,7,1007.4,-1,100,7,800,7.408,,,160,6.8,8.8,,,,,12,,,43,wg-a,,,,AAXX 13064 07510 02/08 91604 10070 20070 30000 40074 58010 60006 74386 89/// 90600 333 10088 20068 60124=
07510,1997-11-13 09:00:00,8,1008,0.6,100,8,8000,7.408,,,170,,,,,,,,,,28,wg-a,,,,AAXX 13094 07510 12158 /1704 10080 20080 30006 40080 53006 60006 72842 83632 90900=
07510,1997-11-13 12:00:00,12,1007.1,-0.8,88,10,10000,7.408,,,110,,,,,,,,,,3,wg-a,,,,AAXX 13124 07510 12460 71104 10120 20100 39998 40071 58008 60006 70342 8483/ 91200=
07510,1997-11-13 15:00:00,14,1006.5,-0.5,72,9,10000,7.408,,,100,,,,,,,,,,,wg-a,,,,AAXX 13154 07510 12460 71004 10140 20090 39993 40065 56005 60006 878// 91500=
07510,1997-11-13 18:00:00,12,1008.1,1.5,88,10,10000,7.408,,,80,6.8,14.2,,,,,,,,,wg-a,,,,AAXX 13184 07510 12460 70804 10120 20100 30008 40081 53015 60006 878// 91800 333 10142 20068=
07510,1997-11-13 21:00:00,11,1010.1,2,87,9,8000,3.704,,,60,,,,,,,,,,21,wg-a,,,,AAXX 13214 07510 02558 70602 10110 20090 30028 40101 52020 61000 72162 875// 92100 333 ////=
07510,1997-11-14 00:00:00,9,1011.4,1.2,100,9,500,0,,,0,,,,0,,,,,,3,wg-a,,,,AAXX 14004 07510 02600 70000 10090 20090 30040 40114 53012 60006 70362 875// 90000 333 60007=
07510,1997-11-14 03:00:00,9,1011.7,0.3,100,9,4500,3.704,,,100,,,,,,,,,,11,wg-a,,,,AAXX 14034 07510 12745 71002 10090 20090 30043 40117 50003 60006 71122 875// 90300=
07510,1997-11-14 06:00:00,9,1013.1,1.4,100,9,8000,0,,,0,8.7,11.7,,,,,,,,,wg-a,,,,AAXX 14064 07510 02558 70000 10090 20090 30057 40131 51014 60006 875// 90600 333 10117 20087 60004=
07510,1997-11-14 09:00:00,10,1015,1.9,100,10,7000,3.704,,,60,,,,,,,,,,,wg-a,,,,AAXX 14094 07510 12557 70602 10100 20100 30076 40150 52019 60006 875// 90900=
07510,1997-11-14 12:00:00,13,1015.5,0.6,88,11,8000,11.112,,,180,,,,,,,,,,1,wg-a,,,,AAXX 14124 07510 02558 71806 10130 20110 30082 40155 50006 61000 70162 875// 91200 333 6100=
07510,1997-11-14 15:00:00,14,1016.1,0.6,88,12,10000,7.408,,,130,,,,,,,,,,,wg-a,,,,AAXX 14154 07510 12560 71304 10140 20120 30088 40161 53006 60006 878// 91500=
07510,1997-11-14 18:00:00,12,1017.5,1.3,94,11,10000,7.408,,,120,9.1,14.1,,,,,,,,,wg-a,,,,AAXX 14184 07510 12660 /1204 10120 20110 30101 40175 53013 60006 83402 91800 333 10141 20091=
07510,1997-11-14 21:00:00,11,1018.1,0.6,94,10,6000,14.816,,,160,,,,,,,,,,,wg-a,,,,AAXX 14214 07510 12556 /1608 10110 20100 30107 40181 50006 60006 84500 92100=
07510,1997-11-15 00:00:00,9,1019,0.8,100,9,500,7.408,,,150,,,,,,,,,,10,wg-a,,,,AAXX 15004 07510 12/05 91504 10090 20090 30115 40190 51008 60006 71041 89/// 90000=
07510,1997-11-15 03:00:00,10,1019.2,0.3,93,9,900,7.408,,,150,,,,,,,,,,43,wg-a,,,,AAXX 15034 07510 32/09 91504 10100 20090 30118 40192 51003 74344 89/// 90300=
07510,1997-11-15 06:00:00,11,1019.9,0.7,94,10,900,11.112,,,150,8.8,11.6,,,,,,,,43,wg-a,,,,AAXX 15064 07510 02/09 91506 10110 20100 30125 40199 53007 60006 74344 89/// 90600 333 10116 20088 60004=
07510,1997-11-15 09:00:00,12,1020.8,0.9,100,12,4000,11.112,,,170,,,,,,,,,,10,wg-a,,,,AAXX 15094 07510 12140 71706 10120 20120 30134 40208 52009 60006 71042 875// 90900=
07510,1997-11-15 12:00:00,17,1020.4,-0.3,77,13,15000,11.112,,,160,,,,,,,,,,3,wg-a,,,,AAXX 15124 07510 12465 71606 10170 20130 30131 40204 58003 60006 70342 878// 91200=
07510,1997-11-15 15:00:00,18,1019.2,-1.1,73,13,15000,3.704,,,110,,,,,,,,,,,wg-a,,,,AAXX 15154 07510 12565 51102 10180 20130 30120 40192 56011 60006 82802 91500=
07510,1997-11-15 18:00:00,13,1019.2,-0.1,88,11,10000,14.816,,,120,10.6,19,,,,,,,,,wg-a,,,,AAXX 15184 07510 12/60 31208 10130 20110 30119 40192 58001 60006 80002 91800 333 10190 20106=
07510,1997-11-15 21:00:00,11,1018.9,-0.4,94,10,10000,11.112,,,130,,,,,,,,,,,wg-a,,,,AAXX 15214 07510 12/60 41306 10110 20100 30115 40189 58004 60006 81032 92100=
07510,1997-11-16 00:00:00,10,1018.6,-0.3,93,9,10000,7.408,,,110,,,,,,,,,,,wg-a,,,,AAXX 16004 07510 12/60 51104 10100 20090 30112 40186 57003 60006 81032 90000=
07510,1997-11-16 03:00:00,9,1017.2,-1.5,93,8,10000,11.112,,,120,,,,0,,,,,,,wg-a,,,,AAXX 16034 07510 12/60 31206 10090 20080 30097 40172 57015 60007 80002 90300=
07510,1997-11-16 06:00:00,8,1016.6,-0.6,93,7,10000,11.112,,,120,7.7,13.3,,,,,,,,,wg-a,,,,AAXX 16064 07510 02/60 41206 10080 20070 30091 40166 56006 60006 80002 90600 333 10133 20077 60004=
07510,1997-11-16 09:00:00,11,1017,0.5,87,9,12000,11.112,,,140,,,,,,,,,,,wg-a,,,,AAXX 16094 07510 12/62 71406 10110 20090 30096 40170 51005 60006 80002 90900=
07510,1997-11-16 12:00:00,16,1015.9,-0.9,72,11,15000,3.704,,,130,,,,,,,,,,,wg-a,,,,AAXX 16124 07510 12/65 71302 10160 20110 30087 40159 58009 60006 80002 91200=
07510,1997-11-16 15:00:00,18,1015.6,-0.3,73,13,15000,0,,,0,,,,,,,,,,,wg-a,,,,AAXX 16154 07510 12/65 70000 10180 20130 30084 40156 55003 60006 82032 91500=
07510,1997-11-16 18:00:00,14,1015.9,0.2,88,12,6000,7.408,,,100,7.5,19.1,,,,,,,,11,wg-a,,,,AAXX 16184 07510 12/56 71004 10140 20120 30086 40159 51002 60006 71122 82032 91800 333 10191 20075=
07510,1997-11-16 21:00:00,11,1017,1,94,10,6000,7.408,,,300,,,,,,,,,,11,wg-a,,,,AAXX 16214 07510 12/56 /3004 10110 20100 30096 40170 52010 60006 71122 82032 92100=
07510,1997-11-17 00:00:00,9,1016.5,-0.5,100,9,3500,0,,,0,,,,,,,,,,40,wg-a,,,,AAXX 17004 07510 12/35 /0000 10090 20090 30091 40165 57005 60006 74022 83032 90000=
07510,1997-11-17 03:00:00,9,1015.6,-0.9,93,8,2000,7.408,,,120,,,,0,,,,,,40,wg-a,,,,AAXX 17034 07510 12/20 51204 10090 20080 30082 40156 56009 60007 74011 81032 90300=
07510,1997-11-17 06:00:00,8,1015.6,-0,100,8,2000,7.408,,,120,8.1,13.6,,,,,,,,10,wg-a,,,,AAXX 17064 07510 02/20 /1204 10080 20080 30082 40156 55000 60006 71011 83032 90600 333 10136 20081 60004=
07510,1997-11-17 09:00:00,10,1014.4,-1.2,100,10,7000,14.816,,,130,,,,,,,,,,,wg-a,,,,AAXX 17094 07510 12/57 /1308 10100 20100 30070 40144 58012 60006 86030 90900=
07510,1997-11-17 12:00:00,16,1012,-2.2,77,12,10000,11.112,,,120,,,,,,,,,,,wg-a,,,,AAXX 17124 07510 12/60 71206 10160 20120 30048 40120 58022 60006 8703/ 91200=
07510,1997-11-17 15:00:00,17,1010.1,-1.9,77,13,10000,14.816,,,120,,,,,,,,,,,wg-a,,,,AAXX 17154 07510 12/60 71208 10170 20130 30029 40101 56019 60006 8703/ 91500=
07510,1997-11-17 18:00:00,14,1008.4,-1.7,82,11,8000,18.52,,,110,8.4,17.1,,,,,,,,2,wg-a,,,,AAXX 17184 07510 02/58 71110 10140 20110 30012 40084 58017 60006 70262 8707/ 91800 333 10171 20084 61000=
07510,1997-11-17 21:00:00,14,1006.6,-1.8,82,11,10000,14.816,,,150,,,,,,,,,,,wg-a,,,,AAXX 17214 07510 12/60 51508 10140 20110 39994 40066 56018 60006 83032 92100=
07510,1997-11-18 00:00:00,12,1005.5,-1.2,94,11,10000,14.816,,,150,,,,,,,,,,,wg-a,,,,AAXX 18004 07510 12/60 11508 10120 20110 39982 40055 56012 60006 81032 90000=
07510,1997-11-18 06:00:00,14,1004.8,0.3,88,12,10000,18.52,,,150,12.2,14.3,,,,,,,,60,wg-a,,,,AAXX 18064 07510 02/60 71510 10140 20120 39976 40048 53003 61000 76061 8707/ 90600 333 10143 20122 6100=
07510,1997-11-18 09:00:00,15,1006.6,1.8,82,12,10000,14.816,,,160,,,,,,,,,,2,wg-a,,,,AAXX 18094 07510 02660 71608 10150 20120 39994 40066 53018 61000 70262 8357/ 90900 333 ////=
07510,1997-11-18 12:00:00,15,1007.4,0.8,88,13,10000,11.112,,,200,,,,0,,,,,,60,wg-a,,,,AAXX 18124 07510 02460 82006 10150 20130 30002 40074 51008 60006 76062 8557/ 91200 333 60007=
07510,1997-11-18 15:00:00,15,1008,0.6,94,14,3500,7.408,,,250,,,,3,,,,,,60,wg-a,,,,AAXX 18154 07510 12235 82504 10150 20140 30008 40080 51006 60037 76066 8557/ 91500=
07510,1997-11-18 18:00:00,14,1008.3,0.3,94,13,6000,3.704,,,230,13.8,15.7,,,,,,,,60,wg-a,,,,AAXX 18184 07510 02256 82302 10140 20130 30011 40083 50003 61000 76066 8657/ 91800 333 10157 20138 6004=
07510,1997-11-19 00:00:00,12,1006.8,-0.8,94,11,900,7.408,,,210,,,,0,,,,,,10,wg-a,,,,AAXX 19004 07510 02409 62104 10120 20110 39995 40068 58008 60016 71064 84572 90000 333 60007=
07510,1997-11-19 06:00:00,11,1003.3,-1.2,100,11,3000,7.408,,,180,10.7,13.8,,,,,,,,45,wg-a,,,,AAXX 19064 07510 02230 91804 10110 20110 39960 40033 58012 61000 74586 898// 90600 333 10138 20107 6007=
07510,1997-11-19 09:00:00,12,1003.6,0.4,100,12,500,11.112,,,190,,,,0,,,,,,1,wg-a,,,,AAXX 19094 07510 12100 71906 10120 20120 39964 40036 52004 60007 70186 875// 90900=
07510,1997-11-19 12:00:00,16,1003.2,-0.4,82,13,10000,14.816,,,230,,,,,,,,,,3,wg-a,,,,AAXX 19124 07510 12460 72308 10160 20130 39960 40032 58004 60006 70386 8583/ 91200=
07510,1997-11-19 15:00:00,17,1002.8,-0.3,68,11,10000,22.224,,,260,,,,,,,,,,,wg-a,,,,AAXX 19154 07510 12560 /2612 10170 20110 39957 40028 55003 60006 83800 91500=
07510,1997-11-19 18:00:00,13,1003.6,0.7,82,10,10000,11.112,,,190,11,17.8,,,,,,,,,wg-a,,,,AAXX 19184 07510 12660 41906 10130 20100 39964 40036 51007 60006 84500 91800 333 10178 20110=
07510,1997-11-19 21:00:00,11,1003.9,0.2,94,10,10000,14.816,,,180,,,,,,,,,,,wg-a,,,,AAXX 19214 07510 12660 /1808 10110 20100 39966 40039 50002 60006 81500 92100=
07510,1997-11-20 00:00:00,11,1001.8,-2.1,87,9,15000,14.816,,,170,,,,,,,,,,,wg-a,,,,AAXX 20004 07510 12765 51708 10110 20090 39945 40018 58021 60006 82530 90000=
07510,1997-11-20 03:00:00,11,1000.7,-1.1,76,7,15000,14.816,,,190,,,,,,,,,,,wg-a,,,,AAXX 20034 07510 12765 71908 10110 20070 39934 40007 56011 60006 82532 90300=
07510,1997-11-20 06:00:00,11,1001.6,0.9,94,10,6000,22.224,,,240,10.3,12.5,,,,,,,,80,wg-a,,,,AAXX 20064 07510 02456 72412 10110 20100 39943 40016 51009 61000 78086 8787/ 90600 333 10125 20103 6006=
07510,1997-11-20 09:00:00,13,1003.3,1.8,82,10,10000,18.52,,,250,,,,1,,,,,,21,wg-a,,,,AAXX 20094 07510 12260 /2510 10130 20100 39961 40033 53018 60017 72186 85800 90900=
07510,1997-11-20 12:00:00,11,1004.8,1.4,82,8,10000,35.188,,,260,,,,2,,,,,,80,wg-a,,,,AAXX 20124 07510 02460 72619 10110 20080 39975 40048 51014 60036 78086 879// 91200 333 60027=
07510,1997-11-20 15:00:00,13,1005.2,0.5,82,10,500,29.632,,,270,,,,1,,,,,,80,wg-a,,,,AAXX 20154 07510 12500 72716 10130 20100 39980 40052 53005 60017 78086 879// 91500=
07510,1997-11-20 18:00:00,12,1007.3,2,82,9,10000,18.52,,,250,10.7,14.7,,0,,,,,,1,wg-a,,,,AAXX 20184 07510 02560 32510 10120 20090 30000 40073 52020 60006 70186 83800 91800 333 10147 20107 60007=
07510,1997-11-20 21:00:00,11,1008.6,1.3,87,9,10000,18.52,,,240,,,,0,,,,,,80,wg-a,,,,AAXX 20214 07510 12560 42410 10110 20090 30013 40086 53013 60007 78086 84800 92100=
07510,1997-11-21 00:00:00,9,1008.9,0.2,93,8,10000,7.408,,,190,,,,2,,,,,,25,wg-a,,,,AAXX 21004 07510 02560 51904 10090 20080 30015 40089 52002 60036 72586 85800 90000 333 60027=
07510,1997-11-21 03:00:00,8,1009,0.1,100,8,10000,18.52,,,180,,,,0,,,,,,25,wg-a,,,,AAXX 21034 07510 12560 31810 10080 20080 30016 40090 53001 60007 72586 83830 90300=
07510,1997-11-21 06:00:00,9,1008.6,-0.4,100,9,8000,14.816,,,180,8.2,11.6,,,,,,,,25,wg-a,,,,AAXX 21064 07510 02558 51808 10090 20090 30012 40086 57004 61000 72586 84830 90600 333 10116 20082 6009=
07510,1997-11-21 09:00:00,9,1009.9,1.3,93,8,10000,11.112,,,210,,,,,,,,,,,wg-a,,,,AAXX 21094 07510 12560 72106 10090 20080 30025 40099 53013 60006 8587/ 90900=
07510,1997-11-21 12:00:00,11,1009.5,-0.3,87,9,15000,14.816,,,210,,,,1,,,,,,21,wg-a,,,,AAXX 21124 07510 02565 72108 10110 20090 30022 40095 58003 60016 72162 8487/ 91200 333 60017=
07510,1997-11-21 15:00:00,12,1009.2,-0.3,88,10,15000,7.408,,,210,,,,,,,,,,1,wg-a,,,,AAXX 21154 07510 02565 72104 10120 20100 30019 40092 55003 61000 70162 83872 91500 333 ////=
07510,1997-11-21 18:00:00,9,1010,0.7,100,9,8000,3.704,,,60,8.8,12.6,,,,,,,,61,wg-a,,,,AAXX 21184 07510 02658 70602 10090 20090 30026 40100 50007 61000 76162 878// 91800 333 10126 20088 6003=
07510,1997-11-21 21:00:00,8,1010.9,0.9,93,7,500,3.704,,,240,,,,,,,,,,11,wg-a,,,,AAXX 21214 07510 02700 62402 10080 20070 30035 40109 51009 61000 71162 84530 92100 333 ////=
07510,1997-11-22 00:00:00,6,1011.3,0.3,100,6,2000,0,,,0,,,,,,,,,,10,wg-a,,,,AAXX 22004 07510 02720 30000 10060 20060 30038 40113 50003 61000 71061 82530 90000 333 ////=
07510,1997-11-22 03:00:00,4,1011.7,0.4,100,4,2000,3.704,,,110,,,,,,,,,,10,wg-a,,,,AAXX 22034 07510 32/20 /1102 10040 20040 30042 40117 53004 710// 90300=
07510,1997-11-22 06:00:00,4,1012.3,0.6,100,4,7000,3.704,,,130,4,9.3,,,,,4,,,11,wg-a,,,,AAXX 22064 07510 02757 51302 10040 20040 30048 40123 53006 60006 71141 83530 90600 333 10093 20040 60044=
07510,1997-11-22 09:00:00,8,1014,1.7,100,8,6000,3.704,,,150,,,,,,,,,,11,wg-a,,,,AAXX 22094 07510 12456 51502 10080 20080 30065 40140 52017 60006 71122 82832 90900=
07510,1997-11-22 12:00:00,11,1014.5,0.6,82,8,8000,11.112,,,260,,,,1,,,,,,80,wg-a,,,,AAXX 22124 07510 02458 72606 10110 20080 30071 40145 51006 60016 78086 8593/ 91200 333 60017=
07510,1997-11-22 15:00:00,10,1015.1,0.6,93,9,10000,11.112,,,270,,,,1,,,,,,81,wg-a,,,,AAXX 22154 07510 12460 72706 10100 20090 30077 40151 53006 60017 78186 8687/ 91500=
07510,1997-11-22 18:00:00,8,1016.9,1.7,93,7,11000,7.408,,,260,3.7,12.7,,,,,,,,,wg-a,,,,AAXX 22184 07510 12/61 /2604 10080 20070 30094 40169 53017 60006 91800 333 10127 20037=
07510,1997-11-23 00:00:00,5,1019.4,0.7,93,4,8000,7.408,,,220,,,,0,,,,,,11,wg-a,,,,AAXX 23004 07510 02158 /2204 10050 20040 30118 40194 53007 60026 71186 81600 90000 333 60007=
07510,1997-11-23 03:00:00,4,1019,-0.4,100,4,8000,3.704,,,150,,,,,,,,,,11,wg-a,,,,AAXX 23034 07510 12/58 /1502 10040 20040 30114 40190 56004 60006 71100 80002 90300=
07510,1997-11-23 06:00:00,3,1019.1,0.1,93,2,8000,3.704,,,140,2.3,8,,,,,4,,,11,wg-a,,,,AAXX 23064 07510 02/58 31402 10030 20020 30115 40191 50001 60006 71100 80002 90600 333 10080 20023 60044=
07510,1997-11-23 12:00:00,12,1019.1,-1.2,82,9,15000,11.112,,,100,,,,0,,,,,,,wg-a,,,,AAXX 23124 07510 02565 51006 10120 20090 30117 40191 58012 60006 83832 91200 333 60007=
07510,1997-11-23 15:00:00,10,1018,-1.1,87,8,15000,14.816,,,110,,,,,,,,,,,wg-a,,,,AAXX 23154 07510 12765 51108 10100 20080 30106 40180 56011 60006 84552 91500=
07510,1997-11-23 18:00:00,8,1016.5,-1.6,93,7,15000,14.816,,,110,1.8,13.6,,,,,,,,,wg-a,,,,AAXX 23184 07510 12365 71108 10080 20070 30090 40165 56016 60006 83552 91800 333 10136 20018=
07510,1997-11-23 21:00:00,7,1016.2,-0.3,100,7,15000,11.112,,,120,,,,,,,,,,,wg-a,,,,AAXX 23214 07510 12/65 61206 10070 20070 30087 40162 58003 60006 8605/ 92100=
07510,1997-11-24 00:00:00,7,1014,-2.2,93,6,15000,14.816,,,120,,,,,,,,,,,wg-a,,,,AAXX 24004 07510 12865 71208 10070 20060 30065 40140 56022 60006 8705/ 90000=
07510,1997-11-24 03:00:00,7,1012,-2,87,5,15000,11.112,,,130,,,,,,,,,,,wg-a,,,,AAXX 24034 07510 12865 71306 10070 20050 30045 40120 58020 60006 8705/ 90300=
07510,1997-11-24 06:00:00,5,1009.3,-2.7,93,4,10000,11.112,,,120,5,7.8,,,,,,,,,wg-a,,,,AAXX 24064 07510 02860 41206 10050 20040 30018 40093 56027 60006 82052 90600 333 10078 20050 60004=
07510,1997-11-24 12:00:00,10,1004.9,-2.3,76,6,15000,14.816,,,130,,,,,,,,,,,wg-a,,,,AAXX 24124 07510 12765 71308 10100 20060 39976 40049 56023 60006 8157/ 91200=
07510,1997-11-24 15:00:00,12,1002.8,-2.1,76,8,15000,11.112,,,130,,,,,,,,,,,wg-a,,,,AAXX 24154 07510 12/65 71306 10120 20080 39955 40028 56021 60006 83072 91500=
07510,1997-11-24 18:00:00,10,1004,1.2,87,8,15000,14.816,,,160,4.5,12.1,,,,,,,,,wg-a,,,,AAXX 24184 07510 12765 71608 10100 20080 39967 40040 52012 60006 8157/ 91800 333 10121 20045=
07510,1997-11-24 21:00:00,9,1004.4,0.3,87,7,10000,11.112,,,130,,,,,,,,,,60,wg-a,,,,AAXX 24214 07510 02760 71306 10090 20070 39970 40044 53003 61000 76062 8357/ 92100 333 ////=
07510,1997-11-25 00:00:00,9,1004.6,0.3,87,7,9000,14.816,,,140,,,,,,,,,,21,wg-a,,,,AAXX 25004 07510 02559 71408 10090 20070 39973 40046 51003 61000 72162 8487/ 90000 333 6100=
07510,1997-11-25 03:00:00,9,1004.6,0,87,7,10000,14.816,,,180,,,,,,,,,,,wg-a,,,,AAXX 25034 07510 12560 71808 10090 20070 39973 40046 50000 60006 8487/ 90300=
07510,1997-11-25 09:00:00,10,1003.2,-0.7,82,7,15000,11.112,,,140,,,,,,,,,,,wg-a,,,,AAXX 25094 07510 12765 61406 10100 20070 39959 40032 56007 60006 815/2 90900=
07510,1997-11-25 12:00:00,17,1001,-2,59,9,15000,22.224,,,120,,,,,,,,,,,wg-a,,,,AAXX 25124 07510 12/65 51212 10170 20090 39939 40010 58020 60006 80002 91200=
07510,1997-11-25 18:00:00,12,997.8,-0.8,82,9,15000,11.112,,,100,8,17.1,,,,,,,,,wg-a,,,,AAXX 25184 07510 12765 71006 10120 20090 39906 49978 56008 60006 81532 91800 333 10171 20080=
07510,1997-11-25 21:00:00,12,998.5,0.7,82,9,10000,11.112,,,120,,,,0,,,,,,60,wg-a,,,,AAXX 25214 07510 12760 71206 10120 20090 39913 49985 53007 60007 76062 8257/ 92100=
07510,1997-11-26 00:00:00,11,998.7,0.1,87,9,10000,3.704,,,190,,,,1,,,,,,60,wg-a,,,,AAXX 26004 07510 02760 71902 10110 20090 39914 49987 53001 60016 76062 8257/ 90000 333 60017=
07510,1997-11-26 03:00:00,10,998.7,-0,93,9,15000,11.112,,,90,,,,0,,,,,,2,wg-a,,,,AAXX 26034 07510 12765 70906 10100 20090 39914 49987 54000 60007 70262 8257/ 90300=
07510,1997-11-26 06:00:00,10,999.5,0.8,93,9,15000,7.408,,,120,9.9,12.2,,,,,2,,,1,wg-a,,,,AAXX 26064 07510 02765 71204 10100 20090 39922 49995 53008 60006 70162 8157/ 90600 333 10122 20099 60024=
07510,1997-11-26 09:00:00,11,1002.2,2.7,87,9,15000,14.816,,,150,,,,,,,,,,,wg-a,,,,AAXX 26094 07510 12765 71508 10110 20090 39949 40022 53027 60006 8353/ 90900=
07510,1997-11-26 12:00:00,14,1002.8,0.7,77,10,15000,11.112,,,190,,,,,,,,,,,wg-a,,,,AAXX 26124 07510 12565 71906 10140 20100 39956 40028 50007 60006 8583/ 91200=
07510,1997-11-26 15:00:00,17,1003.6,0.9,72,12,15000,11.112,,,230,,,,,,,,,,,wg-a,,,,AAXX 26154 07510 12565 /2306 10170 20120 39965 40036 53009 60006 84832 91500=
07510,1997-11-26 18:00:00,14,1006.1,2.4,88,12,15000,7.408,,,190,9.9,17,,,,,,,,,wg-a,,,,AAXX 26184 07510 12565 71904 10140 20120 39989 40061 52024 60006 878// 91800 333 10170 20099=
07510,1997-11-26 21:00:00,12,1007.9,1.7,94,11,15000,11.112,,,170,,,,,,,,,,,wg-a,,,,AAXX 26214 07510 12465 31706 10120 20110 30006 40079 53017 60006 83800 92100=
07510,1997-11-27 00:00:00,11,1009.4,1.5,100,11,8000,7.408,,,220,,,,,,,,,,25,wg-a,,,,AAXX 27004 07510 02458 /2204 10110 20110 30021 40094 51015 61000 72586 84800 90000 333 6100=
07510,1997-11-27 03:00:00,11,1011.2,1.8,100,11,8000,3.704,,,210,,,,0,,,,,,11,wg-a,,,,AAXX 27034 07510 12458 /2102 10110 20110 30039 40112 51018 60007 71161 84800 90300=
07510,1997-11-27 06:00:00,9,1013,1.7,100,9,10000,7.408,,,230,8.7,13.6,,,,,,,,1,wg-a,,,,AAXX 27064 07510 02560 22304 10090 20090 30056 40130 53017 60006 70161 82500 90600 333 10136 20087 60004=
07510,1997-11-27 09:00:00,9,1013,1.7,100,9,10000,7.408,,,230,,13.6,,,,,,,,1,wg-a,,,,AAXX 27094 07510 12560 /2304 10090 20090 30056 40130 53017 60004 70161 82500 90900 333 10136=
07510,1997-11-27 12:00:00,15,1015.2,0.4,82,12,15000,11.112,,,200,,,,,,,,,,,wg-a,,,,AAXX 27124 07510 12465 72006 10150 20120 30079 40152 50004 60006 82231 91200=
07510,1997-11-27 15:00:00,16,1014.8,-0.4,72,11,15000,7.408,,,220,,,,,,,,,,,wg-a,,,,AAXX 27154 07510 12565 72204 10160 20110 30075 40148 56004 60006 82131 91500=
07510,1997-11-27 18:00:00,12,1014.5,-0.3,88,10,15000,7.408,,,150,8.5,16.6,,,,,,,,,wg-a,,,,AAXX 27184 07510 12765 61504 10120 20100 30072 40145 56003 60006 83531 91800 333 10166 20085=
07510,1997-11-27 21:00:00,10,1013.8,-0.8,93,9,15000,11.112,,,140,,,,,,,,,,,wg-a,,,,AAXX 27214 07510 12765 51406 10100 20090 30064 40138 58008 60006 815/1 92100=
07510,1997-11-28 00:00:00,11,1012.4,-1.4,87,9,15000,14.816,,,160,,,,,,,,,,,wg-a,,,,AAXX 28004 07510 12765 71608 10110 20090 30050 40124 56014 60006 85532 90000=
07510,1997-11-28 03:00:00,11,1011.7,-0.6,87,9,15000,11.112,,,170,,,,,,,,,,,wg-a,,,,AAXX 28034 07510 12765 71706 10110 20090 30044 40117 58006 60006 83532 90300=
07510,1997-11-28 06:00:00,10,1011.9,0.1,93,9,15000,7.408,,,160,9.7,11.9,,,,,,,,61,wg-a,,,,AAXX 28064 07510 02565 81604 10100 20090 30045 40119 53001 61000 76162 875// 90600 333 10119 20097 6003=
07510,1997-11-28 09:00:00,11,1012.8,0.9,100,11,1200,7.408,,,190,,,,8,,,,,,10,wg-a,,,,AAXX 28094 07510 12112 81904 10110 20110 30054 40128 53009 60087 71066 877// 90900=
07510,1997-11-28 12:00:00,14,1013.1,0.4,94,13,10000,18.52,,,240,,,,1,,,,,,21,wg-a,,,,AAXX 28124 07510 02260 72410 10140 20130 30058 40131 51004 60096 72162 8587/ 91200 333 60017=
07510,1997-11-28 15:00:00,16,1012.7,-0.3,77,12,12000,22.224,,,250,,,,0,,,,,,1,wg-a,,,,AAXX 28154 07510 12462 52512 10160 20120 30055 40127 55003 60007 70186 85800 91500=
07510,1997-11-28 18:00:00,13,1013.9,1.1,88,11,12000,18.52,,,230,10.1,16.4,,,,,,,,2,wg-a,,,,AAXX 28184 07510 12462 32310 10130 20110 30066 40139 53011 60006 70286 83900 91800 333 10164 20101=
07510,1997-11-28 21:00:00,11,1014.4,0.4,94,10,10000,18.52,,,210,,,,,,,,,,,wg-a,,,,AAXX 28214 07510 12460 32110 10110 20100 30070 40144 51004 60006 83800 92100=
07510,1997-11-29 00:00:00,10,1014.5,0.1,93,9,10000,11.112,,,210,,,,,,,,,,,wg-a,,,,AAXX 29004 07510 12560 32106 10100 20090 30071 40145 50001 60006 83800 90000=
07510,1997-11-29 03:00:00,11,1013.9,-0.6,94,10,10000,7.408,,,200,,,,1,,,,,,25,wg-a,,,,AAXX 29034 07510 12560 62004 10110 20100 30065 40139 56006 60017 72586 86800 90300=
07510,1997-11-29 06:00:00,11,1013.1,-0.8,94,10,8000,11.112,,,270,10.2,13.4,,,,,,,,25,wg-a,,,,AAXX 29064 07510 02258 62706 10110 20100 30057 40131 55008 61000 72586 86800 90600 333 10134 20102 6013=
07510,1997-11-29 09:00:00,11,1013.3,0.2,94,10,8000,11.112,,,280,,,,3,,,,,,25,wg-a,,,,AAXX 29094 07510 12558 72806 10110 20100 30059 40133 53002 60037 72586 86972 90900=
07510,1997-11-29 15:00:00,10,1011.2,-0.7,93,9,7000,3.704,,,210,,,,14,,,,,,25,wg-a,,,,AAXX 29154 07510 12457 72102 10100 20090 30038 40112 55007 60147 72598 8497/ 91500=
07510,1997-11-29 18:00:00,9,1012.4,1.2,93,8,10000,14.816,,,260,9.1,11.8,,,,,,,,60,wg-a,,,,AAXX 29184 07510 02460 82608 10090 20080 30050 40124 53012 61000 76098 8487/ 91800 333 10118 20091 6001=
07510,1997-11-29 21:00:00,8,1014,1.6,93,7,10000,11.112,,,220,,,,2,,,,,,21,wg-a,,,,AAXX 29214 07510 12360 /2206 10080 20070 30066 40140 51016 60027 72162 85800 92100=
07510,1997-11-30 00:00:00,9,1015.6,1.6,93,8,500,11.112,,,330,,,,4,,,,,,80,wg-a,,,,AAXX 30004 07510 02300 73306 10090 20080 30082 40156 53016 60056 78086 878// 90000 333 60047=
07510,1997-11-30 03:00:00,9,1016.2,0.6,93,8,8000,11.112,,,250,,,,3,,,,,,60,wg-a,,,,AAXX 30034 07510 12358 72506 10090 20080 30088 40162 50006 60037 76086 878// 90300=
07510,1997-11-30 06:00:00,8,1016.7,0.4,93,7,10000,0,,,0,6.8,9.2,,,,,27,,,1,wg-a,,,,AAXX 30064 07510 02460 40000 10080 20070 30092 40167 53004 60006 70186 84800 90600 333 10092 20068 60274=
07510,1997-11-30 09:00:00,9,1017.8,1.1,93,8,10000,11.112,,,240,,,,3,,,,,,25,wg-a,,,,AAXX 30094 07510 12460 62406 10090 20080 30103 40178 52011 60037 72586 86900 90900=
07510,1997-11-30 12:00:00,12,1018.4,0.7,88,10,10000,14.816,,,300,,,,3,,,,,,25,wg-a,,,,AAXX 30124 07510 02360 63008 10120 20100 30110 40184 50007 60066 72586 86900 91200 333 60037=
07510,1997-11-30 15:00:00,12,1018.5,0.1,88,10,10000,14.816,,,310,,,,2,,,,,,25,wg-a,,,,AAXX 30154 07510 12460 73108 10120 20100 30111 40185 53001 60027 72586 87900 91500=
07510,1997-11-30 18:00:00,10,1019.3,0.8,93,9,10000,14.816,,,280,6.8,12.7,,,,,,,,80,wg-a,,,,AAXX 30184 07510 02560 /2808 10100 20090 30119 40193 52008 61000 78086 86900 91800 333 10127 20068 6001=
07510,1997-11-30 21:00:00,10,1020.2,0.9,93,9,7000,14.816,,,310,,,,5,,,,,,80,wg-a,,,,AAXX 30214 07510 12457 73108 10100 20090 30128 40202 53009 60057 78086 87900 92100=
07510,1997-12-01 00:00:00,10,1020.2,-0.1,93,9,10000,11.112,,,280,,,,1,,,,,,1,wg-a,,,,AAXX 01004 07510 02560 /2806 10100 20090 30127 40202 56001 60066 70186 85800 90000 333 60017=
07510,1997-12-01 03:00:00,7,1020.2,0,93,6,8000,3.704,,,250,,,,,,,,,,12,wg-a,,,,AAXX 01034 07510 12558 /2502 10070 20060 30127 40202 50000 60006 71211 81800 90300=
07510,1997-12-01 06:00:00,7,1020,-0.2,100,7,8000,7.408,,,230,6.4,10.2,,,,,15,,,,wg-a,,,,AAXX 01064 07510 02758 /2304 10070 20070 30125 40200 57002 60006 8253/ 90600 333 10102 20064 60154=
07510,1997-12-01 09:00:00,9,1019.6,-0.4,93,8,500,3.704,,,190,,,,1,,,,,,61,wg-a,,,,AAXX 01094 07510 12400 81902 10090 20080 30121 40196 56004 60017 76162 8457/ 90900=
07510,1997-12-01 12:00:00,10,1017.6,-1.9,93,9,3000,7.408,,,170,,,,5,,,,,,61,wg-a,,,,AAXX 01124 07510 02430 81704 10100 20090 30102 40176 58019 60076 76162 8582/ 91200 333 60057=
07510,1997-12-01 18:00:00,11,1010.9,-2,94,10,4000,7.408,,,250,7.4,10.7,,,,,,,,21,wg-a,,,,AAXX 01184 07510 02240 72504 10110 20100 30036 40109 56020 61000 72165 875// 91800 333 10107 20074 6001=
07510,1997-12-01 21:00:00,12,1009.6,-1.3,94,11,15000,25.928,,,280,,,,5,,,,,,25,wg-a,,,,AAXX 01214 07510 12465 /2814 10120 20110 30023 40096 58013 60057 72586 86800 92100=
07510,1997-12-02 00:00:00,12,1008.2,-1.4,94,11,8000,25.928,,,270,,,,2,,,,,,60,wg-a,,,,AAXX 02004 07510 02358 /2714 10120 20110 30009 40082 56014 60076 76086 86800 90000 333 60027=
07510,1997-12-02 03:00:00,12,1005.4,-2.8,94,11,15000,25.928,,,260,,,,2,,,,,,21,wg-a,,,,AAXX 02034 07510 12465 /2614 10120 20110 39981 40054 58028 60027 72162 86800 90300=
07510,1997-12-02 06:00:00,11,1005,-0.4,94,10,15000,22.224,,,300,10.7,12.7,,,,,,,,25,wg-a,,,,AAXX 02064 07510 02365 /3012 10110 20100 39977 40050 55004 61000 72586 86800 90600 333 10127 20107 6024=
07510,1997-12-02 09:00:00,10,1007.5,2.5,82,7,10000,18.52,,,310,,,,1,,,,,,3,wg-a,,,,AAXX 02094 07510 12460 /3110 10100 20070 30002 40075 53025 60017 70386 86800 90900=
07510,1997-12-02 12:00:00,10,1009.3,1.7,76,6,10000,25.928,,,320,,,,2,,,,,,3,wg-a,,,,AAXX 02124 07510 02560 73214 10100 20060 30019 40093 51017 60036 70386 878// 91200 333 60027=
07510,1997-12-02 15:00:00,9,1011.2,1.9,57,1,10000,31.484,,,330,,,,0,,,,,,1,wg-a,,,,AAXX 02154 07510 12560 33317 10090 20010 30038 40112 53019 60007 70186 83800 91500=
07510,1997-12-02 18:00:00,7,1013.8,2.5,57,-1,10000,18.52,,,330,6.4,11.2,,,,,,,,3,wg-a,,,,AAXX 02184 07510 12560 53310 10070 21010 30063 40138 53025 60006 70386 85800 91800 333 10112 20064=
07510,1997-12-02 21:00:00,3,1015.4,1.5,81,0,10000,11.112,,,250,,,,,,,,,,,wg-a,,,,AAXX 02214 07510 12660 32506 10030 20000 30078 40154 51015 60006 83500 92100=
07510,1997-12-03 00:00:00,1,1013.9,-1.6,86,-1,10000,7.408,,,210,,,,,,,,,,,wg-a,,,,AAXX 03004 07510 12660 22104 10010 21010 30062 40139 58016 60006 82500 90000=
07510,1997-12-03 03:00:00,5,1012.6,-1.1,93,4,10000,7.408,,,320,,,,2,,,,,,21,wg-a,,,,AAXX 03034 07510 12460 73204 10050 20040 30051 40126 56011 60027 72161 875// 90300=
07510,1997-12-03 06:00:00,3,1014.9,2.2,93,2,10000,11.112,,,350,0.7,6.5,,,,,5,,,1,wg-a,,,,AAXX 03064 07510 02560 23506 10030 20020 30073 40149 53022 60006 70161 82800 90600 333 10065 20007 60054=
07510,1997-12-03 12:00:00,7,1017,0.3,57,-1,10000,14.816,,,20,,,,,,,,,,,wg-a,,,,AAXX 03124 07510 12460 /0208 10070 21010 30095 40170 50003 60006 81100 91200=
07510,1997-12-03 15:00:00,8,1016.9,-0.1,49,-2,10000,11.112,,,360,,,,,,,,,,,wg-a,,,,AAXX 03154 07510 12660 /3606 10080 21020 30094 40169 55001 60006 81400 91500=
07510,1997-12-03 18:00:00,3,1017.3,0.3,81,0,10000,3.704,,,340,2.1,7.9,,,,,,,,,wg-a,,,,AAXX 03184 07510 12660 /3402 10030 20000 30097 40173 53003 60006 81400 91800 333 10079 20021=
07510,1997-12-03 21:00:00,0,1018,0.6,86,-2,10000,3.704,,,270,,,,,,,,,,,wg-a,,,,AAXX 03214 07510 12/60 02702 10000 21020 30103 40180 52006 60006 80000 92100=
07510,1997-12-04 00:00:00,-2,1018.1,0,93,-3,10000,3.704,,,290,,,,,,,,,,,wg-a,,,,AAXX 04004 07510 12/60 02902 11020 21030 30103 40181 50000 60006 80000 90000=
07510,1997-12-04 03:00:00,0,1017.3,-0.7,86,-2,10000,7.408,,,10,,,,,,,,,,,wg-a,,,,AAXX 04034 07510 12/60 00104 10000 21020 30096 40173 56007 60006 80000 90300=
07510,1997-12-04 06:00:00,-1,1016.9,-0.4,93,-2,8000,14.816,,,40,-2.1,2.9,,,,,,,,,wg-a,,,,AAXX 04064 07510 02758 10408 11010 21020 30092 40169 57004 60006 81500 90600 333 10029 21021 60004=
07510,1997-12-04 09:00:00,0,1017.8,0.9,93,-1,7000,11.112,,,60,,,,,,,,,,,wg-a,,,,AAXX 04094 07510 12/57 30606 10000 21010 30101 40178 53009 60006 83030 90900=
07510,1997-12-04 12:00:00,5,1017.1,-0.6,60,-2,10000,14.816,,,40,,,,0,,,,,,,wg-a,,,,AAXX 04124 07510 02760 50408 10050 21020 30095 40171 58006 60006 82532 91200 333 60007=
07510,1997-12-04 15:00:00,5,1015.7,-1.3,81,2,15000,18.52,,,350,,,,,,,,,,,wg-a,,,,AAXX 04154 07510 12465 /3510 10050 20020 30082 40157 56013 60006 83832 91500=
07510,1997-12-04 18:00:00,4,1016.9,1.1,81,1,10000,11.112,,,50,-1.1,5.7,,,,,,,,,wg-a,,,,AAXX 04184 07510 12460 /0506 10040 20010 30093 40169 51011 60006 86500 91800 333 10057 21011=
07510,1997-12-04 21:00:00,3,1017.9,1,87,1,8000,14.816,,,40,,,,,,,,,,,wg-a,,,,AAXX 04214 07510 12/58 /0408 10030 20010 30103 40179 52010 60006 92100=
07510,1997-12-05 00:00:00,2,1018.7,0.8,87,0,8000,14.816,,,30,,,,,,,,,,,wg-a,,,,AAXX 05004 07510 12458 70308 10020 20000 30111 40187 51008 60006 8783/ 90000=
07510,1997-12-05 03:00:00,2,1019.2,0.4,87,0,8000,7.408,,,10,,,,,,,,,,,wg-a,,,,AAXX 05034 07510 12658 70104 10020 20000 30115 40192 53004 60006 878// 90300=
07510,1997-12-05 06:00:00,2,1020.3,1.1,87,0,8000,7.408,,,10,1.8,3.6,,,,,,,,,wg-a,,,,AAXX 05064 07510 02458 70104 10020 20000 30126 40203 53011 60006 875// 90600 333 10036 20018 60004=
07510,1997-12-05 09:00:00,3,1022.4,2.1,87,1,500,11.112,,,20,,,,,,,,,,,wg-a,,,,AAXX 05094 07510 12400 70206 10030 20010 30147 40224 51021 60006 875// 90900=
07510,1997-12-05 12:00:00,5,1023.1,0.8,65,-1,6000,11.112,,,30,,,,,,,,,,,wg-a,,,,AAXX 05124 07510 12556 70306 10050 21010 30155 40231 51008 60006 878// 91200=
07510,1997-12-05 15:00:00,5,1023.5,0.4,65,-1,10000,14.816,,,330,,,,,,,,,,,wg-a,,,,AAXX 05154 07510 12560 43308 10050 21010 30159 40235 53004 60006 84800 91500=
07510,1997-12-05 18:00:00,2,1024.9,1.3,80,-1,6000,7.408,,,260,1.6,5.1,,,,,,,,,wg-a,,,,AAXX 05184 07510 12456 /2604 10020 21010 30172 40249 52013 60006 86500 91800 333 10051 20016=
07510,1997-12-05 21:00:00,0,1026.2,1.2,93,-1,7000,3.704,,,260,,,,,,,,,,,wg-a,,,,AAXX 05214 07510 12/57 02602 10000 21010 30184 40262 51012 60006 80000 92100=
07510,1997-12-06 00:00:00,-1,1026.3,0.1,93,-2,7000,3.704,,,350,,,,,,,,,,,wg-a,,,,AAXX 06004 07510 12/57 03502 11010 21020 30185 40263 50001 60006 80000 90000=
07510,1997-12-06 03:00:00,-1,1026.6,0.3,93,-2,4000,7.408,,,10,,,,,,,,,,10,wg-a,,,,AAXX 06034 07510 12/40 00104 11010 21020 30188 40266 53003 60006 71000 80000 90300=
07510,1997-12-06 06:00:00,-3,1026.5,-0.2,93,-4,4000,3.704,,,280,-3,1.8,,,,,,,,10,wg-a,,,,AAXX 06064 07510 02/40 02802 11030 21040 30186 40265 55002 60006 71000 80000 90600 333 10018 21030 60004=
07510,1997-12-06 12:00:00,5,1025.7,-1,70,0,8000,7.408,,,100,,,,,,,,,,,wg-a,,,,AAXX 06124 07510 12/58 /1004 10050 20000 30181 40257 58010 60006 80000 91200=
07510,1997-12-06 15:00:00,6,1024.9,-0.8,61,-1,8000,3.704,,,110,,,,,,,,,,,wg-a,,,,AAXX 06154 07510 12/58 01102 10060 21010 30173 40249 55008 60006 80000 91500=
07510,1997-12-06 18:00:00,1,1024.9,-0.1,86,-1,3000,11.112,,,140,-3.2,6.6,,,,,,,,10,wg-a,,,,AAXX 06184 07510 12/30 21406 10010 21010 30172 40249 55001 60006 71000 80002 91800 333 10066 21032=
07510,1997-12-06 21:00:00,-1,1024.9,-0.1,93,-2,700,11.112,,,140,,,,,,,,,,45,wg-a,,,,AAXX 06214 07510 12/07 91406 11010 21020 30171 40249 55001 60006 74541 89/// 92100=
07510,1997-12-07 00:00:00,-1,1023.4,-1.5,100,-1,300,14.816,,,120,,,,,,,,,,45,wg-a,,,,AAXX 07004 07510 12/03 91208 11010 21010 30156 40234 56015 60006 74541 89/// 90000=
07510,1997-12-07 06:00:00,-1,1020.1,-1.8,100,-1,600,14.816,,,130,-1.3,0.6,,,,,,,,45,wg-a,,,,AAXX 07064 07510 02/06 91308 11010 21010 30123 40201 56018 60006 74544 89/// 90600 333 10006 21013 60004=
07510,1997-12-07 09:00:00,-1,1019.8,-0.3,100,-1,900,14.816,,,120,,,,,,,,,,43,wg-a,,,,AAXX 07094 07510 12/09 91208 11010 21010 30120 40198 55003 60006 74344 89/// 90900=
07510,1997-12-07 12:00:00,2,1017.8,-1.8,87,0,6000,14.816,,,140,,,,,,,,,,1,wg-a,,,,AAXX 07124 07510 12256 /1408 10020 20000 30102 40178 58018 60006 70142 81632 91200=
07510,1997-12-07 15:00:00,5,1016.4,-1.4,70,0,6000,7.408,,,130,,,,,,,,,,,wg-a,,,,AAXX 07154 07510 12/56 /1304 10050 20000 30088 40164 56014 60006 83032 91500=
07510,1997-12-07 18:00:00,2,1015.8,-0.6,93,1,3000,7.408,,,130,-1.4,5.3,,,,,,,,10,wg-a,,,,AAXX 07184 07510 12/30 /1304 10020 20010 30082 40158 55006 60006 71011 86030 91800 333 10053 21014=
07510,1997-12-07 21:00:00,3,1015.5,-0.3,87,1,4000,7.408,,,130,,,,,,,,,,10,wg-a,,,,AAXX 07214 07510 12/40 71304 10030 20010 30079 40155 57003 60006 71011 85032 92100=
07510,1997-12-08 00:00:00,3,1014.9,-0.6,93,2,6000,0,,,0,,,,,,,,,,,wg-a,,,,AAXX 08004 07510 12756 /0000 10030 20020 30073 40149 55006 60006 82530 90000=
07510,1997-12-08 03:00:00,4,1014.2,-0.7,87,2,7000,3.704,,,170,,,,,,,,,,,wg-a,,,,AAXX 08034 07510 12757 /1702 10040 20020 30066 40142 56007 60006 83530 90300=
07510,1997-12-08 06:00:00,4,1013.8,-0.4,93,3,7000,7.408,,,140,1.7,4.7,,,,,,,,,wg-a,,,,AAXX 08064 07510 02557 31404 10040 20030 30062 40138 56004 60006 82830 90600 333 10047 20017 60004=
07510,1997-12-08 09:00:00,6,1014.7,1,93,5,8000,3.704,,,140,,,,0,,,,,,,wg-a,,,,AAXX 08094 07510 12558 71402 10060 20050 30072 40147 52010 60007 8683/ 90900=
07510,1997-12-08 12:00:00,14,1013.5,-1,88,12,6000,14.816,,,220,,,,0,,,,,,1,wg-a,,,,AAXX 08124 07510 02256 /2208 10140 20120 30062 40135 58010 60016 70186 81802 91200 333 60007=
07510,1997-12-08 15:00:00,14,1012,-1.5,82,11,10000,18.52,,,240,,,,,,,,,,,wg-a,,,,AAXX 08154 07510 12560 62410 10140 20110 30047 40120 56015 60006 85902 91500=
07510,1997-12-08 18:00:00,11,1012.9,0.8,94,10,6000,11.112,,,270,3.8,16,,,,,,,,25,wg-a,,,,AAXX 08184 07510 02256 82706 10110 20100 30055 40129 53008 61000 72586 8698/ 91800 333 10160 20038 6012=
07510,1997-12-08 21:00:00,10,1013.9,1,93,9,15000,14.816,,,220,,,,3,,,,,,1,wg-a,,,,AAXX 08214 07510 12565 /2208 10100 20090 30065 40139 53010 60037 70186 86800 92100=
07510,1997-12-09 00:00:00,10,1015.1,1.2,100,10,500,7.408,,,310,,,,3,,,,,,80,wg-a,,,,AAXX 09004 07510 02100 53104 10100 20100 30077 40151 53012 60066 78086 85800 90000 333 60037=
07510,1997-12-09 03:00:00,8,1015.9,0.7,100,8,15000,3.704,,,220,,,,3,,,,,,25,wg-a,,,,AAXX 09034 07510 12265 52202 10080 20080 30084 40159 53007 60037 72586 85800 90300=
07510,1997-12-09 06:00:00,7,1017.3,1.4,100,7,10000,7.408,,,220,7,11.1,,,,,21,,,3,wg-a,,,,AAXX 09064 07510 02560 52204 10070 20070 30098 40173 51014 60006 70386 85800 90600 333 10111 20070 60214=
07510,1997-12-09 09:00:00,10,1018.8,1.6,100,10,8000,11.112,,,220,,,,1,,,,,,25,wg-a,,,,AAXX 09094 07510 12558 62206 10100 20100 30114 40188 53016 60017 72586 85802 90900=
07510,1997-12-09 12:00:00,13,1019,0.3,94,12,6000,11.112,,,230,,,,,,,,,,80,wg-a,,,,AAXX 09124 07510 02556 /2306 10130 20120 30117 40190 50003 60016 78086 85802 91200 333 61000=
07510,1997-12-09 18:00:00,11,1019.9,0.7,100,11,8000,11.112,,,200,7.1,13.7,,,,,,,,1,wg-a,,,,AAXX 09184 07510 12458 /2006 10110 20110 30125 40199 51007 60006 70186 83802 91800 333 10137 20071=
07510,1997-12-09 21:00:00,11,1019.8,-0.1,100,11,8000,7.408,,,190,,,,0,,,,,,,wg-a,,,,AAXX 09214 07510 12458 71904 10110 20110 30124 40198 58001 60007 8583/ 92100=
07510,1997-12-10 00:00:00,11,1019.3,-0.5,100,11,8000,11.112,,,180,,,,,,,,,,,wg-a,,,,AAXX 10004 07510 12458 71806 10110 20110 30119 40193 58005 60006 8583/ 90000=
07510,1997-12-10 06:00:00,11,1017.7,-1,94,10,10000,14.816,,,190,10.7,11.3,,,,,2,,,,wg-a,,,,AAXX 10064 07510 02660 71908 10110 20100 30103 40177 56010 60006 8453/ 90600 333 10113 20107 60024=
07510,1997-12-10 09:00:00,11,1018.6,0.9,82,8,15000,14.816,,,210,,,,,,,,,,60,wg-a,,,,AAXX 10094 07510 02665 82108 10110 20080 30112 40186 53009 61000 76062 8257/ 90900 333 ////=
07510,1997-12-10 12:00:00,11,1018,-0.6,100,11,3500,18.52,,,210,,,,4,,,,,,58,wg-a,,,,AAXX 10124 07510 02235 82110 10110 20110 30106 40180 58006 60046 75865 8757/ 91200 333 60047=
07510,1997-12-10 18:00:00,14,1018.8,1.2,100,14,2000,14.816,,,250,10.2,14.2,,,,,,,,51,wg-a,,,,AAXX 10184 07510 02120 82508 10140 20140 30115 40188 53012 61000 75165 877// 91800 333 10142 20102 6006=
07510,1997-12-10 21:00:00,15,1019.7,0.9,100,15,6000,22.224,,,260,,,,1,,,,,,20,wg-a,,,,AAXX 10214 07510 12256 82612 10150 20150 30124 40197 51009 60017 72065 877// 92100=
07510,1997-12-11 00:00:00,15,1019.5,-0.2,94,14,4500,14.816,,,220,,,,0,,,,,,10,wg-a,,,,AAXX 11004 07510 02245 82208 10150 20140 30122 40195 58002 60026 71065 877// 90000 333 60007=
07510,1997-12-11 03:00:00,14,1018.8,-0.7,88,12,8000,14.816,,,220,,,,,,,,,,1,wg-a,,,,AAXX 11034 07510 02458 52208 10140 20120 30115 40188 58007 61000 70152 82532 90300 333 ////=
07510,1997-12-11 06:00:00,13,1018,-0.8,94,12,8000,14.816,,,200,13,15.3,,,,,15,,,,wg-a,,,,AAXX 11064 07510 02/58 /2008 10130 20120 30107 40180 58008 60006 90600 333 10153 20130 60154=
07510,1997-12-11 09:00:00,13,1018.9,0.9,94,12,10000,11.112,,,210,,,,,,,,,,,wg-a,,,,AAXX 11094 07510 12460 72106 10130 20120 30116 40189 53009 60006 8557/ 90900=
07510,1997-12-11 12:00:00,16,1017.3,-1.5,88,14,15000,22.224,,,230,,,,,,,,,,3,wg-a,,,,AAXX 11124 07510 02465 72312 10160 20140 30101 40173 58015 61000 70362 8583/ 91200 333 6100=
07510,1997-12-11 15:00:00,15,1017.3,-0.1,94,14,2500,31.484,,,250,,,,2,,,,,,51,wg-a,,,,AAXX 11154 07510 12325 82517 10150 20140 30100 40173 55001 60027 75165 8657/ 91500=
07510,1997-12-11 18:00:00,14,1017.2,-0.1,94,13,4000,25.928,,,270,13,16.9,,,,,,,,61,wg-a,,,,AAXX 11184 07510 02240 82714 10140 20130 30099 40172 55001 61000 76165 8657/ 91800 333 10169 20130 6009=
07510,1997-12-11 21:00:00,13,1018,0.8,94,12,8000,18.52,,,240,,,,0,,,,,,60,wg-a,,,,AAXX 11214 07510 12558 82410 10130 20120 30107 40180 50008 60007 76062 8687/ 92100=
07510,1997-12-12 00:00:00,12,1019.3,1.2,94,11,6000,11.112,,,290,,,,0,,,,,,1,wg-a,,,,AAXX 12004 07510 02456 72906 10120 20110 30119 40193 53012 60016 70162 8657/ 90000 333 60007=
07510,1997-12-12 03:00:00,11,1020.5,1.2,94,10,8000,7.408,,,260,,,,,,,,,,,wg-a,,,,AAXX 12034 07510 12/58 72604 10110 20100 30131 40205 53012 60006 90300=
07510,1997-12-12 06:00:00,10,1022,1.5,93,9,8000,7.408,,,300,9.9,14.2,,,,,12,,,,wg-a,,,,AAXX 12064 07510 02558 /3004 10100 20090 30146 40220 53015 60006 85802 90600 333 10142 20099 60124=
07510,1997-12-12 12:00:00,12,1025.6,1,67,6,15000,22.224,,,340,,,,,,,,,,3,wg-a,,,,AAXX 12124 07510 12465 /3412 10120 20060 30182 40256 50010 60026 70386 81201 91200=
07510,1997-12-12 18:00:00,8,1029.1,2.4,87,6,15000,11.112,,,310,8.3,12.9,,,,,,,,,wg-a,,,,AAXX 12184 07510 12665 23106 10080 20060 30215 40291 53024 60006 81201 91800 333 10129 20083=
07510,1997-12-12 21:00:00,7,1030.9,1.8,93,6,8000,3.704,,,260,,,,,,,,,,11,wg-a,,,,AAXX 12214 07510 12/58 12602 10070 20060 30233 40309 51018 60006 71100 80001 92100=
07510,1997-12-13 00:00:00,4,1031.4,0.4,100,4,8000,3.704,,,260,,,,,,,,,,11,wg-a,,,,AAXX 13004 07510 12/58 /2602 10040 20040 30237 40314 51004 60006 71100 80001 90000=
07510,1997-12-13 06:00:00,1,1031.6,0.2,100,1,400,0,,,0,0.8,8.3,,,,,2,,,44,wg-a,,,,AAXX 13064 07510 02/04 30000 10010 20010 30238 40316 53002 60006 74441 82032 90600 333 10083 20008 60024=
07510,1997-12-13 09:00:00,2,1033.2,1.6,100,2,900,0,,,0,,,,,,,,,,41,wg-a,,,,AAXX 13094 07510 12109 /0000 10020 20020 30254 40332 52016 60006 74141 81632 90900=
07510,1997-12-13 12:00:00,8,1033,0,87,6,6000,7.408,,,40,,,,,,,,,,3,wg-a,,,,AAXX 13124 07510 12456 20404 10080 20060 30254 40330 50000 60006 70341 81130 91200=
07510,1997-12-13 15:00:00,10,1032,-0.9,71,5,10000,3.704,,,40,,,,,,,,,,,wg-a,,,,AAXX 13154 07510 12560 20402 10100 20050 30245 40320 56009 60006 81801 91500=
07510,1997-12-13 18:00:00,5,1032.8,0.6,93,4,10000,0,,,0,0.8,10.5,,,,,,,,,wg-a,,,,AAXX 13184 07510 12560 20000 10050 20040 30251 40328 52006 60006 81801 91800 333 10105 20008=
07510,1997-12-14 00:00:00,3,1031.8,-0.6,93,2,6000,7.408,,,50,,,,0,,,,,,11,wg-a,,,,AAXX 14004 07510 02/56 50504 10030 20020 30241 40318 58006 60006 71111 80004 90000 333 60007=
07510,1997-12-14 03:00:00,2,1030.6,-1.3,93,1,500,7.408,,,30,,,,,,,,,,11,wg-a,,,,AAXX 14034 07510 12/00 30304 10020 20010 30228 40306 57013 60006 71111 80002 90300=
07510,1997-12-14 06:00:00,1,1029.3,-1.3,93,0,6000,7.408,,,60,0.7,4.9,,,,,,,,11,wg-a,,,,AAXX 14064 07510 02/56 20604 10010 20000 30215 40293 56013 60006 71111 80002 90600 333 10049 20007 60004=
07510,1997-12-14 09:00:00,3,1028.4,-0.8,87,1,10000,11.112,,,110,,,,,,,,,,,wg-a,,,,AAXX 14094 07510 12/60 51106 10030 20010 30207 40284 56008 60006 84032 90900=
07510,1997-12-14 12:00:00,5,1026.4,-1.9,81,2,10000,7.408,,,80,,,,,,,,,,,wg-a,,,,AAXX 14124 07510 12/60 70804 10050 20020 30188 40264 58019 60006 86032 91200=
07510,1997-12-14 15:00:00,8,1024.8,-1.5,66,2,10000,14.816,,,70,,,,,,,,,,,wg-a,,,,AAXX 14154 07510 12/60 60708 10080 20020 30173 40248 56015 60006 86030 91500=
07510,1997-12-14 18:00:00,7,1022.8,-2.1,76,3,8000,11.112,,,70,0.6,7.7,,,,,,,,11,wg-a,,,,AAXX 14184 07510 12/58 /0706 10070 20030 30152 40228 56021 60006 71122 86030 91800 333 10077 20006=
07510,1997-12-14 21:00:00,6,1022,-0.8,75,2,8000,11.112,,,50,,,,,,,,,,,wg-a,,,,AAXX 14214 07510 12/58 /0506 10060 20020 30144 40220 58008 60006 85030 92100=
07510,1997-12-15 00:00:00,5,1021.1,-0.9,81,2,8000,11.112,,,50,,,,,,,,,,,wg-a,,,,AAXX 15004 07510 12/58 40506 10050 20020 30135 40211 58009 60006 84030 90000=
07510,1997-12-15 03:00:00,4,1020.5,-0.6,81,1,8000,7.408,,,30,,,,,,,,,,,wg-a,,,,AAXX 15034 07510 12/58 /0304 10040 20010 30129 40205 56006 60006 85030 90300=
07510,1997-12-15 06:00:00,4,1019.3,-1.2,81,1,10000,14.816,,,40,3.5,7,,,,,,,,,wg-a,,,,AAXX 15064 07510 02/60 10408 10040 20010 30117 40193 58012 60006 81030 90600 333 10070 20035 60004=
07510,1997-12-15 09:00:00,3,1020.2,0.9,93,2,500,18.52,,,30,,,,,,,,,,,wg-a,,,,AAXX 15094 07510 12200 /0310 10030 20020 30126 40202 53009 60006 83600 90900=
07510,1997-12-15 12:00:00,6,1018.5,-1.7,70,1,10000,29.632,,,40,,,,,,,,,,,wg-a,,,,AAXX 15124 07510 12460 40416 10060 20010 30109 40185 58017 60006 84200 91200=
07510,1997-12-15 15:00:00,6,1017.1,-1.3,65,0,10000,25.928,,,30,,,,,,,,,,,wg-a,,,,AAXX 15154 07510 12660 /0314 10060 20000 30096 40171 55013 60006 85400 91500=
07510,1997-12-15 18:00:00,3,1016.9,-0.3,65,-3,15000,18.52,,,40,2.2,6.5,,,,,,,,,wg-a,,,,AAXX 15184 07510 12665 20410 10030 21030 30093 40169 58003 60006 82500 91800 333 10065 20022=
07510,1997-12-16 00:00:00,1,1014.6,-2,86,-1,15000,11.112,,,40,,,,,,,,,,,wg-a,,,,AAXX 16004 07510 12765 10406 10010 21010 30069 40146 58020 60006 81500 90000=
07510,1997-12-16 03:00:00,0,1012.4,-2.2,93,-1,15000,7.408,,,50,,,,,,,,,,,wg-a,,,,AAXX 16034 07510 12/65 00504 10000 21010 30047 40124 56022 60006 80000 90300=
07510,1997-12-16 06:00:00,-1,1010,-2.4,93,-2,12000,14.816,,,50,-0.9,3,,,,,,,,,wg-a,,,,AAXX 16064 07510 02/62 00508 11010 21020 30023 40100 56024 60006 80000 90600 333 10030 21009 60004=
07510,1997-12-16 15:00:00,1,1001.3,-3.9,93,0,600,11.112,,,50,,,,1,,,,,,45,wg-a,,,,AAXX 16154 07510 12/06 90506 10010 20000 39937 40013 56039 60017 74577 89/// 91500=
07510,1997-12-16 18:00:00,1,999.6,-1.7,93,0,1200,3.704,,,10,-0.9,0.8,,,,,,,,10,wg-a,,5,,AAXX 16184 07510 02112 80102 10010 20000 39920 49996 56017 61000 71077 877// 91800 333 10008 21009 4/005 6006=
07510,1997-12-16 21:00:00,1,999,-0.5,93,0,1200,0,,,0,,,,7,,,,,,10,wg-a,,,,AAXX 16214 07510 12112 80000 10010 20000 39915 49990 56005 60077 71076 877// 92100=
07510,1997-12-17 00:00:00,1,998.9,-0.1,93,0,2500,7.408,,,140,,,,1,,,,,,10,wg-a,,,,AAXX 17004 07510 02325 81404 10010 20000 39914 49989 57001 60056 71076 887// 90000 333 60017=
07510,1997-12-17 03:00:00,1,997.9,-1,100,1,2500,7.408,,,120,,,,0,,,,,,10,wg-a,,,,AAXX 17034 07510 12225 81204 10010 20010 39904 49979 56010 60007 71062 885// 90300=
07510,1997-12-17 06:00:00,2,996.5,-1.4,100,2,3500,7.408,,,110,0.5,1.9,,,,,20,,,10,wg-a,,3,,AAXX 17064 07510 02335 81104 10020 20020 39890 49965 58014 60006 71062 885// 90600 333 10019 20005 4/003 60204=
07510,1997-12-17 09:00:00,4,995.6,-0.8,100,4,3500,18.52,,,140,,,,,,,,,,10,wg-a,,,,AAXX 17094 07510 32/35 /1410 10040 20040 39882 49956 58008 710// 90900=
07510,1997-12-17 12:00:00,8,994.1,-1.4,100,8,4000,14.816,,,140,,,,1,,,,,,10,wg-a,,,,AAXX 17124 07510 02640 81408 10080 20080 39868 49941 58014 60016 71065 8457/ 91200 333 60017=
07510,1997-12-17 18:00:00,13,993.6,0.5,88,11,15000,25.928,,,140,1.9,13.3,,,,,,,,3,wg-a,,,,AAXX 17184 07510 12765 71414 10130 20110 39864 49936 51005 60006 70362 8557/ 91800 333 10133 20019=
07510,1997-12-17 21:00:00,14,992.8,-0.7,77,10,10000,25.928,,,140,,,,,,,,,,,wg-a,,,,AAXX 17214 07510 12/60 /1414 10140 20100 39857 49928 58007 60006 92100=
07510,1997-12-18 00:00:00,13,993.3,0.4,94,12,6000,29.632,,,130,,,,3,,,,,,61,wg-a,,,,AAXX 18004 07510 02656 71316 10130 20120 39861 49933 50004 60036 76162 8557/ 90000 333 60037=
07510,1997-12-18 03:00:00,14,992.7,-0.5,88,12,10000,31.484,,,130,,,,3,,,,,,21,wg-a,,,,AAXX 18034 07510 12660 81317 10140 20120 39856 49927 58005 60037 72162 8557/ 90300=
07510,1997-12-18 06:00:00,13,994.9,2.1,100,13,500,7.408,,,290,12.8,14.3,,,,,,,,61,wg-a,,,,AAXX 18064 07510 02300 82904 10130 20130 39877 49949 53021 61000 76162 875// 90600 333 10143 20128 6014=
07510,1997-12-18 09:00:00,13,996.1,1.2,100,13,10000,14.816,,,160,,,,9,,,,,,60,wg-a,,,,AAXX 18094 07510 12260 81608 10130 20130 39889 49961 53012 60097 76066 875// 90900=
07510,1997-12-18 12:00:00,13,995.9,-0.2,94,12,10000,14.816,,,150,,,,0,,,,,,3,wg-a,,,,AAXX 18124 07510 02360 71508 10130 20120 39887 49959 57002 60096 70362 8587/ 91200 333 60007=
07510,1997-12-18 15:00:00,13,996,0.1,94,12,10000,7.408,,,180,,,,,,,,,,,wg-a,,,,AAXX 18154 07510 12460 71804 10130 20120 39888 49960 53001 60006 83841 91500=
07510,1997-12-18 18:00:00,11,996.3,0.3,100,11,10000,3.704,,,210,11.2,13.8,,,,,,,,,wg-a,,,,AAXX 18184 07510 12460 /2102 10110 20110 39891 49963 50003 60006 82832 91800 333 10138 20112=
07510,1997-12-18 21:00:00,9,997.4,1,100,9,10000,11.112,,,160,,,,,,,,,,11,wg-a,,,,AAXX 18214 07510 12660 /1606 10090 20090 39901 49974 51010 60006 71111 81500 92100=
07510,1997-12-19 00:00:00,7,998.1,0.7,100,7,10000,11.112,,,140,,,,0,,,,,,,wg-a,,,,AAXX 19004 07510 02660 31406 10070 20070 39908 49981 51007 60006 83500 90000 333 60007=
07510,1997-12-19 03:00:00,8,997.8,-0.3,93,7,10000,11.112,,,140,,,,0,,,,,,60,wg-a,,,,AAXX 19034 07510 12760 71406 10080 20070 39905 49978 57003 60007 76061 8557/ 90300=
07510,1997-12-19 06:00:00,9,997.1,-0.7,93,8,10000,11.112,,,150,7.3,11.2,,,,,9,,,13,wg-a,,,,AAXX 19064 07510 02760 71506 10090 20080 39898 49971 56007 60006 71361 875// 90600 333 10112 20073 60094=
07510,1997-12-19 12:00:00,15,997.7,-0.1,63,8,15000,14.816,,,190,,,,,,,,,,,wg-a,,,,AAXX 19124 07510 12565 /1908 10150 20080 39905 49977 58001 60006 81802 91200=
07510,1997-12-19 15:00:00,14,997.6,-0.1,63,7,15000,11.112,,,190,,,,,,,,,,,wg-a,,,,AAXX 19154 07510 12565 /1906 10140 20070 39904 49976 55001 60006 83852 91500=
07510,1997-12-19 18:00:00,12,999.1,1.5,76,8,15000,11.112,,,170,8,15.7,,,,,,,,,wg-a,,,,AAXX 19184 07510 12765 71706 10120 20080 39919 49991 53015 60006 83572 91800 333 10157 20080=
07510,1997-12-19 21:00:00,10,1000.4,1.2,93,9,15000,7.408,,,200,,,,1,,,,,,25,wg-a,,,,AAXX 19214 07510 12565 72004 10100 20090 39931 40004 51012 60017 72586 84832 92100=
07510,1997-12-20 00:00:00,9,1001.2,0.8,93,8,15000,11.112,,,190,,,,,,,,,,3,wg-a,,,,AAXX 20004 07510 12565 51906 10090 20080 39939 40012 53008 60016 70386 84830 90000=
07510,1997-12-20 03:00:00,9,1001.5,0.3,93,8,15000,14.816,,,190,,,,0,,,,,,3,wg-a,,,,AAXX 20034 07510 12565 /1908 10090 20080 39942 40015 53003 60007 70386 84802 90300=
07510,1997-12-20 06:00:00,8,1002.3,0.7,93,7,15000,14.816,,,200,8,11.9,,,,,1,,,3,wg-a,,,,AAXX 20064 07510 02565 /2008 10080 20070 39949 40023 53007 60006 70386 85802 90600 333 10119 20080 60014=
07510,1997-12-20 09:00:00,8,1004.1,1.8,100,8,10000,14.816,,,200,,,,0,,,,,,1,wg-a,,,,AAXX 20094 07510 12460 /2008 10080 20080 39967 40041 51018 60007 70186 83802 90900=
07510,1997-12-20 15:00:00,10,1004.2,-0.2,100,10,10000,18.52,,,190,,,,0,,,,,,25,wg-a,,,,AAXX 20154 07510 12460 71910 10100 20100 39969 40042 55002 60007 72586 878// 91500=
07510,1997-12-20 18:00:00,12,1005.4,1.2,88,10,10000,22.224,,,260,7.8,12.1,,0,,,,,,1,wg-a,,,,AAXX 20184 07510 02460 72612 10120 20100 39981 40054 53012 60006 70186 878// 91800 333 10121 20078 60007=
07510,1997-12-20 21:00:00,12,1007.1,1.7,88,10,10000,29.632,,,270,,,,1,,,,,,80,wg-a,,,,AAXX 20214 07510 12560 72716 10120 20100 39998 40071 51017 60017 78086 878// 92100=
07510,1997-12-21 00:00:00,11,1008.8,1.7,94,10,10000,25.928,,,270,,,,0,,,,,,25,wg-a,,,,AAXX 21004 07510 02460 72714 10110 20100 30015 40088 52017 60016 72586 878// 90000 333 60007=
07510,1997-12-21 03:00:00,11,1010.4,1.5,87,9,10000,22.224,,,270,,,,1,,,,,,2,wg-a,,,,AAXX 21034 07510 12460 62712 10110 20090 30030 40104 53015 60017 70286 86800 90300=
07510,1997-12-21 06:00:00,11,1012.1,1.7,87,9,10000,11.112,,,320,9.8,12.3,,,,,,,,80,wg-a,,,,AAXX 21064 07510 02560 53206 10110 20090 30047 40121 53017 61000 78086 85800 90600 333 10123 20098 6004=
07510,1997-12-21 09:00:00,10,1014.1,2,93,9,10000,11.112,,,260,,,,3,,,,,,80,wg-a,,,,AAXX 21094 07510 12260 62606 10100 20090 30067 40141 52020 60037 78086 86800 90900=
07510,1997-12-21 12:00:00,13,1014.2,0.2,82,10,15000,7.408,,,260,,,,1,,,,,,3,wg-a,,,,AAXX 21124 07510 02465 52604 10130 20100 30069 40142 50002 60046 70386 85800 91200 333 60017=
07510,1997-12-21 15:00:00,12,1013.3,-0.9,88,10,10000,0,,,0,,,,,,,,,,1,wg-a,,,,AAXX 21154 07510 02460 70000 10120 20100 30060 40133 56009 61000 70186 878// 91500 333 ////=
07510,1997-12-21 18:00:00,9,1013.6,0.2,93,8,6000,7.408,,,160,8.7,13.4,,,,,,,,12,wg-a,,,,AAXX 21184 07510 12656 21604 10090 20080 30062 40136 50002 60006 71286 81502 91800 333 10134 20087=
07510,1997-12-21 21:00:00,7,1013.4,-0.3,93,6,900,3.704,,,120,,,,,,,,,,40,wg-a,,,,AAXX 21214 07510 12/09 31202 10070 20060 30059 40134 55003 60006 74040 80002 92100=
07510,1997-12-22 00:00:00,6,1012.4,-1,93,5,200,11.112,,,110,,,,0,,,,,,44,wg-a,,,,AAXX 22004 07510 02002 41106 10060 20050 30049 40124 58010 60006 74440 84602 90000 333 60007=
07510,1997-12-22 03:00:00,6,1011.6,-0.8,100,6,200,14.816,,,110,,,,,,,,,,44,wg-a,,,,AAXX 22034 07510 12/02 91108 10060 20060 30041 40116 58008 60006 74444 89/// 90300=
07510,1997-12-22 06:00:00,7,1010.1,-1.4,100,7,4000,18.52,,,120,4.9,8.6,,,,,4,,,10,wg-a,,,,AAXX 22064 07510 02140 71210 10070 20070 30027 40101 56014 60006 71041 876// 90600 333 10086 20049 60044=
07510,1997-12-22 09:00:00,8,1010.3,0.2,93,7,6000,18.52,,,120,,,,,,,,,,,wg-a,,,,AAXX 22094 07510 12256 71210 10080 20070 30029 40103 52002 60006 8463/ 90900=
07510,1997-12-22 12:00:00,9,1009.3,-1,87,7,10000,18.52,,,120,,,,,,,,,,,wg-a,,,,AAXX 22124 07510 12660 71210 10090 20070 30019 40093 58010 60006 8557/ 91200=
07510,1997-12-22 15:00:00,10,1009.4,0.1,87,8,10000,11.112,,,110,,,,0,,,,,,60,wg-a,,,,AAXX 22154 07510 12460 71106 10100 20080 30020 40094 53001 60007 76062 8657/ 91500=
07510,1997-12-22 18:00:00,9,1010.9,1.5,100,9,4000,3.704,,,170,7.2,9.6,,,,,,,,10,wg-a,,,,AAXX 22184 07510 02140 81702 10090 20090 30035 40109 51015 61000 71065 877// 91800 333 10096 20072 6003=
07510,1997-12-22 21:00:00,11,1012.7,1.9,100,11,4000,18.52,,,260,,,,1,,,,,,10,wg-a,,,,AAXX 22214 07510 12140 82610 10110 20110 30054 40127 52019 60017 71065 877// 92100=
07510,1997-12-23 00:00:00,12,1016,3.3,100,12,500,29.632,,,300,,,,5,,,,,,60,wg-a,,,,AAXX 23004 07510 02300 83016 10120 20120 30087 40160 53033 60066 76065 877// 90000 333 60057=
07510,1997-12-23 03:00:00,11,1019.3,3.2,87,9,10000,11.112,,,290,,,,1,,,,,,3,wg-a,,,,AAXX 23034 07510 12560 32906 10110 20090 30119 40193 51032 60017 70361 83500 90300=
07510,1997-12-23 06:00:00,10,1021.8,2.5,93,9,10000,11.112,,,250,9,12.8,,,,,10,,,3,wg-a,,,,AAXX 23064 07510 12660 72506 10100 20090 30144 40218 53025 60104 70361 87500 90600 333 10128 20090=
07510,1997-12-23 12:00:00,14,1025.6,0.9,77,10,12000,11.112,,,310,,,,,,,,,,,wg-a,,,,AAXX 23124 07510 12462 73106 10140 20100 30182 40256 50009 60006 878// 91200=
07510,1997-12-23 15:00:00,14,1026.3,0.7,82,11,15000,11.112,,,230,,,,,,,,,,,wg-a,,,,AAXX 23154 07510 12565 62306 10140 20110 30189 40263 53007 60006 86800 91500=
07510,1997-12-23 18:00:00,13,1027.8,1.5,88,11,10000,7.408,,,210,10.3,15.1,,,,,,,,,wg-a,,,,AAXX 23184 07510 12460 72104 10130 20110 30204 40278 53015 60006 8583/ 91800 333 10151 20103=
07510,1997-12-23 21:00:00,12,1029,1.2,94,11,10000,11.112,,,210,,,,,,,,,,,wg-a,,,,AAXX 23214 07510 12560 72106 10120 20110 30216 40290 51012 60006 875// 92100=
07510,1997-12-24 00:00:00,11,1029,-0.1,82,8,10000,14.816,,,200,,,,,,,,,,,wg-a,,,,AAXX 24004 07510 12660 72008 10110 20080 30215 40290 58001 60006 85502 90000=
07510,1997-12-24 03:00:00,9,1028.5,-0.5,87,7,10000,3.704,,,170,,,,,,,,,,,wg-a,,,,AAXX 24034 07510 12660 51702 10090 20070 30210 40285 56005 60006 82502 90300=
07510,1997-12-24 06:00:00,7,1027.2,-1.4,93,6,10000,3.704,,,140,7.4,12.8,,,,,,,,,wg-a,,,,AAXX 24064 07510 02/60 41402 10070 20060 30196 40272 56014 60006 81032 90600 333 10128 20074 60004=
07510,1997-12-24 09:00:00,9,1027.7,0.6,87,7,10000,7.408,,,120,,,,,,,,,,,wg-a,,,,AAXX 24094 07510 12/60 71204 10090 20070 30202 40277 53006 60006 85032 90900=
07510,1997-12-24 12:00:00,12,1025.4,-2.2,76,8,15000,22.224,,,160,,,,1,,,,,,21,wg-a,,,,AAXX 24124 07510 02565 71612 10120 20080 30180 40254 58022 60016 72161 82572 91200 333 60017=
07510,1997-12-24 15:00:00,14,1024.8,-0.6,72,9,11000,7.408,,,180,,,,,,,,,,,wg-a,,,,AAXX 24154 07510 12/61 71804 10140 20090 30174 40248 55006 60006 8257/ 91500=
07510,1997-12-24 18:00:00,12,1026,1.2,88,10,10000,7.408,,,190,7.1,13.9,,,,,,,,60,wg-a,,,,AAXX 24184 07510 02560 81904 10120 20100 30186 40260 52012 61000 76062 8557/ 91800 333 10139 20071 6100=
07510,1997-12-24 21:00:00,12,1026.2,0.2,88,10,10000,7.408,,,140,,,,0,,,,,,2,wg-a,,,,AAXX 24214 07510 12560 81404 10120 20100 30188 40262 53002 60007 70262 8557/ 92100=
07510,1997-12-25 00:00:00,11,1025.9,-0.3,94,10,10000,0,,,0,,,,,,,,,,2,wg-a,,,,AAXX 25004 07510 12560 80000 10110 20100 30185 40259 58003 60016 70262 83531 90000=
07510,1997-12-25 06:00:00,12,1022.7,-2.3,76,8,10000,11.112,,,160,11.1,12.2,,,,,1,,,,wg-a,,,,AAXX 25064 07510 02660 81606 10120 20080 30153 40227 56023 60006 8553/ 90600 333 10122 20111 60014=
07510,1997-12-25 09:00:00,13,1022.2,-0.5,72,8,10000,14.816,,,170,,,,,,,,,,,wg-a,,,,AAXX 25094 07510 12560 71708 10130 20080 30148 40222 58005 60006 8653/ 90900=
07510,1997-12-25 12:00:00,17,1020.1,-1.9,68,11,10000,18.52,,,210,,,,,,,,,,,wg-a,,,,AAXX 25124 07510 12760 72110 10170 20110 30129 40201 58019 60006 85532 91200=
07510,1997-12-25 18:00:00,14,1020.8,0.7,77,10,10000,22.224,,,260,11.8,18.3,,,,,,,,21,wg-a,,,,AAXX 25184 07510 02560 72612 10140 20100 30135 40208 51007 61000 72162 8557/ 91800 333 10183 20118 6100=
07510,1997-12-25 21:00:00,12,1021.7,0.8,94,11,10000,14.816,,,220,,,,1,,,,,,60,wg-a,,,,AAXX 25214 07510 12560 72208 10120 20110 30143 40217 51008 60017 76062 8657/ 92100=
07510,1997-12-26 00:00:00,11,1021.2,-0.5,100,11,10000,11.112,,,230,,,,1,,,,,,21,wg-a,,,,AAXX 26004 07510 02360 72306 10110 20110 30138 40212 57005 60026 72162 8557/ 90000 333 60017=
07510,1997-12-26 03:00:00,11,1019.8,-1.4,94,10,10000,14.816,,,210,,,,,,,,,,,wg-a,,,,AAXX 26034 07510 12660 72108 10110 20100 30124 40198 56014 60006 8357/ 90300=
07510,1997-12-26 06:00:00,10,1018.5,-1.3,93,9,10000,11.112,,,210,9.6,14.4,,,,,,,,25,wg-a,,,,AAXX 26064 07510 02560 72106 10100 20090 30111 40185 58013 61000 72586 82832 90600 333 10144 20096 6002=
07510,1997-12-26 09:00:00,11,1018.7,0.2,76,7,10000,22.224,,,260,,,,0,,,,,,25,wg-a,,,,AAXX 26094 07510 12560 62612 10110 20070 30113 40187 53002 60007 72586 83832 90900=
07510,1997-12-26 12:00:00,13,1018.4,-0.3,77,9,10000,25.928,,,260,,,,0,,,,,,2,wg-a,,,,AAXX 26124 07510 02560 62614 10130 20090 30110 40184 58003 60016 70286 83902 91200 333 60007=
07510,1997-12-26 18:00:00,9,1018.4,0.9,87,7,8000,14.816,,,230,8.6,13.4,,,,,,,,25,wg-a,,,,AAXX 26184 07510 02458 72308 10090 20070 30109 40184 50009 61000 72586 879// 91800 333 10134 20086 6002=
07510,1997-12-26 21:00:00,8,1018.4,0,93,7,8000,14.816,,,270,,,,5,,,,,,25,wg-a,,,,AAXX 26214 07510 12258 72708 10080 20070 30109 40184 50000 60057 72586 879// 92100=
07510,1997-12-27 00:00:00,8,1017.9,-0.5,87,6,10000,11.112,,,260,,,,2,,,,,,25,wg-a,,,,AAXX 27004 07510 02260 62606 10080 20060 30104 40179 58005 60076 72586 86900 90000 333 60027=
07510,1997-12-27 03:00:00,8,1018.1,0.2,93,7,500,7.408,,,300,,,,3,,,,,,80,wg-a,,,,AAXX 27034 07510 12300 73004 10080 20070 30106 40181 53002 60037 78086 879// 90300=
07510,1997-12-27 06:00:00,7,1018.2,0.1,100,7,10000,7.408,,,320,6.4,8.7,,,,,,,,25,wg-a,,,,AAXX 27064 07510 02260 53204 10070 20070 30107 40182 53001 61000 72586 85900 90600 333 10087 20064 6015=
07510,1997-12-27 09:00:00,8,1020,1.8,93,7,6000,11.112,,,240,,,,4,,,,,,80,wg-a,,,,AAXX 27094 07510 12256 /2406 10080 20070 30125 40200 51018 60047 78086 86900 90900=
07510,1997-12-27 12:00:00,10,1020.1,0.2,87,8,10000,14.816,,,280,,,,3,,,,,,21,wg-a,,,,AAXX 27124 07510 02460 62808 10100 20080 30127 40201 50002 60076 72186 86800 91200 333 60037=
07510,1997-12-27 15:00:00,9,1020.1,-0.1,81,6,10000,22.224,,,310,,,,4,,,,,,25,wg-a,,,,AAXX 27154 07510 12360 63112 10090 20060 30126 40201 55001 60047 72586 86900 91500=
07510,1997-12-27 18:00:00,7,1021.5,1.4,93,6,10000,11.112,,,250,6.5,10.7,,,,,,,,25,wg-a,,,,AAXX 27184 07510 02360 62506 10070 20060 30140 40215 53014 61000 72586 86900 91800 333 10107 20065 6003=
07510,1997-12-27 21:00:00,6,1021.4,-0.1,100,6,10000,3.704,,,230,,,,,,,,,,,wg-a,,,,AAXX 27214 07510 12560 52302 10060 20060 30139 40214 58001 60006 84802 92100=
07510,1997-12-28 00:00:00,7,1020.6,-0.8,93,6,8000,11.112,,,220,,,,2,,,,,,25,wg-a,,,,AAXX 28004 07510 02558 52206 10070 20060 30131 40206 56008 60026 72586 84802 90000 333 60027=
07510,1997-12-28 03:00:00,5,1020,-0.7,93,4,15000,3.704,,,190,,,,0,,,,,,11,wg-a,,,,AAXX 28034 07510 12565 41902 10050 20040 30124 40200 56007 60007 71111 84800 90300=
07510,1997-12-28 06:00:00,5,1018.8,-1.2,100,5,15000,3.704,,,180,4.4,7.5,,,,,16,,,11,wg-a,,,,AAXX 28064 07510 02565 41802 10050 20050 30112 40188 56012 60006 71111 83802 90600 333 10075 20044 60164=
07510,1997-12-28 09:00:00,7,1018.5,-0.2,100,7,15000,11.112,,,200,,,,,,,,,,,wg-a,,,,AAXX 28094 07510 12565 72006 10070 20070 30110 40185 56002 60006 85832 90900=
07510,1997-12-28 12:00:00,10,1016.5,-1.9,93,9,15000,7.408,,,180,,,,,,,,,,,wg-a,,,,AAXX 28124 07510 12265 71804 10100 20090 30091 40165 58019 60006 8483/ 91200=
07510,1997-12-28 15:00:00,11,1014.5,-2,87,9,15000,7.408,,,160,,,,,,,,,,,wg-a,,,,AAXX 28154 07510 12465 71604 10110 20090 30071 40145 56020 60006 878// 91500=
07510,1997-12-28 18:00:00,8,1013.7,-0.8,93,7,15000,7.408,,,130,4.9,11.8,,,,,,,,,wg-a,,,,AAXX 28184 07510 12665 /1304 10080 20070 30063 40137 56008 60006 81532 91800 333 10118 20049=
07510,1997-12-28 21:00:00,7,1013,-0.8,93,6,3000,7.408,,,110,,,,,,,,,,11,wg-a,,,,AAXX 28214 07510 12630 51104 10070 20060 30055 40130 58008 60006 71122 83502 92100=
07510,1997-12-29 00:00:00,6,1012,-1,93,5,2500,11.112,,,130,,,,,,,,,,40,wg-a,,,,AAXX 29004 07510 12/25 01306 10060 20050 30045 40120 58010 60006 74011 80000 90000=
07510,1997-12-29 03:00:00,5,1011.4,-0.6,100,5,4500,7.408,,,120,,,,,,,,,,11,wg-a,,,,AAXX 29034 07510 32/45 01204 10050 20050 30039 40114 56006 71100 80000 90300=
07510,1997-12-29 06:00:00,4,1010.6,-0.8,100,4,500,11.112,,,120,3.9,8.1,,,,,1,,,11,wg-a,,,,AAXX 29064 07510 02/00 01206 10040 20040 30031 40106 55008 60006 71100 80000 90600 333 10081 20039 60014=
07510,1997-12-29 09:00:00,5,1011.5,0.9,100,5,8000,11.112,,,120,,,,0,,,,,,,wg-a,,,,AAXX 29094 07510 12/58 /1206 10050 20050 30040 40115 53009 60007 80001 90900=
07510,1997-12-29 12:00:00,11,1010,-1.4,71,6,15000,14.816,,,150,,,,,,,,,,,wg-a,,,,AAXX 29124 07510 12/65 01508 10110 20060 30026 40100 58014 60006 80000 91200=
07510,1997-12-29 15:00:00,13,1008.9,-1,72,8,15000,11.112,,,120,,,,,,,,,,,wg-a,,,,AAXX 29154 07510 12/65 11206 10130 20080 30016 40089 56010 60006 80001 91500=
07510,1997-12-29 18:00:00,9,1009.4,0.4,87,7,10000,14.816,,,140,3.6,13.4,,,,,,,,,wg-a,,,,AAXX 29184 07510 12/60 21408 10090 20070 30020 40094 53004 60006 80001 91800 333 10134 20036=
07510,1997-12-30 00:00:00,7,1009.6,0,87,5,10000,14.816,,,150,,,,,,,,,,,wg-a,,,,AAXX 30004 07510 12/60 31508 10070 20050 30021 40096 50000 60006 81032 90000=
07510,1997-12-30 03:00:00,6,1010.5,0.9,87,4,10000,14.816,,,140,,,,,,,,,,,wg-a,,,,AAXX 30034 07510 12/60 61408 10060 20040 30030 40105 53009 60006 83032 90300=
07510,1997-12-30 06:00:00,6,1010.5,-0,93,5,10000,11.112,,,150,5.9,8.5,,,,,,,,,wg-a,,,,AAXX 30064 07510 02760 71506 10060 20050 30030 40105 55000 60006 8453/ 90600 333 10085 20059 60004=
07510,1997-12-30 09:00:00,7,1012,1.5,93,6,10000,11.112,,,150,,,,0,,,,,,25,wg-a,,,,AAXX 30094 07510 12260 71506 10070 20060 30045 40120 53015 60007 72586 878// 90900=
07510,1997-12-30 12:00:00,10,1011.7,-0.2,100,10,4000,7.408,,,200,,,,1,,,,,,51,wg-a,,,,AAXX 30124 07510 02140 72004 10100 20100 30043 40117 58002 60026 75186 877// 91200 333 60017=
07510,1997-12-30 15:00:00,12,1011.1,-0.5,100,12,7000,7.408,,,180,,,,1,,,,,,1,wg-a,,,,AAXX 30154 07510 12257 71804 10120 20120 30038 40111 56005 60017 70165 8327/ 91500=
07510,1997-12-30 18:00:00,11,1010.8,-0.3,100,11,500,11.112,,,160,6,12.1,,,,,,,,21,wg-a,,,,AAXX 30184 07510 02100 71606 10110 20110 30035 40108 58003 61000 72165 877// 91800 333 10121 20060 6100=
07510,1997-12-30 21:00:00,10,1010,-0.9,100,10,8000,11.112,,,150,,,,1,,,,,,21,wg-a,,,,AAXX 30214 07510 12158 71506 10100 20100 30026 40100 58009 60017 72165 8457/ 92100=
07510,1997-12-31 00:00:00,9,1008.5,-1.5,93,8,10000,14.816,,,160,,,,,,,,,,2,wg-a,,,,AAXX 31004 07510 12660 71608 10090 20080 30011 40085 57015 60016 70265 8257/ 90000=
07510,1997-12-31 06:00:00,9,1008.4,0.1,93,8,6000,14.816,,,170,8.5,11.2,,,,,,,,61,wg-a,,,,AAXX 31064 07510 02256 71708 10090 20080 30010 40084 53001 61000 76162 8557/ 90600 333 10112 20085 6006=
07510,1997-12-31 09:00:00,10,1010.3,1.9,100,10,3500,7.408,,,230,,,,7,,,,,,61,wg-a,,,,AAXX 31094 07510 12135 82304 10100 20100 30029 40103 53019 60077 76166 8657/ 90900=
07510,1997-12-31 12:00:00,11,1012.1,1.8,94,10,8000,14.816,,,250,,,,4,,,,,,61,wg-a,,,,AAXX 31124 07510 02158 82508 10110 20100 30047 40121 51018 60116 76166 8587/ 91200 333 60047=
07510,1997-12-31 15:00:00,10,1012.5,0.4,93,9,10000,7.408,,,220,,,,2,,,,,,21,wg-a,,,,AAXX 31154 07510 12560 82204 10100 20090 30051 40125 53004 60027 72162 8587/ 91500=
07510,1997-12-31 18:00:00,9,1014.1,1.6,93,8,10000,22.224,,,250,8.6,10.7,,,,,,,,1,wg-a,,,,AAXX 31184 07510 12560 /2512 10090 20080 30067 40141 52016 60006 70162 8587/ 91800 333 10107 20086=
07510,1997-12-31 21:00:00,8,1014.8,0.6,93,7,8000,14.816,,,200,,,,0,,,,,,1,wg-a,,,,AAXX 31214 07510 12758 72008 10080 20070 30073 40148 51006 60007 70162 8357/ 92100=
