station_id,dh_utc,temperature,pression,pression_variation_3h,humidite,point_de_rosee,visibilite,vent_moyen,vent_rafales,vent_rafales_10min,vent_direction,temperature_min,temperature_max,pluie_1h,pluie_3h,pluie_6h,pluie_12h,pluie_24h,ensoleillement,temperature_sol,temps_omm,source,radiations,neige_au_sol,nebulosite,raw_msg
07070,1996-01-01 00:00:00,2,1000.9,1.1,100,2,2500,0,,,0,,,,,,,,,,10,wg-a,,,,AAXX 01004 07070 12125 80000 10020 20020 39897 40009 53011 60006 71022 886// 90000=
07070,1996-01-01 03:00:00,2,1001.3,0.4,100,2,200,7.408,,,90,,,,,,,,,,45,wg-a,,,,AAXX 01034 07070 12/02 90904 10020 20020 39901 40013 53004 60006 74542 89/// 90300=
07070,1996-01-01 06:00:00,2,1001.2,-0,100,2,200,3.704,,,70,2,2.8,,,,,2,,,45,wg-a,,,,AAXX 01064 07070 02/02 90702 10020 20020 39900 40012 54000 60006 74542 89/// 90600 333 10028 20020 60024=
07070,1996-01-01 09:00:00,2,1001.4,0.2,100,2,100,11.112,,,90,,,,,,,,,,43,wg-a,,,,AAXX 01094 07070 12/01 90906 10020 20020 39902 40014 51002 60006 74344 89/// 90900=
07070,1996-01-01 12:00:00,4,1000.7,-0.6,100,4,300,14.816,,,80,,,,,,,,,,45,wg-a,,,,AAXX 01124 07070 12/03 90808 10040 20040 39896 40007 58006 60006 74544 89/// 91200=
07070,1996-01-01 15:00:00,5,1000.4,-0.3,93,4,2500,14.816,,,80,,,,,,,,,,10,wg-a,,,,AAXX 01154 07070 12225 80808 10050 20040 39893 40004 55003 60006 71022 885// 91500=
07070,1996-01-01 18:00:00,4,1001.2,0.8,93,3,4000,14.816,,,80,1.9,4.6,,,,,,,,1,wg-a,,,,AAXX 01184 07070 12240 80808 10040 20030 39901 40012 53008 60006 70142 885// 91800 333 10046 20019=
07070,1996-01-01 21:00:00,2,1001.7,0.4,100,2,3500,18.52,,,80,,,,,,,,,,,wg-a,,,,AAXX 01214 07070 12135 80810 10020 20020 39905 40017 52004 60006 886// 92100=
07070,1996-01-02 00:00:00,2,1002.5,0.8,93,1,3000,11.112,,,70,,,,,,,,,,,wg-a,,,,AAXX 02004 07070 12230 80706 10020 20010 39913 40025 53008 60006 886// 90000=
07070,1996-01-02 03:00:00,2,1003.2,0.7,93,1,3000,18.52,,,90,,,,,,,,,,,wg-a,,,,AAXX 02034 07070 12130 80910 10020 20010 39920 40032 53007 60006 886// 90300=
07070,1996-01-02 06:00:00,2,1004.8,1.5,93,1,3000,18.52,,,100,1.6,3.8,,,,,,,,,wg-a,,,,AAXX 02064 07070 12230 81010 10020 20010 39935 40048 53015 60006 886// 90600 333 10038 20016=
07070,1996-01-02 09:00:00,2,1007.9,3.1,93,1,2500,11.112,,,70,,,,,,,,,,10,wg-a,,,,AAXX 02094 07070 12225 80706 10020 20010 39966 40079 53031 60006 71022 886// 90900=
07070,1996-01-02 12:00:00,3,1010.8,2.9,87,1,3500,14.816,,,50,,,,,,,,,,,wg-a,,,,AAXX 02124 07070 12235 80508 10030 20010 39995 40108 51029 60006 886// 91200=
07070,1996-01-02 15:00:00,3,1013.7,2.9,87,1,4000,7.408,,,360,,,,,,,,,,,wg-a,,,,AAXX 02154 07070 12340 83604 10030 20010 30024 40137 53029 60006 886// 91500=
07070,1996-01-02 18:00:00,3,1016.8,3.1,93,2,4000,3.704,,,310,1.6,2.8,,,,,,,,,wg-a,,,,AAXX 02184 07070 12240 83102 10030 20020 30055 40168 51031 60006 886// 91800 333 10028 20016=
07070,1996-01-03 00:00:00,2,1020.9,1.7,93,1,3500,7.408,,,300,,,,,,,,,,1,wg-a,,,,AAXX 03004 07070 12135 83004 10020 20010 30095 40209 52017 60006 70142 886// 90000=
07070,1996-01-03 03:00:00,2,1022,1,93,1,800,0,,,0,,,,,,,,,,44,wg-a,,,,AAXX 03034 07070 12008 80000 10020 20010 30105 40220 53010 60006 74442 886// 90300=
07070,1996-01-03 06:00:00,1,1022.8,0.8,100,1,1200,7.408,,,70,1.2,2.8,,0,,,,,,10,wg-a,,,,AAXX 03064 07070 02012 80704 10010 20010 30113 40228 52008 60004 71042 886// 90600 333 10028 20012 60007=
07070,1996-01-03 09:00:00,1,1023.4,0.6,100,1,3000,11.112,,,140,,,,,,,,,,,wg-a,,,,AAXX 03094 07070 12230 81406 10010 20010 30119 40234 51006 60006 886// 90900=
07070,1996-01-03 12:00:00,1,1024,0.6,100,1,2000,11.112,,,170,,,,,,,,,,10,wg-a,,,,AAXX 03124 07070 02120 81706 10010 20010 30125 40240 51006 61000 71052 886// 91200 333 6100=
07070,1996-01-03 15:00:00,0,1023.3,-0.7,100,0,800,14.816,,,150,,,,,,,,,,44,wg-a,,,,AAXX 03154 07070 12008 81508 10000 20000 30118 40233 56007 60006 74442 886// 91500=
07070,1996-01-03 18:00:00,0,1024.6,1.2,93,-1,500,11.112,,,150,-0.2,1.7,,,,,,,,47,wg-a,,,,AAXX 03184 07070 32/05 91506 10000 21010 30130 40246 53012 74754 89/// 91800 333 10017 21002=
07070,1996-01-03 21:00:00,0,1024.2,-0.4,93,-1,600,18.52,,,130,,,,,,,,,,43,wg-a,,,,AAXX 03214 07070 12/06 91310 10000 21010 30126 40242 58004 60006 74344 89/// 92100=
07070,1996-01-04 00:00:00,0,1023.3,-0.9,93,-1,600,14.816,,,140,,,,,,,,,,45,wg-a,,,,AAXX 04004 07070 12/06 91408 10000 21010 30117 40233 57009 60006 74544 89/// 90000=
07070,1996-01-04 03:00:00,0,1021.8,-1.4,93,-1,800,14.816,,,130,,,,,,,,,,,wg-a,,,,AAXX 04034 07070 12/08 /1308 10000 21010 30103 40218 56014 60006 90300=
07070,1996-01-04 06:00:00,0,1019.9,-1.9,93,-1,1200,14.816,,,150,-0.6,-0.1,,,,,,,,10,wg-a,,,,AAXX 04064 07070 02112 81508 10000 21010 30084 40199 56019 60006 71042 886// 90600 333 11001 21006 61000=
07070,1996-01-04 09:00:00,1,1018.8,-1.1,93,0,3800,14.816,,,150,,,,,,,,,,,wg-a,,,,AAXX 04094 07070 12338 /1508 10010 20000 30073 40188 56011 60006 86601 90900=
07070,1996-01-04 12:00:00,1,1015.7,-3,86,-1,4000,22.224,,,140,,,,,,,,,,,wg-a,,,,AAXX 04124 07070 12340 81412 10010 21010 30043 40157 58030 60006 885// 91200=
07070,1996-01-04 15:00:00,2,1012.6,-3,87,0,6000,22.224,,,130,,,,,,,,,,,wg-a,,,,AAXX 04154 07070 12/56 71312 10020 20000 30013 40126 57030 60006 80002 91500=
07070,1996-01-04 18:00:00,1,1011.9,-0.8,86,-1,500,22.224,,,120,-0.3,1.9,,,,,,,,,wg-a,,,,AAXX 04184 07070 12/00 71212 10010 21010 30005 40119 57008 60006 80002 91800 333 10019 21003=
07070,1996-01-04 21:00:00,1,1010.8,-1.1,80,-2,7000,11.112,,,130,,,,,,,,,,,wg-a,,,,AAXX 04214 07070 12/57 81306 10010 21020 39994 40108 56011 60006 8807/ 92100=
07070,1996-01-05 00:00:00,0,1007.8,-3,86,-2,7000,14.816,,,110,,,,,,,,,,,wg-a,,,,AAXX 05004 07070 12/57 71108 10000 21020 39964 40078 58030 60006 86072 90000=
07070,1996-01-05 03:00:00,0,1006.3,-1.4,86,-2,6000,11.112,,,100,,,,,,,,,,,wg-a,,,,AAXX 05034 07070 12/56 71006 10000 21020 39950 40063 58014 60006 8707/ 90300=
07070,1996-01-05 06:00:00,-1,1005,-1.4,93,-2,8000,14.816,,,100,-1.3,0.6,,,,,,,,,wg-a,,,,AAXX 05064 07070 12/58 71008 11010 21020 39936 40050 56014 60006 83032 90600 333 10006 21013=
07070,1996-01-05 09:00:00,0,1003.1,-1.8,86,-2,500,22.224,,,90,,,,,,,,,,,wg-a,,,,AAXX 05094 07070 12/00 20912 10000 21020 39918 40031 58018 60006 81032 90900=
07070,1996-01-05 12:00:00,3,1002.2,-0.8,81,0,7000,14.816,,,120,,,,,,,,,,,wg-a,,,,AAXX 05124 07070 12757 /1208 10030 20000 39910 40022 58008 60006 81531 91200=
07070,1996-01-05 15:00:00,3,999.7,-2.4,87,1,7000,14.816,,,100,,,,,,,,,,,wg-a,,,,AAXX 05154 07070 12657 71008 10030 20010 39886 49997 56024 60006 84532 91500=
07070,1996-01-05 18:00:00,0,999.4,-0.5,93,-1,500,7.408,,,90,-1.3,3.7,,,,,,,,,wg-a,,,,AAXX 05184 07070 12600 /0904 10000 21010 39881 49994 56005 60006 81501 91800 333 10037 21013=
07070,1996-01-05 21:00:00,1,1000,0.6,86,-1,500,14.816,,,90,,,,,,,,,,,wg-a,,,,AAXX 05214 07070 12600 70908 10010 21010 39887 40000 51006 60006 8253/ 92100=
07070,1996-01-06 00:00:00,0,999.8,-0.2,93,-1,6000,11.112,,,90,,,,,,,,,,,wg-a,,,,AAXX 06004 07070 12456 80906 10000 21010 39885 49998 58002 60006 886// 90000=
07070,1996-01-06 03:00:00,0,999.5,-0.3,93,-1,3500,11.112,,,110,,,,1,,,,,,61,wg-a,,,,AAXX 06034 07070 12235 81106 10000 21010 39882 49995 58003 60017 76162 886// 90300=
07070,1996-01-06 06:00:00,0,999.3,-0.2,93,-1,3500,11.112,,,100,0,0.8,,0,,,1,,,60,wg-a,,,,AAXX 06064 07070 02235 81006 10000 21010 39880 49993 58002 60014 76062 886// 90600 333 10008 20000 60007=
07070,1996-01-06 09:00:00,1,999.3,0.1,93,0,400,7.408,,,120,,,,,,,,,,44,wg-a,,,,AAXX 06094 07070 02004 81204 10010 20000 39881 49993 50001 61000 74464 886// 90900 333 ////=
07070,1996-01-06 12:00:00,1,998.3,-1,100,1,500,14.816,,,100,,,,,,,,,,45,wg-a,,,,AAXX 06124 07070 02/05 91008 10010 20010 39871 49983 58010 61000 74564 89/// 91200 333 ////=
07070,1996-01-06 15:00:00,2,996.2,-2,100,2,900,14.816,,,110,,,,,,,,,,42,wg-a,,,,AAXX 06154 07070 02109 81108 10020 20020 39851 49962 56020 61000 74244 886// 91500 333 ////=
07070,1996-01-06 18:00:00,2,993.6,-2.6,100,2,2500,22.224,,,120,0.1,2.3,,,,,,,,10,wg-a,,,,AAXX 06184 07070 32125 81212 10020 20020 39825 49936 57026 71054 886// 91800 333 10023 20001=
07070,1996-01-06 21:00:00,4,991.3,-2.2,93,3,500,11.112,,,130,,,,,,,,,,,wg-a,,,,AAXX 06214 07070 12300 81306 10040 20030 39803 49913 58022 60006 8567/ 92100=
07070,1996-01-07 00:00:00,6,989.8,-1.4,100,6,500,25.928,,,160,,,,3,,,,,,61,wg-a,,,,AAXX 07004 07070 02400 81614 10060 20060 39789 49898 58014 60036 76162 8457/ 90000 333 60037=
07070,1996-01-07 03:00:00,8,990.6,0.9,93,7,7000,22.224,,,200,,,,4,,,,,,61,wg-a,,,,AAXX 07034 07070 12457 82012 10080 20070 39798 49906 53009 60047 76166 8457/ 90300=
07070,1996-01-07 06:00:00,9,992.4,1.8,93,8,7000,18.52,,,200,1.9,8.9,,1,,,8,,,61,wg-a,,,,AAXX 07064 07070 02457 82010 10090 20080 39816 49924 53018 60084 76162 875// 90600 333 10089 20019 60017=
07070,1996-01-07 09:00:00,9,995.2,2.8,93,8,15000,18.52,,,200,,,,1,,,,,,1,wg-a,,,,AAXX 07094 07070 12465 82010 10090 20080 39844 49952 53028 60017 70162 875// 90900=
07070,1996-01-07 10:00:00,6,1003.2,2.6,100,6,15000,14.816,,,190,5.9,11.3,,,,,,,,,wg-a,,,,AAXX 07104 07070 32/65 /1908 10060 20060 40032 53026 80001 91000 333 10113 20059=
07070,1996-01-07 12:00:00,10,998.2,3,87,8,12000,22.224,,,220,,,,,,,,,,,wg-a,,,,AAXX 07124 07070 12562 82212 10100 20080 39874 49982 51030 60016 875// 91200=
07070,1996-01-07 15:00:00,11,1000.4,2.2,82,8,10000,11.112,,,240,,,,,,,,,,,wg-a,,,,AAXX 07154 07070 12560 72406 10110 20080 39896 40004 53022 60006 84202 91500=
07070,1996-01-07 18:00:00,6,1003.2,2.6,100,6,15000,14.816,,,190,5.9,11.3,,,,,,,,,wg-a,,,,AAXX 07184 07070 32/65 21908 10060 20060 39922 40032 53026 80001 91800 333 10113 20059=
07070,1996-01-07 21:00:00,6,1005.9,2.6,93,5,12000,14.816,,,190,,,,,,,,,,,wg-a,,,,AAXX 07214 07070 12/62 11908 10060 20050 39948 40059 51026 60006 80001 92100=
07070,1996-01-08 00:00:00,5,1007.9,1.9,93,4,12000,18.52,,,170,,,,,,,,,,,wg-a,,,,AAXX 08004 07070 12/62 51710 10050 20040 39967 40079 51019 60006 82031 90000=
07070,1996-01-08 03:00:00,6,1009.5,1.7,100,6,12000,18.52,,,170,,,,,,,,,,,wg-a,,,,AAXX 08034 07070 12462 71710 10060 20060 39984 40095 52017 60006 875// 90300=
07070,1996-01-08 06:00:00,6,1011,1.5,93,5,12000,14.816,,,170,4.1,6.7,,,,,1,,,,wg-a,,,,AAXX 08064 07070 02462 71708 10060 20050 39999 40110 53015 60006 876// 90600 333 10067 20041 60014=
07070,1996-01-08 12:00:00,10,1011.2,-0.8,82,7,12000,22.224,,,180,,,,,,,,,,,wg-a,,,,AAXX 08124 07070 12462 /1812 10100 20070 30002 40112 58008 60006 81101 91200=
07070,1996-01-08 15:00:00,10,1009.7,-1.5,82,7,25000,25.928,,,160,,,,,,,,,,,wg-a,,,,AAXX 08154 07070 12475 /1614 10100 20070 39987 40097 58015 60006 81101 91500=
07070,1996-01-08 18:00:00,7,1008.8,-1,87,5,20000,11.112,,,130,5.7,10.4,,,,,,,,,wg-a,,,,AAXX 08184 07070 12/70 31306 10070 20050 39977 40088 58010 60006 80001 91800 333 10104 20057=
07070,1996-01-08 21:00:00,7,1007.1,-1.7,81,4,20000,14.816,,,110,,,,,,,,,,,wg-a,,,,AAXX 08214 07070 12/70 51108 10070 20040 39960 40071 58017 60006 82032 92100=
07070,1996-01-09 00:00:00,7,1004,-3,81,4,20000,18.52,,,130,,,,,,,,,,,wg-a,,,,AAXX 09004 07070 12/70 71310 10070 20040 39930 40040 58030 60006 8703/ 90000=
07070,1996-01-09 03:00:00,7,1001.7,-2.3,76,3,15000,25.928,,,150,,,,,,,,,,,wg-a,,,,AAXX 09034 07070 12/65 71514 10070 20030 39907 40017 58023 60006 8703/ 90300=
07070,1996-01-09 06:00:00,7,1001.4,-0.3,81,4,12000,7.408,,,140,4,7.7,,,,,,,,21,wg-a,,,,AAXX 09064 07070 02762 71404 10070 20040 39904 40014 55003 61000 72162 8557/ 90600 333 10077 20040 6100=
07070,1996-01-09 09:00:00,7,1003,1.6,81,4,20000,7.408,,,80,,,,0,,,,,,3,wg-a,,,,AAXX 09094 07070 12470 80804 10070 20040 39920 40030 53016 60007 70362 8557/ 90900=
07070,1996-01-09 12:00:00,9,1003.5,0.6,87,7,6000,22.224,,,190,,,,,,,,,,61,wg-a,,,,AAXX 09124 07070 02356 81912 10090 20070 39926 40035 53006 60016 76162 885// 91200 333 61000=
07070,1996-01-09 15:00:00,9,1004.5,0.9,87,7,12000,11.112,,,170,,,,1,,,,,,3,wg-a,,,,AAXX 09154 07070 12462 71706 10090 20070 39935 40045 53009 60017 70362 8257/ 91500=
07070,1996-01-09 18:00:00,10,1006,1.6,87,8,12000,14.816,,,180,6.8,9.6,,,,,,,,3,wg-a,,,,AAXX 09184 07070 32562 81808 10100 20080 39951 40060 53016 70362 885// 91800 333 10096 20068=
07070,1996-01-09 21:00:00,9,1006.6,0.5,93,8,12000,11.112,,,180,,,,,,,,,,,wg-a,,,,AAXX 09214 07070 12662 81806 10090 20080 39956 40066 53005 60006 8353/ 92100=
07070,1996-01-10 00:00:00,9,1006.6,0,87,7,20000,11.112,,,190,,,,,,,,,,21,wg-a,,,,AAXX 10004 07070 02670 71906 10090 20070 39956 40066 50000 61000 72162 8257/ 90000 333 6100=
07070,1996-01-10 03:00:00,8,1006.5,-0.1,93,7,15000,14.816,,,180,,,,,,,,,,60,wg-a,,,,AAXX 10034 07070 02765 71808 10080 20070 39955 40065 58001 61000 76062 8357/ 90300 333 ////=
07070,1996-01-10 06:00:00,8,1006.5,-0,93,7,9000,11.112,,,150,7.6,9.7,,1,,,2,,,60,wg-a,,,,AAXX 10064 07070 02559 81506 10080 20070 39955 40065 55000 60024 76062 8657/ 90600 333 10097 20076 60017=
07070,1996-01-10 12:00:00,9,1007.2,-1.1,93,8,12000,3.704,,,60,,,,0,,,,,,60,wg-a,,,,AAXX 10124 07070 02462 80602 10090 20080 39962 40072 56011 60016 76062 8587/ 91200 333 60007=
07070,1996-01-10 15:00:00,9,1006.7,-0.5,93,8,10000,3.704,,,70,,,,1,,,,,,61,wg-a,,,,AAXX 10154 07070 12660 80702 10090 20080 39957 40067 58005 60017 76166 8657/ 91500=
07070,1996-01-10 18:00:00,8,1007.1,0.4,93,7,500,3.704,,,90,7.3,9.1,,2,,,,,,61,wg-a,,,,AAXX 10184 07070 12100 80902 10080 20070 39961 40071 53004 60027 76166 8557/ 91800 333 10091 20073=
07070,1996-01-10 21:00:00,7,1006.6,-0.5,93,6,10000,14.816,,,80,,,,5,,,,,,61,wg-a,,,,AAXX 10214 07070 12760 80808 10070 20060 39956 40066 58005 60057 76162 8557/ 92100=
07070,1996-01-11 00:00:00,6,1005.9,-0.8,87,4,9000,14.816,,,120,,,,,,,,,,61,wg-a,,,,AAXX 11004 07070 02759 71208 10060 20040 39948 40059 58008 60056 76162 8557/ 90000 333 61000=
07070,1996-01-11 03:00:00,6,1004.3,-1.6,93,5,10000,18.52,,,160,,,,,,,,,,,wg-a,,,,AAXX 11034 07070 12460 71610 10060 20050 39932 40043 58016 60006 875// 90300=
07070,1996-01-11 06:00:00,8,1004.1,-0.1,93,7,10000,18.52,,,210,5.4,8.2,,,,,9,,,3,wg-a,,,,AAXX 11064 07070 12460 82110 10080 20070 39931 40041 55001 60094 70362 876// 90600 333 10082 20054=
07070,1996-01-11 12:00:00,8,1001.5,-2.6,87,6,15000,25.928,,,160,,,,,,,,,,,wg-a,,,,AAXX 11124 07070 12465 71614 10080 20060 39906 40015 58026 60006 82132 91200=
07070,1996-01-11 15:00:00,9,999.6,-1.9,81,6,18000,18.52,,,160,,,,,,,,,,21,wg-a,,,,AAXX 11154 07070 02768 71610 10090 20060 39887 49996 57019 61000 72162 8457/ 91500 333 ////=
07070,1996-01-11 18:00:00,10,999,-0.6,82,7,12000,29.632,,50.004,200,7.4,10,,,,,,,,60,wg-a,,,,AAXX 11184 07070 02662 82016 10100 20070 39881 49990 56006 61000 76062 8557/ 91800 333 10100 20074 //// 91027=
07070,1996-01-11 21:00:00,10,999,-0,82,7,15000,25.928,,,200,,,,0,,,,,,60,wg-a,,,,AAXX 11214 07070 12565 82014 10100 20070 39881 49990 55000 60007 76066 885// 92100=
07070,1996-01-12 00:00:00,9,999.1,0.1,87,7,12000,22.224,,,200,,,,2,,,,,,21,wg-a,,,,AAXX 12004 07070 02462 82012 10090 20070 39882 49991 53001 60026 72162 875// 90000 333 60027=
07070,1996-01-12 03:00:00,9,999.8,0.7,81,6,15000,22.224,,,180,,,,,,,,,,,wg-a,,,,AAXX 12034 07070 12465 71812 10090 20060 39889 49998 53007 60006 875// 90300=
07070,1996-01-12 06:00:00,8,1000.9,1,81,5,15000,18.52,,,180,7.5,9.7,,,,,2,,,,wg-a,,,,AAXX 12064 07070 12665 /1810 10080 20050 39899 40009 53010 60024 82530 90600 333 10097 20075=
07070,1996-01-12 09:00:00,6,1002.1,1.2,93,5,20000,14.816,,,160,,,,,,,,,,,wg-a,,,,AAXX 12094 07070 12/70 41608 10060 20050 39911 40021 53012 60006 84072 90900=
07070,1996-01-12 12:00:00,9,1002.3,0.3,87,7,20000,18.52,,,170,,,,,,,,,,,wg-a,,,,AAXX 12124 07070 12570 71710 10090 20070 39914 40023 50003 60006 8157/ 91200=
07070,1996-01-12 18:00:00,9,1006.1,2.2,93,8,12000,14.816,,,180,5.4,9.9,,,,,,,,1,wg-a,,,,AAXX 12184 07070 02562 71808 10090 20080 39951 40061 53022 61000 70162 8557/ 91800 333 10099 20054 ////=
07070,1996-01-12 21:00:00,7,1008.3,2.1,93,6,12000,22.224,,,160,,,,,,,,,,,wg-a,,,,AAXX 12214 07070 12/62 31612 10070 20060 39972 40083 51021 60006 81031 92100=
07070,1996-01-13 00:00:00,6,1010,1.7,93,5,8000,18.52,,,150,,,,,,,,,,,wg-a,,,,AAXX 13004 07070 12758 /1510 10060 20050 39989 40100 51017 60006 81500 90000=
07070,1996-01-13 03:00:00,5,1011.7,1.6,100,5,8000,18.52,,,150,,,,0,,,,,,,wg-a,,,,AAXX 13034 07070 12/58 41510 10050 20050 30005 40117 52016 60007 80001 90300=
07070,1996-01-13 06:00:00,4,1013.3,1.6,100,4,8000,11.112,,,160,3.9,8.7,,,,,,,,,wg-a,,,,AAXX 13064 07070 12/58 /1606 10040 20040 30021 40133 53016 60004 90600 333 10087 20039=
07070,1996-01-13 09:00:00,6,1015.9,2.6,100,6,6000,14.816,,,170,,,,,,,,,,,wg-a,,,,AAXX 13094 07070 12256 71708 10060 20060 30047 40159 53026 60006 876// 90900=
07070,1996-01-13 12:00:00,8,1016.8,1,87,6,6000,11.112,,,180,,,,,,,,,,,wg-a,,,,AAXX 13124 07070 12356 71806 10080 20060 30057 40168 51010 60006 876// 91200=
07070,1996-01-13 15:00:00,9,1017.1,0.3,87,7,14000,7.408,,,200,,,,,,,,,,,wg-a,,,,AAXX 13154 07070 12464 /2004 10090 20070 30060 40171 53003 60006 86200 91500=
07070,1996-01-13 18:00:00,6,1018,0.8,93,5,10000,11.112,,,110,3.8,9,,,,,,,,,wg-a,,,,AAXX 13184 07070 12460 51106 10060 20050 30068 40180 52008 60006 81430 91800 333 10090 20038=
07070,1996-01-14 00:00:00,6,1018.4,0.1,87,4,12000,14.816,,,110,,,,,,,,,,,wg-a,,,,AAXX 14004 07070 12/62 41108 10060 20040 30072 40184 50001 60006 84030 90000=
07070,1996-01-14 03:00:00,3,1018.5,-0,100,3,12000,14.816,,,90,,,,,,,,,,,wg-a,,,,AAXX 14034 07070 12/62 00908 10030 20030 30072 40185 55000 60006 80000 90300=
07070,1996-01-14 06:00:00,4,1018.9,0.4,93,3,10000,14.816,,,90,2.7,7.5,,,,,,,,,wg-a,,,,AAXX 14064 07070 12/60 00908 10040 20030 30076 40189 53004 60006 80000 90600 333 10075 20027=
07070,1996-01-14 09:00:00,4,1019.9,1,93,3,6000,18.52,,,90,,,,,,,,,,,wg-a,,,,AAXX 14094 07070 12/56 /0910 10040 20030 30086 40199 53010 60006 80001 90900=
07070,1996-01-14 12:00:00,9,1018.8,-0.9,81,6,9000,14.816,,,100,,,,,,,,,,,wg-a,,,,AAXX 14124 07070 12/59 41008 10090 20060 30077 40188 58009 60006 80001 91200=
07070,1996-01-14 15:00:00,8,1018.4,-0.4,87,6,6000,25.928,,,100,,,,,,,,,,,wg-a,,,,AAXX 14154 07070 12/56 /1014 10080 20060 30073 40184 55004 60006 80001 91500=
07070,1996-01-14 18:00:00,4,1020,1.4,93,3,4000,18.52,,,100,2.7,9.5,,,,,,,,,wg-a,,,,AAXX 14184 07070 12240 71010 10040 20030 30087 40200 51014 60006 876// 91800 333 10095 20027=
07070,1996-01-14 21:00:00,3,1021.7,1.6,93,2,500,14.816,,,110,,,,,,,,,,,wg-a,,,,AAXX 14214 07070 12200 /1108 10030 20020 30103 40217 51016 60006 85600 92100=
07070,1996-01-15 00:00:00,1,1022.6,0.8,93,0,8000,14.816,,,80,,,,,,,,,,,wg-a,,,,AAXX 15004 07070 12/58 00808 10010 20000 30111 40226 53008 60006 80000 90000=
07070,1996-01-15 03:00:00,0,1023.2,0.6,100,0,12000,14.816,,,80,,,,,,,,,,,wg-a,,,,AAXX 15034 07070 12/62 00808 10000 20000 30117 40232 53006 60006 80000 90300=
07070,1996-01-15 06:00:00,1,1024.5,1.3,93,0,12000,14.816,,,80,0.2,3.6,,,,,,,,,wg-a,,,,AAXX 15064 07070 12/62 00808 10010 20000 30130 40245 53013 60006 80000 90600 333 10036 20002=
07070,1996-01-15 09:00:00,2,1025.8,1.3,93,1,500,14.816,,,90,,,,,,,,,,,wg-a,,,,AAXX 15094 07070 12/00 /0908 10020 20010 30143 40258 51013 60006 80001 90900=
07070,1996-01-15 12:00:00,8,1026,0.5,81,5,9000,14.816,,,100,,,,,,,,,,,wg-a,,,,AAXX 15124 07070 12/59 21008 10080 20050 30148 40260 51005 60006 80001 91200=
07070,1996-01-15 15:00:00,7,1026.1,-0,87,5,12000,18.52,,,90,,,,,,,,,,,wg-a,,,,AAXX 15154 07070 12/62 30910 10070 20050 30148 40261 55000 60006 80001 91500=
07070,1996-01-15 18:00:00,2,1027.7,1.4,93,1,7000,11.112,,,80,0.4,8.8,,,,,,,,,wg-a,,,,AAXX 15184 07070 12/57 00806 10020 20010 30162 40277 52014 60006 80000 91800 333 10088 20004=
07070,1996-01-15 21:00:00,2,1028.7,1,93,1,600,18.52,,,90,,,,,,,,,,45,wg-a,,,,AAXX 15214 07070 12/06 90910 10020 20010 30172 40287 53010 60006 74541 89/// 92100=
07070,1996-01-16 00:00:00,1,1029.2,0.4,100,1,600,14.816,,,100,,,,,,,,,,45,wg-a,,,,AAXX 16004 07070 12/06 91008 10010 20010 30176 40292 52004 60006 74541 89/// 90000=
07070,1996-01-16 03:00:00,1,1030,0.8,93,0,700,11.112,,,100,,,,,,,,,,45,wg-a,,,,AAXX 16034 07070 12/07 91006 10010 20000 30184 40300 53008 60006 74544 89/// 90300=
07070,1996-01-16 06:00:00,1,1030,-0,93,0,600,14.816,,,120,0.4,2.2,,,,,,,,45,wg-a,,,,AAXX 16064 07070 12/06 91208 10010 20000 30184 40300 55000 60006 74544 89/// 90600 333 10022 20004=
07070,1996-01-16 09:00:00,1,1031.2,1.2,100,1,400,14.816,,,120,,,,,,,,,,45,wg-a,,,,AAXX 16094 07070 12/04 91208 10010 20010 30196 40312 51012 60006 74544 89/// 90900=
07070,1996-01-16 12:00:00,2,1031.2,0.1,100,2,600,14.816,,,100,,,,,,,,,,45,wg-a,,,,AAXX 16124 07070 12/06 91008 10020 20020 30197 40312 50001 60006 74544 89/// 91200=
07070,1996-01-16 15:00:00,3,1030.2,-1,93,2,600,14.816,,,120,,,,,,,,,,10,wg-a,,,,AAXX 16154 07070 12/06 91208 10030 20020 30187 40302 58010 60006 71042 89/// 91500=
07070,1996-01-16 18:00:00,2,1031.1,0.8,93,1,200,18.52,,,90,0.7,2.9,,,,,,,,,wg-a,,,,AAXX 16184 07070 12/02 /0910 10020 20010 30195 40311 53008 60006 91800 333 10029 20007=
07070,1996-01-16 21:00:00,1,1031.1,-0,100,1,200,11.112,,,100,,,,,,,,,,45,wg-a,,,,AAXX 16214 07070 12/02 91006 10010 20010 30195 40311 54000 60006 74544 89/// 92100=
07070,1996-01-17 00:00:00,0,1030.8,-0.3,100,0,400,11.112,,,120,,,,,,,,,,45,wg-a,,,,AAXX 17004 07070 12/04 91206 10000 20000 30192 40308 58003 60006 74544 89/// 90000=
07070,1996-01-17 06:00:00,0,1030.2,0.1,100,0,600,14.816,,,120,-0.1,1.7,,,,,,,,42,wg-a,,,,AAXX 17064 07070 12006 91208 10000 20000 30186 40302 53001 60006 74244 896// 90600 333 10017 21001=
07070,1996-01-17 09:00:00,0,1030.4,0.2,100,0,400,14.816,,,130,,,,,,,,,,45,wg-a,,,,AAXX 17094 07070 12/04 91308 10000 20000 30188 40304 53002 60006 74544 89/// 90900=
07070,1996-01-17 12:00:00,1,1029.5,-0.9,93,0,1500,18.52,,,130,,,,,,,,,,10,wg-a,,,,AAXX 17124 07070 12015 81310 10010 20000 30179 40295 58009 60006 71042 886// 91200=
07070,1996-01-17 15:00:00,1,1028.2,-1.3,93,0,3000,18.52,,,130,,,,,,,,,,,wg-a,,,,AAXX 17154 07070 12230 81310 10010 20000 30166 40282 56013 60006 886// 91500=
07070,1996-01-17 18:00:00,0,1027.9,-0.3,93,-1,4000,18.52,,,110,-0.1,0.8,,,,,,,,,wg-a,,,,AAXX 17184 07070 12/40 /1110 10000 21010 30163 40279 58003 60006 91800 333 10008 21001=
07070,1996-01-17 21:00:00,-1,1027,-0.9,100,-1,3500,18.52,,,140,,,,,,,,,,,wg-a,,,,AAXX 17214 07070 12235 81410 11010 21010 30154 40270 58009 60006 886// 92100=
07070,1996-01-18 00:00:00,0,1026.4,-0.6,93,-1,1200,14.816,,,110,,,,,,,,,,10,wg-a,,,,AAXX 18004 07070 12012 81108 10000 21010 30148 40264 57006 60006 71022 886// 90000=
07070,1996-01-18 03:00:00,0,1025.4,-0.9,100,0,1200,14.816,,,130,,,,,,,,,,10,wg-a,,,,AAXX 18034 07070 12112 81308 10000 20000 30139 40254 56009 60006 71022 886// 90300=
07070,1996-01-18 06:00:00,1,1024.6,-0.8,93,0,1200,14.816,,,130,-0.6,0.6,,,,,,,,10,wg-a,,,,AAXX 18064 07070 12012 81308 10010 20000 30131 40246 56008 60006 71022 886// 90600 333 10006 21006=
07070,1996-01-18 09:00:00,1,1024.6,-0,93,0,2000,18.52,,,140,,,,,,,,,,10,wg-a,,,,AAXX 18094 07070 12220 81410 10010 20000 30131 40246 55000 60006 71022 886// 90900=
07070,1996-01-18 12:00:00,1,1023.7,-0.9,93,0,3500,18.52,,,140,,,,,,,,,,,wg-a,,,,AAXX 18124 07070 12235 /1410 10010 20000 30122 40237 58009 60006 876// 91200=
07070,1996-01-18 15:00:00,4,1022.4,-1.2,87,2,500,11.112,,,120,,,,,,,,,,,wg-a,,,,AAXX 18154 07070 12/00 01206 10040 20020 30110 40224 56012 60006 80000 91500=
07070,1996-01-18 18:00:00,0,1022.7,0.2,93,-1,3000,14.816,,,100,-0.4,3.9,,,,,,,,,wg-a,,,,AAXX 18184 07070 12230 21008 10000 21010 30112 40227 53002 60006 82600 91800 333 10039 21004=
07070,1996-01-18 21:00:00,-1,1022.7,-0.1,100,-1,300,11.112,,,130,,,,,,,,,,45,wg-a,,,,AAXX 18214 07070 12/03 91306 11010 21010 30111 40227 58001 60006 74542 89/// 92100=
07070,1996-01-19 00:00:00,-1,1022.4,-0.3,100,-1,100,11.112,,,140,,,,,,,,,,45,wg-a,,,,AAXX 19004 07070 12/01 91406 11010 21010 30108 40224 58003 60006 74541 89/// 90000=
07070,1996-01-19 03:00:00,-1,1021.2,-1.2,93,-2,500,7.408,,,110,,,,,,,,,,43,wg-a,,,,AAXX 19034 07070 12/05 91104 11010 21020 30096 40212 56012 60006 74344 89/// 90300=
07070,1996-01-19 06:00:00,-2,1020,-1.2,100,-2,400,7.408,,,130,-1.6,-0.4,,,,,,,,45,wg-a,,,,AAXX 19064 07070 12/04 91304 11020 21020 30084 40200 56012 60006 74544 89/// 90600 333 11004 21016=
07070,1996-01-19 09:00:00,-1,1019.9,-0.1,93,-2,1500,11.112,,,120,,,,,,,,,,10,wg-a,,,,AAXX 19094 07070 12015 81206 11010 21020 30083 40199 55001 60006 71042 886// 90900=
07070,1996-01-19 12:00:00,-1,1018.3,-1.5,100,-1,2000,11.112,,,110,,,,,,,,,,10,wg-a,,,,AAXX 19124 07070 12120 81106 11010 21010 30068 40183 58015 60006 71042 886// 91200=
07070,1996-01-19 18:00:00,-1,1015.6,-1.1,100,-1,1500,14.816,,,110,-1.8,-0.2,,,,,,,,10,wg-a,,,,AAXX 19184 07070 12115 81108 11010 21010 30041 40156 56011 60006 71022 886// 91800 333 11002 21018=
07070,1996-01-19 21:00:00,-1,1015,-0.6,93,-2,600,14.816,,,130,,,,,,,,,,44,wg-a,,,,AAXX 19214 07070 12/06 91308 11010 21020 30035 40150 56006 60006 74442 89/// 92100=
07070,1996-01-20 00:00:00,-1,1013.8,-1.2,93,-2,900,18.52,,,130,,,,,,,,,,42,wg-a,,,,AAXX 20004 07070 12109 81310 11010 21020 30023 40138 57012 60006 74242 886// 90000=
07070,1996-01-20 03:00:00,-1,1012.9,-0.9,93,-2,3500,22.224,,,120,,,,,,,,,,,wg-a,,,,AAXX 20034 07070 12235 81212 11010 21020 30014 40129 56009 60006 886// 90300=
07070,1996-01-20 06:00:00,-2,1012.2,-0.7,86,-4,4000,22.224,,,120,-2.3,-0.7,,,,,,,,2,wg-a,,,,AAXX 20064 07070 12340 81212 11020 21040 30007 40122 55007 60006 70242 886// 90600 333 11007 21023=
07070,1996-01-20 09:00:00,-1,1012.7,0.5,86,-3,3200,18.52,,,120,,,,,,,,,,,wg-a,,,,AAXX 20094 07070 12232 81210 11010 21030 30012 40127 51005 60006 886// 90900=
07070,1996-01-20 12:00:00,0,1011.7,-0.9,86,-2,4000,22.224,,,130,,,,,,,,,,,wg-a,,,,AAXX 20124 07070 12440 81312 10000 21020 30003 40117 58009 60006 886// 91200=
07070,1996-01-20 15:00:00,1,1011.3,-0.4,86,-1,500,11.112,,,120,,,,,,,,,,,wg-a,,,,AAXX 20154 07070 12400 71206 10010 21010 39999 40113 55004 60006 876// 91500=
07070,1996-01-20 18:00:00,-1,1012.2,0.8,93,-2,4500,14.816,,,100,-2.4,1.1,,,,,,,,,wg-a,,,,AAXX 20184 07070 12/45 01008 11010 21020 30007 40122 51008 60006 80000 91800 333 10011 21024=
07070,1996-01-20 21:00:00,-2,1013.6,1.4,93,-3,3500,7.408,,,120,,,,,,,,,,,wg-a,,,,AAXX 20214 07070 12435 21204 11020 21030 30021 40136 51014 60006 82600 92100=
07070,1996-01-21 00:00:00,-3,1014.2,0.5,93,-4,3000,7.408,,,120,,,,,,,,,,,wg-a,,,,AAXX 21004 07070 12/30 01204 11030 21040 30026 40142 50005 60006 80000 90000=
07070,1996-01-21 03:00:00,-4,1014.2,-0,93,-5,3000,11.112,,,90,,,,,,,,,,,wg-a,,,,AAXX 21034 07070 12/30 00906 11040 21050 30026 40142 54000 60006 80000 90300=
07070,1996-01-21 06:00:00,-4,1014.3,0.1,93,-5,3500,7.408,,,80,-3.8,-1,,,,,,,,,wg-a,,,,AAXX 21064 07070 12735 /0804 11040 21050 30027 40143 53001 60006 81500 90600 333 11010 21038=
07070,1996-01-21 09:00:00,-2,1014.7,0.5,100,-2,3000,3.704,,,20,,,,,,,,,,,wg-a,,,,AAXX 21094 07070 12730 70202 11020 21020 30032 40147 52005 60006 875// 90900=
07070,1996-01-21 12:00:00,4,1014.2,-0.3,81,1,4000,18.52,,,120,,,,,,,,,,,wg-a,,,,AAXX 21124 07070 12/40 01210 10040 20010 30029 40142 58003 60006 80000 91200=
07070,1996-01-21 15:00:00,4,1013.7,-0.5,81,1,4000,18.52,,,100,,,,,,,,,,,wg-a,,,,AAXX 21154 07070 12/40 01010 10040 20010 30024 40137 56005 60006 80000 91500=
07070,1996-01-21 18:00:00,1,1014.7,0.9,80,-2,3500,14.816,,,100,-4,5.3,,,,,,,,,wg-a,,,,AAXX 21184 07070 32/35 01008 10010 21020 30033 40147 53009 80000 91800 333 10053 21040=
07070,1996-01-21 21:00:00,-1,1014.9,-0.1,86,-3,4000,14.816,,,110,,,,,,,,,,,wg-a,,,,AAXX 21214 07070 12/40 01108 11010 21030 30034 40149 55001 60006 80000 92100=
07070,1996-01-22 00:00:00,-1,1014.9,-0.1,86,-3,4000,14.816,,,110,,,,,,,,,,,wg-a,,,,AAXX 22004 07070 12/40 01108 11010 21030 30034 40149 55001 60006 80000 90000=
07070,1996-01-22 03:00:00,-2,1014.7,-0.2,86,-4,4000,11.112,,,80,,,,,,,,,,,wg-a,,,,AAXX 22034 07070 12/40 00806 11020 21040 30032 40147 58002 60006 80000 90300=
07070,1996-01-22 06:00:00,-1,1014.1,-0.6,86,-3,7000,11.112,,,100,-2,0.4,,,,,,,,,wg-a,,,,AAXX 22064 07070 02/57 /1006 11010 21030 30026 40141 57006 60006 80001 90600 333 10004 21020 60004=
07070,1996-01-22 09:00:00,0,1014,0,80,-3,4000,18.52,,,130,,,,,,,,,,,wg-a,,,,AAXX 22094 07070 12/40 71310 10000 21030 30026 40140 50000 60006 8703/ 90900=
07070,1996-01-22 12:00:00,2,1012.8,-1.1,75,-2,500,18.52,,,110,,,,,,,,,,,wg-a,,,,AAXX 22124 07070 12/00 71110 10020 21020 30015 40128 58011 60006 86032 91200=
07070,1996-01-22 15:00:00,2,1011.2,-1.6,75,-2,500,29.632,,,100,,,,,,,,,,,wg-a,,,,AAXX 22154 07070 12700 71016 10020 21020 39999 40112 56016 60006 81532 91500=
07070,1996-01-22 18:00:00,1,1012.2,0.9,80,-2,500,14.816,,,110,-0.8,2.5,,,,,,,,,wg-a,,,,AAXX 22184 07070 12700 71108 10010 21020 30008 40122 52009 60006 8457/ 91800 333 10025 21008=
07070,1996-01-22 21:00:00,1,1012.1,-0.1,80,-2,500,14.816,,,90,,,,,,,,,,60,wg-a,,,,AAXX 22214 07070 02700 80908 10010 21020 30007 40121 58001 61000 76062 8457/ 92100 333 ////=
07070,1996-01-23 00:00:00,0,1010.5,-1.6,86,-2,500,22.224,,,110,,,,,,,,,,1,wg-a,,,,AAXX 23004 07070 02700 81112 10000 21020 39991 40105 58016 61000 70162 8257/ 90000 333 6100=
07070,1996-01-23 03:00:00,0,1010,-0.5,86,-2,4500,22.224,,,120,,,,0,,,,,,10,wg-a,,,,AAXX 23034 07070 12745 81212 10000 21020 39986 40100 58005 60007 71062 8257/ 90300=
07070,1996-01-23 06:00:00,0,1008.5,-1.5,86,-2,500,11.112,,,110,0,1.3,,,,,,,,66,wg-a,,,,AAXX 23064 07070 02600 81106 10000 21020 39971 40085 58015 60004 76662 8657/ 90600 333 10013 20000 61000=
07070,1996-01-23 09:00:00,0,1007.7,-0.8,80,-3,4000,18.52,,,110,,,,,,,,,,10,wg-a,,,,AAXX 23094 07070 02/40 81110 10000 21030 39963 40077 55008 61000 71062 8807/ 90900 333 ////=
07070,1996-01-23 12:00:00,1,1007.5,-0.1,80,-2,4000,22.224,,,130,,,,,,,,,,2,wg-a,,,,AAXX 23124 07070 02/40 81312 10010 21020 39962 40075 58001 61000 70262 8807/ 91200 333 ////=
07070,1996-01-23 15:00:00,0,1006.2,-1.3,86,-2,2400,11.112,,,130,,,,1,,,,,,10,wg-a,,,,AAXX 23154 07070 12724 81306 10000 21020 39949 40062 56013 60017 71066 8457/ 91500=
07070,1996-01-23 18:00:00,0,1006.5,0.3,93,-1,2400,22.224,,,100,-0.2,0.8,,0,,,,,,10,wg-a,,,,AAXX 23184 07070 12724 81012 10000 21010 39952 40065 52003 60007 71062 8657/ 91800 333 10008 21002=
07070,1996-01-23 21:00:00,0,1006.5,-0,93,-1,3000,14.816,,,110,,,,0,,,,,,1,wg-a,,,,AAXX 23214 07070 12430 81108 10000 21010 39952 40065 54000 60007 70162 875// 92100=
07070,1996-01-24 00:00:00,0,1006.4,-0.1,93,-1,3000,14.816,,,110,,,,,,,,,,,wg-a,,,,AAXX 24004 07070 12730 21108 10000 21010 39951 40064 55001 60016 82500 90000=
07070,1996-01-24 03:00:00,0,1006.5,-0,86,-2,2500,11.112,,,100,,,,,,,,,,,wg-a,,,,AAXX 24034 07070 12/25 71006 10000 21020 39951 40065 54000 60006 85032 90300=
07070,1996-01-24 06:00:00,-1,1006.9,0.4,93,-2,3000,11.112,,,120,-1.2,0.5,,,,,2,,,,wg-a,,,,AAXX 24064 07070 12/30 31206 11010 21020 39955 40069 53004 60024 80002 90600 333 10005 21012=
07070,1996-01-24 09:00:00,0,1007.6,0.7,93,-1,2000,11.112,,,100,,,,0,,,,,,10,wg-a,,,,AAXX 24094 07070 12/20 31006 10000 21010 39962 40076 52007 60007 71000 80001 90900=
07070,1996-01-24 12:00:00,1,1007.4,-0.1,93,0,2400,14.816,,,100,,,,,,,,,,10,wg-a,,,,AAXX 24124 07070 12/24 /1008 10010 20000 39961 40074 58001 60006 71022 82032 91200=
07070,1996-01-24 15:00:00,1,1007.2,-0.2,86,-1,2500,18.52,,,110,,,,,,,,,,10,wg-a,,,,AAXX 24154 07070 12425 71110 10010 21010 39959 40072 55002 60006 71022 83532 91500=
07070,1996-01-24 18:00:00,1,1007.9,0.7,86,-1,3000,14.816,,,100,-1.2,1.6,,,,,,,,,wg-a,,,,AAXX 24184 07070 12730 71008 10010 21010 39966 40079 51007 60006 875// 91800 333 10016 21012=
07070,1996-01-24 21:00:00,0,1008.6,0.6,86,-2,4500,25.928,,,100,,,,,,,,,,,wg-a,,,,AAXX 24214 07070 12845 71014 10000 21020 39972 40086 51006 60006 8707/ 92100=
07070,1996-01-25 00:00:00,0,1007.9,-0.7,80,-3,500,18.52,,,90,,,,,,,,,,,wg-a,,,,AAXX 25004 07070 12800 80910 10000 21030 39965 40079 58007 60006 86032 90000=
07070,1996-01-25 03:00:00,-2,1007.4,-0.5,86,-4,6000,11.112,,,80,,,,,,,,,,,wg-a,,,,AAXX 25034 07070 12/56 /0806 11020 21040 39960 40074 58005 60006 90300=
07070,1996-01-25 06:00:00,-1,1007.6,0.2,86,-3,6000,18.52,,,80,-2.6,0.5,,,,,,,,,wg-a,,,,AAXX 25064 07070 12456 80810 11010 21030 39962 40076 53002 60006 885// 90600 333 10005 21026=
07070,1996-01-25 09:00:00,-1,1008.3,0.7,80,-4,4000,22.224,,,90,,,,,,,,,,,wg-a,,,,AAXX 25094 07070 12/40 /0912 11010 21040 39969 40083 53007 60006 90900=
07070,1996-01-25 12:00:00,-1,1008.3,0,74,-5,4500,25.928,,,100,,,,,,,,,,,wg-a,,,,AAXX 25124 07070 12445 71014 11010 21050 39969 40083 50000 60006 875// 91200=
07070,1996-01-25 15:00:00,-1,1008.2,-0.1,74,-5,4000,22.224,,,80,,,,,,,,,,10,wg-a,,,,AAXX 25154 07070 02540 80812 11010 21050 39968 40082 55001 61000 71072 885// 91500 333 ////=
07070,1996-01-25 18:00:00,-2,1009.3,1,74,-6,500,18.52,,,70,-2.4,-1,,,,,,,,71,wg-a,,1,,AAXX 25184 07070 02500 80710 11020 21060 39978 40093 53010 61000 77187 8457/ 91800 333 11010 21024 4/001 ////=
07070,1996-01-25 21:00:00,-3,1010.3,1,80,-6,4000,18.52,,,90,,,,,,,,,,87,wg-a,,,,AAXX 25214 07070 02540 80910 11030 21060 39988 40103 52010 61000 78787 8457/ 92100 333 ////=
07070,1996-01-26 00:00:00,-4,1010.3,-0.1,86,-6,500,18.52,,,60,,,,0,,,,,,3,wg-a,,,,AAXX 26004 07070 02600 80610 11040 21060 39987 40103 58001 60006 70387 8457/ 90000 333 60007=
07070,1996-01-26 03:00:00,-4,1009.8,-0.4,80,-7,6000,18.52,,,50,,,,,,,,,,,wg-a,,,,AAXX 26034 07070 12456 80510 11040 21070 39983 40098 57004 60006 875// 90300=
07070,1996-01-26 06:00:00,-5,1009.9,-0,86,-7,3000,18.52,,,50,-4.8,-2.4,,0,,,1,,,71,wg-a,,,,AAXX 26064 07070 02530 80510 11050 21070 39983 40099 55000 60014 77172 8357/ 90600 333 11024 21048 60007=
07070,1996-01-26 09:00:00,-5,1010.4,0.5,86,-7,2500,18.52,,,60,,,,,,,,,,10,wg-a,,,,AAXX 26094 07070 02525 80610 11050 21070 39988 40104 50005 61000 71077 8257/ 90900 333 ////=
07070,1996-01-26 12:00:00,-4,1010.7,0.3,86,-6,3200,14.816,,,30,,,,,,,,,,10,wg-a,,,,AAXX 26124 07070 02332 80308 11040 21060 39991 40107 50003 61000 71077 8577/ 91200 333 6100=
07070,1996-01-26 15:00:00,-3,1010.4,-0.2,80,-6,4000,11.112,,,20,,,,,,,,,,1,wg-a,,,,AAXX 26154 07070 02440 80206 11030 21060 39989 40104 55002 61000 70172 846// 91500 333 ////=
07070,1996-01-26 18:00:00,-5,1011.8,1.3,86,-7,3000,14.816,,,350,-4.8,-3.3,,,,,,,,10,wg-a,,2,,AAXX 26184 07070 02430 83508 11050 21070 30002 40118 51013 61000 71072 885// 91800 333 11033 21048 4/002 ////=
07070,1996-01-26 21:00:00,-5,1012.6,0.8,86,-7,4000,11.112,,,330,,,,,,,,,,10,wg-a,,,,AAXX 26214 07070 02740 83306 11050 21070 30010 40126 53008 61000 71072 885// 92100 333 ////=
07070,1996-01-27 00:00:00,-5,1013.2,0.5,86,-7,2500,7.408,,,330,,,,,,,,,,10,wg-a,,,,AAXX 27004 07070 02725 83304 11050 21070 30015 40132 52005 61000 71072 885// 90000 333 6100=
07070,1996-01-27 03:00:00,-5,1013.4,0.2,86,-7,2500,3.704,,,340,,,,,,,,,,10,wg-a,,,,AAXX 27034 07070 12725 83402 11050 21070 30017 40134 50002 60006 71072 885// 90300=
07070,1996-01-27 06:00:00,-5,1013.4,0.1,93,-6,2000,3.704,,,10,-5.4,-4.4,,0,,,,,,10,wg-a,,2,,AAXX 27064 07070 02320 80102 11050 21060 30018 40134 50001 60004 71072 885// 90600 333 11044 21054 4/002 60007=
07070,1996-01-27 09:00:00,-4,1015.4,2,93,-5,2000,3.704,,,20,,,,,,,,,,10,wg-a,,,,AAXX 27094 07070 12320 80202 11040 21050 30038 40154 51020 60006 71022 876// 90900=
07070,1996-01-27 12:00:00,0,1015.4,0.2,86,-2,2500,11.112,,,70,,,,,,,,,,10,wg-a,,,,AAXX 27124 07070 12325 70706 10000 21020 30040 40154 50002 60006 71022 8363/ 91200=
07070,1996-01-27 15:00:00,2,1015.9,0.5,87,0,2000,14.816,,,100,,,,,,,,,,10,wg-a,,,,AAXX 27154 07070 12/20 71008 10020 20000 30045 40159 53005 60006 71022 8707/ 91500=
07070,1996-01-27 18:00:00,1,1017.5,1.6,86,-1,2500,3.704,,,90,-4.8,2.1,,,,,,,,10,wg-a,,,,AAXX 27184 07070 12/25 50902 10010 21010 30061 40175 53016 60006 71011 82072 91800 333 10021 21048=
07070,1996-01-27 21:00:00,0,1018.7,1.1,86,-2,3500,7.408,,,90,,,,,,,,,,,wg-a,,,,AAXX 27214 07070 12/35 00904 10000 21020 30072 40187 51011 60006 80000 92100=
07070,1996-01-28 00:00:00,-2,1019,0.2,86,-4,4000,7.408,,,70,,,,,,,,,,,wg-a,,,,AAXX 28004 07070 12/40 00704 11020 21040 30074 40190 50002 60006 80000 90000=
07070,1996-01-28 03:00:00,-4,1018.9,-0.2,93,-5,4000,7.408,,,50,,,,,,,,,,,wg-a,,,,AAXX 28034 07070 12/40 00504 11040 21050 30072 40189 58002 60006 80000 90300=
07070,1996-01-28 06:00:00,-4,1018.8,-0.1,86,-6,3500,3.704,,,30,-4.7,0.8,,,,,,,,,wg-a,,,,AAXX 28064 07070 12/35 00302 11040 21060 30071 40188 58001 60006 80000 90600 333 10008 21047=
07070,1996-01-28 09:00:00,-3,1018.6,-0.1,93,-4,3000,3.704,,,80,,,,,,,,,,,wg-a,,,,AAXX 28094 07070 12/30 00802 11030 21040 30070 40186 58001 60006 80000 90900=
07070,1996-01-28 12:00:00,0,1017.6,-0.9,86,-2,4000,22.224,,,90,,,,,,,,,,,wg-a,,,,AAXX 28124 07070 12440 20912 10000 21020 30061 40176 58009 60006 82100 91200=
07070,1996-01-28 15:00:00,-1,1016,-1.6,86,-3,4000,25.928,,,80,,,,,,,,,,,wg-a,,,,AAXX 28154 07070 12440 /0814 11010 21030 30045 40160 56016 60006 86500 91500=
07070,1996-01-28 18:00:00,-1,1016.5,0.5,86,-3,500,18.52,,,80,-5.1,0.4,,,,,,,,,wg-a,,,,AAXX 28184 07070 12400 70810 11010 21030 30050 40165 53005 60006 875// 91800 333 10004 21051=
07070,1996-01-29 00:00:00,-2,1016,-0.3,86,-4,500,22.224,,,110,,,,,,,,,,,wg-a,,,,AAXX 29004 07070 12400 81112 11020 21040 30045 40160 58003 60006 885// 90000=
07070,1996-01-29 03:00:00,-1,1015.7,-0.3,86,-3,500,22.224,,,90,,,,,,,,,,,wg-a,,,,AAXX 29034 07070 12400 80912 11010 21030 30042 40157 58003 60006 885// 90300=
07070,1996-01-29 06:00:00,-2,1015.3,-0.4,86,-4,4500,29.632,,,90,-1.9,-0.6,,,,,,,,,wg-a,,,,AAXX 29064 07070 12445 80916 11020 21040 30038 40153 55004 60006 885// 90600 333 11006 21019=
07070,1996-01-29 09:00:00,-2,1016.3,1,80,-5,4000,25.928,,,90,,,,,,,,,,,wg-a,,,,AAXX 29094 07070 12440 70914 11020 21050 30048 40163 53010 60006 8657/ 90900=
07070,1996-01-29 12:00:00,0,1016.6,0.3,74,-4,500,25.928,,,100,,,,,,,,,,,wg-a,,,,AAXX 29124 07070 12400 71014 10000 21040 30051 40166 50003 60006 8483/ 91200=
07070,1996-01-29 15:00:00,0,1016.5,-0.1,80,-3,4000,25.928,,,100,,,,,,,,,,,wg-a,,,,AAXX 29154 07070 12740 71014 10000 21030 30050 40165 55001 60006 8553/ 91500=
07070,1996-01-29 18:00:00,-2,1017.8,1.2,86,-4,4000,18.52,,,100,-2.1,0.4,,,,,,,,,wg-a,,,,AAXX 29184 07070 12740 /1010 11020 21040 30062 40178 51012 60006 81530 91800 333 10004 21021=
07070,1996-01-29 21:00:00,-5,1019.2,1.3,93,-6,4000,3.704,,,100,,,,,,,,,,,wg-a,,,,AAXX 29214 07070 12/40 01002 11050 21060 30075 40192 51013 60006 80000 92100=
07070,1996-01-30 00:00:00,-4,1019.9,0.7,93,-5,4000,11.112,,,100,,,,,,,,,,,wg-a,,,,AAXX 30004 07070 12/40 01006 11040 21050 30082 40199 52007 60006 80000 90000=
07070,1996-01-30 03:00:00,-4,1020.4,0.5,86,-6,4000,7.408,,,110,,,,,,,,,,,wg-a,,,,AAXX 30034 07070 12/40 01104 11040 21060 30087 40204 51005 60006 80000 90300=
07070,1996-01-30 06:00:00,-7,1021.2,0.7,93,-8,3000,3.704,,,360,-6.7,-2,,,,,,,,10,wg-a,,,,AAXX 30064 07070 12/30 03602 11070 21080 30094 40212 53007 60006 71000 80000 90600 333 11020 21067=
07070,1996-01-30 09:00:00,-3,1022.7,1.6,93,-4,2000,3.704,,,40,,,,,,,,,,10,wg-a,,,,AAXX 30094 07070 12420 70402 11030 21040 30110 40227 51016 60006 71011 875// 90900=
07070,1996-01-30 12:00:00,2,1022.6,0.2,75,-2,500,22.224,,,90,,,,,,,,,,,wg-a,,,,AAXX 30124 07070 12500 /0912 10020 21020 30112 40226 50002 60006 81500 91200=
07070,1996-01-30 15:00:00,3,1022.2,-0.4,70,-2,6000,14.816,,,80,,,,,,,,,,,wg-a,,,,AAXX 30154 07070 12/56 00808 10030 21020 30108 40222 56004 60006 80000 91500=
07070,1996-01-30 18:00:00,0,1023.1,0.8,80,-3,500,3.704,,,130,-6.8,2.9,,,,,,,,,wg-a,,,,AAXX 30184 07070 12/00 01302 10000 21030 30116 40231 51008 60006 80000 91800 333 10029 21068=
07070,1996-01-30 21:00:00,-2,1023.4,0.2,80,-5,7000,11.112,,,80,,,,,,,,,,,wg-a,,,,AAXX 30214 07070 12/57 00806 11020 21050 30118 40234 50002 60006 80000 92100=
07070,1996-01-31 00:00:00,-5,1023.4,-0.2,86,-7,6000,7.408,,,10,,,,,,,,,,,wg-a,,,,AAXX 31004 07070 12/56 00104 11050 21070 30116 40234 56002 60006 80000 90000=
07070,1996-01-31 03:00:00,-6,1023.1,-0.3,86,-8,6000,3.704,,,50,,,,,,,,,,,wg-a,,,,AAXX 31034 07070 12/56 /0502 11060 21080 30113 40231 57003 60006 90300=
07070,1996-01-31 06:00:00,-7,1022.9,-0.2,86,-9,8000,3.704,,,80,-7.3,-0.2,,,,,,,,,wg-a,,,,AAXX 31064 07070 12/58 00802 11070 21090 30111 40229 56002 60006 80000 90600 333 11002 21073=
07070,1996-01-31 09:00:00,-4,1023.2,0.4,80,-7,6000,3.704,,,80,,,,,,,,,,,wg-a,,,,AAXX 31094 07070 12/56 00802 11040 21070 30115 40232 51004 60006 80000 90900=
07070,1996-01-31 12:00:00,2,1021.7,-1.2,55,-6,10000,14.816,,,90,,,,,,,,,,,wg-a,,,,AAXX 31124 07070 12/60 00908 10020 21060 30103 40217 58012 60006 80000 91200=
07070,1996-01-31 15:00:00,4,1019.8,-1.8,52,-5,12000,14.816,,,70,,,,,,,,,,,wg-a,,,,AAXX 31154 07070 12/62 00708 10040 21050 30085 40198 56018 60006 80000 91500=
07070,1996-01-31 18:00:00,-1,1020,-0,74,-5,12000,14.816,,,70,-8.4,4.7,,,,,,,,,wg-a,,,,AAXX 31184 07070 12/62 00708 11010 21050 30085 40200 55000 60006 80000 91800 333 10047 21084=
07070,1996-01-31 21:00:00,-3,1020.5,0.4,74,-7,15000,7.408,,,130,,,,,,,,,,,wg-a,,,,AAXX 31214 07070 12/65 01304 11030 21070 30089 40205 53004 60006 80000 92100=
07070,1996-02-01 00:00:00,-2,1019.8,-0.7,63,-8,12000,14.816,,,120,,,,,,,,,,,wg-a,,,,AAXX 01004 07070 12/62 01208 11020 21080 30082 40198 56007 60006 80000 90000=
07070,1996-02-01 06:00:00,-4,1019.3,0.1,74,-8,10000,11.112,,,130,-3.8,-0.2,,,,,,,,,wg-a,,,,AAXX 01064 07070 12/60 01306 11040 21080 30076 40193 53001 60006 80000 90600 333 11002 21038=
07070,1996-02-01 09:00:00,-1,1019.3,0.2,74,-5,10000,7.408,,,130,,,,,,,,,,,wg-a,,,,AAXX 01094 07070 12/60 01304 11010 21050 30078 40193 53002 60006 80000 90900=
07070,1996-02-01 12:00:00,3,1018.9,-0.3,70,-2,8000,18.52,,,160,,,,,,,,,,,wg-a,,,,AAXX 01124 07070 12/58 01610 10030 21020 30075 40189 58003 60006 80000 91200=
07070,1996-02-01 15:00:00,4,1017,-1.8,81,1,9000,7.408,,,90,,,,,,,,,,,wg-a,,,,AAXX 01154 07070 12759 40904 10040 20010 30057 40170 56018 60006 84500 91500=
07070,1996-02-01 18:00:00,0,1016.6,-0.6,86,-2,7000,3.704,,,50,-4.1,4.2,,,,,,,,,wg-a,,,,AAXX 01184 07070 12757 /0502 10000 21020 30051 40166 56006 60006 81500 91800 333 10042 21041=
07070,1996-02-01 21:00:00,-1,1016.2,-0.4,86,-3,7000,11.112,,,80,,,,,,,,,,,wg-a,,,,AAXX 01214 07070 12857 /0806 11010 21030 30047 40162 55004 60006 85500 92100=
07070,1996-02-02 00:00:00,-2,1014.5,-1.7,93,-3,6000,7.408,,,60,,,,,,,,,,,wg-a,,,,AAXX 02004 07070 12856 70604 11020 21030 30030 40145 56017 60006 8703/ 90000=
07070,1996-02-02 03:00:00,-1,1013,-1.4,93,-2,500,11.112,,,70,,,,,,,,,,66,wg-a,,,,AAXX 02034 07070 02/00 80706 11010 21020 30016 40130 57014 61000 76662 8807/ 90300 333 ////=
07070,1996-02-02 06:00:00,0,1011.9,-1.1,93,-1,300,7.408,,,70,-1.7,0.5,,,,,,,,61,wg-a,,,,AAXX 02064 07070 02403 80704 10000 21010 30005 40119 56011 61000 76162 8457/ 90600 333 10005 21017 6100=
07070,1996-02-02 09:00:00,1,1011.4,-0.5,93,0,700,7.408,,,350,,,,1,,,,,,10,wg-a,,,,AAXX 02094 07070 12207 83504 10010 20000 30000 40114 56005 60017 71065 877// 90900=
07070,1996-02-02 12:00:00,2,1010.8,-0.5,93,1,800,3.704,,,70,,,,,,,,,,50,wg-a,,,,AAXX 02124 07070 32108 80702 10020 20010 39995 40108 58005 75064 887// 91200=
07070,1996-02-02 15:00:00,1,1010.4,-0.4,100,1,400,3.704,,,320,,,,,,,,,,,wg-a,,,,AAXX 02154 07070 12/04 /3202 10010 20010 39991 40104 56004 60006 91500=
07070,1996-02-02 18:00:00,1,1011.2,0.8,100,1,600,7.408,,,320,0.3,1.5,,,,,,,,42,wg-a,,,,AAXX 02184 07070 32306 83204 10010 20010 39999 40112 53008 74254 876// 91800 333 10015 20003=
07070,1996-02-02 21:00:00,1,1012.5,1.2,100,1,1100,11.112,,,300,,,,,,,,,,10,wg-a,,,,AAXX 02214 07070 12211 83006 10010 20010 30011 40125 51012 60006 71042 886// 92100=
07070,1996-02-03 00:00:00,2,1013.2,0.7,93,1,1100,11.112,,,300,,,,,,,,,,10,wg-a,,,,AAXX 03004 07070 12211 73006 10020 20010 30018 40132 52007 60006 71042 876// 90000=
07070,1996-02-03 03:00:00,1,1013.3,0.1,100,1,1200,7.408,,,290,,,,,,,,,,10,wg-a,,,,AAXX 03034 07070 12212 82904 10010 20010 30019 40133 52001 60006 71022 886// 90300=
07070,1996-02-03 06:00:00,1,1014.3,1,100,1,1400,11.112,,,310,1.1,1.5,,,,,1,,,10,wg-a,,,,AAXX 03064 07070 02214 83106 10010 20010 30029 40143 53010 60006 71022 886// 90600 333 10015 20011 60014=
07070,1996-02-03 09:00:00,1,1015.6,1.3,93,0,800,7.408,,,340,,,,,,,,,,44,wg-a,,,,AAXX 03094 07070 12208 83404 10010 20000 30042 40156 52013 60006 74442 886// 90900=
07070,1996-02-03 12:00:00,2,1015.9,0.3,93,1,800,11.112,,,320,,,,,,,,,,44,wg-a,,,,AAXX 03124 07070 12208 83206 10020 20010 30045 40159 50003 60006 74454 885// 91200=
07070,1996-02-03 15:00:00,2,1015.7,-0.2,87,0,900,3.704,,,340,,,,,,,,,,44,wg-a,,,,AAXX 03154 07070 02309 83402 10020 20000 30043 40157 56002 61000 74444 885// 91500 333 ////=
07070,1996-02-03 18:00:00,-1,1016.6,0.8,93,-2,1500,7.408,,,330,-0.5,1.7,,,,,,,,10,wg-a,,,,AAXX 03184 07070 02715 /3304 11010 21020 30051 40166 51008 61000 71044 86500 91800 333 10017 21005 ////=
07070,1996-02-03 21:00:00,-2,1016.6,-0,93,-3,2000,7.408,,,300,,,,,,,,,,10,wg-a,,,,AAXX 03214 07070 12520 /3004 11020 21030 30051 40166 54000 60006 71011 86500 92100=
07070,1996-02-04 00:00:00,0,1016.8,0.2,93,-1,2000,11.112,,,320,,,,,,,,,,10,wg-a,,,,AAXX 04004 07070 12320 73206 10000 21010 30053 40168 52002 60006 71022 876// 90000=
07070,1996-02-04 03:00:00,-1,1016.8,-0,86,-3,3000,18.52,,,80,,,,,,,,,,10,wg-a,,,,AAXX 04034 07070 02530 80810 11010 21030 30053 40168 55000 61000 71072 885// 90300 333 ////=
07070,1996-02-04 06:00:00,-2,1017.5,0.7,86,-4,4000,14.816,,,40,-2,-0.2,,,,,,,,2,wg-a,,1,,AAXX 04064 07070 02740 70408 11020 21040 30060 40175 52007 61000 70272 875// 90600 333 11002 21020 4/001 6100=
07070,1996-02-04 09:00:00,-2,1018.5,1,86,-4,4500,7.408,,,10,,,,,,,,,,,wg-a,,,,AAXX 04094 07070 12645 70104 11020 21040 30070 40185 51010 60006 84502 90900=
07070,1996-02-04 12:00:00,0,1018.5,-0,74,-4,4000,18.52,,,30,,,,,,,,,,,wg-a,,,,AAXX 04124 07070 12440 70310 10000 21040 30070 40185 54000 60006 83202 91200=
07070,1996-02-04 15:00:00,0,1017.8,-0.7,69,-5,500,14.816,,,30,,,,,,,,,,,wg-a,,,,AAXX 04154 07070 12500 70308 10000 21050 30063 40178 57007 60006 878// 91500=
07070,1996-02-04 18:00:00,-1,1018.7,0.9,74,-5,6000,11.112,,,20,-3,0.3,,,,,,,,,wg-a,,,,AAXX 04184 07070 12656 70206 11010 21050 30072 40187 53009 60006 875// 91800 333 10003 21030=
07070,1996-02-04 21:00:00,-1,1019.3,0.6,80,-4,10000,11.112,,,30,,,,,,,,,,,wg-a,,,,AAXX 04214 07070 12660 80306 11010 21040 30078 40193 51006 60006 885// 92100=
07070,1996-02-05 00:00:00,-2,1019.3,-0.1,74,-6,15000,11.112,,,60,,,,,,,,,,,wg-a,,,,AAXX 05004 07070 12665 80606 11020 21060 30077 40193 57001 60006 885// 90000=
07070,1996-02-05 03:00:00,-2,1018.6,-0.7,74,-6,15000,3.704,,,60,,,,,,,,,,,wg-a,,,,AAXX 05034 07070 12665 70602 11020 21060 30070 40186 58007 60006 875// 90300=
07070,1996-02-05 06:00:00,-5,1017.9,-0.8,86,-7,15000,7.408,,,100,-4.7,-0.6,,,,,,,,,wg-a,,,,AAXX 05064 07070 12665 21004 11050 21070 30062 40179 58008 60006 82500 90600 333 11006 21047=
07070,1996-02-05 12:00:00,1,1015.4,-1.9,51,-8,15000,14.816,,,160,,,,,,,,,,,wg-a,,,,AAXX 05124 07070 12565 /1608 10010 21080 30040 40154 58019 60006 81100 91200=
07070,1996-02-05 15:00:00,1,1012.1,-3.3,59,-6,20000,18.52,,,150,,,,,,,,,,,wg-a,,,,AAXX 05154 07070 12670 /1510 10010 21060 30007 40121 56033 60006 81400 91500=
07070,1996-02-05 18:00:00,-2,1009.7,-2.5,80,-5,15000,14.816,,,130,-6,1.3,,,,,,,,,wg-a,,,,AAXX 05184 07070 12/65 11308 11020 21050 39982 40097 58025 60006 80001 91800 333 10013 21060=
07070,1996-02-05 21:00:00,-3,1006,-3.7,74,-7,15000,18.52,,,130,,,,,,,,,,,wg-a,,,,AAXX 05214 07070 12/65 31310 11030 21070 39945 40060 58037 60006 80001 92100=
07070,1996-02-06 00:00:00,-5,1002.6,-3.4,86,-7,10000,22.224,,,130,,,,,,,,,,,wg-a,,,,AAXX 06004 07070 12/60 61312 11050 21070 39911 40026 58034 60006 80001 90000=
07070,1996-02-06 03:00:00,-5,998.9,-3.7,86,-7,8000,22.224,,,120,,,,,,,,,,,wg-a,,,,AAXX 06034 07070 12/58 71212 11050 21070 39874 49989 56037 60006 80001 90300=
07070,1996-02-06 06:00:00,-6,995.4,-3.5,86,-8,8000,18.52,,,120,-6,-1.9,,,,,,,,,wg-a,,,,AAXX 06064 07070 12/58 /1210 11060 21080 39839 49954 56035 60006 80001 90600 333 11019 21060=
07070,1996-02-06 09:00:00,-3,994.8,-0.5,68,-8,10000,29.632,,,100,,,,,,,,,,,wg-a,,,,AAXX 06094 07070 12/60 71016 11030 21080 39834 49948 56005 60006 86031 90900=
07070,1996-02-06 12:00:00,0,993.8,-0.8,64,-6,10000,29.632,,,100,,,,,,,,,,,wg-a,,,,AAXX 06124 07070 12/60 71016 10000 21060 39826 49938 58008 60006 82031 91200=
07070,1996-02-06 15:00:00,1,994.5,0.7,64,-5,10000,18.52,,,100,,,,,,,,,,,wg-a,,,,AAXX 06154 07070 12/60 81010 10010 21050 39833 49945 53007 60006 86037 91500=
07070,1996-02-06 18:00:00,0,996.9,2.3,74,-4,8000,11.112,,,80,-5.8,1.1,,,,,,,,,wg-a,,,,AAXX 06184 07070 12658 70806 10000 21040 39856 49969 51023 60006 8357/ 91800 333 10011 21058=
07070,1996-02-06 21:00:00,-1,999,2.1,74,-5,10000,7.408,,,50,,,,,,,,,,,wg-a,,,,AAXX 06214 07070 12660 80504 11010 21050 39877 49990 53021 60006 875// 92100=
07070,1996-02-07 00:00:00,-1,999.9,0.9,86,-3,7000,3.704,,,110,,,,,,,,,,,wg-a,,,,AAXX 07004 07070 12657 71102 11010 21030 39886 49999 52009 60006 8353/ 90000=
07070,1996-02-07 03:00:00,-1,1000.4,0.5,80,-4,500,7.408,,,270,,,,,,,,,,,wg-a,,,,AAXX 07034 07070 12500 72704 11010 21040 39891 40004 50005 60006 875// 90300=
07070,1996-02-07 06:00:00,-2,999.4,-1,86,-4,500,7.408,,,240,-1.8,-0.3,,,,,,,,22,wg-a,,,,AAXX 07064 07070 02500 82404 11020 21040 39881 49994 58010 61000 72272 8257/ 90600 333 11003 21018 6100=
07070,1996-02-07 09:00:00,-1,997.3,-2.1,80,-4,3000,14.816,,,170,,,,,,,,,,10,wg-a,,,,AAXX 07094 07070 02430 71708 11010 21040 39860 49973 58021 61000 71072 83532 90900 333 ////=
07070,1996-02-07 12:00:00,0,994.1,-3.1,80,-3,2500,22.224,,,170,,,,,,,,,,10,wg-a,,,,AAXX 07124 07070 02425 71712 10000 21030 39829 49941 58031 61000 71022 878// 91200 333 ////=
07070,1996-02-07 15:00:00,0,991.2,-2.9,86,-2,2500,18.52,,,130,,,,,,,,,,10,wg-a,,,,AAXX 07154 07070 02425 81310 10000 21020 39800 49912 58029 61000 71072 885// 91500 333 ////=
07070,1996-02-07 18:00:00,0,991.2,-0,86,-2,4000,22.224,,,90,-2.2,0.5,,,,,,,,10,wg-a,,,,AAXX 07184 07070 02540 70912 10000 21020 39800 49912 55000 61000 71072 875// 91800 333 10005 21022 ////=
07070,1996-02-07 21:00:00,-1,993.3,2.1,86,-3,4000,18.52,,,60,,,,0,,,,,,10,wg-a,,,,AAXX 07214 07070 12740 80610 11010 21030 39821 49933 53021 60007 71072 885// 92100=
07070,1996-02-08 00:00:00,-1,997.6,4.2,86,-3,3500,11.112,,,20,,,,,,,,,,10,wg-a,,,,AAXX 08004 07070 12735 80206 11010 21030 39863 49976 53042 60006 71072 875// 90000=
07070,1996-02-08 03:00:00,-1,1001.9,4.3,86,-3,3000,14.816,,,320,,,,,,,,,,10,wg-a,,,,AAXX 08034 07070 02530 83208 11010 21030 39906 40019 52043 61000 71072 885// 90300 333 ////=
07070,1996-02-08 06:00:00,-1,1005.7,3.7,86,-3,3500,14.816,,,320,-1.2,0.1,,,,,,,,10,wg-a,,1,,AAXX 08064 07070 02735 83208 11010 21030 39943 40057 51037 60004 71072 885// 90600 333 10001 21012 4/001 61000=
07070,1996-02-08 09:00:00,-1,1009.5,3.8,80,-4,2500,18.52,,,310,,,,,,,,,,10,wg-a,,,,AAXX 08094 07070 02725 83110 11010 21040 39981 40095 51038 61000 71072 8653/ 90900 333 ////=
07070,1996-02-08 12:00:00,0,1012.6,3.1,86,-2,2000,22.224,,,310,,,,,,,,,,10,wg-a,,,,AAXX 08124 07070 02420 83112 10000 21020 30012 40126 51031 61000 71072 875// 91200 333 6100=
07070,1996-02-08 15:00:00,1,1015.9,3.3,80,-2,2500,22.224,,,330,,,,,,,,,,10,wg-a,,,,AAXX 08154 07070 02425 73312 10010 21020 30045 40159 53033 61000 71072 84201 91500 333 ////=
07070,1996-02-08 18:00:00,-1,1019.1,3.1,86,-3,4000,7.408,,,250,-1.1,1.5,,,,,,,,10,wg-a,,,,AAXX 08184 07070 32740 /2504 11010 21030 30076 40191 53031 71071 81501 91800 333 10015 21011=
07070,1996-02-08 21:00:00,1,1021,1.9,86,-1,4500,11.112,,,260,,,,,,,,,,10,wg-a,,,,AAXX 08214 07070 12545 72606 10010 21010 30095 40210 51019 60006 71011 875// 92100=
07070,1996-02-09 00:00:00,1,1021.5,0.5,86,-1,4000,7.408,,,230,,,,,,,,,,10,wg-a,,,,AAXX 09004 07070 12540 82304 10010 21010 30100 40215 51005 60006 71011 885// 90000=
07070,1996-02-09 03:00:00,-3,1021.5,-0.2,93,-4,6000,14.816,,,170,,,,,,,,,,,wg-a,,,,AAXX 09034 07070 12/56 01708 11030 21040 30098 40215 58002 60006 80000 90300=
07070,1996-02-09 06:00:00,-3,1020.6,-0.8,93,-4,4000,14.816,,,170,-3.7,0.8,,,,,,,,10,wg-a,,,,AAXX 09064 07070 02/40 /1708 11030 21040 30090 40206 56008 60006 71000 80001 90600 333 10008 21037 61000=
07070,1996-02-09 09:00:00,1,1019.9,-0.6,80,-2,3500,18.52,,,170,,,,,,,,,,10,wg-a,,,,AAXX 09094 07070 12/35 41710 10010 21020 30084 40199 57006 60006 71000 81031 90900=
07070,1996-02-09 12:00:00,3,1017.8,-1.9,65,-3,7000,25.928,,,180,,,,,,,,,,,wg-a,,,,AAXX 09124 07070 12657 81814 10030 21030 30065 40178 58019 60006 82507 91200=
07070,1996-02-09 18:00:00,2,1014.1,-1.7,75,-2,8000,22.224,,,140,-2.6,4.1,,,,,,,,,wg-a,,,,AAXX 09184 07070 12758 81412 10020 21020 30028 40141 56017 60006 875// 91800 333 10041 21026=
07070,1996-02-09 21:00:00,1,1012.1,-2.1,69,-4,10000,25.928,,,160,,,,,,,,,,,wg-a,,,,AAXX 09214 07070 12760 81614 10010 21040 30007 40121 56021 60006 8657/ 92100=
07070,1996-02-10 00:00:00,1,1011.3,-0.8,80,-2,2000,18.52,,,180,,,,,,,,,,10,wg-a,,,,AAXX 10004 07070 02320 81810 10010 21020 39999 40113 56008 61000 71072 885// 90000 333 6100=
07070,1996-02-10 03:00:00,1,1010.1,-1.2,86,-1,4000,22.224,,,180,,,,,,,,,,10,wg-a,,,,AAXX 10034 07070 12440 81812 10010 21010 39987 40101 56012 60006 71072 885// 90300=
07070,1996-02-10 06:00:00,1,1010.2,0.2,93,0,500,11.112,,,160,-0.1,2.4,,0,,,,,,1,wg-a,,1,,AAXX 10064 07070 02300 81606 10010 20000 39989 40102 53002 60004 70172 887// 90600 333 10024 21001 4/001 60007=
07070,1996-02-10 09:00:00,5,1011,0.9,87,3,9000,22.224,,42.596,230,,,,,,,,,,,wg-a,,,,AAXX 10094 07070 12459 /2312 10050 20030 39998 40110 50009 60006 86500 90900 333 91023=
07070,1996-02-10 12:00:00,7,1011.1,0.2,76,3,11000,22.224,,,220,,,,,,,,,,,wg-a,,,,AAXX 10124 07070 12/61 /2212 10070 20030 30000 40111 50002 60006 91200=
07070,1996-02-10 15:00:00,8,1010.4,-0.7,66,2,20000,18.52,,38.892,220,,,,,,,,,,,wg-a,,,,AAXX 10154 07070 12570 72210 10080 20020 39993 40104 58007 60006 872// 91500 333 91021=
07070,1996-02-10 18:00:00,3,1011.3,0.7,87,1,15000,14.816,,,200,1.4,8.3,,,,,,,,1,wg-a,,,,AAXX 10184 07070 12765 12008 10030 20010 30000 40113 53007 60006 70181 81400 91800 333 10083 20014=
07070,1996-02-10 21:00:00,3,1011.8,0.5,87,1,15000,7.408,,,190,,,,,,,,,,,wg-a,,,,AAXX 10214 07070 12765 61904 10030 20010 30005 40118 51005 60006 86500 92100=
07070,1996-02-11 00:00:00,4,1011.7,-0,87,2,18000,14.816,,,240,,,,,,,,,,,wg-a,,,,AAXX 11004 07070 12768 62408 10040 20020 30005 40117 55000 60006 86500 90000=
07070,1996-02-11 03:00:00,3,1011.5,-0.3,93,2,15000,11.112,,,210,,,,,,,,,,,wg-a,,,,AAXX 11034 07070 12765 72106 10030 20020 30002 40115 56003 60006 875// 90300=
07070,1996-02-11 06:00:00,4,1011.8,0.4,93,3,15000,22.224,,,220,1.6,4.1,,,,,,,,21,wg-a,,,,AAXX 11064 07070 02465 82212 10040 20030 30006 40118 52004 61000 72162 885// 90600 333 10041 20016 6100=
07070,1996-02-11 09:00:00,5,1012.8,1,87,3,7000,18.52,,,230,,,,,,,,,,,wg-a,,,,AAXX 11094 07070 12457 72310 10050 20030 30016 40128 51010 60006 85501 90900=
07070,1996-02-11 12:00:00,6,1013,0.2,81,3,8000,25.928,,,230,,,,,,,,,,,wg-a,,,,AAXX 11124 07070 12458 72314 10060 20030 30018 40130 50002 60006 8312/ 91200=
07070,1996-02-11 15:00:00,7,1012.7,-0.2,76,3,10000,22.224,,,250,,,,,,,,,,,wg-a,,,,AAXX 11154 07070 12460 /2512 10070 20030 30016 40127 55002 60006 85171 91500=
07070,1996-02-11 18:00:00,4,1013.4,0.5,87,2,10000,14.816,,,220,3.5,7.6,,,,,,,,,wg-a,,,,AAXX 11184 07070 12560 /2208 10040 20020 30021 40134 53005 60006 82430 91800 333 10076 20035=
07070,1996-02-11 21:00:00,4,1013,-0.3,87,2,10000,18.52,,,240,,,,,,,,,,,wg-a,,,,AAXX 11214 07070 12/60 /2410 10040 20020 30018 40130 58003 60006 92100=
07070,1996-02-12 00:00:00,4,1012.6,-0.5,87,2,10000,14.816,,,220,,,,,,,,,,,wg-a,,,,AAXX 12004 07070 12/60 72208 10040 20020 30013 40126 58005 60006 82032 90000=
07070,1996-02-12 03:00:00,4,1009.2,-3.3,87,2,10000,11.112,,,200,,,,,,,,,,,wg-a,,,,AAXX 12034 07070 12660 82006 10040 20020 39980 40092 57033 60006 8457/ 90300=
07070,1996-02-12 06:00:00,4,1003.8,-5.3,93,3,8000,25.928,,,190,2.7,4.7,,0,,,,,,61,wg-a,,,,AAXX 12064 07070 02358 81914 10040 20030 39927 40038 58053 60004 76162 887// 90600 333 10047 20027 60007=
07070,1996-02-12 09:00:00,6,995.5,-8.2,87,4,10000,38.892,,61.116,190,,,,3,,,,,,61,wg-a,,,,AAXX 12094 07070 12460 81921 10060 20040 39845 49955 58082 60037 76166 877// 90900 333 91033=
07070,1996-02-12 12:00:00,3,992.6,-3,93,2,25000,18.52,,,230,,,,7,,,,,,21,wg-a,,,,AAXX 12124 07070 02275 72310 10030 20020 39815 49926 56030 60116 72187 879// 91200 333 60077=
07070,1996-02-12 15:00:00,5,989.9,-2.6,81,2,12000,22.224,,,200,,,,,,,,,,,wg-a,,,,AAXX 12154 07070 12462 72012 10050 20020 39789 49899 58026 60006 878// 91500=
07070,1996-02-12 18:00:00,5,986.7,-3.1,93,4,7000,31.484,,50.004,240,2.5,6.8,,4,,,,,,80,wg-a,,,,AAXX 12184 07070 12457 72417 10050 20040 39758 49867 55031 60047 78082 879// 91800 333 10068 20025 91027=
07070,1996-02-12 21:00:00,3,989,2.2,87,1,15000,29.632,,,290,,,,1,,,,,,,wg-a,,,,AAXX 12214 07070 12465 72916 10030 20010 39780 49890 53022 60017 878// 92100=
07070,1996-02-13 00:00:00,2,992.6,3.5,93,1,6000,35.188,,,290,,,,1,,,,,,51,wg-a,,,,AAXX 13004 07070 02356 82919 10020 20010 39815 49926 53035 60026 75162 887// 90000 333 60017=
07070,1996-02-13 03:00:00,3,995.3,2.7,87,1,7000,22.224,,,280,,,,0,,,,,,3,wg-a,,,,AAXX 13034 07070 12457 72812 10030 20010 39842 49953 51027 60007 70362 875// 90300=
07070,1996-02-13 06:00:00,3,997.5,2.2,87,1,10000,25.928,,,290,2,5.4,,,,,16,,,3,wg-a,,,,AAXX 13064 07070 12460 72914 10030 20010 39864 49975 51022 60164 70362 875// 90600 333 10054 20020=
07070,1996-02-13 09:00:00,3,1001,3.4,93,2,500,25.928,,,310,,,,1,,,,,,51,wg-a,,,,AAXX 13094 07070 12300 83114 10030 20020 39898 40010 51034 60017 75165 887// 90900=
07070,1996-02-13 12:00:00,3,1004,3,87,1,6000,25.928,,,330,,,,0,,,,,,51,wg-a,,,,AAXX 13124 07070 02456 83314 10030 20010 39928 40040 51030 60016 75165 885// 91200 333 60007=
07070,1996-02-13 15:00:00,2,1006.8,2.7,87,0,3500,29.632,,,340,,,,0,,,,,,51,wg-a,,,,AAXX 13154 07070 12335 83416 10020 20000 39955 40068 53027 60007 75176 885// 91500=
07070,1996-02-13 18:00:00,1,1010.7,3.9,86,-1,3000,25.928,,,350,1.1,3.2,,,,,,,,10,wg-a,,,,AAXX 13184 07070 02430 83514 10010 21010 39994 40107 53039 61000 71076 885// 91800 333 10032 20011 ////=
07070,1996-02-13 21:00:00,1,1014,3.2,86,-1,500,25.928,,,360,,,,,,,,,,22,wg-a,,,,AAXX 13214 07070 02500 83614 10010 21010 30026 40140 53032 61000 72272 885// 92100 333 ////=
07070,1996-02-14 00:00:00,1,1016.7,2.7,86,-1,500,29.632,,,360,,,,,,,,,,22,wg-a,,,,AAXX 14004 07070 02400 83616 10010 21010 30053 40167 51027 61000 72272 885// 90000 333 6100=
07070,1996-02-14 03:00:00,1,1019.2,2.4,86,-1,500,25.928,,,10,,,,,,,,,,71,wg-a,,,,AAXX 14034 07070 02400 80114 10010 21010 30077 40192 53024 61000 77172 885// 90300 333 ////=
07070,1996-02-14 06:00:00,1,1022,2.8,86,-1,6000,29.632,,,10,0.8,1.2,,,,,1,,,,wg-a,,,,AAXX 14064 07070 02456 80116 10010 21010 30105 40220 51028 60014 885// 90600 333 10012 20008 61000=
07070,1996-02-14 09:00:00,1,1025.8,3.8,86,-1,3500,22.224,,,10,,,,,,,,,,10,wg-a,,,,AAXX 14094 07070 12435 80112 10010 21010 30143 40258 51038 60006 71022 885// 90900=
07070,1996-02-14 12:00:00,1,1025.8,3.8,86,-1,3500,22.224,,,10,,,,,,,,,,10,wg-a,,,,AAXX 14124 07070 12435 80112 10010 21010 30143 40258 51038 60006 71022 885// 91200=
07070,1996-02-14 15:00:00,1,1030.1,1.6,80,-2,500,18.52,,,20,,,,,,,,,,,wg-a,,,,AAXX 14154 07070 12500 70210 10010 21020 30185 40301 51016 60006 875// 91500=
07070,1996-02-14 18:00:00,0,1032.5,2.4,86,-2,500,22.224,,,10,0.4,1.3,,,,,,,,,wg-a,,,,AAXX 14184 07070 12500 80112 10000 21020 30209 40325 53024 60006 885// 91800 333 10013 20004=
07070,1996-02-14 21:00:00,0,1034.8,2.2,80,-3,7000,14.816,,,10,,,,,,,,,,,wg-a,,,,AAXX 14214 07070 12557 80108 10000 21030 30231 40348 51022 60006 885// 92100=
07070,1996-02-15 00:00:00,0,1035.8,1,86,-2,6000,11.112,,,10,,,,,,,,,,,wg-a,,,,AAXX 15004 07070 12456 80106 10000 21020 30241 40358 53010 60006 885// 90000=
07070,1996-02-15 03:00:00,0,1035.9,0.1,80,-3,6000,7.408,,,40,,,,,,,,,,,wg-a,,,,AAXX 15034 07070 12456 80404 10000 21030 30242 40359 50001 60006 885// 90300=
07070,1996-02-15 06:00:00,-1,1036.9,0.9,86,-3,500,3.704,,,10,-1.4,0.4,,,,,,,,,wg-a,,,,AAXX 15064 07070 12500 70102 11010 21030 30251 40369 51009 60006 875// 90600 333 10004 21014=
07070,1996-02-15 12:00:00,1,1036.7,-1.3,75,-3,0,7.408,,,350,,,,,,,,,,,wg-a,,,,AAXX 15124 07070 12/// /3504 10010 21030 30251 40367 58013 60006 91200=
07070,1996-02-15 18:00:00,1,1034.6,-1.1,75,-3,0,3.704,,,320,-1.5,1.5,,,,,,,,,wg-a,,,,AAXX 15184 07070 12/// /3202 10010 21030 30230 40346 56011 60006 91800 333 10015 21015=
07070,1996-02-15 21:00:00,0,1033.5,-1.1,86,-2,7000,7.408,,,220,,,,,,,,,,,wg-a,,,,AAXX 15214 07070 12457 82204 10000 21020 30219 40335 58011 60006 8157/ 92100=
07070,1996-02-16 00:00:00,1,1032.1,-1.4,86,-1,6000,14.816,,,220,,,,,,,,,,21,wg-a,,,,AAXX 16004 07070 02556 82208 10010 21010 30205 40321 58014 61000 72162 8157/ 90000 333 6100=
07070,1996-02-16 03:00:00,2,1029.6,-2.4,87,0,7000,18.52,,,240,,,,,,,,,,,wg-a,,,,AAXX 16034 07070 12557 82410 10020 20000 30181 40296 58024 60006 8457/ 90300=
07070,1996-02-16 06:00:00,2,1028.7,-0.9,87,0,7000,11.112,,,260,-0.1,2.3,,,,,,,,,wg-a,,,,AAXX 16064 07070 02457 82606 10020 20000 30172 40287 58009 61000 8457/ 90600 333 10023 21001 ////=
07070,1996-02-16 09:00:00,4,1027.8,-0.8,93,3,2500,22.224,,,260,,,,,,,,,,10,wg-a,,,,AAXX 16094 07070 02225 82612 10040 20030 30164 40278 56008 61000 71065 886// 90900 333 ////=
07070,1996-02-16 12:00:00,5,1026.1,-1.6,93,4,2200,18.52,,,240,,,,0,,,,,,10,wg-a,,,,AAXX 16124 07070 02222 82410 10050 20040 30148 40261 58016 60006 71065 886// 91200 333 60007=
07070,1996-02-16 15:00:00,7,1024.1,-2,93,6,2200,22.224,,,250,,,,,,,,,,10,wg-a,,,,AAXX 16154 07070 02222 82512 10070 20060 30128 40241 58020 61000 71052 886// 91500 333 ////=
07070,1996-02-16 18:00:00,7,1023.8,-0.2,87,5,6000,25.928,,,280,2.3,7.7,,,,,,,,1,wg-a,,,,AAXX 16184 07070 32456 82814 10070 20050 30126 40238 58002 70152 886// 91800 333 10077 20023=
07070,1996-02-16 21:00:00,6,1023.6,-0.3,93,5,500,22.224,,,260,,,,,,,,,,1,wg-a,,,,AAXX 16214 07070 02300 /2612 10060 20050 30123 40236 58003 61000 70151 81600 92100 333 ////=
07070,1996-02-17 00:00:00,7,1022.6,-0.9,87,5,6000,22.224,,,260,,,,,,,,,,3,wg-a,,,,AAXX 17004 07070 02456 72612 10070 20050 30114 40226 57009 61000 70351 875// 90000 333 ////=
07070,1996-02-17 03:00:00,5,1021.8,-0.9,87,3,15000,22.224,,,280,,,,,,,,,,,wg-a,,,,AAXX 17034 07070 12565 /2812 10050 20030 30105 40218 56009 60006 81500 90300=
07070,1996-02-17 06:00:00,6,1020.5,-1.3,81,3,10000,31.484,,,270,5.4,7.4,,,,,,,,,wg-a,,,,AAXX 17064 07070 12560 72717 10060 20030 30092 40205 56013 60004 875// 90600 333 10074 20054=
07070,1996-02-17 09:00:00,7,1021.4,1,76,3,12000,31.484,,,290,,,,,,,,,,,wg-a,,,,AAXX 17094 07070 12562 72917 10070 20030 30102 40214 51010 60006 86801 90900=
07070,1996-02-17 12:00:00,8,1022,0.6,66,2,20000,35.188,,,320,,,,,,,,,,80,wg-a,,,,AAXX 17124 07070 02570 73219 10080 20020 30108 40220 50006 61000 78081 878// 91200 333 6100=
07070,1996-02-17 15:00:00,7,1022.7,0.7,66,1,25000,25.928,,,320,,,,0,,,,,,1,wg-a,,,,AAXX 17154 07070 12675 73214 10070 20010 30115 40227 53007 60007 70182 85801 91500=
07070,1996-02-17 18:00:00,7,1023.1,0.3,70,2,20000,18.52,,,280,5.4,8.9,,,,,,,,1,wg-a,,,,AAXX 17184 07070 32670 72810 10070 20020 30118 40231 51003 70182 878// 91800 333 10089 20054=
07070,1996-02-17 21:00:00,5,1021.7,-1.4,81,2,15000,14.816,,,230,,,,,,,,,,,wg-a,,,,AAXX 17214 07070 12765 52308 10050 20020 30104 40217 56014 60006 825/1 92100=
07070,1996-02-18 00:00:00,6,1019,-2.6,81,3,15000,22.224,,,240,,,,,,,,,,,wg-a,,,,AAXX 18004 07070 12665 82412 10060 20030 30078 40190 58026 60006 885// 90000=
07070,1996-02-18 03:00:00,6,1014.4,-4.6,87,4,10000,25.928,,,230,,,,0,,,,,,61,wg-a,,,,AAXX 18034 07070 12560 82314 10060 20040 30032 40144 58046 60007 76162 888// 90300=
07070,1996-02-18 06:00:00,5,1008.8,-5.5,93,4,8000,35.188,,53.708,240,3.6,6.5,,1,,,2,,,63,wg-a,,,,AAXX 18064 07070 02458 82419 10050 20040 39977 40088 58055 60024 76362 888// 90600 333 10065 20036 60017 91029=
07070,1996-02-18 09:00:00,6,1003.4,-5.4,93,5,7000,42.596,,61.116,240,,,,5,,,,,,61,wg-a,,,,AAXX 18094 07070 12457 82423 10060 20050 39923 40034 56054 60057 76165 8572/ 90900 333 91033=
07070,1996-02-18 12:00:00,4,1001.1,-2.3,93,3,10000,35.188,,,290,,,,3,,,,,,61,wg-a,,,,AAXX 18124 07070 02460 82919 10040 20030 39900 40011 55023 60086 76165 875// 91200 333 60037=
07070,1996-02-18 15:00:00,7,997.6,-3.4,76,3,10000,29.632,,,250,,,,0,,,,,,15,wg-a,,,,AAXX 18154 07070 12460 /2516 10070 20030 39866 49976 56034 60007 71561 86300 91500=
07070,1996-02-18 18:00:00,5,996.6,-1,75,1,15000,22.224,,,250,3.9,7.1,,,,,,,,25,wg-a,,,,AAXX 18184 07070 32465 22512 10050 20010 39856 49966 56010 72586 82900 91800 333 10071 20039=
07070,1996-02-18 21:00:00,4,996.1,-0.6,87,2,15000,14.816,,,230,,,,1,,,,,,25,wg-a,,,,AAXX 18214 07070 12565 /2308 10040 20020 39850 49961 58006 60017 72581 86800 92100=
07070,1996-02-19 00:00:00,2,995.2,-0.9,93,1,15000,25.928,,,240,,,,1,,,,,,25,wg-a,,,,AAXX 19004 07070 02465 72414 10020 20010 39841 49952 56009 60026 72581 878// 90000 333 60017=
07070,1996-02-19 03:00:00,2,994,-1.2,93,1,15000,18.52,,,230,,,,,,,,,,,wg-a,,,,AAXX 19034 07070 12465 72310 10020 20010 39829 49940 58012 60006 878// 90300=
07070,1996-02-19 06:00:00,3,993.3,-0.7,87,1,15000,18.52,,,250,1.9,4.7,,2,,,11,,,1,wg-a,,,,AAXX 19064 07070 02465 72510 10030 20010 39822 49933 56007 60114 70186 875// 90600 333 10047 20019 60027=
07070,1996-02-19 09:00:00,1,993.9,0.5,93,0,3000,14.816,,,250,,,,2,,,,,,71,wg-a,,,,AAXX 19094 07070 12330 82508 10010 20000 39827 49939 52005 60027 77176 885// 90900=
07070,1996-02-19 12:00:00,1,993,-0.8,93,0,4000,22.224,,,270,,,,0,,,,,,10,wg-a,,,,AAXX 19124 07070 02240 82712 10010 20000 39819 49930 56008 60026 71072 887// 91200 333 60007=
07070,1996-02-19 15:00:00,-1,996.5,3.3,93,-2,1200,42.596,,68.524,350,,,,0,,,,,,10,wg-a,,,,AAXX 19154 07070 12312 83523 11010 21020 39852 49965 53033 60007 71077 887// 91500 333 91037=
07070,1996-02-19 18:00:00,-2,1000,3.5,100,-2,1500,29.632,,50.004,350,-1.7,2.8,,,,,,,,36,wg-a,,,,AAXX 19184 07070 02/15 /3516 11020 21020 39887 40000 51035 61000 736// 91800 333 10028 21017 //// 91027=
07070,1996-02-19 21:00:00,-2,1002.3,2.2,100,-2,2000,22.224,,,330,,,,,,,,,,10,wg-a,,,,AAXX 19214 07070 32/20 /3312 11020 21020 39909 40023 53022 710// 92100=
07070,1996-02-20 00:00:00,-2,1003.6,1.3,93,-3,1500,22.224,,,300,,,,,,,,,,10,wg-a,,,,AAXX 20004 07070 12/15 /3012 11020 21030 39922 40036 53013 60006 710// 90000=
07070,1996-02-20 03:00:00,-2,1004.9,1.3,100,-2,1200,14.816,,,320,,,,,,,,,,10,wg-a,,,,AAXX 20034 07070 32/12 /3208 11020 21020 39935 40049 52013 710// 90300=
07070,1996-02-20 06:00:00,-1,1006.5,1.6,100,-1,800,25.928,,,20,-1.8,-0.6,,1,,,4,,,45,wg-a,,9,,AAXX 20064 07070 02/08 90214 11010 21010 39951 40065 51016 60044 74577 89/// 90600 333 11006 21018 4/009 60017=
07070,1996-02-20 09:00:00,-2,1010.6,4,86,-4,8000,29.632,,53.708,20,,,,,,,,,,36,wg-a,,,,AAXX 20094 07070 02458 80216 11020 21040 39991 40106 53040 61000 73672 885// 90900 333 //// 91029=
07070,1996-02-20 12:00:00,-2,1012.4,1.8,80,-5,10000,25.928,,,20,,,,,,,,,,36,wg-a,,,,AAXX 20124 07070 02460 80214 11020 21050 30009 40124 51018 61000 73672 885// 91200 333 ////=
07070,1996-02-20 15:00:00,-2,1014.2,1.8,86,-4,1800,25.928,,,20,,,,,,,,,,10,wg-a,,,,AAXX 20154 07070 02/18 /0214 11020 21040 30027 40142 53018 61000 710// 91500 333 ////=
07070,1996-02-20 18:00:00,-2,1016.3,2.1,86,-4,4500,18.52,,,20,-2.2,-0.8,,,,,,,,10,wg-a,,9,,AAXX 20184 07070 02445 80210 11020 21040 30048 40163 53021 61000 71072 885// 91800 333 11008 21022 4/009 ////=
07070,1996-02-20 21:00:00,-2,1018.1,1.7,86,-4,0,25.928,,,20,,,,,,,,,,,wg-a,,,,AAXX 20214 07070 32/// /0214 11020 21040 30065 40181 51017 92100=
07070,1996-02-21 00:00:00,-3,1019.1,1,86,-5,7000,29.632,,,30,,,,,,,,,,36,wg-a,,,,AAXX 21004 07070 02457 80316 11030 21050 30075 40191 53010 61000 73672 885// 90000 333 ////=
07070,1996-02-21 03:00:00,-3,1018.9,-0.2,80,-6,7000,25.928,,,20,,,,,,,,,,36,wg-a,,,,AAXX 21034 07070 12557 80214 11030 21060 30073 40189 58002 60006 73622 885// 90300=
07070,1996-02-21 06:00:00,-5,1020,1,73,-9,10000,22.224,,,20,-5.3,-1.9,,,,,,,,,wg-a,,10,,AAXX 21064 07070 02560 80212 11050 21090 30083 40200 51010 61000 885// 90600 333 11019 21053 4/010 ////=
07070,1996-02-21 09:00:00,-6,1021,0.9,73,-10,12000,29.632,,,20,,,,,,,,,,,wg-a,,,,AAXX 21094 07070 12/62 00216 11060 21100 30092 40210 50009 60006 80000 90900=
07070,1996-02-21 12:00:00,-4,1020.6,-0.3,68,-9,12000,29.632,,,10,,,,,,,,,,,wg-a,,,,AAXX 21124 07070 12562 /0116 11040 21090 30089 40206 58003 60006 81100 91200=
07070,1996-02-21 15:00:00,-4,1020.3,-0.3,74,-8,15000,25.928,,,20,,,,,,,,,,,wg-a,,,,AAXX 21154 07070 12565 40214 11040 21080 30086 40203 58003 60006 84400 91500=
07070,1996-02-21 18:00:00,-7,1021.5,1.1,73,-11,15000,11.112,,,20,-6.6,-3.1,,,,,,,,,wg-a,,7,,AAXX 21184 07070 12565 /0206 11070 21110 30097 40215 53011 60006 81400 91800 333 11031 21066 4/007=
07070,1996-02-21 21:00:00,-11,1022.5,0.8,85,-13,20000,3.704,,,260,,,,,,,,,,,wg-a,,,,AAXX 21214 07070 12/70 02602 11110 21130 30105 40225 53008 60006 80000 92100=
07070,1996-02-22 00:00:00,-9,1022.7,0.3,85,-11,20000,3.704,,,310,,,,,,,,,,,wg-a,,,,AAXX 22004 07070 12/70 03102 11090 21110 30108 40227 53003 60006 80000 90000=
07070,1996-02-22 03:00:00,-7,1022.6,-0.1,79,-10,20000,7.408,,,320,,,,,,,,,,,wg-a,,,,AAXX 22034 07070 12570 83204 11070 21100 30107 40226 58001 60006 885// 90300=
07070,1996-02-22 06:00:00,-10,1023.3,0.6,85,-12,10000,7.408,,,260,-11.6,-6.7,,,,,,,,,wg-a,,7,,AAXX 22064 07070 12660 72604 11100 21120 30113 40233 53006 60006 875// 90600 333 11067 21116 4/007=
07070,1996-02-22 09:00:00,-6,1023.8,0.7,86,-8,6000,11.112,,,240,,,,,,,,,,22,wg-a,,,,AAXX 22094 07070 02756 /2406 11060 21080 30120 40238 51007 61000 72272 86500 90900 333 ////=
07070,1996-02-22 12:00:00,-1,1022.6,-1,69,-6,12000,14.816,,,240,,,,,,,,,,,wg-a,,,,AAXX 22124 07070 02562 72408 11010 21060 30110 40226 58010 61000 858/1 91200 333 ////=
07070,1996-02-22 15:00:00,0,1021.1,-1.4,74,-4,15000,18.52,,,250,,,,,,,,,,,wg-a,,,,AAXX 22154 07070 12565 72510 10000 21040 30096 40211 56014 60006 82832 91500=
07070,1996-02-22 18:00:00,-1,1021.1,-0.1,74,-5,15000,11.112,,,210,-10.2,0.9,,,,,,,,,wg-a,,6,,AAXX 22184 07070 32/65 72106 11010 21050 30095 40211 56001 8707/ 91800 333 10009 21102 4/006=
07070,1996-02-22 21:00:00,-2,1020,-1.1,86,-4,12000,14.816,,,200,,,,,,,,,,22,wg-a,,,,AAXX 22214 07070 02762 82008 11020 21040 30084 40200 58011 61000 72272 875// 92100 333 ////=
07070,1996-02-23 00:00:00,-2,1018.3,-1.7,86,-4,10000,14.816,,,190,,,,,,,,,,22,wg-a,,,,AAXX 23004 07070 02760 81908 11020 21040 30067 40183 56017 61000 72272 885// 90000 333 6100=
07070,1996-02-23 03:00:00,-3,1016.7,-1.6,93,-4,6000,22.224,,,180,,,,,,,,,,71,wg-a,,,,AAXX 23034 07070 02456 81812 11030 21040 30051 40167 58016 61000 77172 885// 90300 333 ////=
07070,1996-02-23 06:00:00,-3,1016.2,-0.5,93,-4,2000,18.52,,,180,-2.9,-1,,,,,,,,10,wg-a,,6,,AAXX 23064 07070 02420 81810 11030 21040 30046 40162 56005 61000 71072 885// 90600 333 11010 21029 4/006 6100=
07070,1996-02-23 09:00:00,-3,1016.7,0.5,93,-4,2500,18.52,,,170,,,,0,,,,,,10,wg-a,,,,AAXX 23094 07070 12425 81710 11030 21040 30051 40167 50005 60007 71077 885// 90900=
07070,1996-02-23 12:00:00,-1,1016.9,0.3,86,-3,4500,18.52,,,180,,,,,,,,,,3,wg-a,,,,AAXX 23124 07070 02345 81810 11010 21030 30054 40169 52003 60006 70372 886// 91200 333 61000=
07070,1996-02-23 15:00:00,-1,1016.7,-0.2,93,-2,4000,18.52,,,150,,,,,,,,,,,wg-a,,,,AAXX 23154 07070 12/40 /1510 11010 21020 30052 40167 58002 60006 91500=
07070,1996-02-23 18:00:00,-1,1017.2,0.5,86,-3,4500,18.52,,,160,-2.9,-0.3,,,,,,,,10,wg-a,,7,,AAXX 23184 07070 32345 81610 11010 21030 30057 40172 53005 71022 886// 91800 333 11003 21029 4/007=
07070,1996-02-23 21:00:00,-1,1017,-0.2,93,-2,4000,18.52,,,170,,,,,,,,,,,wg-a,,,,AAXX 23214 07070 12/40 /1710 11010 21020 30055 40170 58002 60006 92100=
07070,1996-02-24 00:00:00,0,1016.5,-0.5,93,-1,3500,18.52,,,180,,,,,,,,,,10,wg-a,,,,AAXX 24004 07070 12235 81810 10000 21010 30050 40165 56005 60006 71022 886// 90000=
07070,1996-02-24 03:00:00,1,1014.8,-1.6,93,0,3000,18.52,,,180,,,,,,,,,,10,wg-a,,,,AAXX 24034 07070 12230 81810 10010 20000 30034 40148 56016 60006 71022 886// 90300=
07070,1996-02-24 06:00:00,1,1013.2,-1.6,93,0,2000,22.224,,,180,-1.1,1,,,,,,,,10,wg-a,,5,,AAXX 24064 07070 02220 81812 10010 20000 30018 40132 56016 60006 71022 885// 90600 333 10010 21011 4/005 60004=
07070,1996-02-24 09:00:00,1,1012.1,-1,93,0,4000,29.632,,,180,,,,,,,,,,10,wg-a,,,,AAXX 24094 07070 02440 81816 10010 20000 30008 40121 58010 61000 71062 885// 90900 333 ////=
07070,1996-02-24 12:00:00,2,1010.8,-1.3,93,1,6000,29.632,,,180,,,,,,,,,,21,wg-a,,,,AAXX 24124 07070 02456 71816 10020 20010 39995 40108 58013 61000 72162 875// 91200 333 6100=
07070,1996-02-24 15:00:00,5,1008.6,-2.1,81,2,12000,22.224,,,180,,,,,,,,,,,wg-a,,,,AAXX 24154 07070 12562 71812 10050 20020 39974 40086 56021 60006 85531 91500=
07070,1996-02-24 18:00:00,6,1007.7,-0.8,81,3,12000,25.928,,,170,0.9,5.6,,,,,,,,,wg-a,,0,,AAXX 24184 07070 32562 71714 10060 20030 39966 40077 56008 8557/ 91800 333 10056 20009 4/9999=
07070,1996-02-24 21:00:00,6,1006.7,-1,81,3,12000,29.632,,,190,,,,,,,,,,,wg-a,,,,AAXX 24214 07070 02662 71916 10060 20030 39956 40067 56010 61000 8251/ 92100 333 ////=
07070,1996-02-25 00:00:00,7,1006.6,-0.1,76,3,12000,29.632,,,200,,,,,,,,,,21,wg-a,,,,AAXX 25004 07070 02562 82016 10070 20030 39955 40066 56001 61000 72162 875// 90000 333 6100=
07070,1996-02-25 03:00:00,6,1005.6,-1,81,3,10000,22.224,,,190,,,,,,,,,,61,wg-a,,,,AAXX 25034 07070 02760 81912 10060 20030 39945 40056 58010 61000 76162 885// 90300 333 ////=
07070,1996-02-25 06:00:00,6,1005.5,-0.1,87,4,12000,22.224,,,200,5.5,6.8,,0,,,,,,21,wg-a,,0,,AAXX 25064 07070 02562 82012 10060 20040 39944 40055 57001 60004 72162 885// 90600 333 10068 20055 4/9999 60007=
07070,1996-02-25 09:00:00,7,1005.8,0.4,76,3,20000,25.928,,,190,,,,,,,,,,,wg-a,,,,AAXX 25094 07070 12670 81914 10070 20030 39948 40058 51004 60006 875// 90900=
07070,1996-02-25 12:00:00,10,1005.2,-0.5,62,3,25000,29.632,,,190,,,,,,,,,,3,wg-a,,,,AAXX 25124 07070 02775 71916 10100 20030 39943 40052 58005 61000 70362 8757/ 91200 333 6100=
07070,1996-02-25 15:00:00,13,1004.3,-0.8,51,3,500,29.632,,61.116,200,,,,,,,,,,,wg-a,,,,AAXX 25154 07070 12700 72016 10130 20030 39935 40043 56008 60006 8553/ 91500 333 91033=
07070,1996-02-25 18:00:00,10,1004.5,-0.1,66,4,20000,22.224,,,160,5.7,12.8,,,,,,,,2,wg-a,,,,AAXX 25184 07070 02770 71612 10100 20040 39936 40045 55001 61000 70262 875// 91800 333 10128 20057 ////=
07070,1996-02-25 21:00:00,8,1005.3,0.7,71,3,15000,29.632,,,170,,,,,,,,,,,wg-a,,,,AAXX 25214 07070 12765 61716 10080 20030 39943 40053 53007 60006 815/2 92100=
07070,1996-02-26 00:00:00,7,1006.9,1.6,76,3,15000,25.928,,,170,,,,,,,,,,,wg-a,,,,AAXX 26004 07070 12/65 71714 10070 20030 39959 40069 53016 60006 85032 90000=
07070,1996-02-26 03:00:00,6,1007,0,75,2,15000,25.928,,,180,,,,,,,,,,,wg-a,,,,AAXX 26034 07070 12765 71814 10060 20020 39959 40070 50000 60006 82532 90300=
07070,1996-02-26 06:00:00,7,1007.8,0.8,70,2,20000,25.928,,,190,5.7,10.5,,,,,,,,,wg-a,,,,AAXX 26064 07070 02770 71914 10070 20020 39967 40078 53008 60006 82532 90600 333 10105 20057 61000=
07070,1996-02-26 09:00:00,8,1009.5,1.8,71,3,20000,18.52,,,190,,,,,,,,,,,wg-a,,,,AAXX 26094 07070 12770 71910 10080 20030 39985 40095 51018 60006 82532 90900=
07070,1996-02-26 12:00:00,8,1011.5,1.9,81,5,15000,14.816,,,320,,,,,,,,,,,wg-a,,,,AAXX 26124 07070 12565 83208 10080 20050 30004 40115 53019 60006 888// 91200=
07070,1996-02-26 15:00:00,7,1012.6,1.1,81,4,12000,7.408,,,20,,,,,,,,,,1,wg-a,,,,AAXX 26154 07070 02462 70204 10070 20040 30015 40126 51011 61000 70162 85832 91500 333 ////=
07070,1996-02-26 18:00:00,6,1014.4,1.7,93,5,10000,3.704,,,70,5.9,10.3,,0,,,,,,61,wg-a,,,,AAXX 26184 07070 12460 80702 10060 20050 30032 40144 52017 60007 76162 878// 91800 333 10103 20059=
07070,1996-02-26 21:00:00,5,1015.7,1.3,93,4,8000,3.704,,,40,,,,1,,,,,,61,wg-a,,,,AAXX 26214 07070 12758 80402 10050 20040 30045 40157 51013 60017 76166 885// 92100=
07070,1996-02-27 00:00:00,4,1016.5,0.7,100,4,7000,7.408,,,330,,,,0,,,,,,3,wg-a,,,,AAXX 27004 07070 02457 83304 10040 20040 30052 40165 53007 60016 70362 885// 90000 333 60007=
07070,1996-02-27 03:00:00,4,1017,0.5,100,4,4500,7.408,,,310,,,,,,,,,,10,wg-a,,,,AAXX 27034 07070 12445 83104 10040 20040 30057 40170 51005 60006 71022 885// 90300=
07070,1996-02-27 06:00:00,4,1017.5,0.5,93,3,3000,3.704,,,350,3.9,5.9,,,,,1,,,10,wg-a,,,,AAXX 27064 07070 12530 83502 10040 20030 30062 40175 51005 60014 71022 885// 90600 333 10059 20039=
07070,1996-02-27 09:00:00,5,1019,1.5,93,4,500,11.112,,,350,,,,,,,,,,,wg-a,,,,AAXX 27094 07070 12/00 /3506 10050 20040 30077 40190 51015 60006 90900=
07070,1996-02-27 12:00:00,7,1019.7,0.8,93,6,6000,7.408,,,20,,,,0,,,,,,61,wg-a,,,,AAXX 27124 07070 02456 80204 10070 20060 30085 40197 51008 60006 76162 885// 91200 333 60007=
07070,1996-02-27 15:00:00,7,1019.5,-0.2,93,6,4000,14.816,,,40,,,,1,,,,,,10,wg-a,,,,AAXX 27154 07070 12340 80408 10070 20060 30083 40195 56002 60017 71066 875// 91500=
07070,1996-02-27 18:00:00,6,1020.4,0.9,93,5,3500,11.112,,,30,3.8,7.3,,1,,,,,,10,wg-a,,,,AAXX 27184 07070 12435 80306 10060 20050 30092 40204 53009 60017 71066 885// 91800 333 10073 20038=
07070,1996-02-27 21:00:00,5,1021.3,0.8,100,5,500,11.112,,,20,,,,1,,,,,,61,wg-a,,,,AAXX 27214 07070 12500 80206 10050 20050 30100 40213 51008 60017 76166 885// 92100=
07070,1996-02-28 00:00:00,4,1021.6,0.3,100,4,500,7.408,,,340,,,,1,,,,,,61,wg-a,,,,AAXX 28004 07070 02300 83404 10040 20040 30103 40216 51003 60026 76166 885// 90000 333 60017=
07070,1996-02-28 03:00:00,4,1021.3,-0.4,93,3,4500,7.408,,,340,,,,1,,,,,,10,wg-a,,,,AAXX 28034 07070 12245 83404 10040 20030 30099 40213 58004 60017 71062 887// 90300=
07070,1996-02-28 06:00:00,3,1022.2,0.9,93,2,4500,7.408,,,310,3.1,6.2,,,,,6,,,10,wg-a,,,,AAXX 28064 07070 12245 83104 10030 20020 30108 40222 53009 60064 71062 887// 90600 333 10062 20031=
07070,1996-02-28 09:00:00,4,1023.3,1.1,93,3,3500,3.704,,,320,,,,,,,,,,10,wg-a,,,,AAXX 28094 07070 12235 73202 10040 20030 30119 40233 51011 60006 71022 875// 90900=
07070,1996-02-28 12:00:00,7,1023.7,0.5,87,5,6000,7.408,,,340,,,,,,,,,,,wg-a,,,,AAXX 28124 07070 12456 73404 10070 20050 30124 40237 50005 60006 875// 91200=
07070,1996-02-28 15:00:00,7,1023.7,0.1,87,5,500,14.816,,,340,,,,,,,,,,,wg-a,,,,AAXX 28154 07070 12400 73408 10070 20050 30125 40237 53001 60006 875// 91500=
07070,1996-02-28 18:00:00,6,1025.2,1.4,93,5,3500,14.816,,,340,3.2,7.2,,,,,,,,10,wg-a,,,,AAXX 28184 07070 12435 73408 10060 20050 30139 40252 53014 60006 71022 875// 91800 333 10072 20032=
07070,1996-02-28 21:00:00,5,1025.9,0.7,93,4,3000,7.408,,,330,,,,,,,,,,10,wg-a,,,,AAXX 28214 07070 12430 73304 10050 20040 30146 40259 51007 60006 71022 875// 92100=
07070,1996-02-29 03:00:00,3,1026.5,0.5,93,2,3000,7.408,,,350,,,,,,,,,,10,wg-a,,,,AAXX 29034 07070 12630 73504 10030 20020 30151 40265 51005 60006 71022 875// 90300=
07070,1996-02-29 06:00:00,2,1027.5,0.9,93,1,2500,3.704,,,330,1.9,6.3,,,,,,,,11,wg-a,,,,AAXX 29064 07070 12725 73302 10020 20010 30160 40275 53009 60006 71122 875// 90600 333 10063 20019=
07070,1996-02-29 09:00:00,4,1029.3,1.9,93,3,2000,14.816,,,10,,,,,,,,,,10,wg-a,,,,AAXX 29094 07070 12/20 00108 10040 20030 30179 40293 53019 60006 71000 80000 90900=
07070,1996-02-29 12:00:00,10,1029.1,-0.2,66,4,3500,11.112,,,20,,,,,,,,,,10,wg-a,,,,AAXX 29124 07070 12/35 /0206 10100 20040 30179 40291 58002 60006 71011 80001 91200=
07070,1996-02-29 15:00:00,12,1028.7,-0.3,71,7,6000,22.224,,,360,,,,,,,,,,,wg-a,,,,AAXX 29154 07070 12/56 /3612 10120 20070 30176 40287 56003 60006 80001 91500=
07070,1996-02-29 18:00:00,6,1030.4,1.4,81,3,2000,22.224,,,340,1.3,13.4,,,,,,,,10,wg-a,,,,AAXX 29184 07070 12/20 /3412 10060 20030 30190 40304 53014 60006 71011 80001 91800 333 10134 20013=
07070,1996-02-29 21:00:00,4,1031.6,1.1,81,1,3000,14.816,,,350,,,,,,,,,,10,wg-a,,,,AAXX 29214 07070 12/30 73508 10040 20010 30201 40316 50011 60006 71011 8703/ 92100=
07070,1996-03-01 00:00:00,4,1031.3,-0.3,81,1,3000,18.52,,,340,,,,,,,,,,10,wg-a,,,,AAXX 01004 07070 12/30 73410 10040 20010 30198 40313 55003 60006 71022 8703/ 90000=
07070,1996-03-01 03:00:00,4,1030.4,-0.9,87,2,3500,18.52,,,340,,,,,,,,,,10,wg-a,,,,AAXX 01034 07070 12/35 /3410 10040 20020 30189 40304 58009 60006 71022 83032 90300=
07070,1996-03-01 06:00:00,3,1030.5,0.1,87,1,6000,14.816,,,330,2.7,5.6,,,,,,,,,wg-a,,,,AAXX 01064 07070 12656 73308 10030 20010 30190 40305 50001 60006 86532 90600 333 10056 20027=
07070,1996-03-01 09:00:00,4,1031,0.5,87,2,500,14.816,,,340,,,,,,,,,,,wg-a,,,,AAXX 01094 07070 12400 73408 10040 20020 30195 40310 50005 60006 875// 90900=
07070,1996-03-01 12:00:00,5,1029.5,-1.4,93,4,500,14.816,,,320,,,,,,,,,,20,wg-a,,,,AAXX 01124 07070 02300 83208 10050 20040 30181 40295 58014 61000 72052 882// 91200 333 6100=
07070,1996-03-01 15:00:00,7,1027.1,-2.3,81,4,500,22.224,,,340,,,,,,,,,,,wg-a,,,,AAXX 01154 07070 02400 83412 10070 20040 30158 40271 56023 61000 882// 91500 333 ////=
07070,1996-03-01 18:00:00,6,1026.5,-0.6,87,4,8000,25.928,,,340,1.8,6.6,,,,,,,,,wg-a,,,,AAXX 01184 07070 32/58 /3414 10060 20040 30152 40265 55006 91800 333 10066 20018=
07070,1996-03-01 21:00:00,5,1026.2,-0.4,87,3,6000,18.52,,,350,,,,,,,,,,,wg-a,,,,AAXX 01214 07070 12356 83510 10050 20030 30148 40262 55004 60006 886// 92100=
07070,1996-03-02 00:00:00,2,1027,0.7,87,0,10000,18.52,,,30,,,,,,,,,,,wg-a,,,,AAXX 02004 07070 12660 70310 10020 20000 30155 40270 51007 60006 875// 90000=
07070,1996-03-02 03:00:00,0,1026.9,-0.2,86,-2,10000,14.816,,,350,,,,,,,,,,,wg-a,,,,AAXX 02034 07070 12/60 03508 10000 21020 30153 40269 58002 60006 80000 90300=
07070,1996-03-02 06:00:00,-1,1027.6,0.7,93,-2,4500,14.816,,,10,-1.3,5.5,,,,,,,,10,wg-a,,,,AAXX 02064 07070 02/45 /0108 11010 21020 30160 40276 53007 60006 71011 86030 90600 333 10055 21013 61000=
07070,1996-03-02 09:00:00,1,1028.1,0.5,80,-2,500,14.816,,,350,,,,,,,,,,,wg-a,,,,AAXX 02094 07070 12300 23508 10010 21020 30165 40281 52005 60006 81101 90900=
07070,1996-03-02 12:00:00,3,1026.9,-1,65,-3,9000,14.816,,,360,,,,,,,,,,,wg-a,,,,AAXX 02124 07070 12459 33608 10030 21030 30155 40269 58010 60006 83101 91200=
07070,1996-03-02 15:00:00,5,1024.9,-1.9,41,-7,15000,18.52,,,340,,,,,,,,,,,wg-a,,,,AAXX 02154 07070 12565 23410 10050 21070 30136 40249 56019 60006 81102 91500=
07070,1996-03-02 18:00:00,2,1024.6,-0.5,75,-2,15000,11.112,,,350,-1,5.4,,,,,,,,,wg-a,,,,AAXX 02184 07070 12665 73506 10020 21020 30131 40246 55005 60006 83402 91800 333 10054 21010=
07070,1996-03-02 21:00:00,1,1023.5,-1.1,80,-2,12000,7.408,,,310,,,,,,,,,,,wg-a,,,,AAXX 02214 07070 12662 83104 10010 21020 30120 40235 58011 60006 875// 92100=
07070,1996-03-03 00:00:00,0,1022.1,-1.4,93,-1,3000,7.408,,,340,,,,,,,,,,10,wg-a,,,,AAXX 03004 07070 02230 83404 10000 21010 30106 40221 56014 61000 71072 875// 90000 333 6100=
07070,1996-03-03 03:00:00,0,1020.2,-1.9,93,-1,2000,3.704,,,210,,,,,,,,,,10,wg-a,,,,AAXX 03034 07070 12/20 /2102 10000 21010 30087 40202 58019 60006 710// 90300=
07070,1996-03-03 06:00:00,0,1019.8,-0.4,93,-1,1000,7.408,,,150,-0.1,1.7,,,,,,,,10,wg-a,,1,,AAXX 03064 07070 02110 81504 10000 21010 30083 40198 56004 61000 71076 885// 90600 333 10017 21001 4/001 6100=
07070,1996-03-03 09:00:00,1,1020.5,0.7,93,0,2200,14.816,,,150,,,,1,,,,,,10,wg-a,,,,AAXX 03094 07070 12222 81508 10010 20000 30090 40205 52007 60017 71076 885// 90900=
07070,1996-03-03 12:00:00,3,1020.5,0.1,81,0,6000,7.408,,,150,,,,,,,,,,1,wg-a,,,,AAXX 03124 07070 02456 71504 10030 20000 30091 40205 50001 60016 70176 872// 91200 333 61000=
07070,1996-03-03 15:00:00,4,1020.3,-0.1,65,-2,7000,7.408,,,80,,,,,,,,,,,wg-a,,,,AAXX 03154 07070 12557 70804 10040 21020 30090 40203 56001 60006 878// 91500=
07070,1996-03-03 18:00:00,2,1021.4,1,75,-2,8000,0,,,0,0,4,,,,,,,,,wg-a,,,,AAXX 03184 07070 32658 /0000 10020 21020 30100 40214 53010 81500 91800 333 10040 20000=
07070,1996-03-03 21:00:00,0,1022.2,0.7,86,-2,10000,7.408,,,310,,,,,,,,,,,wg-a,,,,AAXX 03214 07070 12660 73104 10000 21020 30107 40222 53007 60006 875// 92100=
07070,1996-03-04 00:00:00,-2,1022.4,0.1,93,-3,10000,3.704,,,300,,,,,,,,,,,wg-a,,,,AAXX 04004 07070 12660 /3002 11020 21030 30108 40224 52001 60006 81500 90000=
07070,1996-03-04 03:00:00,-3,1022,-0.4,93,-4,8000,3.704,,,340,,,,,,,,,,,wg-a,,,,AAXX 04034 07070 12/58 03402 11030 21040 30104 40220 58004 60006 80000 90300=
07070,1996-03-04 06:00:00,-5,1022.5,0.4,93,-6,4000,0,,,0,-5.3,1.7,,,,,1,,,10,wg-a,,,,AAXX 04064 07070 02/40 /0000 11050 21060 30108 40225 50004 60006 71000 80001 90600 333 10017 21053 60014=
07070,1996-03-04 09:00:00,0,1023.2,0.8,86,-2,3000,3.704,,,310,,,,,,,,,,10,wg-a,,,,AAXX 04094 07070 12/30 13102 10000 21020 30116 40232 51008 60006 71000 80001 90900=
07070,1996-03-04 12:00:00,4,1022.4,-0.6,60,-3,6000,11.112,,,360,,,,,,,,,,,wg-a,,,,AAXX 04124 07070 12556 /3606 10040 21030 30110 40224 58006 60006 82101 91200=
07070,1996-03-04 15:00:00,5,1021.3,-1,56,-3,7000,11.112,,,320,,,,,,,,,,,wg-a,,,,AAXX 04154 07070 12557 73206 10050 21030 30100 40213 56010 60006 81111 91500=
07070,1996-03-04 18:00:00,3,1021.5,0.1,75,-1,6000,7.408,,,280,-4.9,5.1,,,,,,,,,wg-a,,,,AAXX 04184 07070 12756 82804 10030 21010 30101 40215 53001 60006 875// 91800 333 10051 21049=
07070,1996-03-04 21:00:00,4,1022.3,0.8,87,2,500,11.112,,,320,,,,,,,,,,,wg-a,,,,AAXX 04214 07070 12400 83206 10040 20020 30109 40223 53008 60006 885// 92100=
07070,1996-03-05 00:00:00,4,1022,-0.3,93,3,6000,11.112,,,310,,,,,,,,,,21,wg-a,,,,AAXX 05004 07070 02756 83106 10040 20030 30106 40220 56003 61000 72162 885// 90000 333 6100=
07070,1996-03-05 06:00:00,3,1023.8,1.3,100,3,4500,14.816,,,310,3.3,3.8,,0,,,,,,10,wg-a,,,,AAXX 05064 07070 02445 83108 10030 20030 30124 40238 53013 60004 71062 885// 90600 333 10038 20033 60007=
07070,1996-03-05 09:00:00,5,1025.4,1.6,87,3,6000,14.816,,,320,,,,,,,,,,51,wg-a,,,,AAXX 05094 07070 02356 83208 10050 20030 30140 40254 51016 61000 75165 887// 90900 333 ////=
07070,1996-03-05 12:00:00,6,1025.6,0.3,81,3,9000,14.816,,,310,,,,,,,,,,3,wg-a,,,,AAXX 05124 07070 02459 73108 10060 20030 30143 40256 50003 61000 70352 878// 91200 333 6100=
07070,1996-03-05 15:00:00,6,1025.6,0,81,3,9000,11.112,,,290,,,,,,,,,,21,wg-a,,,,AAXX 05154 07070 02459 72906 10060 20030 30143 40256 50000 61000 72162 878// 91500 333 ////=
07070,1996-03-05 17:00:00,4,1026.7,1,87,2,8000,11.112,,,320,3.3,6.9,,,,,,,,3,wg-a,,,,AAXX 05174 07070 02458 73206 10040 20020 30153 40267 52010 61000 70362 878// 91700 333 10069 20033 ////=
07070,1996-03-05 18:00:00,4,1026.7,1,87,2,8000,11.112,,,340,3.3,6.9,,,,,,,,3,wg-a,,,,AAXX 05184 07070 02458 73406 10040 20020 30153 40267 52010 61000 70362 878// 91800 333 10069 20033 ////=
07070,1996-03-05 21:00:00,4,1027.4,0.7,87,2,8000,14.816,,,340,,,,,,,,,,,wg-a,,,,AAXX 05214 07070 12458 83408 10040 20020 30160 40274 52007 60006 885// 92100=
07070,1996-03-06 00:00:00,3,1027.6,0.2,93,2,7000,7.408,,,350,,,,,,,,,,,wg-a,,,,AAXX 06004 07070 12457 83504 10030 20020 30162 40276 52002 60006 885// 90000=
07070,1996-03-06 03:00:00,3,1027.7,0,87,1,6000,3.704,,,30,,,,,,,,,,,wg-a,,,,AAXX 06034 07070 12556 80302 10030 20010 30162 40277 50000 60006 885// 90300=
07070,1996-03-06 06:00:00,2,1027.6,-0.1,93,1,500,3.704,,,350,2.1,4.2,,,,,,,,,wg-a,,,,AAXX 06064 07070 02500 83502 10020 20010 30161 40276 56001 60006 885// 90600 333 10042 20021 61000=
07070,1996-03-06 09:00:00,3,1027.6,0.1,81,0,9000,11.112,,,60,,,,,,,,,,,wg-a,,,,AAXX 06094 07070 12559 80606 10030 20000 30162 40276 50001 60006 885// 90900=
07070,1996-03-06 12:00:00,5,1026.5,-1.1,75,1,10000,7.408,,,30,,,,,,,,,,,wg-a,,,,AAXX 06124 07070 12560 80304 10050 20010 30151 40265 58011 60006 888// 91200=
07070,1996-03-06 15:00:00,5,1024.7,-1.7,81,2,9000,18.52,,,360,,,,,,,,,,,wg-a,,,,AAXX 06154 07070 12559 83610 10050 20020 30134 40247 58017 60006 888// 91500=
07070,1996-03-06 18:00:00,4,1023.9,-0.9,87,2,8000,7.408,,,340,2.1,5.5,,,,,,,,,wg-a,,,,AAXX 06184 07070 12658 73404 10040 20020 30125 40239 56009 60006 875// 91800 333 10055 20021=
07070,1996-03-06 21:00:00,4,1022.9,-1,93,3,6000,7.408,,,290,,,,,,,,,,60,wg-a,,,,AAXX 06214 07070 02456 72904 10040 20030 30115 40229 58010 61000 76062 875// 92100 333 ////=
07070,1996-03-07 00:00:00,3,1020.7,-2.2,87,1,6000,18.52,,,340,,,,,,,,,,1,wg-a,,,,AAXX 07004 07070 02756 73410 10030 20010 30093 40207 56022 61000 70162 875// 90000 333 6100=
07070,1996-03-07 03:00:00,2,1018.3,-2.4,93,1,4000,11.112,,,340,,,,,,,,,,10,wg-a,,,,AAXX 07034 07070 12340 73406 10020 20010 30069 40183 58024 60006 71022 876// 90300=
07070,1996-03-07 06:00:00,2,1015.8,-2.5,93,1,3500,11.112,,,350,1.7,4.5,,,,,,,,10,wg-a,,,,AAXX 07064 07070 02435 73506 10020 20010 30044 40158 56025 61000 71062 875// 90600 333 10045 20017 6100=
07070,1996-03-07 09:00:00,3,1014.8,-0.9,87,1,8000,18.52,,,40,,,,,,,,,,,wg-a,,,,AAXX 07094 07070 12458 70410 10030 20010 30035 40148 57009 60006 878// 90900=
07070,1996-03-07 12:00:00,4,1014.8,-0,87,2,500,18.52,,,100,,,,0,,,,,,60,wg-a,,,,AAXX 07124 07070 02400 71010 10040 20020 30035 40148 55000 60006 76086 878// 91200 333 60007=
07070,1996-03-07 15:00:00,5,1014.9,0.2,81,2,6000,25.928,,,110,,,,0,,,,,,25,wg-a,,,,AAXX 07154 07070 12456 71114 10050 20020 30037 40149 53002 60007 72586 878// 91500=
07070,1996-03-07 18:00:00,3,1016.9,1.9,81,0,6000,22.224,,,100,1.7,4.8,,,,,,,,1,wg-a,,,,AAXX 07184 07070 32556 71012 10030 20000 30056 40169 53019 70186 875// 91800 333 10048 20017=
07070,1996-03-07 21:00:00,3,1018,1.1,87,1,7000,25.928,,,100,,,,,,,,,,,wg-a,,,,AAXX 07214 07070 12757 81014 10030 20010 30067 40180 51011 60006 8553/ 92100=
07070,1996-03-08 00:00:00,2,1018.9,0.8,80,-1,7000,22.224,,,110,,,,,,,,,,,wg-a,,,,AAXX 08004 07070 12/57 31112 10020 21010 30075 40189 51008 60006 80001 90000=
07070,1996-03-08 03:00:00,1,1019.8,0.9,86,-1,7000,7.408,,,120,,,,,,,,,,,wg-a,,,,AAXX 08034 07070 12757 71204 10010 21010 30084 40198 51009 60006 875// 90300=
07070,1996-03-08 06:00:00,1,1020.6,0.7,80,-2,500,18.52,,,110,1.2,3.5,,,,,1,,,,wg-a,,,,AAXX 08064 07070 02/00 /1110 10010 21020 30091 40206 53007 60006 81031 90600 333 10035 20012 60014=
07070,1996-03-08 12:00:00,8,1020.2,-0.5,66,2,0,18.52,,,130,,,,,,,,,,,wg-a,,,,AAXX 08124 07070 12/// /1310 10080 20020 30090 40202 58005 60006 80002 91200=
07070,1996-03-08 15:00:00,11,1018.9,-1.2,54,2,6000,22.224,,,130,,,,,,,,,,,wg-a,,,,AAXX 08154 07070 12/56 /1312 10110 20020 30078 40189 58012 60006 80002 91500=
07070,1996-03-08 18:00:00,6,1019.2,0.2,75,2,500,22.224,,,110,0.4,10.8,,,,,,,,,wg-a,,,,AAXX 08184 07070 12/00 /1112 10060 20020 30080 40192 53002 60006 85030 91800 333 10108 20004=
07070,1996-03-08 21:00:00,4,1019.8,0.5,75,0,6000,3.704,,,40,,,,,,,,,,,wg-a,,,,AAXX 08214 07070 12/56 00402 10040 20000 30085 40198 51005 60006 80000 92100=
07070,1996-03-09 00:00:00,4,1020.8,0.9,70,-1,500,14.816,,,130,,,,,,,,,,,wg-a,,,,AAXX 09004 07070 12700 /1308 10040 21010 30094 40208 53009 60006 86500 90000=
07070,1996-03-09 03:00:00,0,1020.9,0,86,-2,4500,7.408,,,90,,,,,,,,,,10,wg-a,,,,AAXX 09034 07070 12/45 00904 10000 21020 30094 40209 50000 60006 71011 80000 90300=
07070,1996-03-09 06:00:00,-1,1021.5,0.5,86,-3,4000,11.112,,,90,-1,5.8,,,,,,,,10,wg-a,,,,AAXX 09064 07070 12/40 00906 11010 21030 30099 40215 53005 60006 71000 80000 90600 333 10058 21010=
07070,1996-03-09 09:00:00,5,1022.2,1,65,-1,4500,14.816,,,100,,,,,,,,,,10,wg-a,,,,AAXX 09094 07070 12/45 /1008 10050 21010 30109 40222 51010 60006 71000 80001 90900=
07070,1996-03-09 15:00:00,13,1019.9,-0.8,51,3,7000,14.816,,,110,,,,,,,,,,,wg-a,,,,AAXX 09154 07070 12/57 /1108 10130 20030 30089 40199 58008 60006 80001 91500=
07070,1996-03-09 18:00:00,5,1021.6,1.4,75,1,3500,14.816,,,90,-1.1,13.1,,,,,,,,10,wg-a,,,,AAXX 09184 07070 12/35 00908 10050 20010 30103 40216 53014 60006 71000 80000 91800 333 10131 21011=
07070,1996-03-09 21:00:00,3,1022.9,1.2,75,-1,500,11.112,,,110,,,,,,,,,,,wg-a,,,,AAXX 09214 07070 12/00 01106 10030 21010 30115 40229 52012 60006 80000 92100=
07070,1996-03-10 00:00:00,0,1024.1,1,80,-3,500,11.112,,,80,,,,,,,,,,,wg-a,,,,AAXX 10004 07070 12/00 00806 10000 21030 30125 40241 51010 60006 80000 90000=
07070,1996-03-10 03:00:00,-2,1024.4,0.3,86,-4,500,3.704,,,70,,,,,,,,,,,wg-a,,,,AAXX 10034 07070 12/00 00702 11020 21040 30128 40244 51003 60006 80000 90300=
07070,1996-03-10 06:00:00,-3,1025.3,0.8,86,-5,3200,7.408,,,60,-3.5,5.2,,,,,,,,10,wg-a,,,,AAXX 10064 07070 12/32 00604 11030 21050 30136 40253 53008 60006 71000 80000 90600 333 10052 21035=
07070,1996-03-10 09:00:00,2,1025.4,0.3,69,-3,500,25.928,,,80,,,,,,,,,,,wg-a,,,,AAXX 10094 07070 12/00 00814 10020 21030 30139 40254 50003 60006 80000 90900=
07070,1996-03-10 12:00:00,6,1024.8,-0.4,49,-4,6000,22.224,,,60,,,,,,,,,,,wg-a,,,,AAXX 10124 07070 12/56 00612 10060 21040 30135 40248 57004 60006 80000 91200=
07070,1996-03-10 15:00:00,8,1023.3,-1.4,42,-4,8000,25.928,,,80,,,,,,,,,,,wg-a,,,,AAXX 10154 07070 12/58 00814 10080 21040 30121 40233 56014 60006 80000 91500=
07070,1996-03-10 18:00:00,2,1023.5,-0,64,-4,8000,18.52,,,80,-3.5,8.7,,,,,,,,,wg-a,,,,AAXX 10184 07070 12/58 /0810 10020 21040 30121 40235 55000 60006 80001 91800 333 10087 21035=
07070,1996-03-10 21:00:00,-1,1023.9,0.2,69,-6,9000,3.704,,,70,,,,,,,,,,,wg-a,,,,AAXX 10214 07070 12/59 00702 11010 21060 30123 40239 50002 60006 80000 92100=
07070,1996-03-11 03:00:00,-4,1022.2,-1.1,80,-7,8000,0,,,0,,,,,,,,,,,wg-a,,,,AAXX 11034 07070 12/58 00000 11040 21070 30105 40222 56011 60006 80000 90300=
07070,1996-03-11 06:00:00,-6,1021.8,-0.5,86,-8,6000,0,,,0,-6.3,2.3,,,,,,,,,wg-a,,,,AAXX 11064 07070 12/56 00000 11060 21080 30100 40218 55005 60006 80000 90600 333 10023 21063=
07070,1996-03-11 09:00:00,1,1020.4,-1.1,64,-5,6000,3.704,,,330,,,,,,,,,,,wg-a,,,,AAXX 11094 07070 12/56 03302 10010 21050 30089 40204 58011 60006 80000 90900=
07070,1996-03-11 12:00:00,7,1018.4,-1.7,39,-6,10000,3.704,,,310,,,,,,,,,,,wg-a,,,,AAXX 11124 07070 12/60 /3102 10070 21060 30072 40184 58017 60006 80001 91200=
07070,1996-03-11 21:00:00,-2,1017.8,1,80,-5,500,14.816,,,20,,,,,,,,,,,wg-a,,,,AAXX 11214 07070 12/00 /0208 11020 21050 30062 40178 51010 60006 80001 92100=
07070,1996-03-12 00:00:00,-4,1017.5,-0.4,80,-7,6000,3.704,,,50,,,,,,,,,,,wg-a,,,,AAXX 12004 07070 12/56 00502 11040 21070 30058 40175 56004 60006 80000 90000=
07070,1996-03-12 03:00:00,-5,1017,-0.5,79,-8,8000,18.52,,,80,,,,,,,,,,,wg-a,,,,AAXX 12034 07070 12/58 00810 11050 21080 30053 40170 57005 60006 80000 90300=
07070,1996-03-12 06:00:00,-7,1016.9,-0.2,86,-9,6000,14.816,,,90,-6.7,3.2,,,,,,,,,wg-a,,,,AAXX 12064 07070 12/56 /0908 11070 21090 30051 40169 58002 60006 81030 90600 333 10032 21067=
07070,1996-03-12 09:00:00,-2,1016.7,0.1,63,-8,7000,29.632,,,100,,,,,,,,,,,wg-a,,,,AAXX 12094 07070 12/57 /1016 11020 21080 30052 40167 53001 60006 80001 90900=
07070,1996-03-12 12:00:00,2,1014.4,-2.2,44,-9,10000,25.928,,,100,,,,,,,,,,,wg-a,,,,AAXX 12124 07070 12/60 01014 10020 21090 30030 40144 58022 60006 80000 91200=
07070,1996-03-12 15:00:00,3,1012.4,-1.9,35,-11,12000,25.928,,,110,,,,,,,,,,,wg-a,,,,AAXX 12154 07070 12/62 01114 10030 21110 30011 40124 56019 60006 80000 91500=
07070,1996-03-12 18:00:00,-1,1012,-0.6,46,-11,9000,18.52,,,100,-6.7,3,,,,,,,,,wg-a,,,,AAXX 12184 07070 12/59 /1010 11010 21110 30005 40120 56006 60006 80001 91800 333 10030 21067=
07070,1996-03-12 21:00:00,-5,1012.5,0.4,68,-10,10000,14.816,,,90,,,,,,,,,,,wg-a,,,,AAXX 12214 07070 12/60 00908 11050 21100 30009 40125 52004 60006 80000 92100=
07070,1996-03-13 00:00:00,-4,1012.3,-0.2,68,-9,8000,25.928,,,100,,,,,,,,,,,wg-a,,,,AAXX 13004 07070 12/58 21014 11040 21090 30007 40123 56002 60006 80001 90000=
07070,1996-03-13 03:00:00,-6,1011.8,-0.6,79,-9,8000,18.52,,,80,,,,,,,,,,,wg-a,,,,AAXX 13034 07070 12/58 40810 11060 21090 30001 40118 55006 60006 80001 90300=
07070,1996-03-13 06:00:00,-7,1011.6,-0.2,79,-10,3000,11.112,,,90,-7.6,-1.2,,,,,,,,10,wg-a,,,,AAXX 13064 07070 12/30 /0906 11070 21100 39999 40116 55002 60006 71011 80001 90600 333 11012 21076=
07070,1996-03-13 09:00:00,-2,1010.6,-0.8,69,-7,4000,29.632,,,100,,,,,,,,,,10,wg-a,,,,AAXX 13094 07070 12/40 /1016 11020 21070 39991 40106 58008 60006 71022 86030 90900=
07070,1996-03-13 12:00:00,2,1009.2,-1.2,44,-9,6000,29.632,,,100,,,,,,,,,,,wg-a,,,,AAXX 13124 07070 12/56 /1016 10020 21090 39979 40092 57012 60006 80001 91200=
07070,1996-03-13 15:00:00,4,1007,-2.1,38,-9,8000,29.632,,,100,,,,,,,,,,,wg-a,,,,AAXX 13154 07070 12/58 71016 10040 21090 39958 40070 56021 60006 80001 91500=
07070,1996-03-13 18:00:00,0,1007,-0.2,55,-8,8000,18.52,,,90,-7.4,3.9,,,,,,,,,wg-a,,,,AAXX 13184 07070 12/58 70910 10000 21080 39956 40070 55002 60006 80002 91800 333 10039 21074=
07070,1996-03-13 21:00:00,-1,1007,0,64,-7,6000,22.224,,,90,,,,,,,,,,,wg-a,,,,AAXX 13214 07070 12/56 70912 11010 21070 39956 40070 50000 60006 80002 92100=
07070,1996-03-14 00:00:00,-2,1007,-0.1,69,-7,4500,11.112,,,110,,,,,,,,,,10,wg-a,,,,AAXX 14004 07070 12/45 /1106 11020 21070 39955 40070 58001 60006 71022 82031 90000=
07070,1996-03-14 03:00:00,-3,1006.2,-0.8,68,-8,4500,3.704,,,150,,,,,,,,,,10,wg-a,,,,AAXX 14034 07070 12/45 /1502 11030 21080 39947 40062 57008 60006 71022 80001 90300=
07070,1996-03-14 06:00:00,-4,1005.7,-0.5,80,-7,3500,7.408,,,100,-4.5,0.1,,,,,,,,10,wg-a,,,,AAXX 14064 07070 12/35 31004 11040 21070 39942 40057 56005 60006 71011 80001 90600 333 10001 21045=
07070,1996-03-14 09:00:00,2,1005.6,0.1,60,-5,4500,18.52,,,110,,,,,,,,,,10,wg-a,,,,AAXX 14094 07070 12/45 /1110 10020 21050 39943 40056 53001 60006 71000 80001 90900=
07070,1996-03-14 12:00:00,8,1004.9,-0.4,49,-2,4500,14.816,,,140,,,,,,,,,,,wg-a,,,,AAXX 14124 07070 12/45 /1408 10080 21020 39939 40049 57004 60006 91200=
07070,1996-03-14 15:00:00,11,1004.4,-0.4,50,1,500,18.52,,,120,,,,,,,,,,,wg-a,,,,AAXX 14154 07070 12/00 /1210 10110 20010 39935 40044 56004 60006 80001 91500=
07070,1996-03-14 18:00:00,5,1005.5,0.9,65,-1,500,11.112,,,90,-4.1,11.3,,,,,,,,,wg-a,,,,AAXX 14184 07070 12/00 /0906 10050 21010 39944 40055 53009 60006 80001 91800 333 10113 21041=
07070,1996-03-14 21:00:00,4,1006.3,0.7,65,-2,0,3.704,,,100,,,,,,,,,,,wg-a,,,,AAXX 14214 07070 12/// 71002 10040 21020 39951 40063 51007 60006 81031 92100=
07070,1996-03-15 00:00:00,3,1006.8,0.5,70,-2,6000,11.112,,,110,,,,,,,,,,,wg-a,,,,AAXX 15004 07070 12/56 71106 10030 21020 39956 40068 51005 60006 85031 90000=
07070,1996-03-15 03:00:00,4,1006.8,-0,70,-1,500,7.408,,,60,,,,,,,,,,,wg-a,,,,AAXX 15034 07070 12/00 70604 10040 21010 39956 40068 55000 60006 86031 90300=
07070,1996-03-15 06:00:00,4,1007,0.2,70,-1,4500,11.112,,,110,2.2,5.4,,,,,,,,10,wg-a,,,,AAXX 15064 07070 12745 71106 10040 21010 39958 40070 53002 60006 71022 8657/ 90600 333 10054 20022=
07070,1996-03-15 09:00:00,6,1007.5,0.6,61,-1,500,14.816,,,90,,,,,,,,,,,wg-a,,,,AAXX 15094 07070 12700 70908 10060 21010 39964 40075 52006 60006 8357/ 90900=
07070,1996-03-15 12:00:00,10,1006.9,-0.4,50,0,6000,14.816,,,100,,,,,,,,,,,wg-a,,,,AAXX 15124 07070 12856 71008 10100 20000 39960 40069 57004 60006 8703/ 91200=
07070,1996-03-15 15:00:00,14,1005.5,-1.3,41,1,8000,14.816,,,90,,,,,,,,,,,wg-a,,,,AAXX 15154 07070 12/58 /0908 10140 20010 39947 40055 56013 60006 81032 91500=
07070,1996-03-15 18:00:00,8,1006.2,0.5,57,0,8000,3.704,,,130,3.8,14.6,,,,,,,,,wg-a,,,,AAXX 15184 07070 12/58 51302 10080 20000 39952 40062 53005 60006 83031 91800 333 10146 20038=
07070,1996-03-15 21:00:00,4,1006.6,0.2,70,-1,10000,3.704,,,60,,,,,,,,,,,wg-a,,,,AAXX 15214 07070 12/60 70602 10040 21010 39954 40066 51002 60006 80001 92100=
07070,1996-03-16 00:00:00,3,1006.7,0.1,65,-3,7000,3.704,,,90,,,,,,,,,,,wg-a,,,,AAXX 16004 07070 12/57 70902 10030 21030 39955 40067 53001 60006 82032 90000=
07070,1996-03-16 03:00:00,-1,1006.4,-0.5,86,-3,6000,0,,,0,,,,,,,,,,,wg-a,,,,AAXX 16034 07070 12/56 70000 11010 21030 39950 40064 58005 60006 81032 90300=
07070,1996-03-16 06:00:00,-2,1007.4,0.9,86,-4,4000,0,,,0,-2.2,7.9,,,,,,,,10,wg-a,,,,AAXX 16064 07070 12/40 /0000 11020 21040 39959 40074 53009 60006 71022 80002 90600 333 10079 21022=
07070,1996-03-16 09:00:00,4,1007.9,0.8,75,0,3000,14.816,,,100,,,,,,,,,,10,wg-a,,,,AAXX 16094 07070 12/30 31008 10040 20000 39967 40079 52008 60006 71011 80001 90900=
07070,1996-03-16 12:00:00,9,1007.6,-0.1,57,1,3500,3.704,,,110,,,,,,,,,,10,wg-a,,,,AAXX 16124 07070 12/35 /1102 10090 20010 39966 40076 58001 60006 71011 80001 91200=
07070,1996-03-16 15:00:00,11,1007.8,0.3,50,1,3700,3.704,,,80,,,,,,,,,,10,wg-a,,,,AAXX 16154 07070 12/37 /0802 10110 20010 39969 40078 53003 60006 71000 80001 91500=
07070,1996-03-16 18:00:00,6,1009.6,1.6,70,1,2700,7.408,,,100,-2.3,11.4,,,,,,,,10,wg-a,,,,AAXX 16184 07070 12/27 /1004 10060 20010 39985 40096 53016 60006 71000 80001 91800 333 10114 21023=
07070,1996-03-16 21:00:00,4,1012,2.3,81,1,2500,3.704,,,320,,,,,,,,,,10,wg-a,,,,AAXX 16214 07070 12/25 /3202 10040 20010 30008 40120 53023 60006 71011 86030 92100=
07070,1996-03-17 00:00:00,6,1013.5,1.5,75,2,2000,14.816,,,320,,,,,,,,,,10,wg-a,,,,AAXX 17004 07070 12720 83208 10060 20020 30023 40135 53015 60006 71022 885// 90000=
07070,1996-03-17 03:00:00,4,1014.7,1.1,81,1,1800,11.112,,,360,,,,,,,,,,10,wg-a,,,,AAXX 17034 07070 12718 83606 10040 20010 30034 40147 51011 60006 71022 885// 90300=
07070,1996-03-17 06:00:00,4,1016.1,1.4,81,1,1800,0,,,0,2.7,5.8,,,,,,,,10,wg-a,,,,AAXX 17064 07070 12718 80000 10040 20010 30048 40161 52014 60006 71022 885// 90600 333 10058 20027=
07070,1996-03-17 09:00:00,5,1017.6,1.5,81,2,1500,3.704,,,340,,,,,,,,,,10,wg-a,,,,AAXX 17094 07070 12715 83402 10050 20020 30063 40176 51015 60006 71022 885// 90900=
07070,1996-03-17 12:00:00,7,1017.8,0.3,70,2,2000,11.112,,,320,,,,,,,,,,10,wg-a,,,,AAXX 17124 07070 12720 83206 10070 20020 30066 40178 50003 60006 71022 875// 91200=
07070,1996-03-17 15:00:00,8,1017.3,-0.4,66,2,1800,7.408,,,20,,,,,,,,,,10,wg-a,,,,AAXX 17154 07070 12718 70204 10080 20020 30062 40173 57004 60006 71022 875// 91500=
07070,1996-03-17 18:00:00,5,1017.9,0.4,75,1,1800,11.112,,,80,3.5,8.5,,,,,,,,11,wg-a,,,,AAXX 17184 07070 12/18 80806 10050 20010 30066 40179 53004 60006 71122 82037 91800 333 10085 20035=
07070,1996-03-17 21:00:00,2,1018.7,0.7,87,0,3000,0,,,0,,,,,,,,,,10,wg-a,,,,AAXX 17214 07070 12/30 70000 10020 20000 30073 40187 52007 60006 71022 83031 92100=
07070,1996-03-18 00:00:00,1,1018.8,0.1,93,0,2500,0,,,0,,,,,,,,,,10,wg-a,,,,AAXX 18004 07070 12/25 70000 10010 20000 30074 40188 52001 60006 71022 83032 90000=
07070,1996-03-18 03:00:00,1,1018.2,-0.6,93,0,2000,3.704,,,70,,,,,,,,,,10,wg-a,,,,AAXX 18034 07070 12/20 70702 10010 20000 30068 40182 58006 60006 71022 82032 90300=
07070,1996-03-18 06:00:00,0,1018.6,0.3,93,-1,1100,7.408,,,70,-0.2,4.8,,,,,,,,10,wg-a,,,,AAXX 18064 07070 12811 70704 10000 21010 30071 40186 53003 60006 71022 8703/ 90600 333 10048 21002=
07070,1996-03-18 12:00:00,9,1018.2,-0.6,61,2,3000,3.704,,,350,,,,,,,,,,10,wg-a,,,,AAXX 18124 07070 12830 73502 10090 20020 30071 40182 58006 60006 71022 86032 91200=
07070,1996-03-18 15:00:00,12,1016.9,-1.2,50,2,4500,7.408,,,350,,,,,,,,,,10,wg-a,,,,AAXX 18154 07070 12/45 73504 10120 20020 30059 40169 56012 60006 71022 8703/ 91500=
07070,1996-03-18 18:00:00,9,1017.5,0.5,66,3,4000,3.704,,,120,0,12.3,,,,,,,,10,wg-a,,,,AAXX 18184 07070 12/40 71202 10090 20030 30064 40175 53005 60006 71022 8703/ 91800 333 10123 20000=
07070,1996-03-18 21:00:00,6,1018.1,0.5,75,2,4000,3.704,,,200,,,,,,,,,,10,wg-a,,,,AAXX 18214 07070 12/40 32002 10060 20020 30069 40181 51005 60006 71011 83030 92100=
07070,1996-03-19 00:00:00,2,1018.5,0.2,87,0,3500,0,,,0,,,,,,,,,,10,wg-a,,,,AAXX 19004 07070 12/35 30000 10020 20000 30071 40185 53002 60006 71000 83030 90000=
07070,1996-03-19 03:00:00,1,1018,-0.5,86,-1,3000,0,,,0,,,,,,,,,,10,wg-a,,,,AAXX 19034 07070 12/30 70000 10010 21010 30066 40180 58005 60006 71011 8703/ 90300=
07070,1996-03-19 06:00:00,0,1017.8,-0.3,93,-1,1500,3.704,,,10,-0.7,8.5,,,,,,,,10,wg-a,,,,AAXX 19064 07070 12/15 /0102 10000 21010 30063 40178 55003 60006 71011 83031 90600 333 10085 21007=
07070,1996-03-19 09:00:00,5,1017.6,0.1,87,3,2200,0,,,0,,,,,,,,,,10,wg-a,,,,AAXX 19094 07070 12/22 /0000 10050 20030 30064 40176 50001 60006 71022 83032 90900=
07070,1996-03-19 12:00:00,12,1016.1,-1.3,50,2,4000,7.408,,,90,,,,,,,,,,10,wg-a,,,,AAXX 19124 07070 12/40 30904 10120 20020 30051 40161 58013 60006 71011 81032 91200=
07070,1996-03-19 15:00:00,13,1013.7,,41,0,9000,11.112,,,40,,,,,,,,,,,wg-a,,,,AAXX 19154 07070 32659 /0406 10130 20000 30028 40137 81101 91500=
07070,1996-03-19 18:00:00,9,1012.7,-1.1,57,1,500,7.408,,,40,-0.6,13,,,,,,,,,wg-a,,,,AAXX 19184 07070 12700 /0404 10090 20010 30017 40127 56011 60006 81400 91800 333 10130 21006=
07070,1996-03-19 21:00:00,6,1012.4,-0.5,65,0,10000,7.408,,,30,,,,,,,,,,,wg-a,,,,AAXX 19214 07070 12/60 60304 10060 20000 30012 40124 58005 60006 85031 92100=
07070,1996-03-20 00:00:00,2,1011.8,-0.7,80,-1,6000,7.408,,,40,,,,,,,,,,,wg-a,,,,AAXX 20004 07070 12/56 70404 10020 21010 30005 40118 57007 60006 83032 90000=
07070,1996-03-20 03:00:00,0,1011.1,-0.8,93,-1,500,7.408,,,80,,,,,,,,,,,wg-a,,,,AAXX 20034 07070 12/00 70804 10000 21010 39997 40111 58008 60006 80002 90300=
07070,1996-03-20 06:00:00,0,1010.5,-0.6,93,-1,2000,7.408,,,90,-1.1,9.1,,,,,,,,10,wg-a,,,,AAXX 20064 07070 12/20 70904 10000 21010 39991 40105 56006 60006 71022 80001 90600 333 10091 21011=
07070,1996-03-20 09:00:00,8,1009.9,-0.3,71,3,2500,7.408,,,100,,,,,,,,,,10,wg-a,,,,AAXX 20094 07070 12/25 01004 10080 20030 39988 40099 56003 60006 71011 80000 90900=
07070,1996-03-20 12:00:00,13,1008.6,-1.1,54,4,4000,18.52,,,150,,,,,,,,,,10,wg-a,,,,AAXX 20124 07070 12/40 /1510 10130 20040 39977 40086 58011 60006 71011 80002 91200=
07070,1996-03-20 15:00:00,12,1008.7,0.1,62,5,500,18.52,,,240,,,,,,,,,,61,wg-a,,,,AAXX 20154 07070 02700 82410 10120 20050 39978 40087 53001 61000 76162 8252/ 91500 333 ////=
07070,1996-03-20 18:00:00,9,1009.4,0.6,87,7,3500,11.112,,,180,-0.2,13.6,,1,,,,,,10,wg-a,,,,AAXX 20184 07070 12435 81806 10090 20070 39984 40094 51006 60017 71062 8652/ 91800 333 10136 21002=
07070,1996-03-20 21:00:00,6,1010.2,0.7,100,6,4000,11.112,,,180,,,,,,,,,,10,wg-a,,,,AAXX 20214 07070 02740 31806 10060 20060 39991 40102 51007 61000 71011 83500 92100 333 ////=
07070,1996-03-21 00:00:00,4,1010.4,0.1,100,4,6000,0,,,0,,,,,,,,,,3,wg-a,,,,AAXX 21004 07070 02756 30000 10040 20040 39992 40104 53001 61000 70361 83500 90000 333 ////=
07070,1996-03-21 03:00:00,5,1010.1,-0.3,93,4,6000,14.816,,,180,,,,,,,,,,,wg-a,,,,AAXX 21034 07070 12/56 21808 10050 20040 39989 40101 58003 60006 82030 90300=
07070,1996-03-21 06:00:00,6,1010.5,0.4,93,5,500,14.816,,,180,3.7,8.5,,,,,1,,,60,wg-a,,,,AAXX 21064 07070 02700 81808 10060 20050 39993 40105 53004 60014 76061 8257/ 90600 333 10085 20037 61000=
07070,1996-03-21 09:00:00,7,1010,-0.4,93,6,9000,11.112,,,160,,,,1,,,,,,61,wg-a,,,,AAXX 21094 07070 12759 81606 10070 20060 39989 40100 55004 60017 76162 875// 90900=
07070,1996-03-21 12:00:00,10,1009.1,-0.7,87,8,9000,25.928,,,190,,,,2,,,,,,3,wg-a,,,,AAXX 21124 07070 02459 71914 10100 20080 39982 40091 56007 60036 70362 878// 91200 333 60027=
07070,1996-03-21 15:00:00,12,1008.3,-0.8,76,8,10000,14.816,,,200,,,,,,,,,,,wg-a,,,,AAXX 21154 07070 12560 72008 10120 20080 39974 40083 58008 60006 878// 91500=
07070,1996-03-21 18:00:00,10,1010.7,2.3,71,5,12000,11.112,,,250,5.6,13.3,,,,,,,,80,wg-a,,,,AAXX 21184 07070 02562 72506 10100 20050 39997 40107 53023 61000 78082 879// 91800 333 10133 20056 ////=
07070,1996-03-21 21:00:00,6,1012.1,1.3,93,5,10000,7.408,,,180,,,,1,,,,,,,wg-a,,,,AAXX 21214 07070 12660 /1804 10060 20050 30010 40121 51013 60017 85500 92100=
07070,1996-03-22 00:00:00,7,1013.2,1.1,93,6,10000,7.408,,,210,,,,,,,,,,3,wg-a,,,,AAXX 22004 07070 12560 82104 10070 20060 30021 40132 53011 60016 70382 888// 90000=
07070,1996-03-22 03:00:00,7,1013.6,0.4,87,5,10000,11.112,,,240,,,,0,,,,,,,wg-a,,,,AAXX 22034 07070 12560 72406 10070 20050 30025 40136 51004 60007 875// 90300=
07070,1996-03-22 06:00:00,7,1014.8,1.2,93,6,8000,14.816,,,220,5.9,9.6,,,,,5,,,1,wg-a,,,,AAXX 22064 07070 12658 72208 10070 20060 30037 40148 51012 60054 70182 84502 90600 333 10096 20059=
07070,1996-03-22 09:00:00,10,1016.1,1.4,82,7,6000,11.112,,,220,,,,,,,,,,,wg-a,,,,AAXX 22094 07070 12456 72206 10100 20070 30051 40161 51014 60006 878// 90900=
07070,1996-03-22 12:00:00,12,1016.4,0.3,71,7,8000,22.224,,,230,,,,,,,,,,,wg-a,,,,AAXX 22124 07070 12558 72312 10120 20070 30054 40164 50003 60006 85202 91200=
07070,1996-03-22 15:00:00,11,1016.3,-0.1,82,8,10000,11.112,,,220,,,,0,,,,,,61,wg-a,,,,AAXX 22154 07070 12560 82206 10110 20080 30053 40163 58001 60007 76162 888// 91500=
07070,1996-03-22 18:00:00,9,1016.5,0.1,93,8,4000,11.112,,,170,6.7,12.3,,3,,,,,,10,wg-a,,,,AAXX 22184 07070 12240 81706 10090 20080 30054 40165 53001 60037 71062 885// 91800 333 10123 20067=
07070,1996-03-22 21:00:00,9,1016.1,-0.4,93,8,4000,11.112,,,160,,,,4,,,,,,61,wg-a,,,,AAXX 22214 07070 12440 81606 10090 20080 30050 40161 56004 60047 76166 875// 92100=
07070,1996-03-23 00:00:00,9,1016.5,0.4,93,8,4000,7.408,,,200,,,,,,,,,,10,wg-a,,,,AAXX 23004 07070 02440 72004 10090 20080 30054 40165 53004 60046 71062 875// 90000 333 61000=
07070,1996-03-23 03:00:00,10,1016.7,0.3,93,9,3500,7.408,,,200,,,,,,,,,,10,wg-a,,,,AAXX 23034 07070 12435 72004 10100 20090 30057 40167 50003 60006 71022 875// 90300=
07070,1996-03-23 06:00:00,8,1017.7,0.9,100,8,1500,7.408,,,180,8.1,9.6,,,,,7,,,10,wg-a,,,,AAXX 23064 07070 12415 71804 10080 20080 30066 40177 53009 60074 71022 83532 90600 333 10096 20081=
07070,1996-03-23 09:00:00,11,1018.6,1,94,10,2500,3.704,,,200,,,,,,,,,,10,wg-a,,,,AAXX 23094 07070 12425 82002 10110 20100 30076 40186 51010 60006 71022 875// 90900=
07070,1996-03-23 12:00:00,15,1018,-0.5,82,12,8000,3.704,,,140,,,,,,,,,,,wg-a,,,,AAXX 23124 07070 12458 71402 10150 20120 30071 40180 58005 60006 878// 91200=
07070,1996-03-23 15:00:00,16,1016.7,-1.2,77,12,12000,7.408,,,90,,,,,,,,,,,wg-a,,,,AAXX 23154 07070 12562 40904 10160 20120 30059 40167 58012 60006 83801 91500=
07070,1996-03-23 18:00:00,13,1016.8,-0,88,11,8000,14.816,,,70,8.1,16.8,,,,,,,,,wg-a,,,,AAXX 23184 07070 12/58 /0708 10130 20110 30059 40168 55000 60006 80002 91800 333 10168 20081=
07070,1996-03-23 21:00:00,9,1017.8,0.8,93,8,10000,3.704,,,50,,,,,,,,,,,wg-a,,,,AAXX 23214 07070 12/60 50502 10090 20080 30067 40178 53008 60006 80002 92100=
07070,1996-03-24 00:00:00,7,1017.9,-0,93,6,200,0,,,0,,,,,,,,,,44,wg-a,,,,AAXX 24004 07070 12/02 30000 10070 20060 30067 40179 55000 60006 74441 80001 90000=
07070,1996-03-24 03:00:00,5,1017.9,-0.1,93,4,300,3.704,,,40,,,,,,,,,,42,wg-a,,,,AAXX 24034 07070 12/03 20402 10050 20040 30066 40179 57001 60006 74244 80001 90300=
07070,1996-03-24 06:00:00,4,1019.4,1.5,93,3,100,3.704,,,80,3.6,13,,,,,,,,44,wg-a,,,,AAXX 24064 07070 12/01 /0802 10040 20030 30081 40194 53015 60006 74444 80002 90600 333 10130 20036=
07070,1996-03-24 09:00:00,12,1020.1,1,94,11,6000,11.112,,,60,,,,,,,,,,,wg-a,,,,AAXX 24094 07070 12/56 /0606 10120 20110 30091 40201 51010 60006 80002 90900=
07070,1996-03-24 12:00:00,17,1020.1,0.2,72,12,8000,18.52,,,80,,,,,,,,,,3,wg-a,,,,AAXX 24124 07070 12558 50810 10170 20120 30093 40201 50002 60006 70342 83202 91200=
07070,1996-03-24 15:00:00,18,1018.5,-1.5,64,11,8000,11.112,,,80,,,,,,,,,,,wg-a,,,,AAXX 24154 07070 12658 /0806 10180 20110 30078 40185 58015 60006 81431 91500=
07070,1996-03-24 21:00:00,9,1019.4,0.2,93,8,8000,7.408,,,80,,,,,,,,,,,wg-a,,,,AAXX 24214 07070 12/58 00804 10090 20080 30083 40194 50002 60006 80000 92100=
07070,1996-03-25 00:00:00,8,1018.5,-0.9,93,7,6000,7.408,,,110,,,,,,,,,,,wg-a,,,,AAXX 25004 07070 12/56 31104 10080 20070 30074 40185 57009 60006 80001 90000=
07070,1996-03-25 03:00:00,7,1017.2,-1.4,93,6,6000,3.704,,,60,,,,,,,,,,,wg-a,,,,AAXX 25034 07070 12/56 70602 10070 20060 30060 40172 58014 60006 80002 90300=
07070,1996-03-25 06:00:00,7,1017.5,0.3,87,5,500,7.408,,,120,6.4,14.1,,,,,,,,,wg-a,,,,AAXX 25064 07070 12/00 71204 10070 20050 30063 40175 53003 60006 85038 90600 333 10141 20064=
07070,1996-03-25 09:00:00,10,1016,,82,7,500,25.928,,,100,,,,,,,,,,21,wg-a,,,,AAXX 25094 07070 32700 81014 10100 20070 30050 40160 72162 82577 90900=
07070,1996-03-25 12:00:00,14,1014.8,-1.1,72,9,500,18.52,,,100,,,,,,,,,,1,wg-a,,,,AAXX 25124 07070 02/00 81010 10140 20090 30039 40148 55011 61000 70162 82037 91200 333 ////=
07070,1996-03-25 15:00:00,16,1013.3,-1.4,68,10,500,14.816,,,120,,,,,,,,,,,wg-a,,,,AAXX 25154 07070 12/00 71208 10160 20100 30025 40133 56014 60006 85032 91500=
07070,1996-03-25 18:00:00,15,1013.2,-0.1,77,11,4000,3.704,,,140,7.2,16.7,,,,,,,,10,wg-a,,,,AAXX 25184 07070 32/40 71402 10150 20110 30024 40132 56001 71022 8707/ 91800 333 10167 20072=
07070,1996-03-25 21:00:00,11,1012.9,-0.5,87,9,500,3.704,,,110,,,,,,,,,,,wg-a,,,,AAXX 25214 07070 12/00 /1102 10110 20090 30019 40129 58005 60006 85030 92100=
07070,1996-03-26 00:00:00,9,1012.7,-0.3,93,8,2000,0,,,0,,,,,,,,,,10,wg-a,,,,AAXX 26004 07070 12/20 30000 10090 20080 30016 40127 58003 60006 71011 83030 90000=
07070,1996-03-26 03:00:00,10,1011.6,-1,93,9,2500,7.408,,,280,,,,,,,,,,10,wg-a,,,,AAXX 26034 07070 12525 72804 10100 20090 30006 40116 56010 60006 71022 8557/ 90300=
07070,1996-03-26 06:00:00,9,1011.1,-0.5,93,8,1200,7.408,,,270,8.4,14.6,,,,,,,,10,wg-a,,,,AAXX 26064 07070 02/12 32704 10090 20080 30001 40111 56005 60006 71011 80001 90600 333 10146 20084 61000=
07070,1996-03-26 09:00:00,10,1011.4,0.3,100,10,1000,11.112,,,280,,,,,,,,,,28,wg-a,,,,AAXX 26094 07070 12210 92806 10100 20100 30004 40114 53003 60006 72842 896// 90900=
07070,1996-03-26 12:00:00,11,1010.8,-0.5,94,10,2400,14.816,,,300,,,,0,,,,,,10,wg-a,,,,AAXX 26124 07070 02224 83008 10110 20100 39999 40108 58005 60006 71052 877// 91200 333 60007=
07070,1996-03-26 15:00:00,8,1010.9,-0,93,7,1200,22.224,,,330,,,,,,,,,,10,wg-a,,,,AAXX 26154 07070 02212 83312 10080 20070 39999 40109 55000 61000 71052 886// 91500 333 ////=
07070,1996-03-26 18:00:00,7,1012.7,1.7,87,5,1100,25.928,,,10,6.8,10.8,,,,,,,,,wg-a,,,,AAXX 26184 07070 32/11 /0114 10070 20050 30016 40127 53017 91800 333 10108 20068=
07070,1996-03-26 21:00:00,5,1015.2,2.3,81,2,2500,25.928,,,20,,,,,,,,,,10,wg-a,,,,AAXX 26214 07070 12425 80214 10050 20020 30039 40152 51023 60006 71022 885// 92100=
07070,1996-03-27 00:00:00,3,1016.6,1.3,81,0,3000,29.632,,,30,,,,,,,,,,10,wg-a,,,,AAXX 27004 07070 12430 70316 10030 20000 30052 40166 51013 60006 71022 875// 90000=
07070,1996-03-27 03:00:00,2,1017.8,1.2,75,-2,8000,22.224,,,30,,,,,,,,,,,wg-a,,,,AAXX 27034 07070 12558 80312 10020 21020 30064 40178 52012 60006 885// 90300=
07070,1996-03-27 06:00:00,-1,1020.1,2.1,69,-6,15000,14.816,,,20,-1.2,6.8,,,,,1,,,,wg-a,,,,AAXX 27064 07070 02/65 20208 11010 21060 30085 40201 51021 60006 81031 90600 333 10068 21012 60014=
07070,1996-03-27 09:00:00,2,1021,1.1,64,-4,12000,25.928,,,40,,,,,,,,,,,wg-a,,,,AAXX 27094 07070 12562 60414 10020 21040 30096 40210 51011 60006 83501 90900=
07070,1996-03-27 12:00:00,5,1021.2,0.3,56,-3,12000,25.928,,,60,,,,,,,,,,,wg-a,,,,AAXX 27124 07070 12662 40614 10050 21030 30099 40212 51003 60006 83501 91200=
07070,1996-03-27 15:00:00,7,1020.4,-0.7,49,-3,12000,22.224,,,80,,,,,,,,,,,wg-a,,,,AAXX 27154 07070 12662 20812 10070 21030 30092 40204 58007 60006 81501 91500=
07070,1996-03-27 18:00:00,5,1020.6,0.1,60,-2,20000,11.112,,,90,-1.1,7.3,,,,,,,,,wg-a,,,,AAXX 27184 07070 12/70 00906 10050 21020 30093 40206 53001 60006 80000 91800 333 10073 21011=
07070,1996-03-27 21:00:00,1,1021.4,0.6,69,-4,15000,7.408,,,40,,,,,,,,,,,wg-a,,,,AAXX 27214 07070 12/65 00404 10010 21040 30099 40214 53006 60006 80000 92100=
07070,1996-03-28 00:00:00,-3,1020.9,-0.6,86,-5,15000,0,,,0,,,,,,,,,,,wg-a,,,,AAXX 28004 07070 12/65 00000 11030 21050 30093 40209 58006 60006 80000 90000=
07070,1996-03-28 03:00:00,-4,1019.6,-1.4,86,-6,15000,3.704,,,120,,,,,,,,,,,wg-a,,,,AAXX 28034 07070 12/65 01202 11040 21060 30079 40196 58014 60006 80000 90300=
07070,1996-03-28 06:00:00,-5,1019.2,-0.4,93,-6,12000,3.704,,,300,-5.3,4.5,,,,,,,,,wg-a,,,,AAXX 28064 07070 12/62 63002 11050 21060 30075 40192 55004 60006 80001 90600 333 10045 21053=
07070,1996-03-28 09:00:00,3,1018.4,-0.5,60,-4,12000,3.704,,,260,,,,,,,,,,,wg-a,,,,AAXX 28094 07070 12/62 72602 10030 21040 30070 40184 58005 60006 80001 90900=
07070,1996-03-28 12:00:00,8,1016.5,-1.6,39,-5,15000,18.52,,,280,,,,,,,,,,,wg-a,,,,AAXX 28124 07070 12/65 72810 10080 21050 30054 40165 56016 60006 80001 91200=
07070,1996-03-28 15:00:00,9,1014.6,-1.9,31,-7,15000,18.52,,,290,,,,,,,,,,,wg-a,,,,AAXX 28154 07070 12/65 22910 10090 21070 30035 40146 56019 60006 82031 91500=
07070,1996-03-28 18:00:00,6,1015.3,0.6,56,-2,12000,22.224,,,340,-5,8.9,,,,,,,,,wg-a,,,,AAXX 28184 07070 12762 73412 10060 21020 30041 40153 53006 60006 875// 91800 333 10089 21050=
07070,1996-03-29 06:00:00,1,1016.4,0.8,93,0,4000,7.408,,,260,0.2,5.5,,,,,,,,10,wg-a,,,,AAXX 29064 07070 12740 72604 10010 20000 30050 40164 53008 60006 71011 875// 90600 333 10055 20002=
07070,1996-03-29 09:00:00,5,1016.8,0.6,70,0,12000,7.408,,,310,,,,,,,,,,,wg-a,,,,AAXX 29094 07070 12462 53104 10050 20000 30056 40168 51006 60006 85800 90900=
07070,1996-03-29 12:00:00,6,1016.3,-0.5,61,-1,12000,14.816,,,330,,,,,,,,,,25,wg-a,,,,AAXX 29124 07070 02562 73308 10060 21010 30051 40163 58005 61000 72581 873// 91200 333 ////=
07070,1996-03-29 15:00:00,7,1015.2,-1.1,66,1,10000,7.408,,,40,,,,,,,,,,25,wg-a,,,,AAXX 29154 07070 02660 70404 10070 20010 30040 40152 58011 61000 72587 83802 91500 333 ////=
07070,1996-03-29 18:00:00,6,1015,-0.2,65,0,10000,11.112,,,340,1,7.9,,,,,,,,25,wg-a,,,,AAXX 29184 07070 32660 73406 10060 20000 30038 40150 55002 72587 878// 91800 333 10079 20010=
07070,1996-03-29 21:00:00,3,1015.3,0.2,87,1,12000,7.408,,,280,,,,,,,,,,1,wg-a,,,,AAXX 29214 07070 12/62 02804 10030 20010 30040 40153 50002 60006 70181 80000 92100=
07070,1996-03-30 00:00:00,-1,1015.7,0.2,93,-2,8000,11.112,,,330,,,,,,,,,,3,wg-a,,,,AAXX 30004 07070 12658 33306 11010 21020 30042 40157 52002 60006 70381 83500 90000=
07070,1996-03-30 03:00:00,-1,1015.3,-0.4,93,-2,8000,7.408,,,330,,,,,,,,,,,wg-a,,,,AAXX 30034 07070 12758 /3304 11010 21020 30038 40153 58004 60006 81500 90300=
07070,1996-03-30 06:00:00,0,1015.7,0.4,93,-1,2500,7.408,,,300,-1.5,5.6,,,,,,,,,wg-a,,,,AAXX 30064 07070 02/25 /3004 10000 21010 30042 40157 53004 60006 90600 333 10056 21015 61000=
07070,1996-03-30 09:00:00,4,1016.1,0.6,87,2,500,14.816,,,340,,,,,,,,,,,wg-a,,,,AAXX 30094 07070 12300 /3408 10040 20020 30048 40161 51006 60006 86800 90900=
07070,1996-03-30 12:00:00,6,1016.2,0.2,61,-1,15000,18.52,,,330,,,,,,,,,,,wg-a,,,,AAXX 30124 07070 12565 /3310 10060 21010 30050 40162 51002 60006 86200 91200=
07070,1996-03-30 15:00:00,6,1016.5,0.3,61,-1,15000,29.632,,,340,,,,,,,,,,,wg-a,,,,AAXX 30154 07070 12565 63416 10060 21010 30053 40165 53003 60006 86800 91500=
07070,1996-03-30 18:00:00,4,1017.7,1.1,52,-5,20000,18.52,,,350,-0.2,7.2,,,,,,,,,wg-a,,,,AAXX 30184 07070 12670 33510 10040 21050 30064 40177 53011 60006 83800 91800 333 10072 21002=
07070,1996-03-30 21:00:00,0,1019.3,1.4,74,-4,15000,11.112,,,330,,,,,,,,,,,wg-a,,,,AAXX 30214 07070 12/65 13306 10000 21040 30078 40193 51014 60006 80001 92100=
07070,1996-03-31 00:00:00,-2,1019.7,0.3,86,-4,20000,7.408,,,330,,,,,,,,,,,wg-a,,,,AAXX 31004 07070 12/70 03304 11020 21040 30081 40197 51003 60006 80000 90000=
07070,1996-03-31 03:00:00,-3,1019.5,-0.2,86,-5,20000,3.704,,,290,,,,,,,,,,,wg-a,,,,AAXX 31034 07070 12/70 02902 11030 21050 30079 40195 57002 60006 80000 90300=
07070,1996-03-31 06:00:00,-2,1019.1,-0.4,93,-3,10000,3.704,,,200,-3.7,4.1,,,,,,,,,wg-a,,,,AAXX 31064 07070 12560 72002 11020 21030 30075 40191 58004 60006 86501 90600 333 10041 21037=
07070,1996-03-31 09:00:00,4,1018.8,0,70,-1,15000,3.704,,,270,,,,,,,,,,,wg-a,,,,AAXX 31094 07070 12565 72702 10040 21010 30075 40188 50000 60006 82132 90900=
07070,1996-03-31 12:00:00,6,1017.4,-1.3,52,-3,20000,14.816,,,310,,,,,,,,,,,wg-a,,,,AAXX 31124 07070 12570 73108 10060 21030 30062 40174 58013 60006 872// 91200=
07070,1996-03-31 15:00:00,6,1015.7,-1.7,52,-3,20000,11.112,,,320,,,,,,,,,,,wg-a,,,,AAXX 31154 07070 12570 /3206 10060 21030 30045 40157 58017 60006 83801 91500=
07070,1996-03-31 18:00:00,4,1015,-0.8,70,-1,15000,7.408,,,350,-1.9,6.6,,,,,,,,,wg-a,,,,AAXX 31184 07070 12765 63504 10040 21010 30037 40150 56008 60006 824/1 91800 333 10066 21019=
07070,1996-03-31 21:00:00,1,1014.5,-0.6,93,0,12000,0,,,0,,,,,,,,,,,wg-a,,,,AAXX 31214 07070 12762 70000 10010 20000 30031 40145 58006 60006 8353/ 92100=
07070,1996-04-01 00:00:00,-2,1013.7,-0.9,93,-3,7000,0,,,0,,,,,,,,,,,wg-a,,,,AAXX 01004 07070 12/57 40000 11020 21030 30022 40137 56009 60006 80001 90000=
07070,1996-04-01 03:00:00,-4,1012.4,-1.4,93,-5,200,0,,,0,,,,,,,,,,44,wg-a,,,,AAXX 01034 07070 12/02 30000 11040 21050 30008 40124 56014 60006 74440 80001 90300=
07070,1996-04-01 06:00:00,-4,1012,-0.4,93,-5,100,0,,,0,-5.5,3.7,,,,,,,,49,wg-a,,,,AAXX 01064 07070 12/01 90000 11040 21050 30004 40120 55004 60006 74940 89/// 90600 333 10037 21055=
07070,1996-04-01 09:00:00,3,1011.7,0,70,-2,8000,25.928,,,90,,,,,,,,,,1,wg-a,,,,AAXX 01094 07070 12458 40914 10030 21020 30004 40117 50000 60006 70141 81102 90900=
07070,1996-04-01 12:00:00,6,1010.4,-1.1,49,-4,12000,25.928,,,70,,,,,,,,,,1,wg-a,,,,AAXX 01124 07070 12562 50714 10060 21040 39993 40104 58011 60006 70141 83201 91200=
07070,1996-04-01 15:00:00,8,1008.7,-1.6,36,-6,15000,25.928,,,80,,,,,,,,,,,wg-a,,,,AAXX 01154 07070 12765 60814 10080 21060 39977 40087 56016 60006 824/2 91500=
07070,1996-04-01 21:00:00,0,1012.5,2.7,69,-5,10000,18.52,,,40,,,,,,,,,,,wg-a,,,,AAXX 01214 07070 12/60 00410 10000 21050 30011 40125 51027 60006 80000 92100=
07070,1996-04-02 00:00:00,-2,1013.8,1.2,80,-5,8000,14.816,,,30,,,,,,,,,,,wg-a,,,,AAXX 02004 07070 12/58 00308 11020 21050 30023 40138 51012 60006 80000 90000=
07070,1996-04-02 03:00:00,-2,1014.5,0.7,80,-5,8000,11.112,,,10,,,,,,,,,,,wg-a,,,,AAXX 02034 07070 12/58 00106 11020 21050 30030 40145 53007 60006 80000 90300=
07070,1996-04-02 06:00:00,-4,1017,2.4,86,-6,4500,11.112,,,350,-3.6,5.4,,,,,,,,10,wg-a,,,,AAXX 02064 07070 12/45 03506 11040 21060 30054 40170 53024 60006 71000 80000 90600 333 10054 21036=
07070,1996-04-02 09:00:00,3,1018.8,2,56,-5,6000,25.928,,,40,,,,,,,,,,,wg-a,,,,AAXX 02094 07070 12456 /0414 10030 21050 30074 40188 51020 60006 81100 90900=
07070,1996-04-02 12:00:00,6,1018.6,-0.1,39,-7,10000,25.928,,,30,,,,,,,,,,,wg-a,,,,AAXX 02124 07070 12660 30314 10060 21070 30073 40186 58001 60006 83100 91200=
07070,1996-04-02 15:00:00,7,1018.5,-0.1,36,-7,15000,25.928,,,10,,,,,,,,,,,wg-a,,,,AAXX 02154 07070 12765 20114 10070 21070 30073 40185 58001 60006 8/400 91500=
07070,1996-04-02 18:00:00,4,1020.3,1.7,48,-6,15000,18.52,,,10,-3.6,7.2,,,,,,,,,wg-a,,,,AAXX 02184 07070 12765 10110 10040 21060 30090 40203 53017 60006 81400 91800 333 10072 21036=
07070,1996-04-02 21:00:00,-1,1022.6,2,74,-5,10000,14.816,,,350,,,,,,,,,,,wg-a,,,,AAXX 02214 07070 12/60 03508 11010 21050 30110 40226 51020 60006 80000 92100=
07070,1996-04-03 00:00:00,-1,1022.9,0.3,74,-5,10000,14.816,,,10,,,,,,,,,,,wg-a,,,,AAXX 03004 07070 12/60 00108 11010 21050 30113 40229 53003 60006 80000 90000=
07070,1996-04-03 03:00:00,-3,1023.3,0.3,86,-5,9000,18.52,,,360,,,,,,,,,,,wg-a,,,,AAXX 03034 07070 12/59 03610 11030 21050 30116 40233 51003 60006 80000 90300=
07070,1996-04-03 06:00:00,-3,1024.5,1.2,86,-5,4000,11.112,,,10,-3.7,4.3,,,,,,,,10,wg-a,,,,AAXX 03064 07070 12/40 00106 11030 21050 30128 40245 53012 60006 71000 80000 90600 333 10043 21037=
07070,1996-04-03 09:00:00,4,1025.7,1.5,60,-3,8000,25.928,,,40,,,,,,,,,,,wg-a,,,,AAXX 03094 07070 12/58 00414 10040 21030 30143 40257 51015 60006 80000 90900=
07070,1996-04-03 12:00:00,7,1025.4,-0.2,36,-7,10000,25.928,,,60,,,,,,,,,,,wg-a,,,,AAXX 03124 07070 12660 40614 10070 21070 30141 40254 58002 60006 84100 91200=
07070,1996-04-03 15:00:00,8,1025.4,0,36,-6,10000,25.928,,,30,,,,,,,,,,,wg-a,,,,AAXX 03154 07070 12760 30314 10080 21060 30141 40254 50000 60006 83400 91500=
07070,1996-04-03 18:00:00,5,1026.8,1.3,45,-6,9000,22.224,,,30,-3.1,7.8,,,,,,,,,wg-a,,,,AAXX 03184 07070 12/59 00312 10050 21060 30154 40268 53013 60006 80000 91800 333 10078 21031=
07070,1996-04-03 21:00:00,1,1027.9,1,64,-5,10000,18.52,,,360,,,,,,,,,,,wg-a,,,,AAXX 03214 07070 12/60 03610 10010 21050 30164 40279 51010 60006 80000 92100=
07070,1996-04-04 00:00:00,-1,1028.3,0.3,74,-5,6000,18.52,,,350,,,,,,,,,,,wg-a,,,,AAXX 04004 07070 12/56 03510 11010 21050 30167 40283 53003 60006 80000 90000=
07070,1996-04-04 03:00:00,-3,1028.7,0.3,86,-5,500,7.408,,,10,,,,,,,,,,,wg-a,,,,AAXX 04034 07070 12/00 00104 11030 21050 30170 40287 53003 60006 80000 90300=
07070,1996-04-04 06:00:00,-2,1028.3,-0.4,86,-4,4000,14.816,,,360,-2.7,5.2,,,,,,,,10,wg-a,,,,AAXX 04064 07070 12/40 03608 11020 21040 30166 40283 56004 60006 71000 80000 90600 333 10052 21027=
07070,1996-04-04 09:00:00,4,1027.4,-0.6,60,-3,500,22.224,,,50,,,,,,,,,,,wg-a,,,,AAXX 04094 07070 12/00 00512 10040 21030 30160 40274 58006 60006 80000 90900=
07070,1996-04-04 12:00:00,7,1026.3,-1,53,-2,7000,18.52,,,70,,,,,,,,,,,wg-a,,,,AAXX 04124 07070 12557 70710 10070 21020 30150 40263 58010 60006 878// 91200=
07070,1996-04-04 15:00:00,8,1025.2,-1,53,-1,8000,18.52,,,70,,,,,,,,,,,wg-a,,,,AAXX 04154 07070 12658 70710 10080 21010 30140 40252 58010 60006 878// 91500=
07070,1996-04-04 18:00:00,7,1025.3,-0,57,-1,7000,14.816,,,50,-1.8,7.8,,,,,,,,,wg-a,,,,AAXX 04184 07070 12657 70508 10070 21010 30140 40253 55000 60006 875// 91800 333 10078 21018=
07070,1996-04-04 21:00:00,4,1025.4,0,70,-1,7000,7.408,,,70,,,,,,,,,,,wg-a,,,,AAXX 04214 07070 12757 /0704 10040 21010 30140 40254 50000 60006 86500 92100=
07070,1996-04-05 00:00:00,4,1024.1,-1.3,81,1,6000,14.816,,,80,,,,,,,,,,,wg-a,,,,AAXX 05004 07070 02556 70808 10040 20010 30127 40241 58013 61000 875// 90000 333 6100=
07070,1996-04-05 03:00:00,3,1022.4,-1.7,87,1,500,11.112,,,60,,,,,,,,,,,wg-a,,,,AAXX 05034 07070 12500 80606 10030 20010 30110 40224 58017 60006 885// 90300=
07070,1996-04-05 06:00:00,4,1021.5,-0.9,81,1,4000,7.408,,,60,3.3,6.7,,,,,,,,10,wg-a,,,,AAXX 05064 07070 02540 70604 10040 20010 30101 40215 56009 61000 71022 875// 90600 333 10067 20033 ////=
07070,1996-04-05 09:00:00,6,1020.9,-0.5,75,2,500,14.816,,,80,,,,,,,,,,,wg-a,,,,AAXX 05094 07070 12400 80808 10060 20020 30096 40209 56005 60006 885// 90900=
07070,1996-04-05 12:00:00,7,1018.9,-1.9,70,2,500,22.224,,,80,,,,,,,,,,,wg-a,,,,AAXX 05124 07070 12500 80812 10070 20020 30077 40189 56019 60006 885// 91200=
07070,1996-04-05 15:00:00,7,1017.9,-1,76,3,500,22.224,,,90,,,,,,,,,,,wg-a,,,,AAXX 05154 07070 12500 80912 10070 20030 30067 40179 56010 60006 885// 91500=
07070,1996-04-05 18:00:00,6,1017.7,-0.2,81,3,4000,7.408,,,120,3.6,7.5,,,,,,,,10,wg-a,,,,AAXX 05184 07070 02540 81204 10060 20030 30065 40177 55002 61000 71062 885// 91800 333 10075 20036 ////=
07070,1996-04-05 21:00:00,5,1017.6,-0.2,87,3,3500,11.112,,,70,,,,,,,,,,10,wg-a,,,,AAXX 05214 07070 02535 80706 10050 20030 30063 40176 58002 61000 71062 885// 92100 333 ////=
07070,1996-04-06 00:00:00,1,1017,-0.7,93,0,2000,11.112,,,90,,,,,,,,,,10,wg-a,,,,AAXX 06004 07070 02620 40906 10010 20000 30056 40170 56007 61000 71061 81501 90000 333 ////=
07070,1996-04-06 03:00:00,-1,1016.8,-0.3,93,-2,1500,7.408,,,60,,,,,,,,,,10,wg-a,,,,AAXX 06034 07070 12/15 20604 11010 21020 30053 40168 56003 60006 71000 80001 90300=
07070,1996-04-06 06:00:00,-3,1017.1,0.2,93,-4,300,7.408,,,80,-3.2,5.9,,,,,,,,48,wg-a,,,,AAXX 06064 07070 02/03 /0804 11030 21040 30055 40171 53002 61000 74840 80001 90600 333 10059 21032 ////=
07070,1996-04-06 09:00:00,7,1016.8,0.1,70,2,3500,7.408,,,170,,,,,,,,,,10,wg-a,,,,AAXX 06094 07070 12/35 /1704 10070 20020 30056 40168 51001 60006 71040 80001 90900=
07070,1996-04-06 12:00:00,14,1015.9,-0.6,47,3,500,7.408,,,150,,,,,,,,,,2,wg-a,,,,AAXX 06124 07070 12/00 /1504 10140 20030 30050 40159 56006 60006 70240 80001 91200=
07070,1996-04-06 15:00:00,17,1015.1,-0.7,39,3,8000,14.816,,,230,,,,,,,,,,,wg-a,,,,AAXX 06154 07070 12/58 /2308 10170 20030 30043 40151 55007 60006 80001 91500=
07070,1996-04-06 18:00:00,14,1015.9,0.7,41,1,8000,14.816,,,260,-2.9,16.7,,,,,,,,,wg-a,,,,AAXX 06184 07070 12/58 /2608 10140 20010 30050 40159 53007 60006 80001 91800 333 10167 21029=
07070,1996-04-06 21:00:00,7,1017.6,1.4,70,2,7000,3.704,,,290,,,,,,,,,,,wg-a,,,,AAXX 06214 07070 12/57 02902 10070 20020 30064 40176 51014 60006 80000 92100=
07070,1996-04-07 00:00:00,4,1018.3,0.6,87,2,500,7.408,,,240,,,,,,,,,,,wg-a,,,,AAXX 07004 07070 12/00 02404 10040 20020 30070 40183 51006 60006 80000 90000=
07070,1996-04-07 03:00:00,3,1019,0.6,87,1,4000,7.408,,,240,,,,,,,,,,10,wg-a,,,,AAXX 07034 07070 12/40 02404 10030 20010 30076 40190 53006 60006 71000 80000 90300=
07070,1996-04-07 06:00:00,1,1020.5,1.4,93,0,1700,3.704,,,220,0.8,14.3,,,,,,,,10,wg-a,,,,AAXX 07064 07070 12/17 /2202 10010 20000 30090 40205 53014 60006 71000 80001 90600 333 10143 20008=
07070,1996-04-07 09:00:00,8,1021.5,1.3,81,5,2000,3.704,,,330,,,,,,,,,,10,wg-a,,,,AAXX 07094 07070 12420 /3302 10080 20050 30103 40215 51013 60006 71000 81100 90900=
07070,1996-04-07 12:00:00,12,1021.5,0.2,62,5,4000,7.408,,,310,,,,,,,,,,10,wg-a,,,,AAXX 07124 07070 12540 /3104 10120 20050 30105 40215 51002 60006 71011 86800 91200=
07070,1996-04-07 15:00:00,13,1021.6,0.1,51,3,6000,14.816,,,320,,,,,,,,,,,wg-a,,,,AAXX 07154 07070 12656 /3208 10130 20030 30106 40216 53001 60006 81100 91500=
07070,1996-04-07 18:00:00,9,1023,1.3,71,4,500,14.816,,,330,1,13.6,,,,,,,,,wg-a,,,,AAXX 07184 07070 12/00 03308 10090 20040 30119 40230 51013 60006 80000 91800 333 10136 20010=
07070,1996-04-07 21:00:00,9,1024.4,1.3,76,5,3000,11.112,,,340,,,,,,,,,,10,wg-a,,,,AAXX 07214 07070 12530 73406 10090 20050 30132 40244 51013 60006 71022 875// 92100=
07070,1996-04-08 00:00:00,7,1025.6,1.1,87,5,3000,11.112,,,330,,,,,,,,,,10,wg-a,,,,AAXX 08004 07070 12330 83306 10070 20050 30143 40256 51011 60006 71011 885// 90000=
07070,1996-04-08 03:00:00,7,1026.1,0.5,87,5,3000,14.816,,,320,,,,,,,,,,10,wg-a,,,,AAXX 08034 07070 12330 83208 10070 20050 30148 40261 53005 60006 71022 885// 90300=
07070,1996-04-08 06:00:00,6,1027.2,1.1,87,4,3000,7.408,,,340,6.1,9.1,,,,,,,,10,wg-a,,,,AAXX 08064 07070 02530 83404 10060 20040 30159 40272 53011 61000 71062 885// 90600 333 10091 20061 6100=
07070,1996-04-08 09:00:00,7,1028.8,1.6,81,4,4000,3.704,,,320,,,,,,,,,,10,wg-a,,,,AAXX 08094 07070 12540 83202 10070 20040 30175 40288 51016 60006 71022 885// 90900=
07070,1996-04-08 12:00:00,10,1028.8,0.1,66,4,6000,7.408,,,320,,,,,,,,,,,wg-a,,,,AAXX 08124 07070 12556 83204 10100 20040 30176 40288 51001 60006 885// 91200=
07070,1996-04-08 15:00:00,11,1028.5,-0.2,62,4,500,11.112,,,320,,,,,,,,,,,wg-a,,,,AAXX 08154 07070 12700 73206 10110 20040 30174 40285 55002 60006 875// 91500=
07070,1996-04-08 18:00:00,10,1028.4,-0.2,76,6,4000,3.704,,,130,6.2,11.7,,,,,,,,10,wg-a,,,,AAXX 08184 07070 12740 81302 10100 20060 30172 40284 55002 60006 71022 885// 91800 333 10117 20062=
07070,1996-04-08 21:00:00,10,1028.9,0.5,71,5,4000,3.704,,,250,,,,,,,,,,10,wg-a,,,,AAXX 08214 07070 12640 82502 10100 20050 30177 40289 51005 60006 71022 885// 92100=
07070,1996-04-09 03:00:00,7,1028.5,-0.7,81,4,4000,0,,,0,,,,,,,,,,10,wg-a,,,,AAXX 09034 07070 12640 80000 10070 20040 30172 40285 56007 60006 71022 885// 90300=
07070,1996-04-09 06:00:00,7,1028.5,-0,87,5,4000,3.704,,,70,6.4,10.3,,,,,,,,10,wg-a,,,,AAXX 09064 07070 12640 70702 10070 20050 30172 40285 55000 60006 71022 875// 90600 333 10103 20064=
07070,1996-04-09 09:00:00,11,1028.2,-0.1,66,5,500,3.704,,,300,,,,,,,,,,,wg-a,,,,AAXX 09094 07070 12600 73002 10110 20050 30171 40282 57001 60006 875// 90900=
07070,1996-04-09 12:00:00,14,1026.9,-1.2,51,4,7000,7.408,,,60,,,,,,,,,,,wg-a,,,,AAXX 09124 07070 12657 50604 10140 20040 30159 40269 58012 60006 85800 91200=
07070,1996-04-09 15:00:00,14,1025.3,-1.6,51,4,0,3.704,,,70,,,,,,,,,,,wg-a,,,,AAXX 09154 07070 127// 70702 10140 20040 30143 40253 58016 60006 83502 91500=
07070,1996-04-09 18:00:00,14,1024.1,-1.2,51,4,7000,0,,,0,6.8,15,,,,,,,,,wg-a,,,,AAXX 09184 07070 12/57 70000 10140 20040 30131 40241 56012 60006 80002 91800 333 10150 20068=
07070,1996-04-09 21:00:00,8,1023.8,-0.5,76,4,6000,3.704,,,240,,,,,,,,,,,wg-a,,,,AAXX 09214 07070 12/56 02402 10080 20040 30126 40238 57005 60006 80000 92100=
07070,1996-04-10 00:00:00,5,1022.9,-1,87,3,500,3.704,,,230,,,,,,,,,,,wg-a,,,,AAXX 10004 07070 12/00 02302 10050 20030 30116 40229 58010 60006 80000 90000=
07070,1996-04-10 03:00:00,3,1021.5,-1.5,93,2,500,3.704,,,210,,,,,,,,,,,wg-a,,,,AAXX 10034 07070 12/00 02102 10030 20020 30101 40215 56015 60006 80000 90300=
07070,1996-04-10 06:00:00,2,1020.9,-0.6,93,1,3000,0,,,0,1.7,13.4,,,,,,,,10,wg-a,,,,AAXX 10064 07070 12/30 20000 10020 20010 30095 40209 56006 60006 71000 82030 90600 333 10134 20017=
07070,1996-04-10 09:00:00,12,1020,-0.5,67,6,3800,0,,,0,,,,,,,,,,10,wg-a,,,,AAXX 10094 07070 12/38 70000 10120 20060 30090 40200 58005 60006 71022 80002 90900=
07070,1996-04-10 12:00:00,16,1018.5,-1.3,48,5,0,3.704,,,280,,,,,,,,,,,wg-a,,,,AAXX 10124 07070 127// 72802 10160 20050 30077 40185 58013 60006 81532 91200=
07070,1996-04-10 15:00:00,16,1016.9,-1.6,48,5,500,3.704,,,40,,,,,,,,,,,wg-a,,,,AAXX 10154 07070 12700 70402 10160 20050 30061 40169 56016 60006 84532 91500=
07070,1996-04-10 18:00:00,12,1017.3,0.2,82,9,3500,11.112,,,10,2,16.6,,0,,,,,,10,wg-a,,,,AAXX 10184 07070 12735 80106 10120 20090 30063 40173 53002 60007 71062 8657/ 91800 333 10166 20020=
07070,1996-04-10 21:00:00,10,1017.7,0.4,93,9,3000,7.408,,,330,,,,,,,,,,10,wg-a,,,,AAXX 10214 07070 02/30 83304 10100 20090 30067 40177 50004 61000 71062 8807/ 92100 333 ////=
07070,1996-04-11 00:00:00,9,1016.9,-0.9,93,8,1200,0,,,0,,,,0,,,,,,10,wg-a,,,,AAXX 11004 07070 02/12 80000 10090 20080 30058 40169 57009 60006 71062 8807/ 90000 333 60007=
07070,1996-04-11 03:00:00,9,1016.2,-0.7,93,8,1000,0,,,0,,,,,,,,,,10,wg-a,,,,AAXX 11034 07070 12/10 80000 10090 20080 30051 40162 56007 60006 71022 8807/ 90300=
07070,1996-04-11 06:00:00,8,1016.3,0.1,100,8,1000,3.704,,,260,8,12,,,,,1,,,11,wg-a,,,,AAXX 11064 07070 12/10 72602 10080 20080 30052 40163 53001 60014 71122 8707/ 90600 333 10120 20080=
07070,1996-04-11 09:00:00,11,1016.6,0.4,87,9,2200,14.816,,,340,,,,,,,,,,10,wg-a,,,,AAXX 11094 07070 12422 /3408 10110 20090 30056 40166 51004 60006 71022 86200 90900=
07070,1996-04-11 12:00:00,13,1015.9,-0.6,77,9,500,18.52,,,320,,,,,,,,,,80,wg-a,,,,AAXX 11124 07070 02500 73210 10130 20090 30050 40159 56006 61000 78082 878// 91200 333 6100=
07070,1996-04-11 15:00:00,14,1014.7,-1.2,63,7,500,22.224,,,350,,,,,,,,,,1,wg-a,,,,AAXX 11154 07070 12500 /3512 10140 20070 30038 40147 58012 60006 70182 85200 91500=
07070,1996-04-11 18:00:00,12,1015.1,0.4,76,8,4000,14.816,,,340,8.1,14.9,,,,,,,,10,wg-a,,,,AAXX 11184 07070 32540 73408 10120 20080 30042 40151 51004 71081 878// 91800 333 10149 20081=
07070,1996-04-11 21:00:00,9,1015.9,0.6,87,7,4500,18.52,,,350,,,,,,,,,,10,wg-a,,,,AAXX 11214 07070 12745 83510 10090 20070 30048 40159 51006 60006 71022 885// 92100=
07070,1996-04-12 00:00:00,6,1016,0,93,5,3000,11.112,,,330,,,,,,,,,,10,wg-a,,,,AAXX 12004 07070 12/30 /3306 10060 20050 30048 40160 50000 60006 71022 80002 90000=
07070,1996-04-12 03:00:00,7,1015.4,-0.6,93,6,2000,3.704,,,270,,,,,,,,,,10,wg-a,,,,AAXX 12034 07070 12320 82702 10070 20060 30042 40154 56006 60006 71022 886// 90300=
07070,1996-04-12 06:00:00,7,1015.4,0.1,93,6,1000,11.112,,,320,5.1,12,,,,,,,,10,wg-a,,,,AAXX 12064 07070 02310 83206 10070 20060 30043 40154 53001 60006 71022 886// 90600 333 10120 20051 61000=
07070,1996-04-12 09:00:00,9,1015.6,0.2,87,7,2200,11.112,,,350,,,,,,,,,,10,wg-a,,,,AAXX 12094 07070 12322 83506 10090 20070 30045 40156 50002 60006 71022 886// 90900=
07070,1996-04-12 12:00:00,11,1014.9,-0.6,76,7,3500,7.408,,,350,,,,,,,,,,10,wg-a,,,,AAXX 12124 07070 12535 73504 10110 20070 30039 40149 58006 60006 71022 872// 91200=
07070,1996-04-12 15:00:00,11,1014.4,-0.5,71,6,500,14.816,,,360,,,,,,,,,,,wg-a,,,,AAXX 12154 07070 12500 73608 10110 20060 30034 40144 57005 60006 872// 91500=
07070,1996-04-12 18:00:00,8,1015.1,0.6,81,5,500,22.224,,,80,7.4,11.5,,,,,,,,,wg-a,,,,AAXX 12184 07070 12400 70812 10080 20050 30040 40151 53006 60006 875// 91800 333 10115 20074=
07070,1996-04-12 21:00:00,6,1016.2,1,87,4,4000,18.52,,,80,,,,,,,,,,10,wg-a,,,,AAXX 12214 07070 12440 80810 10060 20040 30050 40162 51010 60006 71022 886// 92100=
07070,1996-04-13 03:00:00,4,1016.4,0.4,93,3,3500,18.52,,,80,,,,1,,,,,,10,wg-a,,,,AAXX 13034 07070 12435 80810 10040 20030 30051 40164 53004 60017 71066 885// 90300=
07070,1996-04-13 06:00:00,4,1017.3,0.9,87,2,3000,14.816,,,130,3.4,7.8,,1,,,2,,,10,wg-a,,,,AAXX 13064 07070 02430 81308 10040 20020 30060 40173 53009 60024 71062 885// 90600 333 10078 20034 60017=
07070,1996-04-13 09:00:00,6,1018.7,1.5,81,3,7000,22.224,,,100,,,,,,,,,,,wg-a,,,,AAXX 13094 07070 12457 51012 10060 20030 30075 40187 53015 60006 83801 90900=
07070,1996-04-13 12:00:00,11,1018.2,-0.4,43,-1,12000,25.928,,,90,,,,,,,,,,,wg-a,,,,AAXX 13124 07070 12/62 70914 10110 21010 30071 40182 56004 60006 80002 91200=
07070,1996-04-13 15:00:00,12,1018.1,-0,38,-2,20000,14.816,,,90,,,,,,,,,,,wg-a,,,,AAXX 13154 07070 12/70 60908 10120 21020 30071 40181 55000 60006 80002 91500=
07070,1996-04-13 18:00:00,10,1018.6,0.4,46,-1,25000,7.408,,,100,3.7,12.4,,,,,,,,,wg-a,,,,AAXX 13184 07070 12/75 21004 10100 21010 30075 40186 53004 60006 80001 91800 333 10124 20037=
07070,1996-04-13 21:00:00,4,1020.3,1.4,65,-2,12000,3.704,,,100,,,,,,,,,,,wg-a,,,,AAXX 13214 07070 12/62 01002 10040 21020 30089 40203 53014 60006 80000 92100=
07070,1996-04-14 00:00:00,1,1021.6,1.2,80,-2,12000,11.112,,,100,,,,,,,,,,,wg-a,,,,AAXX 14004 07070 12/62 01006 10010 21020 30101 40216 53012 60006 80000 90000=
07070,1996-04-14 03:00:00,0,1021.7,0.1,86,-2,10000,3.704,,,300,,,,,,,,,,,wg-a,,,,AAXX 14034 07070 12/60 03002 10000 21020 30102 40217 52001 60006 80000 90300=
07070,1996-04-14 06:00:00,-1,1023.1,1.3,86,-3,10000,3.704,,,310,-1.3,10.4,,,,,,,,,wg-a,,,,AAXX 14064 07070 12/60 73102 11010 21030 30115 40231 53013 60006 80009 90600 333 10104 21013=
07070,1996-04-14 09:00:00,9,1023.2,0.5,53,0,12000,25.928,,,100,,,,,,,,,,,wg-a,,,,AAXX 14094 07070 12/62 61014 10090 20000 30120 40232 51005 60006 80002 90900=
07070,1996-04-14 12:00:00,13,1023,0,41,0,12000,14.816,,,110,,,,,,,,,,,wg-a,,,,AAXX 14124 07070 12/62 51108 10130 20000 30120 40230 50000 60006 80002 91200=
07070,1996-04-14 15:00:00,14,1022.4,-0.6,33,-2,12000,7.408,,,80,,,,,,,,,,,wg-a,,,,AAXX 14154 07070 12/62 60804 10140 21020 30114 40224 58006 60006 80002 91500=
07070,1996-04-14 18:00:00,12,1022.7,0.3,44,0,15000,3.704,,,80,-0.5,14.4,,,,,,,,,wg-a,,,,AAXX 14184 07070 12/65 70802 10120 20000 30117 40227 53003 60006 80002 91800 333 10144 21005=
07070,1996-04-14 21:00:00,6,1024.8,1.8,65,0,15000,0,,,0,,,,,,,,,,,wg-a,,,,AAXX 14214 07070 12/65 70000 10060 20000 30135 40248 51018 60006 80002 92100=
07070,1996-04-15 00:00:00,2,1026,1,80,-1,15000,3.704,,,90,,,,,,,,,,,wg-a,,,,AAXX 15004 07070 12/65 60902 10020 21010 30145 40260 53010 60006 80002 90000=
07070,1996-04-15 03:00:00,1,1026.6,0.5,80,-2,15000,3.704,,,80,,,,,,,,,,,wg-a,,,,AAXX 15034 07070 12/65 40802 10010 21020 30150 40266 53005 60006 80002 90300=
07070,1996-04-15 06:00:00,1,1028,1.4,86,-1,12000,7.408,,,90,-0.9,12,,,,,,,,,wg-a,,,,AAXX 15064 07070 12/62 10904 10010 21010 30164 40280 53014 60006 80001 90600 333 10120 21009=
07070,1996-04-15 09:00:00,12,1028.4,0.9,47,1,12000,11.112,,,170,,,,,,,,,,,wg-a,,,,AAXX 15094 07070 12/62 41706 10120 20010 30173 40284 51009 60006 80001 90900=
07070,1996-04-15 12:00:00,15,1027.5,-0.8,31,-2,15000,11.112,,,80,,,,,,,,,,,wg-a,,,,AAXX 15124 07070 12/65 10806 10150 21020 30165 40275 58008 60006 80001 91200=
07070,1996-04-15 15:00:00,16,1025.9,-1.5,25,-4,15000,7.408,,,40,,,,,,,,,,,wg-a,,,,AAXX 15154 07070 12/65 00404 10160 21040 30150 40259 58015 60006 80000 91500=
07070,1996-04-15 18:00:00,13,1025.2,-0.8,38,-1,20000,7.408,,,70,0.8,16.4,,,,,,,,,wg-a,,,,AAXX 15184 07070 12/70 10704 10130 21010 30142 40252 56008 60006 80001 91800 333 10164 20008=
07070,1996-04-15 21:00:00,6,1025.6,0.1,61,-1,15000,0,,,0,,,,,,,,,,,wg-a,,,,AAXX 15214 07070 12/65 10000 10060 21010 30143 40256 50001 60006 80001 92100=
07070,1996-04-16 00:00:00,2,1024.6,-1.2,80,-1,15000,3.704,,,90,,,,,,,,,,,wg-a,,,,AAXX 16004 07070 12/65 00902 10020 21010 30131 40246 58012 60006 80000 90000=
07070,1996-04-16 03:00:00,-1,1023.2,-1.5,93,-2,15000,7.408,,,100,,,,,,,,,,,wg-a,,,,AAXX 16034 07070 12/65 01004 11010 21020 30116 40232 56015 60006 80000 90300=
07070,1996-04-16 06:00:00,0,1021.7,-1.4,86,-2,10000,3.704,,,60,-2,13.2,,,,,,,,,wg-a,,,,AAXX 16064 07070 12/60 40602 10000 21020 30102 40217 56014 60006 80001 90600 333 10132 21020=
07070,1996-04-16 09:00:00,13,1019.9,-1.3,47,2,15000,14.816,,,180,,,,,,,,,,,wg-a,,,,AAXX 16094 07070 12/65 41808 10130 20020 30089 40199 58013 60006 80001 90900=
07070,1996-04-16 12:00:00,17,1016.7,-3,36,2,15000,18.52,,,150,,,,,,,,,,,wg-a,,,,AAXX 16124 07070 12/65 31510 10170 20020 30059 40167 58030 60006 80001 91200=
07070,1996-04-16 15:00:00,18,1013.2,-3.4,30,0,20000,18.52,,,170,,,,,,,,,,,wg-a,,,,AAXX 16154 07070 12/70 11710 10180 20000 30025 40132 58034 60006 80001 91500=
07070,1996-04-16 18:00:00,13,1011,-2.4,47,2,20000,11.112,,,130,0.2,18.7,,,,,,,,,wg-a,,,,AAXX 16184 07070 12/70 41306 10130 20020 30001 40110 56024 60006 80002 91800 333 10187 20002=
07070,1996-04-16 21:00:00,8,1010.2,-1,53,-1,15000,22.224,,,100,,,,,,,,,,,wg-a,,,,AAXX 16214 07070 12/65 51012 10080 21010 39991 40102 58010 60006 80001 92100=
07070,1996-04-17 00:00:00,7,1009.1,-1.1,53,-2,15000,7.408,,,140,,,,,,,,,,,wg-a,,,,AAXX 17004 07070 12/65 61404 10070 21020 39980 40091 56011 60006 81031 90000=
07070,1996-04-17 03:00:00,6,1007.8,-1.3,52,-3,15000,3.704,,,40,,,,,,,,,,,wg-a,,,,AAXX 17034 07070 12/65 70402 10060 21030 39967 40078 56013 60006 80001 90300=
07070,1996-04-17 06:00:00,5,1007.9,-0,65,-1,15000,11.112,,,90,3.2,12.7,,,,,,,,,wg-a,,,,AAXX 17064 07070 12/65 70906 10050 21010 39967 40079 55000 60006 81032 90600 333 10127 20032=
07070,1996-04-17 09:00:00,12,1008.9,1.3,44,0,12000,3.704,,,240,,,,,,,,,,,wg-a,,,,AAXX 17094 07070 12762 72402 10120 20000 39980 40089 53013 60006 82532 90900=
07070,1996-04-17 12:00:00,15,1010.1,1.3,48,4,12000,7.408,,,310,,,,,,,,,,,wg-a,,,,AAXX 17124 07070 12762 73104 10150 20040 39993 40101 53013 60006 8557/ 91200=
07070,1996-04-17 15:00:00,13,1012.2,2,77,9,8000,29.632,,,290,,,,,,,,,,61,wg-a,,,,AAXX 17154 07070 02558 82916 10130 20090 30013 40122 53020 61000 76162 8682/ 91500 333 ////=
07070,1996-04-17 18:00:00,11,1014.7,2.4,94,10,8000,7.408,,,260,5.1,15.5,,1,,,,,,21,wg-a,,,,AAXX 17184 07070 12558 82604 10110 20100 30037 40147 51024 60017 72162 8687/ 91800 333 10155 20051=
07070,1996-04-17 21:00:00,10,1017.1,2.4,93,9,8000,7.408,,,290,,,,,,,,,,,wg-a,,,,AAXX 17214 07070 12658 /2904 10100 20090 30061 40171 52024 60006 82170 92100=
07070,1996-04-18 00:00:00,3,1019,1.5,93,2,10000,7.408,,,170,,,,,,,,,,,wg-a,,,,AAXX 18004 07070 12/60 01704 10030 20020 30076 40190 51015 60006 80000 90000=
07070,1996-04-18 03:00:00,3,1019.8,0.8,93,2,10000,3.704,,,200,,,,,,,,,,,wg-a,,,,AAXX 18034 07070 12/60 02002 10030 20020 30084 40198 52008 60006 80000 90300=
07070,1996-04-18 06:00:00,3,1021,1.2,93,2,12000,3.704,,,190,1.7,11.4,,,,,1,,,,wg-a,,,,AAXX 18064 07070 02/62 61902 10030 20020 30096 40210 52012 60006 80001 90600 333 10114 20017 60014=
07070,1996-04-18 12:00:00,16,1020.1,-0.9,51,6,25000,18.52,,,240,,,,,,,,,,,wg-a,,,,AAXX 18124 07070 12675 62410 10160 20060 30092 40201 58009 60006 85201 91200=
07070,1996-04-18 15:00:00,17,1019.1,-0.9,45,5,25000,18.52,,,240,,,,,,,,,,,wg-a,,,,AAXX 18154 07070 12775 72410 10170 20050 30083 40191 56009 60006 844/2 91500=
07070,1996-04-18 18:00:00,15,1019.1,-0.1,48,4,25000,14.816,,,250,2.9,17.5,,,,,,,,,wg-a,,,,AAXX 18184 07070 12775 72508 10150 20040 30082 40191 55001 60006 814/2 91800 333 10175 20029=
07070,1996-04-18 21:00:00,10,1020,0.7,66,4,25000,0,,,0,,,,,,,,,,,wg-a,,,,AAXX 18214 07070 12/75 70000 10100 20040 30089 40200 51007 60006 80002 92100=
07070,1996-04-19 00:00:00,6,1020.2,0.1,81,3,15000,0,,,0,,,,,,,,,,,wg-a,,,,AAXX 19004 07070 12/65 70000 10060 20030 30090 40202 50001 60006 80002 90000=
07070,1996-04-19 03:00:00,5,1019.9,-0.4,87,3,15000,3.704,,,220,,,,,,,,,,,wg-a,,,,AAXX 19034 07070 12/65 52202 10050 20030 30086 40199 56004 60006 80002 90300=
07070,1996-04-19 06:00:00,5,1020.5,0.6,93,4,20000,0,,,0,3.1,15.4,,,,,,,,,wg-a,,,,AAXX 19064 07070 12/70 60000 10050 20040 30092 40205 53006 60006 80002 90600 333 10154 20031=
07070,1996-04-19 09:00:00,15,1019.8,-0.3,59,7,15000,7.408,,,160,,,,,,,,,,,wg-a,,,,AAXX 19094 07070 12/65 81604 10150 20070 30089 40198 58003 60006 80007 90900=
07070,1996-04-19 12:00:00,19,1018.1,-1.5,43,6,20000,18.52,,,190,,,,,,,,,,,wg-a,,,,AAXX 19124 07070 12/70 71910 10190 20060 30074 40181 58015 60006 80002 91200=
07070,1996-04-19 15:00:00,20,1016.3,-1.7,43,7,15000,14.816,,,190,,,,,,,,,,,wg-a,,,,AAXX 19154 07070 12/65 81908 10200 20070 30057 40163 56017 60006 80007 91500=
07070,1996-04-19 18:00:00,17,1015.4,-1.1,55,8,15000,14.816,,,160,5.1,20.5,,,,,,,,,wg-a,,,,AAXX 19184 07070 12/65 71608 10170 20080 30046 40154 56011 60006 80002 91800 333 10205 20051=
07070,1996-04-19 21:00:00,11,1015.4,-0.2,71,6,15000,11.112,,,130,,,,,,,,,,,wg-a,,,,AAXX 19214 07070 12/65 71306 10110 20060 30044 40154 58002 60006 80002 92100=
07070,1996-04-20 00:00:00,11,1014.8,-0.6,71,6,15000,3.704,,,310,,,,,,,,,,,wg-a,,,,AAXX 20004 07070 12/65 53102 10110 20060 30038 40148 58006 60006 80002 90000=
07070,1996-04-20 03:00:00,10,1013.8,-1,71,5,15000,11.112,,,180,,,,,,,,,,,wg-a,,,,AAXX 20034 07070 12/65 61806 10100 20050 30028 40138 56010 60006 80002 90300=
07070,1996-04-20 06:00:00,12,1014,0.3,54,3,15000,14.816,,,190,9.2,16.5,,,,,,,,,wg-a,,,,AAXX 20064 07070 12/65 71908 10120 20030 30031 40140 53003 60006 80002 90600 333 10165 20092=
07070,1996-04-20 09:00:00,18,1013.5,-0.3,39,4,20000,14.816,,,190,,,,,,,,,,,wg-a,,,,AAXX 20094 07070 12/70 71908 10180 20040 30028 40135 58003 60006 80002 90900=
07070,1996-04-20 12:00:00,20,1012.1,-1.3,35,4,20000,22.224,,,180,,,,,,,,,,,wg-a,,,,AAXX 20124 07070 12/70 71812 10200 20040 30015 40121 58013 60006 80002 91200=
07070,1996-04-20 15:00:00,22,1010.2,-1.8,31,4,20000,29.632,,,170,,,,,,,,,,,wg-a,,,,AAXX 20154 07070 12/70 61716 10220 20040 39997 40102 58018 60006 80002 91500=
07070,1996-04-20 18:00:00,21,1010,-0.3,33,4,25000,22.224,,,180,12,22.8,,,,,,,,,wg-a,,,,AAXX 20184 07070 12/75 71812 10210 20040 39994 40100 56003 60006 80002 91800 333 10228 20120=
07070,1996-04-20 21:00:00,11,1010.8,0.5,62,4,25000,7.408,,,170,,,,,,,,,,,wg-a,,,,AAXX 20214 07070 12/75 71704 10110 20040 39999 40108 51005 60006 80002 92100=
07070,1996-04-21 00:00:00,12,1010.9,0.1,54,3,20000,14.816,,,170,,,,,,,,,,,wg-a,,,,AAXX 21004 07070 12/70 61708 10120 20030 30000 40109 53001 60006 80002 90000=
07070,1996-04-21 03:00:00,11,1010.7,-0.3,50,1,20000,11.112,,,190,,,,,,,,,,,wg-a,,,,AAXX 21034 07070 12/70 41906 10110 20010 39997 40107 55003 60006 80002 90300=
07070,1996-04-21 06:00:00,11,1010.4,-0.2,54,2,25000,22.224,,,160,8.5,20.8,,,,,,,,,wg-a,,,,AAXX 21064 07070 12/75 11612 10110 20020 39995 40104 55002 60006 81031 90600 333 10208 20085=
07070,1996-04-21 09:00:00,18,1009.8,-0.4,34,2,25000,25.928,,,190,,,,,,,,,,,wg-a,,,,AAXX 21094 07070 12/75 51914 10180 20020 39991 40098 58004 60006 80001 90900=
07070,1996-04-21 12:00:00,22,1008.5,-1.1,29,3,25000,29.632,,,180,,,,,,,,,,,wg-a,,,,AAXX 21124 07070 12/75 51816 10220 20030 39980 40085 58011 60006 80002 91200=
07070,1996-04-21 15:00:00,24,1007.1,-1.3,34,7,25000,29.632,,,170,,,,,,,,,,,wg-a,,,,AAXX 21154 07070 12/75 21716 10240 20070 39967 40071 58013 60006 80001 91500=
07070,1996-04-21 18:00:00,22,1007.3,0.1,33,5,25000,22.224,,,200,11.1,23.9,,,,,,,,,wg-a,,,,AAXX 21184 07070 12775 12012 10220 20050 39968 40073 53001 60006 81801 91800 333 10239 20111=
07070,1996-04-21 21:00:00,18,1008.8,1.4,42,5,20000,22.224,,,180,,,,,,,,,,,wg-a,,,,AAXX 21214 07070 12770 21812 10180 20050 39982 40088 51014 60006 81501 92100=
07070,1996-04-22 03:00:00,10,1009.9,0.2,71,5,20000,14.816,,,160,,,,,,,,,,,wg-a,,,,AAXX 22034 07070 12/70 21608 10100 20050 39989 40099 50002 60006 80001 90300=
07070,1996-04-22 06:00:00,12,1009.7,-0.1,76,8,20000,7.408,,,180,9.9,22.2,,,,,,,,,wg-a,,,,AAXX 22064 07070 12/70 71804 10120 20080 39988 40097 55001 60006 81031 90600 333 10222 20099=
07070,1996-04-22 09:00:00,19,1009.1,-0.3,46,7,20000,25.928,,,160,,,,,,,,,,,wg-a,,,,AAXX 22094 07070 12/70 71614 10190 20070 39985 40091 58003 60006 83032 90900=
07070,1996-04-22 12:00:00,22,1007.6,-1.4,33,5,20000,31.484,,50.004,180,,,,,,,,,,,wg-a,,,,AAXX 22124 07070 12/70 71817 10220 20050 39971 40076 57014 60006 84032 91200 333 91027=
07070,1996-04-22 15:00:00,25,1004.4,-3.1,28,5,20000,31.484,,,190,,,,,,,,,,,wg-a,,,,AAXX 22154 07070 12770 11917 10250 20050 39940 40044 58031 60006 81531 91500=
07070,1996-04-22 18:00:00,23,1003.2,-1.2,31,5,20000,31.484,,50.004,170,12.3,24.9,,,,,,,,,wg-a,,,,AAXX 22184 07070 12/70 71717 10230 20050 39928 40032 56012 60006 80002 91800 333 10249 20123 91027=
07070,1996-04-22 21:00:00,21,1003.9,0.6,38,6,15000,38.892,,68.524,190,,,,,,,,,,,wg-a,,,,AAXX 22214 07070 12/65 71921 10210 20060 39934 40039 51006 60006 81082 92100 333 91037=
07070,1996-04-23 00:00:00,18,1005,1,52,8,15000,25.928,,,200,,,,,,,,,,,wg-a,,,,AAXX 23004 07070 12665 72014 10180 20080 39944 40050 52010 60006 8558/ 90000=
07070,1996-04-23 03:00:00,16,1005.2,0.1,63,9,15000,22.224,,,190,,,,,,,,,,,wg-a,,,,AAXX 23034 07070 12565 81912 10160 20090 39945 40052 53001 60006 885// 90300=
07070,1996-04-23 06:00:00,13,1006.3,1,88,11,16000,18.52,,,200,13.1,22.9,,1,,,1,,,21,wg-a,,,,AAXX 23064 07070 02466 72010 10130 20110 39955 40063 53010 60014 72162 8553/ 90600 333 10229 20131 60017=
07070,1996-04-23 09:00:00,15,1008.6,2.3,72,10,20000,22.224,,,240,,,,,,,,,,21,wg-a,,,,AAXX 23094 07070 02570 72412 10150 20100 39978 40086 51023 61000 72162 8687/ 90900 333 ////=
07070,1996-04-23 12:00:00,17,1009.5,1,55,8,25000,31.484,,53.708,230,,,,,,,,,,3,wg-a,,,,AAXX 23124 07070 02675 72317 10170 20080 39988 40095 51010 61000 70362 8687/ 91200 333 //// 91029=
07070,1996-04-23 15:00:00,18,1010.2,0.7,45,6,25000,25.928,,,220,,,,,,,,,,,wg-a,,,,AAXX 23154 07070 12675 72214 10180 20060 39995 40102 51007 60006 8587/ 91500=
07070,1996-04-23 18:00:00,14,1012,1.7,55,5,500,18.52,,,240,13.4,18,,,,,,,,,wg-a,,,,AAXX 23184 07070 32600 72410 10140 20050 30012 40120 51017 8387/ 91800 333 10180 20134=
07070,1996-04-24 00:00:00,10,1016.9,1.7,82,7,20000,11.112,,,240,,,,,,,,,,,wg-a,,,,AAXX 24004 07070 12770 62406 10100 20070 30058 40169 52017 60006 82532 90000=
07070,1996-04-24 06:00:00,9,1018.8,1.4,81,6,15000,14.816,,,240,7.3,14.3,,,,,,,,1,wg-a,,,,AAXX 24064 07070 02765 12408 10090 20060 30077 40188 53014 60006 70181 81500 90600 333 10143 20073 61000=
07070,1996-04-24 12:00:00,11,1020.6,0.9,87,9,15000,14.816,,,220,,,,0,,,,,,25,wg-a,,,,AAXX 24124 07070 02565 62208 10110 20090 30096 40206 53009 60006 72582 86900 91200 333 60007=
07070,1996-04-24 15:00:00,12,1021,0.4,76,8,12000,22.224,,,280,,,,1,,,,,,29,wg-a,,,,AAXX 24154 07070 12562 52812 10120 20080 30100 40210 53004 60017 72998 85900 91500=
07070,1996-04-24 18:00:00,11,1022,0.9,76,7,25000,3.704,,,270,9.1,14.6,,,,,,,,1,wg-a,,,,AAXX 24184 07070 32675 /2702 10110 20070 30109 40220 53009 70198 81900 91800 333 10146 20091=
07070,1996-04-24 21:00:00,7,1024,1.9,93,6,20000,7.408,,,190,,,,,,,,,,,wg-a,,,,AAXX 24214 07070 12770 41904 10070 20060 30128 40240 53019 60006 83460 92100=
07070,1996-04-25 00:00:00,5,1024.9,0.8,100,5,10000,3.704,,,200,,,,,,,,,,,wg-a,,,,AAXX 25004 07070 12/60 /2002 10050 20050 30136 40249 51008 60006 90000=
07070,1996-04-25 03:00:00,3,1025.1,0.1,93,2,7000,3.704,,,100,,,,,,,,,,11,wg-a,,,,AAXX 25034 07070 12/57 01002 10030 20020 30137 40251 52001 60006 71111 80000 90300=
07070,1996-04-25 06:00:00,4,1026.7,1.6,93,3,900,0,,,0,1.4,11.1,,,,,1,,,40,wg-a,,,,AAXX 25064 07070 02709 /0000 10040 20030 30153 40267 53016 60006 74041 81501 90600 333 10111 20014 60014=
07070,1996-04-25 09:00:00,12,1027,0.6,62,5,15000,3.704,,,250,,,,,,,,,,1,wg-a,,,,AAXX 25094 07070 12565 52502 10120 20050 30159 40270 51006 60006 70141 81202 90900=
07070,1996-04-25 12:00:00,14,1026.3,-0.6,51,4,15000,11.112,,,290,,,,,,,,,,3,wg-a,,,,AAXX 25124 07070 12665 /2906 10140 20040 30153 40263 58006 60006 70341 85200 91200=
07070,1996-04-25 15:00:00,15,1025.6,-0.7,44,3,20000,14.816,,,340,,,,,,,,,,,wg-a,,,,AAXX 25154 07070 12670 33408 10150 20030 30146 40256 58007 60006 83400 91500=
07070,1996-04-25 18:00:00,13,1025.5,-0.1,54,4,20000,11.112,,,20,3.7,15.9,,,,,,,,,wg-a,,,,AAXX 25184 07070 12770 10206 10130 20040 30145 40255 55001 60006 81400 91800 333 10159 20037=
07070,1996-04-25 21:00:00,7,1026.5,0.7,81,4,15000,11.112,,,350,,,,,,,,,,,wg-a,,,,AAXX 25214 07070 12/65 03506 10070 20040 30152 40265 50007 60006 80000 92100=
07070,1996-04-26 00:00:00,4,1026.5,-0.1,87,2,15000,3.704,,,310,,,,,,,,,,,wg-a,,,,AAXX 26004 07070 12/65 03102 10040 20020 30151 40265 57001 60006 80000 90000=
07070,1996-04-26 03:00:00,3,1025.8,-0.7,93,2,15000,7.408,,,300,,,,,,,,,,,wg-a,,,,AAXX 26034 07070 12/65 03004 10030 20020 30144 40258 56007 60006 80000 90300=
07070,1996-04-26 06:00:00,3,1025.3,-0.5,100,3,10000,0,,,0,1.1,13,,,,,,,,,wg-a,,,,AAXX 26064 07070 12/60 00000 10030 20030 30139 40253 55005 60006 80000 90600 333 10130 20011=
07070,1996-04-26 09:00:00,13,1024.5,-0.4,62,6,12000,7.408,,,30,,,,,,,,,,,wg-a,,,,AAXX 26094 07070 12/62 00304 10130 20060 30135 40245 57004 60006 80000 90900=
07070,1996-04-26 12:00:00,17,1022.5,-1.9,52,7,15000,11.112,,,40,,,,,,,,,,,wg-a,,,,AAXX 26124 07070 12765 10406 10170 20070 30116 40225 58019 60006 81100 91200=
07070,1996-04-26 15:00:00,18,1020.3,-2.1,42,5,15000,11.112,,,10,,,,,,,,,,,wg-a,,,,AAXX 26154 07070 12/65 00106 10180 20050 30095 40203 58021 60006 80000 91500=
07070,1996-04-26 18:00:00,17,1018.9,-1.4,52,7,20000,7.408,,,350,3.2,18.5,,,,,,,,,wg-a,,,,AAXX 26184 07070 12/70 03504 10170 20070 30081 40189 56014 60006 80000 91800 333 10185 20032=
07070,1996-04-26 21:00:00,11,1019.5,0.4,71,6,12000,7.408,,,10,,,,,,,,,,,wg-a,,,,AAXX 26214 07070 12/62 00104 10110 20060 30085 40195 53004 60006 80000 92100=
07070,1996-04-27 00:00:00,8,1019.1,-0.6,87,6,12000,3.704,,,350,,,,,,,,,,,wg-a,,,,AAXX 27004 07070 12/62 03502 10080 20060 30079 40191 58006 60006 80000 90000=
07070,1996-04-27 03:00:00,4,1018.1,-1.1,100,4,8000,0,,,0,,,,,,,,,,,wg-a,,,,AAXX 27034 07070 12/58 00000 10040 20040 30068 40181 58011 60006 80000 90300=
07070,1996-04-27 06:00:00,5,1017.5,-0.5,100,5,2000,0,,,0,2.8,17.1,,,,,,,,10,wg-a,,,,AAXX 27064 07070 12/20 10000 10050 20050 30063 40175 56005 60006 71000 80001 90600 333 10171 20028=
07070,1996-04-27 09:00:00,15,1016.4,-0.7,63,8,8000,7.408,,,40,,,,,,,,,,,wg-a,,,,AAXX 27094 07070 12/58 /0404 10150 20080 30056 40164 58007 60006 80001 90900=
07070,1996-04-27 12:00:00,21,1014,-2.2,35,5,12000,14.816,,,60,,,,,,,,,,,wg-a,,,,AAXX 27124 07070 12662 /0608 10210 20050 30034 40140 56022 60006 81101 91200=
07070,1996-04-27 15:00:00,22,1011.6,-2.3,35,6,15000,11.112,,,30,,,,,,,,,,,wg-a,,,,AAXX 27154 07070 12765 60306 10220 20060 30011 40116 58023 60006 814/1 91500=
07070,1996-04-27 18:00:00,19,1011.1,-0.6,49,8,15000,14.816,,,340,5.2,22.8,,,,,,,,,wg-a,,,,AAXX 27184 07070 12/65 73408 10190 20080 30005 40111 56006 60006 80002 91800 333 10228 20052=
07070,1996-04-27 21:00:00,14,1011.8,0.5,67,8,8000,14.816,,,350,,,,,,,,,,,wg-a,,,,AAXX 27214 07070 12/58 73508 10140 20080 30010 40118 51005 60006 80002 92100=
07070,1996-04-28 00:00:00,11,1011.4,-0.5,82,8,500,11.112,,,310,,,,,,,,,,,wg-a,,,,AAXX 28004 07070 12/00 73106 10110 20080 30005 40114 58005 60006 80002 90000=
07070,1996-04-28 03:00:00,10,1010.5,-1,87,8,4000,11.112,,,330,,,,,,,,,,10,wg-a,,,,AAXX 28034 07070 12/40 73306 10100 20080 39995 40105 56010 60006 71022 80002 90300=
07070,1996-04-28 06:00:00,10,1010.6,0.1,87,8,1500,7.408,,,320,8.4,19,,,,,,,,10,wg-a,,,,AAXX 28064 07070 12/15 /3204 10100 20080 39996 40106 53001 60006 71022 80001 90600 333 10190 20084=
07070,1996-04-28 09:00:00,17,1010,-0.3,68,11,3500,18.52,,,30,,,,,,,,,,10,wg-a,,,,AAXX 28094 07070 12/35 /0310 10170 20110 39993 40100 57003 60006 71011 80001 90900=
07070,1996-04-28 12:00:00,19,1009.1,-0.8,52,9,6000,22.224,,,30,,,,,,,,,,,wg-a,,,,AAXX 28124 07070 12656 /0312 10190 20090 39985 40091 58008 60006 81180 91200=
07070,1996-04-28 15:00:00,20,1007.9,-1.2,43,7,11000,25.928,,,10,,,,,,,,,,,wg-a,,,,AAXX 28154 07070 12/61 /0114 10200 20070 39973 40079 56012 60006 91500=
07070,1996-04-28 18:00:00,17,1008.4,0.4,52,7,10000,22.224,,,10,9.6,20.1,,,,,,,,,wg-a,,,,AAXX 28184 07070 12660 70112 10170 20070 39977 40084 53004 60006 86402 91800 333 10201 20096=
07070,1996-04-28 21:00:00,12,1010.2,1.6,62,5,8000,22.224,,,10,,,,,,,,,,,wg-a,,,,AAXX 28214 07070 12758 70112 10120 20050 39993 40102 51016 60006 875// 92100=
07070,1996-04-29 00:00:00,8,1010.8,0.4,76,4,10000,14.816,,,350,,,,,,,,,,,wg-a,,,,AAXX 29004 07070 12760 53508 10080 20040 39997 40108 50004 60006 85500 90000=
07070,1996-04-29 03:00:00,6,1010.3,-0.5,93,5,10000,14.816,,,340,,,,,,,,,,,wg-a,,,,AAXX 29034 07070 12760 73408 10060 20050 39992 40103 56005 60006 875// 90300=
07070,1996-04-29 06:00:00,8,1010.4,0.1,81,5,3500,18.52,,,350,5.8,17.1,,,,,,,,10,wg-a,,,,AAXX 29064 07070 12435 83510 10080 20050 39993 40104 53001 60006 71022 885// 90600 333 10171 20058=
07070,1996-04-29 09:00:00,9,1010.3,-0.1,81,6,500,22.224,,,360,,,,,,,,,,,wg-a,,,,AAXX 29094 07070 12400 83612 10090 20060 39993 40103 58001 60006 875// 90900=
07070,1996-04-29 12:00:00,14,1008.3,-1.8,63,7,10000,18.52,,,20,,,,,,,,,,,wg-a,,,,AAXX 29124 07070 12560 40210 10140 20070 39975 40083 58018 60006 83232 91200=
07070,1996-04-29 15:00:00,15,1006.5,-1.8,41,2,20000,14.816,,,360,,,,,,,,,,,wg-a,,,,AAXX 29154 07070 12770 23608 10150 20020 39957 40065 58018 60006 81102 91500=
07070,1996-04-29 18:00:00,13,1006.3,-0.2,44,1,25000,18.52,,,340,7.5,15.2,,,,,,,,,wg-a,,,,AAXX 29184 07070 12775 23410 10130 20010 39955 40063 55002 60006 81401 91800 333 10152 20075=
07070,1996-04-29 21:00:00,6,1007.5,0.9,65,0,20000,11.112,,,340,,,,,,,,,,,wg-a,,,,AAXX 29214 07070 12/70 43406 10060 20000 39964 40075 51009 60006 80001 92100=
07070,1996-04-30 00:00:00,5,1007.3,-0.3,70,0,15000,3.704,,,340,,,,,,,,,,,wg-a,,,,AAXX 30004 07070 12/65 73402 10050 20000 39961 40073 58003 60006 80002 90000=
07070,1996-04-30 03:00:00,2,1006.3,-1.1,87,0,15000,0,,,0,,,,,,,,,,,wg-a,,,,AAXX 30034 07070 12/65 50000 10020 20000 39950 40063 56011 60006 80002 90300=
07070,1996-04-30 06:00:00,4,1006.4,0.2,81,1,8000,0,,,0,0.3,12.5,,,,,,,,,wg-a,,,,AAXX 30064 07070 12/58 70000 10040 20010 39952 40064 53002 60006 80001 90600 333 10125 20003=
07070,1996-04-30 09:00:00,12,1006.4,0.3,44,0,12000,3.704,,,70,,,,,,,,,,,wg-a,,,,AAXX 30094 07070 12/62 40702 10120 20000 39955 40064 51003 60006 80001 90900=
07070,1996-04-30 12:00:00,15,1004.6,-1.6,39,1,15000,11.112,,,320,,,,,,,,,,,wg-a,,,,AAXX 30124 07070 12665 /3206 10150 20010 39939 40046 58016 60006 85101 91200=
07070,1996-04-30 15:00:00,15,1003,-1.6,36,0,25000,3.704,,,70,,,,,,,,,,,wg-a,,,,AAXX 30154 07070 12775 70702 10150 20000 39923 40030 56016 60006 874// 91500=
07070,1996-04-30 18:00:00,13,1002.1,-1,47,2,15000,11.112,,,110,3.6,15.8,,,,,,,,,wg-a,,,,AAXX 30184 07070 12765 51106 10130 20020 39913 40021 56010 60006 85500 91800 333 10158 20036=
07070,1996-04-30 21:00:00,11,1002.3,0.2,54,2,15000,11.112,,,110,,,,,,,,,,,wg-a,,,,AAXX 30214 07070 12765 71106 10110 20020 39915 40023 51002 60006 875// 92100=
07070,1996-05-01 00:00:00,7,1001.7,-0.8,70,2,15000,0,,,0,,,,,,,,,,,wg-a,,,,AAXX 01004 07070 12865 70000 10070 20020 39907 40017 58008 60006 875// 90000=
07070,1996-05-01 03:00:00,9,1000.2,-1.4,61,2,15000,0,,,0,,,,,,,,,,,wg-a,,,,AAXX 01034 07070 12/65 70000 10090 20020 39893 40002 56014 60006 8707/ 90300=
07070,1996-05-01 06:00:00,9,1001,0.8,81,6,9000,11.112,,,200,7,13.3,,,,,,,,61,wg-a,,,,AAXX 01064 07070 02759 82006 10090 20060 39901 40010 53008 61000 76162 8657/ 90600 333 10133 20070 6100=
07070,1996-05-01 09:00:00,12,1001.3,0.4,76,8,8000,14.816,,,210,,,,,,,,,,1,wg-a,,,,AAXX 01094 07070 02458 72108 10120 20080 39905 40013 51004 61000 70162 81812 90900 333 ////=
07070,1996-05-01 12:00:00,15,1000.6,-0.6,55,6,15000,11.112,,,230,,,,,,,,,,3,wg-a,,,,AAXX 01124 07070 02665 72306 10150 20060 39899 40006 58006 61000 70362 86202 91200 333 ////=
07070,1996-05-01 15:00:00,15,999.4,-1.2,51,5,20000,14.816,,,150,,,,,,,,,,,wg-a,,,,AAXX 01154 07070 12770 71508 10150 20050 39887 49994 58012 60006 84212 91500=
07070,1996-05-01 18:00:00,14,998.9,-0.5,58,6,25000,14.816,,,160,8.7,15.8,,,,,,,,,wg-a,,,,AAXX 01184 07070 32775 71608 10140 20060 39882 49989 57005 814/2 91800 333 10158 20087=
07070,1996-05-01 21:00:00,9,999.5,0.4,87,7,12000,11.112,,,120,,,,,,,,,,,wg-a,,,,AAXX 01214 07070 12/62 71206 10090 20070 39886 49995 51004 60006 80002 92100=
07070,1996-05-02 00:00:00,8,998.6,-0.9,93,7,12000,0,,,0,,,,,,,,,,,wg-a,,,,AAXX 02004 07070 12462 70000 10080 20070 39877 49986 58009 60006 81502 90000=
07070,1996-05-02 03:00:00,9,997.3,-1.3,93,8,12000,0,,,0,,,,,,,,,,60,wg-a,,,,AAXX 02034 07070 02462 70000 10090 20080 39864 49973 57013 61000 76062 875// 90300 333 ////=
07070,1996-05-02 06:00:00,10,997.4,0.2,93,9,6000,3.704,,,170,7.4,13.9,,,,,,,,60,wg-a,,,,AAXX 02064 07070 02556 71702 10100 20090 39866 49974 53002 61000 76062 875// 90600 333 10139 20074 6100=
07070,1996-05-02 12:00:00,12,997.3,0.1,76,8,25000,14.816,,,210,,,,0,,,,,,25,wg-a,,,,AAXX 02124 07070 02575 72108 10120 20080 39866 49973 50001 60006 72586 8487/ 91200 333 60007=
07070,1996-05-02 15:00:00,13,996.7,,67,7,500,14.816,,,220,,,,,,,,,,,wg-a,,,,AAXX 02154 07070 12500 72208 10130 20070 39860 49967 60006 878// 91500=
07070,1996-05-02 18:00:00,11,997.6,0.8,87,9,8000,11.112,,,230,9.7,14.5,,,,,,,,61,wg-a,,,,AAXX 02184 07070 02558 82306 10110 20090 39868 49976 53008 61000 76186 878// 91800 333 10145 20097 ////=
07070,1996-05-02 21:00:00,9,998.7,1,93,8,8000,7.408,,,160,,,,3,,,,,,61,wg-a,,,,AAXX 02214 07070 12758 81604 10090 20080 39878 49987 51010 60037 76166 885// 92100=
07070,1996-05-03 00:00:00,8,998.5,-0.2,100,8,20000,11.112,,,170,,,,0,,,,,,3,wg-a,,,,AAXX 03004 07070 02770 71706 10080 20080 39876 49985 55002 60036 70386 875// 90000 333 60007=
07070,1996-05-03 03:00:00,7,998.2,-0.4,93,6,20000,7.408,,,170,,,,,,,,,,,wg-a,,,,AAXX 03034 07070 12770 71704 10070 20060 39872 49982 57004 60006 875// 90300=
07070,1996-05-03 06:00:00,7,999.2,1,100,7,12000,11.112,,,180,5,10.8,,,,,3,,,,wg-a,,,,AAXX 03064 07070 12562 /1806 10070 20070 39882 49992 53010 60034 85801 90600 333 10108 20050=
07070,1996-05-03 09:00:00,11,1000,1,82,8,10000,3.704,,,290,,,,,,,,,,,wg-a,,,,AAXX 03094 07070 12560 72902 10110 20080 39892 40000 51010 60006 878// 90900=
07070,1996-05-03 12:00:00,12,1000.8,0.8,82,9,6000,11.112,,,320,,,,6,,,,,,15,wg-a,,,,AAXX 03124 07070 02456 73206 10120 20090 39900 40008 53008 60066 71582 879// 91200 333 60067=
07070,1996-05-03 15:00:00,10,1002.4,1.5,87,8,7000,14.816,,,340,,,,1,,,,,,25,wg-a,,,,AAXX 03154 07070 12457 73408 10100 20080 39915 40024 53015 60017 72582 879// 91500=
07070,1996-05-03 18:00:00,9,1004.6,2.2,87,7,20000,18.52,,,330,7.2,12,,,,,,,,,wg-a,,,,AAXX 03184 07070 32570 73310 10090 20070 39937 40046 53022 878// 91800 333 10120 20072=
07070,1996-05-03 21:00:00,7,1007.4,2.7,87,5,15000,22.224,,,320,,,,,,,,,,,wg-a,,,,AAXX 03214 07070 12465 73212 10070 20050 39964 40074 51027 60006 878// 92100=
07070,1996-05-04 00:00:00,6,1009.2,1.7,93,5,12000,18.52,,,310,,,,,,,,,,,wg-a,,,,AAXX 04004 07070 12462 73110 10060 20050 39981 40092 51017 60006 875// 90000=
07070,1996-05-04 03:00:00,6,1010.8,1.5,87,4,12000,18.52,,,320,,,,,,,,,,,wg-a,,,,AAXX 04034 07070 12462 83210 10060 20040 39996 40108 53015 60006 885// 90300=
07070,1996-05-04 06:00:00,5,1013,2.2,87,3,10000,14.816,,,310,5.3,9,,,,,6,,,,wg-a,,,,AAXX 04064 07070 02460 83108 10050 20030 30018 40130 53022 60006 888// 90600 333 10090 20053 60064=
07070,1996-05-04 09:00:00,8,1014.7,1.8,76,4,15000,11.112,,,350,,,,,,,,,,,wg-a,,,,AAXX 04094 07070 12465 73506 10080 20040 30036 40147 51018 60006 878// 90900=
07070,1996-05-04 12:00:00,10,1015.9,1.2,62,3,20000,18.52,,,330,,,,,,,,,,,wg-a,,,,AAXX 04124 07070 12570 73310 10100 20030 30048 40159 51012 60006 878// 91200=
07070,1996-05-04 15:00:00,10,1016.2,0.4,57,2,20000,11.112,,,10,,,,,,,,,,,wg-a,,,,AAXX 04154 07070 12670 70106 10100 20020 30052 40162 51004 60006 878// 91500=
07070,1996-05-04 18:00:00,9,1017.2,0.9,66,3,20000,11.112,,,350,5.4,10.7,,,,,,,,,wg-a,,,,AAXX 04184 07070 12670 73506 10090 20030 30061 40172 52009 60006 878// 91800 333 10107 20054=
07070,1996-05-04 21:00:00,5,1018.6,1.2,81,2,15000,14.816,,,360,,,,,,,,,,,wg-a,,,,AAXX 04214 07070 12765 33608 10050 20020 30073 40186 51012 60006 815/1 92100=
07070,1996-05-05 00:00:00,1,1019.1,0.4,100,1,10000,7.408,,,190,,,,,,,,,,,wg-a,,,,AAXX 05004 07070 12/60 01904 10010 20010 30077 40191 53004 60006 80000 90000=
07070,1996-05-05 03:00:00,-1,1019.3,0.1,100,-1,10000,0,,,0,,,,,,,,,,,wg-a,,,,AAXX 05034 07070 12/60 00000 11010 21010 30078 40193 51001 60006 80000 90300=
07070,1996-05-05 06:00:00,2,1019.5,0.3,100,2,8000,7.408,,,20,-1,9.3,,,,,,,,,wg-a,,,,AAXX 05064 07070 12/58 00204 10020 20020 30081 40195 53003 60006 80000 90600 333 10093 21010=
07070,1996-05-05 09:00:00,10,1018.9,-0.3,62,3,12000,14.816,,,60,,,,,,,,,,,wg-a,,,,AAXX 05094 07070 12562 /0608 10100 20030 30078 40189 58003 60006 81101 90900=
07070,1996-05-05 12:00:00,12,1017.7,-1.1,47,1,15000,14.816,,,60,,,,,,,,,,,wg-a,,,,AAXX 05124 07070 12665 /0608 10120 20010 30067 40177 58011 60006 86800 91200=
07070,1996-05-05 15:00:00,13,1016,-1.6,41,0,15000,7.408,,,360,,,,,,,,,,,wg-a,,,,AAXX 05154 07070 12765 13604 10130 20000 30051 40160 58016 60006 81100 91500=
07070,1996-05-05 18:00:00,12,1015.3,-0.8,47,1,25000,11.112,,,360,2,13.4,,,,,,,,,wg-a,,,,AAXX 05184 07070 12875 13606 10120 20010 30043 40153 56008 60006 81500 91800 333 10134 20020=
07070,1996-05-05 21:00:00,7,1015.7,0.2,66,1,15000,14.816,,,10,,,,,,,,,,,wg-a,,,,AAXX 05214 07070 12/65 10108 10070 20010 30045 40157 50002 60006 80001 92100=
07070,1996-05-06 00:00:00,4,1015.9,0.1,81,1,12000,7.408,,,10,,,,,,,,,,,wg-a,,,,AAXX 06004 07070 12/62 20104 10040 20010 30046 40159 50001 60006 82031 90000=
07070,1996-05-06 03:00:00,2,1014.7,-1.2,93,1,10000,3.704,,,360,,,,,,,,,,,wg-a,,,,AAXX 06034 07070 12/60 73602 10020 20010 30034 40147 57012 60006 8703/ 90300=
07070,1996-05-06 06:00:00,4,1014.8,0.1,93,3,10000,3.704,,,30,1.7,12.2,,,,,,,,,wg-a,,,,AAXX 06064 07070 12/60 70302 10040 20030 30035 40148 53001 60006 86031 90600 333 10122 20017=
07070,1996-05-06 09:00:00,11,1014.1,-0.4,58,3,10000,11.112,,,70,,,,,,,,,,,wg-a,,,,AAXX 06094 07070 12/60 80706 10110 20030 30031 40141 55004 60006 83037 90900=
07070,1996-05-06 12:00:00,15,1012.4,-1.5,51,5,12000,18.52,,,40,,,,,,,,,,,wg-a,,,,AAXX 06124 07070 12/62 70410 10150 20050 30016 40124 57015 60006 86032 91200=
07070,1996-05-06 15:00:00,17,1010.9,-1.4,52,7,15000,18.52,,,70,,,,,,,,,,,wg-a,,,,AAXX 06154 07070 12/65 70710 10170 20070 30002 40109 57014 60006 86032 91500=
07070,1996-05-06 18:00:00,13,1011.1,-0,58,5,10000,29.632,,,30,4.3,17.8,,,,,,,,3,wg-a,,,,AAXX 06184 07070 02660 70316 10130 20050 30002 40111 55000 61000 70382 85232 91800 333 10178 20043 ////=
07070,1996-05-06 21:00:00,9,1012.1,0.9,81,6,8000,25.928,,,50,,,,1,,,,,,21,wg-a,,,,AAXX 06214 07070 12758 80514 10090 20060 30011 40121 51009 60017 72162 8557/ 92100=
07070,1996-05-07 00:00:00,8,1012.1,-0.1,93,7,7000,18.52,,,60,,,,0,,,,,,1,wg-a,,,,AAXX 07004 07070 02757 70610 10080 20070 30010 40121 58001 60016 70162 875// 90000 333 60007=
07070,1996-05-07 03:00:00,9,1011.2,-0.8,87,7,7000,14.816,,,60,,,,,,,,,,,wg-a,,,,AAXX 07034 07070 12757 70608 10090 20070 30002 40112 56008 60006 875// 90300=
07070,1996-05-07 06:00:00,10,1011.2,-0,87,8,7000,25.928,,,70,8.1,12.7,,,,,1,,,,wg-a,,,,AAXX 07064 07070 12757 /0714 10100 20080 30002 40112 55000 60014 85530 90600 333 10127 20081=
07070,1996-05-07 09:00:00,14,1010.7,-0.3,77,10,8000,29.632,,,70,,,,,,,,,,,wg-a,,,,AAXX 07094 07070 12458 70716 10140 20100 39999 40107 58003 60006 81101 90900=
07070,1996-05-07 12:00:00,19,1010.3,-0.2,56,10,10000,22.224,,,80,,,,,,,,,,,wg-a,,,,AAXX 07124 07070 12660 70812 10190 20100 39997 40103 58002 60006 81108 91200=
07070,1996-05-07 15:00:00,17,1009.8,-0.6,68,11,8000,25.928,,,50,,,,,,,,,,,wg-a,,,,AAXX 07154 07070 12858 70514 10170 20110 39991 40098 56006 60006 8708/ 91500=
07070,1996-05-07 18:00:00,15,1010.7,0.8,82,12,8000,22.224,,,70,9.5,18.9,,1,,,,,,60,wg-a,,,,AAXX 07184 07070 12758 80712 10150 20120 39999 40107 53008 60017 76086 874// 91800 333 10189 20095=
07070,1996-05-07 21:00:00,13,1012.2,1.4,88,11,9000,14.816,,,70,,,,,,,,,,21,wg-a,,,,AAXX 07214 07070 02759 80708 10130 20110 30013 40122 51014 61000 72162 8457/ 92100 333 ////=
07070,1996-05-08 00:00:00,11,1013.1,0.9,94,10,7000,14.816,,,50,,,,0,,,,,,61,wg-a,,,,AAXX 08004 07070 02757 80508 10110 20100 30022 40131 50009 60006 76162 875// 90000 333 60007=
07070,1996-05-08 03:00:00,10,1013.4,0.2,93,9,7000,14.816,,,70,,,,,,,,,,1,wg-a,,,,AAXX 08034 07070 12757 80708 10100 20090 30024 40134 53002 60006 70162 8557/ 90300=
07070,1996-05-08 06:00:00,10,1014.5,1.1,93,9,2200,14.816,,,50,9.5,14.9,,1,,,2,,,10,wg-a,,,,AAXX 08064 07070 02722 80508 10100 20090 30035 40145 53011 60024 71062 875// 90600 333 10149 20095 60017=
07070,1996-05-08 09:00:00,11,1015.2,0.7,94,10,3000,18.52,,,50,,,,11,,,,,,10,wg-a,,,,AAXX 08094 07070 12430 80510 10110 20100 30042 40152 50007 60117 71066 888// 90900=
07070,1996-05-08 12:00:00,12,1015.3,0.2,88,10,4500,22.224,,,10,,,,,,,,,,10,wg-a,,,,AAXX 08124 07070 02445 80112 10120 20100 30044 40153 53002 60116 71062 882// 91200 333 61000=
07070,1996-05-08 15:00:00,11,1015.6,0.2,82,8,4500,31.484,,,20,,,,,,,,,,10,wg-a,,,,AAXX 08154 07070 12445 80217 10110 20080 30046 40156 51002 60006 71022 8422/ 91500=
07070,1996-05-08 18:00:00,10,1016.2,0.6,87,8,4500,18.52,,,20,9.2,12.9,,,,,,,,10,wg-a,,,,AAXX 08184 07070 32545 80210 10100 20080 30052 40162 53006 71022 878// 91800 333 10129 20092=
07070,1996-05-08 21:00:00,10,1017.6,1.3,82,7,7000,14.816,,,20,,,,,,,,,,21,wg-a,,,,AAXX 08214 07070 02657 80208 10100 20070 30065 40176 53013 61000 72162 875// 92100 333 ////=
07070,1996-05-09 00:00:00,8,1017.6,-0,87,6,6000,18.52,,,10,,,,,,,,,,21,wg-a,,,,AAXX 09004 07070 02756 80110 10080 20060 30065 40176 54000 61000 72162 885// 90000 333 6100=
07070,1996-05-09 03:00:00,6,1017.1,-0.6,75,2,8000,25.928,,,10,,,,,,,,,,,wg-a,,,,AAXX 09034 07070 12658 70114 10060 20020 30059 40171 58006 60006 875// 90300=
07070,1996-05-09 06:00:00,5,1017.7,0.5,81,2,10000,18.52,,,10,4.5,10.4,,,,,11,,,,wg-a,,,,AAXX 09064 07070 12760 70110 10050 20020 30064 40177 51005 60114 875// 90600 333 10104 20045=
07070,1996-05-09 09:00:00,10,1017.4,-0.1,57,2,10000,25.928,,,10,,,,,,,,,,,wg-a,,,,AAXX 09094 07070 12460 20114 10100 20020 30063 40174 58001 60006 82800 90900=
07070,1996-05-09 12:00:00,13,1015.9,-1.3,51,3,15000,31.484,,,40,,,,,,,,,,,wg-a,,,,AAXX 09124 07070 12565 40417 10130 20030 30050 40159 58013 60006 84200 91200=
07070,1996-05-09 15:00:00,13,1014.9,-1,47,2,15000,29.632,,,40,,,,,,,,,,,wg-a,,,,AAXX 09154 07070 12765 70416 10130 20020 30040 40149 58010 60006 874// 91500=
07070,1996-05-09 18:00:00,12,1015,-0,44,0,15000,18.52,,,40,4.6,14,,,,,,,,,wg-a,,,,AAXX 09184 07070 12765 60410 10120 20000 30040 40150 54000 60006 86400 91800 333 10140 20046=
07070,1996-05-09 21:00:00,8,1015.4,0.3,71,3,15000,18.52,,,20,,,,,,,,,,,wg-a,,,,AAXX 09214 07070 12/65 30210 10080 20030 30043 40154 51003 60006 83030 92100=
07070,1996-05-10 00:00:00,5,1014.8,-0.7,87,3,15000,14.816,,,350,,,,,,,,,,,wg-a,,,,AAXX 10004 07070 12/65 73508 10050 20030 30036 40148 58007 60006 85032 90000=
07070,1996-05-10 03:00:00,5,1013.7,-1.1,93,4,10000,11.112,,,350,,,,,,,,,,,wg-a,,,,AAXX 10034 07070 12/60 63506 10050 20040 30025 40137 56011 60006 86031 90300=
07070,1996-05-10 06:00:00,6,1013.2,-0.5,93,5,2500,14.816,,,340,3.8,11.7,,,,,,,,10,wg-a,,,,AAXX 10064 07070 02325 /3408 10060 20050 30020 40132 56005 61000 71062 85500 90600 333 10117 20038 6100=
07070,1996-05-10 09:00:00,10,1012.3,-0.7,57,2,8000,7.408,,,60,,,,,,,,,,,wg-a,,,,AAXX 10094 07070 12558 40604 10100 20020 30013 40123 58007 60006 84200 90900=
07070,1996-05-10 12:00:00,12,1011.5,-0.7,50,2,15000,22.224,,,30,,,,,,,,,,,wg-a,,,,AAXX 10124 07070 12665 /0312 10120 20020 30006 40115 56007 60006 86800 91200=
07070,1996-05-10 15:00:00,13,1011.1,-0.4,44,1,20000,14.816,,,360,,,,,,,,,,,wg-a,,,,AAXX 10154 07070 12770 63608 10130 20010 30002 40111 58004 60006 86400 91500=
07070,1996-05-10 18:00:00,10,1011.4,0.2,57,2,15000,18.52,,,60,5.9,13.1,,,,,,,,,wg-a,,,,AAXX 10184 07070 12765 70610 10100 20020 30004 40114 53002 60006 875// 91800 333 10131 20059=
07070,1996-05-10 21:00:00,7,1013,1.5,76,3,10000,11.112,,,50,,,,,,,,,,,wg-a,,,,AAXX 10214 07070 12760 70506 10070 20030 30019 40130 53015 60006 875// 92100=
07070,1996-05-11 00:00:00,3,1013.7,0.5,93,2,8000,7.408,,,30,,,,,,,,,,,wg-a,,,,AAXX 11004 07070 12758 /0304 10030 20020 30024 40137 51005 60006 81500 90000=
07070,1996-05-11 03:00:00,4,1013.2,-0.5,93,3,6000,0,,,0,,,,,,,,,,,wg-a,,,,AAXX 11034 07070 12656 70000 10040 20030 30019 40132 56005 60006 875// 90300=
07070,1996-05-11 06:00:00,6,1013.5,0.4,93,5,3000,7.408,,,10,2.5,10.4,,,,,,,,10,wg-a,,,,AAXX 11064 07070 12530 70104 10060 20050 30023 40135 53004 60006 71022 875// 90600 333 10104 20025=
07070,1996-05-11 09:00:00,9,1013.5,0.1,71,4,6000,11.112,,,50,,,,,,,,,,,wg-a,,,,AAXX 11094 07070 12556 80506 10090 20040 30024 40135 51001 60006 882// 90900=
07070,1996-05-11 12:00:00,10,1013.2,-0.2,71,5,8000,18.52,,,50,,,,,,,,,,,wg-a,,,,AAXX 11124 07070 12558 80510 10100 20050 30022 40132 58002 60006 888// 91200=
07070,1996-05-11 15:00:00,11,1012.8,-0.3,66,5,10000,11.112,,,20,,,,,,,,,,,wg-a,,,,AAXX 11154 07070 12560 80206 10110 20050 30019 40128 57003 60006 888// 91500=
07070,1996-05-11 18:00:00,11,1013.4,0.5,66,5,9000,11.112,,,10,5.6,11.7,,,,,,,,,wg-a,,,,AAXX 11184 07070 12659 80106 10110 20050 30024 40134 53005 60006 888// 91800 333 10117 20056=
07070,1996-05-11 21:00:00,10,1014.3,0.9,76,6,6000,11.112,,,350,,,,,,,,,,,wg-a,,,,AAXX 11214 07070 12656 73506 10100 20060 30033 40143 51009 60006 875// 92100=
07070,1996-05-12 00:00:00,9,1014.8,0.4,81,6,6000,7.408,,,330,,,,,,,,,,,wg-a,,,,AAXX 12004 07070 12756 73304 10090 20060 30037 40148 51004 60006 875// 90000=
07070,1996-05-12 03:00:00,8,1014.8,0,87,6,500,11.112,,,340,,,,,,,,,,,wg-a,,,,AAXX 12034 07070 12700 83406 10080 20060 30037 40148 50000 60006 885// 90300=
07070,1996-05-12 06:00:00,9,1016.2,1.4,87,7,3500,11.112,,,340,8.2,11.3,,,,,,,,10,wg-a,,,,AAXX 12064 07070 12635 73406 10090 20070 30051 40162 53014 60006 71022 875// 90600 333 10113 20082=
07070,1996-05-12 09:00:00,11,1017,0.9,71,6,8000,18.52,,,20,,,,,,,,,,,wg-a,,,,AAXX 12094 07070 12558 70210 10110 20060 30060 40170 51009 60006 86802 90900=
07070,1996-05-12 12:00:00,10,1017.8,0.8,82,7,6000,22.224,,,340,,,,,,,,,,,wg-a,,,,AAXX 12124 07070 12456 83412 10100 20070 30068 40178 51008 60006 888// 91200=
07070,1996-05-12 15:00:00,11,1018.7,0.9,76,7,8000,22.224,,,360,,,,,,,,,,,wg-a,,,,AAXX 12154 07070 12558 83612 10110 20070 30077 40187 51009 60006 872// 91500=
07070,1996-05-12 18:00:00,9,1020.4,1.6,93,8,6000,22.224,,,350,8.9,11.2,,,,,,,,20,wg-a,,,,AAXX 12184 07070 02556 83512 10090 20080 30093 40204 51016 61000 72052 888// 91800 333 10112 20089 ////=
07070,1996-05-12 21:00:00,8,1022,1.5,93,7,4000,18.52,,,350,,,,,,,,,,10,wg-a,,,,AAXX 12214 07070 02440 83510 10080 20070 30108 40220 51015 61000 71065 885// 92100 333 ////=
07070,1996-05-13 00:00:00,8,1022.4,0.4,87,6,0,18.52,,,350,,,,,,,,,,,wg-a,,,,AAXX 13004 07070 02/// /3510 10080 20060 30112 40224 52004 61000 90000 333 ////=
07070,1996-05-13 03:00:00,7,1022.7,0.3,87,5,4500,14.816,,,330,,,,,,,,,,10,wg-a,,,,AAXX 13034 07070 12745 83308 10070 20050 30115 40227 51003 60006 71022 885// 90300=
07070,1996-05-13 06:00:00,6,1023.4,0.6,93,5,2000,14.816,,,340,6,9.2,,,,,,,,10,wg-a,,,,AAXX 13064 07070 02420 83408 10060 20050 30121 40234 53006 61000 71022 885// 90600 333 10092 20060 ////=
07070,1996-05-13 09:00:00,9,1023.7,0.4,71,4,8000,18.52,,,10,,,,,,,,,,,wg-a,,,,AAXX 13094 07070 12558 70110 10090 20040 30125 40237 50004 60006 878// 90900=
07070,1996-05-13 12:00:00,9,1023.6,-0.1,76,5,12000,22.224,,,10,,,,,,,,,,,wg-a,,,,AAXX 13124 07070 12462 80112 10090 20050 30124 40236 58001 60006 888// 91200=
07070,1996-05-13 15:00:00,11,1022.8,-0.7,71,6,15000,18.52,,,360,,,,,,,,,,,wg-a,,,,AAXX 13154 07070 12565 73610 10110 20060 30117 40228 57007 60006 878// 91500=
07070,1996-05-13 18:00:00,11,1022.8,-0,71,6,8000,11.112,,,30,6.3,11.5,,,,,,,,,wg-a,,,,AAXX 13184 07070 12558 80306 10110 20060 30117 40228 54000 60006 888// 91800 333 10115 20063=
07070,1996-05-13 21:00:00,9,1022.4,-0.5,87,7,8000,7.408,,,360,,,,,,,,,,61,wg-a,,,,AAXX 13214 07070 02558 83604 10090 20070 30112 40224 58005 61000 76162 888// 92100 333 ////=
07070,1996-05-14 00:00:00,8,1021.6,-0.8,87,6,7000,11.112,,,340,,,,,,,,,,21,wg-a,,,,AAXX 14004 07070 02757 83406 10080 20060 30104 40216 57008 61000 72162 885// 90000 333 6100=
07070,1996-05-14 03:00:00,8,1021.1,-0.5,87,6,8000,11.112,,,350,,,,,,,,,,,wg-a,,,,AAXX 14034 07070 12458 83506 10080 20060 30099 40211 58005 60006 885// 90300=
07070,1996-05-14 06:00:00,8,1020.3,-0.8,87,6,2500,14.816,,,350,7.6,10.9,,,,,,,,10,wg-a,,,,AAXX 14064 07070 02725 83508 10080 20060 30091 40203 58008 61000 71062 885// 90600 333 10109 20076 6100=
07070,1996-05-14 09:00:00,10,1019.5,-0.7,76,6,4000,14.816,,,20,,,,,,,,,,10,wg-a,,,,AAXX 14094 07070 02440 80208 10100 20060 30084 40195 57007 61000 71062 888// 90900 333 ////=
07070,1996-05-14 12:00:00,12,1018.1,-1.3,76,8,500,14.816,,,360,,,,,,,,,,1,wg-a,,,,AAXX 14124 07070 02500 83608 10120 20080 30071 40181 56013 61000 70162 885// 91200 333 6100=
07070,1996-05-14 14:00:00,10,1016.6,-0.9,100,10,3500,18.52,,,10,8.1,12.1,,1,,,,,,60,wg-a,,,,AAXX 14144 07070 12535 80110 10100 20100 30056 40166 57009 60017 76066 885// 91400 333 10121 20081=
07070,1996-05-14 15:00:00,12,1017.5,-0.6,76,8,500,22.224,,,40,,,,,,,,,,60,wg-a,,,,AAXX 14154 07070 02500 80412 10120 20080 30065 40175 56006 61000 76062 885// 91500 333 ////=
07070,1996-05-14 18:00:00,10,1016.6,-0.9,100,10,3500,18.52,,,10,8.1,12.1,,1,,,,,,10,wg-a,,,,AAXX 14184 07070 12535 80110 10100 20100 30056 40166 57009 60017 71066 885// 91800 333 10121 20081=
07070,1996-05-14 21:00:00,10,1016.4,-0.2,100,10,2500,14.816,,,350,,,,,,,,,,10,wg-a,,,,AAXX 14214 07070 02525 83508 10100 20100 30054 40164 58002 61000 71062 885// 92100 333 ////=
07070,1996-05-15 00:00:00,10,1015.4,-1,100,10,3000,11.112,,,10,,,,,,,,,,10,wg-a,,,,AAXX 15004 07070 02730 80106 10100 20100 30044 40154 58010 61000 71062 885// 90000 333 ////=
07070,1996-05-15 03:00:00,10,1014.4,-1,100,10,3000,11.112,,,20,,,,,,,,,,10,wg-a,,,,AAXX 15034 07070 12730 80206 10100 20100 30034 40144 57010 60006 71022 885// 90300=
07070,1996-05-15 06:00:00,10,1014.3,-0.1,93,9,2500,18.52,,,30,10,10.4,,,,,1,,,10,wg-a,,,,AAXX 15064 07070 12425 80310 10100 20090 30033 40143 55001 60014 71022 885// 90600 333 10104 20100=
07070,1996-05-15 09:00:00,10,1015,0.7,87,8,3500,18.52,,,10,,,,,,,,,,10,wg-a,,,,AAXX 15094 07070 12435 80110 10100 20080 30040 40150 51007 60006 71022 885// 90900=
07070,1996-05-15 12:00:00,12,1014.3,-0.6,76,8,6000,22.224,,,50,,,,,,,,,,,wg-a,,,,AAXX 15124 07070 12556 80512 10120 20080 30034 40143 56006 60006 875// 91200=
07070,1996-05-15 15:00:00,12,1014.4,-0,62,5,10000,14.816,,,20,,,,,,,,,,21,wg-a,,,,AAXX 15154 07070 02660 80208 10120 20050 30034 40144 55000 61000 72162 875// 91500 333 ////=
07070,1996-05-15 18:00:00,10,1014.5,0.1,62,3,15000,22.224,,,30,9.5,12.5,,,,,,,,1,wg-a,,,,AAXX 15184 07070 32665 80312 10100 20030 30035 40145 53001 70162 8552/ 91800 333 10125 20095=
07070,1996-05-15 21:00:00,9,1015.3,0.7,76,5,15000,14.816,,,40,,,,,,,,,,,wg-a,,,,AAXX 15214 07070 12665 80408 10090 20050 30042 40153 53007 60006 875// 92100=
07070,1996-05-16 00:00:00,9,1015,-0.3,81,6,10000,11.112,,,30,,,,,,,,,,,wg-a,,,,AAXX 16004 07070 12560 80306 10090 20060 30039 40150 58003 60006 8452/ 90000=
07070,1996-05-16 03:00:00,9,1014,-1,81,6,10000,14.816,,,40,,,,,,,,,,,wg-a,,,,AAXX 16034 07070 12560 80408 10090 20060 30029 40140 58010 60006 8252/ 90300=
07070,1996-05-16 06:00:00,8,1013.3,-0.7,87,6,4000,14.816,,,40,8.3,10.1,,,,,,,,,wg-a,,,,AAXX 16064 07070 02540 80408 10080 20060 30022 40133 57007 60006 8252/ 90600 333 10101 20083 61000=
07070,1996-05-16 09:00:00,11,1011.8,-1.4,76,7,500,14.816,,,70,,,,,,,,,,,wg-a,,,,AAXX 16094 07070 12500 80708 10110 20070 30008 40118 56014 60006 885// 90900=
07070,1996-05-16 12:00:00,14,1009.7,-1.9,72,9,7000,22.224,,,90,,,,,,,,,,,wg-a,,,,AAXX 16124 07070 12557 80912 10140 20090 39989 40097 58019 60006 886// 91200=
07070,1996-05-16 15:00:00,15,1007.6,-2,82,12,4000,11.112,,,110,,,,0,,,,,,10,wg-a,,,,AAXX 16154 07070 12540 81106 10150 20120 39969 40076 55020 60007 71062 885// 91500=
07070,1996-05-16 18:00:00,15,1004.5,-3.1,88,13,4500,14.816,,,110,8.3,16.9,,2,,,,,,10,wg-a,,,,AAXX 16184 07070 12645 71108 10150 20130 39938 40045 56031 60027 71062 875// 91800 333 10169 20083=
07070,1996-05-16 21:00:00,13,1004.7,0.1,100,13,500,22.224,,,180,,,,,,,,,,,wg-a,,,,AAXX 16214 07070 12700 71812 10130 20130 39939 40047 53001 60006 81402 92100=
07070,1996-05-17 00:00:00,12,1004.8,0.1,94,11,12000,14.816,,,190,,,,,,,,,,,wg-a,,,,AAXX 17004 07070 12762 31908 10120 20110 39940 40048 53001 60006 815/1 90000=
07070,1996-05-17 03:00:00,11,1005.9,1,94,10,4000,14.816,,,240,,,,,,,,,,10,wg-a,,,,AAXX 17034 07070 12440 52408 10110 20100 39950 40059 51010 60006 71011 82501 90300=
07070,1996-05-17 06:00:00,12,1006.2,0.4,94,11,3000,18.52,,,210,9.6,14.8,,,,,3,,,10,wg-a,,,,AAXX 17064 07070 02430 32110 10120 20110 39954 40062 53004 60006 71011 83500 90600 333 10148 20096 60034=
07070,1996-05-17 09:00:00,16,1005.6,-0.5,72,11,10000,14.816,,,220,,,,,,,,,,,wg-a,,,,AAXX 17094 07070 12560 72208 10160 20110 39949 40056 58005 60006 8223/ 90900=
07070,1996-05-17 12:00:00,18,1005,-0.5,64,11,12000,11.112,,,240,,,,,,,,,,,wg-a,,,,AAXX 17124 07070 12662 82406 10180 20110 39944 40050 58005 60006 872// 91200=
07070,1996-05-17 15:00:00,17,1004.2,-0.8,72,12,15000,7.408,,,310,,,,0,,,,,,1,wg-a,,,,AAXX 17154 07070 12665 63104 10170 20120 39936 40042 55008 60007 70198 8587/ 91500=
07070,1996-05-17 18:00:00,17,1004.3,0.1,77,13,12000,7.408,,,20,12.2,18.5,,,,,,,,3,wg-a,,,,AAXX 17184 07070 32562 70204 10170 20130 39937 40043 53001 70398 872// 91800 333 10185 20122=
07070,1996-05-17 21:00:00,12,1004.9,0.4,94,11,3000,3.704,,,50,,,,1,,,,,,10,wg-a,,,,AAXX 17214 07070 12530 /0502 10120 20110 39941 40049 52004 60017 71062 86800 92100=
07070,1996-05-18 00:00:00,12,1004.3,-0.6,100,12,8000,7.408,,,200,,,,,,,,,,3,wg-a,,,,AAXX 18004 07070 12758 72004 10120 20120 39935 40043 58006 60016 70362 875// 90000=
07070,1996-05-18 03:00:00,12,1002.6,-1.7,100,12,7000,11.112,,,160,,,,0,,,,,,61,wg-a,,,,AAXX 18034 07070 12757 71606 10120 20120 39918 40026 56017 60007 76162 875// 90300=
07070,1996-05-18 06:00:00,13,1001.9,-0.7,94,12,8000,11.112,,,170,9.8,17,,4,,,5,,,61,wg-a,,,,AAXX 18064 07070 02358 71706 10130 20120 39911 40019 58007 60054 76162 878// 90600 333 10170 20098 60047=
07070,1996-05-18 09:00:00,16,1001.9,0.2,88,14,15000,18.52,,,200,,,,,,,,,,,wg-a,,,,AAXX 18094 07070 02465 82010 10160 20140 39913 40019 51002 61000 84237 90900 333 ////=
07070,1996-05-18 12:00:00,18,1001.6,-0.3,77,14,25000,22.224,,,170,,,,,,,,,,,wg-a,,,,AAXX 18124 07070 02475 71712 10180 20140 39910 40016 58003 61000 878// 91200 333 ////=
07070,1996-05-18 15:00:00,19,1000.4,-1.1,73,14,500,22.224,,,160,,,,,,,,,,,wg-a,,,,AAXX 18154 07070 12500 /1612 10190 20140 39899 40004 58011 60006 85202 91500=
07070,1996-05-18 18:00:00,14,1001.9,1.3,77,10,4000,29.632,,,260,12.9,19.9,,1,,,,,,81,wg-a,,,,AAXX 18184 07070 12540 72616 10140 20100 39912 40019 53013 60017 78198 879// 91800 333 10199 20129=
07070,1996-05-18 21:00:00,11,1001.8,-0.2,94,10,20000,7.408,,,140,,,,4,,,,,,1,wg-a,,,,AAXX 18214 07070 12670 71404 10110 20100 39910 40018 58002 60047 70198 878// 92100=
07070,1996-05-19 00:00:00,13,1002.6,0.8,94,12,20000,22.224,,,180,,,,,,,,,,3,wg-a,,,,AAXX 19004 07070 12770 71812 10130 20120 39918 40026 53008 60046 70398 875// 90000=
07070,1996-05-19 03:00:00,11,1002.8,0.2,82,8,20000,14.816,,,220,,,,,,,,,,,wg-a,,,,AAXX 19034 07070 12770 72208 10110 20080 39920 40028 53002 60006 8357/ 90300=
07070,1996-05-19 06:00:00,11,1004.1,1.2,76,7,20000,18.52,,,240,10.2,13.5,,,,,5,,,,wg-a,,,,AAXX 19064 07070 12470 72410 10110 20070 39932 40041 51012 60054 8587/ 90600 333 10135 20102=
07070,1996-05-19 09:00:00,11,1006.5,2.4,71,6,20000,11.112,,,220,,,,,,,,,,21,wg-a,,,,AAXX 19094 07070 02570 72206 10110 20060 39956 40065 51024 61000 72162 8483/ 90900 333 ////=
07070,1996-05-19 12:00:00,14,1007.3,0.9,58,6,20000,18.52,,,240,,,,,,,,,,1,wg-a,,,,AAXX 19124 07070 02670 /2410 10140 20060 39965 40073 51009 61000 70162 86201 91200 333 ////=
07070,1996-05-19 15:00:00,16,1007.1,-0.1,55,7,20000,18.52,,,250,,,,,,,,,,,wg-a,,,,AAXX 19154 07070 12670 52510 10160 20070 39964 40071 58001 60006 84801 91500=
07070,1996-05-19 17:00:00,15,1008.2,1,51,5,500,18.52,,,250,,16.4,,,,,,,,,wg-a,,,,AAXX 19174 07070 32700 12510 10150 20050 39968 40082 53010 81400 91700 333 10164=
07070,1996-05-19 18:00:00,15,1008.2,1,51,5,500,18.52,,,250,10.1,16.4,,,,,,,,,wg-a,,,,AAXX 19184 07070 32700 12510 10150 20050 39974 40082 53010 81400 91800 333 10164 20101=
07070,1996-05-19 21:00:00,10,1010.8,2.4,82,7,500,14.816,,,300,,,,,,,,,,,wg-a,,,,AAXX 19214 07070 12700 23008 10100 20070 39998 40108 53024 60006 82500 92100=
07070,1996-05-20 00:00:00,4,1011.7,0.7,100,4,500,0,,,0,,,,,,,,,,,wg-a,,,,AAXX 20004 07070 12/00 00000 10040 20040 30005 40117 53007 60006 80000 90000=
07070,1996-05-20 03:00:00,3,1013.2,1.4,93,2,20000,7.408,,,170,,,,,,,,,,,wg-a,,,,AAXX 20034 07070 12/70 01704 10030 20020 30019 40132 51014 60006 80000 90300=
07070,1996-05-20 06:00:00,7,1014.5,1.5,93,6,15000,3.704,,,220,2.3,14.6,,,,,,,,,wg-a,,,,AAXX 20064 07070 02/65 12202 10070 20060 30034 40145 51015 60006 80001 90600 333 10146 20023 61000=
07070,1996-05-20 09:00:00,14,1015.6,1.3,63,7,25000,14.816,,,280,,,,,,,,,,,wg-a,,,,AAXX 20094 07070 12575 /2808 10140 20070 30047 40156 51013 60006 85201 90900=
07070,1996-05-20 12:00:00,16,1016.1,0.6,48,5,25000,14.816,,,250,,,,,,,,,,,wg-a,,,,AAXX 20124 07070 12675 /2508 10160 20050 30053 40161 52006 60006 86800 91200=
07070,1996-05-20 15:00:00,17,1016.4,0.3,48,6,25000,11.112,,,260,,,,,,,,,,,wg-a,,,,AAXX 20154 07070 12675 72606 10170 20060 30056 40164 52003 60006 86801 91500=
07070,1996-05-20 18:00:00,14,1016.8,0.3,67,8,25000,0,,,0,7.1,17,,,,,,,,1,wg-a,,,,AAXX 20184 07070 12775 70000 10140 20080 30059 40168 51003 60006 70182 83801 91800 333 10170 20071=
07070,1996-05-20 21:00:00,11,1018.6,1.7,94,10,8000,14.816,,,250,,,,,,,,,,61,wg-a,,,,AAXX 20214 07070 02758 82508 10110 20100 30076 40186 53017 61000 76162 885// 92100 333 ////=
07070,1996-05-21 00:00:00,9,1018.7,0,93,8,8000,7.408,,,160,,,,4,,,,,,21,wg-a,,,,AAXX 21004 07070 02758 71604 10090 20080 30076 40187 50000 60046 72162 875// 90000 333 60047=
07070,1996-05-21 03:00:00,10,1018.8,0.1,93,9,8000,7.408,,,210,,,,,,,,,,60,wg-a,,,,AAXX 21034 07070 02758 72104 10100 20090 30077 40188 50001 61000 76062 875// 90300 333 ////=
07070,1996-05-21 06:00:00,10,1019.8,1,93,9,12000,11.112,,,240,8.6,14.2,,,,,4,,,1,wg-a,,,,AAXX 21064 07070 02262 /2406 10100 20090 30087 40198 53010 60044 70161 81800 90600 333 10142 20086 61000=
07070,1996-05-21 09:00:00,13,1020.5,0.8,67,7,20000,22.224,,,260,,,,,,,,,,,wg-a,,,,AAXX 21094 07070 12570 /2612 10130 20070 30095 40205 51008 60006 85201 90900=
07070,1996-05-21 12:00:00,16,1019.8,-0.5,55,7,25000,22.224,,,240,,,,,,,,,,,wg-a,,,,AAXX 21124 07070 12675 72412 10160 20070 30090 40198 58005 60006 85231 91200=
07070,1996-05-21 15:00:00,12,1021.6,1.6,76,8,15000,11.112,,,280,,,,4,,,,,,3,wg-a,,,,AAXX 21154 07070 12565 72806 10120 20080 30106 40216 51016 60047 70382 874// 91500=
07070,1996-05-21 18:00:00,11,1022.8,1.1,76,7,20000,11.112,,,310,8.9,16.1,,,,,,,,1,wg-a,,,,AAXX 21184 07070 02570 /3106 10110 20070 30117 40228 53011 61000 70181 81400 91800 333 10161 20089 ////=
07070,1996-05-21 21:00:00,7,1024.8,1.9,87,5,20000,7.408,,,220,,,,,,,,,,,wg-a,,,,AAXX 21214 07070 12670 /2204 10070 20050 30136 40248 53019 60006 81201 92100=
07070,1996-05-22 00:00:00,4,1025.6,0.6,93,3,15000,3.704,,,200,,,,,,,,,,,wg-a,,,,AAXX 22004 07070 12765 42002 10040 20030 30142 40256 50006 60006 83501 90000=
07070,1996-05-22 03:00:00,5,1025.6,-0,100,5,10000,3.704,,,200,,,,,,,,,,,wg-a,,,,AAXX 22034 07070 12/60 62002 10050 20050 30142 40256 54000 60006 84031 90300=
07070,1996-05-22 06:00:00,8,1026,0.6,93,7,10000,0,,,0,3.5,11.4,,0,,,5,,,60,wg-a,,,,AAXX 22064 07070 02660 70000 10080 20070 30148 40260 53006 60054 76062 8257/ 90600 333 10114 20035 60007=
07070,1996-05-22 09:00:00,13,1025.7,-0.1,72,8,15000,14.816,,,160,,,,,,,,,,,wg-a,,,,AAXX 22094 07070 02665 81608 10130 20080 30147 40257 58001 61000 8252/ 90900 333 ////=
07070,1996-05-22 12:00:00,16,1023.6,-2,63,9,15000,22.224,,,220,,,,,,,,,,1,wg-a,,,,AAXX 22124 07070 02665 72212 10160 20090 30127 40236 58020 61000 70162 83202 91200 333 ////=
07070,1996-05-22 18:00:00,15,1020.3,-1.5,55,6,15000,18.52,,,220,7.5,17.2,,,,,,,,60,wg-a,,,,AAXX 22184 07070 02665 82210 10150 20060 30094 40203 56015 61000 76062 8522/ 91800 333 10172 20075 ////=
07070,1996-05-22 21:00:00,11,1019.9,-0.6,87,9,15000,14.816,,,200,,,,0,,,,,,60,wg-a,,,,AAXX 22214 07070 12765 82008 10110 20090 30088 40199 58006 60007 76066 885// 92100=
07070,1996-05-23 00:00:00,11,1018,-1.8,87,9,15000,25.928,,,220,,,,0,,,,,,3,wg-a,,,,AAXX 23004 07070 02465 82214 10110 20090 30070 40180 56018 60016 70362 885// 90000 333 60007=
07070,1996-05-23 03:00:00,12,1017.6,-0.4,88,10,15000,18.52,,,230,,,,,,,,,,,wg-a,,,,AAXX 23034 07070 12465 82310 10120 20100 30066 40176 55004 60006 885// 90300=
07070,1996-05-23 06:00:00,13,1018.6,1,88,11,15000,14.816,,,240,10.5,14.9,,,,,1,,,21,wg-a,,,,AAXX 23064 07070 02465 72408 10130 20110 30076 40186 53010 60014 72162 875// 90600 333 10149 20105 61000=
07070,1996-05-23 09:00:00,14,1019.6,1.1,82,11,15000,18.52,,,280,,,,,,,,,,21,wg-a,,,,AAXX 23094 07070 02565 82810 10140 20110 30087 40196 52011 61000 72162 8687/ 90900 333 ////=
07070,1996-05-23 12:00:00,17,1019.8,0.3,68,11,20000,18.52,,,260,,,,,,,,,,1,wg-a,,,,AAXX 23124 07070 02570 72610 10170 20110 30090 40198 51003 61000 70162 877// 91200 333 ////=
07070,1996-05-23 15:00:00,18,1019.1,-0.6,64,11,20000,18.52,,,260,,,,,,,,,,,wg-a,,,,AAXX 23154 07070 12670 /2610 10180 20110 30084 40191 58006 60006 85830 91500=
07070,1996-05-23 18:00:00,17,1018.7,-0.5,77,13,25000,22.224,,,250,12.5,19.5,,,,,,,,,wg-a,,,,AAXX 23184 07070 32575 72512 10170 20130 30079 40187 56005 878// 91800 333 10195 20125=
07070,1996-05-23 21:00:00,15,1018.6,-0.1,88,13,10000,11.112,,,220,,,,,,,,,,,wg-a,,,,AAXX 23214 07070 12/60 /2206 10150 20130 30078 40186 56001 60006 92100=
07070,1996-05-24 00:00:00,14,1017.6,-1.1,94,13,15000,14.816,,,210,,,,,,,,,,,wg-a,,,,AAXX 24004 07070 12/65 62108 10140 20130 30067 40176 58011 60006 80002 90000=
07070,1996-05-24 03:00:00,12,1016.5,-1.2,94,11,12000,7.408,,,200,,,,,,,,,,,wg-a,,,,AAXX 24034 07070 12/62 72004 10120 20110 30055 40165 58012 60006 84032 90300=
07070,1996-05-24 06:00:00,14,1015.7,-0.6,94,13,12000,11.112,,,160,11.8,17.3,,,,,,,,,wg-a,,,,AAXX 24064 07070 02462 /1606 10140 20130 30049 40157 57006 60006 81832 90600 333 10173 20118 61000=
07070,1996-05-24 09:00:00,19,1014,-1.5,73,14,15000,25.928,,,210,,,,,,,,,,,wg-a,,,,AAXX 24094 07070 12565 72114 10190 20140 30034 40140 58015 60006 82822 90900=
07070,1996-05-24 12:00:00,21,1012.2,-1.7,60,13,15000,29.632,,,230,,,,,,,,,,,wg-a,,,,AAXX 24124 07070 12665 72316 10210 20130 30017 40122 57017 60006 82102 91200=
07070,1996-05-24 15:00:00,22,1011.1,-1.1,43,9,20000,29.632,,,240,,,,,,,,,,,wg-a,,,,AAXX 24154 07070 12670 72416 10220 20090 30006 40111 56011 60006 81132 91500=
07070,1996-05-24 18:00:00,21,1009.8,-1.4,43,8,20000,22.224,,,250,14.4,22.3,,,,,,,,,wg-a,,,,AAXX 24184 07070 12/70 72512 10210 20080 39992 40098 58014 60006 84032 91800 333 10223 20144=
07070,1996-05-24 21:00:00,17,1010.2,0.3,59,9,20000,14.816,,,220,,,,,,,,,,,wg-a,,,,AAXX 24214 07070 12/70 72208 10170 20090 39995 40102 53003 60006 8703/ 92100=
07070,1996-05-25 00:00:00,15,1010,-0.3,72,10,20000,22.224,,,250,,,,,,,,,,,wg-a,,,,AAXX 25004 07070 12770 72512 10150 20100 39992 40100 58003 60006 8757/ 90000=
07070,1996-05-25 06:00:00,13,1009.9,0.3,88,11,10000,29.632,,,230,13.3,20.8,,,,,,,,,wg-a,,,,AAXX 25064 07070 12560 82316 10130 20110 39991 40099 51003 60006 8687/ 90600 333 10208 20133=
07070,1996-05-25 09:00:00,13,1010.3,0.4,94,12,7000,22.224,,,240,,,,1,,,,,,61,wg-a,,,,AAXX 25094 07070 12457 82412 10130 20120 39995 40103 50004 60017 76162 8522/ 90900=
07070,1996-05-25 12:00:00,13,1010.5,-0.1,94,12,7000,22.224,,,260,,,,3,,,,,,61,wg-a,,,,AAXX 25124 07070 02457 82612 10130 20120 39996 40105 55001 60056 76166 8352/ 91200 333 60037=
07070,1996-05-25 15:00:00,12,1011.5,1,88,10,20000,11.112,,,240,,,,2,,,,,,21,wg-a,,,,AAXX 25154 07070 12470 82406 10120 20100 30006 40115 51010 60027 72162 8322/ 91500=
07070,1996-05-25 18:00:00,14,1012.7,1.3,82,11,20000,11.112,,,290,11.5,14.4,,0,,,,,,1,wg-a,,,,AAXX 25184 07070 12470 42906 10140 20110 30019 40127 53013 60007 70162 84800 91800 333 10144 20115=
07070,1996-05-25 21:00:00,10,1014.2,1.3,93,9,15000,7.408,,,230,,,,,,,,,,11,wg-a,,,,AAXX 25214 07070 12765 72304 10100 20090 30032 40142 52013 60006 71111 81501 92100=
07070,1996-05-26 00:00:00,8,1014.8,0.5,100,8,10000,3.704,,,300,,,,,,,,,,28,wg-a,,,,AAXX 26004 07070 12/60 43002 10080 20080 30037 40148 53005 60006 72841 80001 90000=
07070,1996-05-26 03:00:00,6,1015.8,0.9,93,5,4000,7.408,,,230,,,,,,,,,,10,wg-a,,,,AAXX 26034 07070 12640 32304 10060 20050 30046 40158 53009 60006 71000 83500 90300=
07070,1996-05-26 06:00:00,9,1017.3,1.6,100,9,10000,11.112,,,230,4.2,13.9,,,,,7,,,,wg-a,,,,AAXX 26064 07070 02/60 62306 10090 20090 30062 40173 53016 60006 86039 90600 333 10139 20042 60074=
07070,1996-05-26 09:00:00,15,1017.6,0.5,59,7,25000,14.816,,,250,,,,,,,,,,,wg-a,,,,AAXX 26094 07070 12575 72508 10150 20070 30067 40176 51005 60006 82231 90900=
07070,1996-05-26 12:00:00,18,1017,-0.5,49,7,25000,25.928,,,250,,,,,,,,,,,wg-a,,,,AAXX 26124 07070 12675 72514 10180 20070 30062 40170 55005 60006 84231 91200=
07070,1996-05-26 15:00:00,16,1015,-2,82,13,20000,14.816,,,220,,,,1,,,,,,60,wg-a,,,,AAXX 26154 07070 12570 82208 10160 20130 30042 40150 58020 60017 76062 8687/ 91500=
07070,1996-05-26 18:00:00,15,1013.2,-1.8,88,13,12000,25.928,,,240,9.4,18.6,,0,,,,,,2,wg-a,,,,AAXX 26184 07070 12462 82414 10150 20130 30024 40132 56018 60007 70262 875// 91800 333 10186 20094=
07070,1996-05-26 21:00:00,14,1012.4,-0.8,94,13,500,25.928,,,250,,,,0,,,,,,50,wg-a,,,,AAXX 26214 07070 12300 82514 10140 20130 30016 40124 56008 60007 75052 887// 92100=
07070,1996-05-27 00:00:00,13,1010.5,-1.9,94,12,15000,18.52,,,240,,,,,,,,,,1,wg-a,,,,AAXX 27004 07070 02465 42410 10130 20120 39997 40105 56019 60016 70152 84500 90000 333 61000=
07070,1996-05-27 03:00:00,12,1009.7,-0.9,82,9,15000,22.224,,,270,,,,0,,,,,,,wg-a,,,,AAXX 27034 07070 12665 82712 10120 20090 39988 40097 57009 60007 875// 90300=
07070,1996-05-27 06:00:00,12,1009.7,-0,94,11,7000,22.224,,,250,11.5,15.2,,1,,,2,,,61,wg-a,,,,AAXX 27064 07070 02457 82512 10120 20110 39988 40097 55000 60024 76165 885// 90600 333 10152 20115 60017=
07070,1996-05-27 12:00:00,14,1011.3,1,88,12,10000,31.484,,,270,,,,,,,,,,50,wg-a,,,,AAXX 27124 07070 02460 82717 10140 20120 30005 40113 53010 60016 75065 882// 91200 333 61000=
07070,1996-05-27 15:00:00,16,1012.8,1.6,82,13,12000,31.484,,,280,,,,1,,,,,,1,wg-a,,,,AAXX 27154 07070 12462 52817 10160 20130 30021 40128 51016 60017 70185 84231 91500=
07070,1996-05-27 18:00:00,14,1015.4,2.5,88,12,12000,22.224,,,300,11.3,16.3,,0,,,,,,25,wg-a,,,,AAXX 27184 07070 12462 73012 10140 20120 30046 40154 53025 60007 72586 872// 91800 333 10163 20113=
07070,1996-05-27 21:00:00,11,1019.6,4,87,9,9000,22.224,,,340,,,,0,,,,,,1,wg-a,,,,AAXX 27214 07070 12459 83412 10110 20090 30086 40196 53040 60007 70182 872// 92100=
07070,1996-05-28 00:00:00,8,1023.3,3.5,87,6,10000,14.816,,,330,,,,,,,,,,1,wg-a,,,,AAXX 28004 07070 12760 23308 10080 20060 30121 40233 52035 60006 70181 82500 90000=
07070,1996-05-28 03:00:00,5,1024.6,1.2,100,5,6000,11.112,,,330,,,,,,,,,,,wg-a,,,,AAXX 28034 07070 12456 33306 10050 20050 30133 40246 51012 60006 83500 90300=
07070,1996-05-28 06:00:00,7,1026.8,2.2,93,6,7000,7.408,,,330,5.2,14.3,,,,,3,,,,wg-a,,,,AAXX 28064 07070 12357 /3304 10070 20060 30155 40268 51022 60034 85800 90600 333 10143 20052=
07070,1996-05-28 09:00:00,11,1027.7,1.1,66,5,20000,7.408,,,40,,,,,,,,,,,wg-a,,,,AAXX 28094 07070 12570 /0404 10110 20050 30166 40277 53011 60006 86200 90900=
07070,1996-05-28 12:00:00,14,1027.4,-0.2,55,5,25000,3.704,,,360,,,,,,,,,,,wg-a,,,,AAXX 28124 07070 12675 43602 10140 20050 30164 40274 58002 60006 84200 91200=
07070,1996-05-28 15:00:00,16,1025.9,-1.4,51,6,500,11.112,,,330,,,,,,,,,,,wg-a,,,,AAXX 28154 07070 12700 33306 10160 20060 30150 40259 58014 60006 81102 91500=
07070,1996-05-28 18:00:00,15,1024.9,-1,55,6,500,7.408,,,10,7,16.2,,,,,,,,,wg-a,,,,AAXX 28184 07070 12/00 30104 10150 20060 30140 40249 56010 60006 83030 91800 333 10162 20070=
07070,1996-05-28 21:00:00,11,1025.5,0.4,87,9,15000,3.704,,,150,,,,,,,,,,,wg-a,,,,AAXX 28214 07070 12/65 71502 10110 20090 30144 40255 53004 60006 8703/ 92100=
07070,1996-05-29 00:00:00,8,1024.7,-0.9,87,6,12000,7.408,,,190,,,,,,,,,,,wg-a,,,,AAXX 29004 07070 12/62 01904 10080 20060 30135 40247 58009 60006 80000 90000=
07070,1996-05-29 03:00:00,10,1024.1,-0.5,87,8,12000,7.408,,,200,,,,,,,,,,,wg-a,,,,AAXX 29034 07070 12/62 72004 10100 20080 30130 40241 56005 60006 8703/ 90300=
07070,1996-05-29 06:00:00,12,1024.2,0.2,82,9,16000,7.408,,,190,8,15.1,,,,,,,,,wg-a,,,,AAXX 29064 07070 12/66 11904 10120 20090 30132 40242 53002 60006 81030 90600 333 10151 20080=
07070,1996-05-29 09:00:00,18,1024.3,0.3,52,8,20000,11.112,,,250,,,,,,,,,,,wg-a,,,,AAXX 29094 07070 12/70 22506 10180 20080 30135 40243 50003 60006 81031 90900=
07070,1996-05-29 12:00:00,21,1023.3,-0.9,43,8,20000,3.704,,,230,,,,,,,,,,,wg-a,,,,AAXX 29124 07070 12/70 42302 10210 20080 30126 40233 57009 60006 80001 91200=
07070,1996-05-29 18:00:00,21,1021.2,-1.2,56,12,10000,11.112,,,170,12,23,,,,,,,,,wg-a,,,,AAXX 29184 07070 12/60 /1706 10210 20120 30105 40212 56012 60006 91800 333 10230 20120=
07070,1996-05-29 21:00:00,14,1022.1,0.7,88,12,15000,3.704,,,70,,,,,,,,,,,wg-a,,,,AAXX 29214 07070 12/65 50702 10140 20120 30112 40221 51007 60006 80001 92100=
07070,1996-05-30 00:00:00,11,1021.5,0.7,94,10,12000,0,,,0,,,,,,,,,,,wg-a,,,,AAXX 30004 07070 12/62 50000 10110 20100 30105 40215 52007 60006 80001 90000=
07070,1996-05-30 03:00:00,9,1020.2,-1.4,93,8,10000,3.704,,,140,,,,,,,,,,,wg-a,,,,AAXX 30034 07070 12/60 31402 10090 20080 30091 40202 57014 60006 80001 90300=
07070,1996-05-30 06:00:00,14,1020,-0,88,12,12000,3.704,,,20,8.2,21,,,,,,,,,wg-a,,,,AAXX 30064 07070 12/62 60202 10140 20120 30091 40200 55000 60006 80002 90600 333 10210 20082=
07070,1996-05-30 12:00:00,25,1017.3,-1.8,44,12,25000,18.52,,,150,,,,,,,,,,,wg-a,,,,AAXX 30124 07070 12/75 71510 10250 20120 30068 40173 58018 60006 80002 91200=
07070,1996-05-30 18:00:00,24,1014.8,-0.7,57,15,25000,14.816,,,160,14,27.1,,,,,,,,,wg-a,,,,AAXX 30184 07070 12/75 71608 10240 20150 30043 40148 56007 60006 80002 91800 333 10271 20140=
07070,1996-05-30 21:00:00,17,1014.7,-0.3,88,15,20000,14.816,,,160,,,,,,,,,,,wg-a,,,,AAXX 30214 07070 12/70 51608 10170 20150 30040 40147 56003 60006 80002 92100=
07070,1996-05-31 00:00:00,16,1014.7,-0.1,94,15,15000,11.112,,,170,,,,,,,,,,,wg-a,,,,AAXX 31004 07070 12/65 21706 10160 20150 30039 40147 58001 60006 80001 90000=
07070,1996-05-31 03:00:00,17,1014.6,-0,82,14,15000,11.112,,,180,,,,,,,,,,,wg-a,,,,AAXX 31034 07070 12/65 11806 10170 20140 30039 40146 55000 60006 80001 90300=
07070,1996-05-31 06:00:00,15,1018.8,4,82,12,12000,14.816,,,340,14.7,24.1,,,,,,,,,wg-a,,,,AAXX 31064 07070 12462 /3408 10150 20120 30079 40188 53040 60006 86501 90600 333 10241 20147=
07070,1996-05-31 09:00:00,17,1021.2,2.5,77,13,12000,14.816,,,280,,,,,,,,,,,wg-a,,,,AAXX 31094 07070 12462 72808 10170 20130 30104 40212 52025 60006 875// 90900=
07070,1996-05-31 12:00:00,19,1021.8,0.7,64,12,15000,14.816,,,310,,,,,,,,,,21,wg-a,,,,AAXX 31124 07070 02565 73108 10190 20120 30111 40218 51007 61000 72162 8453/ 91200 333 6100=
07070,1996-05-31 15:00:00,19,1021.6,-0.2,68,13,15000,14.816,,,320,,,,,,,,,,,wg-a,,,,AAXX 31154 07070 12565 73208 10190 20130 30109 40216 58002 60006 8253/ 91500=
07070,1996-05-31 18:00:00,19,1020.8,-0.8,64,12,15000,3.704,,,330,14.4,20,,,,,,,,,wg-a,,,,AAXX 31184 07070 32565 73302 10190 20120 30101 40208 57008 8588/ 91800 333 10200 20144=
07070,1996-05-31 21:00:00,17,1021.4,0.5,82,14,7000,3.704,,,340,,,,0,,,,,,61,wg-a,,,,AAXX 31214 07070 12657 73402 10170 20140 30106 40214 53005 60007 76162 8418/ 92100=
07070,1996-06-01 00:00:00,14,1021.4,-0.1,94,13,0,18.52,,,340,,,,,,,,,,,wg-a,,,,AAXX 01004 07070 12/// /3410 10140 20130 30105 40214 55001 60076 90000=
07070,1996-06-01 03:00:00,11,1022.1,0.5,94,10,6000,11.112,,,330,,,,7,,,,,,61,wg-a,,,,AAXX 01034 07070 12456 83306 10110 20100 30110 40221 53005 60077 76166 8558/ 90300=
07070,1996-06-01 06:00:00,10,1022.4,0.3,100,10,0,3.704,,,50,10.1,19,,4,,,18,,,,wg-a,,,,AAXX 01064 07070 02/// /0502 10100 20100 30113 40224 50003 60184 90600 333 10190 20101 60047=
07070,1996-06-01 09:00:00,14,1022.9,0.6,82,11,15000,7.408,,,320,,,,,,,,,,,wg-a,,,,AAXX 01094 07070 12465 73204 10140 20110 30119 40229 51006 60006 878// 90900=
07070,1996-06-01 12:00:00,17,1022.3,-0.4,68,11,20000,11.112,,,240,,,,,,,,,,,wg-a,,,,AAXX 01124 07070 12570 /2406 10170 20110 30115 40223 58004 60006 86800 91200=
07070,1996-06-01 15:00:00,17,1022,-0.3,55,8,20000,14.816,,,270,,,,,,,,,,,wg-a,,,,AAXX 01154 07070 12770 72708 10170 20080 30112 40220 55003 60006 872// 91500=
07070,1996-06-01 18:00:00,17,1021.5,-0.5,55,8,20000,11.112,,,280,10.4,18.9,,,,,,,,,wg-a,,,,AAXX 01184 07070 12770 72806 10170 20080 30107 40215 57005 60006 8443/ 91800 333 10189 20104=
07070,1996-06-01 21:00:00,12,1021,-0.7,88,10,15000,3.704,,,280,,,,,,,,,,,wg-a,,,,AAXX 01214 07070 12/65 62802 10120 20100 30100 40210 56007 60006 84032 92100=
07070,1996-06-02 00:00:00,10,1020.5,-0.6,93,9,15000,7.408,,,340,,,,,,,,,,,wg-a,,,,AAXX 02004 07070 12/65 73404 10100 20090 30094 40205 58006 60006 82032 90000=
07070,1996-06-02 03:00:00,9,1019.5,-1,93,8,10000,7.408,,,340,,,,,,,,,,,wg-a,,,,AAXX 02034 07070 12760 73404 10090 20080 30084 40195 56010 60006 82532 90300=
07070,1996-06-02 06:00:00,11,1018.8,-0.6,87,9,15000,3.704,,,330,9.1,16.8,,,,,,,,,wg-a,,,,AAXX 02064 07070 12765 73302 10110 20090 30078 40188 56006 60006 875// 90600 333 10168 20091=
07070,1996-06-02 09:00:00,14,1018.2,-0.5,77,10,15000,7.408,,,30,,,,,,,,,,,wg-a,,,,AAXX 02094 07070 12565 70304 10140 20100 30073 40182 58005 60006 8383/ 90900=
07070,1996-06-02 12:00:00,18,1017.2,-0.9,52,8,20000,14.816,,,10,,,,,,,,,,,wg-a,,,,AAXX 02124 07070 12670 70108 10180 20080 30064 40172 58009 60006 8123/ 91200=
07070,1996-06-02 15:00:00,16,1016.5,-0.7,77,12,25000,7.408,,,100,,,,,,,,,,,wg-a,,,,AAXX 02154 07070 12675 71004 10160 20120 30057 40165 56007 60006 8423/ 91500=
07070,1996-06-02 18:00:00,16,1017,0.5,72,11,16000,0,,,0,10.5,18.5,,,,,,,,3,wg-a,,,,AAXX 02184 07070 12666 70000 10160 20110 30062 40170 53005 60006 70382 8223/ 91800 333 10185 20105=
07070,1996-06-02 21:00:00,13,1018.1,1,88,11,10000,7.408,,,340,,,,,,,,,,,wg-a,,,,AAXX 02214 07070 12760 73404 10130 20110 30072 40181 53010 60006 875// 92100=
07070,1996-06-03 00:00:00,13,1018.2,0.1,82,10,10000,7.408,,,300,,,,,,,,,,,wg-a,,,,AAXX 03004 07070 12760 73004 10130 20100 30073 40182 50001 60006 875// 90000=
07070,1996-06-03 03:00:00,10,1018.6,0.3,93,9,10000,7.408,,,330,,,,,,,,,,,wg-a,,,,AAXX 03034 07070 12760 73304 10100 20090 30076 40186 51003 60006 875// 90300=
07070,1996-06-03 06:00:00,12,1020.7,2.1,88,10,7000,3.704,,,320,10.2,16.2,,,,,,,,,wg-a,,,,AAXX 03064 07070 12757 /3202 10120 20100 30097 40207 53021 60006 86500 90600 333 10162 20102=
07070,1996-06-03 12:00:00,19,1021.5,0.3,52,9,12000,7.408,,,300,,,,,,,,,,,wg-a,,,,AAXX 03124 07070 12662 /3004 10190 20090 30108 40215 51003 60006 85201 91200=
07070,1996-06-03 15:00:00,21,1021.3,-0.2,49,10,15000,7.408,,,360,,,,,,,,,,,wg-a,,,,AAXX 03154 07070 12665 33604 10210 20100 30106 40213 58002 60006 83200 91500=
07070,1996-06-03 21:00:00,13,1024.1,1.7,88,11,12000,0,,,0,,,,,,,,,,,wg-a,,,,AAXX 03214 07070 12762 10000 10130 20110 30131 40241 53017 60006 81401 92100=
07070,1996-06-04 00:00:00,11,1025.1,0.9,94,10,10000,11.112,,,310,,,,,,,,,,,wg-a,,,,AAXX 04004 07070 12/60 03106 10110 20100 30140 40251 52009 60006 80000 90000=
07070,1996-06-04 03:00:00,8,1025.8,,100,8,10000,0,,,0,,,,,,,,,,,wg-a,,,,AAXX 04034 07070 32760 10000 10080 20080 30146 40258 81500 90300=
07070,1996-06-04 06:00:00,12,1027.5,1.5,88,10,8000,0,,,0,7.3,20,,,,,,,,,wg-a,,,,AAXX 04064 07070 12758 /0000 10120 20100 30164 40275 51015 60006 81501 90600 333 10200 20073=
07070,1996-06-04 09:00:00,20,1028,0.8,56,11,12000,3.704,,,130,,,,,,,,,,,wg-a,,,,AAXX 04094 07070 12562 /1302 10200 20110 30172 40280 51008 60006 81101 90900=
07070,1996-06-04 12:00:00,22,1027.6,-0.3,50,11,15000,7.408,,,360,,,,,,,,,,,wg-a,,,,AAXX 04124 07070 12765 13604 10220 20110 30169 40276 57003 60006 81100 91200=
07070,1996-06-04 15:00:00,23,1027,-0.6,44,10,10000,7.408,,,90,,,,,,,,,,,wg-a,,,,AAXX 04154 07070 12/60 /0904 10230 20100 30163 40270 56006 60006 91500=
07070,1996-06-04 18:00:00,23,1026.7,-0.3,44,10,15000,7.408,,,80,12.1,23.5,,,,,,,,,wg-a,,,,AAXX 04184 07070 12/65 10804 10230 20100 30160 40267 55003 60006 80001 91800 333 10235 20121=
07070,1996-06-04 21:00:00,17,1027.4,0.5,68,11,15000,3.704,,,340,,,,,,,,,,,wg-a,,,,AAXX 04214 07070 12/65 03402 10170 20110 30165 40274 53005 60006 80000 92100=
07070,1996-06-05 00:00:00,13,1027.2,-0.3,88,11,12000,3.704,,,270,,,,,,,,,,,wg-a,,,,AAXX 05004 07070 12/62 02702 10130 20110 30162 40272 58003 60006 80000 90000=
07070,1996-06-05 03:00:00,10,1026.8,-0.6,93,9,10000,0,,,0,,,,,,,,,,,wg-a,,,,AAXX 05034 07070 12/60 00000 10100 20090 30156 40268 56006 60006 80000 90300=
07070,1996-06-05 06:00:00,14,1026.8,0.2,88,12,8000,0,,,0,9.6,22.6,,,,,,,,,wg-a,,,,AAXX 05064 07070 12/58 00000 10140 20120 30158 40268 53002 60006 80000 90600 333 10226 20096=
07070,1996-06-05 09:00:00,22,1025.5,-1,53,12,10000,14.816,,,100,,,,,,,,,,,wg-a,,,,AAXX 05094 07070 12/60 01008 10220 20120 30148 40255 58010 60006 80000 90900=
07070,1996-06-05 12:00:00,26,1023.9,-1.4,42,12,15000,18.52,,,80,,,,,,,,,,,wg-a,,,,AAXX 05124 07070 12/65 00810 10260 20120 30134 40239 58014 60006 80000 91200=
07070,1996-06-05 15:00:00,27,1022.1,-1.8,45,14,20000,14.816,,,90,,,,,,,,,,,wg-a,,,,AAXX 05154 07070 12/70 10908 10270 20140 30116 40221 56018 60006 80001 91500=
07070,1996-06-05 18:00:00,26,1021.3,-0.8,51,15,15000,11.112,,,80,14.4,27.4,,,,,,,,,wg-a,,,,AAXX 05184 07070 12/65 10806 10260 20150 30108 40213 56008 60006 80001 91800 333 10274 20144=
07070,1996-06-05 21:00:00,18,1021.6,-0,83,15,15000,7.408,,,90,,,,,,,,,,,wg-a,,,,AAXX 05214 07070 12/65 10904 10180 20150 30108 40216 55000 60006 80001 92100=
07070,1996-06-06 00:00:00,15,1021,-0.7,88,13,12000,3.704,,,60,,,,,,,,,,,wg-a,,,,AAXX 06004 07070 12/62 00602 10150 20130 30101 40210 57007 60006 80000 90000=
07070,1996-06-06 03:00:00,13,1020.4,-0.6,94,12,4000,3.704,,,60,,,,,,,,,,10,wg-a,,,,AAXX 06034 07070 12/40 /0602 10130 20120 30095 40204 57006 60006 71000 80001 90300=
07070,1996-06-06 06:00:00,17,1020.2,-0.1,94,16,4500,0,,,0,12.8,25.9,,,,,,,,10,wg-a,,,,AAXX 06064 07070 12/45 /0000 10170 20160 30094 40202 55001 60006 71000 80001 90600 333 10259 20128=
07070,1996-06-06 09:00:00,26,1020.1,0.2,65,19,8000,0,,,0,,,,,,,,,,,wg-a,,,,AAXX 06094 07070 12658 /0000 10260 20190 30096 40201 51002 60006 81101 90900=
07070,1996-06-06 12:00:00,28,1019.4,-0.6,51,17,12000,11.112,,,240,,,,,,,,,,,wg-a,,,,AAXX 06124 07070 12762 12406 10280 20170 30090 40194 58006 60006 81100 91200=
07070,1996-06-06 15:00:00,30,1018.6,-0.7,40,15,15000,18.52,,,260,,,,,,,,,,,wg-a,,,,AAXX 06154 07070 12765 12610 10300 20150 30083 40186 57007 60006 81400 91500=
07070,1996-06-06 18:00:00,30,1017.8,-0.8,49,18,15000,3.704,,,270,17.3,30.4,,,,,,,,,wg-a,,,,AAXX 06184 07070 12865 12702 10300 20180 30075 40178 56008 60006 81400 91800 333 10304 20173=
07070,1996-06-06 21:00:00,20,1018.4,0.3,88,18,12000,14.816,,,160,,,,,,,,,,,wg-a,,,,AAXX 06214 07070 12/62 11608 10200 20180 30078 40184 53003 60006 80002 92100=
07070,1996-06-07 00:00:00,20,1018.7,0.2,83,17,12000,7.408,,,200,,,,,,,,,,,wg-a,,,,AAXX 07004 07070 12/62 02004 10200 20170 30080 40187 50002 60006 80000 90000=
07070,1996-06-07 03:00:00,18,1018.3,-0.4,83,15,12000,0,,,0,,,,,,,,,,,wg-a,,,,AAXX 07034 07070 12/62 10000 10180 20150 30076 40183 58004 60006 80001 90300=
07070,1996-06-07 06:00:00,21,1018.6,0.4,88,19,6000,0,,,0,17,30.1,,,,,,,,,wg-a,,,,AAXX 07064 07070 12/56 /0000 10210 20190 30080 40186 53004 60006 80001 90600 333 10301 20170=
07070,1996-06-07 09:00:00,27,1018.3,-0.1,66,20,12000,7.408,,,170,,,,,,,,,,,wg-a,,,,AAXX 07094 07070 12/62 11704 10270 20200 30079 40183 58001 60006 81081 90900=
07070,1996-06-07 12:00:00,30,1017.3,-0.9,55,20,12000,18.52,,,150,,,,,,,,,,,wg-a,,,,AAXX 07124 07070 12/62 11510 10300 20200 30070 40173 58009 60006 80001 91200=
07070,1996-06-07 15:00:00,31,1016.1,-1.1,49,19,15000,22.224,,,160,,,,,,,,,,,wg-a,,,,AAXX 07154 07070 12765 11612 10310 20190 30059 40161 56011 60006 81100 91500=
07070,1996-06-07 18:00:00,28,1015.1,-1.1,66,21,15000,11.112,,,150,20.8,31.6,,,,,,,,,wg-a,,,,AAXX 07184 07070 12/65 01506 10280 20210 30048 40151 57011 60006 80000 91800 333 10316 20208=
07070,1996-06-07 21:00:00,23,1015.5,0.2,83,20,10000,14.816,,,160,,,,,,,,,,,wg-a,,,,AAXX 07214 07070 12/60 01608 10230 20200 30050 40155 53002 60006 80000 92100=
07070,1996-06-08 00:00:00,23,1014.8,-0.7,78,19,10000,18.52,,,180,,,,,,,,,,,wg-a,,,,AAXX 08004 07070 12/60 01810 10230 20190 30043 40148 58007 60006 80000 90000=
07070,1996-06-08 03:00:00,21,1014.7,-0.2,83,18,8000,14.816,,,190,,,,,,,,,,,wg-a,,,,AAXX 08034 07070 12/58 /1908 10210 20180 30041 40147 55002 60006 80001 90300=
07070,1996-06-08 06:00:00,23,1015.7,1.1,69,17,10000,14.816,,,190,19.3,28.2,,,,,,,,,wg-a,,,,AAXX 08064 07070 12/60 21908 10230 20170 30052 40157 51011 60006 80001 90600 333 10282 20193=
07070,1996-06-08 09:00:00,26,1016.8,1.2,61,18,16000,18.52,,,210,,,,,,,,,,,wg-a,,,,AAXX 08094 07070 12666 /2110 10260 20180 30064 40168 51012 60006 81200 90900=
07070,1996-06-08 12:00:00,27,1017.8,1,58,18,10000,25.928,,,260,,,,,,,,,,,wg-a,,,,AAXX 08124 07070 12660 /2614 10270 20180 30074 40178 53010 60006 81200 91200=
07070,1996-06-08 15:00:00,25,1018.6,0.7,61,17,10000,25.928,,,250,,,,,,,,,,,wg-a,,,,AAXX 08154 07070 12660 72514 10250 20170 30081 40186 50007 60006 8123/ 91500=
07070,1996-06-08 18:00:00,24,1019,0.4,57,15,12000,22.224,,,270,22.5,27.6,,,,,,,,,wg-a,,,,AAXX 08184 07070 12662 /2712 10240 20150 30085 40190 53004 60006 81900 91800 333 10276 20225=
07070,1996-06-08 21:00:00,19,1021.4,2.2,83,16,10000,11.112,,,330,,,,,,,,,,25,wg-a,,,,AAXX 08214 07070 02660 /3306 10190 20160 30107 40214 53022 61000 72581 81900 92100 333 ////=
07070,1996-06-09 00:00:00,16,1021.7,0.2,88,14,10000,11.112,,,270,,,,,,,,,,2,wg-a,,,,AAXX 09004 07070 12/60 02706 10160 20140 30109 40217 53002 60006 70281 80000 90000=
07070,1996-06-09 06:00:00,14,1023.1,0.9,88,12,7000,7.408,,,270,13.8,23.6,,,,,,,,,wg-a,,,,AAXX 09064 07070 12457 72704 10140 20120 30122 40231 52009 60006 875// 90600 333 10236 20138=
07070,1996-06-09 09:00:00,18,1023.3,0.3,73,13,16000,7.408,,,330,,,,,,,,,,,wg-a,,,,AAXX 09094 07070 12566 /3304 10180 20130 30125 40233 53003 60006 85200 90900=
07070,1996-06-09 12:00:00,22,1022.3,-0.8,60,14,16000,11.112,,,270,,,,,,,,,,,wg-a,,,,AAXX 09124 07070 12566 /2706 10220 20140 30117 40223 58008 60006 81200 91200=
07070,1996-06-09 15:00:00,23,1021.2,-1.1,65,16,16000,11.112,,,50,,,,,,,,,,,wg-a,,,,AAXX 09154 07070 12666 30506 10230 20160 30106 40212 58011 60006 83200 91500=
07070,1996-06-09 18:00:00,23,1020.6,-0.6,61,15,20000,7.408,,,40,14.1,23.6,,,,,,,,,wg-a,,,,AAXX 09184 07070 12670 /0404 10230 20150 30100 40206 56006 60006 81200 91800 333 10236 20141=
07070,1996-06-09 21:00:00,17,1021.7,0.9,82,14,15000,0,,,0,,,,,,,,,,,wg-a,,,,AAXX 09214 07070 12/65 10000 10170 20140 30109 40217 53009 60006 80001 92100=
07070,1996-06-10 00:00:00,12,1021.5,-0.4,100,12,15000,3.704,,,80,,,,,,,,,,,wg-a,,,,AAXX 10004 07070 12/65 00802 10120 20120 30105 40215 58004 60006 80000 90000=
07070,1996-06-10 03:00:00,12,1021.5,-0,94,11,500,3.704,,,90,,,,,,,,,,,wg-a,,,,AAXX 10034 07070 12/00 /0902 10120 20110 30105 40215 55000 60006 80001 90300=
07070,1996-06-10 06:00:00,15,1022.3,0.9,100,15,4000,0,,,0,10.8,23,,,,,,,,10,wg-a,,,,AAXX 10064 07070 12740 20000 10150 20150 30114 40223 51009 60006 71000 82500 90600 333 10230 20108=
07070,1996-06-10 09:00:00,25,1021.6,-0.3,61,17,12000,7.408,,,170,,,,,,,,,,,wg-a,,,,AAXX 10094 07070 12762 11704 10250 20170 30111 40216 56003 60006 81280 90900=
07070,1996-06-10 12:00:00,28,1020.6,-0.9,51,17,20000,14.816,,,190,,,,,,,,,,,wg-a,,,,AAXX 10124 07070 12670 /1908 10280 20170 30102 40206 57009 60006 86200 91200=
07070,1996-06-10 15:00:00,28,1019.7,-0.9,45,15,20000,7.408,,,340,,,,,,,,,,,wg-a,,,,AAXX 10154 07070 12770 43404 10280 20150 30093 40197 56009 60006 84200 91500=
07070,1996-06-10 18:00:00,28,1019.1,-0.6,55,18,20000,3.704,,,170,15.5,29.5,,,,,,,,,wg-a,,,,AAXX 10184 07070 12/70 11702 10280 20180 30087 40191 56006 60006 80001 91800 333 10295 20155=
07070,1996-06-10 21:00:00,21,1022.2,2.8,64,14,10000,31.484,,,280,,,,,,,,,,17,wg-a,,,,AAXX 10214 07070 12560 82817 10210 20140 30115 40222 53028 60006 71792 879// 92100=
07070,1996-06-11 00:00:00,18,1022.1,-0.2,94,17,10000,0,,,0,,,,0,,,,,,1,wg-a,,,,AAXX 11004 07070 02760 50000 10180 20170 30113 40221 55002 60006 70198 85500 90000 333 60007=
07070,1996-06-11 03:00:00,17,1022.8,0.7,100,17,2500,7.408,,,300,,,,0,,,,,,10,wg-a,,,,AAXX 11034 07070 12225 83004 10170 20170 30120 40228 53007 60007 71022 886// 90300=
07070,1996-06-11 06:00:00,17,1023.8,1,94,16,500,3.704,,,310,15.9,28.3,,,,,1,,,1,wg-a,,,,AAXX 11064 07070 12/00 03102 10170 20160 30130 40238 53010 60014 70198 80000 90600 333 10283 20159=
07070,1996-06-11 09:00:00,23,1023.6,0,69,17,7000,3.704,,,50,,,,,,,,,,,wg-a,,,,AAXX 11094 07070 12/57 /0502 10230 20170 30130 40236 50000 60006 80001 90900=
07070,1996-06-11 12:00:00,27,1022.5,-0.9,58,18,15000,3.704,,,30,,,,,,,,,,,wg-a,,,,AAXX 11124 07070 12665 /0302 10270 20180 30121 40225 58009 60006 85200 91200=
07070,1996-06-11 15:00:00,29,1022,-0.5,52,18,15000,22.224,,,260,,,,,,,,,,,wg-a,,,,AAXX 11154 07070 12765 22612 10290 20180 30116 40220 56005 60006 82200 91500=
07070,1996-06-11 18:00:00,27,1021.7,-0.3,54,17,12000,11.112,,,280,17.2,29.1,,,,,,,,,wg-a,,,,AAXX 11184 07070 12/62 02806 10270 20170 30113 40217 56003 60006 80000 91800 333 10291 20172=
07070,1996-06-11 21:00:00,20,1022.9,0.9,83,17,10000,3.704,,,50,,,,,,,,,,,wg-a,,,,AAXX 11214 07070 12/60 00502 10200 20170 30122 40229 53009 60006 80000 92100=
07070,1996-06-12 00:00:00,16,1023.3,0.3,94,15,10000,3.704,,,210,,,,,,,,,,,wg-a,,,,AAXX 12004 07070 12/60 02102 10160 20150 30125 40233 50003 60006 80000 90000=
07070,1996-06-12 03:00:00,15,1025,1.6,94,14,10000,3.704,,,320,,,,,,,,,,,wg-a,,,,AAXX 12034 07070 12/60 13202 10150 20140 30141 40250 53016 60006 80001 90300=
07070,1996-06-12 06:00:00,16,1027,2,94,15,9000,11.112,,,330,14.6,27,,,,,,,,,wg-a,,,,AAXX 12064 07070 12459 83306 10160 20150 30161 40270 52020 60006 886// 90600 333 10270 20146=
07070,1996-06-12 09:00:00,17,1028.3,1.3,82,14,12000,14.816,,,330,,,,,,,,,,,wg-a,,,,AAXX 12094 07070 12462 73308 10170 20140 30174 40283 53013 60006 875// 90900=
07070,1996-06-12 12:00:00,19,1029.1,0.9,68,13,18000,22.224,,,320,,,,,,,,,,,wg-a,,,,AAXX 12124 07070 12568 73212 10190 20130 30183 40291 51009 60006 878// 91200=
07070,1996-06-12 15:00:00,20,1029,-0.1,60,12,20000,18.52,,,310,,,,,,,,,,,wg-a,,,,AAXX 12154 07070 12670 63110 10200 20120 30182 40290 58001 60006 86800 91500=
07070,1996-06-12 18:00:00,20,1028.9,-0.1,60,12,20000,18.52,,,340,16,21.1,,,,,,,,,wg-a,,,,AAXX 12184 07070 12670 /3410 10200 20120 30181 40289 55001 60006 81400 91800 333 10211 20160=
07070,1996-06-12 21:00:00,14,1031.4,2.3,82,11,10000,14.816,,,10,,,,,,,,,,,wg-a,,,,AAXX 12214 07070 12760 10108 10140 20110 30204 40314 53023 60006 81500 92100=
07070,1996-06-13 00:00:00,10,1033.3,1.7,82,7,10000,11.112,,,20,,,,,,,,,,,wg-a,,,,AAXX 13004 07070 12/60 00206 10100 20070 30221 40333 51017 60006 80000 90000=
07070,1996-06-13 03:00:00,5,1033.4,-0.1,93,4,10000,3.704,,,350,,,,,,,,,,,wg-a,,,,AAXX 13034 07070 12/60 03502 10050 20040 30220 40334 55001 60006 80000 90300=
07070,1996-06-13 06:00:00,10,1034.1,0.9,82,7,10000,3.704,,,40,4.8,20.4,,,,,,,,,wg-a,,,,AAXX 13064 07070 12/60 00402 10100 20070 30229 40341 51009 60006 80000 90600 333 10204 20048=
07070,1996-06-13 09:00:00,17,1033.7,-0.2,48,6,20000,22.224,,,40,,,,,,,,,,,wg-a,,,,AAXX 13094 07070 12/70 00412 10170 20060 30227 40337 58002 60006 80000 90900=
07070,1996-06-13 12:00:00,20,1033,-0.5,40,6,20000,18.52,,,50,,,,,,,,,,,wg-a,,,,AAXX 13124 07070 12/70 10510 10200 20060 30222 40330 58005 60006 80001 91200=
07070,1996-06-13 15:00:00,21,1031.3,-1.7,43,8,20000,22.224,,,20,,,,,,,,,,,wg-a,,,,AAXX 13154 07070 12/70 00212 10210 20080 30205 40313 57017 60006 80000 91500=
07070,1996-06-13 18:00:00,20,1030.8,-0.5,46,8,20000,22.224,,,10,10.4,21.4,,,,,,,,,wg-a,,,,AAXX 13184 07070 12/70 00112 10200 20080 30200 40308 55005 60006 80000 91800 333 10214 20104=
07070,1996-06-13 21:00:00,14,1031.7,0.7,72,9,10000,11.112,,,10,,,,,,,,,,,wg-a,,,,AAXX 13214 07070 12/60 00106 10140 20090 30207 40317 53007 60006 80000 92100=
07070,1996-06-14 00:00:00,10,1032.3,0.4,82,7,10000,11.112,,,10,,,,,,,,,,,wg-a,,,,AAXX 14004 07070 12/60 00106 10100 20070 30211 40323 50004 60006 80000 90000=
07070,1996-06-14 03:00:00,7,1031.7,-0.7,93,6,10000,0,,,0,,,,,,,,,,,wg-a,,,,AAXX 14034 07070 12/60 00000 10070 20060 30204 40317 58007 60006 80000 90300=
07070,1996-06-14 06:00:00,10,1031.7,0.1,87,8,10000,7.408,,,360,5.7,19.7,,,,,,,,,wg-a,,,,AAXX 14064 07070 12/60 03604 10100 20080 30205 40317 53001 60006 80000 90600 333 10197 20057=
07070,1996-06-14 09:00:00,18,1030.9,-0.5,52,8,12000,18.52,,,60,,,,,,,,,,,wg-a,,,,AAXX 14094 07070 12/62 00610 10180 20080 30200 40309 58005 60006 80000 90900=
07070,1996-06-14 12:00:00,21,1029.9,-0.9,38,6,20000,18.52,,,30,,,,,,,,,,,wg-a,,,,AAXX 14124 07070 12/70 10310 10210 20060 30191 40299 58009 60006 80001 91200=
07070,1996-06-14 15:00:00,22,1028.1,-1.7,38,7,25000,22.224,,,30,,,,,,,,,,,wg-a,,,,AAXX 14154 07070 12/75 10312 10220 20070 30174 40281 58017 60006 80001 91500=
07070,1996-06-14 18:00:00,21,1027.4,-0.8,43,8,25000,22.224,,,20,10.5,22.5,,,,,,,,,wg-a,,,,AAXX 14184 07070 12/75 30212 10210 20080 30166 40274 56008 60006 80001 91800 333 10225 20105=
07070,1996-06-14 21:00:00,14,1028.6,1,67,8,20000,11.112,,,30,,,,,,,,,,,wg-a,,,,AAXX 14214 07070 12/70 10306 10140 20080 30176 40286 53010 60006 80001 92100=
07070,1996-06-15 00:00:00,9,1029.1,0.3,87,7,15000,3.704,,,10,,,,,,,,,,,wg-a,,,,AAXX 15004 07070 12/65 00102 10090 20070 30179 40291 50003 60006 80000 90000=
07070,1996-06-15 03:00:00,8,1028.4,-0.8,87,6,10000,7.408,,,360,,,,,,,,,,,wg-a,,,,AAXX 15034 07070 12/60 03604 10080 20060 30171 40284 58008 60006 80000 90300=
07070,1996-06-15 06:00:00,11,1028.3,0.1,82,8,10000,7.408,,,40,6.3,20.6,,,,,,,,,wg-a,,,,AAXX 15064 07070 12/60 00404 10110 20080 30172 40283 53001 60006 80000 90600 333 10206 20063=
07070,1996-06-15 09:00:00,18,1027.7,-0.3,56,9,10000,18.52,,,80,,,,,,,,,,,wg-a,,,,AAXX 15094 07070 12/60 00810 10180 20090 30169 40277 58003 60006 80000 90900=
07070,1996-06-15 12:00:00,23,1026.6,-1,38,8,15000,14.816,,,50,,,,,,,,,,,wg-a,,,,AAXX 15124 07070 12/65 10508 10230 20080 30159 40266 58010 60006 80001 91200=
07070,1996-06-15 15:00:00,25,1024.7,-1.8,34,8,25000,18.52,,,30,,,,,,,,,,,wg-a,,,,AAXX 15154 07070 12/75 00310 10250 20080 30141 40247 56018 60006 80000 91500=
07070,1996-06-15 18:00:00,24,1023.6,-1.1,38,9,25000,18.52,,,20,11,25.3,,,,,,,,,wg-a,,,,AAXX 15184 07070 12/75 30210 10240 20090 30130 40236 56011 60006 80001 91800 333 10253 20110=
07070,1996-06-15 21:00:00,15,1024.8,0.8,59,7,20000,3.704,,,80,,,,,,,,,,,wg-a,,,,AAXX 15214 07070 12/70 40802 10150 20070 30138 40248 53008 60006 80002 92100=
07070,1996-06-16 00:00:00,11,1025.2,0.3,66,5,15000,3.704,,,340,,,,,,,,,,,wg-a,,,,AAXX 16004 07070 12/65 23402 10110 20050 30141 40252 52003 60006 80002 90000=
07070,1996-06-16 03:00:00,8,1024.6,-0.7,81,5,15000,7.408,,,320,,,,,,,,,,,wg-a,,,,AAXX 16034 07070 12/65 23204 10080 20050 30134 40246 58007 60006 80001 90300=
07070,1996-06-16 06:00:00,12,1025,0.5,71,7,20000,3.704,,,350,5.5,23.8,,,,,,,,,wg-a,,,,AAXX 16064 07070 12/70 23502 10120 20070 30139 40250 53005 60006 80002 90600 333 10238 20055=
07070,1996-06-16 09:00:00,20,1024.4,-0.2,49,9,500,14.816,,,60,,,,,,,,,,,wg-a,,,,AAXX 16094 07070 12/00 30608 10200 20090 30137 40244 58002 60006 80001 90900=
07070,1996-06-16 12:00:00,23,1023.3,-1,41,9,500,14.816,,,30,,,,,,,,,,,wg-a,,,,AAXX 16124 07070 12/00 50308 10230 20090 30127 40233 58010 60006 80001 91200=
07070,1996-06-16 15:00:00,25,1021.7,-1.5,32,7,500,18.52,,,40,,,,,,,,,,,wg-a,,,,AAXX 16154 07070 12/00 50410 10250 20070 30112 40217 57015 60006 80001 91500=
07070,1996-06-16 18:00:00,23,1020.7,-1.1,44,10,500,18.52,,,30,11.7,25.2,,,,,,,,,wg-a,,,,AAXX 16184 07070 12/00 30310 10230 20100 30101 40207 56011 60006 80001 91800 333 10252 20117=
07070,1996-06-16 21:00:00,15,1022,1,72,10,20000,7.408,,,20,,,,,,,,,,,wg-a,,,,AAXX 16214 07070 12/70 20204 10150 20100 30111 40220 53010 60006 80001 92100=
07070,1996-06-17 00:00:00,10,1021.7,-0.5,87,8,15000,0,,,0,,,,,,,,,,,wg-a,,,,AAXX 17004 07070 12/65 10000 10100 20080 30106 40217 58005 60006 80001 90000=
07070,1996-06-17 03:00:00,7,1021.4,-0.4,93,6,10000,0,,,0,,,,,,,,,,,wg-a,,,,AAXX 17034 07070 12/60 10000 10070 20060 30102 40214 56004 60006 80001 90300=
07070,1996-06-17 06:00:00,12,1021,-0.2,88,10,12000,0,,,0,6.7,23.2,,,,,,,,,wg-a,,,,AAXX 17064 07070 12/62 10000 10120 20100 30100 40210 55002 60006 80001 90600 333 10232 20067=
07070,1996-06-17 09:00:00,22,1020.4,-0.2,46,10,15000,3.704,,,40,,,,,,,,,,,wg-a,,,,AAXX 17094 07070 12/65 30402 10220 20100 30098 40204 58002 60006 80002 90900=
07070,1996-06-17 12:00:00,25,1019.1,-1.2,39,10,20000,7.408,,,10,,,,,,,,,,,wg-a,,,,AAXX 17124 07070 12/70 50104 10250 20100 30086 40191 58012 60006 80002 91200=
07070,1996-06-17 15:00:00,26,1017.8,-1.3,32,8,20000,7.408,,,40,,,,,,,,,,,wg-a,,,,AAXX 17154 07070 12/70 70404 10260 20080 30073 40178 56013 60006 80002 91500=
07070,1996-06-17 18:00:00,25,1016.8,-1,41,11,25000,3.704,,,330,12.4,26.2,,,,,,,,,wg-a,,,,AAXX 17184 07070 12/75 73302 10250 20110 30063 40168 56010 60006 80002 91800 333 10262 20124=
07070,1996-06-17 21:00:00,16,1017,-0.1,77,12,15000,0,,,0,,,,,,,,,,,wg-a,,,,AAXX 17214 07070 12/65 70000 10160 20120 30062 40170 57001 60006 80002 92100=
07070,1996-06-18 00:00:00,12,1016.2,-0.9,88,10,15000,3.704,,,210,,,,,,,,,,,wg-a,,,,AAXX 18004 07070 12/65 72102 10120 20100 30053 40162 58009 60006 80002 90000=
07070,1996-06-18 03:00:00,12,1015.2,-1,88,10,15000,7.408,,,210,,,,,,,,,,,wg-a,,,,AAXX 18034 07070 12/65 72104 10120 20100 30043 40152 58010 60006 80002 90300=
07070,1996-06-18 06:00:00,15,1014.8,-0.3,77,11,16000,0,,,0,10.9,25.1,,,,,,,,,wg-a,,,,AAXX 18064 07070 12/66 60000 10150 20110 30040 40148 56003 60006 80002 90600 333 10251 20109=
07070,1996-06-18 09:00:00,23,1014,-0.5,47,11,15000,11.112,,,310,,,,,,,,,,,wg-a,,,,AAXX 18094 07070 12/65 53106 10230 20110 30035 40140 57005 60006 80002 90900=
07070,1996-06-18 12:00:00,26,1013.1,-0.8,42,12,20000,22.224,,,310,,,,,,,,,,,wg-a,,,,AAXX 18124 07070 12670 /3112 10260 20120 30027 40131 58008 60006 82232 91200=
07070,1996-06-18 15:00:00,25,1013,-0.1,47,13,20000,22.224,,,330,,,,,,,,,,,wg-a,,,,AAXX 18154 07070 12/70 73312 10250 20130 30026 40130 56001 60006 81032 91500=
07070,1996-06-18 18:00:00,21,1013.6,0.4,46,9,15000,22.224,,,340,15.3,26.5,,,,,,,,,wg-a,,,,AAXX 18184 07070 12/65 73412 10210 20090 30030 40136 53004 60006 81032 91800 333 10265 20153=
07070,1996-06-18 21:00:00,15,1014.6,0.8,77,11,6000,14.816,,,340,,,,,,,,,,,wg-a,,,,AAXX 18214 07070 12/56 /3408 10150 20110 30038 40146 53008 60006 81032 92100=
07070,1996-06-19 00:00:00,11,1015.5,0.7,94,10,500,11.112,,,350,,,,,,,,,,,wg-a,,,,AAXX 19004 07070 12/00 33506 10110 20100 30045 40155 51007 60006 80002 90000=
07070,1996-06-19 03:00:00,9,1015.5,-0.1,87,7,7000,7.408,,,290,,,,,,,,,,,wg-a,,,,AAXX 19034 07070 12/57 42904 10090 20070 30044 40155 58001 60006 82032 90300=
07070,1996-06-19 09:00:00,15,1015.8,0.2,63,8,25000,11.112,,,10,,,,,,,,,,,wg-a,,,,AAXX 19094 07070 12575 70106 10150 20080 30050 40158 51002 60006 81102 90900=
07070,1996-06-19 12:00:00,18,1015.2,-0.5,49,7,16000,7.408,,,30,,,,,,,,,,,wg-a,,,,AAXX 19124 07070 12666 70304 10180 20070 30045 40152 58005 60006 83282 91200=
07070,1996-06-19 18:00:00,19,1012.7,-1.4,49,8,16000,7.408,,,20,9.6,20,,,,,,,,,wg-a,,,,AAXX 19184 07070 12766 70204 10190 20080 30020 40127 58014 60006 81282 91800 333 10200 20096=
07070,1996-06-19 21:00:00,12,1012.1,-0.8,82,9,15000,11.112,,,130,,,,,,,,,,,wg-a,,,,AAXX 19214 07070 12/65 61306 10120 20090 30012 40121 56008 60006 80002 92100=
07070,1996-06-20 00:00:00,10,1010.8,-1.4,82,7,10000,0,,,0,,,,,,,,,,,wg-a,,,,AAXX 20004 07070 12/60 60000 10100 20070 39998 40108 58014 60006 82032 90000=
07070,1996-06-20 03:00:00,12,1009.7,-1,88,10,500,3.704,,,120,,,,2,,,,,,63,wg-a,,,,AAXX 20034 07070 12600 71202 10120 20100 39988 40097 55010 60027 76382 872// 90300=
07070,1996-06-20 06:00:00,12,1007.2,-2.4,94,11,500,3.704,,,160,8.4,19,,2,,,4,,,21,wg-a,,,,AAXX 20064 07070 02700 81602 10120 20110 39964 40072 56024 60044 72186 875// 90600 333 10190 20084 60027=
07070,1996-06-20 09:00:00,15,1006.2,-0.9,94,14,4000,7.408,,,180,,,,,,,,,,10,wg-a,,,,AAXX 20094 07070 12340 81804 10150 20140 39955 40062 56009 60006 71022 886// 90900=
07070,1996-06-20 12:00:00,15,1007.3,1.1,94,14,2200,25.928,,,270,,,,1,,,,,,10,wg-a,,,,AAXX 20124 07070 02322 82714 10150 20140 39966 40073 53011 60016 71065 887// 91200 333 60017=
07070,1996-06-20 15:00:00,17,1008.1,0.8,82,14,500,18.52,,,310,,,,,,,,,,80,wg-a,,,,AAXX 20154 07070 02400 73110 10170 20140 39974 40081 51008 61000 78065 878// 91500 333 ////=
07070,1996-06-20 18:00:00,15,1008.2,-0.1,88,13,500,11.112,,,350,12.2,17.5,,,,,,,,25,wg-a,,,,AAXX 20184 07070 32500 73506 10150 20130 39975 40082 55001 72565 878// 91800 333 10175 20122=
07070,1996-06-20 21:00:00,13,1009,0.7,100,13,3500,3.704,,,10,,,,0,,,,,,10,wg-a,,,,AAXX 20214 07070 12535 70102 10130 20130 39982 40090 53007 60007 71082 8383/ 92100=
07070,1996-06-21 00:00:00,12,1009,-0.1,94,11,2500,7.408,,,20,,,,,,,,,,10,wg-a,,,,AAXX 21004 07070 12325 80204 10120 20110 39981 40090 58001 60016 71082 886// 90000=
07070,1996-06-21 03:00:00,11,1008.2,-0.8,87,9,4000,7.408,,,40,,,,,,,,,,10,wg-a,,,,AAXX 21034 07070 12240 80404 10110 20090 39973 40082 58008 60006 71022 886// 90300=
07070,1996-06-21 06:00:00,10,1009.4,1.1,93,9,8000,7.408,,,30,9.9,15.3,,,,,1,,,,wg-a,,,,AAXX 21064 07070 12458 80304 10100 20090 39984 40094 51011 60014 885// 90600 333 10153 20099=
07070,1996-06-21 12:00:00,16,1009.4,-0.3,59,8,20000,18.52,,,40,,,,,,,,,,,wg-a,,,,AAXX 21124 07070 12570 70410 10160 20080 39986 40094 57003 60006 8323/ 91200=
07070,1996-06-21 18:00:00,15,1008.9,-0.2,55,6,20000,22.224,,,10,10.1,16.6,,,,,,,,,wg-a,,,,AAXX 21184 07070 12770 40112 10150 20060 39981 40089 55002 60006 8383/ 91800 333 10166 20101=
07070,1996-06-21 21:00:00,10,1011,1.9,76,6,15000,14.816,,,350,,,,,,,,,,,wg-a,,,,AAXX 21214 07070 12/65 13508 10100 20060 30000 40110 53019 60006 80001 92100=
07070,1996-06-22 00:00:00,6,1012.4,1.3,93,5,10000,11.112,,,330,,,,,,,,,,,wg-a,,,,AAXX 22004 07070 12/60 /3306 10060 20050 30013 40124 52013 60006 90000=
07070,1996-06-22 03:00:00,7,1013.4,1,93,6,15000,11.112,,,330,,,,,,,,,,,wg-a,,,,AAXX 22034 07070 12765 53306 10070 20060 30023 40134 51010 60006 85500 90300=
07070,1996-06-22 06:00:00,10,1014.8,1.5,87,8,10000,18.52,,,320,5.7,14.5,,,,,,,,,wg-a,,,,AAXX 22064 07070 12560 73210 10100 20080 30038 40148 53015 60006 81802 90600 333 10145 20057=
07070,1996-06-22 12:00:00,13,1017.5,1,82,10,11000,22.224,,,320,,,,,,,,,,,wg-a,,,,AAXX 22124 07070 12/61 /3212 10130 20100 30066 40175 51010 60016 91200=
07070,1996-06-22 15:00:00,13,1018.9,1.3,88,11,16000,18.52,,,330,,,,0,,,,,,25,wg-a,,,,AAXX 22154 07070 12366 73310 10130 20110 30079 40189 53013 60007 72582 873// 91500=
07070,1996-06-22 18:00:00,14,1019.5,0.7,77,10,20000,18.52,,,360,9.6,15.1,,,,,,,,1,wg-a,,,,AAXX 22184 07070 32470 73610 10140 20100 30086 40195 52007 70182 873// 91800 333 10151 20096=
07070,1996-06-22 21:00:00,12,1021.4,1.8,76,8,20000,11.112,,,340,,,,,,,,,,,wg-a,,,,AAXX 22214 07070 12670 73406 10120 20080 30104 40214 53018 60006 878// 92100=
07070,1996-06-23 00:00:00,11,1022.2,0.7,82,8,10000,14.816,,,330,,,,,,,,,,60,wg-a,,,,AAXX 23004 07070 02760 83308 10110 20080 30111 40222 51007 61000 76062 885// 90000 333 6100=
07070,1996-06-23 03:00:00,9,1022.1,-0.1,93,8,6000,11.112,,,340,,,,0,,,,,,1,wg-a,,,,AAXX 23034 07070 12756 83406 10090 20080 30110 40221 56001 60007 70162 885// 90300=
07070,1996-06-23 06:00:00,10,1022.8,0.7,93,9,6000,11.112,,,340,8.8,14.2,,,,,1,,,3,wg-a,,,,AAXX 23064 07070 12356 73406 10100 20090 30117 40228 52007 60014 70362 878// 90600 333 10142 20088=
07070,1996-06-23 09:00:00,13,1023.9,1.2,72,8,8000,14.816,,,340,,,,,,,,,,,wg-a,,,,AAXX 23094 07070 12458 73408 10130 20080 30129 40239 51012 60006 878// 90900=
07070,1996-06-23 12:00:00,14,1024.3,0.4,72,9,12000,18.52,,,340,,,,,,,,,,,wg-a,,,,AAXX 23124 07070 12562 73410 10140 20090 30133 40243 50004 60006 878// 91200=
07070,1996-06-23 15:00:00,16,1024,-0.2,59,8,20000,11.112,,,330,,,,,,,,,,,wg-a,,,,AAXX 23154 07070 12670 73306 10160 20080 30131 40240 56002 60006 878// 91500=
07070,1996-06-23 18:00:00,15,1024.3,0.3,67,9,12000,22.224,,,340,10.2,15.7,,,,,,,,1,wg-a,,,,AAXX 23184 07070 12662 /3412 10150 20090 30134 40243 53003 60006 70182 86800 91800 333 10157 20102=
07070,1996-06-23 21:00:00,10,1026,1.4,87,8,15000,11.112,,,340,,,,,,,,,,,wg-a,,,,AAXX 23214 07070 12665 23406 10100 20080 30148 40260 53014 60006 82500 92100=
07070,1996-06-24 00:00:00,9,1025.7,-0.3,93,8,12000,7.408,,,310,,,,,,,,,,,wg-a,,,,AAXX 24004 07070 12662 73104 10090 20080 30145 40257 56003 60006 875// 90000=
07070,1996-06-24 03:00:00,10,1025.4,-0.3,87,8,10000,11.112,,,340,,,,,,,,,,,wg-a,,,,AAXX 24034 07070 12660 83406 10100 20080 30142 40254 56003 60006 885// 90300=
07070,1996-06-24 06:00:00,10,1026,0.7,87,8,10000,11.112,,,350,8.4,14.5,,,,,,,,,wg-a,,,,AAXX 24064 07070 12660 83506 10100 20080 30149 40260 50007 60006 885// 90600 333 10145 20084=
07070,1996-06-24 09:00:00,12,1026.3,0.3,76,8,15000,11.112,,,350,,,,,,,,,,,wg-a,,,,AAXX 24094 07070 12465 73506 10120 20080 30152 40263 51003 60006 878// 90900=
07070,1996-06-24 12:00:00,13,1026.2,-0,72,8,12000,18.52,,,330,,,,,,,,,,,wg-a,,,,AAXX 24124 07070 12562 83310 10130 20080 30152 40262 55000 60006 888// 91200=
07070,1996-06-24 15:00:00,14,1025.7,-0.5,67,8,12000,18.52,,,320,,,,,,,,,,,wg-a,,,,AAXX 24154 07070 12562 73210 10140 20080 30147 40257 56005 60006 878// 91500=
07070,1996-06-24 18:00:00,13,1025.5,-0.2,82,10,12000,11.112,,,340,10,14.5,,,,,,,,21,wg-a,,,,AAXX 24184 07070 02562 83406 10130 20100 30145 40255 56002 61000 72162 8387/ 91800 333 10145 20100 ////=
07070,1996-06-24 21:00:00,12,1025.9,0.3,94,11,12000,7.408,,,310,,,,,,,,,,,wg-a,,,,AAXX 24214 07070 12562 73104 10120 20110 30148 40259 53003 60006 8557/ 92100=
07070,1996-06-25 00:00:00,11,1026,0.1,100,11,10000,7.408,,,350,,,,1,,,,,,1,wg-a,,,,AAXX 25004 07070 02360 83504 10110 20110 30149 40260 50001 60016 70165 885// 90000 333 60017=
07070,1996-06-25 03:00:00,11,1025.8,-0.2,94,10,4000,11.112,,,340,,,,,,,,,,10,wg-a,,,,AAXX 25034 07070 12540 83406 10110 20100 30147 40258 55002 60006 71022 885// 90300=
07070,1996-06-25 06:00:00,11,1025.9,0.1,100,11,3000,7.408,,,360,10.6,12.7,,,,,1,,,10,wg-a,,,,AAXX 25064 07070 12430 83604 10110 20110 30148 40259 50001 60014 71022 885// 90600 333 10127 20106=
07070,1996-06-25 09:00:00,14,1026,0.2,77,10,7000,11.112,,,40,,,,,,,,,,,wg-a,,,,AAXX 25094 07070 12457 70406 10140 20100 30150 40260 50002 60006 878// 90900=
07070,1996-06-25 12:00:00,16,1025.1,-0.8,68,10,12000,11.112,,,340,,,,,,,,,,,wg-a,,,,AAXX 25124 07070 12562 73406 10160 20100 30142 40251 58008 60006 878// 91200=
07070,1996-06-25 15:00:00,17,1024,-1,63,10,14000,11.112,,,350,,,,,,,,,,,wg-a,,,,AAXX 25154 07070 12664 73506 10170 20100 30132 40240 56010 60006 878// 91500=
07070,1996-06-25 18:00:00,17,1021.2,-0.6,63,10,12000,11.112,,,350,11.4,18.2,,,,,,,,,wg-a,,,,AAXX 25184 07070 12762 43506 10170 20100 30104 40212 56006 60006 84500 91800 333 10182 20114=
07070,1996-06-25 21:00:00,12,1023.7,0.1,88,10,10000,7.408,,,320,,,,,,,,,,,wg-a,,,,AAXX 25214 07070 12/60 23204 10120 20100 30127 40237 53001 60006 81031 92100=
07070,1996-06-26 00:00:00,7,1023.5,-0.4,100,7,10000,3.704,,,180,,,,,,,,,,,wg-a,,,,AAXX 26004 07070 12/60 11802 10070 20070 30123 40235 58004 60006 81100 90000=
07070,1996-06-26 06:00:00,9,1022.6,-0.2,100,9,1000,0,,,0,4.2,16.7,,,,,,,,28,wg-a,,,,AAXX 26064 07070 12/10 20000 10090 20090 30114 40226 57002 60006 72840 80001 90600 333 10167 20042=
07070,1996-06-26 09:00:00,16,1022.6,0.3,72,11,7000,7.408,,,280,,,,,,,,,,,wg-a,,,,AAXX 26094 07070 12557 72804 10160 20110 30117 40226 51003 60006 83201 90900=
07070,1996-06-26 12:00:00,20,1021.7,-0.7,53,10,10000,3.704,,,80,,,,,,,,,,,wg-a,,,,AAXX 26124 07070 12660 /0802 10200 20100 30110 40217 58007 60006 83101 91200=
07070,1996-06-26 15:00:00,22,1021.4,-0.2,50,11,20000,3.704,,,350,,,,,,,,,,,wg-a,,,,AAXX 26154 07070 12770 53502 10220 20110 30108 40214 58002 60006 83202 91500=
07070,1996-06-26 18:00:00,22,1021.3,-0.1,50,11,15000,11.112,,,340,8.6,22.7,,,,,,,,,wg-a,,,,AAXX 26184 07070 12765 33406 10220 20110 30107 40213 55001 60006 81101 91800 333 10227 20086=
07070,1996-06-26 21:00:00,14,1022.6,1,88,12,10000,0,,,0,,,,,,,,,,,wg-a,,,,AAXX 26214 07070 12/60 10000 10140 20120 30117 40226 53010 60006 80001 92100=
07070,1996-06-27 00:00:00,12,1023,0.3,94,11,6000,3.704,,,260,,,,,,,,,,,wg-a,,,,AAXX 27004 07070 12/56 /2602 10120 20110 30120 40230 50003 60006 80001 90000=
07070,1996-06-27 03:00:00,12,1023.1,0.1,94,11,3000,3.704,,,240,,,,,,,,,,11,wg-a,,,,AAXX 27034 07070 12/30 02402 10120 20110 30121 40231 52001 60006 71100 80000 90300=
07070,1996-06-27 06:00:00,13,1023.8,0.7,100,13,3200,7.408,,,230,10.7,21.7,,,,,,,,10,wg-a,,,,AAXX 27064 07070 12/32 72304 10130 20130 30128 40238 53007 60006 71011 86031 90600 333 10217 20107=
07070,1996-06-27 09:00:00,17,1024.3,0.7,82,14,7000,7.408,,,290,,,,,,,,,,,wg-a,,,,AAXX 27094 07070 12/57 72904 10170 20140 30135 40243 53007 60006 8707/ 90900=
07070,1996-06-27 12:00:00,23,1023.5,-0.6,50,12,12000,14.816,,,290,,,,,,,,,,,wg-a,,,,AAXX 27124 07070 12562 /2908 10230 20120 30129 40235 58006 60006 81231 91200=
07070,1996-06-27 15:00:00,24,1022.7,-0.8,54,14,15000,11.112,,,330,,,,,,,,,,,wg-a,,,,AAXX 27154 07070 12665 73306 10240 20140 30121 40227 58008 60006 8623/ 91500=
07070,1996-06-27 18:00:00,23,1022.1,-0.6,53,13,15000,3.704,,,330,13.5,24.3,,,,,,,,,wg-a,,,,AAXX 27184 07070 12/65 73302 10230 20130 30115 40221 56006 60006 8703/ 91800 333 10243 20135=
07070,1996-06-27 21:00:00,17,1022.5,0.2,82,14,10000,3.704,,,100,,,,,,,,,,,wg-a,,,,AAXX 27214 07070 12/60 21002 10170 20140 30117 40225 53002 60006 81031 92100=
07070,1996-06-28 00:00:00,14,1022.3,-0.3,100,14,4000,7.408,,,330,,,,,,,,,,10,wg-a,,,,AAXX 28004 07070 12/40 73304 10140 20140 30114 40223 58003 60006 71011 80002 90000=
07070,1996-06-28 03:00:00,14,1021.4,-0.9,100,14,4000,3.704,,,290,,,,,,,,,,10,wg-a,,,,AAXX 28034 07070 12/40 72902 10140 20140 30105 40214 58009 60006 71022 81031 90300=
07070,1996-06-28 06:00:00,15,1021.3,-0.1,94,14,3500,3.704,,,240,13.5,23.2,,,,,,,,10,wg-a,,,,AAXX 28064 07070 12735 72402 10150 20140 30104 40213 57001 60006 71022 875// 90600 333 10232 20135=
07070,1996-06-28 09:00:00,21,1020.3,-0.8,64,14,9000,7.408,,,240,,,,,,,,,,,wg-a,,,,AAXX 28094 07070 12459 /2404 10210 20140 30096 40203 58008 60006 81101 90900=
07070,1996-06-28 12:00:00,22,1019.4,-0.8,60,14,20000,14.816,,,300,,,,,,,,,,,wg-a,,,,AAXX 28124 07070 12670 73008 10220 20140 30088 40194 56008 60006 878// 91200=
07070,1996-06-28 15:00:00,25,1017,-2.3,50,14,16000,14.816,,,290,,,,,,,,,,,wg-a,,,,AAXX 28154 07070 12666 /2908 10250 20140 30065 40170 56023 60006 86800 91500=
07070,1996-06-28 18:00:00,23,1015.1,-1.9,57,14,25000,7.408,,,260,15.3,25.5,,,,,,,,25,wg-a,,,,AAXX 28184 07070 02675 72604 10230 20140 30046 40151 56019 61000 72582 8388/ 91800 333 10255 20153 ////=
07070,1996-06-28 21:00:00,18,1015.2,-0.1,88,16,12000,0,,,0,,,,,,,,,,1,wg-a,,,,AAXX 28214 07070 02762 70000 10180 20160 30045 40152 58001 61000 70162 8653/ 92100 333 ////=
07070,1996-06-29 00:00:00,16,1014.4,-0.9,94,15,8000,7.408,,,210,,,,,,,,,,3,wg-a,,,,AAXX 29004 07070 02/58 72104 10160 20150 30036 40144 58009 61000 70362 8703/ 90000 333 ////=
07070,1996-06-29 03:00:00,17,1013.2,-1.1,82,14,10000,18.52,,,270,,,,,,,,,,,wg-a,,,,AAXX 29034 07070 12760 72710 10170 20140 30025 40132 56011 60006 875// 90300=
07070,1996-06-29 06:00:00,16,1012.8,-0.4,88,14,15000,22.224,,,250,15.5,23,,,,,,,,21,wg-a,,,,AAXX 29064 07070 02465 72512 10160 20140 30021 40128 57004 61000 72162 878// 90600 333 10230 20155 6100=
07070,1996-06-29 09:00:00,12,1014.6,1.6,94,11,4000,25.928,,,340,,,,0,,,,,,10,wg-a,,,,AAXX 29094 07070 12340 73414 10120 20110 30037 40146 53016 60007 71065 875// 90900=
07070,1996-06-29 12:00:00,17,1014.7,0.3,63,10,35000,18.52,,,290,,,,,,,,,,3,wg-a,,,,AAXX 29124 07070 02581 72910 10170 20100 30040 40147 50003 60016 70365 878// 91200 333 61000=
07070,1996-06-29 15:00:00,17,1015.8,1,52,7,35000,35.188,,57.412,300,,,,,,,,,,,wg-a,,,,AAXX 29154 07070 12681 73019 10170 20070 30050 40158 53010 60006 878// 91500 333 91031=
07070,1996-06-29 18:00:00,15,1017.3,1.4,55,6,35000,25.928,,,300,12,18.6,,,,,,,,,wg-a,,,,AAXX 29184 07070 32581 73014 10150 20060 30064 40173 52014 878// 91800 333 10186 20120=
07070,1996-06-29 21:00:00,14,1018.7,1.4,63,7,20000,18.52,,,270,,,,,,,,,,,wg-a,,,,AAXX 29214 07070 12770 72710 10140 20070 30078 40187 51014 60006 875// 92100=
07070,1996-06-30 00:00:00,13,1018.8,0.1,72,8,20000,18.52,,,260,,,,,,,,,,,wg-a,,,,AAXX 30004 07070 12670 72610 10130 20080 30079 40188 50001 60006 875// 90000=
07070,1996-06-30 03:00:00,13,1018.2,-0.6,77,9,15000,18.52,,,260,,,,,,,,,,,wg-a,,,,AAXX 30034 07070 12665 72610 10130 20090 30073 40182 58006 60006 875// 90300=
07070,1996-06-30 06:00:00,13,1018.3,0.1,82,10,20000,18.52,,,250,12.4,15,,,,,,,,,wg-a,,,,AAXX 30064 07070 02770 72510 10130 20100 30074 40183 52001 60006 82532 90600 333 10150 20124 60004=
07070,1996-06-30 09:00:00,15,1018.2,-0.1,72,10,20000,18.52,,,260,,,,,,,,,,21,wg-a,,,,AAXX 30094 07070 02570 72610 10150 20100 30073 40182 58001 61000 72162 8383/ 90900 333 ////=
07070,1996-06-30 12:00:00,18,1016.5,-1.5,56,9,25000,22.224,,,250,,,,,,,,,,1,wg-a,,,,AAXX 30124 07070 02675 72512 10180 20090 30058 40165 58015 61000 70162 8683/ 91200 333 ////=
07070,1996-06-30 15:00:00,17,1014.9,-1.6,72,12,20000,14.816,,,290,,,,0,,,,,,21,wg-a,,,,AAXX 30154 07070 12670 72908 10170 20120 30042 40149 58016 60007 72162 8687/ 91500=
07070,1996-06-30 18:00:00,15,1013.6,-1.4,88,13,10000,11.112,,,220,13.4,19.2,,0,,,,,,1,wg-a,,,,AAXX 30184 07070 12660 82206 10150 20130 30028 40136 58014 60007 70162 875// 91800 333 10192 20134=
07070,1996-06-30 21:00:00,15,1012.1,-1.5,82,12,12000,14.816,,,230,,,,,,,,,,,wg-a,,,,AAXX 30214 07070 12662 72308 10150 20120 30013 40121 57015 60006 875// 92100=
07070,1996-07-01 00:00:00,14,1011,-1.1,88,12,10000,14.816,,,230,,,,,,,,,,21,wg-a,,,,AAXX 01004 07070 02560 82308 10140 20120 30002 40110 57011 61000 72162 875// 90000 333 6100=
07070,1996-07-01 03:00:00,14,1009.9,-1.1,88,12,8000,11.112,,,260,,,,,,,,,,,wg-a,,,,AAXX 01034 07070 12458 82606 10140 20120 39991 40099 56011 60006 878// 90300=
07070,1996-07-01 06:00:00,14,1009.6,-0.3,82,11,12000,25.928,,,250,13,15.2,,,,,1,,,,wg-a,,,,AAXX 01064 07070 12462 72514 10140 20110 39988 40096 55003 60014 878// 90600 333 10152 20130=
07070,1996-07-01 09:00:00,15,1009.4,-0.1,72,10,20000,25.928,,,260,,,,,,,,,,,wg-a,,,,AAXX 01094 07070 12570 72614 10150 20100 39987 40094 58001 60006 878// 90900=
07070,1996-07-01 12:00:00,17,1008.9,-0.5,59,9,25000,18.52,,,280,,,,,,,,,,,wg-a,,,,AAXX 01124 07070 12575 72810 10170 20090 39982 40089 56005 60006 878// 91200=
07070,1996-07-01 15:00:00,18,1008,-0.8,49,7,25000,25.928,,,260,,,,,,,,,,1,wg-a,,,,AAXX 01154 07070 12675 72614 10180 20070 39974 40080 58008 60006 70182 878// 91500=
07070,1996-07-01 18:00:00,16,1008,-0.1,77,12,25000,18.52,,,240,13.6,18.5,,1,,,,,,25,wg-a,,,,AAXX 01184 07070 12675 /2410 10160 20120 39973 40080 58001 60017 72582 86800 91800 333 10185 20136=
07070,1996-07-02 00:00:00,11,1009.4,0.3,82,8,10000,14.816,,,240,,,,,,,,,,,wg-a,,,,AAXX 02004 07070 12/60 /2408 10110 20080 39985 40094 52003 60006 90000=
07070,1996-07-02 03:00:00,11,1009.5,0.1,87,9,45000,14.816,,,230,,,,,,,,,,,wg-a,,,,AAXX 02034 07070 12783 62308 10110 20090 39986 40095 53001 60006 86500 90300=
07070,1996-07-02 06:00:00,13,1010.4,0.9,82,10,25000,18.52,,,250,10.1,15.6,,,,,1,,,,wg-a,,,,AAXX 02064 07070 12475 72510 10130 20100 39995 40104 53009 60014 86801 90600 333 10156 20101=
07070,1996-07-02 09:00:00,15,1011.3,1,72,10,25000,18.52,,,260,,,,,,,,,,,wg-a,,,,AAXX 02094 07070 12575 72610 10150 20100 30005 40113 51010 60006 878// 90900=
07070,1996-07-02 12:00:00,18,1010.8,-0.4,56,9,25000,25.928,,,250,,,,,,,,,,,wg-a,,,,AAXX 02124 07070 12675 72514 10180 20090 30001 40108 58004 60006 878// 91200=
07070,1996-07-02 15:00:00,18,1011.4,0.6,52,8,20000,29.632,,,280,,,,,,,,,,,wg-a,,,,AAXX 02154 07070 12670 72816 10180 20080 30007 40114 52006 60006 878// 91500=
07070,1996-07-02 18:00:00,18,1011.7,0.3,52,8,25000,18.52,,,280,12.4,19.5,,,,,,,,25,wg-a,,,,AAXX 02184 07070 02675 /2810 10180 20080 30010 40117 52003 61000 72522 86800 91800 333 10195 20124 ////=
07070,1996-07-02 21:00:00,14,1012.9,1,72,9,25000,7.408,,,240,,,,,,,,,,,wg-a,,,,AAXX 02214 07070 12775 72404 10140 20090 30020 40129 53010 60006 875// 92100=
07070,1996-07-03 00:00:00,11,1013.1,0.1,87,9,20000,11.112,,,170,,,,,,,,,,,wg-a,,,,AAXX 03004 07070 12770 61706 10110 20090 30021 40131 50001 60006 86500 90000=
07070,1996-07-03 03:00:00,10,1012.6,-0.5,87,8,20000,7.408,,,190,,,,,,,,,,,wg-a,,,,AAXX 03034 07070 12770 31904 10100 20080 30016 40126 58005 60006 81502 90300=
07070,1996-07-03 06:00:00,14,1012,-0.4,77,10,20000,14.816,,,170,8.3,17.9,,,,,,,,,wg-a,,,,AAXX 03064 07070 12770 71708 10140 20100 30012 40120 55004 60006 81532 90600 333 10179 20083=
07070,1996-07-03 09:00:00,21,1010.9,-0.9,46,9,25000,25.928,,,210,,,,,,,,,,,wg-a,,,,AAXX 03094 07070 12675 42114 10210 20090 30003 40109 58009 60006 82231 90900=
07070,1996-07-03 12:00:00,22,1009.2,-1.6,43,9,25000,31.484,,50.004,210,,,,,,,,,,,wg-a,,,,AAXX 03124 07070 12775 62117 10220 20090 39987 40092 57016 60006 83230 91200 333 91027=
07070,1996-07-03 15:00:00,21,1008.6,-0.6,53,11,25000,22.224,,,220,,,,,,,,,,60,wg-a,,,,AAXX 03154 07070 02675 72212 10210 20110 39981 40086 57006 61000 76062 8557/ 91500 333 ////=
07070,1996-07-03 18:00:00,17,1008.1,-0.6,88,15,12000,22.224,,,210,13.7,23.4,,,,,,,,61,wg-a,,,,AAXX 03184 07070 02562 72112 10170 20150 39975 40081 56006 61000 76162 8387/ 91800 333 10234 20137 ////=
07070,1996-07-03 21:00:00,17,1008.3,0.1,94,16,8000,18.52,,,210,,,,0,,,,,,50,wg-a,,,,AAXX 03214 07070 12458 72110 10170 20160 39976 40083 53001 60007 75065 878// 92100=
07070,1996-07-04 00:00:00,17,1008.1,-0.2,88,15,15000,22.224,,,230,,,,1,,,,,,3,wg-a,,,,AAXX 04004 07070 02465 82312 10170 20150 39974 40081 57002 60016 70365 888// 90000 333 60017=
07070,1996-07-04 03:00:00,17,1007.2,-0.9,94,16,10000,18.52,,,210,,,,0,,,,,,21,wg-a,,,,AAXX 04034 07070 12460 82110 10170 20160 39965 40072 57009 60007 72162 878// 90300=
07070,1996-07-04 06:00:00,17,1007.3,0.2,94,16,4500,25.928,,,230,16.1,17.7,,0,,,1,,,50,wg-a,,,,AAXX 04064 07070 02345 82314 10170 20160 39967 40073 53002 60014 75065 887// 90600 333 10177 20161 60007=
07070,1996-07-04 09:00:00,17,1009.9,2.5,77,13,25000,25.928,,,260,,,,0,,,,,,21,wg-a,,,,AAXX 04094 07070 12575 72614 10170 20130 39992 40099 53025 60007 72165 878// 90900=
07070,1996-07-04 12:00:00,20,1010,0.2,60,12,25000,25.928,,,240,,,,,,,,,,1,wg-a,,,,AAXX 04124 07070 12575 72414 10200 20120 39994 40100 53002 60016 70165 878// 91200=
07070,1996-07-04 15:00:00,22,1010.3,0.4,41,8,25000,31.484,,50.004,250,,,,,,,,,,,wg-a,,,,AAXX 04154 07070 12675 /2517 10220 20080 39998 40103 53004 60006 85231 91500 333 91027=
07070,1996-07-04 18:00:00,21,1010.6,0.3,53,11,25000,29.632,,,240,16,23.2,,,,,,,,,wg-a,,,,AAXX 04184 07070 32775 72416 10210 20110 30001 40106 53003 878// 91800 333 10232 20160=
07070,1996-07-04 21:00:00,17,1011.5,0.7,68,11,25000,18.52,,,240,,,,,,,,,,,wg-a,,,,AAXX 04214 07070 12775 22410 10170 20110 30008 40115 51007 60006 81430 92100=
07070,1996-07-05 00:00:00,17,1011.3,-0.2,77,13,15000,14.816,,,240,,,,,,,,,,,wg-a,,,,AAXX 05004 07070 12765 72408 10170 20130 30006 40113 58002 60006 875// 90000=
07070,1996-07-05 03:00:00,14,1010.2,-1.2,100,14,15000,7.408,,,190,,,,1,,,,,,60,wg-a,,,,AAXX 05034 07070 12465 71904 10140 20140 39994 40102 58012 60017 76062 875// 90300=
07070,1996-07-05 06:00:00,15,1008.6,-1.5,94,14,4000,7.408,,,170,14.2,21.4,,2,,,4,,,10,wg-a,,,,AAXX 05064 07070 02440 81704 10150 20140 39979 40086 58015 60044 71062 8587/ 90600 333 10214 20142 60027=
07070,1996-07-05 09:00:00,15,1006.5,-2.1,100,15,6000,11.112,,,90,,,,5,,,,,,10,wg-a,,,,AAXX 05094 07070 12256 80906 10150 20150 39958 40065 58021 60057 71065 888// 90900=
07070,1996-07-05 12:00:00,13,1006,-0.6,100,13,7000,22.224,,,340,,,,17,,,,,,51,wg-a,,,,AAXX 05124 07070 02257 83412 10130 20130 39952 40060 58006 60236 75165 885// 91200 333 60177=
07070,1996-07-05 15:00:00,13,1007.5,1.5,94,12,500,18.52,,,330,,,,0,,,,,,51,wg-a,,,,AAXX 05154 07070 12300 83310 10130 20120 39967 40075 53015 60007 75165 888// 91500=
07070,1996-07-05 18:00:00,15,1008.2,0.7,82,12,500,14.816,,,280,12.8,15.2,,,,,,,,1,wg-a,,,,AAXX 05184 07070 02400 82808 10150 20120 39974 40082 53007 61000 70165 878// 91800 333 10152 20128 ////=
07070,1996-07-05 21:00:00,13,1008.5,0.3,94,12,25000,11.112,,,250,,,,,,,,,,,wg-a,,,,AAXX 05214 07070 12675 82506 10130 20120 39977 40085 53003 60006 885// 92100=
07070,1996-07-06 00:00:00,13,1007.9,-0.6,94,12,20000,7.408,,,250,,,,1,,,,,,1,wg-a,,,,AAXX 06004 07070 02570 82504 10130 20120 39971 40079 58006 60016 70162 888// 90000 333 60017=
07070,1996-07-06 03:00:00,12,1008.1,0.1,94,11,10000,11.112,,,250,,,,,,,,,,60,wg-a,,,,AAXX 06034 07070 02460 82506 10120 20110 39972 40081 53001 61000 76062 885// 90300 333 ////=
07070,1996-07-06 06:00:00,12,1008.9,0.8,94,11,10000,11.112,,,250,,14.7,,1,,,25,,,3,wg-a,,,,AAXX 06064 07070 02460 72506 10120 20110 39980 40089 53008 60254 70362 878// 90600 333 10147 60017=
07070,1996-07-06 09:00:00,15,1009.3,0.5,77,11,12000,22.224,,,260,,,,,,,,,,,wg-a,,,,AAXX 06094 07070 12562 72612 10150 20110 39985 40093 50005 60006 872// 90900=
07070,1996-07-06 12:00:00,16,1009.9,0.7,72,11,20000,14.816,,,260,,,,0,,,,,,25,wg-a,,,,AAXX 06124 07070 02470 52608 10160 20110 39992 40099 53007 60006 72582 85900 91200 333 60007=
07070,1996-07-06 15:00:00,17,1010.4,0.5,52,7,20000,29.632,,,280,,,,0,,,,,,1,wg-a,,,,AAXX 06154 07070 12670 72816 10170 20070 39997 40104 53005 60007 70182 878// 91500=
07070,1996-07-06 18:00:00,16,1010.5,0.1,59,8,11000,22.224,,,270,11.7,18.2,,,,,,,,,wg-a,,,,AAXX 06184 07070 32/61 /2712 10160 20080 39998 40105 53001 91800 333 10182 20117=
07070,1996-07-07 00:00:00,10,1010.3,-0.4,93,9,15000,3.704,,,280,,,,,,,,,,,wg-a,,,,AAXX 07004 07070 12765 72802 10100 20090 39993 40103 58004 60006 82531 90000=
07070,1996-07-07 03:00:00,7,1009.4,-1,93,6,12000,0,,,0,,,,,,,,,,11,wg-a,,,,AAXX 07034 07070 12/62 /0000 10070 20060 39983 40094 58010 60006 71111 81030 90300=
07070,1996-07-07 06:00:00,9,1008.8,-0.5,100,9,10000,3.704,,,10,5.9,15.8,,,,,,,,,wg-a,,,,AAXX 07064 07070 02760 30102 10090 20090 39978 40088 58005 60006 815/9 90600 333 10158 20059 60004=
07070,1996-07-07 09:00:00,17,1007.7,-0.8,63,10,20000,7.408,,,60,,,,,,,,,,,wg-a,,,,AAXX 07094 07070 12570 70604 10170 20100 39970 40077 58008 60006 81202 90900=
07070,1996-07-07 12:00:00,18,1006.2,-1.4,56,9,25000,11.112,,,50,,,,,,,,,,,wg-a,,,,AAXX 07124 07070 12675 80506 10180 20090 39956 40062 58014 60006 8222/ 91200=
07070,1996-07-07 15:00:00,19,1005.9,-0.3,52,9,500,18.52,,,20,,,,,,,,,,,wg-a,,,,AAXX 07154 07070 12600 80210 10190 20090 39953 40059 56003 60006 82207 91500=
07070,1996-07-07 18:00:00,17,1006.5,0.5,68,11,20000,18.52,,,20,9.5,19.4,,,,,,,,,wg-a,,,,AAXX 07184 07070 12770 80210 10170 20110 39958 40065 51005 60006 84277 91800 333 10194 20095=
07070,1996-07-07 21:00:00,14,1008.4,1.8,77,10,20000,11.112,,,350,,,,,,,,,,,wg-a,,,,AAXX 07214 07070 12770 73506 10140 20100 39976 40084 52018 60006 81532 92100=
07070,1996-07-08 00:00:00,12,1010,1.5,88,10,15000,11.112,,,350,,,,,,,,,,,wg-a,,,,AAXX 08004 07070 12765 73506 10120 20100 39991 40100 51015 60006 8357/ 90000=
07070,1996-07-08 03:00:00,10,1011.4,1.3,87,8,3500,22.224,,,340,,,,,,,,,,10,wg-a,,,,AAXX 08034 07070 12/35 73412 10100 20080 30004 40114 53013 60006 71022 82032 90300=
07070,1996-07-08 06:00:00,11,1014.3,2.9,87,9,500,18.52,,,330,8.9,16.5,,,,,,,,,wg-a,,,,AAXX 08064 07070 12300 73310 10110 20090 30033 40143 53029 60006 83132 90600 333 10165 20089=
07070,1996-07-08 09:00:00,15,1016.6,2.5,72,10,15000,22.224,,,340,,,,,,,,,,,wg-a,,,,AAXX 08094 07070 12565 /3412 10150 20100 30058 40166 51025 60006 86200 90900=
07070,1996-07-08 12:00:00,17,1018.2,1.6,59,9,20000,29.632,,,340,,,,,,,,,,,wg-a,,,,AAXX 08124 07070 12670 53416 10170 20090 30074 40182 52016 60006 85800 91200=
07070,1996-07-08 15:00:00,17,1019.8,1.6,68,11,25000,25.928,,,290,,,,,,,,,,,wg-a,,,,AAXX 08154 07070 12675 32914 10170 20110 30090 40198 52016 60006 83800 91500=
07070,1996-07-08 18:00:00,17,1021.1,1.3,68,11,15000,29.632,,,320,10.7,18.6,,,,,,,,2,wg-a,,,,AAXX 08184 07070 12665 33216 10170 20110 30103 40211 53013 60006 70281 83200 91800 333 10186 20107=
07070,1996-07-08 21:00:00,14,1023.1,1.9,88,12,12000,7.408,,,310,,,,,,,,,,,wg-a,,,,AAXX 08214 07070 12662 /3104 10140 20120 30122 40231 53019 60006 85400 92100=
07070,1996-07-09 00:00:00,12,1024.3,1,88,10,12000,7.408,,,280,,,,,,,,,,,wg-a,,,,AAXX 09004 07070 12662 22804 10120 20100 30132 40243 52010 60006 82400 90000=
07070,1996-07-09 03:00:00,9,1024.8,0.4,93,8,6000,7.408,,,220,,,,,,,,,,,wg-a,,,,AAXX 09034 07070 12656 /2204 10090 20080 30136 40248 52004 60006 81400 90300=
07070,1996-07-09 06:00:00,11,1025.1,0.4,94,10,8000,7.408,,,240,8.6,17.1,,,,,,,,,wg-a,,,,AAXX 09064 07070 12758 /2404 10110 20100 30140 40251 53004 60006 81500 90600 333 10171 20086=
07070,1996-07-09 09:00:00,16,1024.9,0,72,11,15000,18.52,,,260,,,,,,,,,,,wg-a,,,,AAXX 09094 07070 12565 72610 10160 20110 30140 40249 50000 60006 83802 90900=
07070,1996-07-09 12:00:00,19,1024.3,-0.5,56,10,15000,22.224,,,260,,,,,,,,,,,wg-a,,,,AAXX 09124 07070 12565 72612 10190 20100 30135 40243 58005 60006 8483/ 91200=
07070,1996-07-09 15:00:00,20,1023.8,-0.4,53,10,18000,18.52,,,290,,,,,,,,,,,wg-a,,,,AAXX 09154 07070 12668 72910 10200 20100 30131 40238 57004 60006 8323/ 91500=
07070,1996-07-09 18:00:00,18,1023.4,-0.5,64,11,20000,18.52,,,330,10.9,20.8,,,,,,,,,wg-a,,,,AAXX 09184 07070 12770 73310 10180 20110 30126 40234 55005 60006 8487/ 91800 333 10208 20109=
07070,1996-07-09 21:00:00,16,1023.8,0.3,77,12,12000,11.112,,,280,,,,,,,,,,,wg-a,,,,AAXX 09214 07070 12562 72806 10160 20120 30129 40238 52003 60006 875// 92100=
07070,1996-07-10 00:00:00,14,1022.8,-1,100,14,500,14.816,,,260,,,,,,,,,,51,wg-a,,,,AAXX 10004 07070 02200 82608 10140 20140 30119 40228 56010 61000 75165 887// 90000 333 6100=
07070,1996-07-10 03:00:00,15,1021.7,-1.1,94,14,6000,18.52,,,280,,,,,,,,,,50,wg-a,,,,AAXX 10034 07070 02356 82810 10150 20140 30108 40217 56011 61000 75065 887// 90300 333 ////=
07070,1996-07-10 06:00:00,16,1022.2,0.5,94,15,4000,11.112,,,300,14.2,18.1,,,,,,,,10,wg-a,,,,AAXX 10064 07070 02340 83006 10160 20150 30113 40222 53005 61000 71052 886// 90600 333 10181 20142 6100=
07070,1996-07-10 09:00:00,17,1023.2,1.1,82,14,7000,18.52,,,310,,,,,,,,,,,wg-a,,,,AAXX 10094 07070 12457 73110 10170 20140 30124 40232 51011 60006 872// 90900=
07070,1996-07-10 12:00:00,19,1023.4,0.2,68,13,12000,22.224,,,330,,,,,,,,,,,wg-a,,,,AAXX 10124 07070 12562 /3312 10190 20130 30126 40234 51002 60006 85801 91200=
07070,1996-07-10 15:00:00,19,1023.7,0.4,68,13,12000,18.52,,,330,,,,,,,,,,,wg-a,,,,AAXX 10154 07070 12562 73310 10190 20130 30130 40237 52004 60006 878// 91500=
07070,1996-07-10 18:00:00,18,1024.2,0.4,68,12,15000,18.52,,,20,15.6,20,,,,,,,,,wg-a,,,,AAXX 10184 07070 12665 70210 10180 20120 30134 40242 51004 60006 878// 91800 333 10200 20156=
07070,1996-07-10 21:00:00,13,1025.2,0.8,88,11,15000,3.704,,,310,,,,,,,,,,,wg-a,,,,AAXX 10214 07070 12665 53102 10130 20110 30142 40252 51008 60006 85400 92100=
07070,1996-07-11 00:00:00,11,1025.3,-0,94,10,12000,3.704,,,270,,,,,,,,,,,wg-a,,,,AAXX 11004 07070 12662 42702 10110 20100 30142 40253 55000 60006 84500 90000=
07070,1996-07-11 03:00:00,11,1024.6,-0.7,100,11,10000,3.704,,,200,,,,,,,,,,,wg-a,,,,AAXX 11034 07070 12660 72002 10110 20110 30135 40246 58007 60006 875// 90300=
07070,1996-07-11 06:00:00,14,1024.8,0.3,88,12,12000,7.408,,,210,10.1,17.8,,,,,,,,,wg-a,,,,AAXX 11064 07070 12762 72104 10140 20120 30138 40248 50003 60006 875// 90600 333 10178 20101=
07070,1996-07-11 09:00:00,18,1024.6,-0.2,73,13,15000,11.112,,,250,,,,,,,,,,,wg-a,,,,AAXX 11094 07070 12765 72506 10180 20130 30138 40246 58002 60006 875// 90900=
07070,1996-07-11 12:00:00,22,1023.4,-1,60,14,15000,7.408,,,270,,,,,,,,,,,wg-a,,,,AAXX 11124 07070 12565 72704 10220 20140 30128 40234 58010 60006 84802 91200=
07070,1996-07-11 15:00:00,23,1021.8,-1.6,53,13,20000,7.408,,,260,,,,,,,,,,,wg-a,,,,AAXX 11154 07070 12670 72604 10230 20130 30112 40218 57016 60006 878// 91500=
07070,1996-07-11 18:00:00,24,1021,-0.8,50,13,20000,7.408,,,270,13.8,24.3,,,,,,,,,wg-a,,,,AAXX 11184 07070 12770 12704 10240 20130 30104 40210 56008 60006 81431 91800 333 10243 20138=
07070,1996-07-11 21:00:00,16,1021.5,0.3,88,14,15000,3.704,,,280,,,,,,,,,,,wg-a,,,,AAXX 11214 07070 12/65 12802 10160 20140 30107 40215 53003 60006 81030 92100=
07070,1996-07-12 00:00:00,15,1021.2,-0.4,88,13,15000,7.408,,,310,,,,,,,,,,,wg-a,,,,AAXX 12004 07070 12/65 03104 10150 20130 30103 40212 56004 60006 80000 90000=
07070,1996-07-12 03:00:00,13,1019.9,-1.3,100,13,500,0,,,0,,,,,,,,,,11,wg-a,,,,AAXX 12034 07070 12/00 /0000 10130 20130 30090 40199 57013 60006 71111 86030 90300=
07070,1996-07-12 06:00:00,15,1019.9,-0,94,14,6000,3.704,,,320,13,23.7,,,,,,,,,wg-a,,,,AAXX 12064 07070 12/56 /3202 10150 20140 30090 40199 54000 60006 81030 90600 333 10237 20130=
07070,1996-07-12 09:00:00,19,1019.8,0.1,73,14,10000,7.408,,,280,,,,,,,,,,,wg-a,,,,AAXX 12094 07070 12560 /2804 10190 20140 30091 40198 51001 60006 83230 90900=
07070,1996-07-12 12:00:00,22,1018.9,-0.8,65,15,10000,11.112,,,300,,,,,,,,,,,wg-a,,,,AAXX 12124 07070 12560 73006 10220 20150 30083 40189 58008 60006 8385/ 91200=
07070,1996-07-12 15:00:00,23,1018.6,-0.3,57,14,10000,18.52,,,280,,,,,,,,,,,wg-a,,,,AAXX 12154 07070 12660 /2810 10230 20140 30080 40186 56003 60006 82230 91500=
07070,1996-07-12 18:00:00,22,1018.5,-0.1,57,13,12000,11.112,,,320,14.7,23.1,,,,,,,,,wg-a,,,,AAXX 12184 07070 12762 23206 10220 20130 30079 40185 55001 60006 81130 91800 333 10231 20147=
07070,1996-07-12 21:00:00,17,1,,82,14,10000,7.408,,,290,,,,,,,,,,,wg-a,,,,AAXX 12214 07070 32660 /2904 10170 20140 81500 92100=
07070,1996-07-13 00:00:00,14,1020.9,0.6,94,13,8000,3.704,,,340,,,,,,,,,,,wg-a,,,,AAXX 13004 07070 12458 /3402 10140 20130 30100 40209 52006 60006 81500 90000=
07070,1996-07-13 03:00:00,10,1021,-0.1,93,9,800,0,,,0,,,,,,,,,,44,wg-a,,,,AAXX 13034 07070 12508 20000 10100 20090 30099 40210 58001 60006 74440 82500 90300=
07070,1996-07-13 06:00:00,14,1021.8,1,100,14,4500,3.704,,,190,9.5,21.9,,,,,,,,10,wg-a,,,,AAXX 13064 07070 12545 81902 10140 20140 30109 40218 53010 60006 71042 885// 90600 333 10219 20095=
07070,1996-07-13 09:00:00,19,1022.2,0.6,78,15,11000,11.112,,,250,,,,,,,,,,,wg-a,,,,AAXX 13094 07070 12/61 /2506 10190 20150 30115 40222 51006 60006 90900=
07070,1996-07-13 12:00:00,20,1023,0.8,73,15,12000,11.112,,,260,,,,,,,,,,,wg-a,,,,AAXX 13124 07070 12562 72606 10200 20150 30123 40230 51008 60006 878// 91200=
07070,1996-07-13 15:00:00,23,1022.3,-0.6,57,14,12000,14.816,,,240,,,,,,,,,,,wg-a,,,,AAXX 13154 07070 12662 72408 10230 20140 30117 40223 57006 60006 86801 91500=
07070,1996-07-13 18:00:00,24,1022.2,-0.1,54,14,20000,7.408,,,260,14,23.8,,,,,,,,,wg-a,,,,AAXX 13184 07070 12670 22604 10240 20140 30116 40222 56001 60006 82801 91800 333 10238 20140=
07070,1996-07-13 21:00:00,16,1023.6,1.1,82,13,20000,7.408,,,180,,,,,,,,,,,wg-a,,,,AAXX 13214 07070 12770 11804 10160 20130 30127 40236 53011 60006 81501 92100=
07070,1996-07-14 00:00:00,13,1024.9,1.2,94,12,15000,0,,,0,,,,,,,,,,,wg-a,,,,AAXX 14004 07070 12/65 10000 10130 20120 30139 40249 51012 60006 80001 90000=
07070,1996-07-14 03:00:00,11,1025.6,0.6,100,11,500,3.704,,,170,,,,,,,,,,41,wg-a,,,,AAXX 14034 07070 12/05 /1702 10110 20110 30145 40256 51006 60006 74140 80001 90300=
07070,1996-07-14 06:00:00,14,1026.5,1,100,14,8000,3.704,,,270,10.5,23.8,,,,,,,,40,wg-a,,,,AAXX 14064 07070 12458 72702 10140 20140 30155 40265 53010 60006 74041 875// 90600 333 10238 20105=
07070,1996-07-14 09:00:00,19,1027.3,1,78,15,15000,14.816,,,290,,,,,,,,,,,wg-a,,,,AAXX 14094 07070 12465 72908 10190 20150 30165 40273 51010 60006 875// 90900=
07070,1996-07-14 12:00:00,23,1026.7,-0.5,65,16,15000,11.112,,,330,,,,,,,,,,,wg-a,,,,AAXX 14124 07070 12565 /3306 10230 20160 30160 40267 58005 60006 85500 91200=
07070,1996-07-14 15:00:00,23,1026.3,-0.3,65,16,12000,14.816,,,350,,,,,,,,,,,wg-a,,,,AAXX 14154 07070 12562 63508 10230 20160 30157 40263 55003 60006 86800 91500=
07070,1996-07-14 18:00:00,22,1026.1,-0.3,65,15,15000,14.816,,,350,14.3,23.8,,,,,,,,,wg-a,,,,AAXX 14184 07070 12665 23508 10220 20150 30154 40261 55003 60006 82500 91800 333 10238 20143=
07070,1996-07-14 21:00:00,17,1026.4,0.2,88,15,20000,3.704,,,10,,,,,,,,,,,wg-a,,,,AAXX 14214 07070 12570 40102 10170 20150 30156 40264 53002 60006 82501 92100=
07070,1996-07-15 00:00:00,18,1026.1,-0.3,94,17,15000,11.112,,,340,,,,,,,,,,,wg-a,,,,AAXX 15004 07070 12665 73406 10180 20170 30153 40261 57003 60006 875// 90000=
07070,1996-07-15 03:00:00,18,1025.6,-0.5,94,17,6000,7.408,,,360,,,,,,,,,,,wg-a,,,,AAXX 15034 07070 12656 73604 10180 20170 30148 40256 58005 60006 83501 90300=
07070,1996-07-15 06:00:00,18,1026,0.4,94,17,4000,11.112,,,360,16.7,21.9,,,,,,,,10,wg-a,,,,AAXX 15064 07070 12440 73606 10180 20170 30152 40260 53004 60006 71022 875// 90600 333 10219 20167=
07070,1996-07-15 09:00:00,21,1026.4,0.5,83,18,3800,18.52,,,30,,,,,,,,,,10,wg-a,,,,AAXX 15094 07070 12438 70310 10210 20180 30157 40264 51005 60006 71022 875// 90900=
07070,1996-07-15 12:00:00,23,1025.9,-0.4,65,16,9000,22.224,,,20,,,,,,,,,,,wg-a,,,,AAXX 15124 07070 12559 70212 10230 20160 30153 40259 57004 60006 878// 91200=
07070,1996-07-15 15:00:00,25,1025.2,-0.7,50,14,15000,18.52,,,30,,,,,,,,,,,wg-a,,,,AAXX 15154 07070 12665 70310 10250 20140 30146 40252 57007 60006 875// 91500=
07070,1996-07-15 18:00:00,23,1025,-0.2,53,13,12000,22.224,,,20,18.1,25.1,,,,,,,,,wg-a,,,,AAXX 15184 07070 12762 10212 10230 20130 30144 40250 55002 60006 81400 91800 333 10251 20181=
07070,1996-07-16 00:00:00,13,1027.8,1,88,11,10000,14.816,,,10,,,,,,,,,,,wg-a,,,,AAXX 16004 07070 12/60 00108 10130 20110 30168 40278 51010 60006 80000 90000=
07070,1996-07-16 03:00:00,10,1028.2,0.2,93,9,10000,14.816,,,360,,,,,,,,,,,wg-a,,,,AAXX 16034 07070 12/60 03608 10100 20090 30170 40282 51002 60006 80000 90300=
07070,1996-07-16 06:00:00,13,1028.6,0.5,82,10,12000,18.52,,,30,9.8,22.8,,,,,,,,,wg-a,,,,AAXX 16064 07070 12/62 00310 10130 20100 30175 40286 53005 60006 80000 90600 333 10228 20098=
07070,1996-07-16 09:00:00,18,1028.9,0.5,56,9,25000,22.224,,,60,,,,,,,,,,,wg-a,,,,AAXX 16094 07070 12675 /0612 10180 20090 30180 40289 51005 60006 81100 90900=
07070,1996-07-16 12:00:00,21,1028.1,-0.7,53,11,25000,22.224,,,40,,,,,,,,,,,wg-a,,,,AAXX 16124 07070 12/75 40412 10210 20110 30173 40281 58007 60006 80001 91200=
07070,1996-07-16 15:00:00,23,1026.5,-1.5,41,9,25000,22.224,,,30,,,,,,,,,,,wg-a,,,,AAXX 16154 07070 12/75 10312 10230 20090 30158 40265 58015 60006 80001 91500=
07070,1996-07-16 18:00:00,21,1025.9,-0.6,46,9,25000,25.928,,,40,12.6,23,,,,,,,,,wg-a,,,,AAXX 16184 07070 12/75 10414 10210 20090 30152 40259 55006 60006 80001 91800 333 10230 20126=
07070,1996-07-16 21:00:00,13,1026.9,0.7,77,9,20000,11.112,,,40,,,,,,,,,,,wg-a,,,,AAXX 16214 07070 12/70 10406 10130 20090 30159 40269 53007 60006 80001 92100=
07070,1996-07-17 00:00:00,10,1027.5,0.4,87,8,15000,7.408,,,60,,,,,,,,,,,wg-a,,,,AAXX 17004 07070 12/65 10604 10100 20080 30163 40275 51004 60006 80001 90000=
07070,1996-07-17 03:00:00,8,1026.9,-0.6,93,7,12000,7.408,,,20,,,,,,,,,,,wg-a,,,,AAXX 17034 07070 12/62 10204 10080 20070 30157 40269 56006 60006 80001 90300=
07070,1996-07-17 06:00:00,13,1026.6,-0.1,82,10,12000,7.408,,,30,7,21.2,,,,,,,,,wg-a,,,,AAXX 17064 07070 12/62 30304 10130 20100 30156 40266 55001 60006 80001 90600 333 10212 20070=
07070,1996-07-17 09:00:00,19,1026.2,-0.2,60,11,12000,18.52,,,60,,,,,,,,,,,wg-a,,,,AAXX 17094 07070 12/62 10610 10190 20110 30154 40262 58002 60006 80001 90900=
07070,1996-07-17 10:00:00,23,1022.9,-0.6,41,9,20000,25.928,,,40,12.6,24.8,,,,,,,,,wg-a,,,,AAXX 17104 07070 12/70 10414 10230 20090 30123 40229 55006 60006 80001 91000 333 10248 20126=
07070,1996-07-17 12:00:00,23,1024.6,-1.4,38,8,20000,22.224,,,50,,,,,,,,,,,wg-a,,,,AAXX 17124 07070 12/70 10512 10230 20080 30140 40246 58014 60006 80001 91200=
07070,1996-07-17 15:00:00,24,1023.5,-1.1,41,10,20000,22.224,,,40,,,,,,,,,,,wg-a,,,,AAXX 17154 07070 12/70 10412 10240 20100 30129 40235 58011 60006 80001 91500=
07070,1996-07-17 18:00:00,23,1022.9,-0.6,41,9,20000,25.928,,,40,12.6,24.8,,,,,,,,,wg-a,,,,AAXX 17184 07070 12/70 10414 10230 20090 30123 40229 55006 60006 80001 91800 333 10248 20126=
07070,1996-07-17 21:00:00,15,1023.9,0.7,72,10,15000,18.52,,,30,,,,,,,,,,,wg-a,,,,AAXX 17214 07070 12/65 10310 10150 20100 30130 40239 53007 60006 80001 92100=
07070,1996-07-18 00:00:00,11,1024.9,0.8,82,8,12000,3.704,,,60,,,,,,,,,,,wg-a,,,,AAXX 18004 07070 12/62 00602 10110 20080 30138 40249 51008 60006 80000 90000=
07070,1996-07-18 03:00:00,8,1024.9,-0.1,93,7,12000,3.704,,,330,,,,,,,,,,,wg-a,,,,AAXX 18034 07070 12/62 03302 10080 20070 30137 40249 58001 60006 80000 90300=
07070,1996-07-18 06:00:00,12,1025.3,0.5,82,9,12000,3.704,,,40,6.7,22.5,,,,,,,,,wg-a,,,,AAXX 18064 07070 12/62 00402 10120 20090 30142 40253 51005 60006 80000 90600 333 10225 20067=
07070,1996-07-18 12:00:00,23,1023.9,-0.8,31,5,500,18.52,,,30,,,,,,,,,,,wg-a,,,,AAXX 18124 07070 12/00 10310 10230 20050 30133 40239 58008 60006 80001 91200=
07070,1996-07-18 15:00:00,25,1023.2,-0.7,26,4,40000,22.224,,,360,,,,,,,,,,,wg-a,,,,AAXX 18154 07070 12/82 23612 10250 20040 30126 40232 56007 60006 80001 91500=
07070,1996-07-18 18:00:00,23,1022.9,-0.3,36,7,500,18.52,,,20,11.8,24.6,,,,,,,,,wg-a,,,,AAXX 18184 07070 12/00 00210 10230 20070 30123 40229 56003 60006 80000 91800 333 10246 20118=
07070,1996-07-18 21:00:00,15,1024.4,1.2,67,9,15000,11.112,,,10,,,,,,,,,,,wg-a,,,,AAXX 18214 07070 12/65 10106 10150 20090 30135 40244 53012 60006 80001 92100=
07070,1996-07-19 00:00:00,11,1025.3,0.7,87,9,12000,7.408,,,30,,,,,,,,,,,wg-a,,,,AAXX 19004 07070 12/62 00304 10110 20090 30142 40253 51007 60006 80000 90000=
07070,1996-07-19 03:00:00,7,1025.7,0.2,93,6,8000,0,,,0,,,,,,,,,,,wg-a,,,,AAXX 19034 07070 12/58 /0000 10070 20060 30144 40257 53002 60006 80001 90300=
07070,1996-07-19 06:00:00,10,1025.8,0.3,93,9,500,0,,,0,5.8,22.5,,,,,,,,,wg-a,,,,AAXX 19064 07070 12/00 40000 10100 20090 30147 40258 53003 60006 80001 90600 333 10225 20058=
07070,1996-07-19 09:00:00,19,1025.7,0.2,52,9,10000,11.112,,,80,,,,,,,,,,,wg-a,,,,AAXX 19094 07070 12/60 60806 10190 20090 30149 40257 50002 60006 80001 90900=
07070,1996-07-19 12:00:00,23,1024.6,-0.9,38,8,25000,14.816,,,40,,,,,,,,,,,wg-a,,,,AAXX 19124 07070 12675 70408 10230 20080 30140 40246 58009 60006 81201 91200=
07070,1996-07-19 15:00:00,25,1023.5,-1.1,36,9,25000,14.816,,,60,,,,,,,,,,,wg-a,,,,AAXX 19154 07070 12675 70608 10250 20090 30129 40235 56011 60006 81181 91500=
07070,1996-07-19 18:00:00,24,1023.1,-0.4,38,9,25000,14.816,,,30,10.5,25,,,,,,,,,wg-a,,,,AAXX 19184 07070 12/75 50308 10240 20090 30125 40231 56004 60006 81031 91800 333 10250 20105=
07070,1996-07-19 21:00:00,15,1024.1,0.7,72,10,12000,3.704,,,80,,,,,,,,,,,wg-a,,,,AAXX 19214 07070 12/62 10802 10150 20100 30132 40241 51007 60006 80001 92100=
07070,1996-07-20 00:00:00,11,1024.2,-0.1,82,8,12000,0,,,0,,,,,,,,,,,wg-a,,,,AAXX 20004 07070 12/62 10000 10110 20080 30131 40242 57001 60006 80001 90000=
07070,1996-07-20 03:00:00,9,1024.3,0,87,7,12000,3.704,,,50,,,,,,,,,,,wg-a,,,,AAXX 20034 07070 12/62 00502 10090 20070 30131 40243 50000 60006 80000 90300=
07070,1996-07-20 06:00:00,13,1024.6,0.5,77,9,20000,7.408,,,60,7.5,23.7,,,,,,,,,wg-a,,,,AAXX 20064 07070 12/70 10604 10130 20090 30136 40246 53005 60006 80001 90600 333 10237 20075=
07070,1996-07-20 09:00:00,22,1024.6,0.3,41,8,25000,14.816,,,110,,,,,,,,,,,wg-a,,,,AAXX 20094 07070 12/75 11108 10220 20080 30139 40246 51003 60006 80001 90900=
07070,1996-07-20 12:00:00,25,1023.8,-0.7,30,6,500,18.52,,,70,,,,,,,,,,,wg-a,,,,AAXX 20124 07070 12700 10710 10250 20060 30132 40238 58007 60006 81101 91200=
07070,1996-07-20 15:00:00,27,1023,-0.7,24,5,500,7.408,,,60,,,,,,,,,,,wg-a,,,,AAXX 20154 07070 12/00 10604 10270 20050 30125 40230 56007 60006 80001 91500=
07070,1996-07-20 18:00:00,25,1022.8,-0.3,30,6,35000,11.112,,,60,13,26.7,,,,,,,,,wg-a,,,,AAXX 20184 07070 12/81 00606 10250 20060 30122 40228 55003 60006 80000 91800 333 10267 20130=
07070,1996-07-20 21:00:00,16,1023.8,0.7,63,9,20000,3.704,,,90,,,,,,,,,,,wg-a,,,,AAXX 20214 07070 12/70 10902 10160 20090 30129 40238 53007 60006 80001 92100=
07070,1996-07-21 00:00:00,12,1024,0.1,76,8,15000,3.704,,,80,,,,,,,,,,,wg-a,,,,AAXX 21004 07070 12/65 00802 10120 20080 30130 40240 53001 60006 80000 90000=
07070,1996-07-21 03:00:00,10,1024.1,-0,76,6,15000,0,,,0,,,,,,,,,,,wg-a,,,,AAXX 21034 07070 12/65 10000 10100 20060 30130 40241 55000 60006 80001 90300=
07070,1996-07-21 06:00:00,12,1024.3,0.3,88,10,25000,0,,,0,8.4,24.8,,,,,,,,,wg-a,,,,AAXX 21064 07070 12/75 00000 10120 20100 30133 40243 53003 60006 80000 90600 333 10248 20084=
07070,1996-07-21 09:00:00,23,1023.9,0,31,5,25000,11.112,,,150,,,,,,,,,,,wg-a,,,,AAXX 21094 07070 12/75 11506 10230 20050 30133 40239 50000 60006 80001 90900=
07070,1996-07-21 12:00:00,27,1023,-0.8,28,7,35000,7.408,,,60,,,,,,,,,,,wg-a,,,,AAXX 21124 07070 12/81 20604 10270 20070 30125 40230 58008 60006 80001 91200=
07070,1996-07-21 15:00:00,28,1021.8,-1.2,28,8,35000,11.112,,,90,,,,,,,,,,,wg-a,,,,AAXX 21154 07070 12781 40906 10280 20080 30113 40218 56012 60006 81101 91500=
07070,1996-07-21 18:00:00,25,1020.8,-1,36,9,35000,11.112,,,80,12.1,27.8,,,,,,,,,wg-a,,,,AAXX 21184 07070 12/81 70806 10250 20090 30103 40208 56010 60006 80002 91800 333 10278 20121=
07070,1996-07-21 21:00:00,16,1021.7,0.5,63,9,25000,3.704,,,90,,,,,,,,,,,wg-a,,,,AAXX 21214 07070 12/75 70902 10160 20090 30108 40217 52005 60006 80002 92100=
07070,1996-07-22 00:00:00,14,1021.6,-0.1,67,8,20000,3.704,,,180,,,,,,,,,,,wg-a,,,,AAXX 22004 07070 12/70 21802 10140 20080 30107 40216 58001 60006 80002 90000=
07070,1996-07-22 03:00:00,13,1021.5,-0.2,67,7,15000,3.704,,,270,,,,,,,,,,,wg-a,,,,AAXX 22034 07070 12/65 22702 10130 20070 30105 40215 55002 60006 80002 90300=
07070,1996-07-22 06:00:00,13,1021.8,0.3,77,9,25000,0,,,0,10.6,25,,,,,,,,,wg-a,,,,AAXX 22064 07070 12/75 50000 10130 20090 30108 40218 50003 60006 80001 90600 333 10250 20106=
07070,1996-07-22 09:00:00,24,1020.6,-0.7,36,8,25000,14.816,,,130,,,,,,,,,,,wg-a,,,,AAXX 22094 07070 12/75 21308 10240 20080 30101 40206 58007 60006 80001 90900=
07070,1996-07-22 12:00:00,28,1018.5,-2,27,7,500,18.52,,,120,,,,,,,,,,,wg-a,,,,AAXX 22124 07070 12/00 01210 10280 20070 30081 40185 58020 60006 80000 91200=
07070,1996-07-22 15:00:00,30,1016.1,-2.3,24,7,20000,18.52,,,140,,,,,,,,,,,wg-a,,,,AAXX 22154 07070 12/70 01410 10300 20070 30058 40161 56023 60006 80000 91500=
07070,1996-07-22 18:00:00,29,1014.6,-1.5,25,7,15000,14.816,,,130,13,30.3,,,,,,,,,wg-a,,,,AAXX 22184 07070 12/65 01308 10290 20070 30043 40146 56015 60006 80000 91800 333 10303 20130=
07070,1996-07-22 21:00:00,20,1015.1,0.2,53,10,15000,18.52,,,110,,,,,,,,,,,wg-a,,,,AAXX 22214 07070 12/65 01110 10200 20100 30045 40151 53002 60006 80000 92100=
07070,1996-07-23 00:00:00,21,1014.1,-1,53,11,15000,18.52,,,160,,,,,,,,,,,wg-a,,,,AAXX 23004 07070 12/65 01610 10210 20110 30035 40141 57010 60006 80000 90000=
07070,1996-07-23 03:00:00,19,1012.8,-1.3,64,12,15000,3.704,,,190,,,,,,,,,,,wg-a,,,,AAXX 23034 07070 12/65 41902 10190 20120 30022 40128 58013 60006 84080 90300=
07070,1996-07-23 06:00:00,22,1011.7,-1,60,14,12000,14.816,,,190,18.4,28.7,,,,,,,,,wg-a,,,,AAXX 23064 07070 12662 /1908 10220 20140 30012 40117 58010 60006 81900 90600 333 10287 20184=
07070,1996-07-23 12:00:00,30,1009.8,-0.6,35,13,12000,31.484,,,240,,,,,,,,,,2,wg-a,,,,AAXX 23124 07070 02862 72417 10300 20130 39996 40098 58006 61000 70298 82082 91200 333 ////=
07070,1996-07-23 15:00:00,30,1009.6,-0.2,33,12,12000,25.928,,,250,,,,,,,,,,,wg-a,,,,AAXX 23154 07070 12762 72514 10300 20120 39994 40096 58002 60006 81102 91500=
07070,1996-07-23 18:00:00,28,1009.8,0.1,28,8,20000,25.928,,,290,21.9,30.6,,,,,,,,,wg-a,,,,AAXX 23184 07070 32770 12914 10280 20080 39995 40098 53001 81100 91800 333 10306 20219=
07070,1996-07-23 21:00:00,20,1011.8,1.7,64,13,20000,11.112,,,320,,,,,,,,,,,wg-a,,,,AAXX 23214 07070 12770 13206 10200 20130 30012 40118 51017 60006 81400 92100=
07070,1996-07-24 00:00:00,16,1012.9,0.9,82,13,20000,3.704,,,340,,,,,,,,,,,wg-a,,,,AAXX 24004 07070 12770 13402 10160 20130 30021 40129 51009 60006 81500 90000=
07070,1996-07-24 03:00:00,15,1012.9,0,82,12,20000,14.816,,,260,,,,,,,,,,,wg-a,,,,AAXX 24034 07070 12770 12608 10150 20120 30021 40129 50000 60006 81500 90300=
07070,1996-07-24 06:00:00,16,1013.3,0.4,77,12,15000,18.52,,,250,14,27.8,,,,,,,,,wg-a,,,,AAXX 24064 07070 02765 32510 10160 20120 30025 40133 52004 60006 83500 90600 333 10278 20140 61000=
07070,1996-07-24 09:00:00,17,1014,0.8,82,14,7000,25.928,,,260,,,,,,,,,,60,wg-a,,,,AAXX 24094 07070 02457 82614 10170 20140 30033 40140 53008 61000 76061 885// 90900 333 ////=
07070,1996-07-24 12:00:00,22,1014.2,0.3,53,12,25000,29.632,,,280,,,,,,,,,,1,wg-a,,,,AAXX 24124 07070 02675 /2816 10220 20120 30036 40142 51003 61000 70161 86800 91200 333 6100=
07070,1996-07-24 18:00:00,20,1016.3,1.1,53,10,20000,25.928,,,310,15.8,23.3,,,,,,,,,wg-a,,,,AAXX 24184 07070 32670 /3114 10200 20100 30056 40163 52011 81100 91800 333 10233 20158=
07070,1996-07-24 21:00:00,16,1018.4,2,77,12,25000,14.816,,,340,,,,,,,,,,,wg-a,,,,AAXX 24214 07070 12675 73408 10160 20120 30076 40184 51020 60006 874// 92100=
07070,1996-07-25 00:00:00,13,1019.6,1.1,94,12,12000,11.112,,,320,,,,,,,,,,,wg-a,,,,AAXX 25004 07070 12/62 03206 10130 20120 30087 40196 52011 60006 80000 90000=
07070,1996-07-25 03:00:00,12,1020.5,0.8,94,11,10000,7.408,,,250,,,,,,,,,,,wg-a,,,,AAXX 25034 07070 12/60 02504 10120 20110 30095 40205 53008 60006 80000 90300=
07070,1996-07-25 06:00:00,13,1021.5,1,94,12,6000,7.408,,,250,10.9,20,,,,,,,,,wg-a,,,,AAXX 25064 07070 02/56 02504 10130 20120 30105 40215 53010 60006 80000 90600 333 10200 20109 61000=
07070,1996-07-25 09:00:00,16,1022.3,0.9,72,11,12000,18.52,,,330,,,,,,,,,,,wg-a,,,,AAXX 25094 07070 12562 83310 10160 20110 30114 40223 51009 60006 885// 90900=
07070,1996-07-25 12:00:00,18,1022.7,0.5,68,12,10000,18.52,,,340,,,,,,,,,,,wg-a,,,,AAXX 25124 07070 12560 73410 10180 20120 30119 40227 52005 60006 875// 91200=
07070,1996-07-25 15:00:00,18,1023,0.3,73,13,8000,18.52,,,340,,,,,,,,,,,wg-a,,,,AAXX 25154 07070 12558 73410 10180 20130 30122 40230 50003 60006 875// 91500=
07070,1996-07-25 18:00:00,17,1022.3,-0.7,77,13,8000,18.52,,,20,13,18.8,,,,,,,,,wg-a,,,,AAXX 25184 07070 12458 70210 10170 20130 30115 40223 58007 60006 878// 91800 333 10188 20130=
07070,1996-07-25 21:00:00,16,1023.2,0.8,82,13,7000,11.112,,,30,,,,,,,,,,,wg-a,,,,AAXX 25214 07070 12457 80306 10160 20130 30123 40232 53008 60006 885// 92100=
07070,1996-07-26 00:00:00,15,1023.7,0.5,82,12,7000,7.408,,,80,,,,,,,,,,,wg-a,,,,AAXX 26004 07070 12457 80804 10150 20120 30128 40237 50005 60006 885// 90000=
07070,1996-07-26 03:00:00,11,1022.7,-1.1,94,10,500,3.704,,,20,,,,,,,,,,,wg-a,,,,AAXX 26034 07070 12/00 00202 10110 20100 30117 40227 56011 60006 80000 90300=
07070,1996-07-26 06:00:00,12,1022.9,0.2,100,12,2500,3.704,,,220,9.3,17,,,,,,,,10,wg-a,,,,AAXX 26064 07070 12/25 02202 10120 20120 30119 40229 53002 60006 71011 80000 90600 333 10170 20093=
07070,1996-07-26 09:00:00,19,1022.2,-0.4,73,14,500,7.408,,,100,,,,,,,,,,,wg-a,,,,AAXX 26094 07070 12500 21004 10190 20140 30115 40222 56004 60006 82100 90900=
07070,1996-07-26 12:00:00,24,1021,-1.1,47,12,8000,11.112,,,90,,,,,,,,,,,wg-a,,,,AAXX 26124 07070 12/58 00906 10240 20120 30104 40210 58011 60006 80000 91200=
07070,1996-07-26 15:00:00,27,1019.3,-1.5,39,12,10000,14.816,,,50,,,,,,,,,,,wg-a,,,,AAXX 26154 07070 12/60 10508 10270 20120 30089 40193 57015 60006 80001 91500=
07070,1996-07-26 18:00:00,26,1018.7,-0.7,42,12,12000,11.112,,,30,12.1,26.8,,,,,,,,,wg-a,,,,AAXX 26184 07070 12/62 20306 10260 20120 30082 40187 56007 60006 80001 91800 333 10268 20121=
07070,1996-07-26 21:00:00,19,1019.5,0.6,68,13,7000,11.112,,,10,,,,,,,,,,11,wg-a,,,,AAXX 26214 07070 12/57 20106 10190 20130 30088 40195 51006 60006 71111 80001 92100=
07070,1996-07-27 00:00:00,13,1019.1,-0.6,88,11,6000,0,,,0,,,,,,,,,,11,wg-a,,,,AAXX 27004 07070 12/56 20000 10130 20110 30082 40191 58006 60006 71111 80001 90000=
07070,1996-07-27 03:00:00,10,1018.7,-0.6,93,9,4000,0,,,0,,,,,,,,,,10,wg-a,,,,AAXX 27034 07070 12/40 40000 10100 20090 30076 40187 56006 60006 71000 80001 90300=
07070,1996-07-27 06:00:00,13,1018.4,-0.1,100,13,1500,3.704,,,290,9.2,25.9,,,,,,,,10,wg-a,,,,AAXX 27064 07070 12/15 32902 10130 20130 30075 40184 58001 60006 71041 80001 90600 333 10259 20092=
07070,1996-07-27 09:00:00,23,1018.3,0.2,53,13,9000,3.704,,,270,,,,,,,,,,,wg-a,,,,AAXX 27094 07070 12/59 22702 10230 20130 30077 40183 50002 60006 80001 90900=
07070,1996-07-27 12:00:00,27,1017.4,-0.7,39,12,10000,11.112,,,290,,,,,,,,,,,wg-a,,,,AAXX 27124 07070 12560 /2906 10270 20120 30070 40174 58007 60006 81101 91200=
07070,1996-07-27 15:00:00,28,1016.5,-0.9,35,11,12000,11.112,,,340,,,,,,,,,,,wg-a,,,,AAXX 27154 07070 12/62 73406 10280 20110 30061 40165 57009 60006 81032 91500=
07070,1996-07-27 18:00:00,26,1016.6,0.1,42,12,15000,18.52,,,30,13,28.1,,,,,,,,,wg-a,,,,AAXX 27184 07070 12/65 40310 10260 20120 30062 40166 53001 60006 81032 91800 333 10281 20130=
07070,1996-07-27 21:00:00,20,1018.2,1.3,78,16,7000,11.112,,,350,,,,,,,,,,,wg-a,,,,AAXX 27214 07070 12/57 33506 10200 20160 30075 40182 51013 60006 80001 92100=
07070,1996-07-28 00:00:00,16,1018.2,-0.1,94,15,500,11.112,,,330,,,,,,,,,,,wg-a,,,,AAXX 28004 07070 12/00 33306 10160 20150 30074 40182 58001 60006 80001 90000=
07070,1996-07-28 03:00:00,15,1017.4,-0.8,100,15,3000,3.704,,,300,,,,,,,,,,10,wg-a,,,,AAXX 28034 07070 12730 73002 10150 20150 30066 40174 58008 60006 71011 875// 90300=
07070,1996-07-28 06:00:00,15,1017.8,0.4,100,15,3000,0,,,0,14.5,26.1,,,,,,,,10,wg-a,,,,AAXX 28064 07070 12/30 /0000 10150 20150 30070 40178 51004 60006 71011 81030 90600 333 10261 20145=
07070,1996-07-28 09:00:00,22,1017.8,0.2,69,16,4500,3.704,,,350,,,,,,,,,,10,wg-a,,,,AAXX 28094 07070 12745 53502 10220 20160 30072 40178 50002 60006 71011 83530 90900=
07070,1996-07-28 12:00:00,26,1017.2,-0.4,48,14,12000,14.816,,,300,,,,,,,,,,,wg-a,,,,AAXX 28124 07070 12662 73008 10260 20140 30068 40172 58004 60006 878// 91200=
07070,1996-07-28 15:00:00,27,1016.4,-0.8,45,14,20000,14.816,,,320,,,,,,,,,,,wg-a,,,,AAXX 28154 07070 12770 63208 10270 20140 30060 40164 58008 60006 86800 91500=
07070,1996-07-28 18:00:00,26,1015.7,-0.7,51,15,25000,7.408,,,340,15.5,26.9,,,,,,,,,wg-a,,,,AAXX 28184 07070 12775 43404 10260 20150 30053 40157 55007 60006 83801 91800 333 10269 20155=
07070,1996-07-28 21:00:00,20,1017.4,1.4,64,13,10000,11.112,,,350,,,,,,,,,,,wg-a,,,,AAXX 28214 07070 12/60 13506 10200 20130 30067 40174 53014 60006 80001 92100=
07070,1996-07-29 00:00:00,16,1017.8,0.3,88,14,10000,7.408,,,310,,,,,,,,,,,wg-a,,,,AAXX 29004 07070 12/60 13104 10160 20140 30070 40178 51003 60006 80001 90000=
07070,1996-07-29 03:00:00,12,1016.9,-1.1,94,11,10000,0,,,0,,,,,,,,,,,wg-a,,,,AAXX 29034 07070 12/60 30000 10120 20110 30059 40169 58011 60006 81031 90300=
07070,1996-07-29 06:00:00,15,1016.5,-0.2,88,13,12000,3.704,,,60,11.4,25.6,,,,,,,,,wg-a,,,,AAXX 29064 07070 12862 60602 10150 20130 30057 40165 56002 60006 815/1 90600 333 10256 20114=
07070,1996-07-29 09:00:00,22,1016.4,0.1,65,15,15000,3.704,,,360,,,,,,,,,,,wg-a,,,,AAXX 29094 07070 12/65 73602 10220 20150 30058 40164 50001 60006 81082 90900=
07070,1996-07-29 12:00:00,25,1015.1,-1.1,50,14,20000,18.52,,,280,,,,,,,,,,,wg-a,,,,AAXX 29124 07070 12670 72810 10250 20140 30047 40151 58011 60006 83282 91200=
07070,1996-07-29 18:00:00,18,1014.4,0.4,77,14,25000,31.484,,,330,14.8,26.8,,,,,,,,18,wg-a,,,,AAXX 29184 07070 32675 33317 10180 20140 30037 40144 53004 71881 81903 91800 333 10268 20148=
07070,1996-07-29 21:00:00,16,1014.7,0.2,88,14,500,11.112,,,250,,,,,,,,,,1,wg-a,,,,AAXX 29214 07070 12700 12506 10160 20140 30039 40147 52002 60006 70181 81401 92100=
07070,1996-07-30 00:00:00,14,1015.5,0.7,94,13,500,7.408,,,240,,,,,,,,,,3,wg-a,,,,AAXX 30004 07070 12700 22404 10140 20130 30046 40155 51007 60006 70381 82500 90000=
07070,1996-07-30 03:00:00,13,1015.7,0.2,94,12,10000,0,,,0,,,,0,,,,,,,wg-a,,,,AAXX 30034 07070 12760 20000 10130 20120 30048 40157 52002 60007 82500 90300=
07070,1996-07-30 06:00:00,15,1016.5,0.9,100,15,500,11.112,,,250,12.4,18.4,,,,,,,,,wg-a,,,,AAXX 30064 07070 12500 72506 10150 20150 30057 40165 52009 60004 875// 90600 333 10184 20124=
07070,1996-07-30 09:00:00,18,1017,0.6,77,14,12000,14.816,,,280,,,,,,,,,,,wg-a,,,,AAXX 30094 07070 12462 82808 10180 20140 30063 40170 51006 60006 875// 90900=
07070,1996-07-30 12:00:00,22,1017.3,0.4,60,14,15000,18.52,,,300,,,,,,,,,,,wg-a,,,,AAXX 30124 07070 12565 /3010 10220 20140 30067 40173 51004 60006 85500 91200=
07070,1996-07-30 15:00:00,22,1017.5,0.2,65,15,10000,14.816,,,330,,,,,,,,,,,wg-a,,,,AAXX 30154 07070 12560 33308 10220 20150 30069 40175 50002 60006 81131 91500=
07070,1996-07-30 18:00:00,23,1017,-0.4,57,14,12000,7.408,,,270,15.2,23.7,,,,,,,,,wg-a,,,,AAXX 30184 07070 12762 72704 10230 20140 30065 40170 56004 60006 875// 91800 333 10237 20152=
07070,1996-07-30 21:00:00,19,1018.3,1.1,78,15,10000,18.52,,,330,,,,,,,,,,,wg-a,,,,AAXX 30214 07070 12760 53310 10190 20150 30076 40183 53011 60006 81530 92100=
07070,1996-07-31 00:00:00,15,1018.7,0.2,82,12,12000,3.704,,,300,,,,,,,,,,,wg-a,,,,AAXX 31004 07070 12762 33002 10150 20120 30078 40187 50002 60006 81530 90000=
07070,1996-07-31 03:00:00,11,1018.5,-0.3,100,11,12000,3.704,,,40,,,,,,,,,,,wg-a,,,,AAXX 31034 07070 12/62 10402 10110 20110 30075 40185 55003 60006 81030 90300=
07070,1996-07-31 06:00:00,14,1018.7,0.3,94,13,10000,3.704,,,260,10.2,22.7,,,,,,,,,wg-a,,,,AAXX 31064 07070 12660 72602 10140 20130 30078 40187 50003 60006 875// 90600 333 10227 20102=
07070,1996-07-31 09:00:00,20,1018.3,-0.1,64,13,15000,11.112,,29.632,230,,,,,,,,,,,wg-a,,,,AAXX 31094 07070 12565 /2306 10200 20130 30077 40183 58001 60006 86800 90900 333 91016=
07070,1996-07-31 12:00:00,24,1017.5,-0.7,47,12,15000,14.816,,,270,,,,,,,,,,,wg-a,,,,AAXX 31124 07070 12665 /2708 10240 20120 30070 40175 57007 60006 85800 91200=
07070,1996-07-31 15:00:00,27,1015.9,-1.5,37,11,15000,14.816,,,260,,,,,,,,,,,wg-a,,,,AAXX 31154 07070 12765 22608 10270 20110 30055 40159 56015 60006 82430 91500=
07070,1996-07-31 18:00:00,25,1015.5,-0.5,47,13,15000,14.816,,,340,14.5,27.4,,,,,,,,,wg-a,,,,AAXX 31184 07070 12765 33408 10250 20130 30050 40155 56005 60006 83401 91800 333 10274 20145=
07070,1996-07-31 21:00:00,18,1016.2,0.5,73,13,20000,3.704,,,180,,,,,,,,,,,wg-a,,,,AAXX 31214 07070 12770 21802 10180 20130 30055 40162 53005 60006 81501 92100=
07070,1996-08-01 00:00:00,15,1016.7,0.4,88,13,15000,3.704,,,250,,,,,,,,,,,wg-a,,,,AAXX 01004 07070 12/65 02502 10150 20130 30059 40167 51004 60006 80000 90000=
07070,1996-08-01 03:00:00,13,1016.6,-0.2,88,11,10000,0,,,0,,,,,,,,,,,wg-a,,,,AAXX 01034 07070 12560 30000 10130 20110 30057 40166 56002 60006 83200 90300=
07070,1996-08-01 04:00:00,16,1017.4,0.9,94,15,10000,3.704,,,310,12.3,24.9,,,,,,,,,wg-a,,,,AAXX 01044 07070 12560 73102 10160 20150 30066 40174 53009 60006 878// 90400 333 10249 20123=
07070,1996-08-01 06:00:00,16,1017.4,0.9,94,15,10000,3.704,,,310,12.3,24.9,,,,,,,,,wg-a,,,,AAXX 01064 07070 12560 73102 10160 20150 30066 40174 53009 60006 878// 90600 333 10249 20123=
07070,1996-08-01 09:00:00,20,1017.5,0.3,64,13,20000,11.112,,,320,,,,,,,,,,,wg-a,,,,AAXX 01094 07070 12570 73206 10200 20130 30069 40175 53003 60006 878// 90900=
07070,1996-08-01 12:00:00,23,1016.8,-0.6,57,14,25000,14.816,,,290,,,,,,,,,,,wg-a,,,,AAXX 01124 07070 12675 52908 10230 20140 30063 40168 58006 60006 85800 91200=
07070,1996-08-01 15:00:00,24,1016.6,-0.2,50,13,25000,18.52,,,310,,,,,,,,,,,wg-a,,,,AAXX 01154 07070 12775 63110 10240 20130 30061 40166 57002 60006 86201 91500=
07070,1996-08-01 18:00:00,23,1017,0.3,50,12,25000,14.816,,,340,15.7,25.1,,,,,,,,,wg-a,,,,AAXX 01184 07070 12775 13408 10230 20120 30064 40170 52003 60006 81401 91800 333 10251 20157=
07070,1996-08-02 00:00:00,15,1020.3,1,77,11,20000,7.408,,,350,,,,,,,,,,,wg-a,,,,AAXX 02004 07070 12/70 73504 10150 20110 30094 40203 52010 60006 8703/ 90000=
07070,1996-08-02 03:00:00,12,1021.1,0.7,88,10,20000,3.704,,,220,,,,,,,,,,,wg-a,,,,AAXX 02034 07070 12/70 72202 10120 20100 30101 40211 52007 60006 82032 90300=
07070,1996-08-02 06:00:00,13,1022.3,1.2,88,11,20000,3.704,,,280,10.9,22.6,,,,,,,,,wg-a,,,,AAXX 02064 07070 12/70 72802 10130 20110 30113 40223 53012 60006 81032 90600 333 10226 20109=
07070,1996-08-02 09:00:00,19,1022.7,0.6,68,13,25000,3.704,,,310,,,,,,,,,,,wg-a,,,,AAXX 02094 07070 12575 /3102 10190 20130 30119 40227 51006 60006 81102 90900=
07070,1996-08-02 12:00:00,22,1022.3,-0.2,46,10,500,11.112,,,280,,,,,,,,,,,wg-a,,,,AAXX 02124 07070 12600 62806 10220 20100 30117 40223 58002 60006 83202 91200=
07070,1996-08-02 15:00:00,23,1021.6,-0.7,44,10,500,11.112,,,350,,,,,,,,,,,wg-a,,,,AAXX 02154 07070 12700 53506 10230 20100 30110 40216 58007 60006 84202 91500=
07070,1996-08-02 18:00:00,22,1021.8,0.2,46,10,500,14.816,,,360,12.9,24.5,,,,,,,,,wg-a,,,,AAXX 02184 07070 12700 33608 10220 20100 30112 40218 53002 60006 83100 91800 333 10245 20129=
07070,1996-08-02 21:00:00,17,1023.6,1.5,63,10,20000,7.408,,,10,,,,,,,,,,,wg-a,,,,AAXX 02214 07070 12770 20104 10170 20100 30127 40236 52015 60006 82400 92100=
07070,1996-08-03 00:00:00,16,1024.4,0.8,72,11,12000,7.408,,,40,,,,,,,,,,,wg-a,,,,AAXX 03004 07070 12762 70404 10160 20110 30135 40244 50008 60006 875// 90000=
07070,1996-08-03 03:00:00,16,1024.7,0.3,77,12,9000,7.408,,,340,,,,,,,,,,,wg-a,,,,AAXX 03034 07070 12759 73404 10160 20120 30138 40247 52003 60006 875// 90300=
07070,1996-08-03 06:00:00,16,1025.7,1,72,11,10000,7.408,,,20,15.1,22.3,,,,,,,,,wg-a,,,,AAXX 03064 07070 12760 70204 10160 20110 30148 40257 53010 60006 875// 90600 333 10223 20151=
07070,1996-08-03 09:00:00,21,1025.7,0.2,49,10,10000,11.112,,,40,,,,,,,,,,,wg-a,,,,AAXX 03094 07070 12560 70406 10210 20100 30150 40257 51002 60006 878// 90900=
07070,1996-08-03 12:00:00,23,1025.4,-0.3,36,7,20000,7.408,,,40,,,,,,,,,,,wg-a,,,,AAXX 03124 07070 12770 70404 10230 20070 30147 40254 58003 60006 872// 91200=
07070,1996-08-03 15:00:00,24,1024.6,-0.7,31,6,20000,25.928,,,20,,,,,,,,,,,wg-a,,,,AAXX 03154 07070 12770 60214 10240 20060 30140 40246 57007 60006 86800 91500=
07070,1996-08-03 18:00:00,23,1024.6,-0.1,31,5,20000,18.52,,,30,15.7,24.6,,,,,,,,,wg-a,,,,AAXX 03184 07070 12770 30310 10230 20050 30139 40246 55001 60006 83430 91800 333 10246 20157=
07070,1996-08-03 21:00:00,17,1025.6,0.8,48,6,20000,14.816,,,30,,,,,,,,,,,wg-a,,,,AAXX 03214 07070 12770 30308 10170 20060 30147 40256 51008 60006 83500 92100=
07070,1996-08-04 00:00:00,12,1025.8,0,71,7,15000,7.408,,,60,,,,,,,,,,,wg-a,,,,AAXX 04004 07070 12865 10604 10120 20070 30147 40258 50000 60006 81500 90000=
07070,1996-08-04 03:00:00,7,1025,-0.9,93,6,15000,0,,,0,,,,,,,,,,,wg-a,,,,AAXX 04034 07070 12/65 10000 10070 20060 30138 40250 58009 60006 81030 90300=
07070,1996-08-04 06:00:00,10,1024.6,-0.3,87,8,20000,0,,,0,5.8,22.6,,,,,,,,,wg-a,,,,AAXX 04064 07070 12/70 20000 10100 20080 30135 40246 56003 60006 80002 90600 333 10226 20058=
07070,1996-08-04 09:00:00,21,1023.2,-1,49,10,35000,18.52,,,90,,,,,,,,,,,wg-a,,,,AAXX 04094 07070 12681 /0910 10210 20100 30125 40232 58010 60006 81100 90900=
07070,1996-08-04 12:00:00,24,1021.1,-2,34,7,35000,18.52,,,70,,,,,,,,,,,wg-a,,,,AAXX 04124 07070 12781 40710 10240 20070 30105 40211 58020 60006 84400 91200=
07070,1996-08-04 15:00:00,25,1018.9,-2.1,32,7,35000,18.52,,,60,,,,,,,,,,,wg-a,,,,AAXX 04154 07070 12781 20610 10250 20070 30084 40189 56021 60006 82400 91500=
07070,1996-08-04 18:00:00,24,1017.5,-1.4,36,8,35000,18.52,,,80,9.6,25.8,,,,,,,,,wg-a,,,,AAXX 04184 07070 12781 10810 10240 20080 30070 40175 56014 60006 81400 91800 333 10258 20096=
07070,1996-08-04 21:00:00,15,1017.7,-0.1,63,8,20000,14.816,,,100,,,,,,,,,,,wg-a,,,,AAXX 04214 07070 12/70 31008 10150 20080 30069 40177 57001 60006 80001 92100=
07070,1996-08-05 00:00:00,13,1017.2,-0.6,67,7,20000,18.52,,,100,,,,,,,,,,,wg-a,,,,AAXX 05004 07070 12/70 01010 10130 20070 30063 40172 58006 60006 80000 90000=
07070,1996-08-05 03:00:00,10,1016.9,-0.5,82,7,20000,7.408,,,320,,,,,,,,,,,wg-a,,,,AAXX 05034 07070 12/70 03204 10100 20070 30058 40169 57005 60006 80000 90300=
07070,1996-08-05 06:00:00,11,1015.9,-0.9,82,8,15000,3.704,,,330,8.8,23.8,,,,,,,,,wg-a,,,,AAXX 05064 07070 12/65 13302 10110 20080 30049 40159 56009 60006 80001 90600 333 10238 20088=
07070,1996-08-05 09:00:00,22,1014,-1.5,46,10,20000,25.928,,,100,,,,,,,,,,,wg-a,,,,AAXX 05094 07070 12/70 31014 10220 20100 30034 40140 58015 60006 80001 90900=
07070,1996-08-05 12:00:00,26,1011.7,-2.1,32,8,25000,18.52,,42.596,110,,,,,,,,,,,wg-a,,,,AAXX 05124 07070 12/75 41110 10260 20080 30013 40117 56021 60006 80002 91200 333 91023=
07070,1996-08-05 15:00:00,28,1010,-1.6,27,7,25000,14.816,,,160,,,,,,,,,,,wg-a,,,,AAXX 05154 07070 12775 31608 10280 20070 39997 40100 56016 60006 81132 91500=
07070,1996-08-05 18:00:00,26,1008.8,-1.3,37,10,25000,18.52,,,110,11.4,28.1,,,,,,,,,wg-a,,,,AAXX 05184 07070 12/75 71110 10260 20100 39984 40088 56013 60006 81032 91800 333 10281 20114=
07070,1996-08-05 21:00:00,21,1009.2,0.3,49,10,15000,18.52,,,100,,,,,,,,,,,wg-a,,,,AAXX 05214 07070 12/65 71010 10210 20100 39987 40092 50003 60006 82082 92100=
07070,1996-08-06 00:00:00,19,1009.3,0,73,14,12000,3.704,,,150,,,,,,,,,,,wg-a,,,,AAXX 06004 07070 12862 71502 10190 20140 39987 40093 50000 60006 8703/ 90000=
07070,1996-08-06 03:00:00,19,1009.9,0.6,73,14,12000,14.816,,,190,,,,,,,,,,21,wg-a,,,,AAXX 06034 07070 02762 81908 10190 20140 39993 40099 53006 61000 72162 8553/ 90300 333 ////=
07070,1996-08-06 06:00:00,17,1011,1,88,15,10000,11.112,,,190,16.7,25.5,,,,,,,,21,wg-a,,,,AAXX 06064 07070 02460 81906 10170 20150 30003 40110 51010 61000 72162 885// 90600 333 10255 20167 6100=
07070,1996-08-06 09:00:00,21,1011.1,0.3,78,17,10000,14.816,,,190,,,,,,,,,,,wg-a,,,,AAXX 06094 07070 12460 /1908 10210 20170 30006 40111 51003 60006 84877 90900=
07070,1996-08-06 12:00:00,25,1011.5,0.5,47,13,20000,18.52,,,220,,,,,,,,,,,wg-a,,,,AAXX 06124 07070 12670 72210 10250 20130 30011 40115 51005 60006 872// 91200=
07070,1996-08-06 15:00:00,25,1011.7,0.2,50,14,20000,18.52,,,210,,,,,,,,,,,wg-a,,,,AAXX 06154 07070 12670 82110 10250 20140 30013 40117 51002 60006 84237 91500=
07070,1996-08-06 18:00:00,22,1012.5,0.7,69,16,20000,29.632,,,270,17.2,25.5,,,,,,,,,wg-a,,,,AAXX 06184 07070 12670 72716 10220 20160 30020 40125 53007 60006 8427/ 91800 333 10255 20172=
07070,1996-08-06 21:00:00,17,1015,2.3,94,16,10000,0,,,0,,,,0,,,,,,1,wg-a,,,,AAXX 06214 07070 12660 70000 10170 20160 30043 40150 51023 60007 70182 874// 92100=
07070,1996-08-07 00:00:00,15,1016.7,1.6,94,14,4000,7.408,,,280,,,,0,,,,,,10,wg-a,,,,AAXX 07004 07070 02640 42804 10150 20140 30059 40167 53016 60016 71084 84500 90000 333 60007=
07070,1996-08-07 03:00:00,11,1017.6,0.7,87,9,15000,11.112,,,260,,,,,,,,,,,wg-a,,,,AAXX 07034 07070 12/65 12606 10110 20090 30066 40176 51007 60006 80001 90300=
07070,1996-08-07 06:00:00,11,1018.5,0.9,94,10,12000,3.704,,,210,8.8,22.1,,,,,1,,,,wg-a,,,,AAXX 07064 07070 12/62 32102 10110 20100 30075 40185 53009 60014 81031 90600 333 10221 20088=
07070,1996-08-07 09:00:00,17,1018.9,0.6,59,9,25000,18.52,,,260,,,,,,,,,,,wg-a,,,,AAXX 07094 07070 12575 22610 10170 20090 30081 40189 51006 60006 81101 90900=
07070,1996-08-07 12:00:00,22,1018.4,-0.3,38,7,35000,14.816,,,280,,,,,,,,,,,wg-a,,,,AAXX 07124 07070 12681 32808 10220 20070 30078 40184 57003 60006 81101 91200=
07070,1996-08-07 15:00:00,23,1017.6,-0.8,36,7,35000,11.112,,,300,,,,,,,,,,,wg-a,,,,AAXX 07154 07070 12781 23006 10230 20070 30070 40176 57008 60006 81101 91500=
07070,1996-08-07 18:00:00,21,1017.4,-0.2,49,10,25000,14.816,,,350,10.9,23.4,,,,,,,,,wg-a,,,,AAXX 07184 07070 12/75 13508 10210 20100 30068 40174 55002 60006 80001 91800 333 10234 20109=
07070,1996-08-07 21:00:00,12,1018.6,0.8,82,9,20000,3.704,,,70,,,,,,,,,,,wg-a,,,,AAXX 07214 07070 12/70 10702 10120 20090 30076 40186 53008 60006 80001 92100=
07070,1996-08-08 00:00:00,11,1018.5,0.1,82,8,15000,3.704,,,310,,,,,,,,,,,wg-a,,,,AAXX 08004 07070 12/65 13102 10110 20080 30075 40185 50001 60006 80001 90000=
07070,1996-08-08 03:00:00,8,1018,-0.7,93,7,12000,3.704,,,50,,,,,,,,,,,wg-a,,,,AAXX 08034 07070 12/62 00502 10080 20070 30068 40180 57007 60006 80000 90300=
07070,1996-08-08 06:00:00,10,1017.6,-0.3,87,8,500,0,,,0,6.2,20.6,,,,,,,,,wg-a,,,,AAXX 08064 07070 12/00 /0000 10100 20080 30065 40176 58003 60006 86040 90600 333 10206 20062=
07070,1996-08-08 09:00:00,19,1016.8,-0.4,64,12,10000,3.704,,,120,,,,,,,,,,,wg-a,,,,AAXX 08094 07070 12/60 71202 10190 20120 30061 40168 58004 60006 80001 90900=
07070,1996-08-08 12:00:00,25,1015.7,-0.9,28,5,20000,7.408,,,190,,,,,,,,,,,wg-a,,,,AAXX 08124 07070 12/70 61904 10250 20050 30052 40157 57009 60006 80001 91200=
07070,1996-08-08 15:00:00,26,1014.3,-1.3,26,5,25000,7.408,,,130,,,,,,,,,,,wg-a,,,,AAXX 08154 07070 12/75 71304 10260 20050 30039 40143 56013 60006 80001 91500=
07070,1996-08-08 18:00:00,25,1014,-0.4,28,5,20000,7.408,,,180,9.5,26.8,,,,,,,,,wg-a,,,,AAXX 08184 07070 12/70 71804 10250 20050 30035 40140 55004 60006 80002 91800 333 10268 20095=
07070,1996-08-08 21:00:00,16,1015.2,0.9,55,7,15000,0,,,0,,,,,,,,,,,wg-a,,,,AAXX 08214 07070 12/65 70000 10160 20070 30044 40152 52009 60006 81032 92100=
07070,1996-08-09 00:00:00,12,1015.2,-0.1,76,8,15000,0,,,0,,,,,,,,,,,wg-a,,,,AAXX 09004 07070 12/65 40000 10120 20080 30043 40152 58001 60006 80002 90000=
07070,1996-08-09 03:00:00,10,1014.5,-0.8,82,7,15000,0,,,0,,,,,,,,,,,wg-a,,,,AAXX 09034 07070 12/65 40000 10100 20070 30035 40145 57008 60006 81032 90300=
07070,1996-08-09 06:00:00,11,1014.9,0.4,82,8,10000,0,,,0,9.1,25.2,,,,,,,,,wg-a,,,,AAXX 09064 07070 12/60 80000 10110 20080 30039 40149 53004 60006 80007 90600 333 10252 20091=
07070,1996-08-09 12:00:00,28,1013.2,-0.8,25,6,20000,11.112,,,220,,,,,,,,,,,wg-a,,,,AAXX 09124 07070 12/70 62206 10280 20060 30029 40132 58008 60006 81082 91200=
07070,1996-08-09 18:00:00,28,1011,-0.9,37,12,25000,11.112,,,190,11.2,30,,,,,,,,,wg-a,,,,AAXX 09184 07070 12775 71906 10280 20120 30007 40110 56009 60006 8353/ 91800 333 10300 20112=
07070,1996-08-09 21:00:00,20,1011.3,-0,56,11,20000,7.408,,,180,,,,,,,,,,,wg-a,,,,AAXX 09214 07070 12/70 51804 10200 20110 30007 40113 55000 60006 82031 92100=
07070,1996-08-10 00:00:00,21,1010.1,-1.2,49,10,20000,14.816,,,170,,,,,,,,,,,wg-a,,,,AAXX 10004 07070 12/70 71708 10210 20100 39995 40101 58012 60006 85031 90000=
07070,1996-08-10 03:00:00,18,1009.4,-0.8,64,11,15000,14.816,,,180,,,,,,,,,,,wg-a,,,,AAXX 10034 07070 12/65 71808 10180 20110 39987 40094 58008 60006 83032 90300=
07070,1996-08-10 06:00:00,20,1010,0.7,64,13,20000,11.112,,,220,17,27.5,,,,,,,,,wg-a,,,,AAXX 10064 07070 12770 72206 10200 20130 39994 40100 53007 60006 8323/ 90600 333 10275 20170=
07070,1996-08-10 09:00:00,23,1009.5,-0.4,57,14,15000,11.112,,,210,,,,,,,,,,,wg-a,,,,AAXX 10094 07070 12565 72106 10230 20140 39990 40095 58004 60006 8487/ 90900=
07070,1996-08-10 12:00:00,21,1009.5,0,73,16,10000,14.816,,,240,,,,,,,,,,61,wg-a,,,,AAXX 10124 07070 02760 82408 10210 20160 39990 40095 50000 61000 76198 8457/ 91200 333 6100=
07070,1996-08-10 15:00:00,20,1008.6,-1,68,14,15000,11.112,,,210,,,,,,,,,,3,wg-a,,,,AAXX 10154 07070 02765 82106 10200 20140 39980 40086 58010 61000 70362 875// 91500 333 ////=
07070,1996-08-10 18:00:00,19,1007.8,-0.8,83,16,12000,11.112,,,160,18.9,23.6,,,,,,,,1,wg-a,,,,AAXX 10184 07070 32762 71606 10190 20160 39972 40078 58008 70162 8353/ 91800 333 10236 20189=
07070,1996-08-10 21:00:00,18,1007.9,0.1,83,15,10000,14.816,,,170,,,,,,,,,,,wg-a,,,,AAXX 10214 07070 12760 71708 10180 20150 39973 40079 53001 60006 875// 92100=
07070,1996-08-11 00:00:00,17,1006.8,-1.1,94,16,8000,14.816,,,210,,,,1,,,,,,25,wg-a,,,,AAXX 11004 07070 02458 72108 10170 20160 39962 40068 58011 60016 72582 878// 90000 333 60017=
07070,1996-08-11 03:00:00,16,1006.9,-0,88,14,25000,18.52,,,240,,,,,,,,,,,wg-a,,,,AAXX 11034 07070 12475 72410 10160 20140 39962 40069 55000 60006 878// 90300=
07070,1996-08-11 06:00:00,16,1007,0.1,88,14,25000,14.816,,,200,14.9,18.9,,,,,1,,,,wg-a,,,,AAXX 11064 07070 12475 72008 10160 20140 39963 40070 50001 60014 8588/ 90600 333 10189 20149=
07070,1996-08-11 09:00:00,18,1006.4,-0.5,83,15,20000,18.52,,,200,,,,,,,,,,61,wg-a,,,,AAXX 11094 07070 02470 82010 10180 20150 39958 40064 58005 61000 76162 872// 90900 333 ////=
07070,1996-08-11 12:00:00,21,1005.1,-1.2,69,15,500,25.928,,46.3,200,,,,,,,,,,1,wg-a,,,,AAXX 11124 07070 02500 72014 10210 20150 39946 40051 58012 61000 70162 85271 91200 333 6100 91025=
07070,1996-08-11 15:00:00,19,1005.1,-0.1,60,11,500,29.632,,,210,,,,,,,,,,,wg-a,,,,AAXX 11154 07070 12500 72116 10190 20110 39945 40051 55001 60006 8598/ 91500=
07070,1996-08-11 18:00:00,17,1005.3,0.2,72,12,500,11.112,,,160,15.9,22.3,,,,,,,,,wg-a,,,,AAXX 11184 07070 32500 51606 10170 20120 39947 40053 53002 84960 91800 333 10223 20159=
07070,1996-08-11 21:00:00,15,1006.3,0.9,94,14,20000,11.112,,,230,,,,3,,,,,,25,wg-a,,,,AAXX 11214 07070 12470 72306 10150 20140 39956 40063 50009 60037 72582 878// 92100=
07070,1996-08-12 00:00:00,12,1007.2,0.7,94,11,20000,3.704,,,140,,,,0,,,,,,1,wg-a,,,,AAXX 12004 07070 02/70 51402 10120 20110 39963 40072 53007 60036 70181 80002 90000 333 60007=
07070,1996-08-12 03:00:00,11,1007.3,0.1,94,10,20000,11.112,,,190,,,,,,,,,,,wg-a,,,,AAXX 12034 07070 12/70 31906 10110 20100 39964 40073 51001 60006 80002 90300=
07070,1996-08-12 06:00:00,13,1008.3,1.1,94,12,6000,11.112,,,170,10.3,17.3,,,,,3,,,,wg-a,,,,AAXX 12064 07070 12456 71706 10130 20120 39975 40083 53011 60034 875// 90600 333 10173 20103=
07070,1996-08-12 09:00:00,15,1008.7,0.5,94,14,4000,14.816,,,200,,,,0,,,,,,80,wg-a,,,,AAXX 12094 07070 12340 72008 10150 20140 39980 40087 51005 60007 78082 85230 90900=
07070,1996-08-12 12:00:00,17,1009.2,0.5,82,14,500,11.112,,,290,,,,1,,,,,,80,wg-a,,,,AAXX 12124 07070 02400 72906 10170 20140 39985 40092 52005 60016 78082 879// 91200 333 60017=
07070,1996-08-12 15:00:00,18,1009.3,0.2,83,15,20000,7.408,,,310,,,,3,,,,,,25,wg-a,,,,AAXX 12154 07070 12470 63104 10180 20150 39987 40093 51002 60037 72582 86900 91500=
07070,1996-08-12 18:00:00,18,1009.7,0.4,77,14,25000,7.408,,,330,12.5,18.9,,,,,,,,1,wg-a,,,,AAXX 12184 07070 32475 /3304 10180 20140 39991 40097 53004 70182 86900 91800 333 10189 20125=
07070,1996-08-12 21:00:00,16,1011.3,1.5,88,14,10000,11.112,,,260,,,,,,,,,,,wg-a,,,,AAXX 12214 07070 12760 72606 10160 20140 30006 40113 51015 60006 874// 92100=
07070,1996-08-13 00:00:00,14,1011.4,-0,94,13,8000,14.816,,,260,,,,,,,,,,,wg-a,,,,AAXX 13004 07070 12758 72608 10140 20130 30006 40114 55000 60006 875// 90000=
07070,1996-08-13 03:00:00,15,1010.6,-0.8,94,14,7000,14.816,,,260,,,,,,,,,,,wg-a,,,,AAXX 13034 07070 12257 82608 10150 20140 39998 40106 56008 60006 886// 90300=
07070,1996-08-13 06:00:00,15,1009.9,-0.7,94,14,4000,22.224,,,250,14,18.1,,3,,,7,,,10,wg-a,,,,AAXX 13064 07070 02240 82512 10150 20140 39991 40099 58007 60074 71062 887// 90600 333 10181 20140 60037=
07070,1996-08-13 09:00:00,15,1009.4,-0.4,100,15,500,29.632,,,270,,,,,,,,,,,wg-a,,,,AAXX 13094 07070 32/00 /2716 10150 20150 39987 40094 58004 90900=
07070,1996-08-13 12:00:00,15,1008.7,-0.7,94,14,3000,31.484,,50.004,270,,,,11,,,,,,10,wg-a,,,,AAXX 13124 07070 02330 82717 10150 20140 39980 40087 55007 60236 71065 887// 91200 333 60117 91027=
07070,1996-08-13 15:00:00,16,1009.4,0.7,94,15,4000,31.484,,,300,,,,5,,,,,,10,wg-a,,,,AAXX 13154 07070 12340 83017 10160 20150 39987 40094 53007 60057 71065 887// 91500=
07070,1996-08-13 18:00:00,16,1011.1,1.7,100,16,2000,25.928,,,300,14.7,16.5,,3,,,,,,10,wg-a,,,,AAXX 13184 07070 12220 83014 10160 20160 30004 40111 51017 60037 71065 887// 91800 333 10165 20147=
07070,1996-08-13 21:00:00,16,1013.2,2.1,100,16,3500,22.224,,,320,,,,5,,,,,,10,wg-a,,,,AAXX 13214 07070 12335 83212 10160 20160 30025 40132 51021 60057 71065 877// 92100=
07070,1996-08-14 00:00:00,16,1014.1,0.8,94,15,4000,18.52,,,310,,,,,,,,,,10,wg-a,,,,AAXX 14004 07070 02440 83110 10160 20150 30033 40141 51008 60056 71065 885// 90000 333 61000=
07070,1996-08-14 03:00:00,16,1014.5,0.4,94,15,4000,14.816,,,300,,,,,,,,,,10,wg-a,,,,AAXX 14034 07070 12440 83008 10160 20150 30037 40145 51004 60006 71022 885// 90300=
07070,1996-08-14 06:00:00,16,1015.3,0.8,94,15,2400,11.112,,,300,15.8,16.1,,,,,36,,,10,wg-a,,,,AAXX 14064 07070 02424 83006 10160 20150 30045 40153 53008 60364 71052 877// 90600 333 10161 20158 61000=
07070,1996-08-14 09:00:00,16,1016.6,1.3,100,16,2800,18.52,,,310,,,,,,,,,,10,wg-a,,,,AAXX 14094 07070 02228 83110 10160 20160 30058 40166 52013 61000 71055 877// 90900 333 ////=
07070,1996-08-14 12:00:00,20,1017.1,0.6,83,17,6000,14.816,,,310,,,,,,,,,,1,wg-a,,,,AAXX 14124 07070 02456 73108 10200 20170 30064 40171 53006 61000 70152 878// 91200 333 ////=
07070,1996-08-14 15:00:00,23,1016.1,-0.8,65,16,9000,14.816,,,330,,,,,,,,,,,wg-a,,,,AAXX 14154 07070 12659 73308 10230 20160 30056 40161 58008 60006 872// 91500=
07070,1996-08-14 18:00:00,22,1016.3,0.1,60,14,12000,18.52,,,340,15.8,23.4,,,,,,,,,wg-a,,,,AAXX 14184 07070 32/62 13410 10220 20140 30057 40163 53001 80001 91800 333 10234 20158=
07070,1996-08-14 21:00:00,17,1018.1,1.6,88,15,8000,11.112,,,350,,,,,,,,,,,wg-a,,,,AAXX 14214 07070 12/58 03506 10170 20150 30073 40181 51016 60006 80000 92100=
07070,1996-08-15 00:00:00,16,1018.5,0.4,94,15,500,14.816,,,340,,,,,,,,,,,wg-a,,,,AAXX 15004 07070 12500 83408 10160 20150 30077 40185 51004 60006 885// 90000=
07070,1996-08-15 03:00:00,16,1018.8,0.3,94,15,4000,11.112,,,350,,,,,,,,,,10,wg-a,,,,AAXX 15034 07070 12440 83506 10160 20150 30080 40188 52003 60006 71022 885// 90300=
07070,1996-08-15 06:00:00,16,1019.5,0.7,94,15,2000,11.112,,,340,15.8,21.6,,,,,,,,10,wg-a,,,,AAXX 15064 07070 02520 73406 10160 20150 30087 40195 53007 60006 71022 875// 90600 333 10216 20158 61000=
07070,1996-08-15 09:00:00,20,1020.3,0.9,73,15,6000,14.816,,,350,,,,,,,,,,,wg-a,,,,AAXX 15094 07070 12556 43508 10200 20150 30096 40203 51009 60006 84200 90900=
07070,1996-08-15 10:00:00,22,1019.6,0.1,57,13,12000,14.816,,,20,16.1,24.7,,,,,,,,,wg-a,,,,AAXX 15104 07070 12/62 /0208 10220 20130 30090 40196 53001 60006 80000 91000 333 10247 20161=
07070,1996-08-15 12:00:00,22,1020.4,0.2,60,14,9000,11.112,,,360,,,,,,,,,,,wg-a,,,,AAXX 15124 07070 12559 43606 10220 20140 30098 40204 50002 60006 84200 91200=
07070,1996-08-15 15:00:00,24,1019.4,-0.9,44,11,12000,14.816,,,350,,,,,,,,,,,wg-a,,,,AAXX 15154 07070 12762 33508 10240 20110 30089 40194 57009 60006 83200 91500=
07070,1996-08-15 18:00:00,22,1019.6,0.1,57,13,12000,14.816,,,20,16.1,24.7,,,,,,,,,wg-a,,,,AAXX 15184 07070 12/62 00208 10220 20130 30090 40196 53001 60006 80000 91800 333 10247 20161=
07070,1996-08-15 21:00:00,17,1021.2,1.4,88,15,6000,14.816,,,10,,,,,,,,,,,wg-a,,,,AAXX 15214 07070 12/56 00108 10170 20150 30104 40212 51014 60006 80000 92100=
07070,1996-08-16 00:00:00,13,1021.8,0.5,100,13,3000,3.704,,,20,,,,,,,,,,10,wg-a,,,,AAXX 16004 07070 12/30 30202 10130 20130 30109 40218 51005 60006 71000 80001 90000=
07070,1996-08-16 03:00:00,10,1022.1,0.1,100,10,800,0,,,0,,,,,,,,,,44,wg-a,,,,AAXX 16034 07070 12/08 00000 10100 20100 30110 40221 52001 60006 74440 80000 90300=
07070,1996-08-16 06:00:00,11,1022.3,0.3,100,11,100,3.704,,,160,9.9,22,,,,,,,,45,wg-a,,,,AAXX 16064 07070 12/01 91602 10110 20110 30113 40223 50003 60006 74541 89/// 90600 333 10220 20099=
07070,1996-08-16 09:00:00,15,1022.7,0.5,100,15,2500,3.704,,,300,,,,,,,,,,10,wg-a,,,,AAXX 16094 07070 12225 23002 10150 20150 30118 40227 51005 60006 71041 82100 90900=
07070,1996-08-16 12:00:00,23,1021.7,-0.7,57,14,10000,11.112,,,340,,,,,,,,,,3,wg-a,,,,AAXX 16124 07070 12660 23406 10230 20140 30111 40217 58007 60006 70341 81101 91200=
07070,1996-08-16 15:00:00,25,1020.6,-1,50,14,12000,11.112,,,360,,,,,,,,,,,wg-a,,,,AAXX 16154 07070 12662 33606 10250 20140 30101 40206 58010 60006 83200 91500=
07070,1996-08-16 21:00:00,17,1022,1.2,82,14,10000,11.112,,,10,,,,,,,,,,,wg-a,,,,AAXX 16214 07070 12/60 00106 10170 20140 30112 40220 51012 60006 80000 92100=
07070,1996-08-17 00:00:00,13,1022.3,0.1,94,12,8000,0,,,0,,,,,,,,,,,wg-a,,,,AAXX 17004 07070 12/58 00000 10130 20120 30113 40223 53001 60006 80000 90000=
07070,1996-08-17 06:00:00,11,1022.4,0.4,100,11,200,0,,,0,9.1,23.5,,,,,,,,44,wg-a,,,,AAXX 17064 07070 12/02 00000 10110 20110 30114 40224 53004 60006 74440 80000 90600 333 10235 20091=
07070,1996-08-17 09:00:00,20,1022.8,0.7,73,15,6000,7.408,,,30,,,,,,,,,,2,wg-a,,,,AAXX 17094 07070 12/56 00304 10200 20150 30121 40228 51007 60006 70240 80000 90900=
07070,1996-08-17 12:00:00,25,1021.6,-1,44,12,12000,14.816,,,40,,,,,,,,,,2,wg-a,,,,AAXX 17124 07070 12662 /0408 10250 20120 30111 40216 58010 60006 70240 81100 91200=
07070,1996-08-17 15:00:00,26,1020.8,-0.8,37,10,15000,14.816,,,30,,,,,,,,,,,wg-a,,,,AAXX 17154 07070 12765 20308 10260 20100 30103 40208 56008 60006 82400 91500=
07070,1996-08-17 18:00:00,25,1020.6,-0.2,47,13,20000,11.112,,,20,11.1,26.8,,,,,,,,,wg-a,,,,AAXX 17184 07070 12870 10206 10250 20130 30101 40206 55002 60006 81500 91800 333 10268 20111=
07070,1996-08-17 21:00:00,16,1021.6,0.6,82,13,10000,3.704,,,60,,,,,,,,,,,wg-a,,,,AAXX 17214 07070 12/60 00602 10160 20130 30107 40216 52006 60006 80000 92100=
07070,1996-08-18 00:00:00,13,1021.7,0.1,94,12,10000,0,,,0,,,,,,,,,,,wg-a,,,,AAXX 18004 07070 12/60 00000 10130 20120 30108 40217 50001 60006 80000 90000=
07070,1996-08-18 03:00:00,11,1021,-0.8,100,11,6000,0,,,0,,,,,,,,,,,wg-a,,,,AAXX 18034 07070 12/56 00000 10110 20110 30100 40210 58008 60006 80000 90300=
07070,1996-08-18 06:00:00,12,1021.2,0.2,94,11,3500,0,,,0,10.6,24.5,,,,,,,,10,wg-a,,,,AAXX 18064 07070 12/35 00000 10120 20110 30102 40212 53002 60006 71000 80000 90600 333 10245 20106=
07070,1996-08-18 09:00:00,22,1021,0.2,69,16,500,11.112,,,70,,,,,,,,,,,wg-a,,,,AAXX 18094 07070 12/00 00706 10220 20160 30104 40210 50002 60006 80000 90900=
07070,1996-08-18 12:00:00,27,1019.2,-1.6,37,11,12000,18.52,,,90,,,,,,,,,,,wg-a,,,,AAXX 18124 07070 12/62 00910 10270 20110 30088 40192 56016 60006 80000 91200=
07070,1996-08-18 15:00:00,28,1017.9,-1.3,37,12,20000,22.224,,,100,,,,,,,,,,,wg-a,,,,AAXX 18154 07070 12770 11012 10280 20120 30075 40179 58013 60006 81100 91500=
07070,1996-08-18 18:00:00,25,1017,-1,47,13,25000,11.112,,,80,11.9,28.6,,,,,,,,,wg-a,,,,AAXX 18184 07070 12775 10806 10250 20130 30065 40170 56010 60006 81500 91800 333 10286 20119=
07070,1996-08-19 00:00:00,15,1017.5,0.1,88,13,15000,11.112,,,90,,,,,,,,,,,wg-a,,,,AAXX 19004 07070 12/65 00906 10150 20130 30067 40175 50001 60006 80000 90000=
07070,1996-08-19 03:00:00,13,1016.6,-1,94,12,15000,3.704,,,10,,,,,,,,,,,wg-a,,,,AAXX 19034 07070 12/65 00102 10130 20120 30057 40166 56010 60006 80000 90300=
07070,1996-08-19 06:00:00,14,1016.1,-0.4,94,13,8000,7.408,,,70,12.5,25.1,,,,,,,,,wg-a,,,,AAXX 19064 07070 12/58 00704 10140 20130 30053 40161 56004 60006 80000 90600 333 10251 20125=
07070,1996-08-19 09:00:00,23,1015.5,-0.3,61,15,10000,11.112,,,120,,,,,,,,,,,wg-a,,,,AAXX 19094 07070 12/60 01206 10230 20150 30050 40155 58003 60006 80000 90900=
07070,1996-08-19 12:00:00,26,1014,-1.4,48,14,12000,14.816,,,120,,,,,,,,,,,wg-a,,,,AAXX 19124 07070 12662 /1208 10260 20140 30036 40140 56014 60006 81100 91200=
07070,1996-08-19 15:00:00,28,1012.7,-1.2,40,13,12000,14.816,,,160,,,,,,,,,,,wg-a,,,,AAXX 19154 07070 12/62 01608 10280 20130 30024 40127 57012 60006 80000 91500=
07070,1996-08-19 18:00:00,27,1011.9,-0.8,45,14,15000,3.704,,,150,14.5,28.5,,,,,,,,,wg-a,,,,AAXX 19184 07070 12/65 01502 10270 20140 30016 40119 55008 60006 80000 91800 333 10285 20145=
07070,1996-08-19 21:00:00,19,1012.4,0.2,78,15,10000,3.704,,,340,,,,,,,,,,,wg-a,,,,AAXX 19214 07070 12/60 03402 10190 20150 30018 40124 50002 60006 80000 92100=
07070,1996-08-20 00:00:00,17,1012,-0.5,82,14,10000,0,,,0,,,,,,,,,,,wg-a,,,,AAXX 20004 07070 12/60 00000 10170 20140 30013 40120 58005 60006 80000 90000=
07070,1996-08-20 03:00:00,14,1011.4,-0.7,94,13,10000,3.704,,,340,,,,,,,,,,,wg-a,,,,AAXX 20034 07070 12/60 03402 10140 20130 30006 40114 56007 60006 80000 90300=
07070,1996-08-20 06:00:00,14,1011.9,0.5,94,13,9000,0,,,0,13,26.8,,,,,,,,,wg-a,,,,AAXX 20064 07070 12/59 00000 10140 20130 30011 40119 53005 60006 80000 90600 333 10268 20130=
07070,1996-08-20 09:00:00,25,1011.4,0.1,57,16,10000,7.408,,,100,,,,,,,,,,,wg-a,,,,AAXX 20094 07070 12/60 31004 10250 20160 30010 40114 50001 60006 80001 90900=
07070,1996-08-20 12:00:00,28,1011.5,0.2,45,15,12000,14.816,,,230,,,,,,,,,,,wg-a,,,,AAXX 20124 07070 12662 52308 10280 20150 30012 40115 50002 60006 83102 91200=
07070,1996-08-20 15:00:00,23,1012.6,0.9,65,16,8000,29.632,,,230,,,,,,,,,,,wg-a,,,,AAXX 20154 07070 12658 72316 10230 20160 30021 40126 53009 60006 879// 91500=
07070,1996-08-20 18:00:00,20,1012.5,-0.2,88,18,8000,3.704,,,200,13.9,29,,1,,,,,,61,wg-a,,,,AAXX 20184 07070 12758 82002 10200 20180 30019 40125 55002 60017 76186 874// 91800 333 10290 20139=
07070,1996-08-20 21:00:00,19,1012.9,0.4,94,18,10000,14.816,,,160,,,,1,,,,,,1,wg-a,,,,AAXX 20214 07070 12760 71608 10190 20180 30023 40129 50004 60017 70162 865/2 92100=
07070,1996-08-21 00:00:00,18,1012.7,-0.2,100,18,10000,3.704,,,190,,,,3,,,,,,21,wg-a,,,,AAXX 21004 07070 02660 81902 10180 20180 30021 40127 55002 60036 72162 888// 90000 333 60037=
07070,1996-08-21 03:00:00,18,1011.7,-1,100,18,6000,11.112,,,170,,,,6,,,,,,51,wg-a,,,,AAXX 21034 07070 12456 81706 10180 20180 30011 40117 56010 60067 75165 885// 90300=
07070,1996-08-21 06:00:00,17,1012,0.2,100,17,1500,14.816,,,290,17.4,20.4,,1,,,12,,,10,wg-a,,,,AAXX 21064 07070 02215 82908 10170 20170 30013 40120 53002 60124 71065 885// 90600 333 10204 20174 60017=
07070,1996-08-21 09:00:00,19,1012.5,0.6,88,17,6000,14.816,,,280,,,,0,,,,,,1,wg-a,,,,AAXX 21094 07070 12456 72808 10190 20170 30019 40125 53006 60007 70165 8423/ 90900=
07070,1996-08-21 12:00:00,22,1012.5,0.1,73,17,10000,7.408,,,270,,,,,,,,,,1,wg-a,,,,AAXX 21124 07070 12560 72704 10220 20170 30020 40125 50001 60006 70165 85232 91200=
07070,1996-08-21 15:00:00,24,1011.3,-1.1,57,15,15000,11.112,,,350,,,,,,,,,,,wg-a,,,,AAXX 21154 07070 12665 73506 10240 20150 30009 40113 56011 60006 83202 91500=
07070,1996-08-21 18:00:00,22,1011.4,-0,69,16,15000,7.408,,,330,17.4,24.3,,,,,,,,,wg-a,,,,AAXX 21184 07070 32565 83304 10220 20160 30009 40114 55000 82932 91800 333 10243 20174=
07070,1996-08-21 21:00:00,20,1012.5,1,78,16,12000,14.816,,,360,,,,,,,,,,,wg-a,,,,AAXX 21214 07070 12662 73608 10200 20160 30019 40125 53010 60006 878// 92100=
07070,1996-08-22 00:00:00,18,1012.7,0.1,88,16,12000,11.112,,,300,,,,0,,,,,,61,wg-a,,,,AAXX 22004 07070 02662 83006 10180 20160 30020 40127 53001 60006 76162 888// 90000 333 60007=
07070,1996-08-22 03:00:00,17,1012.8,0.1,88,15,10000,11.112,,,320,,,,,,,,,,61,wg-a,,,,AAXX 22034 07070 02760 83206 10170 20150 30021 40128 51001 61000 76166 885// 90300 333 ////=
07070,1996-08-22 06:00:00,16,1013.9,1,82,13,12000,7.408,,,310,15.6,22.1,,,,,,,,61,wg-a,,,,AAXX 22064 07070 02562 83104 10160 20130 30031 40139 53010 60004 76162 885// 90600 333 10221 20156 61000=
07070,1996-08-22 09:00:00,15,1014.9,1,94,14,15000,18.52,,,320,,,,1,,,,,,61,wg-a,,,,AAXX 22094 07070 12565 83210 10150 20140 30041 40149 51010 60017 76166 8452/ 90900=
07070,1996-08-22 12:00:00,19,1014.5,-0.3,73,14,500,14.816,,,330,,,,,,,,,,1,wg-a,,,,AAXX 22124 07070 02700 73308 10190 20140 30038 40145 58003 60016 70162 8557/ 91200 333 61000=
07070,1996-08-22 15:00:00,20,1013.9,-0.5,64,13,500,14.816,,,310,,,,,,,,,,,wg-a,,,,AAXX 22154 07070 12700 73108 10200 20130 30033 40139 58005 60006 875// 91500=
07070,1996-08-22 18:00:00,19,1013.4,-0.5,68,13,500,7.408,,,260,14.7,20.6,,,,,,,,,wg-a,,,,AAXX 22184 07070 32700 52604 10190 20130 30028 40134 55005 85500 91800 333 10206 20147=
07070,1996-08-22 21:00:00,18,1014.5,1,77,14,25000,11.112,,,240,,,,,,,,,,,wg-a,,,,AAXX 22214 07070 12775 62406 10180 20140 30038 40145 52010 60006 86500 92100=
07070,1996-08-23 00:00:00,14,1013.5,-1.1,88,12,15000,7.408,,,180,,,,,,,,,,,wg-a,,,,AAXX 23004 07070 12765 11804 10140 20120 30027 40135 57011 60006 81500 90000=
07070,1996-08-23 03:00:00,14,1012,-1.5,94,13,10000,14.816,,,180,,,,,,,,,,,wg-a,,,,AAXX 23034 07070 12/60 01808 10140 20130 30012 40120 57015 60006 80000 90300=
07070,1996-08-23 06:00:00,15,1011.3,-0.7,88,13,6000,18.52,,,170,13.8,19.4,,,,,1,,,,wg-a,,,,AAXX 23064 07070 02756 21710 10150 20130 30005 40113 55007 60006 81502 90600 333 10194 20138 60014=
07070,1996-08-23 09:00:00,21,1010.2,-0.8,64,14,20000,18.52,,,160,,,,,,,,,,,wg-a,,,,AAXX 23094 07070 12770 31610 10210 20140 39997 40102 58008 60006 82530 90900=
07070,1996-08-23 12:00:00,21,1009.1,-1.1,69,15,20000,22.224,,,170,,,,,,,,,,21,wg-a,,,,AAXX 23124 07070 02570 71712 10210 20150 39986 40091 57011 61000 72162 8287/ 91200 333 6100=
07070,1996-08-23 15:00:00,25,1008,-1,54,15,20000,25.928,,46.3,200,,,,,,,,,,,wg-a,,,,AAXX 23154 07070 12670 42014 10250 20150 39976 40080 58010 60006 84201 91500 333 91025=
07070,1996-08-23 18:00:00,23,1008.9,0.8,47,11,35000,25.928,,,250,14.7,25.2,,,,,,,,,wg-a,,,,AAXX 23184 07070 32781 12514 10230 20110 39984 40089 53008 81400 91800 333 10252 20147=
07070,1996-08-23 21:00:00,16,1010.7,1.6,63,9,500,7.408,,,240,,,,,,,,,,,wg-a,,,,AAXX 23214 07070 12700 12404 10160 20090 30000 40107 51016 60006 81500 92100=
07070,1996-08-24 00:00:00,16,1011.3,0.6,72,11,500,14.816,,,230,,,,,,,,,,,wg-a,,,,AAXX 24004 07070 12/00 02308 10160 20110 30006 40113 51006 60006 80000 90000=
07070,1996-08-24 03:00:00,14,1011.2,-0.2,82,11,25000,14.816,,,210,,,,,,,,,,,wg-a,,,,AAXX 24034 07070 12/75 02108 10140 20110 30004 40112 58002 60006 80000 90300=
07070,1996-08-24 06:00:00,15,1011,-0.2,82,12,25000,14.816,,,170,13.2,22.7,,,,,,,,,wg-a,,,,AAXX 24064 07070 02575 21708 10150 20120 30002 40110 55002 60006 81532 90600 333 10227 20132 61000=
07070,1996-08-24 09:00:00,19,1010.9,0.1,68,13,20000,22.224,,,210,,,,,,,,,,,wg-a,,,,AAXX 24094 07070 12570 /2112 10190 20130 30003 40109 53001 60006 85231 90900=
07070,1996-08-24 12:00:00,16,1010.4,-0.6,88,14,10000,18.52,,,260,,,,2,,,,,,80,wg-a,,,,AAXX 24124 07070 02460 72610 10160 20140 39997 40104 55006 60026 78082 872// 91200 333 60027=
07070,1996-08-24 15:00:00,20,1009.1,-1.2,64,13,500,18.52,,,260,,,,0,,,,,,3,wg-a,,,,AAXX 24154 07070 12500 52610 10200 20130 39985 40091 56012 60007 70381 84201 91500=
07070,1996-08-24 18:00:00,19,1009.3,0.2,73,14,8000,14.816,,,210,14.6,21.6,,,,,,,,80,wg-a,,,,AAXX 24184 07070 02658 72108 10190 20140 39987 40093 53002 61000 78082 85801 91800 333 10216 20146 ////=
07070,1996-08-24 21:00:00,14,1010.8,1.3,94,13,15000,11.112,,,200,,,,8,,,,,,1,wg-a,,,,AAXX 24214 07070 12765 52006 10140 20130 30000 40108 52013 60087 70198 85200 92100=
07070,1996-08-25 00:00:00,15,1011.2,0.4,94,14,12000,11.112,,,220,,,,0,,,,,,3,wg-a,,,,AAXX 25004 07070 02762 72206 10150 20140 30004 40112 51004 60086 70398 874// 90000 333 60007=
07070,1996-08-25 03:00:00,14,1011.6,0.4,88,12,12000,11.112,,,220,,,,,,,,,,,wg-a,,,,AAXX 25034 07070 12762 32206 10140 20120 30008 40116 51004 60006 83400 90300=
07070,1996-08-25 06:00:00,13,1012.6,1,94,12,20000,11.112,,,220,12.2,19,,,,,10,,,,wg-a,,,,AAXX 25064 07070 12770 52206 10130 20120 30018 40126 51010 60104 85400 90600 333 10190 20122=
07070,1996-08-25 09:00:00,17,1013.8,1.3,77,13,20000,25.928,,,240,,,,,,,,,,,wg-a,,,,AAXX 25094 07070 12470 /2414 10170 20130 30031 40138 51013 60006 85200 90900=
07070,1996-08-25 12:00:00,20,1013.3,-0.4,60,12,500,25.928,,,230,,,,,,,,,,,wg-a,,,,AAXX 25124 07070 12600 52314 10200 20120 30027 40133 58004 60006 85800 91200=
07070,1996-08-25 15:00:00,21,1012.7,-0.6,53,11,35000,22.224,,,240,,,,,,,,,,,wg-a,,,,AAXX 25154 07070 12781 52412 10210 20110 30021 40127 58006 60006 84802 91500=
07070,1996-08-25 18:00:00,16,1013.2,0.3,88,14,15000,11.112,,,200,13.5,21.5,,1,,,,,,61,wg-a,,,,AAXX 25184 07070 12765 72006 10160 20140 30024 40132 53003 60017 76198 879// 91800 333 10215 20135=
07070,1996-08-25 21:00:00,14,1014,0.8,94,13,15000,11.112,,,210,,,,0,,,,,,1,wg-a,,,,AAXX 25214 07070 12765 52106 10140 20130 30032 40140 51008 60007 70182 83531 92100=
07070,1996-08-26 00:00:00,12,1014.3,0.2,100,12,20000,0,,,0,,,,,,,,,,1,wg-a,,,,AAXX 26004 07070 12/70 10000 10120 20120 30034 40143 53002 60006 70181 80001 90000=
07070,1996-08-26 03:00:00,10,1014,-0.4,100,10,15000,7.408,,,160,,,,,,,,,,,wg-a,,,,AAXX 26034 07070 12765 51604 10100 20100 30030 40140 57004 60006 85500 90300=
07070,1996-08-26 06:00:00,12,1014.2,0.3,94,11,500,0,,,0,9.5,15.7,,,,,1,,,,wg-a,,,,AAXX 26064 07070 12700 70000 10120 20110 30033 40142 53003 60014 8553/ 90600 333 10157 20095=
07070,1996-08-26 09:00:00,17,1015.3,1.3,77,13,20000,0,,,0,,,,,,,,,,,wg-a,,,,AAXX 26094 07070 12470 70000 10170 20130 30046 40153 51013 60006 878// 90900=
07070,1996-08-26 12:00:00,21,1014.9,-0.3,56,12,20000,14.816,,,270,,,,,,,,,,,wg-a,,,,AAXX 26124 07070 12570 /2708 10210 20120 30043 40149 58003 60006 85200 91200=
07070,1996-08-26 15:00:00,22,1014.1,-0.8,46,10,25000,11.112,,,260,,,,,,,,,,,wg-a,,,,AAXX 26154 07070 12775 32606 10220 20100 30035 40141 57008 60006 83200 91500=
07070,1996-08-26 18:00:00,20,1014.6,0.5,53,10,25000,3.704,,,330,11.7,22,,,,,,,,,wg-a,,,,AAXX 26184 07070 12775 33302 10200 20100 30040 40146 53005 60006 83400 91800 333 10220 20117=
07070,1996-08-26 21:00:00,16,1016,1.2,77,12,15000,3.704,,,220,,,,,,,,,,,wg-a,,,,AAXX 26214 07070 12765 72202 10160 20120 30052 40160 51012 60006 875// 92100=
07070,1996-08-27 00:00:00,12,1016,-0.2,94,11,12000,3.704,,,180,,,,,,,,,,,wg-a,,,,AAXX 27004 07070 12762 11802 10120 20110 30050 40160 58002 60006 81500 90000=
07070,1996-08-27 03:00:00,11,1015.9,-0.1,100,11,12000,3.704,,,130,,,,,,,,,,,wg-a,,,,AAXX 27034 07070 12762 51302 10110 20110 30049 40159 58001 60006 85500 90300=
07070,1996-08-27 06:00:00,11,1016.2,0.3,94,10,12000,3.704,,,70,9.2,20.2,,,,,,,,,wg-a,,,,AAXX 27064 07070 12762 30702 10110 20100 30052 40162 53003 60006 81201 90600 333 10202 20092=
07070,1996-08-27 09:00:00,19,1016.2,0.3,73,14,15000,3.704,,,60,,,,,,,,,,,wg-a,,,,AAXX 27094 07070 12765 20602 10190 20140 30055 40162 50003 60006 81401 90900=
07070,1996-08-27 12:00:00,21,1015,-1.1,49,10,25000,7.408,,,140,,,,,,,,,,,wg-a,,,,AAXX 27124 07070 12675 71404 10210 20100 30044 40150 57011 60006 8323/ 91200=
07070,1996-08-27 15:00:00,19,1014.8,-0.3,64,12,20000,14.816,,,330,,,,,,,,,,1,wg-a,,,,AAXX 27154 07070 12670 73308 10190 20120 30041 40148 55003 60006 70182 878// 91500=
07070,1996-08-27 21:00:00,14,1016.6,1,100,14,7000,11.112,,,250,,,,,,,,,,61,wg-a,,,,AAXX 27214 07070 02657 72506 10140 20140 30057 40166 51010 61000 76198 878// 92100 333 ////=
07070,1996-08-28 00:00:00,13,1016.3,-0.3,100,13,500,3.704,,,300,,,,,,,,,,21,wg-a,,,,AAXX 28004 07070 02200 83002 10130 20130 30054 40163 58003 61000 72198 885// 90000 333 6100=
07070,1996-08-28 03:00:00,13,1015.9,-0.4,94,12,500,7.408,,,270,,,,,,,,,,61,wg-a,,,,AAXX 28034 07070 02600 72704 10130 20120 30050 40159 57004 61000 76162 879// 90300 333 ////=
07070,1996-08-28 06:00:00,12,1016.4,0.5,100,12,4500,11.112,,,330,12.4,15.8,,,,,,,,10,wg-a,,,,AAXX 28064 07070 02345 73306 10120 20120 30055 40164 53005 61000 71062 875// 90600 333 10158 20124 6100=
07070,1996-08-28 09:00:00,12,1016.8,0.4,100,12,4500,7.408,,,240,,,,1,,,,,,10,wg-a,,,,AAXX 28094 07070 12345 82404 10120 20120 30059 40168 51004 60017 71066 885// 90900=
07070,1996-08-28 12:00:00,15,1016.2,-0.5,88,13,8000,11.112,,,270,,,,0,,,,,,1,wg-a,,,,AAXX 28124 07070 02458 72706 10150 20130 30054 40162 58005 60026 70162 875// 91200 333 60007=
07070,1996-08-28 15:00:00,16,1015.4,-0.8,82,13,15000,7.408,,,280,,,,,,,,,,61,wg-a,,,,AAXX 28154 07070 02565 72804 10160 20130 30046 40154 58008 61000 76162 8227/ 91500 333 ////=
07070,1996-08-28 18:00:00,13,1015.2,-0.3,88,11,12000,11.112,,,230,11.9,16.4,,0,,,,,,29,wg-a,,,,AAXX 28184 07070 12562 72306 10130 20110 30043 40152 58003 60007 72998 8497/ 91800 333 10164 20119=
07070,1996-08-28 21:00:00,12,1014.8,-0.4,94,11,6000,11.112,,,250,,,,,,,,,,,wg-a,,,,AAXX 28214 07070 12/56 /2506 10120 20110 30039 40148 57004 60006 81031 92100=
07070,1996-08-29 00:00:00,11,1013.8,-1,94,10,500,14.816,,,230,,,,,,,,,,,wg-a,,,,AAXX 29004 07070 12700 /2308 10110 20100 30029 40138 58010 60006 81501 90000=
07070,1996-08-29 03:00:00,12,1012.6,-1.2,94,11,3000,18.52,,,230,,,,,,,,,,10,wg-a,,,,AAXX 29034 07070 12/30 /2310 10120 20110 30017 40126 57012 60006 71011 80001 90300=
07070,1996-08-29 06:00:00,13,1011.8,-0.8,94,12,4500,22.224,,,250,10.9,13.2,,,,,2,,,10,wg-a,,,,AAXX 29064 07070 02445 72512 10130 20120 30009 40118 55008 60006 71011 875// 90600 333 10132 20109 60024=
07070,1996-08-29 09:00:00,14,1011.4,-0.3,88,12,8000,31.484,,50.004,250,,,,,,,,,,,wg-a,,,,AAXX 29094 07070 12458 72517 10140 20120 30006 40114 56003 60006 8687/ 90900 333 91027=
07070,1996-08-29 12:00:00,14,1012.1,0.7,88,12,7000,35.188,,,270,,,,1,,,,,,61,wg-a,,,,AAXX 29124 07070 02457 82719 10140 20120 30013 40121 53007 60016 76162 8487/ 91200 333 60017=
07070,1996-08-29 15:00:00,13,1013.3,1.1,94,12,6000,29.632,,,270,,,,2,,,,,,63,wg-a,,,,AAXX 29154 07070 12456 82716 10130 20120 30024 40133 52011 60027 76366 8427/ 91500=
07070,1996-08-29 18:00:00,13,1013.8,0.5,94,12,6000,25.928,,,260,12.7,14.3,,1,,,,,,61,wg-a,,,,AAXX 29184 07070 12456 82614 10130 20120 30029 40138 51005 60017 76166 8587/ 91800 333 10143 20127=
07070,1996-08-29 21:00:00,13,1014.8,1,94,12,6000,25.928,,,250,,,,2,,,,,,60,wg-a,,,,AAXX 29214 07070 12856 82514 10130 20120 30039 40148 51010 60027 76066 8807/ 92100=
07070,1996-08-30 00:00:00,13,1014.7,-0.1,100,13,500,22.224,,,250,,,,3,,,,,,61,wg-a,,,,AAXX 30004 07070 02400 82512 10130 20130 30038 40147 55001 60046 76166 8/77/ 90000 333 60037=
07070,1996-08-30 03:00:00,14,1015.1,0.4,88,12,8000,18.52,,,250,,,,0,,,,,,,wg-a,,,,AAXX 30034 07070 12458 82510 10140 20120 30042 40151 53004 60007 885// 90300=
07070,1996-08-30 06:00:00,13,1016.5,1.4,94,12,7000,22.224,,,270,12.8,13.6,,,,,9,,,21,wg-a,,,,AAXX 30064 07070 02557 82712 10130 20120 30056 40165 53014 60094 72162 8657/ 90600 333 10136 20128 61000=
07070,1996-08-30 09:00:00,14,1018.4,1.9,88,12,4000,22.224,,,300,,,,,,,,,,51,wg-a,,,,AAXX 30094 07070 02440 83012 10140 20120 30075 40184 51019 61000 75165 8677/ 90900 333 ////=
07070,1996-08-30 12:00:00,16,1019.2,0.9,82,13,10000,14.816,,,300,,,,0,,,,,,3,wg-a,,,,AAXX 30124 07070 02460 83008 10160 20130 30084 40192 51009 60006 70365 8627/ 91200 333 60007=
07070,1996-08-30 15:00:00,16,1020.3,1.1,77,12,12000,7.408,,,10,,,,,,,,,,,wg-a,,,,AAXX 30154 07070 12562 70104 10160 20120 30095 40203 53011 60006 8683/ 91500=
07070,1996-08-30 18:00:00,15,1021.9,1.5,88,13,10000,11.112,,,10,13.2,17,,,,,,,,,wg-a,,,,AAXX 30184 07070 32660 70106 10150 20130 30110 40219 53015 878// 91800 333 10170 20132=
07070,1996-08-30 21:00:00,11,1023.3,1.2,100,11,6000,3.704,,,220,,,,,,,,,,11,wg-a,,,,AAXX 30214 07070 12/56 /2202 10110 20110 30122 40233 51012 60006 71111 80001 92100=
07070,1996-08-31 00:00:00,10,1023.5,0.2,100,10,4500,11.112,,,230,,,,,,,,,,10,wg-a,,,,AAXX 31004 07070 12745 72306 10100 20100 30124 40235 52002 60006 71011 875// 90000=
07070,1996-08-31 03:00:00,11,1024.1,0.6,100,11,6000,7.408,,,230,,,,,,,,,,,wg-a,,,,AAXX 31034 07070 12/56 /2304 10110 20110 30130 40241 53006 60006 90300=
07070,1996-08-31 06:00:00,11,1025,0.9,100,11,4000,3.704,,,220,10,15,,,,,,,,10,wg-a,,,,AAXX 31064 07070 02740 72202 10110 20110 30139 40250 53009 60006 71022 875// 90600 333 10150 20100 60004=
07070,1996-08-31 09:00:00,16,1026,1.2,72,11,15000,14.816,,,20,,,,,,,,,,,wg-a,,,,AAXX 31094 07070 12565 70208 10160 20110 30151 40260 51012 60006 85202 90900=
07070,1996-08-31 12:00:00,18,1025.7,-0.2,59,10,20000,14.816,,,350,,,,,,,,,,,wg-a,,,,AAXX 31124 07070 12670 /3508 10180 20100 30149 40257 57002 60006 83202 91200=
07070,1996-08-31 15:00:00,17,1025.6,-0.2,63,10,15000,11.112,,,360,,,,,,,,,,,wg-a,,,,AAXX 31154 07070 12665 73606 10170 20100 30147 40256 57002 60006 8225/ 91500=
07070,1996-08-31 18:00:00,16,1025.8,0.2,68,10,15000,11.112,,,10,11.4,18.4,,,,,,,,,wg-a,,,,AAXX 31184 07070 12765 70106 10160 20100 30149 40258 53002 60006 8343/ 91800 333 10184 20114=
07070,1996-08-31 21:00:00,14,1027.5,1.6,77,10,15000,11.112,,,10,,,,,,,,,,,wg-a,,,,AAXX 31214 07070 12765 80106 10140 20100 30165 40275 51016 60006 875// 92100=
07070,1996-09-01 00:00:00,12,1027.5,-0.1,88,10,20000,7.408,,,350,,,,,,,,,,,wg-a,,,,AAXX 01004 07070 12770 43504 10120 20100 30164 40275 55001 60006 84500 90000=
07070,1996-09-01 03:00:00,8,1028,0.4,100,8,10000,3.704,,,330,,,,,,,,,,,wg-a,,,,AAXX 01034 07070 12/60 03302 10080 20080 30168 40280 53004 60006 80000 90300=
07070,1996-09-01 06:00:00,7,1028.7,0.6,100,7,3500,0,,,0,5.8,15.9,,,,,,,,10,wg-a,,,,AAXX 01064 07070 12/35 /0000 10070 20070 30174 40287 53006 60006 71000 80001 90600 333 10159 20058=
07070,1996-09-01 09:00:00,15,1028.7,0.3,72,10,16000,11.112,,,30,,,,,,,,,,,wg-a,,,,AAXX 01094 07070 12466 /0306 10150 20100 30177 40287 50003 60006 81100 90900=
07070,1996-09-01 12:00:00,17,1027.9,-0.7,59,9,25000,11.112,,,360,,,,,,,,,,,wg-a,,,,AAXX 01124 07070 12675 73606 10170 20090 30170 40279 58007 60006 86801 91200=
07070,1996-09-01 15:00:00,17,1027.2,-0.7,55,8,35000,14.816,,,10,,,,,,,,,,,wg-a,,,,AAXX 01154 07070 12681 70108 10170 20080 30163 40272 57007 60006 878// 91500=
07070,1996-09-01 18:00:00,16,1027.1,-0.1,68,10,25000,14.816,,,10,6.8,17.9,,,,,,,,,wg-a,,,,AAXX 01184 07070 12675 70108 10160 20100 30162 40271 55001 60006 878// 91800 333 10179 20068=
07070,1996-09-01 21:00:00,12,1027.9,0.6,82,9,12000,7.408,,,20,,,,,,,,,,,wg-a,,,,AAXX 01214 07070 12762 60204 10120 20090 30168 40279 51006 60006 825/2 92100=
07070,1996-09-02 00:00:00,9,1027.6,-0.4,93,8,12000,3.704,,,340,,,,,,,,,,,wg-a,,,,AAXX 02004 07070 12762 73402 10090 20080 30164 40276 58004 60006 815/2 90000=
07070,1996-09-02 03:00:00,9,1027.2,-0.4,93,8,12000,0,,,0,,,,,,,,,,,wg-a,,,,AAXX 02034 07070 12762 40000 10090 20080 30160 40272 58004 60006 825/2 90300=
07070,1996-09-02 06:00:00,8,1027,-0.2,100,8,6000,3.704,,,290,6.5,15.8,,,,,,,,11,wg-a,,,,AAXX 02064 07070 12756 12902 10080 20080 30158 40270 56002 60006 71100 81500 90600 333 10158 20065=
07070,1996-09-02 09:00:00,16,1026.6,-0.1,72,11,10000,14.816,,,50,,,,,,,,,,,wg-a,,,,AAXX 02094 07070 12560 /0508 10160 20110 30157 40266 56001 60006 81100 90900=
07070,1996-09-02 10:00:00,17,1023.5,-0.8,63,10,15000,18.52,,,50,7.8,20.1,,,,,,,,,wg-a,,,,AAXX 02104 07070 12/65 60510 10170 20100 30127 40235 56008 60006 80//0 91000 333 10201 20078=
07070,1996-09-02 12:00:00,19,1025.4,-1.1,60,11,15000,18.52,,,80,,,,,,,,,,,wg-a,,,,AAXX 02124 07070 12665 40810 10190 20110 30146 40254 58011 60006 84200 91200=
07070,1996-09-02 15:00:00,19,1024.3,-1.1,49,8,20000,18.52,,,50,,,,,,,,,,,wg-a,,,,AAXX 02154 07070 12770 20510 10190 20080 30135 40243 56011 60006 82200 91500=
07070,1996-09-02 18:00:00,17,1023.5,-0.8,63,10,15000,14.816,,,30,7.8,20.1,,,,,,,,,wg-a,,,,AAXX 02184 07070 12/65 60308 10170 20100 30127 40235 56008 60006 80001 91800 333 10201 20078=
07070,1996-09-02 21:00:00,10,1024.5,0.7,87,8,15000,3.704,,,80,,,,,,,,,,,wg-a,,,,AAXX 02214 07070 12/65 20802 10100 20080 30134 40245 51007 60006 80001 92100=
07070,1996-09-03 00:00:00,9,1023.8,-0.8,93,8,10000,7.408,,,350,,,,,,,,,,,wg-a,,,,AAXX 03004 07070 12/60 53504 10090 20080 30126 40238 58008 60006 80002 90000=
07070,1996-09-03 03:00:00,7,1022.8,-1,100,7,8000,7.408,,,340,,,,,,,,,,,wg-a,,,,AAXX 03034 07070 12/58 33404 10070 20070 30116 40228 56010 60006 81032 90300=
07070,1996-09-03 06:00:00,7,1022.1,-0.7,100,7,10000,3.704,,,350,6,17.1,,,,,,,,,wg-a,,,,AAXX 03064 07070 12/60 13502 10070 20070 30109 40221 56007 60006 81030 90600 333 10171 20060=
07070,1996-09-03 09:00:00,16,1021.5,-0.3,68,10,15000,22.224,,,50,,,,,,,,,,,wg-a,,,,AAXX 03094 07070 12765 30512 10160 20100 30106 40215 58003 60006 82502 90900=
07070,1996-09-03 12:00:00,20,1020,-1.3,56,11,20000,29.632,,,50,,,,,,,,,,,wg-a,,,,AAXX 03124 07070 12670 30516 10200 20110 30093 40200 58013 60006 83200 91200=
07070,1996-09-03 15:00:00,22,1018.6,-1.3,50,11,15000,29.632,,,50,,,,,,,,,,,wg-a,,,,AAXX 03154 07070 12765 10516 10220 20110 30080 40186 58013 60006 814/0 91500=
07070,1996-09-03 18:00:00,19,1018.9,0.2,64,12,20000,25.928,,,30,7.3,22.3,,,,,,,,,wg-a,,,,AAXX 03184 07070 12770 10314 10190 20120 30082 40189 53002 60006 81400 91800 333 10223 20073=
07070,1996-09-03 21:00:00,14,1020.2,1.1,82,11,15000,14.816,,,50,,,,,,,,,,,wg-a,,,,AAXX 03214 07070 12/65 00508 10140 20110 30093 40202 51011 60006 80000 92100=
07070,1996-09-04 00:00:00,12,1019.8,-0.5,88,10,15000,7.408,,,30,,,,,,,,,,,wg-a,,,,AAXX 04004 07070 12/65 00304 10120 20100 30088 40198 57005 60006 80000 90000=
07070,1996-09-04 03:00:00,10,1019.4,-0.5,93,9,15000,3.704,,,320,,,,,,,,,,,wg-a,,,,AAXX 04034 07070 12/65 03202 10100 20090 30083 40194 56005 60006 80000 90300=
07070,1996-09-04 06:00:00,10,1019.6,0.2,100,10,4500,11.112,,,350,9.3,19.1,,,,,,,,10,wg-a,,,,AAXX 04064 07070 12/45 03506 10100 20100 30085 40196 53002 60006 71000 80000 90600 333 10191 20093=
07070,1996-09-04 09:00:00,18,1019.3,0.1,73,13,10000,18.52,,,40,,,,,,,,,,,wg-a,,,,AAXX 04094 07070 12/60 00410 10180 20130 30086 40193 53001 60006 80000 90900=
07070,1996-09-04 12:00:00,23,1018,-1.1,57,14,12000,22.224,,,60,,,,,,,,,,,wg-a,,,,AAXX 04124 07070 12662 /0612 10230 20140 30075 40180 56011 60006 81100 91200=
07070,1996-09-04 15:00:00,24,1017.1,-0.9,50,13,15000,22.224,,,50,,,,,,,,,,,wg-a,,,,AAXX 04154 07070 12765 10512 10240 20130 30066 40171 57009 60006 81100 91500=
07070,1996-09-04 18:00:00,20,1017.3,0.1,64,13,15000,18.52,,,20,10.4,24.5,,,,,,,,,wg-a,,,,AAXX 04184 07070 12/65 20210 10200 20130 30067 40173 53001 60006 80001 91800 333 10245 20104=
07070,1996-09-04 21:00:00,14,1018.4,0.8,94,13,7000,11.112,,,10,,,,,,,,,,,wg-a,,,,AAXX 04214 07070 12/57 /0106 10140 20130 30075 40184 50008 60006 92100=
07070,1996-09-05 00:00:00,12,1018.7,0.2,94,11,7000,11.112,,,350,,,,,,,,,,,wg-a,,,,AAXX 05004 07070 12/57 03506 10120 20110 30077 40187 50002 60006 80000 90000=
07070,1996-09-05 03:00:00,11,1018.8,0.1,94,10,7000,14.816,,,350,,,,,,,,,,,wg-a,,,,AAXX 05034 07070 12/57 03508 10110 20100 30078 40188 53001 60006 80000 90300=
07070,1996-09-05 06:00:00,9,1018.6,-0.3,100,9,2000,11.112,,,340,8.8,20.4,,,,,,,,10,wg-a,,,,AAXX 05064 07070 12/20 03406 10090 20090 30075 40186 55003 60006 71000 80000 90600 333 10204 20088=
07070,1996-09-05 09:00:00,16,1018.5,0.2,72,11,6000,14.816,,,40,,,,,,,,,,,wg-a,,,,AAXX 05094 07070 12/56 00408 10160 20110 30077 40185 51002 60006 80000 90900=
07070,1996-09-05 12:00:00,19,1018,-0.4,68,13,9000,18.52,,,40,,,,,,,,,,,wg-a,,,,AAXX 05124 07070 12659 40410 10190 20130 30073 40180 58004 60006 84200 91200=
07070,1996-09-05 15:00:00,21,1017.1,-0.8,53,11,12000,22.224,,,80,,,,,,,,,,,wg-a,,,,AAXX 05154 07070 12662 20812 10210 20110 30065 40171 57008 60006 82400 91500=
07070,1996-09-05 18:00:00,18,1017,-0.2,64,11,12000,11.112,,,50,9.1,21.4,,,,,,,,,wg-a,,,,AAXX 05184 07070 12/62 00506 10180 20110 30063 40170 55002 60006 80000 91800 333 10214 20091=
07070,1996-09-05 21:00:00,12,1018.8,1.5,88,10,10000,11.112,,,30,,,,,,,,,,,wg-a,,,,AAXX 05214 07070 12/60 00306 10120 20100 30078 40188 51015 60006 80000 92100=
07070,1996-09-06 00:00:00,10,1019.6,0.7,87,8,10000,7.408,,,330,,,,,,,,,,,wg-a,,,,AAXX 06004 07070 12/60 03304 10100 20080 30085 40196 51007 60006 80000 90000=
07070,1996-09-06 03:00:00,7,1019.9,0.2,100,7,10000,3.704,,,310,,,,,,,,,,,wg-a,,,,AAXX 06034 07070 12/60 03102 10070 20070 30087 40199 52002 60006 80000 90300=
07070,1996-09-06 06:00:00,5,1020.7,0.7,100,5,6000,0,,,0,4.5,17.7,,,,,,,,11,wg-a,,,,AAXX 06064 07070 12/56 /0000 10050 20050 30094 40207 53007 60006 71140 80001 90600 333 10177 20045=
07070,1996-09-06 09:00:00,14,1020.9,0.6,77,10,9000,7.408,,,20,,,,,,,,,,,wg-a,,,,AAXX 06094 07070 12/59 /0204 10140 20100 30100 40209 51006 60006 80001 90900=
07070,1996-09-06 12:00:00,19,1019.9,-0.8,43,6,15000,11.112,,,20,,,,,,,,,,,wg-a,,,,AAXX 06124 07070 12765 10206 10190 20060 30092 40199 58008 60006 81101 91200=
07070,1996-09-06 15:00:00,20,1018.8,-1.1,37,5,15000,18.52,,,20,,,,,,,,,,,wg-a,,,,AAXX 06154 07070 12/65 00210 10200 20050 30081 40188 56011 60006 80000 91500=
07070,1996-09-06 18:00:00,17,1019.3,0.4,55,8,15000,14.816,,,30,4.9,20.4,,,,,,,,,wg-a,,,,AAXX 06184 07070 12/65 00308 10170 20080 30085 40193 53004 60006 80000 91800 333 10204 20049=
07070,1996-09-06 21:00:00,11,1020.7,1.1,82,8,10000,3.704,,,310,,,,,,,,,,,wg-a,,,,AAXX 06214 07070 12/60 03102 10110 20080 30096 40207 51011 60006 80000 92100=
07070,1996-09-07 00:00:00,9,1021.3,0.6,93,8,8000,3.704,,,340,,,,,,,,,,,wg-a,,,,AAXX 07004 07070 12/58 03402 10090 20080 30102 40213 52006 60006 80000 90000=
07070,1996-09-07 03:00:00,6,1022,0.5,100,6,3000,0,,,0,,,,,,,,,,10,wg-a,,,,AAXX 07034 07070 12/30 00000 10060 20060 30107 40220 52005 60006 71000 80000 90300=
07070,1996-09-07 06:00:00,4,1023.5,1.4,100,4,300,0,,,0,3.4,16.6,,,,,,,,41,wg-a,,,,AAXX 07064 07070 12/03 00000 10040 20040 30121 40235 53014 60006 74140 80000 90600 333 10166 20034=
07070,1996-09-07 09:00:00,15,1024.4,1.4,67,9,16000,14.816,,,100,,,,,,,,,,2,wg-a,,,,AAXX 07094 07070 12/66 01008 10150 20090 30135 40244 52014 60006 70240 80000 90900=
07070,1996-09-07 12:00:00,18,1024.2,-0.1,45,6,25000,18.52,,,90,,,,,,,,,,3,wg-a,,,,AAXX 07124 07070 12675 20910 10180 20060 30134 40242 58001 60006 70340 82400 91200=
07070,1996-09-07 15:00:00,19,1023.3,-0.9,37,4,25000,14.816,,,40,,,,,,,,,,,wg-a,,,,AAXX 07154 07070 12775 10408 10190 20040 30125 40233 56009 60006 81400 91500=
07070,1996-09-07 18:00:00,16,1023.6,0.2,51,6,25000,11.112,,,30,4.2,19,,,,,,,,,wg-a,,,,AAXX 07184 07070 12/75 00306 10160 20060 30127 40236 53002 60006 80000 91800 333 10190 20042=
07070,1996-09-07 21:00:00,9,1024.8,0.9,81,6,20000,3.704,,,50,,,,,,,,,,,wg-a,,,,AAXX 07214 07070 12/70 00502 10090 20060 30136 40248 51009 60006 80000 92100=
07070,1996-09-08 00:00:00,6,1025,0.1,87,4,20000,7.408,,,340,,,,,,,,,,,wg-a,,,,AAXX 08004 07070 12/70 03404 10060 20040 30137 40250 53001 60006 80000 90000=
07070,1996-09-08 03:00:00,4,1024.7,-0.4,93,3,20000,3.704,,,300,,,,,,,,,,,wg-a,,,,AAXX 08034 07070 12/70 03002 10040 20030 30133 40247 58004 60006 80000 90300=
07070,1996-09-08 06:00:00,3,1024.9,0.2,100,3,15000,0,,,0,2.2,15.6,,,,,,,,,wg-a,,,,AAXX 08064 07070 12/65 10000 10030 20030 30135 40249 53002 60006 80001 90600 333 10156 20022=
07070,1996-09-08 09:00:00,13,1024.5,-0,72,8,10000,7.408,,,60,,,,,,,,,,,wg-a,,,,AAXX 08094 07070 12/60 20604 10130 20080 30135 40245 55000 60006 80009 90900=
07070,1996-09-08 12:00:00,17,1023.2,-1.2,48,6,20000,25.928,,,80,,,,,,,,,,,wg-a,,,,AAXX 08124 07070 12770 30814 10170 20060 30123 40232 56012 60006 83400 91200=
07070,1996-09-08 15:00:00,16,1022.5,-0.7,51,6,20000,25.928,,,60,,,,,,,,,,,wg-a,,,,AAXX 08154 07070 12770 70614 10160 20060 30116 40225 55007 60006 86801 91500=
07070,1996-09-08 18:00:00,15,1022.4,-0.1,63,8,20000,14.816,,,30,2.8,18,,,,,,,,,wg-a,,,,AAXX 08184 07070 12770 70308 10150 20080 30115 40224 56001 60006 825/1 91800 333 10180 20028=
07070,1996-09-08 21:00:00,11,1022.8,0.2,82,8,15000,11.112,,,10,,,,,,,,,,,wg-a,,,,AAXX 08214 07070 12/65 70106 10110 20080 30117 40228 50002 60006 80002 92100=
07070,1996-09-09 00:00:00,7,1022.6,-0.3,87,5,12000,3.704,,,340,,,,,,,,,,,wg-a,,,,AAXX 09004 07070 12/62 43402 10070 20050 30114 40226 58003 60006 80001 90000=
07070,1996-09-09 03:00:00,5,1022.2,-0.5,100,5,8000,3.704,,,270,,,,,,,,,,,wg-a,,,,AAXX 09034 07070 12/58 22702 10050 20050 30109 40222 56005 60006 80001 90300=
07070,1996-09-09 06:00:00,7,1022.5,0.4,100,7,2500,7.408,,,310,4.2,14.4,,,,,,,,10,wg-a,,,,AAXX 09064 07070 12725 23104 10070 20070 30113 40225 53004 60006 71000 82500 90600 333 10144 20042=
07070,1996-09-09 09:00:00,15,1022.9,0.7,72,10,8000,11.112,,,30,,,,,,,,,,,wg-a,,,,AAXX 09094 07070 12558 /0306 10150 20100 30120 40229 51007 60006 81100 90900=
07070,1996-09-09 12:00:00,18,1022,-0.8,52,8,25000,18.52,,,40,,,,,,,,,,,wg-a,,,,AAXX 09124 07070 12675 40410 10180 20080 30112 40220 58008 60006 84200 91200=
07070,1996-09-09 15:00:00,18,1020.9,-1.1,52,8,25000,25.928,,,30,,,,,,,,,,,wg-a,,,,AAXX 09154 07070 12775 60314 10180 20080 30101 40209 56011 60006 86400 91500=
07070,1996-09-09 18:00:00,16,1021.1,-0.1,59,8,25000,14.816,,,50,6.9,19.9,,,,,,,,,wg-a,,,,AAXX 09184 07070 12775 10508 10160 20080 30102 40211 55001 60006 81501 91800 333 10199 20069=
07070,1996-09-09 21:00:00,10,1022.4,1.1,87,8,25000,7.408,,,340,,,,,,,,,,,wg-a,,,,AAXX 09214 07070 12/75 43404 10100 20080 30113 40224 51011 60006 80001 92100=
07070,1996-09-10 00:00:00,6,1022.4,-0.1,100,6,8000,3.704,,,260,,,,,,,,,,,wg-a,,,,AAXX 10004 07070 12/58 22602 10060 20060 30112 40224 58001 60006 80001 90000=
07070,1996-09-10 03:00:00,10,1021.8,-0.5,100,10,200,7.408,,,340,,,,,,,,,,45,wg-a,,,,AAXX 10034 07070 12/02 93404 10100 20100 30107 40218 56005 60006 74540 89/// 90300=
07070,1996-09-10 06:00:00,11,1021.3,-0.4,100,11,900,7.408,,,330,5.4,15.4,,0,,,,,,42,wg-a,,,,AAXX 10064 07070 02109 83304 10110 20110 30103 40213 55004 60004 74241 886// 90600 333 10154 20054 60007=
07070,1996-09-10 09:00:00,13,1021.8,0.5,100,13,3800,7.408,,,310,,,,,,,,,,10,wg-a,,,,AAXX 10094 07070 12438 83104 10130 20130 30108 40218 51005 60006 71042 875// 90900=
07070,1996-09-10 12:00:00,17,1020.3,-1.3,68,11,9000,7.408,,,270,,,,,,,,,,1,wg-a,,,,AAXX 10124 07070 12559 72704 10170 20110 30095 40203 58013 60006 70142 878// 91200=
07070,1996-09-10 15:00:00,16,1019.8,-0.6,72,11,10000,18.52,,,360,,,,,,,,,,,wg-a,,,,AAXX 10154 07070 12560 83610 10160 20110 30089 40198 56006 60006 888// 91500=
07070,1996-09-10 18:00:00,15,1019.4,-0.4,77,11,12000,7.408,,,300,10.8,17.6,,,,,,,,,wg-a,,,,AAXX 10184 07070 12562 73004 10150 20110 30085 40194 56004 60006 878// 91800 333 10176 20108=
07070,1996-09-10 21:00:00,13,1020,0.5,82,10,12000,11.112,,,330,,,,,,,,,,,wg-a,,,,AAXX 10214 07070 12762 73306 10130 20100 30090 40200 51005 60006 875// 92100=
07070,1996-09-11 00:00:00,12,1019.3,-0.7,88,10,12000,7.408,,,310,,,,,,,,,,,wg-a,,,,AAXX 11004 07070 12762 73104 10120 20100 30083 40193 58007 60006 875// 90000=
07070,1996-09-11 03:00:00,11,1018.3,-1,94,10,6000,7.408,,,330,,,,,,,,,,,wg-a,,,,AAXX 11034 07070 12456 73304 10110 20100 30073 40183 58010 60006 875// 90300=
07070,1996-09-11 06:00:00,11,1018.2,-0.1,100,11,2500,7.408,,,330,11.4,14.5,,,,,,,,10,wg-a,,,,AAXX 11064 07070 12525 73304 10110 20110 30072 40182 55001 60006 71022 875// 90600 333 10145 20114=
07070,1996-09-11 09:00:00,14,1018.2,0.1,72,9,11000,7.408,,,40,,,,,,,,,,,wg-a,,,,AAXX 11094 07070 32/61 /0404 10140 20090 30073 40182 51001 90900=
07070,1996-09-11 12:00:00,16,1016.8,-1.3,59,8,12000,11.112,,,10,,,,,,,,,,1,wg-a,,,,AAXX 11124 07070 02562 70106 10160 20080 30060 40168 58013 61000 70162 86801 91200 333 ////=
07070,1996-09-11 15:00:00,16,1015.3,-1.5,63,9,15000,14.816,,,350,,,,,,,,,,,wg-a,,,,AAXX 11154 07070 12665 73508 10160 20090 30045 40153 56015 60006 86802 91500=
07070,1996-09-11 18:00:00,15,1014.8,-0.5,63,8,12000,11.112,,,350,11.4,17.4,,,,,,,,,wg-a,,,,AAXX 11184 07070 32662 73506 10150 20080 30040 40148 56005 8243/ 91800 333 10174 20114=
07070,1996-09-12 00:00:00,10,1013.5,-1.2,93,9,10000,7.408,,,250,,,,,,,,,,,wg-a,,,,AAXX 12004 07070 12760 52504 10100 20090 30025 40135 58012 60006 85500 90000=
07070,1996-09-12 03:00:00,9,1011.9,-1.6,93,8,10000,7.408,,,270,,,,,,,,,,,wg-a,,,,AAXX 12034 07070 12/60 72704 10090 20080 30009 40119 56016 60006 8707/ 90300=
07070,1996-09-12 06:00:00,10,1010.1,-1.8,93,9,7000,11.112,,,260,9,14.5,,,,,,,,21,wg-a,,,,AAXX 12064 07070 02757 72606 10100 20090 39991 40101 56018 61000 72162 8357/ 90600 333 10145 20090 6100=
07070,1996-09-12 12:00:00,15,1007.6,-1.1,82,12,4000,25.928,,,280,,,,0,,,,,,10,wg-a,,,,AAXX 12124 07070 02440 82814 10150 20120 39969 40076 56011 60016 71086 882// 91200 333 60007=
07070,1996-09-12 15:00:00,17,1007,-0.6,55,8,16000,31.484,,,320,,,,2,,,,,,,wg-a,,,,AAXX 12154 07070 12566 /3217 10170 20080 39963 40070 58006 60027 81200 91500=
07070,1996-09-12 18:00:00,13,1008,0.9,72,8,25000,25.928,,,330,10.2,16.9,,,,,,,,15,wg-a,,,,AAXX 12184 07070 32575 /3314 10130 20080 39972 40080 52009 71581 86300 91800 333 10169 20102=
07070,1996-09-12 21:00:00,11,1009.3,1.2,82,8,15000,14.816,,,290,,,,,,,,,,,wg-a,,,,AAXX 12214 07070 12565 22908 10110 20080 39984 40093 50012 60006 82500 92100=
07070,1996-09-13 00:00:00,10,1009.8,0.4,87,8,15000,18.52,,,300,,,,,,,,,,,wg-a,,,,AAXX 13004 07070 12565 73010 10100 20080 39988 40098 51004 60006 875// 90000=
07070,1996-09-13 03:00:00,10,1010.4,0.6,87,8,15000,22.224,,,300,,,,,,,,,,80,wg-a,,,,AAXX 13034 07070 02565 73012 10100 20080 39994 40104 51006 61000 78082 878// 90300 333 ////=
07070,1996-09-13 06:00:00,9,1011,0.6,93,8,12000,22.224,,,310,9,13.1,,0,,,3,,,61,wg-a,,,,AAXX 13064 07070 02462 73112 10090 20080 30000 40110 53006 60034 76182 878// 90600 333 10131 20090 60007=
07070,1996-09-13 09:00:00,12,1011.8,0.9,76,8,15000,29.632,,,310,,,,0,,,,,,,wg-a,,,,AAXX 13094 07070 12465 33116 10120 20080 30009 40118 53009 60007 82830 90900=
07070,1996-09-13 12:00:00,12,1013.2,1.4,76,8,6000,25.928,,,320,,,,1,,,,,,80,wg-a,,,,AAXX 13124 07070 02556 73214 10120 20080 30023 40132 53014 60016 78082 872// 91200 333 60017=
07070,1996-09-13 15:00:00,13,1013.7,0.5,88,11,15000,14.816,,,320,,,,2,,,,,,80,wg-a,,,,AAXX 13154 07070 12565 73208 10130 20110 30028 40137 53005 60027 78082 878// 91500=
07070,1996-09-13 18:00:00,12,1015.3,1.6,82,9,25000,22.224,,,330,8.9,14.3,,3,,,,,,1,wg-a,,,,AAXX 13184 07070 12575 /3312 10120 20090 30044 40153 52016 60037 70182 86800 91800 333 10143 20089=
07070,1996-09-13 21:00:00,10,1017.3,1.9,93,9,20000,14.816,,,300,,,,,,,,,,,wg-a,,,,AAXX 13214 07070 12570 33008 10100 20090 30063 40173 51019 60006 83800 92100=
07070,1996-09-14 00:00:00,11,1018.4,1.1,87,9,15000,18.52,,,310,,,,,,,,,,,wg-a,,,,AAXX 14004 07070 12765 73110 10110 20090 30074 40184 51011 60006 875// 90000=
07070,1996-09-14 06:00:00,10,1020.6,1.2,100,10,12000,7.408,,,280,9.6,12.3,,,,,6,,,,wg-a,,,,AAXX 14064 07070 02462 72804 10100 20100 30095 40206 53012 60006 875// 90600 333 10123 20096 60064=
07070,1996-09-14 09:00:00,13,1022.2,1.7,88,11,12000,14.816,,,310,,,,,,,,,,,wg-a,,,,AAXX 14094 07070 12462 73108 10130 20110 30112 40222 53017 60006 878// 90900=
07070,1996-09-14 12:00:00,15,1022.3,0.2,77,11,15000,14.816,,,310,,,,,,,,,,,wg-a,,,,AAXX 14124 07070 12465 73108 10150 20110 30114 40223 51002 60006 878// 91200=
07070,1996-09-14 15:00:00,16,1022.1,-0.2,72,11,20000,14.816,,,320,,,,,,,,,,,wg-a,,,,AAXX 14154 07070 12570 73208 10160 20110 30112 40221 58002 60006 86801 91500=
07070,1996-09-14 18:00:00,14,1022.3,0.2,77,10,20000,11.112,,,330,10.4,16.5,,,,,,,,,wg-a,,,,AAXX 14184 07070 12670 43306 10140 20100 30114 40223 53002 60006 81801 91800 333 10165 20104=
07070,1996-09-14 21:00:00,11,1023.7,1.2,94,10,15000,11.112,,,350,,,,,,,,,,,wg-a,,,,AAXX 14214 07070 12665 /3506 10110 20100 30126 40237 51012 60006 86500 92100=
07070,1996-09-15 00:00:00,8,1024.2,0.4,100,8,12000,7.408,,,310,,,,,,,,,,,wg-a,,,,AAXX 15004 07070 12762 13104 10080 20080 30130 40242 52004 60006 81500 90000=
07070,1996-09-15 03:00:00,8,1023.9,-0.3,100,8,12000,3.704,,,300,,,,,,,,,,,wg-a,,,,AAXX 15034 07070 12762 13002 10080 20080 30127 40239 55003 60006 81500 90300=
07070,1996-09-15 06:00:00,7,1024.1,0.2,100,7,4500,7.408,,,210,5.3,14.1,,,,,,,,10,wg-a,,,,AAXX 15064 07070 12345 72104 10070 20070 30129 40241 53002 60006 71041 875// 90600 333 10141 20053=
07070,1996-09-15 09:00:00,13,1024.7,0.8,94,12,500,3.704,,,20,,,,,,,,,,,wg-a,,,,AAXX 15094 07070 12300 70202 10130 20120 30137 40247 53008 60006 878// 90900=
07070,1996-09-15 12:00:00,15,1024.6,-0,77,11,10000,14.816,,,350,,,,,,,,,,1,wg-a,,,,AAXX 15124 07070 12560 73508 10150 20110 30137 40246 54000 60006 70182 878// 91200=
07070,1996-09-15 15:00:00,16,1023.8,-0.8,68,10,11000,18.52,,,30,,,,,,,,,,,wg-a,,,,AAXX 15154 07070 12/61 /0310 10160 20100 30129 40238 56008 60006 91500=
07070,1996-09-15 18:00:00,14,1023.8,-0.1,77,10,12000,7.408,,,340,6.8,17,,,,,,,,,wg-a,,,,AAXX 15184 07070 12662 23404 10140 20100 30128 40238 56001 60006 82801 91800 333 10170 20068=
07070,1996-09-15 21:00:00,8,1024.9,0.9,93,7,12000,0,,,0,,,,,,,,,,,wg-a,,,,AAXX 15214 07070 12/62 00000 10080 20070 30137 40249 51009 60006 80000 92100=
07070,1996-09-16 00:00:00,5,1025,0,100,5,10000,0,,,0,,,,,,,,,,,wg-a,,,,AAXX 16004 07070 12/60 00000 10050 20050 30137 40250 50000 60006 80000 90000=
07070,1996-09-16 03:00:00,3,1024.6,-0.5,93,2,500,0,,,0,,,,,,,,,,44,wg-a,,,,AAXX 16034 07070 12/05 00000 10030 20020 30132 40246 58005 60006 74440 80000 90300=
07070,1996-09-16 06:00:00,2,1024.6,-0.1,100,2,200,0,,,0,1.5,13.5,,0,,,,,,44,wg-a,,,,AAXX 16064 07070 02/02 20000 10020 20020 30131 40246 55001 60004 74440 80001 90600 333 10135 20015 60007=
07070,1996-09-16 09:00:00,11,1024.3,0.1,94,10,7000,11.112,,,90,,,,,,,,,,1,wg-a,,,,AAXX 16094 07070 12357 /0906 10110 20100 30132 40243 52001 60006 70140 81101 90900=
07070,1996-09-16 12:00:00,17,1022.3,-1.7,59,9,20000,22.224,,,90,,,,,,,,,,3,wg-a,,,,AAXX 16124 07070 12570 30912 10170 20090 30115 40223 56017 60006 70340 83100 91200=
07070,1996-09-16 15:00:00,18,1020.5,-1.8,49,7,20000,22.224,,,100,,,,,,,,,,,wg-a,,,,AAXX 16154 07070 12770 11012 10180 20070 30097 40205 56018 60006 81100 91500=
07070,1996-09-16 18:00:00,12,1019.7,-1,71,7,20000,11.112,,,70,2.2,18.1,,,,,,,,,wg-a,,,,AAXX 16184 07070 12/70 00706 10120 20070 30087 40197 56010 60006 80000 91800 333 10181 20022=
07070,1996-09-16 21:00:00,7,1019.5,-0.4,87,5,12000,11.112,,,100,,,,,,,,,,,wg-a,,,,AAXX 16214 07070 12/62 01006 10070 20050 30083 40195 58004 60006 80000 92100=
07070,1996-09-17 00:00:00,5,1019,-0.6,87,3,12000,3.704,,,50,,,,,,,,,,,wg-a,,,,AAXX 17004 07070 12/62 00502 10050 20030 30077 40190 57006 60006 80000 90000=
07070,1996-09-17 03:00:00,5,1018.2,-0.8,87,3,15000,7.408,,,80,,,,,,,,,,,wg-a,,,,AAXX 17034 07070 12/65 00804 10050 20030 30069 40182 58008 60006 80000 90300=
07070,1996-09-17 06:00:00,4,1017.1,-1.1,93,3,10000,7.408,,,50,2.9,12.3,,,,,,,,,wg-a,,,,AAXX 17064 07070 12/60 10504 10040 20030 30058 40171 56011 60006 80001 90600 333 10123 20029=
07070,1996-09-17 09:00:00,13,1016.4,-0.3,67,7,15000,29.632,,,80,,,,,,,,,,,wg-a,,,,AAXX 17094 07070 12/65 10816 10130 20070 30055 40164 58003 60006 80001 90900=
07070,1996-09-17 12:00:00,18,1015,-1.2,42,5,25000,31.484,,,100,,,,,,,,,,,wg-a,,,,AAXX 17124 07070 12/75 11017 10180 20050 30043 40150 56012 60006 80001 91200=
07070,1996-09-17 15:00:00,18,1013.6,-1.4,45,6,25000,29.632,,,90,,,,,,,,,,,wg-a,,,,AAXX 17154 07070 12/75 00916 10180 20060 30029 40136 57014 60006 80000 91500=
07070,1996-09-17 18:00:00,12,1014,0.2,62,5,25000,14.816,,,100,3.5,18.4,,,,,,,,,wg-a,,,,AAXX 17184 07070 12/75 01008 10120 20050 30031 40140 53002 60006 80000 91800 333 10184 20035=
07070,1996-09-18 00:00:00,4,1014.5,-0.7,87,2,15000,11.112,,,70,,,,,,,,,,,wg-a,,,,AAXX 18004 07070 12/65 00706 10040 20020 30032 40145 58007 60006 80000 90000=
07070,1996-09-18 03:00:00,3,1013.4,-1.1,93,2,15000,18.52,,,60,,,,,,,,,,,wg-a,,,,AAXX 18034 07070 12/65 00610 10030 20020 30021 40134 58011 60006 80000 90300=
07070,1996-09-18 06:00:00,5,1012.8,-0.5,93,4,8000,14.816,,,70,2.5,11.9,,,,,,,,,wg-a,,,,AAXX 18064 07070 12/58 00708 10050 20040 30016 40128 56005 60006 80000 90600 333 10119 20025=
07070,1996-09-18 09:00:00,12,1011.7,-0.8,67,6,12000,35.188,,,80,,,,,,,,,,,wg-a,,,,AAXX 18094 07070 12/62 00819 10120 20060 30008 40117 58008 60006 80000 90900=
07070,1996-09-18 12:00:00,16,1010,-1.5,48,5,15000,35.188,,,90,,,,,,,,,,,wg-a,,,,AAXX 18124 07070 12665 /0919 10160 20050 39993 40100 58015 60006 81100 91200=
07070,1996-09-18 15:00:00,15,1008.8,-1.3,51,5,16000,35.188,,,80,,,,,,,,,,,wg-a,,,,AAXX 18154 07070 12766 70819 10150 20050 39980 40088 56013 60006 874// 91500=
07070,1996-09-18 18:00:00,12,1008.9,-0,67,6,16000,22.224,,,70,4.8,16.9,,,,,,,,,wg-a,,,,AAXX 18184 07070 12766 70712 10120 20060 39980 40089 55000 60006 8553/ 91800 333 10169 20048=
07070,1996-09-18 20:00:00,12,1008.9,0.3,67,6,10000,22.224,,,70,4.8,16.9,,,,,,,,0,wg-a,,,,AAXX 18204 07070 32660 70712 10120 20060 39980 40089 52003 700// 8553/ 92000 333 10169 20048=
07070,1996-09-18 21:00:00,11,1008.6,-0.3,66,5,12000,22.224,,,70,,,,,,,,,,,wg-a,,,,AAXX 18214 07070 12762 50712 10110 20050 39977 40086 58003 60006 85500 92100=
07070,1996-09-19 00:00:00,8,1007.5,-1.2,81,5,15000,18.52,,,60,,,,,,,,,,,wg-a,,,,AAXX 19004 07070 12765 10610 10080 20050 39965 40075 58012 60006 81501 90000=
07070,1996-09-19 03:00:00,10,1006.4,-1,76,6,12000,22.224,,,80,,,,,,,,,,,wg-a,,,,AAXX 19034 07070 12662 70812 10100 20060 39955 40064 58010 60006 8557/ 90300=
07070,1996-09-19 06:00:00,9,1005.7,-0.7,93,8,4500,22.224,,,80,7.3,11.9,,,,,,,,60,wg-a,,,,AAXX 19064 07070 02545 80812 10090 20080 39948 40057 55007 61000 76061 8552/ 90600 333 10119 20073 6100=
07070,1996-09-19 09:00:00,10,1005.3,-0.4,93,9,2000,22.224,,,90,,,,2,,,,,,61,wg-a,,,,AAXX 19094 07070 12520 80912 10100 20090 39944 40053 57004 60027 76166 8352/ 90900=
07070,1996-09-19 12:00:00,17,1004.7,-0.3,77,13,10000,22.224,,,110,,,,0,,,,,,3,wg-a,,,,AAXX 19124 07070 02560 71112 10170 20130 39941 40047 56003 60026 70362 8117/ 91200 333 60007=
07070,1996-09-19 15:00:00,18,1003.8,-0.9,68,12,10000,25.928,,,90,,,,,,,,,,,wg-a,,,,AAXX 19154 07070 12/60 70914 10180 20120 39932 40038 56009 60006 8703/ 91500=
07070,1996-09-19 18:00:00,15,1003.8,-0,77,11,10000,11.112,,,110,9,19.3,,,,,,,,,wg-a,,,,AAXX 19184 07070 32/60 71106 10150 20110 39931 40038 55000 85072 91800 333 10193 20090=
07070,1996-09-19 21:00:00,14,1004.8,0.9,77,10,10000,3.704,,,90,,,,,,,,,,,wg-a,,,,AAXX 19214 07070 12760 70902 10140 20100 39940 40048 51009 60006 81572 92100=
07070,1996-09-20 00:00:00,11,1004.7,-0.2,94,10,10000,11.112,,,100,,,,,,,,,,,wg-a,,,,AAXX 20004 07070 12760 71006 10110 20100 39938 40047 58002 60006 82572 90000=
07070,1996-09-20 03:00:00,12,1004.3,-0.3,94,11,7000,3.704,,,190,,,,1,,,,,,61,wg-a,,,,AAXX 20034 07070 12457 81902 10120 20110 39935 40043 58003 60017 76162 878// 90300=
07070,1996-09-20 06:00:00,10,1005.1,0.7,100,10,4500,11.112,,,240,10.2,15.1,,5,,,8,,,10,wg-a,,,,AAXX 20064 07070 02345 82406 10100 20100 39942 40051 53007 60084 71062 8582/ 90600 333 10151 20102 60057=
07070,1996-09-20 09:00:00,12,1005.8,0.7,82,9,10000,3.704,,,220,,,,1,,,,,,1,wg-a,,,,AAXX 20094 07070 12460 72202 10120 20090 39949 40058 51007 60017 70162 8127/ 90900=
07070,1996-09-20 12:00:00,14,1005.5,-0.2,77,10,10000,11.112,,,170,,,,,,,,,,1,wg-a,,,,AAXX 20124 07070 12560 81706 10140 20100 39947 40055 57002 60016 70162 8327/ 91200=
07070,1996-09-20 15:00:00,15,1005,-0.4,72,10,10000,11.112,,,130,,,,,,,,,,,wg-a,,,,AAXX 20154 07070 12560 71306 10150 20100 39943 40050 58004 60006 84232 91500=
07070,1996-09-20 18:00:00,11,1005.5,0.3,87,9,10000,7.408,,,130,10,15.2,,,,,,,,,wg-a,,,,AAXX 20184 07070 32560 /1304 10110 20090 39946 40055 53003 83802 91800 333 10152 20100=
07070,1996-09-20 21:00:00,11,1005.9,0.4,94,10,7000,11.112,,,100,,,,,,,,,,,wg-a,,,,AAXX 20214 07070 12557 71006 10110 20100 39950 40059 51004 60006 875// 92100=
07070,1996-09-21 00:00:00,9,1005.3,-0.7,93,8,500,7.408,,,110,,,,,,,,,,,wg-a,,,,AAXX 21004 07070 12/00 01104 10090 20080 39943 40053 56007 60006 80000 90000=
07070,1996-09-21 03:00:00,7,1004.6,-0.7,100,7,100,7.408,,,40,,,,,,,,,,45,wg-a,,,,AAXX 21034 07070 12/01 90404 10070 20070 39936 40046 58007 60006 74541 89/// 90300=
07070,1996-09-21 06:00:00,7,1004.6,-0,100,7,500,0,,,0,5.9,11.1,,0,,,1,,,45,wg-a,,,,AAXX 21064 07070 02/00 90000 10070 20070 39936 40046 55000 60014 74540 89/// 90600 333 10111 20059 60007=
07070,1996-09-21 09:00:00,10,1005,0.5,100,10,2500,0,,,0,,,,,,,,,,10,wg-a,,,,AAXX 21094 07070 12225 70000 10100 20100 39941 40050 52005 60006 71042 876// 90900=
07070,1996-09-21 12:00:00,13,1004.8,-0.1,82,10,7000,7.408,,,30,,,,,,,,,,1,wg-a,,,,AAXX 21124 07070 12457 70304 10130 20100 39940 40048 58001 60006 70142 87800 91200=
07070,1996-09-21 15:00:00,13,1004.8,-0,88,11,7000,11.112,,,20,,,,,,,,,,,wg-a,,,,AAXX 21154 07070 12457 80206 10130 20110 39940 40048 54000 60006 888// 91500=
07070,1996-09-21 18:00:00,12,1005.1,0.3,94,11,3000,7.408,,,350,6.6,13.4,,,,,,,,10,wg-a,,,,AAXX 21184 07070 12730 73504 10120 20110 39943 40051 53003 60006 71022 875// 91800 333 10134 20066=
07070,1996-09-21 21:00:00,11,1005.9,0.7,94,10,3000,11.112,,,10,,,,,,,,,,10,wg-a,,,,AAXX 21214 07070 12530 70106 10110 20100 39950 40059 51007 60006 71022 875// 92100=
07070,1996-09-22 00:00:00,9,1006.2,0.3,93,8,3000,18.52,,,30,,,,,,,,,,10,wg-a,,,,AAXX 22004 07070 12730 30310 10090 20080 39953 40062 51003 60006 71011 83500 90000=
07070,1996-09-22 03:00:00,7,1006.7,0.4,100,7,2000,11.112,,,350,,,,,,,,,,10,wg-a,,,,AAXX 22034 07070 12720 23506 10070 20070 39957 40067 51004 60006 71011 82500 90300=
07070,1996-09-22 06:00:00,7,1007.7,0.9,100,7,1500,7.408,,,330,5.9,12.2,,,,,,,,10,wg-a,,,,AAXX 22064 07070 12515 73304 10070 20070 39966 40077 53009 60006 71011 875// 90600 333 10122 20059=
07070,1996-09-22 09:00:00,10,1008.3,0.8,93,9,3500,11.112,,,20,,,,,,,,,,10,wg-a,,,,AAXX 22094 07070 12635 70206 10100 20090 39974 40083 53008 60006 71022 875// 90900=
07070,1996-09-22 12:00:00,12,1008.4,0.1,76,8,500,18.52,,,30,,,,,,,,,,,wg-a,,,,AAXX 22124 07070 12400 70310 10120 20080 39975 40084 51001 60006 878// 91200=
07070,1996-09-22 15:00:00,12,1008.3,-0.1,76,8,8000,14.816,,,350,,,,,,,,,,,wg-a,,,,AAXX 22154 07070 12458 83508 10120 20080 39974 40083 57001 60006 888// 91500=
07070,1996-09-22 18:00:00,10,1009.3,0.9,87,8,4000,11.112,,,340,7.1,12.2,,,,,,,,10,wg-a,,,,AAXX 22184 07070 12640 /3406 10100 20080 39983 40093 53009 60006 71022 85530 91800 333 10122 20071=
07070,1996-09-22 21:00:00,8,1009.8,0.4,93,7,4000,7.408,,,290,,,,,,,,,,10,wg-a,,,,AAXX 22214 07070 12/40 72904 10080 20070 39987 40098 51004 60006 71011 8707/ 92100=
07070,1996-09-23 00:00:00,8,1009.3,-0.4,100,8,3000,3.704,,,260,,,,,,,,,,10,wg-a,,,,AAXX 23004 07070 12330 72602 10080 20080 39983 40093 56004 60006 71011 875// 90000=
07070,1996-09-23 03:00:00,8,1009,-0.3,93,7,3500,7.408,,,230,,,,,,,,,,10,wg-a,,,,AAXX 23034 07070 12335 72304 10080 20070 39980 40090 58003 60006 71022 875// 90300=
07070,1996-09-23 06:00:00,8,1008.9,-0.1,100,8,1100,7.408,,,250,6.9,10.1,,,,,,,,10,wg-a,,,,AAXX 23064 07070 12211 72504 10080 20080 39979 40089 55001 60006 71022 875// 90600 333 10101 20069=
07070,1996-09-23 09:00:00,10,1009.4,0.5,93,9,2800,3.704,,,150,,,,,,,,,,10,wg-a,,,,AAXX 23094 07070 12528 81502 10100 20090 39984 40094 53005 60006 71022 875// 90900=
07070,1996-09-23 12:00:00,11,1009.2,-0.1,94,10,3000,7.408,,,240,,,,,,,,,,10,wg-a,,,,AAXX 23124 07070 12330 82404 10110 20100 39983 40092 57001 60006 71022 875// 91200=
07070,1996-09-23 15:00:00,11,1009.1,-0.1,94,10,2800,7.408,,,330,,,,1,,,,,,10,wg-a,,,,AAXX 23154 07070 12428 73304 10110 20100 39982 40091 56001 60017 71082 878// 91500=
07070,1996-09-23 18:00:00,11,1009.8,0.7,94,10,4000,0,,,0,8.2,12.4,,,,,,,,10,wg-a,,,,AAXX 23184 07070 32740 70000 10110 20100 39989 40098 53007 71082 875// 91800 333 10124 20082=
07070,1996-09-23 21:00:00,9,1010.9,1,100,9,900,3.704,,,290,,,,,,,,,,41,wg-a,,,,AAXX 23214 07070 12709 /2902 10090 20090 39999 40109 51010 60006 74142 86500 92100=
07070,1996-09-24 00:00:00,9,1010.6,-0.3,100,9,4000,3.704,,,150,,,,0,,,,,,10,wg-a,,,,AAXX 24004 07070 02440 81502 10090 20090 39996 40106 58003 60016 71064 885// 90000 333 60007=
07070,1996-09-24 03:00:00,8,1010.7,0,93,7,3000,0,,,0,,,,1,,,,,,10,wg-a,,,,AAXX 24034 07070 12730 80000 10080 20070 39996 40107 50000 60017 71062 885// 90300=
07070,1996-09-24 06:00:00,8,1011.3,0.7,100,8,1100,0,,,0,7.4,10.9,,0,,,2,,,10,wg-a,,,,AAXX 24064 07070 02711 70000 10080 20080 30003 40113 53007 60024 71062 875// 90600 333 10109 20074 60007=
07070,1996-09-24 09:00:00,11,1012,0.7,94,10,2500,3.704,,,320,,,,,,,,,,10,wg-a,,,,AAXX 24094 07070 12325 73202 10110 20100 30010 40120 53007 60006 71022 876// 90900=
07070,1996-09-24 12:00:00,14,1011.7,-0.1,72,9,500,7.408,,,270,,,,,,,,,,,wg-a,,,,AAXX 24124 07070 12400 52704 10140 20090 30009 40117 58001 60006 85800 91200=
07070,1996-09-24 15:00:00,16,1011.2,-0.5,59,8,10000,7.408,,,320,,,,,,,,,,,wg-a,,,,AAXX 24154 07070 12560 /3204 10160 20080 30004 40112 58005 60006 86800 91500=
07070,1996-09-24 18:00:00,12,1011.9,0.6,76,8,7000,7.408,,,240,8,16.2,,,,,,,,,wg-a,,,,AAXX 24184 07070 12757 22404 10120 20080 30010 40119 53006 60006 82501 91800 333 10162 20080=
07070,1996-09-24 21:00:00,11,1011.7,-0.3,87,9,8000,11.112,,,180,,,,,,,,,,,wg-a,,,,AAXX 24214 07070 12758 81806 10110 20090 30007 40117 58003 60006 885// 92100=
07070,1996-09-25 00:00:00,10,1010.9,-0.8,93,9,0,7.408,,,190,,,,,,,,,,,wg-a,,,,AAXX 25004 07070 12/// /1904 10100 20090 39999 40109 56008 60006 90000=
07070,1996-09-25 03:00:00,10,1009.8,-1.1,87,8,8000,3.704,,,190,,,,,,,,,,,wg-a,,,,AAXX 25034 07070 12/58 71902 10100 20080 39988 40098 58011 60006 80002 90300=
07070,1996-09-25 06:00:00,7,1009.6,-0.3,93,6,3500,3.704,,,60,6.8,12.3,,,,,,,,10,wg-a,,,,AAXX 25064 07070 12/35 70602 10070 20060 39985 40096 55003 60006 71022 81032 90600 333 10123 20068=
07070,1996-09-25 09:00:00,13,1010.4,1,82,10,500,11.112,,,170,,,,,,,,,,,wg-a,,,,AAXX 25094 07070 12/00 71706 10130 20100 39995 40104 51010 60006 84032 90900=
07070,1996-09-25 12:00:00,18,1010.2,0,56,9,12000,11.112,,,170,,,,,,,,,,,wg-a,,,,AAXX 25124 07070 12662 71706 10180 20090 39995 40102 50000 60006 82132 91200=
07070,1996-09-25 15:00:00,19,1010.2,0.1,49,8,12000,7.408,,,250,,,,,,,,,,,wg-a,,,,AAXX 25154 07070 12762 62504 10190 20080 39996 40102 50001 60006 82202 91500=
07070,1996-09-25 18:00:00,12,1012.7,2.2,82,9,10000,7.408,,,110,6.7,19.4,,,,,,,,,wg-a,,,,AAXX 25184 07070 12760 51104 10120 20090 30018 40127 53022 60006 82431 91800 333 10194 20067=
07070,1996-09-25 21:00:00,10,1014.3,1.5,87,8,10000,0,,,0,,,,,,,,,,,wg-a,,,,AAXX 25214 07070 12/60 00000 10100 20080 30033 40143 51015 60006 80000 92100=
07070,1996-09-26 00:00:00,8,1015.9,1.5,93,7,10000,3.704,,,270,,,,,,,,,,,wg-a,,,,AAXX 26004 07070 12/60 12702 10080 20070 30048 40159 51015 60006 80001 90000=
07070,1996-09-26 03:00:00,6,1016.9,0.9,93,5,10000,3.704,,,240,,,,,,,,,,,wg-a,,,,AAXX 26034 07070 12/60 22402 10060 20050 30057 40169 53009 60006 80002 90300=
07070,1996-09-26 06:00:00,5,1017.9,0.9,100,5,3500,7.408,,,180,4.8,12.1,,,,,,,,10,wg-a,,,,AAXX 26064 07070 12/35 /1804 10050 20050 30066 40179 53009 60006 71000 80002 90600 333 10121 20048=
07070,1996-09-26 09:00:00,14,1018.4,0.9,82,11,500,7.408,,,170,,,,,,,,,,,wg-a,,,,AAXX 26094 07070 12/00 31704 10140 20110 30075 40184 52009 60006 80002 90900=
07070,1996-09-26 12:00:00,19,1017.3,-0.9,60,11,20000,14.816,,,220,,,,,,,,,,,wg-a,,,,AAXX 26124 07070 12570 72208 10190 20110 30066 40173 56009 60006 84202 91200=
07070,1996-09-26 15:00:00,19,1016.1,-1.2,52,9,25000,22.224,,,240,,,,,,,,,,,wg-a,,,,AAXX 26154 07070 12675 62412 10190 20090 30054 40161 57012 60006 83232 91500=
07070,1996-09-26 18:00:00,13,1012.8,,82,10,20000,11.112,,,180,4.3,21.1,,,,,,,,,wg-a,,,,AAXX 26184 07070 12/70 61806 10130 20100 30049 40128 60006 85031 91800 333 10211 20043=
07070,1996-09-26 21:00:00,16,1015.1,-0.6,72,11,20000,14.816,,,200,,,,,,,,,,,wg-a,,,,AAXX 26214 07070 12/70 72008 10160 20110 30043 40151 58006 60006 8707/ 92100=
07070,1996-09-27 00:00:00,15,1014,-1.1,82,12,20000,14.816,,,190,,,,,,,,,,1,wg-a,,,,AAXX 27004 07070 02/70 71908 10150 20120 30032 40140 58011 61000 70162 8703/ 90000 333 6100=
07070,1996-09-27 03:00:00,15,1012.1,-1.9,82,12,20000,25.928,,,210,,,,,,,,,,,wg-a,,,,AAXX 27034 07070 12470 82114 10150 20120 30013 40121 56019 60006 875// 90300=
07070,1996-09-27 06:00:00,14,1012,-0.1,94,13,3500,18.52,,,240,12.3,15.6,,2,,,2,,,10,wg-a,,,,AAXX 27064 07070 02335 82410 10140 20130 30012 40120 55001 60024 71065 875// 90600 333 10156 20123 60027=
07070,1996-09-27 09:00:00,15,1012.8,0.8,94,14,10000,22.224,,,240,,,,,,,,,,1,wg-a,,,,AAXX 27094 07070 02460 72412 10150 20140 30020 40128 51008 61000 70165 878// 90900 333 ////=
07070,1996-09-27 12:00:00,18,1013,0.3,73,13,16000,18.52,,,250,,,,,,,,,,25,wg-a,,,,AAXX 27124 07070 02466 /2510 10180 20130 30023 40130 51003 61000 72586 86200 91200 333 ////=
07070,1996-09-27 15:00:00,17,1013.7,0.7,77,13,8000,22.224,,,250,,,,0,,,,,,80,wg-a,,,,AAXX 27154 07070 12358 72512 10170 20130 30030 40137 52007 60007 78082 878// 91500=
07070,1996-09-27 18:00:00,15,1016,2.2,88,13,16000,14.816,,,270,13.8,19,,1,,,,,,13,wg-a,,,,AAXX 27184 07070 12566 52708 10150 20130 30052 40160 53022 60017 71381 85900 91800 333 10190 20138=
07070,1996-09-27 21:00:00,13,1018.7,2.6,94,12,15000,18.52,,,250,,,,,,,,,,,wg-a,,,,AAXX 27214 07070 12665 32510 10130 20120 30078 40187 51026 60006 83530 92100=
07070,1996-09-28 00:00:00,11,1020.9,2.1,94,10,15000,14.816,,,260,,,,,,,,,,,wg-a,,,,AAXX 28004 07070 12/65 02608 10110 20100 30099 40209 51021 60006 80000 90000=
07070,1996-09-28 03:00:00,10,1023,2,93,9,15000,3.704,,,270,,,,,,,,,,,wg-a,,,,AAXX 28034 07070 12/65 22702 10100 20090 30119 40230 51020 60006 81031 90300=
07070,1996-09-28 06:00:00,9,1024.3,1.2,93,8,12000,11.112,,,230,7.8,15.4,,,,,1,,,,wg-a,,,,AAXX 28064 07070 02762 72306 10090 20080 30131 40243 53012 60006 815/1 90600 333 10154 20078 60014=
07070,1996-09-28 12:00:00,16,1026.1,0.6,72,11,15000,18.52,,,250,,,,,,,,,,,wg-a,,,,AAXX 28124 07070 12565 72510 10160 20110 30152 40261 51006 60006 85202 91200=
07070,1996-09-28 15:00:00,18,1025.6,-0.4,56,9,500,18.52,,,240,,,,,,,,,,,wg-a,,,,AAXX 28154 07070 12600 /2410 10180 20090 30148 40256 58004 60006 83202 91500=
07070,1996-09-28 18:00:00,13,1025.8,-0,82,10,500,7.408,,,200,9,18.2,,,,,,,,,wg-a,,,,AAXX 28184 07070 12600 72004 10130 20100 30148 40258 54000 60006 81102 91800 333 10182 20090=
07070,1996-09-28 21:00:00,9,1026.1,0.1,93,8,20000,14.816,,,160,,,,,,,,,,,wg-a,,,,AAXX 28214 07070 12/70 71608 10090 20080 30149 40261 50001 60006 80002 92100=
07070,1996-09-29 00:00:00,8,1024.9,-1.2,100,8,20000,14.816,,,190,,,,,,,,,,,wg-a,,,,AAXX 29004 07070 12/70 71908 10080 20080 30137 40249 56012 60006 80002 90000=
07070,1996-09-29 03:00:00,10,1023.7,-1.1,93,9,20000,11.112,,,180,,,,,,,,,,61,wg-a,,,,AAXX 29034 07070 02770 71806 10100 20090 30126 40237 56011 61000 76162 8357/ 90300 333 ////=
07070,1996-09-29 06:00:00,13,1022.5,-1.1,77,9,20000,18.52,,,220,7.6,13.1,,,,,,,,1,wg-a,,,,AAXX 29064 07070 02/70 72210 10130 20090 30115 40225 56011 61000 70162 8707/ 90600 333 10131 20076 6100=
07070,1996-09-29 09:00:00,15,1023,0.6,72,10,25000,22.224,,,230,,,,,,,,,,,wg-a,,,,AAXX 29094 07070 12775 72312 10150 20100 30121 40230 51006 60006 8457/ 90900=
07070,1996-09-29 12:00:00,18,1021.6,-1.3,59,10,500,29.632,,,240,,,,,,,,,,,wg-a,,,,AAXX 29124 07070 12500 72416 10180 20100 30108 40216 56013 60006 875// 91200=
07070,1996-09-29 15:00:00,20,1019.6,-1.9,56,11,25000,29.632,,,220,,,,,,,,,,,wg-a,,,,AAXX 29154 07070 12775 72216 10200 20110 30089 40196 57019 60006 875// 91500=
07070,1996-09-29 18:00:00,18,1019.4,-0.2,64,11,25000,14.816,,,220,12.8,20.8,,,,,,,,,wg-a,,,,AAXX 29184 07070 12675 /2208 10180 20110 30087 40194 55002 60006 85500 91800 333 10208 20128=
07070,1996-09-29 21:00:00,16,1019.1,-0.4,68,10,25000,7.408,,,260,,,,,,,,,,,wg-a,,,,AAXX 29214 07070 12775 12604 10160 20100 30083 40191 58004 60006 81500 92100=
07070,1996-09-30 00:00:00,16,1018.4,-0.7,72,11,0,18.52,,,230,,,,,,,,,,,wg-a,,,,AAXX 30004 07070 12/// /2310 10160 20110 30076 40184 55007 60006 90000=
07070,1996-09-30 03:00:00,17,1017.2,-1.2,77,13,25000,18.52,,,230,,,,,,,,,,,wg-a,,,,AAXX 30034 07070 12575 82310 10170 20130 30064 40172 56012 60006 885// 90300=
07070,1996-09-30 06:00:00,15,1016.6,-0.6,88,13,25000,14.816,,,210,13.1,18.1,,,,,,,,,wg-a,,,,AAXX 30064 07070 12575 72108 10150 20130 30058 40166 56006 60006 875// 90600 333 10181 20131=
07070,1996-09-30 09:00:00,17,1016,-0.6,82,14,20000,22.224,,,210,,,,,,,,,,,wg-a,,,,AAXX 30094 07070 12470 72112 10170 20140 30052 40160 57006 60006 878// 90900=
07070,1996-09-30 12:00:00,22,1013.3,-2.4,69,16,500,22.224,,,220,,,,,,,,,,,wg-a,,,,AAXX 30124 07070 12500 72212 10220 20160 30028 40133 58024 60006 8683/ 91200=
07070,1996-09-30 15:00:00,21,1009.6,-3.7,60,13,35000,22.224,,,190,,,,,,,,,,,wg-a,,,,AAXX 30154 07070 12681 71912 10210 20130 39991 40096 56037 60006 878// 91500=
07070,1996-09-30 18:00:00,17,1007.8,-2,68,11,25000,11.112,,,170,15.3,22.8,,,,,,,,,wg-a,,,,AAXX 30184 07070 12775 61706 10170 20110 39971 40078 56020 60006 825/1 91800 333 10228 20153=
07070,1996-09-30 21:00:00,13,1007,-0.9,82,10,15000,3.704,,,130,,,,,,,,,,,wg-a,,,,AAXX 30214 07070 12/65 61302 10130 20100 39962 40070 58009 60006 82081 92100=
07070,1996-10-01 00:00:00,11,1004.7,-2.3,94,10,20000,3.704,,,190,,,,,,,,,,,wg-a,,,,AAXX 01004 07070 12/70 71902 10110 20100 39939 40047 56023 60006 8708/ 90000=
07070,1996-10-01 03:00:00,13,1004,-0.7,94,12,500,11.112,,,210,,,,,,,,,,,wg-a,,,,AAXX 01034 07070 32/00 /2106 10130 20120 39932 40040 56007 90300=
07070,1996-10-01 06:00:00,13,1002.6,-1.4,100,13,3000,14.816,,,190,10.8,16.5,,3,,,7,,,10,wg-a,,,,AAXX 01064 07070 02430 81908 10130 20130 39918 40026 56014 60074 71062 875// 90600 333 10165 20108 60037=
07070,1996-10-01 09:00:00,10,1004.2,1.5,100,10,6000,22.224,,,340,,,,8,,,,,,61,wg-a,,,,AAXX 01094 07070 12356 83412 10100 20100 39933 40042 53015 60087 76166 8677/ 90900=
07070,1996-10-01 12:00:00,10,1004.8,0.6,100,10,500,22.224,,,340,,,,7,,,,,,61,wg-a,,,,AAXX 01124 07070 02300 83412 10100 20100 39939 40048 53006 60166 76166 8677/ 91200 333 60077=
07070,1996-10-01 15:00:00,10,1007.5,2.7,100,10,500,18.52,,,320,,,,6,,,,,,61,wg-a,,,,AAXX 01154 07070 12400 83210 10100 20100 39966 40075 53027 60067 76166 8377/ 91500=
07070,1996-10-01 18:00:00,10,1010.9,3.3,100,10,500,18.52,,,290,9.9,13.2,,2,,,,,,80,wg-a,,,,AAXX 01184 07070 12200 82910 10100 20100 39999 40109 53033 60027 78086 8587/ 91800 333 10132 20099=
07070,1996-10-01 21:00:00,10,1012.9,2,93,9,7000,14.816,,,230,,,,0,,,,,,1,wg-a,,,,AAXX 01214 07070 12557 42308 10100 20090 30019 40129 51020 60007 70181 84800 92100=
07070,1996-10-02 00:00:00,7,1013.5,0.5,100,7,7000,7.408,,,220,,,,,,,,,,3,wg-a,,,,AAXX 02004 07070 12557 42204 10070 20070 30024 40135 51005 60006 70381 82201 90000=
07070,1996-10-02 03:00:00,6,1013.7,0.1,100,6,4000,7.408,,,200,,,,,,,,,,12,wg-a,,,,AAXX 02034 07070 12540 52004 10060 20060 30025 40137 51001 60006 71211 83903 90300=
07070,1996-10-02 06:00:00,4,1014.8,1,93,3,500,7.408,,,80,3.6,10.3,,0,,,24,,,41,wg-a,,,,AAXX 02064 07070 02505 50804 10040 20030 30035 40148 53010 60244 74141 83801 90600 333 10103 20036 60007=
07070,1996-10-02 09:00:00,11,1016.6,2.1,87,9,4000,7.408,,,180,,,,,,,,,,10,wg-a,,,,AAXX 02094 07070 12240 51804 10110 20090 30056 40166 53021 60006 71041 85800 90900=
07070,1996-10-02 12:00:00,,1018,1.5,,10,500,7.408,,,40,,,,,,,,,,3,wg-a,,,,AAXX 02124 07070 12400 /0404 1//// 20100 30077 40180 51015 60006 70341 85200 91200=
07070,1996-10-02 18:00:00,10,1022,2.3,87,8,10000,0,,,0,3.6,13.6,,,,,,,,11,wg-a,,,,AAXX 02184 07070 12560 /0000 10100 20080 30109 40220 51023 60006 71111 81400 91800 333 10136 20036=
07070,1996-10-02 21:00:00,7,1024.4,2.3,100,7,7000,3.704,,,200,,,,,,,,,,,wg-a,,,,AAXX 02214 07070 12/57 02002 10070 20070 30132 40244 51023 60006 80000 92100=
07070,1996-10-03 00:00:00,5,1025.9,1.4,100,5,2500,3.704,,,220,,,,,,,,,,10,wg-a,,,,AAXX 03004 07070 12/25 02202 10050 20050 30146 40259 51014 60006 71040 80000 90000=
07070,1996-10-03 03:00:00,5,1026.5,0.5,100,5,500,3.704,,,210,,,,,,,,,,44,wg-a,,,,AAXX 03034 07070 12/05 02102 10050 20050 30151 40265 53005 60006 74440 80000 90300=
07070,1996-10-03 06:00:00,3,1027.4,0.8,100,3,1100,3.704,,,250,2.5,10,,0,,,,,,40,wg-a,,,,AAXX 03064 07070 02/11 12502 10030 20030 30159 40274 53008 60004 74040 81030 90600 333 10100 20025 60007=
07070,1996-10-03 09:00:00,11,1028,1,87,9,6000,7.408,,,190,,,,,,,,,,3,wg-a,,,,AAXX 03094 07070 12/56 /1904 10110 20090 30169 40280 50010 60006 70341 86030 90900=
07070,1996-10-03 12:00:00,17,1026.7,-1.1,55,8,15000,18.52,,,250,,,,,,,,,,1,wg-a,,,,AAXX 03124 07070 12565 32510 10170 20080 30158 40267 58011 60006 70141 81201 91200=
07070,1996-10-03 15:00:00,17,1025.1,-1.6,63,10,15000,18.52,,,230,,,,,,,,,,,wg-a,,,,AAXX 03154 07070 12665 22310 10170 20100 30142 40251 56016 60006 81201 91500=
07070,1996-10-03 18:00:00,13,1023.6,-1.6,77,9,12000,14.816,,,190,2.5,17.4,,,,,,,,,wg-a,,,,AAXX 03184 07070 12/62 41908 10130 20090 30126 40236 56016 60006 81031 91800 333 10174 20025=
07070,1996-10-03 21:00:00,11,1023.5,-0.2,87,9,12000,11.112,,,210,,,,,,,,,,,wg-a,,,,AAXX 03214 07070 12662 /2106 10110 20090 30124 40235 58002 60006 81501 92100=
07070,1996-10-04 00:00:00,12,1021.7,-1.7,82,9,12000,11.112,,,220,,,,,,,,,,,wg-a,,,,AAXX 04004 07070 12662 42206 10120 20090 30107 40217 56017 60006 81531 90000=
07070,1996-10-04 03:00:00,9,1020.6,-1.2,87,7,12000,11.112,,,190,,,,,,,,,,,wg-a,,,,AAXX 04034 07070 12/62 61906 10090 20070 30095 40206 58012 60006 84031 90300=
07070,1996-10-04 06:00:00,11,1019.6,-0.9,94,10,2200,18.52,,,240,8.4,13,,,,,,,,10,wg-a,,,,AAXX 04064 07070 02422 82410 10110 20100 30086 40196 56009 61000 71051 875// 90600 333 10130 20084 6100=
07070,1996-10-04 09:00:00,11,1019.9,0.3,100,11,10000,11.112,,,290,,,,1,,,,,,21,wg-a,,,,AAXX 04094 07070 12260 72906 10110 20110 30089 40199 51003 60017 72165 878// 90900=
07070,1996-10-04 12:00:00,14,1018.9,-0.9,82,11,25000,14.816,,,260,,,,,,,,,,80,wg-a,,,,AAXX 04124 07070 02575 72608 10140 20110 30080 40189 57009 60016 78086 878// 91200 333 61000=
07070,1996-10-04 15:00:00,14,1017.5,-1.4,72,9,15000,14.816,,,260,,,,,,,,,,3,wg-a,,,,AAXX 04154 07070 12665 42608 10140 20090 30066 40175 56014 60006 70382 84800 91500=
07070,1996-10-04 18:00:00,11,1016.9,-0.7,87,9,15000,7.408,,,230,11,15.8,,,,,,,,2,wg-a,,,,AAXX 04184 07070 32665 /2304 10110 20090 30059 40169 56007 70281 81800 91800 333 10158 20110=
07070,1996-10-04 21:00:00,7,1016.5,-0.5,100,7,12000,11.112,,,190,,,,,,,,,,,wg-a,,,,AAXX 04214 07070 12762 21906 10070 20070 30054 40165 58005 60006 82500 92100=
07070,1996-10-05 00:00:00,6,1014.9,-1.7,93,5,15000,7.408,,,220,,,,,,,,,,,wg-a,,,,AAXX 05004 07070 12765 42204 10060 20050 30037 40149 58017 60006 81580 90000=
07070,1996-10-05 06:00:00,9,1012.8,-0.4,87,7,12000,14.816,,,220,5.6,11.3,,,,,1,,,,wg-a,,,,AAXX 05064 07070 02562 72208 10090 20070 30017 40128 56004 60006 878// 90600 333 10113 20056 60014=
07070,1996-10-05 09:00:00,10,1014.4,1.7,87,8,12000,14.816,,,270,,,,,,,,,,3,wg-a,,,,AAXX 05094 07070 02462 82708 10100 20080 30034 40144 52017 61000 70362 886// 90900 333 ////=
07070,1996-10-05 12:00:00,11,1015.5,1.1,82,8,12000,11.112,,,360,,,,0,,,,,,80,wg-a,,,,AAXX 05124 07070 02462 73606 10110 20080 30045 40155 51011 60016 78086 878// 91200 333 60007=
07070,1996-10-05 15:00:00,13,1015.9,0.5,67,7,20000,22.224,,,320,,,,2,,,,,,1,wg-a,,,,AAXX 05154 07070 12570 73212 10130 20070 30050 40159 53005 60027 70182 86801 91500=
07070,1996-10-05 18:00:00,10,1018.4,2.3,82,7,20000,22.224,,,330,8.5,13.2,,,,,,,,3,wg-a,,,,AAXX 05184 07070 32570 73312 10100 20070 30073 40184 53023 70381 878// 91800 333 10132 20085=
07070,1996-10-05 21:00:00,8,1019.9,1.4,93,7,15000,14.816,,,320,,,,,,,,,,,wg-a,,,,AAXX 05214 07070 12665 33208 10080 20070 30087 40199 51014 60006 83500 92100=
07070,1996-10-06 00:00:00,7,1020.6,0.7,93,6,10000,11.112,,,350,,,,,,,,,,,wg-a,,,,AAXX 06004 07070 12660 23506 10070 20060 30094 40206 51007 60006 82500 90000=
07070,1996-10-06 03:00:00,7,1021.2,0.6,93,6,4000,18.52,,,350,,,,,,,,,,,wg-a,,,,AAXX 06034 07070 12140 83510 10070 20060 30100 40212 51006 60006 886// 90300=
07070,1996-10-06 06:00:00,7,1022.5,1.3,100,7,3500,14.816,,,360,6.3,9.7,,,,,2,,,10,wg-a,,,,AAXX 06064 07070 02235 83608 10070 20070 30113 40225 53013 60006 71022 886// 90600 333 10097 20063 60024=
07070,1996-10-06 09:00:00,9,1023.4,1,87,7,12000,14.816,,,30,,,,,,,,,,,wg-a,,,,AAXX 06094 07070 12462 /0308 10090 20070 30123 40234 51010 60006 86200 90900=
07070,1996-10-06 12:00:00,13,1023.1,-0.2,72,8,16000,11.112,,35.188,10,,,,,,,,,,,wg-a,,,,AAXX 06124 07070 12566 /0106 10130 20080 30121 40231 58002 60006 85200 91200 333 91019=
07070,1996-10-06 15:00:00,14,1022.2,-0.8,63,7,25000,14.816,,,10,,,,,,,,,,,wg-a,,,,AAXX 06154 07070 12675 40108 10140 20070 30113 40222 56008 60006 84200 91500=
07070,1996-10-06 18:00:00,9,1023.3,0.9,87,7,20000,11.112,,,10,7,14.7,,,,,,,,,wg-a,,,,AAXX 06184 07070 12670 /0106 10090 20070 30122 40233 53009 60006 81400 91800 333 10147 20070=
07070,1996-10-06 21:00:00,6,1024.2,0.7,93,5,15000,3.704,,,350,,,,,,,,,,,wg-a,,,,AAXX 06214 07070 12/65 03502 10060 20050 30129 40242 53007 60006 80000 92100=
07070,1996-10-07 00:00:00,3,1023.9,-0.4,100,3,800,0,,,0,,,,,,,,,,41,wg-a,,,,AAXX 07004 07070 12/08 00000 10030 20030 30125 40239 58004 60006 74140 80000 90000=
07070,1996-10-07 03:00:00,1,1023.5,-0.5,100,1,500,0,,,0,,,,,,,,,,44,wg-a,,,,AAXX 07034 07070 12/05 00000 10010 20010 30120 40235 58005 60006 74444 80000 90300=
07070,1996-10-07 06:00:00,1,1023.5,0,100,1,100,3.704,,,190,0.3,9.1,,,,,,,,44,wg-a,,,,AAXX 07064 07070 12/01 01902 10010 20010 30120 40235 50000 60006 74444 80000 90600 333 10091 20003=
07070,1996-10-07 09:00:00,7,1023.5,0.3,100,7,500,3.704,,,360,,,,,,,,,,1,wg-a,,,,AAXX 07094 07070 32/00 03602 10070 20070 30123 40235 50003 70140 80000 90900=
07070,1996-10-07 12:00:00,14,1021.4,-1.8,67,8,10000,11.112,,,10,,,,,,,,,,3,wg-a,,,,AAXX 07124 07070 12560 /0106 10140 20080 30105 40214 58018 60006 70340 81100 91200=
07070,1996-10-07 15:00:00,16,1020.1,-1.3,55,7,15000,11.112,,,30,,,,,,,,,,,wg-a,,,,AAXX 07154 07070 12665 /0306 10160 20070 30092 40201 56013 60006 81100 91500=
07070,1996-10-07 18:00:00,11,1020.6,0.4,82,8,15000,7.408,,,330,0.6,16.2,,,,,,,,,wg-a,,,,AAXX 07184 07070 32665 /3304 10110 20080 30096 40206 53004 81500 91800 333 10162 20006=
07070,1996-10-07 21:00:00,9,1021.1,0.4,87,7,15000,3.704,,,320,,,,,,,,,,,wg-a,,,,AAXX 07214 07070 12665 43202 10090 20070 30100 40211 53004 60006 84500 92100=
07070,1996-10-08 00:00:00,7,1020.7,-0.5,93,6,9000,3.704,,,300,,,,,,,,,,,wg-a,,,,AAXX 08004 07070 12/59 03002 10070 20060 30095 40207 57005 60006 80000 90000=
07070,1996-10-08 03:00:00,3,1020.8,-0.1,100,3,1200,0,,,0,,,,,,,,,,10,wg-a,,,,AAXX 08034 07070 12/12 00000 10030 20030 30094 40208 58001 60006 71000 80000 90300=
07070,1996-10-08 06:00:00,4,1021,0.3,100,4,1600,7.408,,,260,2.8,10.9,,,,,,,,10,wg-a,,,,AAXX 08064 07070 02816 /2604 10040 20040 30097 40210 53003 60006 71040 81500 90600 333 10109 20028 60004=
07070,1996-10-08 09:00:00,10,1021.2,0.4,87,8,3000,7.408,,,360,,,,0,,,,,,10,wg-a,,,,AAXX 08094 07070 12/30 /3604 10100 20080 30101 40212 50004 60007 71000 80001 90900=
07070,1996-10-08 12:00:00,16,1020.2,-0.7,68,10,7000,11.112,,,350,,,,,,,,,,,wg-a,,,,AAXX 08124 07070 12557 /3506 10160 20100 30094 40202 58007 60016 81101 91200=
07070,1996-10-08 15:00:00,17,1019.7,-0.5,59,9,10000,14.816,,,330,,,,,,,,,,,wg-a,,,,AAXX 08154 07070 12560 /3308 10170 20090 30089 40197 56005 60006 81100 91500=
07070,1996-10-08 18:00:00,11,1020.6,0.7,82,8,7000,7.408,,,320,3.2,17.2,,,,,,,,,wg-a,,,,AAXX 08184 07070 32/57 23204 10110 20080 30096 40206 53007 80001 91800 333 10172 20032=
07070,1996-10-08 21:00:00,8,1021.2,0.4,93,7,500,3.704,,,340,,,,,,,,,,,wg-a,,,,AAXX 08214 07070 12/00 23402 10080 20070 30100 40212 52004 60006 80001 92100=
07070,1996-10-09 00:00:00,5,1021.1,-0.2,93,4,3000,3.704,,,270,,,,,,,,,,10,wg-a,,,,AAXX 09004 07070 12/30 02702 10050 20040 30098 40211 58002 60006 71000 80000 90000=
07070,1996-10-09 03:00:00,2,1020.6,-0.6,100,2,1500,0,,,0,,,,,,,,,,10,wg-a,,,,AAXX 09034 07070 12/15 00000 10020 20020 30092 40206 58006 60006 71000 80000 90300=
07070,1996-10-09 06:00:00,1,1020.8,0.2,100,1,500,3.704,,,290,1.3,11.2,,,,,,,,41,wg-a,,,,AAXX 09064 07070 02/05 /2902 10010 20010 30094 40208 53002 60006 74141 80001 90600 333 10112 20013 60004=
07070,1996-10-09 09:00:00,9,1021.1,0.6,100,9,1800,0,,,0,,,,,,,,,,10,wg-a,,,,AAXX 09094 07070 12718 70000 10090 20090 30100 40211 51006 60006 71042 8453/ 90900=
07070,1996-10-09 12:00:00,13,1020.5,-0.5,82,10,3000,3.704,,,250,,,,,,,,,,10,wg-a,,,,AAXX 09124 07070 12430 82502 10130 20100 30095 40205 58005 60006 71042 8352/ 91200=
07070,1996-10-09 15:00:00,13,1020,-0.5,94,12,2000,7.408,,,220,,,,0,,,,,,10,wg-a,,,,AAXX 09154 07070 12320 82204 10130 20120 30090 40200 56005 60007 71065 885// 91500=
07070,1996-10-09 18:00:00,12,1020.5,0.5,100,12,2500,3.704,,,190,1.3,13,,,,,,,,10,wg-a,,,,AAXX 09184 07070 02425 81902 10120 20120 30095 40205 53005 61000 71065 885// 91800 333 10130 20013 ////=
07070,1996-10-09 21:00:00,12,1021.4,0.9,100,12,3500,7.408,,,230,,,,1,,,,,,10,wg-a,,,,AAXX 09214 07070 12335 82304 10120 20120 30104 40214 53009 60017 71065 885// 92100=
07070,1996-10-10 00:00:00,10,1021.5,0,100,10,300,3.704,,,290,,,,0,,,,,,44,wg-a,,,,AAXX 10004 07070 02703 32902 10100 20100 30104 40215 50000 60016 74465 83500 90000 333 60007=
07070,1996-10-10 03:00:00,10,1021.4,-0.1,100,10,3000,0,,,0,,,,,,,,,,10,wg-a,,,,AAXX 10034 07070 12430 70000 10100 20100 30103 40214 57001 60006 71041 875// 90300=
07070,1996-10-10 06:00:00,11,1022.1,0.7,94,10,400,3.704,,,300,8.9,12.3,,,,,1,,,44,wg-a,,,,AAXX 10064 07070 12004 83002 10110 20100 30110 40221 51007 60014 74454 886// 90600 333 10123 20089=
07070,1996-10-10 09:00:00,12,1023.4,1.4,94,11,2500,7.408,,,340,,,,,,,,,,10,wg-a,,,,AAXX 10094 07070 02125 83404 10120 20110 30124 40234 51014 61000 71042 886// 90900 333 ////=
07070,1996-10-10 12:00:00,13,1023.6,0.2,94,12,500,3.704,,,20,,,,,,,,,,1,wg-a,,,,AAXX 10124 07070 12400 80202 10130 20120 30126 40236 50002 60006 70142 886// 91200=
07070,1996-10-10 15:00:00,14,1023.1,-0.4,88,12,7000,7.408,,,50,,,,,,,,,,,wg-a,,,,AAXX 10154 07070 12557 70504 10140 20120 30122 40231 57004 60006 878// 91500=
07070,1996-10-10 18:00:00,11,1023.9,0.6,94,10,3000,0,,,0,10.6,14.4,,,,,,,,11,wg-a,,,,AAXX 10184 07070 12730 50000 10110 20100 30128 40239 53006 60006 71111 85500 91800 333 10144 20106=
07070,1996-10-10 21:00:00,7,1024.4,0.4,100,7,400,3.704,,,350,,,,,,,,,,44,wg-a,,,,AAXX 10214 07070 12/04 03502 10070 20070 30132 40244 51004 60006 74441 80000 92100=
07070,1996-10-11 00:00:00,7,1023.9,-0.5,100,7,100,3.704,,,190,,,,,,,,,,45,wg-a,,,,AAXX 11004 07070 12/01 91902 10070 20070 30127 40239 58005 60006 74540 89/// 90000=
07070,1996-10-11 03:00:00,8,1023,-0.9,100,8,500,0,,,0,,,,,,,,,,45,wg-a,,,,AAXX 11034 07070 32/00 90000 10080 20080 30118 40230 57009 74544 89/// 90300=
07070,1996-10-11 06:00:00,7,1022.6,-0.4,100,7,500,0,,,0,6.1,11,,,,,,,,43,wg-a,,,,AAXX 11064 07070 12/00 90000 10070 20070 30114 40226 57004 60004 74344 89/// 90600 333 10110 20061=
07070,1996-10-11 09:00:00,8,1023.2,0.6,100,8,200,11.112,,,100,,,,,,,,,,43,wg-a,,,,AAXX 11094 07070 12/02 91006 10080 20080 30120 40232 51006 60006 74344 89/// 90900=
07070,1996-10-11 12:00:00,10,1022.1,-1,100,10,1200,7.408,,,150,,,,,,,,,,10,wg-a,,,,AAXX 11124 07070 12112 81504 10100 20100 30110 40221 57010 60006 71042 886// 91200=
07070,1996-10-11 15:00:00,10,1020.7,-1.4,100,10,1500,7.408,,,160,,,,0,,,,,,10,wg-a,,,,AAXX 11154 07070 12215 81604 10100 20100 30096 40207 56014 60007 71022 886// 91500=
07070,1996-10-11 18:00:00,11,1019.7,-0.9,94,10,2000,7.408,,,190,6.2,10.7,,,,,,,,10,wg-a,,,,AAXX 11184 07070 32420 81904 10110 20100 30087 40197 57009 71022 885// 91800 333 10107 20062=
07070,1996-10-11 21:00:00,10,1019.2,-0.6,100,10,2000,0,,,0,,,,,,,,,,10,wg-a,,,,AAXX 11214 07070 12420 80000 10100 20100 30081 40192 56006 60006 71022 885// 92100=
07070,1996-10-12 00:00:00,9,1017.8,-1.4,100,9,2000,7.408,,,160,,,,,,,,,,10,wg-a,,,,AAXX 12004 07070 12420 81604 10090 20090 30067 40178 56014 60006 71022 885// 90000=
07070,1996-10-12 03:00:00,9,1016.6,-1.2,93,8,2000,7.408,,,160,,,,,,,,,,10,wg-a,,,,AAXX 12034 07070 12220 81604 10090 20080 30055 40166 58012 60006 71022 886// 90300=
07070,1996-10-12 06:00:00,9,1015.9,-0.7,93,8,600,11.112,,,170,8.3,10.6,,,,,,,,41,wg-a,,,,AAXX 12064 07070 02106 81706 10090 20080 30048 40159 56007 60006 74142 886// 90600 333 10106 20083 60004=
07070,1996-10-12 09:00:00,9,1016.1,0.2,100,9,500,18.52,,,170,,,,,,,,,,,wg-a,,,,AAXX 12094 07070 12200 81710 10090 20090 30050 40161 50002 60006 876// 90900=
07070,1996-10-12 12:00:00,11,1014.9,-1.1,94,10,6000,18.52,,,180,,,,,,,,,,,wg-a,,,,AAXX 12124 07070 12356 71810 10110 20100 30039 40149 58011 60006 875// 91200=
07070,1996-10-12 15:00:00,14,1012.8,-1.9,88,12,6000,11.112,,,150,,,,,,,,,,,wg-a,,,,AAXX 12154 07070 12/56 /1506 10140 20120 30020 40128 56019 60006 80002 91500=
07070,1996-10-12 18:00:00,10,1012.8,-0.2,93,9,1500,7.408,,,60,8.5,14.1,,,,,,,,10,wg-a,,,,AAXX 12184 07070 12/15 70604 10100 20090 30018 40128 56002 60006 71022 80002 91800 333 10141 20085=
07070,1996-10-12 21:00:00,7,1012.3,-0.6,100,7,500,3.704,,,300,,,,,,,,,,44,wg-a,,,,AAXX 12214 07070 12/05 /3002 10070 20070 30012 40123 56006 60006 74441 80001 92100=
07070,1996-10-13 00:00:00,10,1011.3,-0.9,100,10,4000,11.112,,,180,,,,,,,,,,10,wg-a,,,,AAXX 13004 07070 12/40 01806 10100 20100 30003 40113 56009 60006 71041 80000 90000=
07070,1996-10-13 03:00:00,9,1010.9,-0.4,93,8,6000,14.816,,,180,,,,,,,,,,,wg-a,,,,AAXX 13034 07070 12/56 01808 10090 20080 39999 40109 58004 60006 80000 90300=
07070,1996-10-13 06:00:00,9,1010.6,-0.3,93,8,7000,14.816,,,190,5.8,10.2,,,,,,,,,wg-a,,,,AAXX 13064 07070 12/57 21908 10090 20080 39996 40106 56003 60006 80002 90600 333 10102 20058=
07070,1996-10-13 09:00:00,13,1010.7,0.2,82,10,6000,14.816,,,160,,,,,,,,,,,wg-a,,,,AAXX 13094 07070 12/56 71608 10130 20100 39998 40107 51002 60006 80002 90900=
07070,1996-10-13 12:00:00,19,1008.8,-1.6,56,10,10000,25.928,,,170,,,,,,,,,,,wg-a,,,,AAXX 13124 07070 12/60 71714 10190 20100 39982 40088 58016 60006 80002 91200=
07070,1996-10-13 15:00:00,21,1007.3,-1.4,46,9,12000,29.632,,,180,,,,,,,,,,,wg-a,,,,AAXX 13154 07070 12/62 61816 10210 20090 39968 40073 56014 60006 80002 91500=
07070,1996-10-13 18:00:00,16,1008.1,0.6,68,10,15000,22.224,,,150,9.4,20.8,,,,,,,,,wg-a,,,,AAXX 13184 07070 12665 71512 10160 20100 39974 40081 53006 60006 86552 91800 333 10208 20094=
07070,1996-10-13 21:00:00,15,1007.8,-0.4,67,9,20000,22.224,,,150,,,,,,,,,,,wg-a,,,,AAXX 13214 07070 12/70 61512 10150 20090 39970 40078 56004 60006 86030 92100=
07070,1996-10-14 00:00:00,14,1008,0.2,72,9,20000,25.928,,,150,,,,,,,,,,,wg-a,,,,AAXX 14004 07070 12/70 61514 10140 20090 39972 40080 52002 60006 8603/ 90000=
07070,1996-10-14 03:00:00,14,1007.4,-0.6,72,9,15000,18.52,,,160,,,,,,,,,,,wg-a,,,,AAXX 14034 07070 12/65 81610 10140 20090 39966 40074 58006 60006 8807/ 90300=
07070,1996-10-14 06:00:00,13,1008,0.6,77,9,12000,7.408,,,50,13.1,16.4,,,,,,,,,wg-a,,,,AAXX 14064 07070 12862 70504 10130 20090 39972 40080 53006 60006 8703/ 90600 333 10164 20131=
07070,1996-10-14 09:00:00,14,1008.3,0.3,77,10,12000,11.112,,,100,,,,,,,,,,,wg-a,,,,AAXX 14094 07070 12762 71006 10140 20100 39975 40083 50003 60006 8257/ 90900=
07070,1996-10-14 12:00:00,19,1007.1,-1,56,10,15000,29.632,,,160,,,,,,,,,,,wg-a,,,,AAXX 14124 07070 12/65 71616 10190 20100 39965 40071 58010 60006 86072 91200=
07070,1996-10-14 15:00:00,17,1006.9,-0.2,68,11,15000,11.112,,,160,,,,,,,,,,21,wg-a,,,,AAXX 14154 07070 02765 71606 10170 20110 39963 40069 58002 61000 72162 8357/ 91500 333 ////=
07070,1996-10-14 18:00:00,14,1006.6,-0.5,82,11,12000,7.408,,,90,12.5,19.3,,,,,,,,1,wg-a,,,,AAXX 14184 07070 32762 70904 10140 20110 39958 40066 58005 70162 85532 91800 333 10193 20125=
07070,1996-10-14 21:00:00,15,1006.6,0.1,77,11,12000,14.816,,,170,,,,,,,,,,,wg-a,,,,AAXX 14214 07070 12862 81708 10150 20110 39959 40066 50001 60006 8807/ 92100=
07070,1996-10-15 00:00:00,14,1006,-0.6,94,13,8000,29.632,,61.116,190,,,,0,,,,,,61,wg-a,,,,AAXX 15004 07070 02858 81916 10140 20130 39953 40060 58006 60016 76162 8807/ 90000 333 60007 91033=
07070,1996-10-15 03:00:00,13,1005.4,-0.7,100,13,8000,18.52,,,180,,,,1,,,,,,61,wg-a,,,,AAXX 15034 07070 12458 81810 10130 20130 39946 40054 57007 60017 76166 885// 90300=
07070,1996-10-15 06:00:00,14,1006.7,1.3,94,13,7000,7.408,,,220,12.6,14.8,,,,,1,,,1,wg-a,,,,AAXX 15064 07070 02457 72204 10140 20130 39959 40067 51013 60014 70162 875// 90600 333 10148 20126 61000=
07070,1996-10-15 09:00:00,16,1007.8,1.2,82,13,10000,7.408,,,240,,,,,,,,,,,wg-a,,,,AAXX 15094 07070 12460 72404 10160 20130 39971 40078 51012 60006 8623/ 90900=
07070,1996-10-15 12:00:00,16,1008,0.8,77,12,12000,14.816,,64.82,260,,,,,,,,,,,wg-a,,,,AAXX 15124 07070 12562 72608 10160 20120 39979 40080 51008 60006 8623/ 91200 333 91035=
07070,1996-10-15 15:00:00,15,1009.2,0.5,82,12,12000,11.112,,,270,,,,1,,,,,,1,wg-a,,,,AAXX 15154 07070 12562 72706 10150 20120 39984 40092 51005 60017 70186 86872 91500=
07070,1996-10-15 18:00:00,13,1011,1.7,82,10,15000,11.112,,,280,13.1,16.6,,,,,,,,1,wg-a,,,,AAXX 15184 07070 32765 72806 10130 20100 30001 40110 53017 70186 8257/ 91800 333 10166 20131=
07070,1996-10-15 21:00:00,11,1011.4,0.4,87,9,15000,11.112,,,330,,,,,,,,,,,wg-a,,,,AAXX 15214 07070 12765 73306 10110 20090 30005 40114 53004 60006 8253/ 92100=
07070,1996-10-16 00:00:00,10,1011.7,0.2,93,9,15000,3.704,,,220,,,,,,,,,,,wg-a,,,,AAXX 16004 07070 12665 72202 10100 20090 30007 40117 51002 60006 875// 90000=
07070,1996-10-16 03:00:00,10,1011.4,-0.3,87,8,11000,7.408,,,300,,,,,,,,,,,wg-a,,,,AAXX 16034 07070 12/61 /3004 10100 20080 30004 40114 58003 60006 90300=
07070,1996-10-16 06:00:00,9,1011.3,-0.1,93,8,10000,11.112,,,260,9,13,,,,,1,,,,wg-a,,,,AAXX 16064 07070 02760 72606 10090 20080 30003 40113 55001 60006 875// 90600 333 10130 20090 60014=
07070,1996-10-16 09:00:00,11,1011.2,0,76,7,12000,14.816,,,260,,,,,,,,,,,wg-a,,,,AAXX 16094 07070 12/62 72608 10110 20070 30003 40112 50000 60006 81072 90900=
07070,1996-10-16 12:00:00,14,1010.7,-0.4,55,5,15000,14.816,,,300,,,,,,,,,,,wg-a,,,,AAXX 16124 07070 12665 /3008 10140 20050 39999 40107 58004 60006 82102 91200=
07070,1996-10-16 15:00:00,14,1009.9,-0.8,58,6,20000,14.816,,,260,,,,,,,,,,,wg-a,,,,AAXX 16154 07070 12670 72608 10140 20060 39991 40099 55008 60006 82102 91500=
07070,1996-10-16 18:00:00,8,1010.3,0.2,87,6,15000,11.112,,,170,8.3,14.4,,,,,,,,,wg-a,,,,AAXX 16184 07070 12665 71706 10080 20060 39993 40103 52002 60006 81402 91800 333 10144 20083=
07070,1996-10-16 21:00:00,6,1010.2,-0.2,100,6,12000,11.112,,,180,,,,,,,,,,,wg-a,,,,AAXX 16214 07070 12762 71806 10060 20060 39991 40102 58002 60006 825/2 92100=
07070,1996-10-17 00:00:00,9,1009.5,-0.6,87,7,15000,7.408,,,190,,,,0,,,,,,21,wg-a,,,,AAXX 17004 07070 02665 71904 10090 20070 39985 40095 56006 60006 72162 85502 90000 333 60007=
07070,1996-10-17 03:00:00,7,1008.5,-1.1,93,6,15000,7.408,,,140,,,,,,,,,,,wg-a,,,,AAXX 17034 07070 12665 61404 10070 20060 39974 40085 58011 60006 84501 90300=
07070,1996-10-17 06:00:00,7,1008.3,-0.2,100,7,10000,7.408,,,170,6.3,8.8,,,,,,,,,wg-a,,,,AAXX 17064 07070 12760 71704 10070 20070 39972 40083 58002 60004 875// 90600 333 10088 20063=
07070,1996-10-17 09:00:00,9,1008.7,0.5,93,8,10000,3.704,,,130,,,,1,,,,,,3,wg-a,,,,AAXX 17094 07070 12360 71302 10090 20080 39977 40087 53005 60017 70382 878// 90900=
07070,1996-10-17 12:00:00,10,1008.8,0.2,93,9,9000,11.112,,,210,,,,0,,,,,,61,wg-a,,,,AAXX 17124 07070 02359 82106 10100 20090 39979 40088 52002 60016 76162 8687/ 91200 333 60007=
07070,1996-10-17 15:00:00,10,1009.4,0.6,93,9,7000,11.112,,,190,,,,0,,,,,,60,wg-a,,,,AAXX 17154 07070 12457 71906 10100 20090 39985 40094 53006 60007 76062 8687/ 91500=
07070,1996-10-17 18:00:00,9,1010.9,1.4,93,8,15000,7.408,,,250,7.1,10.9,,1,,,,,,60,wg-a,,,,AAXX 17184 07070 12465 72504 10090 20080 39999 40109 53014 60017 76062 878// 91800 333 10109 20071=
07070,1996-10-17 21:00:00,7,1012.5,1.5,100,7,15000,7.408,,,210,,,,,,,,,,1,wg-a,,,,AAXX 17214 07070 02665 62104 10070 20070 30014 40125 52015 61000 70161 83570 92100 333 ////=
07070,1996-10-18 00:00:00,8,1013,0.5,100,8,15000,7.408,,,190,,,,,,,,,,3,wg-a,,,,AAXX 18004 07070 02465 71904 10080 20080 30019 40130 53005 61000 70361 875// 90000 333 ////=
07070,1996-10-18 03:00:00,5,1013.5,0.4,100,5,10000,7.408,,,170,,,,,,,,,,,wg-a,,,,AAXX 18034 07070 12/60 11704 10050 20050 30023 40135 51004 60006 81070 90300=
07070,1996-10-18 06:00:00,7,1013.5,0.1,100,7,400,11.112,,,180,4.8,9.3,,,,,2,,,45,wg-a,,,,AAXX 18064 07070 12/04 91806 10070 20070 30024 40135 52001 60024 74541 89/// 90600 333 10093 20048=
07070,1996-10-18 09:00:00,8,1014.3,0.8,100,8,4500,18.52,,,170,,,,,,,,,,10,wg-a,,,,AAXX 18094 07070 12245 /1710 10080 20080 30032 40143 51008 60006 71041 81601 90900=
07070,1996-10-18 12:00:00,14,1012.7,-1.3,67,8,25000,22.224,,,190,,,,,,,,,,3,wg-a,,,,AAXX 18124 07070 12575 /1912 10140 20080 30019 40127 58013 60006 70341 81101 91200=
07070,1996-10-18 15:00:00,13,1011.4,-1.4,62,6,25000,22.224,,,190,,,,,,,,,,,wg-a,,,,AAXX 18154 07070 12575 71912 10130 20060 30005 40114 56014 60006 8683/ 91500=
07070,1996-10-18 18:00:00,12,1011.1,-0.3,82,9,10000,18.52,,,210,6.3,15.1,,0,,,,,,21,wg-a,,,,AAXX 18184 07070 12560 82110 10120 20090 30002 40111 55003 60007 72162 875// 91800 333 10151 20063=
07070,1996-10-18 21:00:00,11,1012,0.8,94,10,10000,14.816,,,230,,,,,,,,,,1,wg-a,,,,AAXX 18214 07070 02460 72308 10110 20100 30010 40120 53008 61000 70162 85502 92100 333 ////=
07070,1996-10-19 00:00:00,12,1012.1,0.2,94,11,10000,22.224,,,250,,,,0,,,,,,3,wg-a,,,,AAXX 19004 07070 02460 /2512 10120 20110 30012 40121 53002 60006 70362 86500 90000 333 60007=
07070,1996-10-19 03:00:00,12,1013,0.9,88,10,8000,22.224,,,250,,,,,,,,,,1,wg-a,,,,AAXX 19034 07070 12458 /2512 10120 20100 30021 40130 53009 60006 70181 81500 90300=
07070,1996-10-19 06:00:00,12,1014.7,1.7,88,10,10000,25.928,,,260,10.6,12.6,,0,,,1,,,3,wg-a,,,,AAXX 19064 07070 02460 72614 10120 20100 30038 40147 53017 60014 70381 878// 90600 333 10126 20106 60007=
07070,1996-10-19 09:00:00,13,1018.7,4,82,10,12000,25.928,,,290,,,,,,,,,,3,wg-a,,,,AAXX 19094 07070 02462 /2914 10130 20100 30078 40187 53040 61000 70362 86100 90900 333 ////=
07070,1996-10-19 12:00:00,15,1021,2.3,63,8,15000,22.224,,,300,,,,,,,,,,1,wg-a,,,,AAXX 19124 07070 02565 /3012 10150 20080 30101 40210 51023 61000 70162 85200 91200 333 ////=
07070,1996-10-19 15:00:00,15,1022.6,1.6,63,8,15000,25.928,,,300,,,,,,,,,,25,wg-a,,,,AAXX 19154 07070 02665 53014 10150 20080 30117 40226 51016 61000 72582 82201 91500 333 ////=
07070,1996-10-19 18:00:00,11,1024.6,1.8,82,8,15000,14.816,,,250,11.3,16.1,,,,,,,,1,wg-a,,,,AAXX 19184 07070 32765 32508 10110 20080 30135 40246 53018 70181 814/1 91800 333 10161 20113=
07070,1996-10-19 21:00:00,11,1025.7,1.1,87,9,15000,11.112,,,210,,,,,,,,,,,wg-a,,,,AAXX 19214 07070 12/65 72106 10110 20090 30146 40257 51011 60006 8707/ 92100=
07070,1996-10-20 00:00:00,12,1025.5,-0.2,88,10,10000,14.816,,,240,,,,,,,,,,61,wg-a,,,,AAXX 20004 07070 32/60 82408 10120 20100 30144 40255 57002 76162 8807/ 90000=
07070,1996-10-20 06:00:00,12,1024.2,0.1,88,10,10000,18.52,,,240,,,,,,,,,,,wg-a,,,,AAXX 20064 07070 32560 82410 10120 20100 30132 40242 53001 875// 90600=
07070,1996-10-20 12:00:00,15,1023.8,-0.7,77,11,12000,22.224,,,250,,,,,,,,,,,wg-a,,,,AAXX 20124 07070 12562 72512 10150 20110 30129 40238 58007 60006 85232 91200=
07070,1996-10-20 15:00:00,15,1022.3,-1.5,77,11,15000,11.112,,,220,,,,,,,,,,,wg-a,,,,AAXX 20154 07070 12765 72206 10150 20110 30114 40223 56015 60006 8257/ 91500=
07070,1996-10-20 18:00:00,13,1021.9,-0.5,88,11,12000,14.816,,,210,12.3,15.2,,,,,,,,21,wg-a,,,,AAXX 20184 07070 02762 82108 10130 20110 30109 40219 58005 61000 72162 8452/ 91800 333 10152 20123 ////=
07070,1996-10-20 21:00:00,14,1020,-1.8,82,11,15000,14.816,,,210,,,,0,,,,,,3,wg-a,,,,AAXX 20214 07070 12665 82108 10140 20110 30091 40200 58018 60007 70362 8552/ 92100=
07070,1996-10-21 00:00:00,15,1018.3,-1.7,82,12,15000,18.52,,,240,,,,,,,,,,60,wg-a,,,,AAXX 21004 07070 02665 82410 10150 20120 30074 40183 56017 60006 76062 885// 90000 333 61000=
07070,1996-10-21 03:00:00,14,1017.1,-1.2,94,13,10000,18.52,,,250,,,,0,,,,,,3,wg-a,,,,AAXX 21034 07070 12460 82510 10140 20130 30062 40171 56012 60007 70362 885// 90300=
07070,1996-10-21 06:00:00,15,1017.4,0.4,94,14,8000,22.224,,,270,13,15.5,,,,,,,,3,wg-a,,,,AAXX 21064 07070 12358 82712 10150 20140 30066 40174 51004 60004 70362 878// 90600 333 10155 20130=
07070,1996-10-21 09:00:00,16,1019.4,2,94,15,20000,22.224,,,310,,,,2,,,,,,20,wg-a,,,,AAXX 21094 07070 12470 53112 10160 20150 30086 40194 52020 60027 72065 85200 90900=
07070,1996-10-21 12:00:00,17,1020.5,1.1,77,13,500,22.224,,,320,,,,,,,,,,1,wg-a,,,,AAXX 21124 07070 12500 63212 10170 20130 30097 40205 53011 60026 70165 86800 91200=
07070,1996-10-21 15:00:00,16,1022.2,1.6,68,10,500,18.52,,,340,,,,,,,,,,,wg-a,,,,AAXX 21154 07070 12500 /3410 10160 20100 30113 40222 53016 60006 81130 91500=
07070,1996-10-21 18:00:00,11,1024.4,2,87,9,10000,7.408,,,310,11.2,17.7,,,,,,,,,wg-a,,,,AAXX 21184 07070 32/60 43104 10110 20090 30133 40244 53020 80001 91800 333 10177 20112=
07070,1996-10-21 21:00:00,9,1025.7,1.2,93,8,10000,0,,,0,,,,,,,,,,,wg-a,,,,AAXX 21214 07070 12/60 40000 10090 20080 30145 40257 51012 60006 83032 92100=
07070,1996-10-22 00:00:00,6,1026.2,0.4,93,5,6000,0,,,0,,,,,,,,,,,wg-a,,,,AAXX 22004 07070 12/56 /0000 10060 20050 30149 40262 51004 60006 81030 90000=
07070,1996-10-22 03:00:00,3,1026.4,0.1,100,3,500,3.704,,,100,,,,,,,,,,45,wg-a,,,,AAXX 22034 07070 12/00 91002 10030 20030 30150 40264 50001 60006 74541 89/// 90300=
07070,1996-10-22 06:00:00,3,1026.9,0.5,100,3,100,0,,,0,2.8,11.1,,0,,,2,,,42,wg-a,,,,AAXX 22064 07070 02001 90000 10030 20030 30155 40269 53005 60024 74241 8963/ 90600 333 10111 20028 60007=
07070,1996-10-22 09:00:00,6,1027.8,1,100,6,100,3.704,,,50,,,,,,,,,,43,wg-a,,,,AAXX 22094 07070 12/01 90502 10060 20060 30165 40278 51010 60006 74344 89/// 90900=
07070,1996-10-22 12:00:00,12,1026.4,-1.4,100,12,8000,3.704,,,140,,,,,,,,,,3,wg-a,,,,AAXX 22124 07070 12/58 /1402 10120 20120 30153 40264 58014 60006 70341 80001 91200=
07070,1996-10-22 15:00:00,15,1025.2,-1,72,10,10000,7.408,,,80,,,,,,,,,,,wg-a,,,,AAXX 22154 07070 12/60 50804 10150 20100 30143 40252 58010 60006 80001 91500=
07070,1996-10-22 18:00:00,9,1025.6,0.1,93,8,8000,11.112,,,110,2.9,15.2,,,,,,,,,wg-a,,,,AAXX 22184 07070 12/58 /1106 10090 20080 30144 40256 53001 60006 80005 91800 333 10152 20029=
07070,1996-10-22 21:00:00,6,1025.4,-0.3,93,5,8000,7.408,,,90,,,,,,,,,,,wg-a,,,,AAXX 22214 07070 12/58 /0904 10060 20050 30141 40254 58003 60006 80001 92100=
07070,1996-10-23 00:00:00,5,1025.2,-0.2,100,5,7000,11.112,,,100,,,,,,,,,,,wg-a,,,,AAXX 23004 07070 12/57 /1006 10050 20050 30139 40252 58002 60006 80001 90000=
07070,1996-10-23 03:00:00,4,1025,-0.3,93,3,7000,7.408,,,120,,,,,,,,,,,wg-a,,,,AAXX 23034 07070 12/57 71204 10040 20030 30136 40250 57003 60006 80001 90300=
07070,1996-10-23 06:00:00,3,1024.6,-0.4,100,3,500,7.408,,,80,3,9,,,,,,,,11,wg-a,,,,AAXX 23064 07070 12/00 20804 10030 20030 30132 40246 56004 60006 71111 80001 90600 333 10090 20030=
07070,1996-10-23 12:00:00,15,1023.1,-1.4,67,9,12000,18.52,,,100,,,,,,,,,,,wg-a,,,,AAXX 23124 07070 12/62 71010 10150 20090 30122 40231 58014 60006 80001 91200=
07070,1996-10-23 15:00:00,15,1022.2,-0.9,59,7,15000,18.52,,,100,,,,,,,,,,,wg-a,,,,AAXX 23154 07070 12/65 71010 10150 20070 30113 40222 56009 60006 80001 91500=
07070,1996-10-23 18:00:00,9,1022.8,0.3,81,6,10000,14.816,,,120,2.9,15.7,,,,,,,,,wg-a,,,,AAXX 23184 07070 32/60 51208 10090 20060 30116 40228 53003 80001 91800 333 10157 20029=
07070,1996-10-23 21:00:00,6,1022.4,-0.5,93,5,12000,11.112,,,100,,,,,,,,,,,wg-a,,,,AAXX 23214 07070 12/62 01006 10060 20050 30111 40224 57005 60006 80000 92100=
07070,1996-10-24 00:00:00,5,1022,-0.4,93,4,10000,7.408,,,80,,,,,,,,,,,wg-a,,,,AAXX 24004 07070 12/60 00804 10050 20040 30107 40220 58004 60006 80000 90000=
07070,1996-10-24 03:00:00,5,1021.7,-0.3,93,4,10000,7.408,,,110,,,,,,,,,,,wg-a,,,,AAXX 24034 07070 12/60 01104 10050 20040 30104 40217 55003 60006 80000 90300=
07070,1996-10-24 06:00:00,3,1021.7,-0.1,93,2,10000,7.408,,,110,2.8,8.8,,,,,,,,,wg-a,,,,AAXX 24064 07070 12/60 31104 10030 20020 30103 40217 57001 60006 80001 90600 333 10088 20028=
07070,1996-10-24 09:00:00,10,1021.5,0.1,82,7,10000,14.816,,,100,,,,,,,,,,,wg-a,,,,AAXX 24094 07070 12/60 71008 10100 20070 30104 40215 50001 60006 80002 90900=
07070,1996-10-24 12:00:00,16,1020.1,-1.2,63,9,12000,14.816,,,120,,,,,,,,,,,wg-a,,,,AAXX 24124 07070 12/62 71208 10160 20090 30092 40201 58012 60006 80002 91200=
07070,1996-10-24 15:00:00,17,1018.9,-1.1,63,10,10000,18.52,,,120,,,,,,,,,,,wg-a,,,,AAXX 24154 07070 12/60 71210 10170 20100 30081 40189 56011 60006 80002 91500=
07070,1996-10-24 18:00:00,12,1019.1,-0,82,9,6000,7.408,,,130,2.8,17.2,,,,,,,,,wg-a,,,,AAXX 24184 07070 12/56 71304 10120 20090 30081 40191 55000 60006 80002 91800 333 10172 20028=
07070,1996-10-24 21:00:00,8,1019.3,0.1,100,8,500,3.704,,,90,,,,,,,,,,,wg-a,,,,AAXX 24214 07070 12/00 70902 10080 20080 30082 40193 53001 60006 80002 92100=
07070,1996-10-25 00:00:00,7,1018.9,-0.5,93,6,4500,3.704,,,70,,,,,,,,,,10,wg-a,,,,AAXX 25004 07070 12/45 70702 10070 20060 30077 40189 58005 60006 71022 81032 90000=
07070,1996-10-25 03:00:00,9,1018.7,-0.1,93,8,4000,7.408,,,190,,,,,,,,,,10,wg-a,,,,AAXX 25034 07070 12/40 71904 10090 20080 30076 40187 55001 60006 71022 81032 90300=
07070,1996-10-25 06:00:00,7,1018.8,-0,100,7,400,3.704,,,270,6.8,11.4,,,,,,,,44,wg-a,,,,AAXX 25064 07070 12/04 62702 10070 20070 30076 40188 55000 60006 74442 82031 90600 333 10114 20068=
07070,1996-10-25 09:00:00,13,1019.5,0.9,88,11,2500,11.112,,,180,,,,,,,,,,10,wg-a,,,,AAXX 25094 07070 12/25 41806 10130 20110 30085 40195 53009 60006 71041 84031 90900=
07070,1996-10-25 12:00:00,17,1020.3,1,77,13,6000,25.928,,,260,,,,,,,,,,3,wg-a,,,,AAXX 25124 07070 12456 72614 10170 20130 30095 40203 51010 60006 70341 878// 91200=
07070,1996-10-25 18:00:00,12,1022.3,1.2,94,11,8000,11.112,,,220,6,17.5,,,,,,,,1,wg-a,,,,AAXX 25184 07070 32758 /2206 10120 20110 30113 40223 53012 70162 81500 91800 333 10175 20060=
07070,1996-10-26 00:00:00,11,1023.5,0.4,94,10,10000,11.112,,,220,,,,,,,,,,,wg-a,,,,AAXX 26004 07070 12/60 22206 10110 20100 30124 40235 52004 60006 80001 90000=
07070,1996-10-26 06:00:00,9,1023.8,0.1,93,8,10000,11.112,,,190,7.5,13.1,,,,,,,,,wg-a,,,,AAXX 26064 07070 02460 71906 10090 20080 30127 40238 53001 60006 8483/ 90600 333 10131 20075 61000=
07070,1996-10-26 12:00:00,14,1025.3,-0.1,72,9,15000,18.52,,,240,,,,,,,,,,,wg-a,,,,AAXX 26124 07070 12565 72410 10140 20090 30143 40253 57001 60006 878// 91200=
07070,1996-10-26 15:00:00,14,1024.8,-0.5,77,10,15000,11.112,,,270,,,,,,,,,,25,wg-a,,,,AAXX 26154 07070 02565 72706 10140 20100 30138 40248 56005 61000 72582 878// 91500 333 ////=
07070,1996-10-26 18:00:00,12,1025.3,0.4,88,10,10000,7.408,,,220,9.1,14.9,,,,,,,,1,wg-a,,,,AAXX 26184 07070 12460 72204 10120 20100 30142 40253 53004 60006 70182 874// 91800 333 10149 20091=
07070,1996-10-26 21:00:00,9,1025.6,0.2,100,9,6000,11.112,,,220,,,,,,,,,,,wg-a,,,,AAXX 26214 07070 12/56 72206 10090 20090 30144 40256 51002 60006 80002 92100=
07070,1996-10-27 00:00:00,7,1025.2,-0.4,100,7,8000,11.112,,,210,,,,,,,,,,,wg-a,,,,AAXX 27004 07070 12/58 22106 10070 20070 30140 40252 57004 60006 81032 90000=
07070,1996-10-27 03:00:00,7,1024.2,-1,100,7,8000,11.112,,,190,,,,0,,,,,,,wg-a,,,,AAXX 27034 07070 12758 71906 10070 20070 30130 40242 58010 60007 83502 90300=
07070,1996-10-27 06:00:00,8,1023.1,-1.1,93,7,12000,18.52,,,180,6.1,11.8,,,,,,,,,wg-a,,,,AAXX 27064 07070 12/62 71810 10080 20070 30119 40231 58011 60004 82032 90600 333 10118 20061=
07070,1996-10-27 09:00:00,10,1022.4,-0.6,93,9,8000,18.52,,,210,,,,,,,,,,,wg-a,,,,AAXX 27094 07070 12258 72110 10100 20090 30113 40224 58006 60006 876// 90900=
07070,1996-10-27 12:00:00,14,1020.1,-2.1,82,11,15000,18.52,,,210,,,,,,,,,,,wg-a,,,,AAXX 27124 07070 12465 82110 10140 20110 30092 40201 58021 60006 875// 91200=
07070,1996-10-27 15:00:00,15,1017.7,-2.3,77,11,20000,25.928,,,220,,,,,,,,,,,wg-a,,,,AAXX 27154 07070 12570 82214 10150 20110 30069 40177 56023 60006 8487/ 91500=
07070,1996-10-27 18:00:00,15,1017.6,-0.1,77,11,15000,22.224,,,220,7.6,15.2,,,,,,,,,wg-a,,,,AAXX 27184 07070 12565 72212 10150 20110 30068 40176 57001 60006 8157/ 91800 333 10152 20076=
07070,1996-10-27 21:00:00,15,1016.8,-0.9,77,11,20000,22.224,,,230,,,,,,,,,,,wg-a,,,,AAXX 27214 07070 12770 72312 10150 20110 30059 40168 56009 60006 8557/ 92100=
07070,1996-10-28 00:00:00,14,1016,-0.8,82,11,20000,18.52,,,250,,,,,,,,,,,wg-a,,,,AAXX 28004 07070 12770 72510 10140 20110 30051 40160 58008 60006 81531 90000=
07070,1996-10-28 03:00:00,12,1014.5,-1.5,88,10,15000,18.52,,,220,,,,,,,,,,,wg-a,,,,AAXX 28034 07070 12465 32210 10120 20100 30036 40145 58015 60006 82130 90300=
07070,1996-10-28 06:00:00,12,1012.8,-1.7,88,10,12000,22.224,,,230,11.3,15.1,,,,,,,,,wg-a,,,,AAXX 28064 07070 12562 52312 10120 20100 30019 40128 56017 60006 82431 90600 333 10151 20113=
07070,1996-10-28 09:00:00,13,1011.1,-1.6,82,10,10000,29.632,,,220,,,,,,,,,,,wg-a,,,,AAXX 28094 07070 12460 72216 10130 20100 30003 40111 58016 60006 8657/ 90900=
07070,1996-10-28 12:00:00,14,1009.6,-1.5,88,12,8000,22.224,,42.596,210,,,,,,,,,,2,wg-a,,,,AAXX 28124 07070 02458 82112 10140 20120 39988 40096 58015 61000 70262 8557/ 91200 333 6100 91023=
07070,1996-10-28 15:00:00,16,1007.7,-1.8,77,12,11000,31.484,,53.708,220,,,,,,,,,,,wg-a,,,,AAXX 28154 07070 02/61 /2217 10160 20120 39970 40077 56018 61000 91500 333 //// 91029=
07070,1996-10-28 18:00:00,15,1006.1,-1.6,82,12,12000,25.928,,46.3,220,11.6,15.7,,,,,,,,1,wg-a,,,,AAXX 28184 07070 32562 42214 10150 20120 39954 40061 56016 70161 84200 91800 333 10157 20116 91025=
07070,1996-10-28 21:00:00,14,1005,-1.1,67,8,15000,35.188,,53.708,230,,,,,,,,,,,wg-a,,,,AAXX 28214 07070 12665 72319 10140 20080 39943 40050 56011 60006 8487/ 92100 333 91029=
07070,1996-10-29 00:00:00,14,1002.9,-2.2,63,7,15000,42.596,,64.82,230,,,,,,,,,,,wg-a,,,,AAXX 29004 07070 12665 72323 10140 20070 39921 40029 58022 60006 878// 90000 333 91035=
07070,1996-10-29 06:00:00,11,1002.2,1.2,87,9,10000,42.596,,64.82,250,11.1,15.4,,1,,,1,,,61,wg-a,,,,AAXX 29064 07070 02560 82523 10110 20090 39914 40022 53012 60014 76162 878// 90600 333 10154 20111 60017 91035=
07070,1996-10-29 09:00:00,11,1006.2,3.9,94,10,12000,35.188,,,260,,,,2,,,,,,21,wg-a,,,,AAXX 29094 07070 12462 82619 10110 20100 39953 40062 53039 60027 72162 882// 90900=
07070,1996-10-29 12:00:00,11,1010.6,4.4,94,10,500,29.632,,50.004,310,,,,3,,,,,,61,wg-a,,,,AAXX 29124 07070 02400 83116 10110 20100 39997 40106 51044 60046 76162 888// 91200 333 60037 91027=
07070,1996-10-29 15:00:00,10,1015.3,4.6,87,8,12000,18.52,,,320,,,,1,,,,,,21,wg-a,,,,AAXX 29154 07070 12462 73210 10100 20080 30043 40153 51046 60017 72162 84832 91500=
07070,1996-10-29 18:00:00,7,1019.8,4.3,87,5,15000,14.816,,,300,7.4,11.6,,,,,,,,1,wg-a,,,,AAXX 29184 07070 32565 /3008 10070 20050 30086 40198 53043 70161 81400 91800 333 10116 20074=
07070,1996-10-29 21:00:00,5,1022.4,2.5,87,3,15000,7.408,,,260,,,,,,,,,,,wg-a,,,,AAXX 29214 07070 12765 62604 10050 20030 30111 40224 51025 60006 86500 92100=
07070,1996-10-30 00:00:00,5,1024.6,2.2,87,3,15000,11.112,,,250,,,,,,,,,,,wg-a,,,,AAXX 30004 07070 12765 52506 10050 20030 30133 40246 51022 60006 85500 90000=
07070,1996-10-30 03:00:00,6,1025.4,0.8,87,4,15000,3.704,,,290,,,,,,,,,,,wg-a,,,,AAXX 30034 07070 12765 72902 10060 20040 30141 40254 51008 60006 875// 90300=
07070,1996-10-30 06:00:00,5,1026.7,1.3,93,4,12000,11.112,,,260,5,7.4,,,,,5,,,,wg-a,,,,AAXX 30064 07070 02662 72606 10050 20040 30154 40267 51013 60006 875// 90600 333 10074 20050 60054=
07070,1996-10-30 09:00:00,7,1028.9,2.2,87,5,10000,7.408,,,250,,,,,,,,,,,wg-a,,,,AAXX 30094 07070 12660 82504 10070 20050 30176 40289 51022 60006 875// 90900=
07070,1996-10-30 12:00:00,9,1029.4,0.6,76,5,12000,14.816,,,250,,,,,,,,,,,wg-a,,,,AAXX 30124 07070 12662 72508 10090 20050 30182 40294 50006 60006 875// 91200=
07070,1996-10-30 15:00:00,10,1029.4,-0,76,6,20000,11.112,,,260,,,,,,,,,,,wg-a,,,,AAXX 30154 07070 12670 82606 10100 20060 30182 40294 54000 60006 875// 91500=
07070,1996-10-30 18:00:00,9,1029.8,0.4,76,5,20000,11.112,,,240,5.2,9.9,,,,,,,,,wg-a,,,,AAXX 30184 07070 12670 72406 10090 20050 30186 40298 53004 60006 875// 91800 333 10099 20052=
07070,1996-10-30 21:00:00,9,1029,-0.8,81,6,15000,14.816,,,210,,,,,,,,,,,wg-a,,,,AAXX 30214 07070 12765 72108 10090 20060 30178 40290 58008 60006 82531 92100=
07070,1996-10-31 00:00:00,8,1028.8,-0.3,81,5,15000,14.816,,,250,,,,,,,,,,,wg-a,,,,AAXX 31004 07070 12765 72508 10080 20050 30175 40288 58003 60006 875// 90000=
07070,1996-10-31 03:00:00,8,1027.4,-1.4,76,4,15000,14.816,,,230,,,,,,,,,,,wg-a,,,,AAXX 31034 07070 12765 72308 10080 20040 30161 40274 57014 60006 875// 90300=
07070,1996-10-31 06:00:00,3,1026.7,-0.8,87,1,15000,7.408,,,180,2.9,9.1,,,,,,,,,wg-a,,,,AAXX 31064 07070 12/65 71804 10030 20010 30153 40267 57008 60006 80002 90600 333 10091 20029=
07070,1996-10-31 09:00:00,8,1026,-0.5,76,4,10000,14.816,,,200,,,,,,,,,,,wg-a,,,,AAXX 31094 07070 12760 72008 10080 20040 30148 40260 58005 60006 81532 90900=
07070,1996-10-31 12:00:00,10,1023.7,-2.2,66,4,25000,22.224,,,220,,,,,,,,,,,wg-a,,,,AAXX 31124 07070 12675 72212 10100 20040 30126 40237 57022 60006 8653/ 91200=
07070,1996-10-31 15:00:00,9,1020.8,-2.9,81,6,8000,14.816,,,200,,,,1,,,,,,21,wg-a,,,,AAXX 31154 07070 12558 72008 10090 20060 30097 40208 56029 60017 72162 8257/ 91500=
07070,1996-10-31 18:00:00,9,1019.3,-1.5,93,8,8000,29.632,,,220,1.9,10.6,,0,,,,,,50,wg-a,,,,AAXX 31184 07070 12458 82216 10090 20080 30082 40193 56015 60007 75065 875// 91800 333 10106 20019=
07070,1996-10-31 21:00:00,11,1017.8,-1.4,94,10,7000,29.632,,,240,,,,1,,,,,,51,wg-a,,,,AAXX 31214 07070 12457 82416 10110 20100 30068 40178 56014 60017 75165 877// 92100=
07070,1996-11-01 00:00:00,13,1017.3,-0.4,88,11,10000,25.928,,,250,,,,,,,,,,1,wg-a,,,,AAXX 01004 07070 02460 82514 10130 20110 30064 40173 56004 60016 70165 875// 90000 333 61000=
07070,1996-11-01 03:00:00,13,1018.6,1.3,94,12,10000,31.484,,,270,,,,,,,,,,20,wg-a,,,,AAXX 01034 07070 02460 82717 10130 20120 30077 40186 53013 61000 72052 877// 90300 333 ////=
07070,1996-11-01 06:00:00,13,1021.5,2.8,94,12,6000,29.632,,,270,9.2,13.1,,0,,,2,,,20,wg-a,,,,AAXX 01064 07070 02456 82716 10130 20120 30105 40215 51028 60024 72052 875// 90600 333 10131 20092 60007=
07070,1996-11-01 09:00:00,13,1024.6,3.1,94,12,12000,25.928,,,260,,,,,,,,,,3,wg-a,,,,AAXX 01094 07070 12462 72614 10130 20120 30136 40246 51031 60006 70352 878// 90900=
07070,1996-11-01 12:00:00,15,1026.3,1.8,77,11,12000,22.224,,,300,,,,,,,,,,,wg-a,,,,AAXX 01124 07070 12562 73012 10150 20110 30154 40263 51018 60006 878// 91200=
07070,1996-11-01 15:00:00,16,1026.6,0.3,68,10,12000,18.52,,,260,,,,,,,,,,,wg-a,,,,AAXX 01154 07070 12662 42610 10160 20100 30157 40266 53003 60006 84400 91500=
07070,1996-11-01 18:00:00,13,1028.1,1.4,88,11,12000,11.112,,,250,12.6,15.7,,,,,,,,,wg-a,,,,AAXX 01184 07070 12562 72506 10130 20110 30171 40281 53014 60006 874// 91800 333 10157 20126=
07070,1996-11-01 21:00:00,13,1029,0.9,88,11,10000,14.816,,,230,,,,,,,,,,,wg-a,,,,AAXX 01214 07070 12560 82308 10130 20110 30180 40290 51009 60006 885// 92100=
07070,1996-11-02 00:00:00,13,1029.4,0.3,94,12,6000,11.112,,,230,,,,,,,,,,,wg-a,,,,AAXX 02004 07070 12356 82306 10130 20120 30183 40294 51003 60006 887// 90000=
07070,1996-11-02 03:00:00,12,1029,-0.4,94,11,8000,11.112,,,240,,,,,,,,,,,wg-a,,,,AAXX 02034 07070 12658 72406 10120 20110 30179 40290 56004 60006 875// 90300=
07070,1996-11-02 06:00:00,13,1028.5,-0.5,88,11,10000,11.112,,,230,12.1,13.5,,,,,,,,,wg-a,,,,AAXX 02064 07070 12560 82306 10130 20110 30174 40285 56005 60006 885// 90600 333 10135 20121=
07070,1996-11-02 09:00:00,13,1029.2,0.8,82,10,20000,22.224,,,230,,,,,,,,,,,wg-a,,,,AAXX 02094 07070 12570 82312 10130 20100 30182 40292 51008 60006 885// 90900=
07070,1996-11-02 12:00:00,14,1028.6,-0.6,82,11,20000,18.52,,,230,,,,,,,,,,,wg-a,,,,AAXX 02124 07070 12470 82310 10140 20110 30176 40286 58006 60006 888// 91200=
07070,1996-11-02 15:00:00,14,1027.9,-0.7,82,11,20000,18.52,,,220,,,,,,,,,,,wg-a,,,,AAXX 02154 07070 12470 82210 10140 20110 30169 40279 57007 60006 888// 91500=
07070,1996-11-02 18:00:00,13,1028.7,0.8,82,10,15000,22.224,,,230,12.5,14.2,,,,,,,,,wg-a,,,,AAXX 02184 07070 12565 72312 10130 20100 30177 40287 53008 60006 875// 91800 333 10142 20125=
07070,1996-11-02 21:00:00,13,1028,-0.7,82,10,15000,18.52,,,210,,,,,,,,,,,wg-a,,,,AAXX 02214 07070 12665 72110 10130 20100 30170 40280 58007 60006 875// 92100=
07070,1996-11-03 00:00:00,13,1027.1,-0.9,88,11,7000,22.224,,,230,,,,,,,,,,,wg-a,,,,AAXX 03004 07070 12557 72312 10130 20110 30161 40271 58009 60006 875// 90000=
07070,1996-11-03 06:00:00,12,1025,-0.3,88,10,500,22.224,,,230,12.2,13.3,,,,,,,,,wg-a,,,,AAXX 03064 07070 12400 72312 10120 20100 30140 40250 58003 60006 875// 90600 333 10133 20122=
07070,1996-11-03 09:00:00,12,1024.9,-0.1,88,10,10000,18.52,,,230,,,,,,,,,,,wg-a,,,,AAXX 03094 07070 12460 72310 10120 20100 30139 40249 57001 60006 875// 90900=
07070,1996-11-03 12:00:00,12,1024.4,-0.5,88,10,10000,22.224,,,250,,,,,,,,,,,wg-a,,,,AAXX 03124 07070 12460 82512 10120 20100 30134 40244 57005 60006 885// 91200=
07070,1996-11-03 15:00:00,13,1022.6,-1.8,88,11,15000,29.632,,,230,,,,,,,,,,,wg-a,,,,AAXX 03154 07070 12465 72316 10130 20110 30116 40226 56018 60006 875// 91500=
07070,1996-11-03 18:00:00,13,1022.2,-0.4,88,11,8000,22.224,,,230,12,13.3,,,,,,,,,wg-a,,,,AAXX 03184 07070 12458 82312 10130 20110 30112 40222 56004 60006 885// 91800 333 10133 20120=
07070,1996-11-03 21:00:00,13,1021.5,-0.7,88,11,10000,14.816,,,210,,,,,,,,,,,wg-a,,,,AAXX 03214 07070 12460 82108 10130 20110 30105 40215 58007 60006 888// 92100=
07070,1996-11-04 00:00:00,13,1019.5,-2,88,11,10000,14.816,,,180,,,,,,,,,,,wg-a,,,,AAXX 04004 07070 12460 71808 10130 20110 30085 40195 58020 60006 875// 90000=
07070,1996-11-04 03:00:00,13,1017.3,-2.1,82,10,10000,14.816,,,200,,,,,,,,,,,wg-a,,,,AAXX 04034 07070 12460 82008 10130 20100 30064 40173 56021 60006 886// 90300=
07070,1996-11-04 06:00:00,12,1014.6,-2.7,88,10,10000,29.632,,,200,12.1,12.9,,,,,,,,,wg-a,,,,AAXX 04064 07070 12460 72016 10120 20100 30037 40146 58027 60006 875// 90600 333 10129 20121=
07070,1996-11-04 09:00:00,12,1012.8,-1.8,88,10,12000,29.632,,,210,,,,,,,,,,,wg-a,,,,AAXX 04094 07070 12462 82116 10120 20100 30019 40128 58018 60006 875// 90900=
07070,1996-11-04 12:00:00,12,1010.2,-2.6,88,10,12000,22.224,,,210,,,,,,,,,,,wg-a,,,,AAXX 04124 07070 12462 82112 10120 20100 39993 40102 58026 60006 875// 91200=
07070,1996-11-04 15:00:00,12,1007.8,-2.3,88,10,8000,25.928,,,190,,,,,,,,,,,wg-a,,,,AAXX 04154 07070 12458 81914 10120 20100 39970 40078 58023 60006 875// 91500=
07070,1996-11-04 18:00:00,12,1005.3,-2.5,94,11,6000,22.224,,,200,11.9,12.5,,1,,,,,,61,wg-a,,,,AAXX 04184 07070 12456 82012 10120 20110 39945 40053 56025 60017 76162 875// 91800 333 10125 20119=
07070,1996-11-04 21:00:00,13,1004.3,-1,88,11,8000,29.632,,50.004,220,,,,1,,,,,,61,wg-a,,,,AAXX 04214 07070 12458 82216 10130 20110 39935 40043 55010 60017 76166 875// 92100 333 91027=
07070,1996-11-05 00:00:00,13,1004.7,0.4,82,10,12000,29.632,,,240,,,,0,,,,,,1,wg-a,,,,AAXX 05004 07070 02462 72416 10130 20100 39939 40047 53004 60026 70162 8657/ 90000 333 60007=
07070,1996-11-05 03:00:00,11,1005.2,0.4,87,9,12000,25.928,,,230,,,,,,,,,,,wg-a,,,,AAXX 05034 07070 12562 72314 10110 20090 39943 40052 52004 60006 8453/ 90300=
07070,1996-11-05 06:00:00,10,1006.9,1.7,82,7,15000,29.632,,,240,9.5,12.8,,,,,3,,,,wg-a,,,,AAXX 05064 07070 12565 72416 10100 20070 39960 40069 52017 60034 875// 90600 333 10128 20095=
07070,1996-11-05 09:00:00,10,1010.6,3.6,87,8,12000,25.928,,,240,,,,,,,,,,25,wg-a,,,,AAXX 05094 07070 02462 72414 10100 20080 39996 40106 51036 61000 72582 878// 90900 333 ////=
07070,1996-11-05 12:00:00,10,1013.6,3,82,7,10000,35.188,,,280,,,,0,,,,,,25,wg-a,,,,AAXX 05124 07070 02560 62819 10100 20070 30026 40136 52030 60006 72582 86800 91200 333 60007=
07070,1996-11-05 15:00:00,12,1016.3,2.7,54,3,15000,29.632,,,290,,,,0,,,,,,1,wg-a,,,,AAXX 05154 07070 12665 32916 10120 20030 30053 40163 53027 60007 70181 82801 91500=
07070,1996-11-05 18:00:00,7,1019.6,3.1,81,4,15000,14.816,,,230,7.4,11.7,,,,,,,,1,wg-a,,,,AAXX 05184 07070 32/65 12308 10070 20040 30084 40196 51031 70181 80001 91800 333 10117 20074=
07070,1996-11-05 21:00:00,6,1020.7,1,81,3,12000,14.816,,,230,,,,,,,,,,,wg-a,,,,AAXX 05214 07070 12/62 02308 10060 20030 30094 40207 52010 60006 80000 92100=
07070,1996-11-06 00:00:00,6,1019.6,-1,75,2,12000,14.816,,,220,,,,,,,,,,,wg-a,,,,AAXX 06004 07070 12/62 02208 10060 20020 30084 40196 58010 60006 80000 90000=
07070,1996-11-06 03:00:00,8,1017.2,-2.3,76,4,15000,22.224,,,220,,,,,,,,,,,wg-a,,,,AAXX 06034 07070 12/65 52212 10080 20040 30061 40172 58023 60006 80001 90300=
07070,1996-11-06 06:00:00,9,1015,-2.2,87,7,10000,29.632,,,220,4.9,9.8,,,,,,,,,wg-a,,,,AAXX 06064 07070 02460 82216 10090 20070 30039 40150 56022 60006 875// 90600 333 10098 20049 60004=
07070,1996-11-06 09:00:00,11,1013.5,-1.4,87,9,12000,35.188,,53.708,220,,,,,,,,,,,wg-a,,,,AAXX 06094 07070 12462 72219 10110 20090 30025 40135 57014 60006 875// 90900 333 91029=
07070,1996-11-06 12:00:00,13,1012.1,-1.3,88,11,9000,38.892,,53.708,230,,,,,,,,,,50,wg-a,,,,AAXX 06124 07070 02459 72321 10130 20110 30012 40121 58013 61000 75052 875// 91200 333 6100 91029=
07070,1996-11-06 15:00:00,14,1010.6,-1.4,88,12,10000,38.892,,,220,,,,0,,,,,,51,wg-a,,,,AAXX 06154 07070 12460 72221 10140 20120 39998 40106 56014 60007 75165 875// 91500=
07070,1996-11-06 18:00:00,13,1012.8,2.1,88,11,15000,18.52,,,270,9.2,14.2,,4,,,,,,1,wg-a,,,,AAXX 06184 07070 12465 72710 10130 20110 30019 40128 51021 60047 70165 875// 91800 333 10142 20092=
07070,1996-11-06 21:00:00,12,1012.9,0.1,82,9,12000,14.816,,,270,,,,,,,,,,,wg-a,,,,AAXX 06214 07070 12562 22708 10120 20090 30020 40129 52001 60006 82500 92100=
07070,1996-11-07 00:00:00,11,1013.1,0.1,76,7,12000,11.112,,,230,,,,,,,,,,,wg-a,,,,AAXX 07004 07070 12662 32306 10110 20070 30021 40131 53001 60006 83500 90000=
07070,1996-11-07 03:00:00,10,1011.5,-1.6,87,8,12000,14.816,,,230,,,,,,,,,,,wg-a,,,,AAXX 07034 07070 12762 72308 10100 20080 30005 40115 58016 60006 875// 90300=
07070,1996-11-07 06:00:00,11,1009.7,-1.7,87,9,10000,25.928,,,220,9.4,12.7,,0,,,5,,,60,wg-a,,,,AAXX 07064 07070 02460 72214 10110 20090 39988 40097 58017 60054 76061 878// 90600 333 10127 20094 60007=
07070,1996-11-07 09:00:00,11,1009.8,-0.1,87,9,25000,22.224,,,250,,,,1,,,,,,3,wg-a,,,,AAXX 07094 07070 12475 82512 10110 20090 39989 40098 55001 60017 70362 885// 90900=
07070,1996-11-07 12:00:00,13,1010,0.3,72,8,25000,35.188,,,270,,,,,,,,,,1,wg-a,,,,AAXX 07124 07070 12575 /2719 10130 20080 39992 40100 53003 60016 70162 86200 91200=
07070,1996-11-07 15:00:00,12,1012.4,2.3,62,5,20000,25.928,,,290,,,,,,,,,,25,wg-a,,,,AAXX 07154 07070 02570 /2914 10120 20050 30015 40124 53023 61000 72581 81300 91500 333 ////=
07070,1996-11-07 18:00:00,11,1015.4,2.9,66,5,15000,29.632,,,250,10,14.2,,,,,,,,2,wg-a,,,,AAXX 07184 07070 32565 32516 10110 20050 30044 40154 51029 70281 83800 91800 333 10142 20100=
07070,1996-11-08 00:00:00,9,1020.2,2.1,81,6,12000,25.928,,,260,,,,,,,,,,,wg-a,,,,AAXX 08004 07070 12762 52614 10090 20060 30091 40202 51021 60006 85500 90000=
07070,1996-11-08 03:00:00,9,1021.8,1.5,81,6,12000,22.224,,,260,,,,,,,,,,,wg-a,,,,AAXX 08034 07070 12762 72612 10090 20060 30106 40218 53015 60006 875// 90300=
07070,1996-11-08 06:00:00,6,1023.7,1.8,87,4,12000,7.408,,,220,5.6,10.5,,,,,1,,,,wg-a,,,,AAXX 08064 07070 02462 52204 10060 20040 30124 40237 51018 60006 85800 90600 333 10105 20056 60014=
07070,1996-11-08 09:00:00,7,1025.8,2.1,93,6,12000,14.816,,,250,,,,,,,,,,,wg-a,,,,AAXX 08094 07070 12562 42508 10070 20060 30145 40258 52021 60006 84800 90900=
07070,1996-11-08 12:00:00,11,1026.4,0.8,76,7,12000,14.816,,,230,,,,,,,,,,,wg-a,,,,AAXX 08124 07070 12462 62308 10110 20070 30153 40264 50008 60006 86831 91200=
07070,1996-11-08 15:00:00,11,1026,-0.4,71,6,25000,14.816,,,230,,,,,,,,,,,wg-a,,,,AAXX 08154 07070 12575 52308 10110 20060 30149 40260 56004 60006 85800 91500=
07070,1996-11-08 18:00:00,9,1026.9,0.8,81,6,20000,18.52,,,230,5.6,12,,,,,,,,1,wg-a,,,,AAXX 08184 07070 12670 /2310 10090 20060 30157 40269 53008 60006 70182 86800 91800 333 10120 20056=
07070,1996-11-08 21:00:00,7,1027.9,0.9,87,5,15000,14.816,,,230,,,,0,,,,,,1,wg-a,,,,AAXX 08214 07070 12665 /2308 10070 20050 30166 40279 51009 60007 70181 81200 92100=
07070,1996-11-09 00:00:00,6,1028.5,0.6,93,5,12000,18.52,,,240,,,,,,,,,,2,wg-a,,,,AAXX 09004 07070 12/62 02410 10060 20050 30172 40285 53006 60006 70281 80000 90000=
07070,1996-11-09 03:00:00,6,1028.2,-0.3,93,5,12000,14.816,,,230,,,,,,,,,,,wg-a,,,,AAXX 09034 07070 12762 12308 10060 20050 30169 40282 58003 60006 81500 90300=
07070,1996-11-09 06:00:00,5,1028.3,-0,93,4,12000,14.816,,,240,4.7,8.6,,,,,,,,,wg-a,,,,AAXX 09064 07070 12762 52408 10050 20040 30169 40283 55000 60004 815/1 90600 333 10086 20047=
07070,1996-11-09 09:00:00,8,1029,0.8,87,6,8000,14.816,,,230,,,,,,,,,,,wg-a,,,,AAXX 09094 07070 12458 72308 10080 20060 30177 40290 51008 60006 81132 90900=
07070,1996-11-09 12:00:00,10,1027.8,-1,82,7,11000,25.928,,,250,,,,,,,,,,,wg-a,,,,AAXX 09124 07070 12561 72514 10100 20070 30167 40278 58010 60006 81802 91200=
07070,1996-11-09 15:00:00,10,1027.1,-0.8,82,7,12000,22.224,,,240,,,,,,,,,,,wg-a,,,,AAXX 09154 07070 12562 72412 10100 20070 30159 40271 58008 60006 81832 91500=
07070,1996-11-09 18:00:00,7,1026.5,-0.7,93,6,7000,11.112,,,220,4.7,10.6,,,,,,,,,wg-a,,,,AAXX 09184 07070 12757 42206 10070 20060 30152 40265 56007 60006 81531 91800 333 10106 20047=
07070,1996-11-09 21:00:00,4,1025.7,-0.9,93,3,10000,14.816,,,170,,,,,,,,,,,wg-a,,,,AAXX 09214 07070 12/60 01708 10040 20030 30143 40257 56009 60006 80000 92100=
07070,1996-11-10 00:00:00,4,1023.4,-2.3,100,4,10000,11.112,,,170,,,,,,,,,,,wg-a,,,,AAXX 10004 07070 12/60 61706 10040 20040 30120 40234 58023 60006 82031 90000=
07070,1996-11-10 03:00:00,6,1020.1,-3.2,93,5,8000,18.52,,,180,,,,0,,,,,,,wg-a,,,,AAXX 10034 07070 12658 71810 10060 20050 30088 40201 58032 60007 8157/ 90300=
07070,1996-11-10 06:00:00,5,1016.9,-3.1,100,5,10000,18.52,,,170,3.5,6.7,,,,,,,,,wg-a,,,,AAXX 10064 07070 12760 81710 10050 20050 30057 40169 58031 60004 875// 90600 333 10067 20035=
07070,1996-11-10 09:00:00,6,1014.5,-2.4,93,5,12000,18.52,,,170,,,,,,,,,,,wg-a,,,,AAXX 10094 07070 12762 81710 10060 20050 30033 40145 56024 60006 8657/ 90900=
07070,1996-11-10 12:00:00,8,1011.1,-3.3,87,6,12000,22.224,,,180,,,,,,,,,,,wg-a,,,,AAXX 10124 07070 12762 81812 10080 20060 30000 40111 58033 60006 8157/ 91200=
07070,1996-11-10 15:00:00,8,1008.6,-2.4,87,6,8000,18.52,,,200,,,,,,,,,,60,wg-a,,,,AAXX 10154 07070 02458 82010 10080 20060 39976 40086 56024 61000 76062 885// 91500 333 ////=
07070,1996-11-10 18:00:00,8,1007,-1.6,93,7,12000,14.816,,,220,5.1,8.6,,0,,,,,,21,wg-a,,,,AAXX 10184 07070 12462 82208 10080 20070 39960 40070 56016 60007 72162 8557/ 91800 333 10086 20051=
07070,1996-11-10 21:00:00,8,1006.1,-0.9,93,7,12000,14.816,,,220,,,,,,,,,,,wg-a,,,,AAXX 10214 07070 12562 72208 10080 20070 39951 40061 58009 60006 875// 92100=
07070,1996-11-11 00:00:00,8,1004.8,-1.3,93,7,500,7.408,,,190,,,,,,,,,,60,wg-a,,,,AAXX 11004 07070 02400 71904 10080 20070 39938 40048 58013 61000 76062 8657/ 90000 333 6100=
07070,1996-11-11 03:00:00,7,1001.9,-2.9,93,6,3000,3.704,,,90,,,,,,,,,,10,wg-a,,,,AAXX 11034 07070 02530 70902 10070 20060 39909 40019 58029 61000 71062 875// 90300 333 ////=
07070,1996-11-11 06:00:00,7,998.4,-3.4,100,7,2500,7.408,,,60,6.7,8.6,,5,,,6,,,10,wg-a,,,,AAXX 11064 07070 02125 80604 10070 20070 39875 49984 56034 60064 71062 887// 90600 333 10086 20067 60057=
07070,1996-11-11 09:00:00,8,995.1,-3.3,100,8,3500,14.816,,,70,,,,4,,,,,,10,wg-a,,,,AAXX 11094 07070 12135 80708 10080 20080 39842 49951 58033 60047 71066 887// 90900=
07070,1996-11-11 12:00:00,12,992.9,-2,88,10,20000,29.632,,,180,,,,4,,,,,,1,wg-a,,,,AAXX 11124 07070 02470 71816 10120 20100 39822 49929 55020 60096 70162 81209 91200 333 60047=
07070,1996-11-11 15:00:00,12,993,0.1,88,10,25000,14.816,,,180,,,,,,,,,,,wg-a,,,,AAXX 11154 07070 12475 71808 10120 20100 39823 49930 50001 60006 83232 91500=
07070,1996-11-11 18:00:00,10,993.2,0.1,93,9,500,7.408,,,150,7.2,12.4,,5,,,,,,63,wg-a,,,,AAXX 11184 07070 12300 81504 10100 20090 39824 49932 53001 60057 76362 8452/ 91800 333 10124 20072=
07070,1996-11-11 21:00:00,9,992.6,-0.6,93,8,10000,14.816,,,160,,,,4,,,,,,21,wg-a,,,,AAXX 11214 07070 12460 81608 10090 20080 39818 49926 58006 60047 72162 8682/ 92100=
07070,1996-11-12 00:00:00,8,995.6,2.9,93,7,12000,11.112,,,180,,,,0,,,,,,18,wg-a,,,,AAXX 12004 07070 02462 71806 10080 20070 39847 49956 51029 60046 71862 87101 90000 333 60007=
07070,1996-11-12 03:00:00,7,995.7,0.1,100,7,20000,0,,,0,,,,,,,,,,,wg-a,,,,AAXX 12034 07070 12570 /0000 10070 20070 39848 49957 50001 60006 86500 90300=
07070,1996-11-12 06:00:00,5,996.6,0.8,93,4,10000,3.704,,,50,4.6,9.9,,,,,18,,,,wg-a,,,,AAXX 12064 07070 12460 70502 10050 20040 39856 49966 52008 60184 84502 90600 333 10099 20046=
07070,1996-11-12 09:00:00,6,998,1.4,100,6,7000,7.408,,,50,,,,,,,,,,,wg-a,,,,AAXX 12094 07070 12557 70504 10060 20060 39870 49980 53014 60006 8257/ 90900=
07070,1996-11-12 12:00:00,8,997.2,-0.7,100,8,6000,11.112,,,100,,,,,,,,,,60,wg-a,,,,AAXX 12124 07070 02456 81006 10080 20080 39863 49972 58007 61000 76062 8457/ 91200 333 6100=
07070,1996-11-12 15:00:00,8,998.6,1.4,100,8,3500,0,,,0,,,,0,,,,,,60,wg-a,,,,AAXX 12154 07070 12335 80000 10080 20080 39877 49986 53014 60007 76062 875// 91500=
07070,1996-11-12 18:00:00,8,1001.3,2.7,100,8,2500,11.112,,,300,4.4,8.4,,13,,,,,,63,wg-a,,,,AAXX 12184 07070 12425 83006 10080 20080 39904 40013 51027 60137 76362 875// 91800 333 10084 20044=
07070,1996-11-12 21:00:00,8,1002.7,1.3,100,8,4000,11.112,,,330,,,,1,,,,,,10,wg-a,,,,AAXX 12214 07070 12240 83306 10080 20080 39917 40027 51013 60017 71062 875// 92100=
07070,1996-11-13 00:00:00,8,1004.3,1.6,93,7,3000,3.704,,,320,,,,,,,,,,10,wg-a,,,,AAXX 13004 07070 12330 83202 10080 20070 39933 40043 51016 60016 71062 887// 90000=
07070,1996-11-13 03:00:00,7,1004.9,0.6,100,7,2000,7.408,,,280,,,,,,,,,,10,wg-a,,,,AAXX 13034 07070 12720 82804 10070 20070 39939 40049 50006 60006 71062 875// 90300=
07070,1996-11-13 06:00:00,8,1006.6,1.7,100,8,2500,14.816,,,300,7.1,8.4,,,,,15,,,10,wg-a,,,,AAXX 13064 07070 02225 83008 10080 20080 39956 40066 53017 60154 71065 887// 90600 333 10084 20071 61000=
07070,1996-11-13 09:00:00,7,1010.2,3.5,93,6,6000,25.928,,,350,,,,0,,,,,,60,wg-a,,,,AAXX 13094 07070 12456 73514 10070 20060 39991 40102 53035 60007 76065 875// 90900=
07070,1996-11-13 12:00:00,7,1013.1,2.9,81,4,10000,25.928,,,10,,,,,,,,,,60,wg-a,,,,AAXX 13124 07070 12560 70114 10070 20040 30015 40131 51029 60016 76065 878// 91200=
07070,1996-11-13 15:00:00,8,1014.5,1.4,76,4,15000,14.816,,,350,,,,,,,,,,1,wg-a,,,,AAXX 13154 07070 02565 23508 10080 20040 30034 40145 52014 61000 70161 82800 91500 333 ////=
07070,1996-11-13 18:00:00,7,1016.5,1.9,87,5,12000,18.52,,,340,6.1,8,,,,,,,,25,wg-a,,,,AAXX 13184 07070 32462 73410 10070 20050 30053 40165 53019 72562 878// 91800 333 10080 20061=
07070,1996-11-13 21:00:00,5,1018.3,1.7,93,4,11000,14.816,,,330,,,,,,,,,,,wg-a,,,,AAXX 13214 07070 12/61 /3308 10050 20040 30070 40183 52017 60006 92100=
07070,1996-11-14 00:00:00,2,1019.1,0.7,100,2,7000,11.112,,,330,,,,,,,,,,,wg-a,,,,AAXX 14004 07070 12/57 03306 10020 20020 30077 40191 51007 60006 80000 90000=
07070,1996-11-14 03:00:00,1,1019.7,0.6,100,1,7000,3.704,,,50,,,,,,,,,,,wg-a,,,,AAXX 14034 07070 12/57 00502 10010 20010 30083 40197 52006 60006 80000 90300=
07070,1996-11-14 06:00:00,-1,1021.2,1.3,100,-1,1000,3.704,,,280,-1,7,,0,,,1,,,10,wg-a,,,,AAXX 14064 07070 02/10 02802 11010 21010 30096 40212 51013 60014 71000 80000 90600 333 10070 21010 60007=
07070,1996-11-14 09:00:00,0,1023,1.9,93,-1,400,0,,,0,,,,,,,,,,42,wg-a,,,,AAXX 14094 07070 12/04 00000 10000 21010 30115 40230 51019 60006 74244 80000 90900=
07070,1996-11-14 12:00:00,5,1022.9,0.1,87,3,9000,11.112,,,40,,,,,,,,,,,wg-a,,,,AAXX 14124 07070 12459 70406 10050 20030 30116 40229 50001 60006 878// 91200=
07070,1996-11-14 15:00:00,6,1022.6,-0.3,81,3,10000,14.816,,,10,,,,,,,,,,,wg-a,,,,AAXX 14154 07070 12460 /0108 10060 20030 30113 40226 55003 60006 86800 91500=
07070,1996-11-14 18:00:00,2,1023,0.3,87,0,15000,14.816,,,30,-2,6,,,,,,,,,wg-a,,,,AAXX 14184 07070 12665 20308 10020 20000 30116 40230 52003 60006 82500 91800 333 10060 21020=
07070,1996-11-14 21:00:00,1,1022.8,-0.3,93,0,10000,14.816,,,40,,,,,,,,,,,wg-a,,,,AAXX 14214 07070 12660 /0408 10010 20000 30113 40228 57003 60006 81500 92100=
07070,1996-11-15 00:00:00,0,1022.6,-0.2,93,-1,500,7.408,,,90,,,,,,,,,,,wg-a,,,,AAXX 15004 07070 12500 /0904 10000 21010 30111 40226 56002 60006 81500 90000=
07070,1996-11-15 03:00:00,-2,1021.8,-0.9,100,-2,500,7.408,,,60,,,,,,,,,,,wg-a,,,,AAXX 15034 07070 12600 30604 11020 21020 30102 40218 58009 60006 83500 90300=
07070,1996-11-15 06:00:00,-1,1021.6,-0.1,93,-2,8000,14.816,,,50,-1.9,2.6,,,,,,,,,wg-a,,,,AAXX 15064 07070 12758 /0508 11010 21020 30101 40216 55001 60006 81500 90600 333 10026 21019=
07070,1996-11-15 09:00:00,1,1022.5,0.9,86,-1,7000,11.112,,,50,,,,,,,,,,,wg-a,,,,AAXX 15094 07070 12257 /0506 10010 21010 30110 40225 51009 60006 81600 90900=
07070,1996-11-15 12:00:00,5,1021.7,-0.6,75,1,8000,18.52,,,70,,,,0,,,,,,,wg-a,,,,AAXX 15124 07070 02458 /0710 10050 20010 30104 40217 58006 60006 81100 91200 333 60007=
07070,1996-11-15 15:00:00,5,1021.9,0.2,81,2,7000,14.816,,,50,,,,,,,,,,,wg-a,,,,AAXX 15154 07070 12/57 /0508 10050 20020 30106 40219 53002 60006 91500=
07070,1996-11-15 18:00:00,4,1022.5,0.5,87,2,6000,11.112,,,30,-1.7,5.6,,,,,,,,,wg-a,,,,AAXX 15184 07070 32556 70306 10040 20020 30111 40225 51005 875// 91800 333 10056 21017=
07070,1996-11-15 20:00:00,4,1022.5,0.5,87,2,6000,11.112,,,30,-1.7,5.6,,,,,,,,,wg-a,,,,AAXX 15204 07070 32556 70306 10040 20020 30111 40225 51005 875// 92000 333 10056 21017=
07070,1996-11-15 21:00:00,3,1024.1,1.6,93,2,6000,7.408,,,50,,,,,,,,,,,wg-a,,,,AAXX 15214 07070 12556 70504 10030 20020 30127 40241 51016 60006 875// 92100=
07070,1996-11-16 00:00:00,3,1024.2,0.1,93,2,6000,7.408,,,10,,,,,,,,,,,wg-a,,,,AAXX 16004 07070 12556 70104 10030 20020 30128 40242 51001 60006 875// 90000=
07070,1996-11-16 03:00:00,3,1023.5,-0.7,93,2,500,7.408,,,10,,,,,,,,,,,wg-a,,,,AAXX 16034 07070 12500 70104 10030 20020 30121 40235 57007 60006 875// 90300=
07070,1996-11-16 06:00:00,3,1023.9,0.4,100,3,4000,3.704,,,350,2.4,3.5,,,,,,,,10,wg-a,,,,AAXX 16064 07070 02540 73502 10030 20030 30125 40239 50004 60006 71022 875// 90600 333 10035 20024 60004=
07070,1996-11-16 09:00:00,4,1024.6,0.7,93,3,4500,3.704,,,20,,,,,,,,,,10,wg-a,,,,AAXX 16094 07070 12545 70202 10040 20030 30132 40246 53007 60006 71022 875// 90900=
07070,1996-11-16 12:00:00,6,1023.5,-1,81,3,500,7.408,,,30,,,,,,,,,,,wg-a,,,,AAXX 16124 07070 12400 70304 10060 20030 30122 40235 58010 60006 878// 91200=
07070,1996-11-16 15:00:00,6,1022.3,-1.2,81,3,10000,3.704,,,60,,,,,,,,,,,wg-a,,,,AAXX 16154 07070 12560 70602 10060 20030 30110 40223 56012 60006 875// 91500=
07070,1996-11-16 18:00:00,5,1022.4,0.1,81,2,7000,7.408,,,110,3.2,6.7,,,,,,,,,wg-a,,,,AAXX 16184 07070 12557 81104 10050 20020 30111 40224 53001 60006 885// 91800 333 10067 20032=
07070,1996-11-16 21:00:00,5,1021.6,-0.8,87,3,8000,3.704,,,50,,,,,,,,,,,wg-a,,,,AAXX 16214 07070 12558 80502 10050 20030 30103 40216 56008 60006 885// 92100=
07070,1996-11-17 00:00:00,2,1019.4,-2.3,87,0,8000,7.408,,,100,,,,,,,,,,,wg-a,,,,AAXX 17004 07070 12558 21004 10020 20000 30080 40194 57023 60006 82500 90000=
07070,1996-11-17 03:00:00,2,1017.4,-2,93,1,8000,7.408,,,150,,,,,,,,,,,wg-a,,,,AAXX 17034 07070 12558 81504 10020 20010 30060 40174 56020 60006 885// 90300=
07070,1996-11-17 06:00:00,3,1015.2,-2.1,81,0,8000,0,,,0,0,5.5,,,,,,,,,wg-a,,,,AAXX 17064 07070 12558 70000 10030 20000 30039 40152 56021 60006 875// 90600 333 10055 20000=
07070,1996-11-17 09:00:00,3,1014.3,-0.9,81,0,8000,3.704,,,110,,,,,,,,,,,wg-a,,,,AAXX 17094 07070 12558 81102 10030 20000 30030 40143 56009 60006 885// 90900=
07070,1996-11-17 12:00:00,3,1012.2,-2.1,81,0,8000,7.408,,,300,,,,,,,,,,,wg-a,,,,AAXX 17124 07070 12558 73004 10030 20000 30009 40122 58021 60006 875// 91200=
07070,1996-11-17 15:00:00,4,1009.9,-2.2,81,1,8000,3.704,,,130,,,,,,,,,,,wg-a,,,,AAXX 17154 07070 12558 71302 10040 20010 39987 40099 56022 60006 878// 91500=
07070,1996-11-17 18:00:00,3,1008.5,-1.5,87,1,6000,7.408,,,160,2.5,4.2,,,,,,,,,wg-a,,,,AAXX 17184 07070 12556 71604 10030 20010 39972 40085 56015 60006 865/2 91800 333 10042 20025=
07070,1996-11-17 21:00:00,3,1007.8,-0.6,87,1,500,11.112,,,170,,,,,,,,,,,wg-a,,,,AAXX 17214 07070 12400 81706 10030 20010 39966 40078 56006 60006 885// 92100=
07070,1996-11-18 00:00:00,3,1006.5,-1.3,93,2,500,7.408,,,160,,,,,,,,,,,wg-a,,,,AAXX 18004 07070 12700 81604 10030 20020 39953 40065 58013 60006 885// 90000=
07070,1996-11-18 03:00:00,3,1004.6,-1.9,93,2,3000,3.704,,,50,,,,1,,,,,,10,wg-a,,,,AAXX 18034 07070 12130 80502 10030 20020 39934 40046 56019 60017 71062 885// 90300=
07070,1996-11-18 06:00:00,3,1003.3,-1.3,93,2,3000,3.704,,,140,2.2,2.8,,1,,,1,,,10,wg-a,,,,AAXX 18064 07070 02230 81402 10030 20020 39921 40033 56013 60014 71062 887// 90600 333 10028 20022 60017=
07070,1996-11-18 09:00:00,3,1002.8,-0.5,100,3,40000,3.704,,,300,,,,,,,,,,,wg-a,,,,AAXX 18094 07070 32/82 /3002 10030 20030 39916 40028 58005 90900=
07070,1996-11-18 12:00:00,4,1001.8,-0.9,100,4,1800,7.408,,,330,,,,3,,,,,,10,wg-a,,,,AAXX 18124 07070 02218 83304 10040 20040 39907 40018 58009 60036 71064 886// 91200 333 60037=
07070,1996-11-18 15:00:00,5,1000.5,-1.3,100,5,2200,14.816,,,320,,,,2,,,,,,10,wg-a,,,,AAXX 18154 07070 12222 83208 10050 20050 39894 40005 56013 60027 71065 886// 91500=
07070,1996-11-18 18:00:00,6,1002.3,1.8,93,5,500,31.484,,,320,2.6,6.1,,3,,,,,,61,wg-a,,,,AAXX 18184 07070 12400 83217 10060 20050 39912 40023 53018 60037 76165 877// 91800 333 10061 20026=
07070,1996-11-18 21:00:00,5,1003.3,1,93,4,8000,35.188,,,310,,,,0,,,,,,61,wg-a,,,,AAXX 18214 07070 12458 83119 10050 20040 39922 40033 53010 60007 76162 877// 92100=
07070,1996-11-19 00:00:00,4,1004.4,1.1,93,3,7000,22.224,,,280,,,,0,,,,,,21,wg-a,,,,AAXX 19004 07070 02457 82812 10040 20030 39933 40044 51011 60016 72162 877// 90000 333 60007=
07070,1996-11-19 03:00:00,2,1004.5,,87,0,8000,22.224,,,250,,,,,,,,,,1,wg-a,,,,AAXX 19034 07070 12558 /2512 10020 20000 39933 40045 60006 70161 81500 90300=
07070,1996-11-19 06:00:00,0,1002.8,-1.8,93,-1,10000,14.816,,,190,-0.2,5.8,,,,,9,,,2,wg-a,,,,AAXX 19064 07070 12/60 01908 10000 21010 39915 40028 58018 60094 70261 80000 90600 333 10058 21002=
07070,1996-11-19 09:00:00,1,997.6,-5.1,86,-1,20000,31.484,,,180,,,,,,,,,,,wg-a,,,,AAXX 19094 07070 12/70 71817 10010 21010 39864 49976 58051 60006 81032 90900=
07070,1996-11-19 12:00:00,3,989.3,-8.1,81,0,8000,38.892,,61.116,160,,,,,,,,,,61,wg-a,,,,AAXX 19124 07070 02358 81621 10030 20000 39783 49893 58081 61000 76176 8377/ 91200 333 6100 91033=
07070,1996-11-19 15:00:00,1,984.2,-5.1,100,1,4500,38.892,,57.412,170,,,,4,,,,,,10,wg-a,,,,AAXX 19154 07070 12345 81721 10010 20010 39732 49842 56051 60047 71076 877// 91500 333 91031=
07070,1996-11-19 18:00:00,5,981.9,-2.2,93,4,12000,25.928,,,190,-0.3,4.9,,3,,,,,,21,wg-a,,,,AAXX 19184 07070 12462 81914 10050 20040 39710 49819 56022 60037 72176 885// 91800 333 10049 21003=
07070,1996-11-19 21:00:00,6,980.1,-1.7,87,4,15000,31.484,,50.004,190,,,,,,,,,,,wg-a,,,,AAXX 19214 07070 12465 71917 10060 20040 39693 49801 58017 60006 85221 92100 333 91027=
07070,1996-11-20 00:00:00,7,978.3,-1.8,87,5,15000,31.484,,53.708,200,,,,0,,,,,,60,wg-a,,,,AAXX 20004 07070 02465 82017 10070 20050 39675 49783 56018 60016 76062 885// 90000 333 60007 91029=
07070,1996-11-20 03:00:00,7,977.9,-0.3,87,5,12000,29.632,,50.004,220,,,,1,,,,,,61,wg-a,,,,AAXX 20034 07070 12562 82216 10070 20050 39672 49779 56003 60017 76162 885// 90300 333 91027=
07070,1996-11-20 06:00:00,6,978.1,0.1,87,4,10000,29.632,,,210,4.9,6.8,,1,,,8,,,60,wg-a,,,,AAXX 20064 07070 02560 82116 10060 20040 39673 49781 52001 60084 76062 885// 90600 333 10068 20049 60017=
07070,1996-11-20 09:00:00,6,979.5,1.4,87,4,6000,42.596,,,230,,,,2,,,,,,61,wg-a,,,,AAXX 20094 07070 12456 82323 10060 20040 39687 49795 51014 60027 76166 875// 90900=
07070,1996-11-20 12:00:00,7,982.5,3,81,4,15000,42.596,,61.116,250,,,,,,,,,,60,wg-a,,,,AAXX 20124 07070 02465 72523 10070 20040 39717 49825 51030 60026 76062 875// 91200 333 61000 91033=
07070,1996-11-20 15:00:00,6,986.4,3.8,93,5,500,46.3,,64.82,270,,,,1,,,,,,61,wg-a,,,,AAXX 20154 07070 12400 82725 10060 20050 39755 49864 53038 60017 76162 875// 91500 333 91035=
07070,1996-11-20 18:00:00,6,991.9,5.5,93,5,6000,29.632,,,290,4.8,6.9,,6,,,,,,61,wg-a,,,,AAXX 20184 07070 12456 82916 10060 20050 39810 49919 52055 60067 76162 875// 91800 333 10069 20048=
07070,1996-11-20 21:00:00,5,997.7,5.7,87,3,12000,35.188,,,310,,,,0,,,,,,3,wg-a,,,,AAXX 20214 07070 12562 83119 10050 20030 39867 49977 51057 60007 70362 8452/ 92100=
07070,1996-11-21 00:00:00,3,1001.5,3.6,87,1,12000,14.816,,,270,,,,,,,,,,1,wg-a,,,,AAXX 21004 07070 12/62 42708 10030 20010 39903 40015 51036 60006 70161 80001 90000=
07070,1996-11-21 03:00:00,2,1003.4,1.9,93,1,10000,18.52,,,260,,,,,,,,,,,wg-a,,,,AAXX 21034 07070 12760 22610 10020 20010 39922 40034 52019 60006 82500 90300=
07070,1996-11-21 06:00:00,3,1005.4,2,93,2,12000,14.816,,,260,1.4,6.3,,,,,9,,,,wg-a,,,,AAXX 21064 07070 12462 72608 10030 20020 39942 40054 51020 60094 875// 90600 333 10063 20014=
07070,1996-11-21 09:00:00,3,1007.6,2.1,87,1,12000,25.928,,,260,,,,,,,,,,,wg-a,,,,AAXX 21094 07070 12362 72614 10030 20010 39963 40076 51021 60006 875// 90900=
07070,1996-11-21 12:00:00,5,1008.7,1.3,75,1,12000,18.52,,,280,,,,,,,,,,,wg-a,,,,AAXX 21124 07070 12462 32810 10050 20010 39976 40087 51013 60006 83200 91200=
07070,1996-11-21 15:00:00,4,1009.2,0.4,81,1,15000,11.112,,,250,,,,,,,,,,,wg-a,,,,AAXX 21154 07070 12565 72506 10040 20010 39980 40092 51004 60006 82204 91500=
07070,1996-11-21 18:00:00,0,1009.8,0.4,93,-1,10000,11.112,,,180,-0.2,6.1,,,,,,,,,wg-a,,,,AAXX 21184 07070 12660 71806 10000 21010 39984 40098 53004 60006 82402 91800 333 10061 21002=
07070,1996-11-21 21:00:00,-1,1010,0.2,100,-1,10000,0,,,0,,,,,,,,,,,wg-a,,,,AAXX 21214 07070 12/60 70000 11010 21010 39986 40100 51002 60006 80002 92100=
07070,1996-11-22 00:00:00,-2,1010,-0.1,93,-3,4000,0,,,0,,,,,,,,,,10,wg-a,,,,AAXX 22004 07070 12/40 20000 11020 21030 39985 40100 56001 60006 71011 81032 90000=
07070,1996-11-22 03:00:00,-4,1011.7,1.6,100,-4,1500,0,,,0,,,,,,,,,,10,wg-a,,,,AAXX 22034 07070 12/15 00000 11040 21040 30001 40117 53016 60006 71000 80000 90300=
07070,1996-11-22 06:00:00,-4,1013.8,2.1,100,-4,2500,7.408,,,230,-4.6,0.5,,,,,,,,10,wg-a,,,,AAXX 22064 07070 12/25 /2304 11040 21040 30022 40138 53021 60006 71040 80001 90600 333 10005 21046=
07070,1996-11-22 09:00:00,-1,1016.7,3,100,-1,2000,7.408,,,220,,,,,,,,,,10,wg-a,,,,AAXX 22094 07070 32/20 02204 11010 21010 30052 40167 51030 71000 80000 90900=
07070,1996-11-22 12:00:00,6,1016.7,0.3,75,2,7000,11.112,,,250,,,,,,,,,,,wg-a,,,,AAXX 22124 07070 12/57 12506 10060 20020 30055 40167 50003 60006 80001 91200=
07070,1996-11-22 15:00:00,5,1015.9,-0.8,70,0,12000,14.816,,,220,,,,,,,,,,,wg-a,,,,AAXX 22154 07070 12/62 42208 10050 20000 30047 40159 56008 60006 80001 91500=
07070,1996-11-22 18:00:00,1,1015.5,-0.6,93,0,3000,22.224,,,170,-4.5,6.2,,,,,,,,10,wg-a,,,,AAXX 22184 07070 32/30 71712 10010 20000 30041 40155 58006 71011 80002 91800 333 10062 21045=
07070,1996-11-22 21:00:00,0,1014.3,-1.2,100,0,8000,11.112,,,180,,,,,,,,,,,wg-a,,,,AAXX 22214 07070 12/58 81806 10000 20000 30029 40143 58012 60006 80008 92100=
07070,1996-11-23 00:00:00,-1,1014.1,-0.3,93,-2,500,7.408,,,330,,,,,,,,,,,wg-a,,,,AAXX 23004 07070 12300 73304 11010 21020 30026 40141 55003 60006 876// 90000=
07070,1996-11-23 03:00:00,0,1011.8,-2.2,93,-1,500,14.816,,,170,,,,,,,,,,,wg-a,,,,AAXX 23034 07070 12/00 /1708 10000 21010 30004 40118 56022 60006 80002 90300=
07070,1996-11-23 06:00:00,0,1011.3,-0.5,100,0,7000,14.816,,,170,-1.3,0.7,,,,,,,,,wg-a,,,,AAXX 23064 07070 02/57 81708 10000 20000 39999 40113 56005 60006 8807/ 90600 333 10007 21013 60004=
07070,1996-11-23 09:00:00,1,1011.4,0.1,93,0,1500,11.112,,,200,,,,0,,,,,,71,wg-a,,,,AAXX 23094 07070 12715 82006 10010 20000 30000 40114 53001 60007 77172 8652/ 90900=
07070,1996-11-23 12:00:00,1,1011.6,0.2,93,0,2500,7.408,,,250,,,,1,,,,,,68,wg-a,,,,AAXX 23124 07070 02225 82504 10010 20000 30002 40116 51002 60016 76876 875// 91200 333 60017=
07070,1996-11-23 15:00:00,2,1013.4,1.8,93,1,2500,11.112,,,300,,,,,,,,,,10,wg-a,,,,AAXX 23154 07070 02225 83006 10020 20010 30020 40134 53018 61000 71076 876// 91500 333 ////=
07070,1996-11-23 18:00:00,2,1016.9,3.5,93,1,500,18.52,,,290,0.1,1.7,,,,,,,,1,wg-a,,0,,AAXX 23184 07070 32500 22910 10020 20010 30055 40169 53035 70176 82500 91800 333 10017 20001 4/9999=
07070,1996-11-23 21:00:00,0,1019.5,2.5,93,-1,6000,11.112,,,250,,,,,,,,,,,wg-a,,,,AAXX 23214 07070 12/56 02506 10000 21010 30080 40195 51025 60006 80000 92100=
07070,1996-11-24 00:00:00,-1,1021.4,1.9,93,-2,6000,7.408,,,240,,,,,,,,,,,wg-a,,,,AAXX 24004 07070 12756 12404 11010 21020 30099 40214 53019 60006 815/0 90000=
07070,1996-11-24 03:00:00,-1,1022.9,1.4,93,-2,10000,11.112,,,240,,,,,,,,,,,wg-a,,,,AAXX 24034 07070 12660 /2406 11010 21020 30113 40229 51014 60006 81500 90300=
07070,1996-11-24 06:00:00,0,1023.7,0.9,93,-1,6000,14.816,,,220,-1.3,1.7,,,,,1,,,,wg-a,,0,,AAXX 24064 07070 02756 /2208 10000 21010 30122 40237 53009 60006 85500 90600 333 10017 21013 4/9999 60014=
07070,1996-11-24 09:00:00,0,1025.2,1.5,93,-1,10000,3.704,,,210,,,,,,,,,,,wg-a,,,,AAXX 24094 07070 12760 62102 10000 21010 30137 40252 51015 60006 86500 90900=
07070,1996-11-24 12:00:00,3,1023.9,-1.2,87,1,15000,11.112,,,230,,,,,,,,,,,wg-a,,,,AAXX 24124 07070 12765 72306 10030 20010 30125 40239 58012 60006 875// 91200=
07070,1996-11-24 15:00:00,4,1022.2,-1.7,81,1,12000,11.112,,,210,,,,,,,,,,,wg-a,,,,AAXX 24154 07070 12762 82106 10040 20010 30108 40222 56017 60006 8152/ 91500=
07070,1996-11-24 18:00:00,2,1021,-1.2,93,1,10000,22.224,,,170,-0.9,4.4,,,,,,,,60,wg-a,,,,AAXX 24184 07070 02760 81712 10020 20010 30096 40210 58012 61000 76062 875// 91800 333 10044 21009 ////=
07070,1996-11-24 21:00:00,1,1017.8,-3.2,93,0,7000,29.632,,,180,,,,1,,,,,,61,wg-a,,,,AAXX 24214 07070 12257 81816 10010 20000 30064 40178 58032 60017 76176 885// 92100=
07070,1996-11-25 00:00:00,1,1013.6,-4.2,100,1,500,29.632,,,180,,,,,,,,,,61,wg-a,,,,AAXX 25004 07070 02300 81816 10010 20010 30022 40136 58042 60016 76176 887// 90000 333 61000=
07070,1996-11-25 03:00:00,2,1008,-5.5,100,2,6000,31.484,,,180,,,,0,,,,,,61,wg-a,,,,AAXX 25034 07070 12356 81817 10020 20020 39967 40080 56055 60007 76176 877// 90300=
07070,1996-11-25 06:00:00,3,1003.4,-4.5,93,2,500,25.928,,,190,0.6,3.2,,2,,,3,,,63,wg-a,,,,AAXX 25064 07070 02300 81914 10030 20020 39922 40034 56045 60034 76376 877// 90600 333 10032 20006 60027=
07070,1996-11-25 09:00:00,4,1000.9,-2.4,100,4,2000,18.52,,,210,,,,4,,,,,,58,wg-a,,,,AAXX 25094 07070 12320 82110 10040 20040 39898 40009 56024 60047 75865 877// 90900=
07070,1996-11-25 12:00:00,7,998.3,-2.4,100,7,8000,22.224,,,250,,,,0,,,,,,1,wg-a,,,,AAXX 25124 07070 02358 /2512 10070 20070 39874 49983 58024 60046 70165 86100 91200 333 60007=
07070,1996-11-25 15:00:00,9,996.7,-1.6,87,7,12000,25.928,,,250,,,,,,,,,,,wg-a,,,,AAXX 25154 07070 12462 /2514 10090 20070 39858 49967 56016 60006 86800 91500=
07070,1996-11-25 18:00:00,7,996.7,-0,93,6,500,14.816,,,280,3,9,,2,,,,,,63,wg-a,,,,AAXX 25184 07070 12400 82808 10070 20060 39858 49967 55000 60027 76386 8657/ 91800 333 10090 20030=
07070,1996-11-25 21:00:00,6,997.8,1,100,6,8000,7.408,,,280,,,,3,,,,,,61,wg-a,,,,AAXX 25214 07070 12358 82804 10060 20060 39868 49978 53010 60037 76166 885// 92100=
07070,1996-11-26 00:00:00,6,999.9,2.1,93,5,10000,14.816,,,300,,,,,,,,,,1,wg-a,,,,AAXX 26004 07070 02560 73008 10060 20050 39889 49999 53021 60036 70162 875// 90000 333 61000=
07070,1996-11-26 03:00:00,6,1001.9,1.9,93,5,10000,14.816,,,280,,,,0,,,,,,2,wg-a,,,,AAXX 26034 07070 12760 72808 10060 20050 39908 40019 53019 60007 70262 875// 90300=
07070,1996-11-26 06:00:00,6,1003.9,2,93,5,15000,14.816,,,300,5.5,6.9,,,,,10,,,1,wg-a,,,,AAXX 26064 07070 12565 73008 10060 20050 39928 40039 51020 60104 70162 875// 90600 333 10069 20055=
07070,1996-11-26 12:00:00,7,1008.7,2,87,5,15000,25.928,,,320,,,,,,,,,,1,wg-a,,,,AAXX 26124 07070 12465 73214 10070 20050 39976 40087 51020 60016 70182 878// 91200=
07070,1996-11-26 15:00:00,7,1010.1,1.4,81,4,15000,25.928,,,300,,,,,,,,,,,wg-a,,,,AAXX 26154 07070 12565 73014 10070 20040 39990 40101 51014 60006 878// 91500=
07070,1996-11-26 18:00:00,6,1011.6,1.4,81,3,10000,25.928,,,300,5.4,7.3,,,,,,,,,wg-a,,,,AAXX 26184 07070 32460 73014 10060 20030 30004 40116 51014 878// 91800 333 10073 20054=
07070,1996-11-26 21:00:00,5,1012.8,1.2,87,3,8000,18.52,,,310,,,,,,,,,,,wg-a,,,,AAXX 26214 07070 12458 73110 10050 20030 30016 40128 53012 60006 878// 92100=
07070,1996-11-27 00:00:00,3,1013.3,0.4,93,2,6000,7.408,,,250,,,,,,,,,,,wg-a,,,,AAXX 27004 07070 12356 82504 10030 20020 30020 40133 52004 60006 885// 90000=
07070,1996-11-27 03:00:00,3,1013.4,0.1,93,2,500,3.704,,,260,,,,,,,,,,,wg-a,,,,AAXX 27034 07070 12300 82602 10030 20020 30021 40134 50001 60006 886// 90300=
07070,1996-11-27 06:00:00,3,1012.3,-1.1,93,2,500,3.704,,,40,2.7,5.6,,,,,1,,,,wg-a,,,,AAXX 27064 07070 02200 80402 10030 20020 30010 40123 56011 60006 886// 90600 333 10056 20027 60014=
07070,1996-11-27 09:00:00,3,1011.2,-1.1,93,2,500,7.408,,,110,,,,,,,,,,,wg-a,,,,AAXX 27094 07070 12400 81104 10030 20020 39999 40112 58011 60006 886// 90900=
07070,1996-11-27 12:00:00,4,1008.3,-2.8,87,2,500,14.816,,,130,,,,,,,,,,,wg-a,,,,AAXX 27124 07070 12400 81308 10040 20020 39971 40083 57028 60006 886// 91200=
07070,1996-11-27 15:00:00,3,1005.1,-3.2,93,2,500,14.816,,,90,,,,,,,,,,,wg-a,,,,AAXX 27154 07070 12300 80908 10030 20020 39939 40051 56032 60006 886// 91500=
07070,1996-11-27 18:00:00,2,1005.6,0.4,87,0,6000,18.52,,,50,1.6,3.8,,,,,,,,,wg-a,,,,AAXX 27184 07070 12456 80510 10020 20000 39943 40056 53004 60006 8657/ 91800 333 10038 20016=
07070,1996-11-28 00:00:00,1,1009.5,2.2,86,-1,500,18.52,,,340,,,,,,,,,,,wg-a,,,,AAXX 28004 07070 12600 73410 10010 21010 39982 40095 51022 60006 875// 90000=
07070,1996-11-28 03:00:00,0,1012.2,2.6,86,-2,4000,22.224,,,350,,,,,,,,,,10,wg-a,,,,AAXX 28034 07070 12440 73512 10000 21020 30008 40122 53026 60006 71022 875// 90300=
07070,1996-11-28 06:00:00,-1,1015,2.7,86,-3,4500,14.816,,,340,-0.9,1.6,,,,,,,,10,wg-a,,,,AAXX 28064 07070 12545 /3408 11010 21030 30035 40150 53027 60006 71011 81500 90600 333 10016 21009=
07070,1996-11-28 09:00:00,0,1017.6,2.6,86,-2,3200,18.52,,,310,,,,,,,,,,10,wg-a,,,,AAXX 28094 07070 12632 /3110 10000 21020 30061 40176 51026 60006 71011 86500 90900=
07070,1996-11-28 12:00:00,3,1018.9,1.4,75,-1,7000,22.224,,,320,,,,,,,,,,,wg-a,,,,AAXX 28124 07070 12657 73212 10030 21010 30075 40189 51014 60006 875// 91200=
07070,1996-11-28 15:00:00,4,1019.7,0.9,70,-1,8000,11.112,,,310,,,,,,,,,,,wg-a,,,,AAXX 28154 07070 12658 /3106 10040 21010 30084 40197 53009 60006 86500 91500=
07070,1996-11-28 18:00:00,0,1021.1,1.2,86,-2,6000,11.112,,,230,-1.5,4.6,,,,,,,,,wg-a,,,,AAXX 28184 07070 12656 22306 10000 21020 30096 40211 53012 60006 82500 91800 333 10046 21015=
07070,1996-11-28 21:00:00,2,1020.8,-0.2,87,0,6000,11.112,,,240,,,,,,,,,,,wg-a,,,,AAXX 28214 07070 12456 82406 10020 20000 30094 40208 58002 60006 888// 92100=
07070,1996-11-29 00:00:00,2,1020.3,-0.5,93,1,500,11.112,,,210,,,,,,,,,,,wg-a,,,,AAXX 29004 07070 12500 72106 10020 20010 30089 40203 58005 60006 878// 90000=
07070,1996-11-29 03:00:00,1,1018.2,-2.1,100,1,500,11.112,,,230,,,,,,,,,,,wg-a,,,,AAXX 29034 07070 12/00 82306 10010 20010 30068 40182 58021 60006 81037 90300=
07070,1996-11-29 06:00:00,2,1014.4,-3.7,93,1,500,22.224,,,200,0,2.3,,0,,,,,,61,wg-a,,,,AAXX 29064 07070 02600 82012 10020 20010 30031 40144 56037 60004 76162 8382/ 90600 333 10023 20000 60007=
07070,1996-11-29 09:00:00,2,1009.3,-5.1,93,1,500,25.928,,,200,,,,3,,,,,,10,wg-a,,,,AAXX 29094 07070 12300 82014 10020 20010 39980 40093 56051 60037 71076 877// 90900=
07070,1996-11-29 12:00:00,4,1003.5,-5.6,93,3,500,35.188,,,220,,,,2,,,,,,61,wg-a,,,,AAXX 29124 07070 02300 82219 10040 20030 39924 40035 58056 60056 76166 885// 91200 333 60027=
07070,1996-11-29 15:00:00,8,998.6,-4.7,100,8,500,29.632,,,240,,,,3,,,,,,58,wg-a,,,,AAXX 29154 07070 12300 82416 10080 20080 39877 49986 56047 60037 75865 887// 91500=
07070,1996-11-29 18:00:00,8,999.7,1.1,93,7,6000,22.224,,,340,1.4,9.8,,6,,,,,,61,wg-a,,,,AAXX 29184 07070 12356 83412 10080 20070 39888 49997 53011 60067 76165 885// 91800 333 10098 20014=
07070,1996-11-29 21:00:00,7,1000.2,0.4,93,6,25000,14.816,,,270,,,,1,,,,,,21,wg-a,,,,AAXX 29214 07070 12575 82708 10070 20060 39892 40002 51004 60017 72162 875// 92100=
07070,1996-11-30 00:00:00,5,1001.1,0.8,93,4,25000,14.816,,,290,,,,0,,,,,,25,wg-a,,,,AAXX 30004 07070 02575 32908 10050 20040 39900 40011 53008 60026 72586 83500 90000 333 60007=
07070,1996-11-30 03:00:00,5,1001.3,0.2,93,4,25000,14.816,,,290,,,,,,,,,,,wg-a,,,,AAXX 30034 07070 12/75 02908 10050 20040 39902 40013 50002 60006 80000 90300=
07070,1996-11-30 06:00:00,5,1001.4,0.1,93,4,8000,18.52,,,280,4.2,7.6,,0,,,16,,,25,wg-a,,,,AAXX 30064 07070 02558 72810 10050 20040 39903 40014 53001 60164 72582 878// 90600 333 10076 20042 60007=
07070,1996-11-30 09:00:00,5,1002.2,0.8,93,4,12000,18.52,,,260,,,,0,,,,,,1,wg-a,,,,AAXX 30094 07070 12562 22610 10050 20040 39911 40022 51008 60007 70181 82800 90900=
07070,1996-11-30 12:00:00,8,1002.1,0,81,5,12000,25.928,,,280,,,,0,,,,,,25,wg-a,,,,AAXX 30124 07070 02562 42814 10080 20050 39911 40021 50000 60016 72581 84800 91200 333 60007=
07070,1996-11-30 15:00:00,8,1003.3,1.2,81,5,10000,25.928,,,300,,,,1,,,,,,3,wg-a,,,,AAXX 30154 07070 12560 73014 10080 20050 39923 40033 53012 60017 70381 872// 91500=
07070,1996-11-30 18:00:00,7,1007.2,3.8,87,5,15000,25.928,,,310,4.4,8.3,,0,,,,,,60,wg-a,,,,AAXX 30184 07070 12565 73114 10070 20050 39961 40072 53038 60007 76086 878// 91800 333 10083 20044=
07070,1996-11-30 21:00:00,5,1012.6,5.3,93,4,15000,14.816,,,340,,,,,,,,,,1,wg-a,,,,AAXX 30214 07070 32/65 03408 10050 20040 30014 40126 51053 70161 80000 92100=
07070,1996-12-01 00:00:00,3,1016.2,3.5,93,2,7000,7.408,,,310,,,,,,,,,,1,wg-a,,,,AAXX 01004 07070 02657 /3104 10030 20020 30049 40162 51035 61000 70161 81500 90000 333 ////=
07070,1996-12-01 03:00:00,1,1018.9,2.6,100,1,500,3.704,,,250,,,,,,,,,,,wg-a,,,,AAXX 01034 07070 12500 72502 10010 20010 30075 40189 51026 60006 875// 90300=
07070,1996-12-01 06:00:00,2,1020.4,1.5,100,2,4500,7.408,,,220,1,7.1,,,,,1,,,10,wg-a,,,,AAXX 01064 07070 12645 22204 10020 20020 30090 40204 51015 60014 71011 81501 90600 333 10071 20010=
07070,1996-12-01 09:00:00,3,1021.6,1.2,100,3,3000,3.704,,,210,,,,,,,,,,10,wg-a,,,,AAXX 01094 07070 12630 72102 10030 20030 30102 40216 51012 60006 71022 8553/ 90900=
07070,1996-12-01 12:00:00,7,1019.9,-1.5,87,5,12000,14.816,,,240,,,,,,,,,,,wg-a,,,,AAXX 01124 07070 12/62 72408 10070 20050 30087 40199 58015 60006 8701/ 91200=
07070,1996-12-01 15:00:00,7,1018.1,-1.8,87,5,8000,18.52,,,220,,,,,,,,,,60,wg-a,,,,AAXX 01154 07070 02558 82210 10070 20050 30069 40181 56018 61000 76062 8457/ 91500 333 ////=
07070,1996-12-01 18:00:00,7,1015.8,-2.3,93,6,7000,22.224,,,220,1.6,7.6,,0,,,,,,20,wg-a,,,,AAXX 01184 07070 12457 82212 10070 20060 30046 40158 56023 60007 72065 887// 91800 333 10076 20016=
07070,1996-12-01 21:00:00,8,1014.3,-1.4,93,7,12000,22.224,,,230,,,,,,,,,,3,wg-a,,,,AAXX 01214 07070 02362 82312 10080 20070 30032 40143 56014 61000 70352 886// 92100 333 ////=
07070,1996-12-02 00:00:00,9,1012.8,-1.4,87,7,12000,25.928,,,260,,,,0,,,,,,1,wg-a,,,,AAXX 02004 07070 02462 72614 10090 20070 30018 40128 58014 60006 70152 878// 90000 333 60007=
07070,1996-12-02 06:00:00,6,1014.9,1.3,87,4,20000,25.928,,,270,6.4,9.2,,,,,,,,,wg-a,,,,AAXX 02064 07070 12/70 82714 10060 20040 30037 40149 53013 60004 82077 90600 333 10092 20064=
07070,1996-12-02 12:00:00,9,1017.2,0.1,71,4,20000,31.484,,57.412,280,,,,,,,,,,,wg-a,,,,AAXX 02124 07070 12570 /2817 10090 20040 30061 40172 50001 60006 85200 91200 333 91031=
07070,1996-12-02 15:00:00,7,1017.1,-0.2,81,4,12000,25.928,,,290,,,,0,,,,,,27,wg-a,,,,AAXX 02154 07070 12662 32914 10070 20040 30059 40171 55002 60007 72782 82202 91500=
07070,1996-12-02 18:00:00,6,1018.2,1.1,81,3,10000,18.52,,,260,5.5,9.2,,,,,,,,1,wg-a,,,,AAXX 02184 07070 32660 42610 10060 20030 30070 40182 51011 70181 83402 91800 333 10092 20055=
07070,1996-12-02 21:00:00,4,1018.5,0.2,93,3,12000,18.52,,,250,,,,,,,,,,,wg-a,,,,AAXX 02214 07070 12/62 02510 10040 20030 30072 40185 50002 60006 80000 92100=
07070,1996-12-03 00:00:00,5,1017.8,-0.7,87,3,10000,18.52,,,230,,,,,,,,,,,wg-a,,,,AAXX 03004 07070 12760 72310 10050 20030 30065 40178 58007 60006 875// 90000=
07070,1996-12-03 03:00:00,5,1016.1,-1.6,93,4,8000,11.112,,,240,,,,,,,,,,,wg-a,,,,AAXX 03034 07070 12758 72406 10050 20040 30049 40161 58016 60006 875// 90300=
07070,1996-12-03 06:00:00,6,1013.6,-2.5,93,5,7000,18.52,,,200,3.7,5.9,,,,,,,,,wg-a,,,,AAXX 03064 07070 02657 82010 10060 20050 30024 40136 58025 60006 8557/ 90600 333 10059 20037 60004=
07070,1996-12-03 09:00:00,6,1010.7,-2.8,93,5,6000,22.224,,,180,,,,1,,,,,,61,wg-a,,,,AAXX 03094 07070 12456 81812 10060 20050 39996 40107 58028 60017 76162 8372/ 90900=
07070,1996-12-03 12:00:00,7,1006.7,-4,93,6,500,29.632,,,200,,,,1,,,,,,61,wg-a,,,,AAXX 03124 07070 02400 82016 10070 20060 39956 40067 58040 60026 76162 877// 91200 333 60017=
07070,1996-12-03 15:00:00,8,1002.4,-4.2,87,6,9000,29.632,,50.004,200,,,,0,,,,,,60,wg-a,,,,AAXX 03154 07070 12459 82016 10080 20060 39914 40024 56042 60007 76065 877// 91500 333 91027=
07070,1996-12-03 18:00:00,8,1000.9,-1.5,87,6,8000,29.632,,50.004,200,5.6,8.3,,,,,,,,51,wg-a,,,,AAXX 03184 07070 02458 82016 10080 20060 39899 40009 56015 61000 75165 875// 91800 333 10083 20056 //// 91027=
07070,1996-12-03 21:00:00,9,999.6,-1.2,87,7,8000,29.632,,,200,,,,,,,,,,60,wg-a,,,,AAXX 03214 07070 02558 82016 10090 20070 39887 49996 56012 61000 76065 885// 92100 333 ////=
07070,1996-12-04 00:00:00,9,1000.4,0.8,87,7,8000,25.928,,,210,,,,1,,,,,,61,wg-a,,,,AAXX 04004 07070 02458 82114 10090 20070 39895 40004 53008 60016 76162 885// 90000 333 60017=
07070,1996-12-04 03:00:00,8,1002.7,2.2,87,6,15000,14.816,,,220,,,,0,,,,,,1,wg-a,,,,AAXX 04034 07070 12465 82208 10080 20060 39917 40027 53022 60007 70162 888// 90300=
07070,1996-12-04 06:00:00,7,1004.7,2,93,6,20000,18.52,,,220,7.2,8.8,,,,,4,,,3,wg-a,,,,AAXX 04064 07070 02470 72210 10070 20060 39937 40047 53020 60044 70362 878// 90600 333 10088 20072 61000=
07070,1996-12-04 09:00:00,7,1007.1,2.3,93,6,12000,7.408,,,150,,,,,,,,,,,wg-a,,,,AAXX 04094 07070 12462 81504 10070 20060 39960 40071 51023 60006 8553/ 90900=
07070,1996-12-04 12:00:00,8,1007.5,0.5,87,6,16000,11.112,,,160,,,,,,,,,,21,wg-a,,,,AAXX 04124 07070 02466 81606 10080 20060 39965 40075 50005 61000 72162 8172/ 91200 333 6100=
07070,1996-12-04 15:00:00,7,1008.6,1,87,5,16000,14.816,,,180,,,,,,,,,,21,wg-a,,,,AAXX 04154 07070 02466 81808 10070 20050 39975 40086 53010 61000 72162 8382/ 91500 333 ////=
07070,1996-12-04 18:00:00,6,1009.6,1,93,5,8000,3.704,,,140,5.5,7.9,,0,,,,,,60,wg-a,,,,AAXX 04184 07070 12458 81402 10060 20050 39985 40096 51010 60007 76062 8552/ 91800 333 10079 20055=
07070,1996-12-04 21:00:00,5,1010.5,0.8,100,5,6000,3.704,,,90,,,,1,,,,,,61,wg-a,,,,AAXX 04214 07070 12456 80902 10050 20050 39993 40105 51008 60017 76166 8652/ 92100=
07070,1996-12-05 00:00:00,5,1011.2,0.7,100,5,3500,7.408,,,360,,,,2,,,,,,10,wg-a,,,,AAXX 05004 07070 02335 83604 10050 20050 30000 40112 51007 60026 71066 875// 90000 333 60027=
07070,1996-12-05 03:00:00,5,1011.6,0.4,100,5,2500,7.408,,,10,,,,1,,,,,,10,wg-a,,,,AAXX 05034 07070 12225 80104 10050 20050 30004 40116 50004 60017 71065 875// 90300=
07070,1996-12-05 06:00:00,5,1012.1,0.5,100,5,500,3.704,,,330,4.9,5.6,,,,,3,,,21,wg-a,,,,AAXX 05064 07070 02300 73302 10050 20050 30009 40121 51005 60034 72165 8657/ 90600 333 10056 20049 61000=
07070,1996-12-05 09:00:00,5,1013.5,1.4,100,5,8000,7.408,,,10,,,,,,,,,,21,wg-a,,,,AAXX 05094 07070 02658 80104 10050 20050 30023 40135 51014 61000 72162 8357/ 90900 333 ////=
07070,1996-12-05 12:00:00,6,1013.6,0.1,93,5,10000,3.704,,,20,,,,,,,,,,21,wg-a,,,,AAXX 05124 07070 02460 80202 10060 20050 30024 40136 50001 61000 72162 8387/ 91200 333 6100=
07070,1996-12-05 15:00:00,7,1013.4,-0.1,93,6,500,7.408,,,10,,,,,,,,,,58,wg-a,,,,AAXX 05154 07070 02300 80104 10070 20060 30023 40134 56001 61000 75865 887// 91500 333 ////=
07070,1996-12-05 18:00:00,7,1014.1,0.6,93,6,1200,7.408,,,350,4.6,6.7,,0,,,,,,10,wg-a,,,,AAXX 05184 07070 12112 83504 10070 20060 30029 40141 51006 60007 71065 887// 91800 333 10067 20046=
07070,1996-12-05 21:00:00,6,1014.6,0.5,100,6,1000,7.408,,,360,,,,0,,,,,,10,wg-a,,,,AAXX 05214 07070 12010 83604 10060 20060 30034 40146 51005 60007 71052 887// 92100=
07070,1996-12-06 00:00:00,6,1014.8,0.2,100,6,900,7.408,,,330,,,,0,,,,,,44,wg-a,,,,AAXX 06004 07070 02009 83304 10060 20060 30036 40148 53002 60016 74465 887// 90000 333 60007=
07070,1996-12-06 03:00:00,6,1015.3,0.5,100,6,900,3.704,,,280,,,,,,,,,,44,wg-a,,,,AAXX 06034 07070 12109 82802 10060 20060 30041 40153 53005 60006 74444 887// 90300=
07070,1996-12-06 06:00:00,6,1015.7,0.4,100,6,1200,3.704,,,20,5.9,6.5,,,,,1,,,10,wg-a,,,,AAXX 06064 07070 12012 80202 10060 20060 30045 40157 53004 60014 71042 887// 90600 333 10065 20059=
07070,1996-12-06 09:00:00,5,1016.8,1.1,100,5,2200,3.704,,,160,,,,,,,,,,10,wg-a,,,,AAXX 06094 07070 12222 71602 10050 20050 30056 40168 53011 60006 71065 875// 90900=
07070,1996-12-06 12:00:00,7,1016.9,0.1,93,6,500,11.112,,,40,,,,0,,,,,,1,wg-a,,,,AAXX 06124 07070 02700 70406 10070 20060 30057 40169 50001 60006 70165 8553/ 91200 333 60007=
07070,1996-12-06 15:00:00,7,1017.2,0.3,93,6,4500,3.704,,,100,,,,,,,,,,10,wg-a,,,,AAXX 06154 07070 12745 71002 10070 20060 30060 40172 53003 60006 71022 875// 91500=
07070,1996-12-06 18:00:00,6,1018.6,1.4,93,5,4000,11.112,,,80,4.8,8.1,,,,,,,,10,wg-a,,,,AAXX 06184 07070 32740 70806 10060 20050 30074 40186 51014 71022 85502 91800 333 10081 20048=
07070,1996-12-06 21:00:00,4,1019.7,1,93,3,500,3.704,,,130,,,,,,,,,,,wg-a,,,,AAXX 06214 07070 12700 /1302 10040 20030 30084 40197 53010 60006 81502 92100=
07070,1996-12-07 00:00:00,3,1020.9,1.1,93,2,500,3.704,,,130,,,,,,,,,,,wg-a,,,,AAXX 07004 07070 12/00 01302 10030 20020 30095 40209 53011 60006 80000 90000=
07070,1996-12-07 03:00:00,1,1021.2,0.2,100,1,3000,7.408,,,90,,,,,,,,,,10,wg-a,,,,AAXX 07034 07070 12/30 00904 10010 20010 30097 40212 53002 60006 71000 80000 90300=
07070,1996-12-07 06:00:00,0,1022,0.8,100,0,3000,3.704,,,120,-0.2,6,,,,,,,,10,wg-a,,,,AAXX 07064 07070 02/30 01202 10000 20000 30105 40220 53008 60006 71000 80000 90600 333 10060 21002 60004=
07070,1996-12-07 09:00:00,1,1023.8,1.8,100,1,3000,11.112,,,120,,,,,,,,,,10,wg-a,,,,AAXX 07094 07070 12/30 21206 10010 20010 30123 40238 53018 60006 71000 80001 90900=
07070,1996-12-07 12:00:00,1,1024.9,1.1,100,1,800,7.408,,,80,,,,,,,,,,44,wg-a,,,,AAXX 07124 07070 12008 80804 10010 20010 30134 40249 51011 60006 74441 886// 91200=
07070,1996-12-07 15:00:00,2,1025.2,0.3,100,2,2400,11.112,,,90,,,,,,,,,,10,wg-a,,,,AAXX 07154 07070 12224 70906 10020 20020 30137 40252 53003 60006 71042 876// 91500=
07070,1996-12-07 18:00:00,1,1025.7,0.5,100,1,2500,11.112,,,130,-0.4,2.1,,,,,,,,10,wg-a,,,,AAXX 07184 07070 12125 81306 10010 20010 30142 40257 51005 60006 71042 886// 91800 333 10021 21004=
07070,1996-12-07 21:00:00,1,1026.7,1,100,1,1200,11.112,,,80,,,,,,,,,,10,wg-a,,,,AAXX 07214 07070 12012 80806 10010 20010 30152 40267 53010 60006 71022 886// 92100=
07070,1996-12-08 00:00:00,0,1027.3,0.5,100,0,1500,11.112,,,120,,,,,,,,,,10,wg-a,,,,AAXX 08004 07070 12015 81206 10000 20000 30157 40273 53005 60006 71022 886// 90000=
07070,1996-12-08 03:00:00,0,1026.9,-0.4,100,0,1200,11.112,,,70,,,,,,,,,,10,wg-a,,,,AAXX 08034 07070 12012 80706 10000 20000 30153 40269 58004 60006 71022 886// 90300=
07070,1996-12-08 06:00:00,0,1026.1,-0.8,100,0,1200,11.112,,,80,-0.4,1.4,,,,,,,,10,wg-a,,,,AAXX 08064 07070 12112 80806 10000 20000 30145 40261 56008 60006 71022 886// 90600 333 10014 21004=
07070,1996-12-08 09:00:00,0,1026.7,0.6,93,-1,1500,11.112,,,60,,,,,,,,,,10,wg-a,,,,AAXX 08094 07070 12115 80606 10000 21010 30151 40267 53006 60006 71022 886// 90900=
07070,1996-12-08 12:00:00,1,1025.5,-1.1,93,0,4000,11.112,,,70,,,,,,,,,,10,wg-a,,,,AAXX 08124 07070 12240 80706 10010 20000 30140 40255 58011 60006 71022 886// 91200=
07070,1996-12-08 15:00:00,1,1025,-0.5,93,0,4500,3.704,,,110,,,,,,,,,,10,wg-a,,,,AAXX 08154 07070 12345 81102 10010 20000 30135 40250 55005 60006 71022 886// 91500=
07070,1996-12-08 18:00:00,1,1024.8,-0.2,86,-1,500,11.112,,,120,-0.5,1.4,,,,,,,,,wg-a,,,,AAXX 08184 07070 12300 81206 10010 21010 30133 40248 55002 60006 886// 91800 333 10014 21005=
07070,1996-12-08 21:00:00,1,1024.7,-0.1,86,-1,500,14.816,,,90,,,,,,,,,,,wg-a,,,,AAXX 08214 07070 12300 80908 10010 21010 30132 40247 57001 60006 886// 92100=
07070,1996-12-09 00:00:00,0,1024,-0.7,93,-1,500,11.112,,,100,,,,,,,,,,,wg-a,,,,AAXX 09004 07070 12300 81006 10000 21010 30125 40240 58007 60006 886// 90000=
07070,1996-12-09 03:00:00,0,1022.9,-1.1,93,-1,500,11.112,,,90,,,,,,,,,,,wg-a,,,,AAXX 09034 07070 12200 80906 10000 21010 30114 40229 58011 60006 886// 90300=
07070,1996-12-09 06:00:00,0,1022,-0.9,93,-1,4000,11.112,,,90,-0.6,0.9,,,,,,,,10,wg-a,,,,AAXX 09064 07070 12240 80906 10000 21010 30105 40220 56009 60006 71022 886// 90600 333 10009 21006=
07070,1996-12-09 09:00:00,-1,1021.6,-0.4,100,-1,2500,11.112,,,60,,,,,,,,,,10,wg-a,,,,AAXX 09094 07070 12225 80606 11010 21010 30101 40216 57004 60006 71022 886// 90900=
07070,1996-12-09 12:00:00,0,1020.4,-1.2,93,-1,3000,3.704,,,70,,,,,,,,,,10,wg-a,,,,AAXX 09124 07070 12230 80702 10000 21010 30089 40204 58012 60006 71022 886// 91200=
07070,1996-12-09 15:00:00,0,1018.8,-1.6,86,-2,3000,11.112,,,80,,,,,,,,,,10,wg-a,,,,AAXX 09154 07070 12230 80806 10000 21020 30073 40188 56016 60006 71022 886// 91500=
07070,1996-12-09 18:00:00,0,1019.7,0.9,93,-1,3500,3.704,,,120,-0.6,-0.1,,,,,,,,10,wg-a,,,,AAXX 09184 07070 12335 81202 10000 21010 30082 40197 53009 60006 71022 886// 91800 333 11001 21006=
07070,1996-12-09 21:00:00,0,1019,-0.7,93,-1,3800,3.704,,,140,,,,,,,,,,10,wg-a,,,,AAXX 09214 07070 12338 81402 10000 21010 30075 40190 55007 60006 71022 886// 92100=
07070,1996-12-10 00:00:00,0,1018.7,-0.3,93,-1,3500,11.112,,,130,,,,,,,,,,10,wg-a,,,,AAXX 10004 07070 12335 81306 10000 21010 30072 40187 58003 60006 71022 886// 90000=
07070,1996-12-10 03:00:00,0,1018.4,-0.3,93,-1,3500,11.112,,,150,,,,,,,,,,10,wg-a,,,,AAXX 10034 07070 12235 81506 10000 21010 30069 40184 56003 60006 71022 886// 90300=
07070,1996-12-10 06:00:00,-1,1017.4,-1,100,-1,4000,11.112,,,120,-0.6,-0.2,,,,,,,,10,wg-a,,,,AAXX 10064 07070 12240 81206 11010 21010 30059 40174 55010 60006 71022 886// 90600 333 11002 21006=
07070,1996-12-10 09:00:00,0,1018.1,0.7,93,-1,3200,14.816,,,90,,,,,,,,,,10,wg-a,,,,AAXX 10094 07070 12232 80908 10000 21010 30066 40181 53007 60006 71022 886// 90900=
07070,1996-12-10 12:00:00,0,1016.6,-1.5,93,-1,2500,7.408,,,40,,,,,,,,,,10,wg-a,,,,AAXX 10124 07070 12225 80404 10000 21010 30051 40166 58015 60006 71022 886// 91200=
07070,1996-12-10 15:00:00,0,1016.2,-0.4,93,-1,2500,11.112,,,360,,,,,,,,,,10,wg-a,,,,AAXX 10154 07070 12225 83606 10000 21010 30047 40162 56004 60006 71022 886// 91500=
07070,1996-12-10 18:00:00,0,1016.9,0.7,93,-1,3500,11.112,,,10,-0.6,0,,,,,,,,10,wg-a,,,,AAXX 10184 07070 12235 80106 10000 21010 30054 40169 53007 60006 71022 886// 91800 333 10000 21006=
07070,1996-12-10 21:00:00,0,1017,0.1,93,-1,3500,3.704,,,340,,,,,,,,,,10,wg-a,,,,AAXX 10214 07070 12335 83402 10000 21010 30055 40170 53001 60006 71022 886// 92100=
07070,1996-12-11 00:00:00,0,1016.9,0.1,93,-1,3000,3.704,,,300,,,,,,,,,,10,wg-a,,,,AAXX 11004 07070 12330 83002 10000 21010 30054 40169 50001 60006 71022 886// 90000=
07070,1996-12-11 03:00:00,0,1016.8,-0.1,93,-1,3500,3.704,,,90,,,,,,,,,,10,wg-a,,,,AAXX 11034 07070 12235 80902 10000 21010 30053 40168 57001 60006 71022 886// 90300=
07070,1996-12-11 06:00:00,0,1016.7,-0.1,93,-1,3000,7.408,,,130,-0.2,0.1,,,,,,,,10,wg-a,,,,AAXX 11064 07070 12230 81304 10000 21010 30052 40167 55001 60006 71022 886// 90600 333 10001 21002=
07070,1996-12-11 09:00:00,0,1017.5,0.8,93,-1,2000,11.112,,,120,,,,,,,,,,10,wg-a,,,,AAXX 11094 07070 12220 81206 10000 21010 30060 40175 51008 60006 71022 886// 90900=
07070,1996-12-11 12:00:00,0,1016.5,-0.9,93,-1,2500,7.408,,,130,,,,,,,,,,10,wg-a,,,,AAXX 11124 07070 12225 81304 10000 21010 30051 40165 58009 60006 71022 886// 91200=
07070,1996-12-11 15:00:00,0,1015.4,-1.1,93,-1,3000,7.408,,,150,,,,,,,,,,10,wg-a,,,,AAXX 11154 07070 12230 81504 10000 21010 30040 40154 56011 60006 71022 886// 91500=
07070,1996-12-11 18:00:00,0,1016,0.5,93,-1,3500,11.112,,,170,-0.4,0.3,,,,,,,,10,wg-a,,,,AAXX 11184 07070 02235 81706 10000 21010 30045 40160 51005 61000 71052 886// 91800 333 10003 21004 ////=
07070,1996-12-11 21:00:00,0,1015.2,-0.7,93,-1,4000,14.816,,,140,,,,,,,,,,10,wg-a,,,,AAXX 11214 07070 02340 81408 10000 21010 30038 40152 58007 61000 71022 886// 92100 333 ////=
07070,1996-12-12 00:00:00,1,1014.1,-1.1,86,-1,4500,11.112,,,150,,,,,,,,,,10,wg-a,,,,AAXX 12004 07070 02345 81506 10010 21010 30027 40141 58011 61000 71022 886// 90000 333 ////=
07070,1996-12-12 03:00:00,1,1013.9,-0.2,93,0,4500,7.408,,,140,,,,,,,,,,10,wg-a,,,,AAXX 12034 07070 12345 81404 10010 20000 30025 40139 57002 60006 71022 886// 90300=
07070,1996-12-12 06:00:00,0,1012.9,-1,100,0,1000,11.112,,,110,-0.1,0.7,,,,,,,,10,wg-a,,,,AAXX 12064 07070 02010 81106 10000 20000 30015 40129 58010 61000 71022 886// 90600 333 10007 21001 ////=
07070,1996-12-12 09:00:00,0,1012.8,-0.1,100,0,600,11.112,,,150,,,,,,,,,,42,wg-a,,,,AAXX 12094 07070 12006 91506 10000 20000 30014 40128 56001 60006 74242 896// 90900=
07070,1996-12-12 12:00:00,1,1011.4,-1.4,100,1,1600,11.112,,,140,,,,,,,,,,10,wg-a,,,,AAXX 12124 07070 12016 81406 10010 20010 30000 40114 58014 60006 71042 886// 91200=
07070,1996-12-12 15:00:00,3,1009.6,-1.7,93,2,1800,3.704,,,130,,,,,,,,,,10,wg-a,,,,AAXX 12154 07070 12118 71302 10030 20020 39983 40096 56017 60006 71011 82604 91500=
07070,1996-12-12 18:00:00,0,1008.6,-1.1,100,0,500,3.704,,,50,-0.4,2.7,,,,,,,,45,wg-a,,,,AAXX 12184 07070 12/00 90502 10000 20000 39972 40086 58011 60006 74541 89/// 91800 333 10027 21004=
07070,1996-12-12 21:00:00,0,1008.1,-0.5,100,0,800,3.704,,,50,,,,,,,,,,42,wg-a,,,,AAXX 12214 07070 12008 90502 10000 20000 39967 40081 58005 60006 74244 896// 92100=
07070,1996-12-13 00:00:00,1,1006.1,-1.9,100,1,2500,3.704,,,40,,,,0,,,,,,10,wg-a,,,,AAXX 13004 07070 02725 80402 10010 20010 39948 40061 58019 60006 71064 875// 90000 333 60007=
07070,1996-12-13 03:00:00,3,1003.8,-2.2,100,3,2500,7.408,,,90,,,,1,,,,,,10,wg-a,,,,AAXX 13034 07070 12225 80904 10030 20030 39926 40038 58022 60017 71066 886// 90300=
07070,1996-12-13 06:00:00,4,1001.6,-2.1,100,4,1200,7.408,,,100,-0.9,3.9,,4,,,5,,,10,wg-a,,,,AAXX 13064 07070 02212 81004 10040 20040 39905 40016 56021 60054 71062 875// 90600 333 10039 21009 60047=
07070,1996-12-13 09:00:00,4,1001.1,-0.5,100,4,300,3.704,,,280,,,,,,,,,,45,wg-a,,,,AAXX 13094 07070 32/03 92802 10040 20040 39900 40011 55005 74554 89/// 90900=
07070,1996-12-13 12:00:00,5,1000.6,-0.5,100,5,1800,11.112,,,320,,,,0,,,,,,10,wg-a,,,,AAXX 13124 07070 02018 83206 10050 20050 39895 40006 58005 60026 71065 887// 91200 333 60007=
07070,1996-12-13 15:00:00,4,1000.7,0.1,100,4,500,14.816,,,10,,,,,,,,,,60,wg-a,,,,AAXX 13154 07070 02400 80108 10040 20040 39896 40007 53001 61000 76054 875// 91500 333 ////=
07070,1996-12-13 18:00:00,3,1001.8,1,93,2,6000,14.816,,,20,3.1,4.7,,0,,,,,,1,wg-a,,,,AAXX 13184 07070 12456 80208 10030 20020 39906 40018 51010 60007 70165 875// 91800 333 10047 20031=
07070,1996-12-13 21:00:00,3,1003.7,1.9,87,1,8000,14.816,,,20,,,,,,,,,,,wg-a,,,,AAXX 13214 07070 12458 80208 10030 20010 39925 40037 53019 60006 885// 92100=
07070,1996-12-14 00:00:00,3,1004.7,1,87,1,8000,18.52,,,20,,,,,,,,,,,wg-a,,,,AAXX 14004 07070 12558 70210 10030 20010 39935 40047 51010 60006 875// 90000=
07070,1996-12-14 03:00:00,0,1005.8,1,93,-1,8000,11.112,,,10,,,,,,,,,,,wg-a,,,,AAXX 14034 07070 12/58 00106 10000 21010 39945 40058 53010 60006 80000 90300=
07070,1996-12-14 06:00:00,-1,1007.5,1.6,86,-3,10000,11.112,,,350,-1.2,3.1,,,,,2,,,,wg-a,,,,AAXX 14064 07070 02/60 03506 11010 21030 39961 40075 53016 60006 80000 90600 333 10031 21012 60024=
07070,1996-12-14 09:00:00,-1,1009.6,2.1,86,-3,10000,14.816,,,10,,,,,,,,,,,wg-a,,,,AAXX 14094 07070 12/60 10108 11010 21030 39982 40096 51021 60006 80001 90900=
07070,1996-12-14 12:00:00,2,1010.7,1.2,60,-5,12000,14.816,,,10,,,,,,,,,,,wg-a,,,,AAXX 14124 07070 12/62 70108 10020 21050 39994 40107 51012 60006 81032 91200=
07070,1996-12-14 15:00:00,2,1011.8,1.1,75,-2,15000,14.816,,,350,,,,,,,,,,,wg-a,,,,AAXX 14154 07070 12/65 63508 10020 21020 30005 40118 53011 60006 80002 91500=
07070,1996-12-14 18:00:00,-1,1013.5,1.5,86,-3,15000,7.408,,,290,-2.2,2.8,,,,,,,,,wg-a,,,,AAXX 14184 07070 12/65 22904 11010 21030 30020 40135 51015 60006 80002 91800 333 10028 21022=
07070,1996-12-14 21:00:00,-2,1014.6,1.1,93,-3,8000,3.704,,,240,,,,,,,,,,,wg-a,,,,AAXX 14214 07070 12/58 02402 11020 21030 30031 40146 51011 60006 80000 92100=
07070,1996-12-15 00:00:00,-4,1015.2,0.5,93,-5,8000,7.408,,,220,,,,,,,,,,,wg-a,,,,AAXX 15004 07070 12/58 02204 11040 21050 30036 40152 51005 60006 80000 90000=
07070,1996-12-15 03:00:00,-3,1015.4,0.2,93,-4,15000,11.112,,,200,,,,,,,,,,,wg-a,,,,AAXX 15034 07070 12665 72006 11030 21040 30038 40154 50002 60006 875// 90300=
07070,1996-12-15 06:00:00,1,1015.3,0.1,80,-2,12000,7.408,,,260,-4.1,0.9,,,,,,,,,wg-a,,,,AAXX 15064 07070 12562 82604 10010 21020 30039 40153 53001 60006 885// 90600 333 10009 21041=
07070,1996-12-15 09:00:00,2,1016.6,1.3,80,-1,15000,11.112,,,270,,,,,,,,,,,wg-a,,,,AAXX 15094 07070 12665 82706 10020 21010 30052 40166 53013 60006 885// 90900=
07070,1996-12-15 12:00:00,3,1017.3,0.7,81,0,12000,14.816,,,250,,,,,,,,,,,wg-a,,,,AAXX 15124 07070 12462 82508 10030 20000 30059 40173 51007 60006 885// 91200=
07070,1996-12-15 15:00:00,3,1017.6,0.4,87,1,8000,14.816,,,270,,,,,,,,,,,wg-a,,,,AAXX 15154 07070 12458 82708 10030 20010 30063 40176 53004 60006 875// 91500=
07070,1996-12-15 18:00:00,2,1018.7,1,100,2,4500,7.408,,,210,0.9,3.3,,,,,,,,10,wg-a,,,,AAXX 15184 07070 02345 82104 10020 20020 30073 40187 51010 61000 71052 886// 91800 333 10033 20009 ////=
07070,1996-12-15 21:00:00,2,1019.7,1,93,1,4000,7.408,,,180,,,,,,,,,,10,wg-a,,,,AAXX 15214 07070 12340 81804 10020 20010 30083 40197 51010 60006 71022 886// 92100=
07070,1996-12-16 00:00:00,2,1019.4,-0.3,100,2,4000,3.704,,,190,,,,,,,,,,10,wg-a,,,,AAXX 16004 07070 02340 81902 10020 20020 30080 40194 58003 61000 71052 886// 90000 333 6100=
07070,1996-12-16 03:00:00,2,1019,-0.4,93,1,3000,7.408,,,80,,,,,,,,,,10,wg-a,,,,AAXX 16034 07070 12230 80804 10020 20010 30076 40190 58004 60006 71022 886// 90300=
07070,1996-12-16 06:00:00,1,1018.4,-0.6,100,1,4500,7.408,,,100,1.4,2.8,,,,,,,,10,wg-a,,,,AAXX 16064 07070 02245 81004 10010 20010 30070 40184 57006 61000 71052 885// 90600 333 10028 20014 6100=
07070,1996-12-16 09:00:00,2,1018.1,-0.3,93,1,3500,7.408,,,80,,,,,,,,,,10,wg-a,,,,AAXX 16094 07070 12535 /0804 10020 20010 30067 40181 58003 60006 71022 875// 90900=
07070,1996-12-16 12:00:00,5,1015.6,-2.3,87,3,7000,11.112,,,70,,,,,,,,,,,wg-a,,,,AAXX 16124 07070 12/57 70706 10050 20030 30044 40156 58023 60006 80001 91200=
07070,1996-12-16 15:00:00,5,1013.1,-2.5,87,3,10000,11.112,,,140,,,,,,,,,,,wg-a,,,,AAXX 16154 07070 12/60 71406 10050 20030 30019 40131 56025 60006 81031 91500=
07070,1996-12-16 18:00:00,2,1012.4,-0.8,93,1,7000,14.816,,,170,1.3,6.3,,,,,,,,,wg-a,,,,AAXX 16184 07070 12/57 71708 10020 20010 30011 40124 55008 60006 80002 91800 333 10063 20013=
07070,1996-12-16 21:00:00,-1,1013,0.4,93,-2,8000,7.408,,,170,,,,,,,,,,,wg-a,,,,AAXX 16214 07070 12/58 71704 11010 21020 30015 40130 50004 60006 80002 92100=
07070,1996-12-17 00:00:00,2,1013,0.2,93,1,7000,11.112,,,220,,,,,,,,,,,wg-a,,,,AAXX 17004 07070 12457 82206 10020 20010 30017 40130 53002 60006 885// 90000=
07070,1996-12-17 03:00:00,2,1013.3,0.3,93,1,7000,7.408,,,220,,,,,,,,,,,wg-a,,,,AAXX 17034 07070 12457 82204 10020 20010 30020 40133 50003 60006 885// 90300=
07070,1996-12-17 06:00:00,2,1013.2,-0.1,93,1,6000,11.112,,,180,-1.1,2.6,,,,,,,,60,wg-a,,,,AAXX 17064 07070 02656 81806 10020 20010 30019 40132 55001 61000 76062 8457/ 90600 333 10026 21011 6100=
07070,1996-12-17 09:00:00,3,1013.1,-0.1,93,2,3000,7.408,,,190,,,,2,,,,,,10,wg-a,,,,AAXX 17094 07070 12530 81904 10030 20020 30018 40131 56001 60027 71065 8457/ 90900=
07070,1996-12-17 12:00:00,4,1011.5,-1.5,93,3,2000,11.112,,,180,,,,3,,,,,,10,wg-a,,,,AAXX 17124 07070 02420 81806 10040 20030 30003 40115 58015 60046 71065 8457/ 91200 333 60037=
07070,1996-12-17 15:00:00,5,1010.9,-0.6,100,5,1800,7.408,,,170,,,,0,,,,,,10,wg-a,,,,AAXX 17154 07070 12318 81704 10050 20050 39997 40109 55006 60007 71065 886// 91500=
07070,1996-12-17 18:00:00,5,1011.3,0.4,100,5,1500,3.704,,,130,1.9,5.1,,,,,,,,10,wg-a,,,,AAXX 17184 07070 02315 81302 10050 20050 30001 40113 51004 61000 71065 876// 91800 333 10051 20019 6000=
07070,1996-12-17 21:00:00,5,1011.7,0.4,100,5,1500,7.408,,,100,,,,1,,,,,,10,wg-a,,,,AAXX 17214 07070 12215 81004 10050 20050 30005 40117 50004 60017 71055 887// 92100=
07070,1996-12-18 00:00:00,6,1011.2,-0.4,100,6,2500,0,,,0,,,,2,,,,,,10,wg-a,,,,AAXX 18004 07070 02125 80000 10060 20060 30001 40112 57004 60026 71065 886// 90000 333 60027=
07070,1996-12-18 03:00:00,7,1010.2,-1,100,7,3000,7.408,,,200,,,,0,,,,,,10,wg-a,,,,AAXX 18034 07070 12430 82004 10070 20070 39991 40102 58010 60007 71062 876// 90300=
07070,1996-12-18 06:00:00,7,1009.1,-1.1,100,7,7000,7.408,,,180,4.9,7.5,,,,,,,,21,wg-a,,,,AAXX 18064 07070 02557 81804 10070 20070 39980 40091 58011 61000 72165 875// 90600 333 10075 20049 6010=
07070,1996-12-18 09:00:00,9,1008.9,-0.1,93,8,6000,7.408,,,190,,,,,,,,,,,wg-a,,,,AAXX 18094 07070 12756 /1904 10090 20080 39979 40089 58001 60006 85501 90900=
07070,1996-12-18 12:00:00,11,1007.2,-1.6,82,8,8000,11.112,,,170,,,,,,,,,,,wg-a,,,,AAXX 18124 07070 12/58 71706 10110 20080 39963 40072 58016 60006 81032 91200=
07070,1996-12-18 15:00:00,10,1005.2,-2,93,9,9000,11.112,,,140,,,,,,,,,,,wg-a,,,,AAXX 18154 07070 12759 71406 10100 20090 39943 40052 56020 60006 85532 91500=
07070,1996-12-18 18:00:00,9,1004.3,-0.9,93,8,8000,7.408,,,170,7.1,11.9,,,,,,,,,wg-a,,,,AAXX 18184 07070 12758 71704 10090 20080 39934 40043 58009 60006 875// 91800 333 10119 20071=
07070,1996-12-18 21:00:00,9,1003.3,-1,87,7,10000,11.112,,,180,,,,,,,,,,,wg-a,,,,AAXX 18214 07070 12760 71806 10090 20070 39924 40033 56010 60006 875// 92100=
07070,1996-12-19 00:00:00,8,1002.6,-0.8,93,7,8000,11.112,,,180,,,,,,,,,,60,wg-a,,,,AAXX 19004 07070 02758 81806 10080 20070 39916 40026 56008 61000 76062 875// 90000 333 6100=
07070,1996-12-19 03:00:00,8,1001.6,-1,93,7,6000,14.816,,,170,,,,,,,,,,61,wg-a,,,,AAXX 19034 07070 02556 81708 10080 20070 39906 40016 56010 61000 76162 875// 90300 333 ////=
07070,1996-12-19 06:00:00,8,999.9,-1.6,100,8,6000,14.816,,,180,7.8,9.6,,,,,,,,61,wg-a,,,,AAXX 19064 07070 02556 81808 10080 20080 39890 49999 56016 61000 76162 875// 90600 333 10096 20078 6002=
07070,1996-12-19 09:00:00,9,999.9,-0,93,8,4500,22.224,,,170,,,,0,,,,,,10,wg-a,,,,AAXX 19094 07070 12345 81712 10090 20080 39890 49999 55000 60007 71062 877// 90900=
07070,1996-12-19 12:00:00,10,999.9,0.1,93,9,8000,18.52,,,250,,,,,,,,,,1,wg-a,,,,AAXX 19124 07070 12258 82510 10100 20090 39891 49999 50001 60016 70162 877// 91200=
07070,1996-12-19 15:00:00,10,999.7,-0.2,100,10,3500,11.112,,,200,,,,0,,,,,,10,wg-a,,,,AAXX 19154 07070 12335 82006 10100 20100 39889 49997 56002 60007 71052 877// 91500=
07070,1996-12-19 18:00:00,10,1000,0.2,93,9,6000,3.704,,,160,8.3,10.7,,,,,,,,3,wg-a,,,,AAXX 19184 07070 12256 81602 10100 20090 39891 40000 50002 60006 70352 877// 91800 333 10107 20083=
07070,1996-12-19 21:00:00,9,1000.2,0.2,100,9,4000,7.408,,,160,,,,,,,,,,10,wg-a,,,,AAXX 19214 07070 12240 81604 10090 20090 39893 40002 50002 60006 71022 877// 92100=
07070,1996-12-20 00:00:00,8,1000,-0.2,100,8,2000,7.408,,,80,,,,,,,,,,10,wg-a,,,,AAXX 20004 07070 12520 80804 10080 20080 39891 40000 58002 60006 71022 875// 90000=
07070,1996-12-20 03:00:00,8,999.7,-0.3,100,8,1500,3.704,,,120,,,,0,,,,,,10,wg-a,,,,AAXX 20034 07070 12015 81202 10080 20080 39888 49997 58003 60007 71062 887// 90300=
07070,1996-12-20 06:00:00,9,999.4,-0.3,93,8,1500,3.704,,,70,8,9.5,,,,,,,,10,wg-a,,,,AAXX 20064 07070 02015 80702 10090 20080 39885 49994 56003 61000 71065 887// 90600 333 10095 20080 6001=
07070,1996-12-20 09:00:00,9,1000.6,1.2,100,9,1700,7.408,,,100,,,,1,,,,,,10,wg-a,,,,AAXX 20094 07070 12217 81004 10090 20090 39897 40006 53012 60017 71065 887// 90900=
07070,1996-12-20 12:00:00,9,1001.1,0.5,100,9,1800,7.408,,,150,,,,2,,,,,,10,wg-a,,,,AAXX 20124 07070 02218 81504 10090 20090 39902 40011 51005 60026 71062 877// 91200 333 60027=
07070,1996-12-20 15:00:00,10,1001.5,0.4,100,10,1800,0,,,0,,,,,,,,,,,wg-a,,,,AAXX 20154 07070 32/18 /0000 10100 20100 39906 40015 53004 91500=
07070,1996-12-20 18:00:00,9,1002.7,1.2,100,9,1800,7.408,,,140,8.4,9.7,,,,,,,,10,wg-a,,,,AAXX 20184 07070 02218 81404 10090 20090 39918 40027 53012 61000 71052 877// 91800 333 10097 20084 6000=
07070,1996-12-20 21:00:00,8,1004.3,1.5,100,8,1500,18.52,,,90,,,,0,,,,,,10,wg-a,,,,AAXX 20214 07070 12215 80910 10080 20080 39933 40043 51015 60007 71065 876// 92100=
07070,1996-12-21 00:00:00,6,1005.8,1.4,100,6,6000,22.224,,,90,,,,,,,,,,3,wg-a,,,,AAXX 21004 07070 02256 80912 10060 20060 39947 40058 53014 60016 70365 886// 90000 333 61000=
07070,1996-12-21 03:00:00,5,1007.3,1.4,93,4,6000,14.816,,,80,,,,,,,,,,,wg-a,,,,AAXX 21034 07070 12256 80808 10050 20040 39961 40073 53014 60006 886// 90300=
07070,1996-12-21 06:00:00,4,1008.2,0.9,93,3,500,18.52,,,80,3.8,9.2,,,,,3,,,,wg-a,,,,AAXX 21064 07070 02200 80810 10040 20030 39970 40082 53009 60006 886// 90600 333 10092 20038 60034=
07070,1996-12-21 09:00:00,3,1009.6,1.4,93,2,4000,22.224,,,100,,,,,,,,,,10,wg-a,,,,AAXX 21094 07070 12240 81012 10030 20020 39984 40096 53014 60006 71022 886// 90900=
07070,1996-12-21 12:00:00,4,1009.8,0.2,87,2,500,25.928,,,100,,,,,,,,,,,wg-a,,,,AAXX 21124 07070 12300 81014 10040 20020 39986 40098 50002 60006 886// 91200=
07070,1996-12-21 15:00:00,3,1009.5,-0.3,93,2,6000,29.632,,,100,,,,,,,,,,,wg-a,,,,AAXX 21154 07070 12456 81016 10030 20020 39983 40095 56003 60006 886// 91500=
07070,1996-12-21 18:00:00,3,1010.1,0.5,93,2,6000,22.224,,,110,3,3.8,,,,,,,,,wg-a,,,,AAXX 21184 07070 12456 81112 10030 20020 39988 40101 51005 60006 886// 91800 333 10038 20030=
07070,1996-12-21 21:00:00,3,1010.9,0.8,93,2,6000,25.928,,,100,,,,,,,,,,,wg-a,,,,AAXX 21214 07070 12456 81014 10030 20020 39996 40109 53008 60006 886// 92100=
07070,1996-12-22 00:00:00,3,1010.8,0.1,93,2,6000,22.224,,,100,,,,,,,,,,,wg-a,,,,AAXX 22004 07070 12456 81012 10030 20020 39995 40108 50001 60006 885// 90000=
07070,1996-12-22 03:00:00,3,1010.6,-0.2,93,2,500,25.928,,,90,,,,,,,,,,60,wg-a,,,,AAXX 22034 07070 02400 80914 10030 20020 39993 40106 56002 61000 76062 885// 90300 333 ////=
07070,1996-12-22 06:00:00,2,1009.9,-0.7,93,1,4500,22.224,,,90,2.1,3.3,,,,,,,,10,wg-a,,,,AAXX 22064 07070 02345 80912 10020 20010 39986 40099 58007 61000 71065 875// 90600 333 10033 20021 6001=
07070,1996-12-22 09:00:00,2,1010.8,0.9,93,1,6000,22.224,,,100,,,,,,,,,,,wg-a,,,,AAXX 22094 07070 12456 81012 10020 20010 39995 40108 51009 60006 885// 90900=
07070,1996-12-22 12:00:00,2,1009.8,-1,93,1,6000,25.928,,,90,,,,,,,,,,,wg-a,,,,AAXX 22124 07070 12356 80914 10020 20010 39985 40098 58010 60006 877// 91200=
07070,1996-12-22 15:00:00,3,1008.8,-1,81,0,7000,25.928,,,100,,,,,,,,,,,wg-a,,,,AAXX 22154 07070 12557 81014 10030 20000 39975 40088 56010 60006 875// 91500=
07070,1996-12-22 18:00:00,2,1007.5,-1.3,87,0,7000,18.52,,,100,2.1,3,,,,,,,,61,wg-a,,,,AAXX 22184 07070 02757 81010 10020 20000 39962 40075 57013 61000 76162 8657/ 91800 333 10030 20021 6100=
07070,1996-12-22 21:00:00,2,1006.1,-1.4,87,0,7000,14.816,,,80,,,,0,,,,,,60,wg-a,,,,AAXX 22214 07070 12657 80808 10020 20000 39948 40061 58014 60007 76066 8357/ 92100=
07070,1996-12-23 00:00:00,2,1004.6,-1.5,87,0,7000,14.816,,,90,,,,,,,,,,60,wg-a,,,,AAXX 23004 07070 02557 80908 10020 20000 39933 40046 58015 60006 76062 875// 90000 333 61000=
07070,1996-12-23 03:00:00,1,1002.3,-2.2,100,1,6000,11.112,,,90,,,,2,,,,,,61,wg-a,,,,AAXX 23034 07070 12356 80906 10010 20010 39911 40023 56022 60027 76166 887// 90300=
07070,1996-12-23 06:00:00,1,1000.6,-1.7,100,1,500,18.52,,,50,0.9,2,,,,,,,,61,wg-a,,,,AAXX 23064 07070 02200 80510 10010 20010 39894 40006 56017 61000 76166 887// 90600 333 10020 20009 6004=
07070,1996-12-23 09:00:00,1,1000.3,-0.3,93,0,4500,18.52,,,60,,,,,,,,,,10,wg-a,,,,AAXX 23094 07070 32245 80610 10010 20000 39891 40003 57003 71066 887// 90900=
07070,1996-12-23 12:00:00,2,999.9,-0.4,93,1,8000,18.52,,,50,,,,0,,,,,,60,wg-a,,,,AAXX 23124 07070 02458 80510 10020 20010 39887 49999 58004 60036 76066 877// 91200 333 60007=
07070,1996-12-23 15:00:00,1,1000.4,0.5,93,0,7000,14.816,,,30,,,,,,,,,,1,wg-a,,,,AAXX 23154 07070 02457 80308 10010 20000 39892 40004 53005 61000 70162 876// 91500 333 ////=
07070,1996-12-23 18:00:00,0,1002.3,1.8,80,-3,7000,18.52,,,30,-0.3,1.9,,,,,,,,3,wg-a,,,,AAXX 23184 07070 12457 80310 10000 21030 39910 40023 52018 60006 70362 876// 91800 333 10019 21003=
07070,1996-12-23 21:00:00,0,1003.3,1,80,-3,8000,25.928,,,70,,,,,,,,,,,wg-a,,,,AAXX 23214 07070 12558 80714 10000 21030 39920 40033 51010 60006 875// 92100=
07070,1996-12-24 00:00:00,-2,1004.3,0.9,80,-5,7000,31.484,,,80,,,,,,,,,,,wg-a,,,,AAXX 24004 07070 12657 /0817 11020 21050 39929 40043 51009 60006 86500 90000=
07070,1996-12-24 03:00:00,-2,1004.3,0,80,-5,7000,29.632,,,80,,,,,,,,,,,wg-a,,,,AAXX 24034 07070 12557 80816 11020 21050 39929 40043 50000 60006 875// 90300=
07070,1996-12-24 06:00:00,-3,1004,-0.3,80,-6,7000,31.484,,,80,-3,-0.1,,,,,3,,,,wg-a,,,,AAXX 24064 07070 02557 80817 11030 21060 39926 40040 56003 60006 875// 90600 333 11001 21030 60034=
07070,1996-12-24 09:00:00,-3,1005,0.9,80,-6,7000,31.484,,,80,,,,,,,,,,,wg-a,,,,AAXX 24094 07070 12457 80817 11030 21060 39935 40050 51009 60006 875// 90900=
07070,1996-12-24 12:00:00,-2,1005.1,0.2,80,-5,7000,25.928,,,90,,,,,,,,,,,wg-a,,,,AAXX 24124 07070 12457 80914 11020 21050 39937 40051 50002 60006 885// 91200=
07070,1996-12-24 15:00:00,-1,1005.4,0.3,80,-4,6000,22.224,,,90,,,,,,,,,,,wg-a,,,,AAXX 24154 07070 12556 80912 11010 21040 39940 40054 53003 60006 885// 91500=
07070,1996-12-24 18:00:00,-2,1006.3,0.9,80,-5,6000,25.928,,,80,-3.2,-1.4,,,,,,,,,wg-a,,,,AAXX 24184 07070 12456 70814 11020 21050 39949 40063 51009 60006 875// 91800 333 11014 21032=
07070,1996-12-24 21:00:00,-4,1008.3,1.9,86,-6,6000,18.52,,,70,,,,,,,,,,,wg-a,,,,AAXX 24214 07070 12656 70710 11040 21060 39968 40083 53019 60006 875// 92100=
07070,1996-12-25 00:00:00,-5,1009.7,1.3,79,-8,500,14.816,,,50,,,,,,,,,,,wg-a,,,,AAXX 25004 07070 12700 30508 11050 21080 39981 40097 52013 60006 81502 90000=
07070,1996-12-25 03:00:00,-6,1010.8,1,86,-8,500,14.816,,,10,,,,,,,,,,,wg-a,,,,AAXX 25034 07070 12/00 00108 11060 21080 39991 40108 52010 60006 80000 90300=
07070,1996-12-25 06:00:00,-8,1012.6,1.7,85,-10,500,11.112,,,350,-8.2,-1.8,,,,,,,,,wg-a,,,,AAXX 25064 07070 12/00 03506 11080 21100 30008 40126 53017 60006 80000 90600 333 11018 21082=
07070,1996-12-25 09:00:00,-6,1015.2,2.7,73,-10,7000,11.112,,,20,,,,,,,,,,,wg-a,,,,AAXX 25094 07070 12/57 00206 11060 21100 30035 40152 53027 60006 80000 90900=
07070,1996-12-25 12:00:00,-1,1016.8,1.8,50,-10,15000,25.928,,,60,,,,,,,,,,,wg-a,,,,AAXX 25124 07070 12/65 00614 11010 21100 30053 40168 51018 60006 80000 91200=
07070,1996-12-25 15:00:00,0,1018.9,2.1,51,-9,25000,14.816,,,50,,,,,,,,,,,wg-a,,,,AAXX 25154 07070 12/75 00508 10000 21090 30074 40189 53021 60006 80000 91500=
07070,1996-12-25 18:00:00,-5,1023,3.9,79,-8,25000,11.112,,,50,-8.4,0.5,,,,,,,,,wg-a,,,,AAXX 25184 07070 12/75 00506 11050 21080 30113 40230 53039 60006 80000 91800 333 10005 21084=
07070,1996-12-25 21:00:00,-7,1026.6,3.4,79,-10,15000,3.704,,,30,,,,,,,,,,,wg-a,,,,AAXX 25214 07070 12/65 00302 11070 21100 30147 40266 51034 60006 80000 92100=
07070,1996-12-26 00:00:00,-7,1029.5,2.9,86,-9,15000,3.704,,,350,,,,,,,,,,,wg-a,,,,AAXX 26004 07070 12/65 03502 11070 21090 30176 40295 51029 60006 80000 90000=
07070,1996-12-26 03:00:00,-6,1033.1,3.6,86,-8,15000,14.816,,,20,,,,,,,,,,,wg-a,,,,AAXX 26034 07070 12/65 00208 11060 21080 30212 40331 52036 60006 80000 90300=
07070,1996-12-26 06:00:00,-9,1035.8,2.5,85,-11,20000,14.816,,,60,-8.9,-4.7,,,,,,,,,wg-a,,,,AAXX 26064 07070 12/70 00608 11090 21110 30237 40358 52025 60006 80000 90600 333 11047 21089=
07070,1996-12-26 09:00:00,-6,1038.3,2.6,86,-8,25000,18.52,,,50,,,,,,,,,,,wg-a,,,,AAXX 26094 07070 12/75 00510 11060 21080 30263 40383 51026 60006 80000 90900=
07070,1996-12-26 12:00:00,-2,1039.4,1.3,63,-8,15000,25.928,,,90,,,,,,,,,,,wg-a,,,,AAXX 26124 07070 12/65 00914 11020 21080 30276 40394 53013 60006 80000 91200=
07070,1996-12-26 15:00:00,-2,1040.1,0.7,63,-8,20000,22.224,,,90,,,,,,,,,,,wg-a,,,,AAXX 26154 07070 12/70 00912 11020 21080 30283 40401 53007 60006 80000 91500=
07070,1996-12-26 18:00:00,-8,1040.5,0.1,85,-10,15000,14.816,,,90,-9,-1.6,,,,,,,,,wg-a,,,,AAXX 26184 07070 12/65 00908 11080 21100 30284 40405 50001 60006 80000 91800 333 11016 21090=
07070,1996-12-26 21:00:00,-9,1040.9,0.4,79,-12,15000,7.408,,,150,,,,,,,,,,,wg-a,,,,AAXX 26214 07070 12/65 11504 11090 21120 30288 40409 51004 60006 80001 92100=
07070,1996-12-27 00:00:00,-8,1038.9,-2,79,-11,15000,11.112,,,90,,,,,,,,,,,wg-a,,,,AAXX 27004 07070 12/65 50906 11080 21110 30268 40389 56020 60006 80001 90000=
07070,1996-12-27 03:00:00,-8,1037.6,-1.3,79,-11,15000,3.704,,,330,,,,,,,,,,,wg-a,,,,AAXX 27034 07070 12/65 73302 11080 21110 30255 40376 57013 60006 80008 90300=
07070,1996-12-27 06:00:00,-7,1034.1,-3.4,79,-10,15000,7.408,,,110,-8.9,-6.7,,,,,,,,,wg-a,,,,AAXX 27064 07070 12/65 71104 11070 21100 30221 40341 56034 60006 83038 90600 333 11067 21089=
07070,1996-12-27 09:00:00,-7,1032.2,-1.8,79,-10,18000,3.704,,,110,,,,,,,,,,,wg-a,,,,AAXX 27094 07070 12768 71102 11070 21100 30203 40322 56018 60006 8153/ 90900=
07070,1996-12-27 12:00:00,-5,1028.8,-3.3,63,-11,18000,11.112,,,170,,,,,,,,,,,wg-a,,,,AAXX 27124 07070 12768 71706 11050 21110 30170 40288 58033 60006 8153/ 91200=
07070,1996-12-27 15:00:00,-4,1026,-2.8,54,-12,10000,3.704,,,130,,,,,,,,,,,wg-a,,,,AAXX 27154 07070 12/60 /1302 11040 21120 30142 40260 56028 60006 91500=
07070,1996-12-27 18:00:00,-6,1024.1,-1.9,79,-9,12000,7.408,,,90,-7.7,-4.2,,,,,,,,,wg-a,,,,AAXX 27184 07070 12762 70904 11060 21090 30123 40241 58019 60006 8553/ 91800 333 11042 21077=
07070,1996-12-27 21:00:00,-6,1022.5,-1.6,73,-10,10000,14.816,,,100,,,,,,,,,,,wg-a,,,,AAXX 27214 07070 12760 71008 11060 21100 30107 40225 56016 60006 8157/ 92100=
07070,1996-12-28 03:00:00,-11,1021.8,-0.3,85,-13,8000,7.408,,,60,,,,,,,,,,,wg-a,,,,AAXX 28034 07070 12/58 20604 11110 21130 30098 40218 56003 60006 80002 90300=
07070,1996-12-28 06:00:00,-12,1021.7,-0.1,85,-14,8000,11.112,,,30,-11.8,-5.6,,,,,,,,,wg-a,,,,AAXX 28064 07070 12/58 40306 11120 21140 30097 40217 55001 60006 80001 90600 333 11056 21118=
07070,1996-12-28 09:00:00,-9,1022.3,0.7,79,-12,10000,14.816,,,30,,,,,,,,,,,wg-a,,,,AAXX 28094 07070 12/60 60308 11090 21120 30104 40223 53007 60006 80002 90900=
07070,1996-12-28 12:00:00,-5,1021.4,-0.8,45,-15,12000,25.928,,,80,,,,,,,,,,,wg-a,,,,AAXX 28124 07070 12/62 40814 11050 21150 30096 40214 58008 60006 80001 91200=
07070,1996-12-28 18:00:00,-11,1021.9,1,72,-15,12000,7.408,,,60,-11.7,-4.4,,,,,,,,,wg-a,,,,AAXX 28184 07070 12/62 00604 11110 21150 30099 40219 53010 60006 80000 91800 333 11044 21117=
07070,1996-12-28 21:00:00,-11,1022.5,0.6,72,-15,12000,7.408,,,30,,,,,,,,,,,wg-a,,,,AAXX 28214 07070 12/62 00304 11110 21150 30105 40225 53006 60006 80000 92100=
07070,1996-12-29 00:00:00,-13,1022.4,-0.2,78,-16,12000,0,,,0,,,,,,,,,,,wg-a,,,,AAXX 29004 07070 12/62 00000 11130 21160 30103 40224 58002 60006 80000 90000=
07070,1996-12-29 03:00:00,-13,1022.3,-0.1,78,-16,10000,3.704,,,70,,,,,,,,,,,wg-a,,,,AAXX 29034 07070 12/60 00702 11130 21160 30102 40223 57001 60006 80000 90300=
07070,1996-12-29 06:00:00,-13,1021.3,-1,78,-16,10000,7.408,,,40,-13.4,-8.2,,,,,,,,,wg-a,,,,AAXX 29064 07070 12/60 00404 11130 21160 30092 40213 56010 60006 80000 90600 333 11082 21134=
07070,1996-12-29 09:00:00,-11,1021.7,0.5,72,-15,10000,3.704,,,50,,,,,,,,,,,wg-a,,,,AAXX 29094 07070 12/60 10502 11110 21150 30097 40217 53005 60006 81030 90900=
07070,1996-12-29 12:00:00,-6,1019.9,-1.5,53,-14,12000,7.408,,,50,,,,,,,,,,,wg-a,,,,AAXX 29124 07070 12/62 50504 11060 21140 30082 40199 58015 60006 85030 91200=
07070,1996-12-29 15:00:00,-5,1018.2,-1.7,49,-14,12000,7.408,,,360,,,,,,,,,,,wg-a,,,,AAXX 29154 07070 12762 73604 11050 21140 30065 40182 58017 60006 8153/ 91500=
07070,1996-12-29 18:00:00,-5,1015.9,-2.3,63,-11,12000,7.408,,,250,-13.8,-4.6,,,,,,,,,wg-a,,,,AAXX 29184 07070 12662 82504 11050 21110 30042 40159 58023 60006 875// 91800 333 11046 21138=
07070,1996-12-29 21:00:00,-4,1012.5,-3.3,58,-11,8000,14.816,,,260,,,,,,,,,,70,wg-a,,,,AAXX 29214 07070 02458 82608 11040 21110 30009 40125 58033 61000 77072 885// 92100 333 ////=
07070,1996-12-30 00:00:00,-3,1008.9,-3.5,86,-5,500,14.816,,,250,,,,,,,,,,70,wg-a,,,,AAXX 30004 07070 02300 82508 11030 21050 39974 40089 58035 61000 77072 885// 90000 333 6100=
07070,1996-12-30 03:00:00,0,1004.9,-3.8,93,-1,1000,25.928,,,300,,,,6,,,,,,10,wg-a,,,,AAXX 30034 07070 12110 83014 10000 21010 39936 40049 56038 60067 71077 887// 90300=
07070,1996-12-30 06:00:00,-2,1006.2,1.2,86,-4,500,22.224,,,20,-4.7,0.5,,,,,1,,,1,wg-a,,2,,AAXX 30064 07070 02400 70212 11020 21040 39948 40062 53012 60006 70172 875// 90600 333 10005 21047 4/002 60014=
07070,1996-12-30 09:00:00,-3,1007.1,0.8,80,-6,8000,18.52,,,10,,,,,,,,,,,wg-a,,,,AAXX 30094 07070 12558 /0110 11030 21060 39956 40071 53008 60006 81800 90900=
07070,1996-12-30 12:00:00,-2,1006.6,-0.4,86,-4,8000,11.112,,,360,,,,,,,,,,,wg-a,,,,AAXX 30124 07070 12558 /3606 11020 21040 39952 40066 58004 60006 86200 91200=
07070,1996-12-30 15:00:00,-1,1006,-0.6,80,-4,8000,22.224,,,350,,,,,,,,,,22,wg-a,,,,AAXX 30154 07070 02558 73512 11010 21040 39946 40060 56006 61000 72272 8683/ 91500 333 ////=
07070,1996-12-30 18:00:00,-2,1006.5,0.5,93,-3,8000,14.816,,,340,-4.5,-0.8,,,,,,,,1,wg-a,,2,,AAXX 30184 07070 02658 73408 11020 21030 39951 40065 51005 60006 70172 875// 91800 333 11008 21045 4/002 61000=
07070,1996-12-30 21:00:00,-3,1006.6,-0,93,-4,3000,18.52,,,350,,,,,,,,,,71,wg-a,,,,AAXX 30214 07070 02430 83510 11030 21040 39951 40066 54000 61000 77172 885// 92100 333 ////=
07070,1996-12-31 00:00:00,-7,1008.9,2.1,86,-9,500,18.52,,,90,,,,,,,,,,70,wg-a,,,,AAXX 31004 07070 02500 70910 11070 21090 39972 40089 51021 61000 77072 875// 90000 333 6100=
07070,1996-12-31 03:00:00,-9,1009.9,0.9,85,-11,500,3.704,,,60,,,,,,,,,,70,wg-a,,,,AAXX 31034 07070 02300 70602 11090 21110 39981 40099 53009 61000 77072 877// 90300 333 ////=
07070,1996-12-31 06:00:00,-10,1010.6,0.7,85,-12,500,11.112,,,20,-10.1,-1.8,,,,,,,,22,wg-a,,3,,AAXX 31064 07070 02700 20206 11100 21120 39988 40106 53007 61000 72272 81530 90600 333 11018 21101 4/003 6100=
07070,1996-12-31 09:00:00,-9,1012.1,1.5,92,-10,4500,14.816,,,20,,,,,,,,,,10,wg-a,,,,AAXX 31094 07070 02645 70208 11090 21100 30003 40121 53015 61000 71072 8553/ 90900 333 ////=
07070,1996-12-31 12:00:00,-7,1013.3,1.3,79,-10,2800,25.928,,,70,,,,,,,,,,10,wg-a,,,,AAXX 31124 07070 02328 70714 11070 21100 30016 40133 51013 61000 71077 875// 91200 333 6100=
07070,1996-12-31 15:00:00,-7,1014.5,1.2,93,-8,1500,22.224,,,80,,,,,,,,,,10,wg-a,,,,AAXX 31154 07070 02315 70812 11070 21080 30028 40145 53012 61000 71072 8573/ 91500 333 ////=
07070,1996-12-31 18:00:00,-8,1016.3,1.7,85,-10,2500,18.52,,,70,-11.6,-6.5,,,,,,,,10,wg-a,,3,,AAXX 31184 07070 02325 80710 11080 21100 30045 40163 52017 61000 71072 885// 91800 333 11065 21116 4/003 6100=
07070,1996-12-31 21:00:00,-12,1017.1,0.6,85,-14,500,7.408,,,60,,,,,,,,,,1,wg-a,,,,AAXX 31214 07070 02800 20604 11120 21140 30051 40171 53006 61000 70171 81031 92100 333 ////=
