station_id,dh_utc,temperature,pression,pression_variation_3h,humidite,point_de_rosee,visibilite,vent_moyen,vent_rafales,vent_rafales_10min,vent_direction,temperature_min,temperature_max,pluie_1h,pluie_3h,pluie_6h,pluie_12h,pluie_24h,ensoleillement,temperature_sol,temps_omm,source,radiations,neige_au_sol,nebulosite,raw_msg
07070,1997-01-01 00:00:00,-14,1016.9,-0.3,85,-16,500,14.816,,,30,,,,,,,,,,2,wg-a,,,,AAXX 01004 07070 02/00 00308 11140 21160 30048 40169 58003 61000 70271 80000 90000 333 ////=
07070,1997-01-01 03:00:00,-15,1016.2,-0.7,85,-17,500,11.112,,,20,,,,,,,,,,,wg-a,,,,AAXX 01034 07070 12/00 00206 11150 21170 30041 40162 56007 60006 80000 90300=
07070,1997-01-01 06:00:00,-17,1017.2,0.8,84,-19,500,3.704,,,30,-17.4,-8.1,,,,,,,,,wg-a,,3,,AAXX 01064 07070 02/00 00302 11170 21190 30049 40172 53008 60006 80000 90600 333 11081 21174 4/003 61000=
07070,1997-01-01 09:00:00,-17,1018.6,1.4,84,-19,3500,3.704,,,30,,,,,,,,,,10,wg-a,,,,AAXX 01094 07070 12/35 /0302 11170 21190 30063 40186 51014 60006 71000 80001 90900=
07070,1997-01-01 12:00:00,-11,1018.9,0.6,78,-14,4000,11.112,,,40,,,,,,,,,,10,wg-a,,,,AAXX 01124 07070 12/40 30406 11110 21140 30069 40189 50006 60006 71000 81032 91200=
07070,1997-01-01 15:00:00,-11,1019.8,0.9,78,-14,3500,11.112,,,70,,,,,,,,,,10,wg-a,,,,AAXX 01154 07070 12835 70706 11110 21140 30078 40198 53009 60006 71011 8703/ 91500=
07070,1997-01-01 18:00:00,-9,1020.2,0.5,73,-13,3000,14.816,,,70,-18.3,-9.2,,,,,,,,10,wg-a,,3,,AAXX 01184 07070 02830 70708 11090 21130 30083 40202 51005 61000 71071 8707/ 91800 333 11092 21183 4/003 6100=
07070,1997-01-01 21:00:00,-9,1021.2,1,79,-12,4000,11.112,,,80,,,,,,,,,,10,wg-a,,,,AAXX 01214 07070 02540 80806 11090 21120 30093 40212 51010 61000 71072 885// 92100 333 ////=
07070,1997-01-02 00:00:00,-8,1021.4,0.2,79,-11,4000,11.112,,,100,,,,,,,,,,10,wg-a,,,,AAXX 02004 07070 02440 81006 11080 21110 30095 40214 51002 61000 71072 885// 90000 333 ////=
07070,1997-01-02 03:00:00,-8,1021.1,-0.3,79,-11,4000,7.408,,,90,,,,,,,,,,10,wg-a,,,,AAXX 02034 07070 12440 80904 11080 21110 30092 40211 58003 60006 71022 885// 90300=
07070,1997-01-02 06:00:00,-8,1020.3,-0.7,85,-10,4000,7.408,,,120,-9.2,-7.7,,,,,,,,10,wg-a,,3,,AAXX 02064 07070 02440 81204 11080 21100 30085 40203 58007 60006 71022 885// 90600 333 11077 21092 4/003 61000=
07070,1997-01-02 09:00:00,-8,1020.7,0.3,85,-10,3000,11.112,,,70,,,,,,,,,,10,wg-a,,,,AAXX 02094 07070 12230 80706 11080 21100 30088 40207 53003 60006 71022 875// 90900=
07070,1997-01-02 12:00:00,-7,1018.6,-2,86,-9,2500,18.52,,,70,,,,,,,,,,10,wg-a,,,,AAXX 02124 07070 12325 80710 11070 21090 30068 40186 58020 60006 71022 886// 91200=
07070,1997-01-02 15:00:00,-6,1016.7,-1.8,86,-8,3500,11.112,,,40,,,,,,,,,,10,wg-a,,,,AAXX 02154 07070 12335 30406 11060 21080 30050 40167 58018 60006 71011 83600 91500=
07070,1997-01-02 18:00:00,-10,1015.7,-1.2,92,-11,4000,3.704,,,20,-9.8,-5.9,,,,,,,,10,wg-a,,3,,AAXX 02184 07070 12/40 /0202 11100 21110 30038 40157 58012 60006 71011 81071 91800 333 11059 21098 4/003=
07070,1997-01-02 21:00:00,-12,1013.7,-2.1,92,-13,3000,3.704,,,40,,,,,,,,,,10,wg-a,,,,AAXX 02214 07070 12/30 70402 11120 21130 30017 40137 58021 60006 71022 83072 92100=
07070,1997-01-03 00:00:00,-10,1012.9,-0.7,92,-11,4000,7.408,,,20,,,,,,,,,,10,wg-a,,,,AAXX 03004 07070 12/40 70204 11100 21110 30010 40129 57007 60006 71022 8707/ 90000=
07070,1997-01-03 03:00:00,-8,1011.9,-0.9,85,-10,4000,7.408,,,20,,,,,,,,,,10,wg-a,,,,AAXX 03034 07070 12440 80204 11080 21100 30001 40119 56009 60006 71022 8277/ 90300=
07070,1997-01-03 06:00:00,-8,1009.8,-2,92,-9,4000,11.112,,,30,-13.1,-7.7,,,,,,,,10,wg-a,,2,,AAXX 03064 07070 02540 80306 11080 21090 39981 40098 56020 61000 71072 8552/ 90600 333 11077 21131 4/002 6100=
07070,1997-01-03 09:00:00,-7,1010.4,0.6,93,-8,2400,3.704,,,20,,,,,,,,,,10,wg-a,,,,AAXX 03094 07070 02424 80202 11070 21080 39987 40104 51006 61000 71072 886// 90900 333 ////=
07070,1997-01-03 12:00:00,-4,1008.5,-1.8,80,-7,3500,18.52,,,60,,,,,,,,,,10,wg-a,,,,AAXX 03124 07070 02635 /0610 11040 21070 39969 40085 58018 61000 71072 85500 91200 333 ////=
07070,1997-01-03 15:00:00,-4,1007.2,-1.2,86,-6,3500,14.816,,,60,,,,,,,,,,10,wg-a,,,,AAXX 03154 07070 12535 80608 11040 21060 39957 40072 55012 60006 71022 885// 91500=
07070,1997-01-03 18:00:00,-3,1005.4,-1.8,80,-6,3500,18.52,,,50,-8,-3.3,,,,,,,,10,wg-a,,1,,AAXX 03184 07070 12435 80510 11030 21060 39939 40054 56018 60006 71022 885// 91800 333 11033 21080 4/001=
07070,1997-01-03 21:00:00,-3,1004.5,-0.9,86,-5,3000,22.224,,,60,,,,,,,,,,10,wg-a,,,,AAXX 03214 07070 12330 80612 11030 21050 39930 40045 56009 60006 71022 886// 92100=
07070,1997-01-04 00:00:00,-3,1003.1,-1.3,86,-5,3000,7.408,,,20,,,,,,,,,,10,wg-a,,,,AAXX 04004 07070 12330 80204 11030 21050 39917 40031 56013 60006 71022 886// 90000=
07070,1997-01-04 06:00:00,-7,1002.2,-0.2,93,-8,2500,14.816,,,340,-6.7,-3.2,,,,,,,,10,wg-a,,1,,AAXX 04064 07070 02/25 43408 11070 21080 39906 40022 56002 60006 71011 80002 90600 333 11032 21067 4/001 61000=
07070,1997-01-04 09:00:00,-5,1003.3,1.2,93,-6,2000,7.408,,,20,,,,,,,,,,10,wg-a,,,,AAXX 04094 07070 12420 70204 11050 21060 39918 40033 51012 60006 71022 875// 90900=
07070,1997-01-04 12:00:00,-3,1002.8,-0.5,80,-6,2500,14.816,,,20,,,,,,,,,,10,wg-a,,,,AAXX 04124 07070 12425 80208 11030 21060 39913 40028 58005 60006 71011 885// 91200=
07070,1997-01-04 15:00:00,-3,1003.3,0.6,86,-5,2500,11.112,,,30,,,,,,,,,,10,wg-a,,,,AAXX 04154 07070 02425 80306 11030 21050 39919 40033 53006 61000 71072 885// 91500 333 ////=
07070,1997-01-04 18:00:00,-3,1004.2,0.8,86,-5,3000,14.816,,,30,-7.1,-3.1,,,,,,,,10,wg-a,,1,,AAXX 04184 07070 12430 80308 11030 21050 39927 40042 51008 60006 71072 885// 91800 333 11031 21071 4/001=
07070,1997-01-04 21:00:00,-3,1005.5,1.3,86,-5,3500,11.112,,,30,,,,,,,,,,10,wg-a,,,,AAXX 04214 07070 12435 80306 11030 21050 39940 40055 53013 60006 71022 885// 92100=
07070,1997-01-05 00:00:00,-3,1006.8,1.3,93,-4,3500,14.816,,,30,,,,,,,,,,10,wg-a,,,,AAXX 05004 07070 12435 80308 11030 21040 39953 40068 52013 60006 71022 885// 90000=
07070,1997-01-05 03:00:00,-3,1007.7,0.9,93,-4,3000,3.704,,,20,,,,,,,,,,10,wg-a,,,,AAXX 05034 07070 12430 80202 11030 21040 39962 40077 53009 60006 71022 885// 90300=
07070,1997-01-05 06:00:00,-3,1008.5,0.8,93,-4,3500,7.408,,,350,-3.2,-2.8,,,,,,,,10,wg-a,,1,,AAXX 05064 07070 02435 83504 11030 21040 39970 40085 53008 60006 71022 885// 90600 333 11028 21032 4/001 61000=
07070,1997-01-05 09:00:00,-3,1010.5,2,100,-3,600,7.408,,,120,,,,,,,,,,48,wg-a,,,,AAXX 05094 07070 02006 81204 11030 21030 39990 40105 53020 61000 74874 886// 90900 333 ////=
07070,1997-01-05 12:00:00,-3,1011.5,1,100,-3,1200,11.112,,,150,,,,,,,,,,10,wg-a,,,,AAXX 05124 07070 02212 81506 11030 21030 30000 40115 51010 61000 71074 886// 91200 333 6100=
07070,1997-01-05 15:00:00,-2,1012.5,1,86,-4,2700,11.112,,,140,,,,,,,,,,10,wg-a,,,,AAXX 05154 07070 02427 81406 11020 21040 30010 40125 53010 61000 71072 886// 91500 333 ////=
07070,1997-01-05 18:00:00,-3,1014.4,1.8,86,-5,3000,7.408,,,60,-3.4,-2.1,,,,,,,,10,wg-a,,1,,AAXX 05184 07070 12530 80604 11030 21050 30028 40144 51018 60006 71072 875// 91800 333 11021 21034 4/001=
07070,1997-01-05 21:00:00,-3,1015.3,0.9,86,-5,4000,3.704,,,140,,,,,,,,,,10,wg-a,,,,AAXX 05214 07070 12540 81402 11030 21050 30037 40153 53009 60006 71022 885// 92100=
07070,1997-01-06 00:00:00,-5,1016.8,1.4,86,-7,3500,3.704,,,50,,,,,,,,,,10,wg-a,,,,AAXX 06004 07070 12635 40502 11050 21070 30051 40168 51014 60006 71011 84500 90000=
07070,1997-01-06 03:00:00,-9,1017.4,0.4,92,-10,3000,3.704,,,70,,,,,,,,,,10,wg-a,,,,AAXX 06034 07070 12/30 40702 11090 21100 30055 40174 51004 60006 71000 80001 90300=
07070,1997-01-06 06:00:00,-10,1018.2,0.8,92,-11,1500,0,,,0,-10.2,-2.4,,,,,,,,10,wg-a,,1,,AAXX 06064 07070 02/15 20000 11100 21110 30063 40182 52008 60006 71040 80001 90600 333 11024 21102 4/001 61000=
07070,1997-01-06 09:00:00,-7,1019.1,1,100,-7,600,3.704,,,80,,,,,,,,,,48,wg-a,,,,AAXX 06094 07070 12006 80802 11070 21070 30073 40191 53010 60006 74842 886// 90900=
07070,1997-01-06 12:00:00,-5,1019.1,0.1,93,-6,1700,11.112,,,50,,,,,,,,,,10,wg-a,,,,AAXX 06124 07070 12217 80506 11050 21060 30074 40191 50001 60006 71042 886// 91200=
07070,1997-01-06 15:00:00,-4,1019.1,-0,93,-5,3000,11.112,,,20,,,,,,,,,,10,wg-a,,,,AAXX 06154 07070 12330 80206 11040 21050 30074 40191 55000 60006 71022 886// 91500=
07070,1997-01-06 18:00:00,-5,1019.5,0.4,93,-6,3000,14.816,,,70,-11.8,-4.2,,,,,,,,10,wg-a,,1,,AAXX 06184 07070 12330 80708 11050 21060 30078 40195 52004 60006 71022 886// 91800 333 11042 21118 4/001=
07070,1997-01-06 21:00:00,-5,1019.9,0.4,93,-6,4000,3.704,,,350,,,,,,,,,,10,wg-a,,,,AAXX 06214 07070 12440 83502 11050 21060 30082 40199 52004 60006 71022 885// 92100=
07070,1997-01-07 00:00:00,-4,1019.7,-0.2,80,-7,4500,11.112,,,50,,,,,,,,,,10,wg-a,,,,AAXX 07004 07070 12445 80506 11040 21070 30080 40197 56002 60006 71022 885// 90000=
07070,1997-01-07 03:00:00,-5,1019.7,0,73,-9,8000,11.112,,,70,,,,,,,,,,,wg-a,,,,AAXX 07034 07070 12558 80706 11050 21090 30080 40197 50000 60006 885// 90300=
07070,1997-01-07 06:00:00,-5,1019.7,-0,79,-8,8000,3.704,,,30,-5.5,-4.2,,,,,,,,,wg-a,,1,,AAXX 07064 07070 12458 80302 11050 21080 30080 40197 55000 60006 885// 90600 333 11042 21055 4/001=
07070,1997-01-07 09:00:00,-6,1020.5,0.8,86,-8,7000,7.408,,,20,,,,,,,,,,,wg-a,,,,AAXX 07094 07070 12457 80204 11060 21080 30088 40205 53008 60006 885// 90900=
07070,1997-01-07 12:00:00,-5,1020.2,-0.3,86,-7,500,7.408,,,10,,,,,,,,,,77,wg-a,,,,AAXX 07124 07070 02300 80104 11050 21070 30085 40202 58003 61000 77772 876// 91200 333 6100=
07070,1997-01-07 15:00:00,-4,1019.2,-1,93,-5,4000,7.408,,,40,,,,,,,,,,10,wg-a,,,,AAXX 07154 07070 02440 80404 11040 21050 30075 40192 56010 61000 71072 886// 91500 333 ////=
07070,1997-01-07 18:00:00,-4,1018.5,-0.6,93,-5,3500,7.408,,,50,-5.6,-3.6,,,,,,,,10,wg-a,,1,,AAXX 07184 07070 12435 80504 11040 21050 30069 40185 58006 60006 71072 875// 91800 333 11036 21056 4/001=
07070,1997-01-07 21:00:00,-4,1017.6,-0.9,93,-5,4000,7.408,,,90,,,,,,,,,,10,wg-a,,,,AAXX 07214 07070 12440 80904 11040 21050 30060 40176 58009 60006 71022 885// 92100=
07070,1997-01-08 00:00:00,-4,1016.1,-1.5,93,-5,4000,11.112,,,100,,,,,,,,,,10,wg-a,,,,AAXX 08004 07070 12440 81006 11040 21050 30045 40161 56015 60006 71022 885// 90000=
07070,1997-01-08 03:00:00,-4,1014.4,-1.7,86,-6,4000,14.816,,,120,,,,,,,,,,10,wg-a,,,,AAXX 08034 07070 12440 81208 11040 21060 30028 40144 57017 60006 71022 885// 90300=
07070,1997-01-08 06:00:00,-4,1012.2,-2.2,86,-6,500,22.224,,,110,-4.1,-3.3,,,,,,,,,wg-a,,1,,AAXX 08064 07070 02400 81112 11040 21060 30006 40122 56022 60006 885// 90600 333 11033 21041 4/001 61000=
07070,1997-01-08 09:00:00,-4,1010.8,-1.4,93,-5,3000,18.52,,,110,,,,,,,,,,10,wg-a,,,,AAXX 08094 07070 12330 81110 11040 21050 39992 40108 56014 60006 71022 886// 90900=
07070,1997-01-08 12:00:00,-3,1008.7,-2,93,-4,2500,22.224,,,100,,,,,,,,,,10,wg-a,,,,AAXX 08124 07070 12325 81012 11030 21040 39972 40087 58020 60006 71022 886// 91200=
07070,1997-01-08 15:00:00,-2,1006.4,-2.2,86,-4,3200,18.52,,,100,,,,,,,,,,10,wg-a,,,,AAXX 08154 07070 12432 71010 11020 21040 39950 40064 56022 60006 71022 8353/ 91500=
07070,1997-01-08 17:00:00,-3,1006,,86,-5,3000,7.408,,,80,-4.3,-1.4,,,,,,,,,wg-a,,,,AAXX 08174 07070 12/30 /0804 11030 21050 39945 40060 60006 91700 333 11014 21043=
07070,1997-01-08 18:00:00,-3,1005.9,-0.6,86,-5,3000,7.408,,,80,-4.3,-1.4,,,,,,,,10,wg-a,,1,,AAXX 08184 07070 12730 70804 11030 21050 39944 40059 57006 60006 71022 8457/ 91800 333 11014 21043 4/001=
07070,1997-01-08 21:00:00,0,1005.1,-0.6,93,-1,2500,14.816,,,110,,,,,,,,,,10,wg-a,,,,AAXX 08214 07070 02325 81108 10000 21010 39938 40051 57006 61000 71062 8567/ 92100 333 ////=
07070,1997-01-09 00:00:00,-1,1005.3,0.1,93,-2,3000,22.224,,,100,,,,0,,,,,,10,wg-a,,,,AAXX 09004 07070 02230 81012 11010 21020 39939 40053 50001 60016 71062 8367/ 90000 333 60007=
07070,1997-01-09 03:00:00,-3,1004.9,-0.4,93,-4,3000,22.224,,,100,,,,,,,,,,10,wg-a,,,,AAXX 09034 07070 12430 81012 11030 21040 39935 40049 56004 60006 71062 8487/ 90300=
07070,1997-01-09 06:00:00,-3,1004.5,-0.5,93,-4,2500,25.928,,,100,-3.2,0.1,,,,,,,,10,wg-a,,1,,AAXX 09064 07070 02325 81014 11030 21040 39930 40045 56005 60006 71062 877// 90600 333 10001 21032 4/001 60004=
07070,1997-01-09 09:00:00,-3,1005.9,1.4,93,-4,2500,11.112,,,90,,,,,,,,,,10,wg-a,,,,AAXX 09094 07070 02225 80906 11030 21040 39944 40059 53014 61000 71062 885// 90900 333 ////=
07070,1997-01-09 12:00:00,-2,1006.1,0.3,86,-4,2500,11.112,,,90,,,,,,,,,,10,wg-a,,,,AAXX 09124 07070 02425 80906 11020 21040 39947 40061 51003 61000 71062 885// 91200 333 ////=
07070,1997-01-09 15:00:00,-2,1007,0.9,86,-4,2200,11.112,,,90,,,,,,,,,,10,wg-a,,,,AAXX 09154 07070 12322 80906 11020 21040 39956 40070 53009 60006 71022 886// 91500=
07070,1997-01-09 18:00:00,-2,1008.5,1.5,93,-3,3000,7.408,,,80,-3.2,-1.6,,,,,,,,10,wg-a,,1,,AAXX 09184 07070 02330 80804 11020 21030 39971 40085 53015 61000 71062 887// 91800 333 11016 21032 4/001 6100=
07070,1997-01-09 21:00:00,-2,1010.1,1.5,100,-2,2000,3.704,,,30,,,,,,,,,,10,wg-a,,,,AAXX 09214 07070 02420 80302 11020 21020 39986 40101 53015 61000 71065 887// 92100 333 ////=
07070,1997-01-10 00:00:00,-2,1011.7,1.6,93,-3,2500,7.408,,,50,,,,,,,,,,10,wg-a,,,,AAXX 10004 07070 02425 80504 11020 21030 30002 40117 51016 61000 71065 885// 90000 333 6100=
07070,1997-01-10 03:00:00,-2,1013.3,1.6,86,-4,2500,7.408,,,60,,,,,,,,,,10,wg-a,,,,AAXX 10034 07070 12425 80604 11020 21040 30018 40133 53016 60006 71022 886// 90300=
07070,1997-01-10 06:00:00,-3,1015.5,2.1,86,-5,2500,7.408,,,70,-3.1,-1.4,,,,,,,,10,wg-a,,1,,AAXX 10064 07070 02225 80704 11030 21050 30039 40155 53021 60006 71022 886// 90600 333 11014 21031 4/001 61000=
07070,1997-01-10 09:00:00,-5,1018.1,2.5,93,-6,2000,11.112,,,110,,,,,,,,,,10,wg-a,,,,AAXX 10094 07070 12220 81106 11050 21060 30064 40181 53025 60006 71022 886// 90900=
07070,1997-01-10 12:00:00,-4,1019.6,1.5,93,-5,1800,11.112,,,100,,,,,,,,,,10,wg-a,,,,AAXX 10124 07070 12218 81006 11040 21050 30079 40196 51015 60006 71022 886// 91200=
07070,1997-01-10 15:00:00,-4,1021.3,1.7,93,-5,2400,11.112,,,120,,,,,,,,,,10,wg-a,,,,AAXX 10154 07070 12324 81206 11040 21050 30096 40213 51017 60006 71022 886// 91500=
07070,1997-01-10 18:00:00,-5,1022.4,1.1,93,-6,4000,11.112,,,140,-4.9,-3.1,,,,,,,,10,wg-a,,1,,AAXX 10184 07070 12340 81406 11050 21060 30107 40224 51011 60006 71022 886// 91800 333 11031 21049 4/001=
07070,1997-01-10 21:00:00,-4,1024,1.6,86,-6,4000,7.408,,,180,,,,,,,,,,10,wg-a,,,,AAXX 10214 07070 12340 81804 11040 21060 30123 40240 51016 60006 71022 886// 92100=
07070,1997-01-11 00:00:00,-4,1025.6,1.6,86,-6,4000,7.408,,,260,,,,,,,,,,10,wg-a,,,,AAXX 11004 07070 12340 82604 11040 21060 30139 40256 51016 60006 71022 886// 90000=
07070,1997-01-11 03:00:00,-4,1025.6,-0,86,-6,4000,7.408,,,170,,,,,,,,,,10,wg-a,,,,AAXX 11034 07070 12340 81704 11040 21060 30139 40256 55000 60006 71022 886// 90300=
07070,1997-01-11 06:00:00,-5,1026.3,0.6,93,-6,4000,7.408,,,180,-4.5,-4,,,,,,,,10,wg-a,,1,,AAXX 11064 07070 12340 81804 11050 21060 30145 40263 53006 60006 71022 886// 90600 333 11040 21045 4/001=
07070,1997-01-11 09:00:00,-4,1028,1.7,93,-5,3000,11.112,,,160,,,,,,,,,,10,wg-a,,,,AAXX 11094 07070 12230 81606 11040 21050 30162 40280 53017 60006 71022 886// 90900=
07070,1997-01-11 12:00:00,-2,1028,0.1,86,-4,3000,14.816,,,160,,,,,,,,,,10,wg-a,,,,AAXX 11124 07070 12330 71608 11020 21040 30163 40280 52001 60006 71022 876// 91200=
07070,1997-01-11 15:00:00,-2,1028.2,0.2,93,-3,3000,14.816,,,150,,,,,,,,,,10,wg-a,,,,AAXX 11154 07070 12230 81508 11020 21030 30165 40282 53002 60006 71022 886// 91500=
07070,1997-01-11 18:00:00,-2,1029.3,1.1,93,-3,4500,14.816,,,150,-4.5,-1.8,,,,,,,,10,wg-a,,,,AAXX 11184 07070 12245 81508 11020 21030 30176 40293 51011 60006 71022 886// 91800 333 11018 21045=
07070,1997-01-11 21:00:00,-3,1029.8,0.5,93,-4,4000,14.816,,,140,,,,,,,,,,10,wg-a,,,,AAXX 11214 07070 12340 81408 11030 21040 30181 40298 53005 60006 71022 886// 92100=
07070,1997-01-12 00:00:00,-6,1030.4,0.4,93,-7,3000,14.816,,,110,,,,,,,,,,10,wg-a,,,,AAXX 12004 07070 12/30 01108 11060 21070 30185 40304 51004 60006 71011 80000 90000=
07070,1997-01-12 03:00:00,-7,1030.7,0.3,93,-8,3500,3.704,,,160,,,,,,,,,,10,wg-a,,,,AAXX 12034 07070 12335 /1602 11070 21080 30188 40307 53003 60006 71022 85600 90300=
07070,1997-01-12 06:00:00,-5,1030.5,-0.1,93,-6,3000,14.816,,,120,-7.2,-2.2,,,,,,,,10,wg-a,,1,,AAXX 12064 07070 12730 71208 11050 21060 30187 40305 56001 60006 71011 875// 90600 333 11022 21072 4/001=
07070,1997-01-12 09:00:00,-3,1030.8,0.3,86,-5,3500,3.704,,,140,,,,,,,,,,10,wg-a,,,,AAXX 12094 07070 12635 71402 11030 21050 30190 40308 53003 60006 71022 875// 90900=
07070,1997-01-12 12:00:00,-2,1030.6,-0.1,86,-4,4000,11.112,,,170,,,,,,,,,,10,wg-a,,,,AAXX 12124 07070 12640 71706 11020 21040 30189 40306 58001 60006 71022 875// 91200=
07070,1997-01-12 15:00:00,0,1029.5,-1,80,-3,4000,7.408,,,160,,,,,,,,,,10,wg-a,,,,AAXX 12154 07070 12640 21604 10000 21030 30179 40295 56010 60006 71011 82500 91500=
07070,1997-01-12 18:00:00,-3,1030,0.3,86,-5,4000,7.408,,,150,-4.7,-0.1,,,,,,,,10,wg-a,,1,,AAXX 12184 07070 12740 /1504 11030 21050 30182 40300 51003 60006 71011 81500 91800 333 11001 21047 4/001=
07070,1997-01-12 21:00:00,-5,1030,0,93,-6,4000,11.112,,,110,,,,,,,,,,10,wg-a,,,,AAXX 12214 07070 12/40 01106 11050 21060 30182 40300 50000 60006 71000 80000 92100=
07070,1997-01-13 00:00:00,-6,1029.8,-0.3,86,-8,4500,7.408,,,80,,,,,,,,,,10,wg-a,,,,AAXX 13004 07070 12/45 00804 11060 21080 30179 40298 57003 60006 71000 80000 90000=
07070,1997-01-13 03:00:00,-7,1029,-0.8,93,-8,4500,11.112,,,90,,,,,,,,,,10,wg-a,,,,AAXX 13034 07070 12/45 00906 11070 21080 30171 40290 57008 60006 71000 80000 90300=
07070,1997-01-13 06:00:00,-7,1028.6,-0.4,86,-9,4500,3.704,,,90,-7.6,-3.4,,,,,,,,10,wg-a,,1,,AAXX 13064 07070 12/45 00902 11070 21090 30167 40286 56004 60006 71000 80000 90600 333 11034 21076 4/001=
07070,1997-01-13 09:00:00,-6,1029.3,0.7,93,-7,2500,14.816,,,100,,,,,,,,,,10,wg-a,,,,AAXX 13094 07070 12/25 /1008 11060 21070 30174 40293 51007 60006 71000 80001 90900=
07070,1997-01-13 12:00:00,0,1028.3,-0.7,74,-4,4000,11.112,,,90,,,,,,,,,,10,wg-a,,,,AAXX 13124 07070 12/40 /0906 10000 21040 30167 40283 58007 60006 71000 80001 91200=
07070,1997-01-13 15:00:00,1,1026.9,-1.3,75,-3,4500,7.408,,,90,,,,,,,,,,10,wg-a,,,,AAXX 13154 07070 12/45 /0904 10010 21030 30154 40269 56013 60006 71000 80001 91500=
07070,1997-01-13 18:00:00,-3,1027.1,0,86,-5,3000,0,,,0,-8.1,1.5,,,,,,,,10,wg-a,,1,,AAXX 13184 07070 12/30 00000 11030 21050 30154 40271 50000 60006 71000 80000 91800 333 10015 21081 4/001=
07070,1997-01-13 21:00:00,-4,1027.2,-0,80,-7,4000,3.704,,,80,,,,,,,,,,10,wg-a,,,,AAXX 13214 07070 12/40 00802 11040 21070 30154 40272 54000 60006 71000 80000 92100=
07070,1997-01-14 00:00:00,-6,1026.6,-0.6,86,-8,4000,0,,,0,,,,,,,,,,10,wg-a,,,,AAXX 14004 07070 12/40 00000 11060 21080 30148 40266 56006 60006 71000 80000 90000=
07070,1997-01-14 03:00:00,-7,1026.1,-0.6,86,-9,4000,0,,,0,,,,,,,,,,10,wg-a,,,,AAXX 14034 07070 12/40 00000 11070 21090 30142 40261 58006 60006 71000 80000 90300=
07070,1997-01-14 06:00:00,-8,1025.3,-0.8,92,-9,4500,7.408,,,80,-8.5,-2.9,,,,,,,,10,wg-a,,0,,AAXX 14064 07070 12/45 00804 11080 21090 30134 40253 56008 60006 71000 80000 90600 333 11029 21085 4/000=
07070,1997-01-14 09:00:00,-5,1025.7,0.5,86,-7,4000,14.816,,,100,,,,,,,,,,10,wg-a,,,,AAXX 14094 07070 12/40 /1008 11050 21070 30139 40257 53005 60006 71000 80001 90900=
07070,1997-01-14 12:00:00,1,1024.8,-0.6,64,-5,4500,11.112,,,110,,,,,,,,,,10,wg-a,,,,AAXX 14124 07070 12/45 /1106 10010 21050 30133 40248 58006 60006 71000 80001 91200=
07070,1997-01-14 15:00:00,2,1024.1,-0.7,64,-4,500,11.112,,,130,,,,,,,,,,,wg-a,,,,AAXX 14154 07070 12/00 01306 10020 21040 30126 40241 56007 60006 80000 91500=
07070,1997-01-14 18:00:00,-3,1024.5,0.2,86,-5,4000,11.112,,,100,-7.6,2.1,,,,,,,,10,wg-a,,,,AAXX 14184 07070 12/40 01006 11030 21050 30128 40245 52002 60006 71000 80000 91800 333 10021 21076=
07070,1997-01-15 00:00:00,-7,1025.2,0.1,93,-8,3500,3.704,,,90,,,,,,,,,,10,wg-a,,,,AAXX 15004 07070 12/35 00902 11070 21080 30133 40252 50001 60006 71000 80000 90000=
07070,1997-01-15 06:00:00,-9,1025.3,-0.2,92,-10,4500,7.408,,,80,-9.6,-2.6,,,,,,,,10,wg-a,,0,,AAXX 15064 07070 12/45 00804 11090 21100 30133 40253 57002 60006 71000 80000 90600 333 11026 21096 4/9999=
07070,1997-01-15 09:00:00,-8,1026.3,1.1,92,-9,3000,3.704,,,60,,,,,,,,,,10,wg-a,,,,AAXX 15094 07070 12/30 00602 11080 21090 30144 40263 52011 60006 71000 80000 90900=
07070,1997-01-15 12:00:00,1,1025.9,0,75,-3,3500,3.704,,,110,,,,,,,,,,10,wg-a,,,,AAXX 15124 07070 12/35 01102 10010 21030 30144 40259 50000 60006 71000 80000 91200=
07070,1997-01-15 15:00:00,4,1024.8,-1,65,-2,4500,3.704,,,250,,,,,,,,,,10,wg-a,,,,AAXX 15154 07070 12/45 02502 10040 21020 30134 40248 56010 60006 71000 80000 91500=
07070,1997-01-15 18:00:00,-2,1025.3,0.2,86,-4,500,3.704,,,120,-9.7,4.3,,,,,,,,,wg-a,,0,,AAXX 15184 07070 12/00 01202 11020 21040 30136 40253 50002 60006 80000 91800 333 10043 21097 4/000=
07070,1997-01-15 21:00:00,-5,1025.4,-0,93,-6,4500,7.408,,,80,,,,,,,,,,,wg-a,,,,AAXX 15214 07070 12/45 /0804 11050 21060 30136 40254 54000 60006 92100=
07070,1997-01-16 00:00:00,-6,1025.1,-0.3,86,-8,3000,3.704,,,80,,,,,,,,,,10,wg-a,,,,AAXX 16004 07070 12/30 00802 11060 21080 30133 40251 58003 60006 71000 80000 90000=
07070,1997-01-16 03:00:00,-6,1023.8,-1.3,93,-7,4500,3.704,,,60,,,,,,,,,,10,wg-a,,,,AAXX 16034 07070 12/45 00602 11060 21070 30120 40238 56013 60006 71000 80000 90300=
07070,1997-01-16 06:00:00,-8,1022.8,-1.1,92,-9,3000,3.704,,,60,-7.7,-2,,,,,,,,10,wg-a,,1,,AAXX 16064 07070 12/30 00602 11080 21090 30109 40228 57011 60006 71000 80000 90600 333 11020 21077 4/001=
07070,1997-01-16 09:00:00,-7,1023,0.3,100,-7,3500,0,,,0,,,,,,,,,,10,wg-a,,,,AAXX 16094 07070 12/35 00000 11070 21070 30112 40230 53003 60006 71000 80000 90900=
07070,1997-01-16 12:00:00,3,1021.6,-1,75,-1,500,3.704,,,120,,,,,,,,,,,wg-a,,,,AAXX 16124 07070 12/00 01202 10030 21010 30102 40216 58010 60006 80000 91200=
07070,1997-01-16 15:00:00,6,1019.9,-1.5,65,0,9000,7.408,,,160,,,,,,,,,,,wg-a,,,,AAXX 16154 07070 12/59 01604 10060 20000 30087 40199 56015 60006 80000 91500=
07070,1997-01-16 18:00:00,1,1019.2,-0.9,80,-2,10000,11.112,,,120,-8.5,6.7,,,,,,,,,wg-a,,0,,AAXX 16184 07070 12/60 01206 10010 21020 30078 40192 58009 60006 80000 91800 333 10067 21085 4/000=
07070,1997-01-16 21:00:00,3,1018.7,-0.5,75,-1,10000,22.224,,,170,,,,,,,,,,,wg-a,,,,AAXX 16214 07070 12/60 01712 10030 21010 30073 40187 57005 60006 80000 92100=
07070,1997-01-17 00:00:00,0,1018.4,-0.4,86,-2,10000,18.52,,,170,,,,,,,,,,,wg-a,,,,AAXX 17004 07070 12/60 01710 10000 21020 30069 40184 58004 60006 80000 90000=
07070,1997-01-17 03:00:00,1,1017.3,-1,80,-2,10000,3.704,,,150,,,,,,,,,,,wg-a,,,,AAXX 17034 07070 12/60 01502 10010 21020 30059 40173 56010 60006 80000 90300=
07070,1997-01-17 06:00:00,-2,1016.8,-0.6,93,-3,10000,7.408,,,160,-3.3,3.5,,,,,,,,,wg-a,,0,,AAXX 17064 07070 12/60 01604 11020 21030 30053 40168 57006 60006 80000 90600 333 10035 21033 4/9999=
07070,1997-01-17 09:00:00,3,1016.4,-0.2,81,0,7000,18.52,,,170,,,,,,,,,,,wg-a,,,,AAXX 17094 07070 12/57 /1710 10030 20000 30051 40164 55002 60006 80001 90900=
07070,1997-01-17 12:00:00,6,1015.8,-0.5,70,1,9000,22.224,,,180,,,,,,,,,,,wg-a,,,,AAXX 17124 07070 12/59 31812 10060 20010 30046 40158 58005 60006 80001 91200=
07070,1997-01-17 15:00:00,6,1015.6,-0.2,75,2,10000,18.52,,,180,,,,,,,,,,,wg-a,,,,AAXX 17154 07070 12/60 71810 10060 20020 30044 40156 55002 60006 81034 91500=
07070,1997-01-17 18:00:00,5,1016.3,0.7,81,2,10000,18.52,,,160,-1.5,7.1,,,,,,,,,wg-a,,,,AAXX 17184 07070 12660 71610 10050 20020 30051 40163 52007 60006 85502 91800 333 10071 21015=
07070,1997-01-17 21:00:00,4,1017.6,1.2,87,2,8000,7.408,,,190,,,,,,,,,,60,wg-a,,,,AAXX 17214 07070 02558 81904 10040 20020 30063 40176 51012 61000 76062 885// 92100 333 ////=
07070,1997-01-18 00:00:00,4,1018.2,0.6,93,3,500,3.704,,,170,,,,1,,,,,,51,wg-a,,,,AAXX 18004 07070 02400 81702 10040 20030 30069 40182 51006 60016 75165 887// 90000 333 60017=
07070,1997-01-18 03:00:00,3,1018.8,0.6,100,3,600,0,,,0,,,,,,,,,,45,wg-a,,,,AAXX 18034 07070 32/06 90000 10030 20030 30075 40188 51006 74565 89/// 90300=
07070,1997-01-18 06:00:00,4,1019.4,0.6,93,3,300,7.408,,,260,2.7,4.9,,,,,2,,,43,wg-a,,,,AAXX 18064 07070 02/03 92604 10040 20030 30081 40194 51006 60006 74365 89/// 90600 333 10049 20027 60024=
07070,1997-01-18 09:00:00,3,1020.6,1.1,100,3,100,7.408,,,220,,,,,,,,,,43,wg-a,,,,AAXX 18094 07070 32/01 92204 10030 20030 30092 40206 53011 74344 89/// 90900=
07070,1997-01-18 12:00:00,4,1019.8,-0.7,100,4,1200,3.704,,,190,,,,,,,,,,10,wg-a,,,,AAXX 18124 07070 12212 81902 10040 20040 30085 40198 58007 60006 71042 886// 91200=
07070,1997-01-18 15:00:00,4,1017.8,-2,100,4,2000,7.408,,,150,,,,,,,,,,10,wg-a,,,,AAXX 18154 07070 12220 81504 10040 20040 30065 40178 56020 60006 71022 886// 91500=
07070,1997-01-18 18:00:00,2,1016.7,-1.2,100,2,2000,3.704,,,100,2.4,4.6,,,,,,,,10,wg-a,,,,AAXX 18184 07070 12420 81002 10020 20020 30053 40167 58012 60006 71022 886// 91800 333 10046 20024=
07070,1997-01-18 21:00:00,3,1014.7,-1.9,100,3,500,14.816,,,100,,,,,,,,,,,wg-a,,,,AAXX 18214 07070 12400 81008 10030 20030 30034 40147 58019 60006 886// 92100=
07070,1997-01-19 00:00:00,4,1012.4,-2.2,93,3,500,11.112,,,130,,,,,,,,,,,wg-a,,,,AAXX 19004 07070 12600 81306 10040 20030 30012 40124 58022 60006 875// 90000=
07070,1997-01-19 03:00:00,5,1010.9,-1.5,93,4,4000,14.816,,,180,,,,0,,,,,,10,wg-a,,,,AAXX 19034 07070 12540 81808 10050 20040 39997 40109 56015 60007 71062 875// 90300=
07070,1997-01-19 06:00:00,5,1009.9,-1,93,4,4500,11.112,,,170,2.2,5,,,,,2,,,10,wg-a,,,,AAXX 19064 07070 02545 81706 10050 20040 39987 40099 55010 60006 71062 875// 90600 333 10050 20022 60024=
07070,1997-01-19 09:00:00,5,1010.8,0.9,93,4,2000,11.112,,,170,,,,,,,,,,10,wg-a,,,,AAXX 19094 07070 12420 71706 10050 20040 39996 40108 52009 60006 71022 875// 90900=
07070,1997-01-19 12:00:00,7,1011,0.3,93,6,4000,11.112,,,180,,,,,,,,,,10,wg-a,,,,AAXX 19124 07070 12440 71806 10070 20060 39999 40110 51003 60006 71022 878// 91200=
07070,1997-01-19 15:00:00,6,1011.2,0.2,100,6,4000,3.704,,,170,,,,,,,,,,10,wg-a,,,,AAXX 19154 07070 12640 71702 10060 20060 30001 40112 53002 60006 71022 875// 91500=
07070,1997-01-19 18:00:00,4,1012.4,1.1,100,4,6000,11.112,,,180,3.8,7,,,,,,,,,wg-a,,,,AAXX 19184 07070 12556 71806 10040 20040 30012 40124 53011 60006 875// 91800 333 10070 20038=
07070,1997-01-19 21:00:00,3,1014.8,2.3,100,3,500,0,,,0,,,,,,,,,,,wg-a,,,,AAXX 19214 07070 12600 80000 10030 20030 30035 40148 51023 60006 885// 92100=
07070,1997-01-20 00:00:00,3,1015.8,1,93,2,4000,7.408,,,190,,,,,,,,,,10,wg-a,,,,AAXX 20004 07070 12340 81904 10030 20020 30045 40158 51010 60006 71022 886// 90000=
07070,1997-01-20 03:00:00,3,1016.5,0.7,100,3,4000,3.704,,,210,,,,,,,,,,10,wg-a,,,,AAXX 20034 07070 12340 82102 10030 20030 30052 40165 53007 60006 71022 886// 90300=
07070,1997-01-20 06:00:00,3,1017.4,0.8,100,3,600,0,,,0,2,4,,,,,,,,44,wg-a,,,,AAXX 20064 07070 12406 80000 10030 20030 30060 40174 51008 60006 74442 886// 90600 333 10040 20020=
07070,1997-01-20 09:00:00,3,1019.7,2.3,93,2,200,3.704,,,150,,,,,,,,,,45,wg-a,,,,AAXX 20094 07070 12/02 91502 10030 20020 30083 40197 53023 60006 74542 89/// 90900=
07070,1997-01-20 12:00:00,4,1021.5,1.9,100,4,900,11.112,,,350,,,,,,,,,,42,wg-a,,,,AAXX 20124 07070 12009 93506 10040 20040 30102 40215 51019 60006 74244 896// 91200=
07070,1997-01-20 15:00:00,5,1022.5,1,93,4,4000,14.816,,,360,,,,,,,,,,10,wg-a,,,,AAXX 20154 07070 12340 83608 10050 20040 30112 40225 53010 60006 71022 886// 91500=
07070,1997-01-20 18:00:00,3,1024.5,1.9,93,2,6000,14.816,,,50,2.3,5.4,,,,,,,,,wg-a,,,,AAXX 20184 07070 12456 80508 10030 20020 30131 40245 51019 60006 886// 91800 333 10054 20023=
07070,1997-01-20 21:00:00,2,1026.4,1.8,100,2,9000,7.408,,,10,,,,,,,,,,,wg-a,,,,AAXX 20214 07070 12459 80104 10020 20020 30149 40264 51018 60006 886// 92100=
07070,1997-01-21 00:00:00,1,1026.5,0.1,100,1,6000,14.816,,,50,,,,,,,,,,,wg-a,,,,AAXX 21004 07070 12456 /0508 10010 20010 30150 40265 53001 60006 85500 90000=
07070,1997-01-21 03:00:00,1,1026.9,0.4,93,0,6000,7.408,,,50,,,,,,,,,,,wg-a,,,,AAXX 21034 07070 12456 70504 10010 20000 30154 40269 53004 60006 875// 90300=
07070,1997-01-21 06:00:00,1,1025.9,-1,93,0,6000,22.224,,,70,-0.1,3.4,,,,,,,,,wg-a,,,,AAXX 21064 07070 12456 /0712 10010 20000 30144 40259 58010 60006 81500 90600 333 10034 21001=
07070,1997-01-21 09:00:00,2,1026.3,0.4,93,1,500,14.816,,,80,,,,,,,,,,,wg-a,,,,AAXX 21094 07070 12400 70808 10020 20010 30148 40263 50004 60006 875// 90900=
07070,1997-01-21 12:00:00,5,1025,-1.1,87,3,10000,31.484,,,90,,,,,,,,,,,wg-a,,,,AAXX 21124 07070 12460 30917 10050 20030 30137 40250 58011 60006 83230 91200=
07070,1997-01-21 15:00:00,6,1022.8,-2.2,81,3,10000,18.52,,,110,,,,,,,,,,,wg-a,,,,AAXX 21154 07070 12/60 11110 10060 20030 30115 40228 56022 60006 81030 91500=
07070,1997-01-21 18:00:00,3,1021.8,-1.1,87,1,10000,14.816,,,100,0.7,6.2,,,,,,,,,wg-a,,,,AAXX 21184 07070 12/60 11008 10030 20010 30104 40218 58011 60006 81030 91800 333 10062 20007=
07070,1997-01-21 21:00:00,2,1020.9,-0.9,87,0,7000,7.408,,,70,,,,,,,,,,,wg-a,,,,AAXX 21214 07070 12757 70704 10020 20000 30095 40209 58009 60006 875// 92100=
07070,1997-01-22 00:00:00,3,1019.8,-1.1,93,2,7000,14.816,,,110,,,,,,,,,,,wg-a,,,,AAXX 22004 07070 12757 81108 10030 20020 30084 40198 57011 60006 8557/ 90000=
07070,1997-01-22 03:00:00,5,1018.3,-1.4,93,4,9000,25.928,,,160,,,,,,,,,,61,wg-a,,,,AAXX 22034 07070 02459 81614 10050 20040 30070 40183 56014 61000 76162 8277/ 90300 333 ////=
07070,1997-01-22 06:00:00,6,1017.2,-1,87,4,12000,29.632,,,170,1.1,6.1,,,,,,,,3,wg-a,,,,AAXX 22064 07070 02762 81716 10060 20040 30060 40172 56010 60006 70362 875// 90600 333 10061 20011 61000=
07070,1997-01-22 09:00:00,8,1018,0.9,81,5,12000,25.928,,,180,,,,,,,,,,60,wg-a,,,,AAXX 22094 07070 02562 81814 10080 20050 30069 40180 53009 61000 76062 8587/ 90900 333 ////=
07070,1997-01-22 12:00:00,10,1019,1,82,7,12000,25.928,,,180,,,,,,,,,,,wg-a,,,,AAXX 22124 07070 02662 71814 10100 20070 30079 40190 50010 61000 8653/ 91200 333 6100=
07070,1997-01-22 15:00:00,9,1019.1,0.1,87,7,16000,14.816,,,160,,,,1,,,,,,21,wg-a,,,,AAXX 22154 07070 12566 71608 10090 20070 30080 40191 53001 60017 72162 878// 91500=
07070,1997-01-22 18:00:00,6,1019.1,-0.1,93,5,12000,0,,,0,6.2,10.2,,,,,,,,2,wg-a,,,,AAXX 22184 07070 02662 30000 10060 20050 30079 40191 56001 60006 70261 83500 91800 333 10102 20062 61000=
07070,1997-01-22 21:00:00,7,1019.6,0.5,87,5,12000,14.816,,,190,,,,,,,,,,,wg-a,,,,AAXX 22214 07070 12662 41908 10070 20050 30084 40196 53005 60006 83530 92100=
07070,1997-01-23 00:00:00,4,1020.5,0.8,100,4,12000,11.112,,,190,,,,,,,,,,,wg-a,,,,AAXX 23004 07070 12662 21906 10040 20040 30092 40205 51008 60006 81530 90000=
07070,1997-01-23 03:00:00,3,1021.2,0.6,100,3,10000,7.408,,,200,,,,,,,,,,11,wg-a,,,,AAXX 23034 07070 12660 /2004 10030 20030 30098 40212 52006 60006 71100 81500 90300=
07070,1997-01-23 06:00:00,2,1022,0.7,93,1,500,0,,,0,1.5,7.5,,,,,1,,,40,wg-a,,,,AAXX 23064 07070 02/05 /0000 10020 20010 30105 40220 53007 60006 74041 82032 90600 333 10075 20015 60014=
07070,1997-01-23 09:00:00,1,1023.3,1.3,100,1,400,7.408,,,320,,,,,,,,,,42,wg-a,,,,AAXX 23094 07070 12604 73204 10010 20010 30118 40233 52013 60006 74242 86532 90900=
07070,1997-01-23 12:00:00,4,1024,0.8,100,4,1800,3.704,,,280,,,,,,,,,,10,wg-a,,,,AAXX 23124 07070 12518 82802 10040 20040 30126 40240 50008 60006 71042 8657/ 91200=
07070,1997-01-23 18:00:00,5,1022.9,0.3,93,4,300,0,,,0,0.8,6.4,,,,,,,,44,wg-a,,,,AAXX 23184 07070 12003 80000 10050 20040 30116 40229 51003 60006 74464 886// 91800 333 10064 20008=
07070,1997-01-23 21:00:00,5,1023.4,0.5,100,5,100,3.704,,,50,,,,,,,,,,45,wg-a,,,,AAXX 23214 07070 12/01 90502 10050 20050 30121 40234 51005 60006 74544 89/// 92100=
07070,1997-01-24 00:00:00,4,1024,0.5,100,4,100,3.704,,,300,,,,,,,,,,45,wg-a,,,,AAXX 24004 07070 12/01 93002 10040 20040 30126 40240 52005 60006 74544 89/// 90000=
07070,1997-01-24 03:00:00,3,1024.6,0.6,100,3,600,0,,,0,,,,,,,,,,43,wg-a,,,,AAXX 24034 07070 12/06 90000 10030 20030 30132 40246 51006 60006 74344 89/// 90300=
07070,1997-01-24 06:00:00,3,1025,0.4,100,3,1200,3.704,,,100,2.6,4.9,,,,,,,,10,wg-a,,,,AAXX 24064 07070 12012 71002 10030 20030 30136 40250 53004 60006 71042 876// 90600 333 10049 20026=
07070,1997-01-24 09:00:00,4,1026.5,1.5,100,4,1400,3.704,,,120,,,,0,,,,,,10,wg-a,,,,AAXX 24094 07070 12614 /1202 10040 20040 30151 40265 51015 60007 71064 85500 90900=
07070,1997-01-24 12:00:00,6,1027.3,0.9,100,6,1700,7.408,,,10,,,,0,,,,,,10,wg-a,,,,AAXX 24124 07070 02717 70104 10060 20060 30160 40273 51009 60016 71064 8557/ 91200 333 60007=
07070,1997-01-24 15:00:00,7,1027.6,0.3,100,7,2000,7.408,,,340,,,,,,,,,,10,wg-a,,,,AAXX 24154 07070 12720 73404 10070 20070 30163 40276 53003 60006 71022 8557/ 91500=
07070,1997-01-24 18:00:00,6,1028.8,1.2,100,6,100,7.408,,,50,2.9,7.5,,,,,,,,47,wg-a,,,,AAXX 24184 07070 32/01 90504 10060 20060 30175 40288 52012 74744 89/// 91800 333 10075 20029=
07070,1997-01-24 21:00:00,3,1030.1,1.1,100,3,100,3.704,,,160,,,,,,,,,,45,wg-a,,,,AAXX 24214 07070 12/01 91602 10030 20030 30186 40301 53011 60006 74544 89/// 92100=
07070,1997-01-25 00:00:00,3,1030.8,0.7,100,3,500,3.704,,,160,,,,,,,,,,45,wg-a,,,,AAXX 25004 07070 12/00 91602 10030 20030 30193 40308 51007 60006 74544 89/// 90000=
07070,1997-01-25 03:00:00,3,1030.7,-0.1,100,3,500,11.112,,,60,,,,,,,,,,45,wg-a,,,,AAXX 25034 07070 32/00 90606 10030 20030 30192 40307 58001 74544 89/// 90300=
07070,1997-01-25 06:00:00,4,1031.7,1,100,4,100,11.112,,,30,1.4,5.8,,,,,1,,,43,wg-a,,,,AAXX 25064 07070 02/01 90306 10040 20040 30202 40317 53010 60006 74344 89/// 90600 333 10058 20014 60014=
07070,1997-01-25 09:00:00,6,1032.1,0.5,100,6,2400,11.112,,,120,,,,,,,,,,10,wg-a,,,,AAXX 25094 07070 12224 81206 10060 20060 30207 40321 51005 60006 71042 886// 90900=
07070,1997-01-25 12:00:00,7,1031.5,-0.5,100,7,500,7.408,,,50,,,,,,,,,,1,wg-a,,,,AAXX 25124 07070 12/00 /0504 10070 20070 30202 40315 58005 60006 70141 80001 91200=
07070,1997-01-25 15:00:00,10,1030.8,-0.6,76,6,10000,14.816,,,80,,,,,,,,,,,wg-a,,,,AAXX 25154 07070 12/60 00808 10100 20060 30196 40308 55006 60006 80000 91500=
07070,1997-01-25 18:00:00,4,1031.2,0.2,87,2,15000,7.408,,,80,3.6,10.1,,,,,,,,,wg-a,,,,AAXX 25184 07070 12/65 00804 10040 20020 30198 40312 53002 60006 80000 91800 333 10101 20036=
07070,1997-01-25 21:00:00,1,1031.9,0.5,93,0,12000,7.408,,,40,,,,,,,,,,,wg-a,,,,AAXX 25214 07070 12/62 30404 10010 20000 30203 40319 51005 60006 80001 92100=
07070,1997-01-26 00:00:00,0,1031.5,-0.4,93,-1,10000,3.704,,,50,,,,,,,,,,,wg-a,,,,AAXX 26004 07070 12/60 /0502 10000 21010 30199 40315 58004 60006 90000=
07070,1997-01-26 03:00:00,-2,1031.1,-0.5,100,-2,4000,3.704,,,100,,,,,,,,,,10,wg-a,,,,AAXX 26034 07070 12/40 01002 11020 21020 30194 40311 56005 60006 71000 80000 90300=
07070,1997-01-26 06:00:00,0,1030.4,-0.6,100,0,3000,11.112,,,60,-1.8,4.2,,,,,,,,10,wg-a,,,,AAXX 26064 07070 12430 70606 10000 20000 30188 40304 56006 60006 71011 875// 90600 333 10042 21018=
07070,1997-01-26 09:00:00,1,1030.5,0.1,93,0,2500,3.704,,,20,,,,0,,,,,,10,wg-a,,,,AAXX 26094 07070 12425 70202 10010 20000 30189 40305 53001 60007 71022 875// 90900=
07070,1997-01-26 12:00:00,2,1030,-0.4,93,1,3500,7.408,,,340,,,,,,,,,,10,wg-a,,,,AAXX 26124 07070 12435 73404 10020 20010 30185 40300 57004 60006 71022 875// 91200=
07070,1997-01-26 15:00:00,3,1029.3,-0.7,93,2,2500,11.112,,,350,,,,,,,,,,10,wg-a,,,,AAXX 26154 07070 12525 73506 10030 20020 30178 40293 56007 60006 71022 875// 91500=
07070,1997-01-26 18:00:00,2,1029.4,0.1,93,1,4000,3.704,,,360,0.2,2.6,,,,,,,,10,wg-a,,,,AAXX 26184 07070 12540 73602 10020 20010 30179 40294 53001 60006 71022 875// 91800 333 10026 20002=
07070,1997-01-26 21:00:00,1,1030,0.5,100,1,4500,14.816,,,320,,,,,,,,,,10,wg-a,,,,AAXX 26214 07070 12545 83208 10010 20010 30184 40300 51005 60006 71022 885// 92100=
07070,1997-01-27 00:00:00,1,1029.8,-0.2,93,0,4500,11.112,,,340,,,,,,,,,,10,wg-a,,,,AAXX 27004 07070 12445 83406 10010 20000 30182 40298 56002 60006 71022 885// 90000=
07070,1997-01-27 03:00:00,1,1030,0.2,93,0,4000,7.408,,,310,,,,,,,,,,10,wg-a,,,,AAXX 27034 07070 12240 83104 10010 20000 30184 40300 50002 60006 71022 886// 90300=
07070,1997-01-27 06:00:00,0,1030.3,0.3,93,-1,4500,14.816,,,320,0.3,2.1,,,,,,,,10,wg-a,,,,AAXX 27064 07070 02345 83208 10000 21010 30187 40303 51003 61000 71072 887// 90600 333 10021 20003 6000=
07070,1997-01-27 09:00:00,0,1032,1.7,86,-2,500,14.816,,,300,,,,,,,,,,2,wg-a,,,,AAXX 27094 07070 02300 83008 10000 21020 30204 40320 51017 61000 70272 886// 90900 333 ////=
07070,1997-01-27 12:00:00,0,1032.8,0.8,86,-2,7000,14.816,,,340,,,,,,,,,,,wg-a,,,,AAXX 27124 07070 02457 83408 10000 21020 30212 40328 50008 61000 885// 91200 333 ////=
07070,1997-01-27 15:00:00,1,1032.9,-0.1,75,-3,6000,18.52,,,330,,,,,,,,,,,wg-a,,,,AAXX 27154 07070 12556 73310 10010 21030 30213 40329 55001 60006 875// 91500=
07070,1997-01-27 18:00:00,0,1034.1,1.1,86,-2,500,3.704,,,330,-0.4,0.7,,,,,,,,,wg-a,,,,AAXX 27184 07070 12500 73302 10000 21020 30224 40341 53011 60006 875// 91800 333 10007 21004=
07070,1997-01-27 21:00:00,0,1035.5,1.4,93,-1,500,7.408,,,360,,,,,,,,,,,wg-a,,,,AAXX 27214 07070 12500 73604 10000 21010 30238 40355 52014 60006 875// 92100=
07070,1997-01-28 00:00:00,0,1035.7,0.2,86,-2,4000,14.816,,,350,,,,,,,,,,10,wg-a,,,,AAXX 28004 07070 12540 83508 10000 21020 30240 40357 52002 60006 71022 885// 90000=
07070,1997-01-28 03:00:00,-2,1036.4,0.6,93,-3,3000,11.112,,,20,,,,,,,,,,10,wg-a,,,,AAXX 28034 07070 12/30 00206 11020 21030 30246 40364 53006 60006 71011 80000 90300=
07070,1997-01-28 06:00:00,-3,1037.4,1,93,-4,3000,3.704,,,40,-3.4,0.2,,,,,,,,10,wg-a,,,,AAXX 28064 07070 02/30 00402 11030 21040 30256 40374 53010 60006 71011 80000 90600 333 10002 21034 61000=
07070,1997-01-28 09:00:00,-2,1038.7,1.3,93,-3,2500,7.408,,,10,,,,,,,,,,10,wg-a,,,,AAXX 28094 07070 12/25 00104 11020 21030 30269 40387 51013 60006 71000 80000 90900=
07070,1997-01-28 12:00:00,2,1038.7,0.2,75,-2,4000,11.112,,,40,,,,,,,,,,10,wg-a,,,,AAXX 28124 07070 12/40 00406 10020 21020 30271 40387 50002 60006 71000 80000 91200=
07070,1997-01-28 15:00:00,4,1038.1,-0.5,70,-1,6000,11.112,,,10,,,,,,,,,,,wg-a,,,,AAXX 28154 07070 12/56 00106 10040 21010 30266 40381 57005 60006 80000 91500=
07070,1997-01-28 18:00:00,1,1039.4,1.1,86,-1,6000,11.112,,,20,-4.1,3.9,,,,,,,,,wg-a,,,,AAXX 28184 07070 12/56 00206 10010 21010 30277 40394 53011 60006 80000 91800 333 10039 21041=
07070,1997-01-28 21:00:00,-1,1040.5,1,100,-1,500,7.408,,,30,,,,,,,,,,,wg-a,,,,AAXX 28214 07070 12/00 00304 11010 21010 30287 40405 51010 60006 80000 92100=
07070,1997-01-29 00:00:00,-2,1041.2,0.7,93,-3,4000,7.408,,,30,,,,,,,,,,10,wg-a,,,,AAXX 29004 07070 12/40 00304 11020 21030 30294 40412 51007 60006 71000 80000 90000=
07070,1997-01-29 03:00:00,0,1041.5,0.3,93,-1,4500,11.112,,,50,,,,,,,,,,10,wg-a,,,,AAXX 29034 07070 12445 80506 10000 21010 30297 40415 53003 60006 71011 885// 90300=
07070,1997-01-29 06:00:00,1,1040.9,-0.5,86,-1,7000,7.408,,,120,-2.3,0.9,,,,,,,,,wg-a,,,,AAXX 29064 07070 02457 81204 10010 21010 30292 40409 56005 60006 885// 90600 333 10009 21023 61000=
07070,1997-01-29 09:00:00,1,1041.3,0.4,86,-1,8000,7.408,,,110,,,,,,,,,,,wg-a,,,,AAXX 29094 07070 12558 71104 10010 21010 30296 40413 53004 60006 875// 90900=
07070,1997-01-29 12:00:00,3,1040.3,-0.9,87,1,12000,18.52,,,80,,,,,,,,,,,wg-a,,,,AAXX 29124 07070 12462 70810 10030 20010 30287 40403 58009 60006 875// 91200=
07070,1997-01-29 15:00:00,5,1038.7,-1.5,75,1,15000,22.224,,,90,,,,,,,,,,,wg-a,,,,AAXX 29154 07070 12565 /0912 10050 20010 30272 40387 56015 60006 81500 91500=
07070,1997-01-29 18:00:00,0,1038.9,-0,93,-1,8000,7.408,,,100,0,5.3,,,,,,,,,wg-a,,,,AAXX 29184 07070 12/58 01004 10000 21010 30272 40389 55000 60006 80000 91800 333 10053 20000=
07070,1997-01-29 21:00:00,-2,1039.2,0.2,93,-3,8000,3.704,,,50,,,,,,,,,,,wg-a,,,,AAXX 29214 07070 12558 /0502 11020 21030 30274 40392 52002 60006 85500 92100=
07070,1997-01-30 00:00:00,0,1038.2,-0.9,93,-1,8000,7.408,,,70,,,,,,,,,,,wg-a,,,,AAXX 30004 07070 12558 70704 10000 21010 30265 40382 56009 60006 875// 90000=
07070,1997-01-30 03:00:00,1,1037.9,-0.3,86,-1,8000,11.112,,,80,,,,,,,,,,,wg-a,,,,AAXX 30034 07070 12458 80806 10010 21010 30262 40379 57003 60006 885// 90300=
07070,1997-01-30 06:00:00,1,1037.3,-0.6,86,-1,8000,11.112,,,100,-2,0.8,,,,,,,,,wg-a,,,,AAXX 30064 07070 12458 81006 10010 21010 30256 40373 56006 60006 885// 90600 333 10008 21020=
07070,1997-01-30 09:00:00,1,1038.1,0.8,86,-1,500,18.52,,,100,,,,,,,,,,,wg-a,,,,AAXX 30094 07070 12400 81010 10010 21010 30264 40381 53008 60006 885// 90900=
07070,1997-01-30 12:00:00,1,1037.7,-0.3,86,-1,6000,11.112,,,90,,,,,,,,,,,wg-a,,,,AAXX 30124 07070 12456 80906 10010 21010 30261 40377 58003 60006 885// 91200=
07070,1997-01-30 18:00:00,0,1036.5,-0.2,86,-2,6000,3.704,,,20,-0.3,1.7,,,,,,,,,wg-a,,,,AAXX 30184 07070 12456 20202 10000 21020 30248 40365 56002 60006 82500 91800 333 10017 21003=
07070,1997-01-31 00:00:00,-1,1036,-0.4,100,-1,4500,11.112,,,60,,,,,,,,,,10,wg-a,,,,AAXX 31004 07070 12345 80606 11010 21010 30243 40360 55004 60006 71011 886// 90000=
07070,1997-01-31 03:00:00,-1,1035.7,-0.3,93,-2,4000,14.816,,,60,,,,,,,,,,10,wg-a,,,,AAXX 31034 07070 12340 80608 11010 21020 30240 40357 58003 60006 71022 886// 90300=
07070,1997-01-31 09:00:00,0,1035.8,0.5,93,-1,4500,14.816,,,90,,,,,,,,,,10,wg-a,,,,AAXX 31094 07070 12345 80908 10000 21010 30241 40358 53005 60006 71022 886// 90900=
07070,1997-01-31 12:00:00,1,1034.7,-1,86,-1,7000,11.112,,,80,,,,,,,,,,,wg-a,,,,AAXX 31124 07070 12457 80806 10010 21010 30231 40347 58010 60006 886// 91200=
07070,1997-01-31 15:00:00,2,1033.4,-1.3,87,0,7000,14.816,,,90,,,,,,,,,,,wg-a,,,,AAXX 31154 07070 12457 80908 10020 20000 30218 40334 58013 60006 886// 91500=
07070,1997-01-31 18:00:00,0,1033.6,0.1,86,-2,6000,0,,,0,-0.7,2.3,,,,,,,,,wg-a,,,,AAXX 31184 07070 12/56 00000 10000 21020 30219 40336 51001 60006 80000 91800 333 10023 21007=
07070,1997-01-31 21:00:00,-2,1033.5,-0.1,93,-3,4000,3.704,,,350,,,,,,,,,,10,wg-a,,,,AAXX 31214 07070 12/40 03502 11020 21030 30218 40335 55001 60006 71000 80000 92100=
07070,1997-02-01 00:00:00,-4,1033.2,-0.4,100,-4,400,0,,,0,,,,,,,,,,48,wg-a,,,,AAXX 01004 07070 12/04 00000 11040 21040 30214 40332 58004 60006 74840 80000 90000=
07070,1997-02-01 03:00:00,-3,1032.8,-0.4,100,-3,400,0,,,0,,,,,,,,,,49,wg-a,,,,AAXX 01034 07070 12/04 90000 11030 21030 30210 40328 56004 60006 74944 89/// 90300=
07070,1997-02-01 06:00:00,-4,1032.4,-0.4,100,-4,200,3.704,,,300,-4.9,-0.4,,,,,,,,49,wg-a,,,,AAXX 01064 07070 12/02 93002 11040 21040 30206 40324 55004 60006 74941 89/// 90600 333 11004 21049=
07070,1997-02-01 09:00:00,-4,1032.5,0.1,100,-4,200,0,,,0,,,,,,,,,,48,wg-a,,,,AAXX 01094 07070 12/02 30000 11040 21040 30207 40325 52001 60006 74844 80001 90900=
07070,1997-02-01 12:00:00,2,1031.1,-1.1,100,2,4000,3.704,,,350,,,,0,,,,,,28,wg-a,,,,AAXX 01124 07070 02440 13502 10020 20020 30196 40311 58011 60006 72841 81100 91200 333 60007=
07070,1997-02-01 15:00:00,5,1030.1,-0.9,75,1,8000,11.112,,,80,,,,,,,,,,,wg-a,,,,AAXX 01154 07070 12/58 20806 10050 20010 30187 40301 56009 60006 80001 91500=
07070,1997-02-01 18:00:00,0,1029.8,-0.5,93,-1,7000,3.704,,,70,-5.3,4.7,,,,,,,,,wg-a,,,,AAXX 01184 07070 12/57 30702 10000 21010 30182 40298 56005 60006 80001 91800 333 10047 21053=
07070,1997-02-01 21:00:00,-1,1029.9,-0,93,-2,6000,7.408,,,190,,,,,,,,,,,wg-a,,,,AAXX 01214 07070 12/56 01904 11010 21020 30182 40299 54000 60006 80000 92100=
07070,1997-02-02 06:00:00,-1,1027.5,-0.5,93,-2,500,11.112,,,160,-3.5,-0.1,,,,,,,,,wg-a,,,,AAXX 02064 07070 02200 81606 11010 21020 30159 40275 56005 60006 886// 90600 333 11001 21035 60004=
07070,1997-02-02 09:00:00,-1,1027.9,0.4,93,-2,1700,11.112,,,160,,,,,,,,,,10,wg-a,,,,AAXX 02094 07070 12117 81606 11010 21020 30163 40279 50004 60006 71022 886// 90900=
07070,1997-02-02 12:00:00,-1,1028.1,0.2,93,-2,2700,3.704,,,220,,,,,,,,,,10,wg-a,,,,AAXX 02124 07070 02227 82202 11010 21020 30165 40281 50002 61000 71072 886// 91200 333 6100=
07070,1997-02-02 15:00:00,-1,1027.9,-0.2,100,-1,2100,11.112,,,150,,,,,,,,,,10,wg-a,,,,AAXX 02154 07070 02221 81506 11010 21010 30163 40279 55002 61000 71052 886// 91500 333 ////=
07070,1997-02-02 18:00:00,-1,1028.5,0.6,100,-1,1700,7.408,,,150,-1.6,-0.6,,,,,,,,10,wg-a,,,,AAXX 02184 07070 12217 81504 11010 21010 30169 40285 52006 60006 71052 886// 91800 333 11006 21016=
07070,1997-02-02 21:00:00,0,1029.2,0.7,93,-1,1200,3.704,,,220,,,,,,,,,,10,wg-a,,,,AAXX 02214 07070 12012 82202 10000 21010 30176 40292 51007 60006 71022 886// 92100=
07070,1997-02-03 00:00:00,0,1028.7,-0.5,100,0,400,3.704,,,210,,,,,,,,,,49,wg-a,,,,AAXX 03004 07070 12/04 92102 10000 20000 30171 40287 58005 60006 74942 89/// 90000=
07070,1997-02-03 03:00:00,0,1028.8,0.1,100,0,800,7.408,,,160,,,,,,,,,,49,wg-a,,,,AAXX 03034 07070 02/08 91604 10000 20000 30172 40288 53001 61000 74954 89/// 90300 333 ////=
07070,1997-02-03 06:00:00,0,1029.2,0.4,100,0,800,3.704,,,180,-0.6,0,,,,,,,,56,wg-a,,,,AAXX 03064 07070 02008 81802 10000 20000 30176 40292 53004 61000 75654 887// 90600 333 10000 21006 6100=
07070,1997-02-03 09:00:00,0,1030.1,0.9,100,0,500,3.704,,,230,,,,,,,,,,51,wg-a,,,,AAXX 03094 07070 02005 82302 10000 20000 30185 40301 53009 61000 75155 887// 90900 333 ////=
07070,1997-02-03 12:00:00,1,1030.3,0.2,100,1,400,0,,,0,,,,0,,,,,,42,wg-a,,,,AAXX 03124 07070 02004 80000 10010 20010 30187 40303 50002 60006 74244 886// 91200 333 60007=
07070,1997-02-03 15:00:00,2,1029.6,-0.6,100,2,1200,3.704,,,80,,,,,,,,,,10,wg-a,,,,AAXX 03154 07070 12212 80802 10020 20020 30181 40296 56006 60006 71042 886// 91500=
07070,1997-02-03 18:00:00,1,1029.7,-0,100,1,300,7.408,,,170,-0.1,1.7,,,,,,,,44,wg-a,,,,AAXX 03184 07070 12/03 91704 10010 20010 30181 40297 55000 60006 74444 89/// 91800 333 10017 21001=
07070,1997-02-03 21:00:00,1,1029.1,-0.6,100,1,1800,7.408,,,170,,,,,,,,,,10,wg-a,,,,AAXX 03214 07070 12518 /1704 10010 20010 30175 40291 57006 60006 71042 875// 92100=
07070,1997-02-04 00:00:00,2,1025.2,-1.5,100,2,500,11.112,,,210,0.4,2.2,,,,,,,,,wg-a,,,,AAXX 04004 07070 02300 82106 10020 20020 30137 40252 57015 60006 886// 90000 333 10022 20004 60004=
07070,1997-02-04 03:00:00,1,1026.7,-1.9,100,1,4500,7.408,,,200,,,,,,,,,,10,wg-a,,,,AAXX 04034 07070 12545 82004 10010 20010 30152 40267 57019 60006 71022 885// 90300=
07070,1997-02-04 06:00:00,2,1025.2,-1.5,100,2,500,11.112,,,210,0.4,2.2,,,,,,,,,wg-a,,,,AAXX 04064 07070 02300 82106 10020 20020 30137 40252 57015 60006 886// 90600 333 10022 20004 60004=
07070,1997-02-04 09:00:00,4,1024.8,-0.3,87,2,7000,18.52,,,220,,,,,,,,,,,wg-a,,,,AAXX 04094 07070 12457 /2210 10040 20020 30134 40248 58003 60006 875// 90900=
07070,1997-02-04 12:00:00,5,1023.1,-1.6,87,3,8000,25.928,,,220,,,,,,,,,,,wg-a,,,,AAXX 04124 07070 12458 72214 10050 20030 30118 40231 58016 60006 878// 91200=
07070,1997-02-04 15:00:00,6,1020.8,-2.3,87,4,6000,18.52,,,220,,,,,,,,,,,wg-a,,,,AAXX 04154 07070 12456 72210 10060 20040 30095 40208 56023 60006 8683/ 91500=
07070,1997-02-04 18:00:00,6,1019.2,-1.5,81,3,8000,18.52,,,210,2.3,6.1,,,,,,,,,wg-a,,,,AAXX 04184 07070 12758 72110 10060 20030 30080 40192 56015 60006 8553/ 91800 333 10061 20023=
07070,1997-02-04 21:00:00,6,1018.2,-1,87,4,7000,29.632,,,220,,,,0,,,,,,61,wg-a,,,,AAXX 04214 07070 12657 72216 10060 20040 30070 40182 57010 60007 76162 8357/ 92100=
07070,1997-02-05 00:00:00,5,1016.6,-1.6,93,4,8000,29.632,,,220,,,,3,,,,,,61,wg-a,,,,AAXX 05004 07070 02458 82216 10050 20040 30054 40166 56016 60036 76162 8357/ 90000 333 60037=
07070,1997-02-05 03:00:00,6,1013.8,-2.8,93,5,7000,25.928,,,220,,,,2,,,,,,53,wg-a,,,,AAXX 05034 07070 12457 72214 10060 20050 30026 40138 58028 60027 75362 875// 90300=
07070,1997-02-05 06:00:00,6,1012,-1.7,100,6,500,29.632,,,240,5.2,6.9,,,,,,,,61,wg-a,,,,AAXX 05064 07070 02300 72416 10060 20060 30009 40120 56017 61000 76165 876// 90600 333 10069 20052 6005=
07070,1997-02-05 09:00:00,8,1013.8,1.8,93,7,7000,29.632,,,270,,,,2,,,,,,50,wg-a,,,,AAXX 05094 07070 12357 82716 10080 20070 30027 40138 53018 60027 75065 877// 90900=
07070,1997-02-05 12:00:00,9,1017.9,4.1,87,7,12000,22.224,,,320,,,,0,,,,,,1,wg-a,,,,AAXX 05124 07070 02462 /3212 10090 20070 30068 40179 51041 60026 70165 86800 91200 333 60007=
07070,1997-02-05 18:00:00,4,1027.1,4.6,87,2,10000,18.52,,,310,4.4,8.6,,,,,,,,1,wg-a,,,,AAXX 05184 07070 02560 33110 10040 20020 30157 40271 53046 60006 70181 83500 91800 333 10086 20044 61000=
07070,1997-02-05 21:00:00,2,1030.6,3.4,87,0,10000,3.704,,,280,,,,,,,,,,,wg-a,,,,AAXX 05214 07070 12/60 02802 10020 20000 30191 40306 51034 60006 80000 92100=
07070,1997-02-06 00:00:00,0,1032.2,1.4,93,-1,8000,3.704,,,220,,,,,,,,,,,wg-a,,,,AAXX 06004 07070 12/58 02202 10000 21010 30205 40322 53014 60006 80000 90000=
07070,1997-02-06 03:00:00,-1,1032.9,0.7,93,-2,9000,14.816,,,180,,,,,,,,,,,wg-a,,,,AAXX 06034 07070 12/59 01808 11010 21020 30212 40329 51007 60006 80000 90300=
07070,1997-02-06 06:00:00,1,1033,0.2,93,0,10000,14.816,,,180,-1.4,4.4,,,,,3,,,,wg-a,,,,AAXX 06064 07070 02/60 71808 10010 20000 30214 40330 51002 60006 8705/ 90600 333 10044 21014 60034=
07070,1997-02-06 09:00:00,0,1034.1,1.1,100,0,3500,18.52,,,170,,,,0,,,,,,10,wg-a,,,,AAXX 06094 07070 12735 71710 10000 20000 30225 40341 51011 60007 71022 8253/ 90900=
07070,1997-02-06 12:00:00,4,1033.8,-0.2,93,3,6000,18.52,,,170,,,,,,,,,,,wg-a,,,,AAXX 06124 07070 12356 31710 10040 20030 30223 40338 58002 60006 81630 91200=
07070,1997-02-06 15:00:00,7,1032,-1.6,70,2,10000,22.224,,,170,,,,,,,,,,,wg-a,,,,AAXX 06154 07070 12/60 01712 10070 20020 30207 40320 56016 60006 80000 91500=
07070,1997-02-06 18:00:00,3,1031.6,-0.6,87,1,7000,14.816,,,170,0.2,7.3,,,,,,,,,wg-a,,,,AAXX 06184 07070 12/57 /1708 10030 20010 30201 40316 56006 60006 81031 91800 333 10073 20002=
07070,1997-02-06 21:00:00,1,1030.7,-1,93,0,15000,11.112,,,180,,,,,,,,,,,wg-a,,,,AAXX 06214 07070 12/65 11806 10010 20000 30191 40307 56010 60006 80001 92100=
07070,1997-02-07 00:00:00,1,1030.5,-0.2,86,-1,25000,14.816,,,200,,,,,,,,,,,wg-a,,,,AAXX 07004 07070 12/75 02008 10010 21010 30189 40305 55002 60006 80000 90000=
07070,1997-02-07 03:00:00,-1,1030,-0.5,93,-2,25000,11.112,,,190,,,,,,,,,,,wg-a,,,,AAXX 07034 07070 12/75 21906 11010 21020 30184 40300 58005 60006 80001 90300=
07070,1997-02-07 06:00:00,0,1029.6,-0.4,86,-2,25000,11.112,,,190,-1.2,2.6,,,,,,,,,wg-a,,,,AAXX 07064 07070 02/75 21906 10000 21020 30180 40296 56004 60006 81031 90600 333 10026 21012 60004=
07070,1997-02-07 09:00:00,2,1030.3,0.8,80,-1,9000,14.816,,,170,,,,,,,,,,,wg-a,,,,AAXX 07094 07070 12759 51708 10020 21010 30188 40303 50008 60006 81531 90900=
07070,1997-02-07 12:00:00,8,1030.4,0.3,71,3,10000,11.112,,,150,,,,,,,,,,,wg-a,,,,AAXX 07124 07070 12/60 41506 10080 20030 30191 40304 50003 60006 82032 91200=
07070,1997-02-07 15:00:00,11,1029.7,-0.5,54,2,12000,14.816,,,240,,,,,,,,,,,wg-a,,,,AAXX 07154 07070 12/62 22408 10110 20020 30186 40297 56005 60006 80002 91500=
07070,1997-02-07 18:00:00,3,1031.5,1.4,87,1,7000,11.112,,,170,-1.2,11.5,,,,,,,,,wg-a,,,,AAXX 07184 07070 12/57 21706 10030 20010 30200 40315 53014 60006 81032 91800 333 10115 21012=
07070,1997-02-07 21:00:00,2,1032.2,0.7,93,1,10000,3.704,,,210,,,,,,,,,,,wg-a,,,,AAXX 07214 07070 12/60 02102 10020 20010 30207 40322 53007 60006 80000 92100=
07070,1997-02-08 00:00:00,3,1032.6,0.4,87,1,10000,7.408,,,180,,,,,,,,,,,wg-a,,,,AAXX 08004 07070 12660 /1804 10030 20010 30211 40326 51004 60006 85500 90000=
07070,1997-02-08 03:00:00,3,1033,0.4,93,2,10000,7.408,,,190,,,,,,,,,,,wg-a,,,,AAXX 08034 07070 12660 /1904 10030 20020 30215 40330 50004 60006 85500 90300=
07070,1997-02-08 06:00:00,4,1033.1,0.1,87,2,8000,3.704,,,200,1.4,3.8,,,,,,,,,wg-a,,,,AAXX 08064 07070 12658 72002 10040 20020 30216 40331 52001 60006 8357/ 90600 333 10038 20014=
07070,1997-02-08 09:00:00,4,1033.8,0.7,93,3,3000,7.408,,,180,,,,,,,,,,10,wg-a,,,,AAXX 08094 07070 12530 71804 10040 20030 30223 40338 52007 60006 71022 8657/ 90900=
07070,1997-02-08 12:00:00,8,1033.1,-0.5,81,5,3500,0,,,0,,,,,,,,,,10,wg-a,,,,AAXX 08124 07070 12635 70000 10080 20050 30218 40331 58005 60006 71022 8153/ 91200=
07070,1997-02-08 15:00:00,12,1031.4,-1.5,71,7,4500,3.704,,,100,,,,,,,,,,10,wg-a,,,,AAXX 08154 07070 12/45 71002 10120 20070 30203 40314 58015 60006 71022 8703/ 91500=
07070,1997-02-08 18:00:00,6,1031.2,-0.5,93,5,3000,3.704,,,130,2.2,11.9,,,,,,,,11,wg-a,,,,AAXX 08184 07070 12/30 41302 10060 20050 30198 40312 56005 60006 71122 82031 91800 333 10119 20022=
07070,1997-02-08 21:00:00,4,1031.1,-0.1,100,4,4000,3.704,,,220,,,,,,,,,,10,wg-a,,,,AAXX 08214 07070 12/40 /2202 10040 20040 30197 40311 55001 60006 71000 80001 92100=
07070,1997-02-09 00:00:00,1,1031.4,0.1,100,1,4000,7.408,,,180,,,,,,,,,,10,wg-a,,,,AAXX 09004 07070 12/40 01804 10010 20010 30198 40314 50001 60006 71000 80000 90000=
07070,1997-02-09 03:00:00,1,1030.3,-1.1,100,1,3000,7.408,,,200,,,,,,,,,,10,wg-a,,,,AAXX 09034 07070 12/30 02004 10010 20010 30187 40303 58011 60006 71000 80000 90300=
07070,1997-02-09 06:00:00,1,1029.7,-0.6,100,1,3500,7.408,,,210,0.3,6.2,,,,,,,,10,wg-a,,,,AAXX 09064 07070 12/35 02104 10010 20010 30181 40297 56006 60006 71000 80000 90600 333 10062 20003=
07070,1997-02-09 09:00:00,3,1030.4,0.8,93,2,3000,11.112,,,190,,,,0,,,,,,10,wg-a,,,,AAXX 09094 07070 12/30 /1906 10030 20020 30189 40304 53008 60007 71000 81030 90900=
07070,1997-02-09 12:00:00,11,1029.5,-0.5,71,6,6000,11.112,,,240,,,,,,,,,,,wg-a,,,,AAXX 09124 07070 12/56 02406 10110 20060 30184 40295 58005 60006 80000 91200=
07070,1997-02-09 15:00:00,12,1027.9,-1.6,62,5,10000,11.112,,,220,,,,,,,,,,,wg-a,,,,AAXX 09154 07070 12/60 02206 10120 20050 30168 40279 56016 60006 80000 91500=
07070,1997-02-09 18:00:00,6,1028.3,0.1,87,4,7000,14.816,,,200,0.6,12.4,,,,,,,,,wg-a,,,,AAXX 09184 07070 12/57 02008 10060 20040 30169 40283 51001 60006 80000 91800 333 10124 20006=
07070,1997-02-09 21:00:00,4,1027.6,-0.7,93,3,8000,18.52,,,170,,,,,,,,,,,wg-a,,,,AAXX 09214 07070 12/58 01710 10040 20030 30162 40276 58007 60006 80000 92100=
07070,1997-02-10 00:00:00,2,1026.4,-1.3,93,1,10000,11.112,,,190,,,,,,,,,,,wg-a,,,,AAXX 10004 07070 12/60 31906 10020 20010 30149 40264 58013 60006 80001 90000=
07070,1997-02-10 03:00:00,4,1024.6,-1.7,87,2,10000,14.816,,,200,,,,,,,,,,,wg-a,,,,AAXX 10034 07070 12/60 42008 10040 20020 30132 40246 56017 60006 80002 90300=
07070,1997-02-10 06:00:00,6,1023.7,-0.8,87,4,7000,18.52,,,230,1.7,6.1,,,,,,,,,wg-a,,,,AAXX 10064 07070 02457 /2310 10060 20040 30124 40237 58008 60006 85631 90600 333 10061 20017 60004=
07070,1997-02-10 09:00:00,7,1022,-1.6,87,5,500,18.52,,,210,,,,,,,,,,,wg-a,,,,AAXX 10094 07070 12400 72110 10070 20050 30108 40220 58016 60006 86501 90900=
07070,1997-02-10 12:00:00,10,1019.1,-2.8,82,7,8000,22.224,,,190,,,,,,,,,,,wg-a,,,,AAXX 10124 07070 12/58 71912 10100 20070 30080 40191 58028 60006 85032 91200=
07070,1997-02-10 15:00:00,13,1016.2,-2.7,62,6,12000,29.632,,,220,,,,,,,,,,,wg-a,,,,AAXX 10154 07070 12762 72216 10130 20060 30053 40162 56027 60006 8357/ 91500=
07070,1997-02-10 18:00:00,11,1016.3,-0,82,8,7000,35.188,,53.708,230,5.7,13.5,,,,,,,,61,wg-a,,,,AAXX 10184 07070 02557 82319 10110 20080 30053 40163 55000 61000 76162 8452/ 91800 333 10135 20057 6000 91029=
07070,1997-02-10 21:00:00,8,1019.5,3,81,5,3000,25.928,,,300,,,,2,,,,,,61,wg-a,,,,AAXX 10214 07070 12430 73014 10080 20050 30083 40195 53030 60027 76166 875// 92100=
07070,1997-02-11 00:00:00,5,1022.8,3.2,81,2,8000,14.816,,,270,,,,,,,,,,1,wg-a,,,,AAXX 11004 07070 02/58 42708 10050 20020 30115 40228 53032 60026 70162 84020 90000 333 61000=
07070,1997-02-11 03:00:00,4,1023.9,1,81,1,8000,18.52,,,230,,,,,,,,,,,wg-a,,,,AAXX 11034 07070 12/58 02310 10040 20010 30125 40239 51010 60006 80000 90300=
07070,1997-02-11 06:00:00,3,1024.3,0.4,81,0,10000,14.816,,,240,2.5,10.7,,,,,2,,,,wg-a,,,,AAXX 11064 07070 02/60 02408 10030 20000 30129 40243 52004 60006 80000 90600 333 10107 20025 60024=
07070,1997-02-11 09:00:00,3,1025.5,1.2,93,2,10000,3.704,,,200,,,,,,,,,,,wg-a,,,,AAXX 11094 07070 12/60 82002 10030 20020 30141 40255 51012 60006 80008 90900=
07070,1997-02-11 12:00:00,8,1024.4,-0.9,66,2,10000,22.224,,,230,,,,,,,,,,,wg-a,,,,AAXX 11124 07070 12/60 82312 10080 20020 30132 40244 58009 60006 81037 91200=
07070,1997-02-11 15:00:00,9,1021.8,-2.6,66,3,12000,22.224,,,230,,,,,,,,,,,wg-a,,,,AAXX 11154 07070 12562 82312 10090 20030 30106 40218 56026 60006 86257 91500=
07070,1997-02-11 18:00:00,7,1020.1,-1.7,87,5,10000,22.224,,,220,1.9,9.1,,,,,,,,61,wg-a,,,,AAXX 11184 07070 02660 82212 10070 20050 30089 40201 58017 61000 76162 8152/ 91800 333 10091 20019 6000=
07070,1997-02-11 21:00:00,7,1016.1,-4,93,6,6000,18.52,,,200,,,,1,,,,,,51,wg-a,,,,AAXX 11214 07070 12456 82010 10070 20060 30049 40161 58040 60017 75165 875// 92100=
07070,1997-02-12 00:00:00,10,1014,-1.9,93,9,6000,31.484,,,240,,,,1,,,,,,60,wg-a,,,,AAXX 12004 07070 02356 82417 10100 20090 30030 40140 56019 60026 76065 877// 90000 333 60017=
07070,1997-02-12 03:00:00,11,1014,0.1,94,10,6000,35.188,,,250,,,,,,,,,,,wg-a,,,,AAXX 12034 07070 12/56 /2519 10110 20100 30031 40140 53001 60006 90300=
07070,1997-02-12 06:00:00,11,1014.9,0.8,87,9,12000,31.484,,50.004,240,6.8,11.8,,,,,2,,,3,wg-a,,,,AAXX 12064 07070 02462 82417 10110 20090 30039 40149 51008 60006 70362 875// 90600 333 10118 20068 60024 91027=
07070,1997-02-12 09:00:00,12,1015.5,0.6,82,9,10000,35.188,,,250,,,,,,,,,,,wg-a,,,,AAXX 12094 07070 12460 82519 10120 20090 30045 40155 53006 60006 875// 90900=
07070,1997-02-12 12:00:00,13,1014.6,-0.8,77,9,12000,38.892,,57.412,250,,,,,,,,,,,wg-a,,,,AAXX 12124 07070 12562 82521 10130 20090 30037 40146 58008 60006 8357/ 91200 333 91031=
07070,1997-02-12 15:00:00,12,1012.5,-2.1,82,9,15000,29.632,,,230,,,,,,,,,,,wg-a,,,,AAXX 12154 07070 12565 82316 10120 20090 30016 40125 56021 60006 875// 91500=
07070,1997-02-12 18:00:00,11,1010.1,-2.4,87,9,15000,25.928,,50.004,210,10.5,12.9,,,,,,,,,wg-a,,,,AAXX 12184 07070 12465 72114 10110 20090 39992 40101 56024 60006 838// 91800 333 10129 20105 91027=
07070,1997-02-12 21:00:00,11,1007.1,-3,82,8,10000,35.188,,53.708,220,,,,0,,,,,,61,wg-a,,,,AAXX 12214 07070 12460 82219 10110 20080 39962 40071 58030 60007 76162 888// 92100 333 91029=
07070,1997-02-13 00:00:00,10,1003.9,-3.2,93,9,10000,35.188,,,240,,,,1,,,,,,61,wg-a,,,,AAXX 13004 07070 02460 72419 10100 20090 39930 40039 56032 60016 76162 8527/ 90000 333 60017=
07070,1997-02-13 03:00:00,10,1004.1,0.2,82,7,20000,31.484,,,270,,,,6,,,,,,1,wg-a,,,,AAXX 13034 07070 12470 72717 10100 20070 39932 40041 53002 60067 70162 86272 90300=
07070,1997-02-13 06:00:00,8,999.9,-4.2,87,6,7000,42.596,,64.82,230,8.1,11.1,,,,,,,,80,wg-a,,,,AAXX 13064 07070 02557 82323 10080 20060 39890 49999 58042 61000 78082 872// 90600 333 10111 20081 6008 91035=
07070,1997-02-13 09:00:00,7,1001.6,1.6,70,2,20000,50.004,,72.228,270,,,,2,,,,,,1,wg-a,,,,AAXX 13094 07070 12570 32727 10070 20020 39906 40016 53016 60027 70198 83800 90900 333 91039=
07070,1997-02-13 12:00:00,8,1002.4,0.8,61,1,500,61.116,,83.34,260,,,,,,,,,,80,wg-a,,,,AAXX 13124 07070 02600 72633 10080 20010 39914 40024 53008 60026 78098 878// 91200 333 61000 91045=
07070,1997-02-13 18:00:00,7,1010,3.4,57,-1,25000,35.188,,,270,5.9,8.7,,,,,,,,1,wg-a,,,,AAXX 13184 07070 12775 62719 10070 21010 39989 40100 51034 60006 70182 864/0 91800 333 10087 20059=
07070,1997-02-13 21:00:00,6,1011.5,1.4,65,0,25000,25.928,,,260,,,,,,,,,,,wg-a,,,,AAXX 13214 07070 12675 32614 10060 20000 30003 40115 51014 60006 83500 92100=
07070,1997-02-14 00:00:00,4,1011.2,-0.3,81,1,20000,14.816,,,240,,,,,,,,,,,wg-a,,,,AAXX 14004 07070 12670 72408 10040 20010 30000 40112 58003 60006 83572 90000=
07070,1997-02-14 03:00:00,4,1008.7,-2.5,87,2,20000,14.816,,,220,,,,,,,,,,,wg-a,,,,AAXX 14034 07070 12770 72208 10040 20020 39975 40087 57025 60006 81531 90300=
07070,1997-02-14 06:00:00,4,1006.3,-2.4,93,3,15000,14.816,,,220,3.3,7,,,,,,,,61,wg-a,,,,AAXX 14064 07070 02465 82208 10040 20030 39951 40063 56024 61000 76162 875// 90600 333 10070 20033 6002=
07070,1997-02-14 09:00:00,5,1004.4,-1.8,87,3,20000,18.52,,,190,,,,0,,,,,,3,wg-a,,,,AAXX 14094 07070 12370 71910 10050 20030 39933 40044 56018 60007 70362 8673/ 90900=
07070,1997-02-14 12:00:00,5,1002.2,-2.2,93,4,6000,14.816,,,170,,,,1,,,,,,61,wg-a,,,,AAXX 14124 07070 02356 81708 10050 20040 39911 40022 56022 60016 76162 877// 91200 333 60017=
07070,1997-02-14 15:00:00,6,1000.4,-1.7,93,5,4000,11.112,,,160,,,,1,,,,,,10,wg-a,,,,AAXX 14154 07070 12240 81606 10060 20050 39894 40004 56017 60017 71065 877// 91500=
07070,1997-02-14 18:00:00,6,999.5,-0.9,93,5,4000,7.408,,,60,4.1,5.7,,,,,,,,10,wg-a,,,,AAXX 14184 07070 02140 80604 10060 20050 39885 49995 57009 61000 71065 877// 91800 333 10057 20041 6002=
07070,1997-02-14 21:00:00,5,1000.2,0.6,100,5,500,11.112,,,40,,,,5,,,,,,21,wg-a,,,,AAXX 14214 07070 12200 80406 10050 20050 39891 40002 53006 60057 72165 887// 92100=
07070,1997-02-15 00:00:00,3,1003.5,3.2,100,3,6000,18.52,,,40,,,,0,,,,,,20,wg-a,,,,AAXX 15004 07070 02456 80410 10030 20030 39923 40035 51032 60056 72065 885// 90000 333 60007=
07070,1997-02-15 03:00:00,4,1007.2,3.7,93,3,8000,22.224,,,10,,,,,,,,,,,wg-a,,,,AAXX 15034 07070 12658 70112 10040 20030 39960 40072 53037 60006 875// 90300=
07070,1997-02-15 06:00:00,1,1013.1,5.7,93,0,500,18.52,,,340,1.1,5.5,,,,,9,,,,wg-a,,,,AAXX 15064 07070 02400 /3410 10010 20000 30017 40131 53057 60006 86500 90600 333 10055 20011 60094=
07070,1997-02-15 09:00:00,3,1017.8,4.7,93,2,3700,18.52,,,340,,,,,,,,,,10,wg-a,,,,AAXX 15094 07070 12337 73410 10030 20020 30064 40178 51047 60006 71022 876// 90900=
07070,1997-02-15 12:00:00,6,1021,3.3,81,3,12000,18.52,,,340,,,,,,,,,,,wg-a,,,,AAXX 15124 07070 12462 73410 10060 20030 30097 40210 51033 60006 872// 91200=
07070,1997-02-15 15:00:00,8,1022.7,1.8,57,0,20000,18.52,,,320,,,,,,,,,,,wg-a,,,,AAXX 15154 07070 12670 /3210 10080 20000 30115 40227 53018 60006 85200 91500=
07070,1997-02-15 21:00:00,1,1026.6,1.5,86,-1,12000,3.704,,,300,,,,,,,,,,,wg-a,,,,AAXX 15214 07070 12/62 03002 10010 21010 30151 40266 51015 60006 80000 92100=
07070,1997-02-16 00:00:00,0,1026.7,0,93,-1,8000,3.704,,,220,,,,,,,,,,,wg-a,,,,AAXX 16004 07070 12658 /2202 10000 21010 30151 40267 50000 60006 81500 90000=
07070,1997-02-16 03:00:00,-2,1026.4,-0.4,100,-2,12000,0,,,0,,,,,,,,,,,wg-a,,,,AAXX 16034 07070 12/62 50000 11020 21020 30147 40264 58004 60006 80002 90300=
07070,1997-02-16 06:00:00,-3,1025.6,-0.8,100,-3,500,0,,,0,-2.9,3.9,,,,,,,,11,wg-a,,,,AAXX 16064 07070 12/00 /0000 11030 21030 30139 40256 56008 60006 71111 81032 90600 333 10039 21029=
07070,1997-02-16 09:00:00,2,1025.2,-0.2,93,1,8000,7.408,,,180,,,,,,,,,,,wg-a,,,,AAXX 16094 07070 12/58 71804 10020 20010 30137 40252 56002 60006 80002 90900=
07070,1997-02-16 12:00:00,6,1023.8,-1.2,75,2,12000,22.224,,,170,,,,,,,,,,,wg-a,,,,AAXX 16124 07070 12/62 71712 10060 20020 30125 40238 58012 60006 80002 91200=
07070,1997-02-16 15:00:00,8,1021.7,-2,57,0,15000,22.224,,,170,,,,,,,,,,,wg-a,,,,AAXX 16154 07070 12/65 71712 10080 20000 30105 40217 56020 60006 84032 91500=
07070,1997-02-16 18:00:00,5,1019.9,-1.9,75,1,20000,22.224,,,150,-3.3,8,,,,,,,,,wg-a,,,,AAXX 16184 07070 12/70 61512 10050 20010 30086 40199 56019 60006 83082 91800 333 10080 21033=
07070,1997-02-16 21:00:00,3,1020,0.1,75,-1,20000,11.112,,,200,,,,,,,,,,,wg-a,,,,AAXX 16214 07070 12/70 72006 10030 21010 30086 40200 52001 60006 85031 92100=
07070,1997-02-17 00:00:00,5,1019.6,-0.3,75,1,12000,11.112,,,260,,,,,,,,,,60,wg-a,,,,AAXX 17004 07070 02662 82606 10050 20010 30083 40196 55003 61000 76062 8557/ 90000 333 6100=
07070,1997-02-17 03:00:00,5,1019.6,-0,93,4,8000,11.112,,,240,,,,,,,,,,3,wg-a,,,,AAXX 17034 07070 12358 82406 10050 20040 30083 40196 55000 60006 70362 876// 90300=
07070,1997-02-17 06:00:00,6,1020,0.4,93,5,7000,14.816,,,220,1.6,5.5,,,,,,,,3,wg-a,,,,AAXX 17064 07070 02257 82208 10060 20050 30087 40200 53004 60006 70362 886// 90600 333 10055 20016 61000=
07070,1997-02-17 09:00:00,7,1021.3,1.4,93,6,6000,22.224,,,230,,,,,,,,,,,wg-a,,,,AAXX 17094 07070 12456 82312 10070 20060 30101 40213 53014 60006 886// 90900=
07070,1997-02-17 12:00:00,10,1021.1,-0.1,76,6,10000,25.928,,,230,,,,,,,,,,,wg-a,,,,AAXX 17124 07070 12560 72314 10100 20060 30100 40211 57001 60006 85832 91200=
07070,1997-02-17 15:00:00,11,1020.7,-0.4,66,5,15000,22.224,,,220,,,,,,,,,,1,wg-a,,,,AAXX 17154 07070 12565 82212 10110 20050 30096 40207 55004 60006 70182 82277 91500=
07070,1997-02-17 18:00:00,9,1020.3,-0.4,81,6,15000,18.52,,,200,5.5,10.9,,,,,,,,3,wg-a,,,,AAXX 17184 07070 12665 72010 10090 20060 30092 40203 56004 60006 70382 85532 91800 333 10109 20055=
07070,1997-02-17 21:00:00,9,1020.1,-0.2,81,6,12000,22.224,,,200,,,,,,,,,,21,wg-a,,,,AAXX 17214 07070 02/62 72012 10090 20060 30090 40201 58002 61000 72162 8702/ 92100 333 ////=
07070,1997-02-18 00:00:00,9,1017.8,-2.3,87,7,10000,25.928,,,210,,,,,,,,,,61,wg-a,,,,AAXX 18004 07070 02460 82114 10090 20070 30067 40178 56023 61000 76162 8152/ 90000 333 6100=
07070,1997-02-18 03:00:00,9,1015.5,-2.3,93,8,11000,25.928,,,210,,,,,,,,,,61,wg-a,,,,AAXX 18034 07070 32/61 /2114 10090 20080 30044 40155 58023 761// 90300=
07070,1997-02-18 06:00:00,10,1012.8,-2.6,87,8,6000,35.188,,57.412,220,8.6,9.6,,,,,,,,51,wg-a,,,,AAXX 18064 07070 02456 82219 10100 20080 30018 40128 56026 61000 75165 887// 90600 333 10096 20086 6001 91031=
07070,1997-02-18 09:00:00,11,1012.2,-0.6,87,9,15000,31.484,,,230,,,,0,,,,,,21,wg-a,,,,AAXX 18094 07070 12465 72317 10110 20090 30012 40122 56006 60007 72165 87/// 90900=
07070,1997-02-18 12:00:00,12,1011.3,-0.8,71,7,7000,38.892,,68.524,240,,,,2,,,,,,80,wg-a,,,,AAXX 18124 07070 02557 82421 10120 20070 30004 40113 57008 60036 78086 872// 91200 333 60027 91037=
07070,1997-02-18 15:00:00,9,1013.8,2.3,66,3,500,42.596,,61.116,270,,,,2,,,,,,29,wg-a,,,,AAXX 18154 07070 12500 42723 10090 20030 30027 40138 51023 60027 72998 84900 91500 333 91033=
07070,1997-02-18 18:00:00,5,1017.5,3.6,81,2,25000,38.892,,,270,5.4,12.3,,,,,,,,25,wg-a,,,,AAXX 18184 07070 02675 52721 10050 20020 30063 40175 53036 61000 72598 85900 91800 333 10123 20054 6001=
07070,1997-02-18 21:00:00,5,1021.7,4.1,75,1,25000,31.484,,,270,,,,,,,,,,1,wg-a,,,,AAXX 18214 07070 02675 /2717 10050 20010 30104 40217 53041 61000 70181 81400 92100 333 ////=
07070,1997-02-19 00:00:00,4,1026.2,4.4,81,1,25000,25.928,,,260,,,,,,,,,,2,wg-a,,,,AAXX 19004 07070 02/75 02614 10040 20010 30148 40262 51044 61000 70281 80000 90000 333 ////=
07070,1997-02-19 03:00:00,2,1029,2.7,87,0,25000,18.52,,,240,,,,,,,,,,,wg-a,,,,AAXX 19034 07070 12/75 22410 10020 20000 30175 40290 51027 60006 80001 90300=
07070,1997-02-19 06:00:00,3,1030.8,1.8,87,1,15000,14.816,,,230,2.1,5.7,,,,,6,,,,wg-a,,,,AAXX 19064 07070 02/65 72308 10030 20010 30193 40308 53018 60006 85032 90600 333 10057 20021 60064=
07070,1997-02-19 09:00:00,5,1030.2,-0.5,87,3,12000,14.816,,,220,,,,,,,,,,,wg-a,,,,AAXX 19094 07070 12/62 72208 10050 20030 30188 40302 58005 60006 80001 90900=
07070,1997-02-19 12:00:00,7,1028.9,-1.2,81,4,12000,22.224,,,190,,,,,,,,,,,wg-a,,,,AAXX 19124 07070 12762 71912 10070 20040 30176 40289 58012 60006 8157/ 91200=
07070,1997-02-19 18:00:00,7,1019.5,-4.3,76,3,15000,29.632,,50.004,200,2.1,8,,,,,,,,,wg-a,,,,AAXX 19184 07070 12/65 82016 10070 20030 30083 40195 56043 60006 8807/ 91800 333 10080 20021 91027=
07070,1997-02-19 21:00:00,10,1015.4,-3.9,66,4,20000,42.596,,64.82,220,,,,,,,,,,,wg-a,,,,AAXX 19214 07070 12570 72223 10100 20040 30044 40154 56039 60006 8457/ 92100 333 91035=
07070,1997-02-20 00:00:00,10,1017.6,2.1,82,7,15000,38.892,,64.82,270,,,,1,,,,,,21,wg-a,,,,AAXX 20004 07070 02565 32721 10100 20070 30065 40176 53021 60016 72161 83530 90000 333 60017 91035=
07070,1997-02-20 03:00:00,8,1022.2,4.5,71,3,10000,22.224,,,260,,,,,,,,,,,wg-a,,,,AAXX 20034 07070 12/60 /2612 10080 20030 30110 40222 51045 60006 90300=
07070,1997-02-20 06:00:00,7,1025.1,2.8,81,4,12000,18.52,,,250,6.4,10.5,,,,,1,,,,wg-a,,,,AAXX 20064 07070 02562 /2510 10070 20040 30138 40251 53028 60006 81500 90600 333 10105 20064 60014=
07070,1997-02-20 12:00:00,10,1027.7,0.2,66,4,16000,29.632,,,270,,,,,,,,,,,wg-a,,,,AAXX 20124 07070 12566 /2716 10100 20040 30165 40277 51002 60006 85201 91200=
07070,1997-02-20 15:00:00,11,1026.6,-1,62,4,18000,25.928,,,250,,,,,,,,,,,wg-a,,,,AAXX 20154 07070 12668 22514 10110 20040 30155 40266 56010 60006 82200 91500=
07070,1997-02-20 18:00:00,10,1026.3,-0.4,66,4,10000,22.224,,,240,5.9,12.1,,,,,,,,,wg-a,,,,AAXX 20184 07070 12/60 /2412 10100 20040 30151 40263 55004 60006 91800 333 10121 20059=
07070,1997-02-20 21:00:00,9,1025.5,-0.8,71,4,15000,22.224,,,220,,,,,,,,,,,wg-a,,,,AAXX 20214 07070 12765 72212 10090 20040 30143 40255 58008 60006 875// 92100=
07070,1997-02-21 00:00:00,9,1025.5,-0,76,5,10000,22.224,,,240,,,,,,,,,,,wg-a,,,,AAXX 21004 07070 12760 72412 10090 20050 30143 40255 55000 60006 875// 90000=
07070,1997-02-21 03:00:00,8,1025,-0.5,76,4,10000,25.928,,,240,,,,,,,,,,,wg-a,,,,AAXX 21034 07070 12760 72414 10080 20040 30138 40250 58005 60006 875// 90300=
07070,1997-02-21 06:00:00,8,1025.8,0.8,81,5,12000,22.224,,,240,8.3,9.6,,,,,,,,,wg-a,,,,AAXX 21064 07070 12662 82412 10080 20050 30146 40258 51008 60006 885// 90600 333 10096 20083=
07070,1997-02-21 12:00:00,11,1027.9,0.1,76,7,15000,31.484,,53.708,240,,,,,,,,,,,wg-a,,,,AAXX 21124 07070 12665 72417 10110 20070 30168 40279 50001 60006 85501 91200 333 91029=
07070,1997-02-21 15:00:00,12,1028.3,0.4,71,7,25000,31.484,,,240,,,,,,,,,,,wg-a,,,,AAXX 21154 07070 12575 82417 10120 20070 30172 40283 53004 60006 875// 91500=
07070,1997-02-21 18:00:00,11,1029.3,1,76,7,25000,29.632,,,250,8.2,12,,,,,,,,,wg-a,,,,AAXX 21184 07070 12575 72516 10110 20070 30182 40293 53010 60006 875// 91800 333 10120 20082=
07070,1997-02-21 21:00:00,11,1030.7,1.3,76,7,20000,22.224,,,250,,,,,,,,,,,wg-a,,,,AAXX 21214 07070 12570 72512 10110 20070 30195 40307 51013 60006 875// 92100=
07070,1997-02-22 00:00:00,9,1031.3,0.6,87,7,15000,14.816,,,230,,,,,,,,,,,wg-a,,,,AAXX 22004 07070 12565 /2308 10090 20070 30201 40313 51006 60006 85500 90000=
07070,1997-02-22 03:00:00,9,1031,-0.3,87,7,15000,7.408,,,220,,,,,,,,,,,wg-a,,,,AAXX 22034 07070 12565 82204 10090 20070 30198 40310 58003 60006 885// 90300=
07070,1997-02-22 06:00:00,8,1031,-0.1,93,7,10000,3.704,,,220,7.9,11,,,,,,,,,wg-a,,,,AAXX 22064 07070 12560 /2202 10080 20070 30197 40310 58001 60006 86500 90600 333 10110 20079=
07070,1997-02-22 09:00:00,9,1030.9,0,87,7,10000,11.112,,,180,,,,,,,,,,,wg-a,,,,AAXX 22094 07070 12560 /1806 10090 20070 30197 40309 50000 60006 81230 90900=
07070,1997-02-22 12:00:00,12,1029.2,-1.6,76,8,12000,22.224,,,160,,,,,,,,,,,wg-a,,,,AAXX 22124 07070 12562 71612 10120 20080 30181 40292 58016 60006 878// 91200=
07070,1997-02-22 15:00:00,13,1026.7,-2.4,72,8,15000,11.112,,,180,,,,,,,,,,,wg-a,,,,AAXX 22154 07070 12565 71806 10130 20080 30157 40267 56024 60006 874// 91500=
07070,1997-02-22 18:00:00,8,1024.5,-2.4,87,6,12000,14.816,,,140,7.2,14.4,,,,,,,,,wg-a,,,,AAXX 22184 07070 12/62 71408 10080 20060 30133 40245 56024 60006 80002 91800 333 10144 20072=
07070,1997-02-22 21:00:00,6,1022.7,-1.9,93,5,12000,3.704,,,260,,,,,,,,,,,wg-a,,,,AAXX 22214 07070 12/62 72602 10060 20050 30114 40227 56019 60006 80002 92100=
07070,1997-02-23 00:00:00,6,1020.5,-2.2,87,4,12000,7.408,,,190,,,,,,,,,,,wg-a,,,,AAXX 23004 07070 12/62 51904 10060 20040 30092 40205 57022 60006 80001 90000=
07070,1997-02-23 03:00:00,6,1018.3,-2.1,87,4,10000,7.408,,,190,,,,,,,,,,,wg-a,,,,AAXX 23034 07070 12/60 71904 10060 20040 30071 40183 56021 60006 80001 90300=
07070,1997-02-23 06:00:00,6,1017.5,-0.8,93,5,7000,14.816,,,180,4.1,8,,,,,,,,,wg-a,,,,AAXX 23064 07070 12/57 71808 10060 20050 30063 40175 56008 60006 80002 90600 333 10080 20041=
07070,1997-02-23 09:00:00,8,1017,-0.4,87,6,7000,14.816,,,160,,,,,,,,,,,wg-a,,,,AAXX 23094 07070 12657 71608 10080 20060 30059 40170 58004 60006 8653/ 90900=
07070,1997-02-23 12:00:00,10,1016,-0.9,82,7,500,14.816,,,230,,,,,,,,,,,wg-a,,,,AAXX 23124 07070 12400 72308 10100 20070 30050 40160 56009 60006 872// 91200=
07070,1997-02-23 15:00:00,11,1014.7,-1.3,76,7,10000,18.52,,,230,,,,,,,,,,,wg-a,,,,AAXX 23154 07070 12560 72310 10110 20070 30037 40147 57013 60006 8627/ 91500=
07070,1997-02-23 18:00:00,10,1013.2,-1.5,87,8,8000,14.816,,,170,5.5,11.7,,,,,,,,,wg-a,,,,AAXX 23184 07070 12658 71708 10100 20080 30022 40132 57015 60006 8443/ 91800 333 10117 20055=
07070,1997-02-24 00:00:00,10,1009.3,-2,87,8,6000,25.928,,50.004,210,,,,,,,,,,1,wg-a,,,,AAXX 24004 07070 02456 72114 10100 20080 39984 40093 58020 61000 70162 85772 90000 333 6100 91027=
07070,1997-02-24 03:00:00,11,1007.2,-2.1,82,8,10000,29.632,,,220,,,,,,,,,,,wg-a,,,,AAXX 24034 07070 12560 72216 10110 20080 39963 40072 58021 60006 872// 90300=
07070,1997-02-24 06:00:00,11,1005.4,-1.8,87,9,7000,29.632,,,210,10.1,11.4,,,,,,,,61,wg-a,,,,AAXX 24064 07070 02557 72116 10110 20090 39945 40054 57018 61000 76162 8427/ 90600 333 10114 20101 6000=
07070,1997-02-24 09:00:00,11,1004.2,-1.1,87,9,8000,35.188,,57.412,210,,,,0,,,,,,,wg-a,,,,AAXX 24094 07070 12558 72119 10110 20090 39934 40042 58011 60007 875// 90900 333 91031=
07070,1997-02-24 12:00:00,12,1002.7,-1.5,88,10,10000,31.484,,57.412,220,,,,,,,,,,60,wg-a,,,,AAXX 24124 07070 02560 82217 10120 20100 39919 40027 58015 60016 76062 885// 91200 333 61000 91031=
07070,1997-02-24 15:00:00,12,1002.8,0.1,82,9,8000,25.928,,,230,,,,6,,,,,,21,wg-a,,,,AAXX 24154 07070 12158 72314 10120 20090 39920 40028 51001 60067 72162 8487/ 91500=
07070,1997-02-24 18:00:00,12,1001.2,-1.6,88,10,8000,42.596,,68.524,220,9.4,12.2,,,,,,,,60,wg-a,,,,AAXX 24184 07070 02458 72223 10120 20100 39904 40012 56016 61000 76062 875// 91800 333 10122 20094 6000 91037=
07070,1997-02-24 21:00:00,12,998.6,-2.6,94,11,8000,42.596,,68.524,220,,,,1,,,,,,61,wg-a,,,,AAXX 24214 07070 12558 82223 10120 20110 39878 49986 58026 60017 76165 875// 92100 333 91037=
07070,1997-02-25 00:00:00,13,997.1,-1.4,88,11,6000,53.708,,87.044,230,,,,4,,,,,,61,wg-a,,,,AAXX 25004 07070 02456 82329 10130 20110 39864 49971 56014 60056 76166 875// 90000 333 60047 91047=
07070,1997-02-25 03:00:00,13,997.5,0.4,88,11,8000,50.004,,79.636,240,,,,2,,,,,,61,wg-a,,,,AAXX 25034 07070 12558 82427 10130 20110 39868 49975 50004 60027 76166 875// 90300 333 91043=
07070,1997-02-25 06:00:00,14,998.6,1.1,77,10,25000,50.004,,79.636,240,11.4,13.9,,,,,14,,,1,wg-a,,,,AAXX 25064 07070 02575 82427 10140 20100 39879 49986 53011 60006 70162 8687/ 90600 333 10139 20114 60144 91043=
07070,1997-02-25 09:00:00,13,1000.8,2.2,77,9,10000,42.596,,61.116,250,,,,,,,,,,3,wg-a,,,,AAXX 25094 07070 02460 82523 10130 20090 39901 40008 53022 61000 70362 885// 90900 333 //// 91033=
07070,1997-02-25 12:00:00,13,1002.3,1.4,72,8,10000,38.892,,57.412,250,,,,,,,,,,61,wg-a,,,,AAXX 25124 07070 02460 82521 10130 20080 39915 40023 52014 61000 76162 8352/ 91200 333 6100 91031=
07070,1997-02-25 15:00:00,10,1004,1.6,93,9,9000,25.928,,,240,,,,5,,,,,,61,wg-a,,,,AAXX 25154 07070 12459 82414 10100 20090 39931 40040 50016 60057 76166 8352/ 91500=
07070,1997-02-25 18:00:00,10,1004.2,0.2,87,8,7000,31.484,,,230,9.7,13.8,,,,,,,,61,wg-a,,,,AAXX 25184 07070 02457 82317 10100 20080 39933 40042 52002 61000 76166 8452/ 91800 333 10138 20097 6003=
07070,1997-02-26 00:00:00,11,1006.1,1,82,8,25000,38.892,,,240,,,,,,,,,,1,wg-a,,,,AAXX 26004 07070 02575 72421 10110 20080 39952 40061 52010 60006 70162 83279 90000 333 61000=
07070,1997-02-26 03:00:00,11,1006.5,0.4,76,7,25000,35.188,,,260,,,,,,,,,,60,wg-a,,,,AAXX 26034 07070 02575 72619 10110 20070 39956 40065 53004 61000 76062 8227/ 90300 333 ////=
07070,1997-02-26 06:00:00,9,1008.3,1.7,76,5,25000,31.484,,,260,9.2,11.8,,,,,8,,,1,wg-a,,,,AAXX 26064 07070 02775 52617 10090 20050 39973 40083 53017 60006 70162 835/1 90600 333 10118 20092 60084=
07070,1997-02-26 09:00:00,10,1011.2,2.9,66,4,15000,50.004,,72.228,260,,,,,,,,,,,wg-a,,,,AAXX 26094 07070 12565 /2627 10100 20040 30002 40112 53029 60006 85200 90900 333 91039=
07070,1997-02-26 12:00:00,11,1013.3,2.1,54,2,25000,46.3,,68.524,260,,,,,,,,,,,wg-a,,,,AAXX 26124 07070 12675 /2625 10110 20020 30023 40133 51021 60006 85200 91200 333 91037=
07070,1997-02-26 15:00:00,11,1013,-0.3,54,2,25000,35.188,,,250,,,,,,,,,,,wg-a,,,,AAXX 26154 07070 12675 72519 10110 20020 30020 40130 58003 60006 83272 91500=
07070,1997-02-26 18:00:00,6,1016.1,2.9,87,4,25000,25.928,,,260,5.3,12.6,,3,,,,,,1,wg-a,,,,AAXX 26184 07070 02775 22614 10060 20040 30049 40161 51029 60006 70181 81501 91800 333 10126 20053 60037=
07070,1997-02-27 00:00:00,7,1024.4,4.4,76,3,15000,31.484,,50.004,280,,,,,,,,,,,wg-a,,,,AAXX 27004 07070 12/65 02817 10070 20030 30131 40244 51044 60006 80000 90000 333 91027=
07070,1997-02-27 03:00:00,6,1029,4.5,81,3,15000,25.928,,,280,,,,,,,,,,,wg-a,,,,AAXX 27034 07070 12565 /2814 10060 20030 30176 40290 51045 60006 81500 90300=
07070,1997-02-27 06:00:00,5,1031.9,2.9,87,3,12000,18.52,,,280,4.5,7,,,,,3,,,,wg-a,,,,AAXX 27064 07070 02/62 22810 10050 20030 30205 40319 51029 60006 80001 90600 333 10070 20045 60034=
07070,1997-02-27 09:00:00,7,1034.8,2.9,81,4,12000,18.52,,,260,,,,,,,,,,,wg-a,,,,AAXX 27094 07070 12/62 32610 10070 20040 30234 40348 51029 60006 80001 90900=
07070,1997-02-27 12:00:00,9,1035.8,1.1,71,4,25000,22.224,,,260,,,,,,,,,,,wg-a,,,,AAXX 27124 07070 12575 72612 10090 20040 30245 40358 51011 60006 8427/ 91200=
07070,1997-02-27 18:00:00,9,1036,0.2,71,4,25000,14.816,,,200,3.7,10.8,,,,,,,,,wg-a,,,,AAXX 27184 07070 12/75 72008 10090 20040 30247 40360 53002 60006 8703/ 91800 333 10108 20037=
07070,1997-02-27 21:00:00,8,1035.2,-0.8,76,4,20000,14.816,,,200,,,,,,,,,,,wg-a,,,,AAXX 27214 07070 12/70 62008 10080 20040 30239 40352 58008 60006 86030 92100=
07070,1997-02-28 00:00:00,6,1033.8,-1.5,81,3,20000,14.816,,,210,,,,,,,,,,,wg-a,,,,AAXX 28004 07070 12/70 22108 10060 20030 30224 40338 56015 60006 80001 90000=
07070,1997-02-28 03:00:00,3,1032.6,-1.3,87,1,20000,7.408,,,160,,,,,,,,,,,wg-a,,,,AAXX 28034 07070 12/70 61604 10030 20010 30211 40326 56013 60006 80001 90300=
07070,1997-02-28 06:00:00,3,1032,-0.6,81,0,20000,14.816,,,160,2.1,8.9,,,,,,,,,wg-a,,,,AAXX 28064 07070 12/70 61608 10030 20000 30205 40320 56006 60006 80001 90600 333 10089 20021=
07070,1997-02-28 09:00:00,7,1031.8,0,66,1,20000,14.816,,,170,,,,,,,,,,,wg-a,,,,AAXX 28094 07070 12/70 71708 10070 20010 30205 40318 50000 60006 80002 90900=
07070,1997-02-28 12:00:00,13,1029.2,-2.4,54,4,20000,18.52,,,200,,,,,,,,,,,wg-a,,,,AAXX 28124 07070 12/70 72010 10130 20040 30181 40292 58024 60006 80002 91200=
07070,1997-02-28 15:00:00,15,1026,-3,48,4,20000,22.224,,,200,,,,,,,,,,,wg-a,,,,AAXX 28154 07070 12/70 72012 10150 20040 30151 40260 58030 60006 80002 91500=
07070,1997-02-28 18:00:00,13,1025,-1.1,54,4,15000,18.52,,,200,2.6,15.7,,,,,,,,,wg-a,,,,AAXX 28184 07070 12/65 72010 10130 20040 30140 40250 55011 60006 83032 91800 333 10157 20026=
07070,1997-02-28 21:00:00,12,1025.4,0.3,50,2,10000,14.816,,,230,,,,,,,,,,,wg-a,,,,AAXX 28214 07070 12/60 /2308 10120 20020 30143 40254 52003 60006 92100=
07070,1997-03-01 00:00:00,10,1026.3,0.8,62,3,20000,14.816,,,260,,,,,,,,,,,wg-a,,,,AAXX 01004 07070 12/70 32608 10100 20030 30151 40263 53008 60006 80002 90000=
07070,1997-03-01 03:00:00,10,1026.9,0.6,71,5,20000,11.112,,,250,,,,,,,,,,,wg-a,,,,AAXX 01034 07070 12/70 72506 10100 20050 30157 40269 51006 60006 80002 90300=
07070,1997-03-01 06:00:00,8,1028.1,1.1,87,6,20000,3.704,,,30,7.7,13.4,,,,,,,,,wg-a,,,,AAXX 01064 07070 12670 70302 10080 20060 30168 40281 52011 60006 83502 90600 333 10134 20077=
07070,1997-03-01 09:00:00,10,1029.1,1.1,82,7,6000,11.112,,,180,,,,,,,,,,,wg-a,,,,AAXX 01094 07070 12556 71806 10100 20070 30179 40291 51011 60006 875// 90900=
07070,1997-03-01 12:00:00,12,1028.6,-0.4,82,9,6000,7.408,,,250,,,,,,,,,,,wg-a,,,,AAXX 01124 07070 12556 82504 10120 20090 30175 40286 58004 60006 885// 91200=
07070,1997-03-01 15:00:00,13,1026.6,-1.9,82,10,12000,14.816,,,230,,,,,,,,,,,wg-a,,,,AAXX 01154 07070 12462 82308 10130 20100 30156 40266 56019 60006 885// 91500=
07070,1997-03-01 18:00:00,9,1025.8,-1,93,8,10000,11.112,,,170,7,14,,,,,,,,,wg-a,,,,AAXX 01184 07070 12/60 11706 10090 20080 30146 40258 55010 60006 80001 91800 333 10140 20070=
07070,1997-03-01 21:00:00,6,1025.4,-0.5,100,6,10000,3.704,,,120,,,,,,,,,,,wg-a,,,,AAXX 01214 07070 12/60 01202 10060 20060 30141 40254 58005 60006 80000 92100=
07070,1997-03-02 00:00:00,6,1024.2,-1.2,100,6,8000,14.816,,,180,,,,,,,,,,28,wg-a,,,,AAXX 02004 07070 12/58 01808 10060 20060 30129 40242 58012 60006 72840 80000 90000=
07070,1997-03-02 03:00:00,5,1023.1,-1.1,100,5,10000,14.816,,,180,,,,,,,,,,,wg-a,,,,AAXX 02034 07070 12/60 01808 10050 20050 30118 40231 57011 60006 80000 90300=
07070,1997-03-02 06:00:00,5,1022.9,-0.2,100,5,10000,18.52,,,180,,,,,,,,,,,wg-a,,,,AAXX 02064 07070 12/60 01810 10050 20050 30116 40229 58002 60006 80000 90600=
07070,1997-03-02 09:00:00,12,1023.2,0.6,82,9,10000,11.112,,,200,,,,,,,,,,,wg-a,,,,AAXX 02094 07070 12/60 52006 10120 20090 30122 40232 50006 60006 80002 90900=
07070,1997-03-02 12:00:00,13,1024.5,1.3,77,9,11000,29.632,,,240,,,,,,,,,,,wg-a,,,,AAXX 02124 07070 12/61 /2416 10130 20090 30135 40245 53013 60006 91200=
07070,1997-03-02 15:00:00,13,1024.9,0.4,77,9,15000,25.928,,,230,,,,,,,,,,,wg-a,,,,AAXX 02154 07070 12565 72314 10130 20090 30139 40249 53004 60006 878// 91500=
07070,1997-03-02 18:00:00,13,1026.1,1.2,82,10,10000,25.928,,,250,4.6,14.8,,,,,,,,,wg-a,,,,AAXX 02184 07070 12760 72514 10130 20100 30151 40261 53012 60006 875// 91800 333 10148 20046=
07070,1997-03-02 21:00:00,13,1027.6,1.5,82,10,15000,25.928,,,250,,,,,,,,,,,wg-a,,,,AAXX 02214 07070 12565 72514 10130 20100 30166 40276 51015 60006 875// 92100=
07070,1997-03-03 00:00:00,8,1030.1,2.2,93,7,7000,3.704,,,290,,,,2,,,,,,61,wg-a,,,,AAXX 03004 07070 02557 82902 10080 20070 30188 40301 51022 60026 76165 885// 90000 333 60027=
07070,1997-03-03 03:00:00,7,1031.3,1.2,100,7,500,11.112,,,300,,,,2,,,,,,51,wg-a,,,,AAXX 03034 07070 12400 83006 10070 20070 30200 40313 52012 60027 75165 885// 90300=
07070,1997-03-03 06:00:00,7,1032.9,1.6,100,7,4500,7.408,,,230,7,13.1,,,,,4,,,10,wg-a,,,,AAXX 03064 07070 02545 82304 10070 20070 30216 40329 53016 60006 71065 885// 90600 333 10131 20070 60044=
07070,1997-03-03 09:00:00,9,1034.2,1.3,87,7,7000,3.704,,,210,,,,,,,,,,,wg-a,,,,AAXX 03094 07070 12457 72102 10090 20070 30229 40342 51013 60006 85802 90900=
07070,1997-03-03 12:00:00,11,1034.3,0.2,71,6,12000,7.408,,,150,,,,,,,,,,,wg-a,,,,AAXX 03124 07070 12562 71504 10110 20060 30231 40343 50002 60006 8523/ 91200=
07070,1997-03-03 15:00:00,11,1033.1,-1.2,82,8,12000,14.816,,,170,,,,,,,,,,,wg-a,,,,AAXX 03154 07070 12562 81708 10110 20080 30219 40331 56012 60006 8557/ 91500=
07070,1997-03-03 18:00:00,10,1032.3,-0.8,93,9,10000,11.112,,,160,7.1,12.3,,,,,,,,2,wg-a,,,,AAXX 03184 07070 02460 81606 10100 20090 30211 40323 55008 60006 70252 875// 91800 333 10123 20071 61000=
07070,1997-03-03 21:00:00,10,1030.9,-1.4,100,10,6000,14.816,,,180,,,,,,,,,,61,wg-a,,,,AAXX 03214 07070 02356 81808 10100 20100 30197 40309 57014 61000 76162 885// 92100 333 ////=
07070,1997-03-04 00:00:00,10,1030.2,-0.7,93,9,7000,3.704,,,160,,,,,,,,,,21,wg-a,,,,AAXX 04004 07070 02757 81602 10100 20090 30190 40302 58007 61000 72162 8557/ 90000 333 6100=
07070,1997-03-04 03:00:00,9,1029.9,-0.3,100,9,8000,11.112,,,180,,,,,,,,,,,wg-a,,,,AAXX 04034 07070 12758 81806 10090 20090 30187 40299 55003 60006 8257/ 90300=
07070,1997-03-04 06:00:00,10,1029,-0.9,93,9,7000,11.112,,,170,8.9,10.1,,,,,,,,,wg-a,,,,AAXX 04064 07070 02757 81706 10100 20090 30178 40290 56009 60006 8357/ 90600 333 10101 20089 61000=
07070,1997-03-04 09:00:00,12,1028.9,-0,88,10,8000,14.816,,,160,,,,,,,,,,,wg-a,,,,AAXX 04094 07070 12758 81608 10120 20100 30178 40289 55000 60006 8251/ 90900=
07070,1997-03-04 12:00:00,15,1028,-0.8,77,11,8000,14.816,,,160,,,,,,,,,,,wg-a,,,,AAXX 04124 07070 12758 81608 10150 20110 30170 40280 57008 60006 8251/ 91200=
07070,1997-03-04 15:00:00,15,1026.4,-1.5,82,12,8000,11.112,,,140,,,,,,,,,,,wg-a,,,,AAXX 04154 07070 12758 81406 10150 20120 30155 40264 56015 60006 8151/ 91500=
07070,1997-03-04 18:00:00,13,1026.9,0.4,88,11,6000,11.112,,,180,9.7,15.3,,,,,,,,,wg-a,,,,AAXX 04184 07070 12756 81806 10130 20110 30159 40269 53004 60006 8452/ 91800 333 10153 20097=
07070,1997-03-04 21:00:00,13,1027.1,0.2,82,10,8000,11.112,,,300,,,,,,,,,,61,wg-a,,,,AAXX 04214 07070 02758 83006 10130 20100 30161 40271 53002 61000 76162 8352/ 92100 333 ////=
07070,1997-03-05 00:00:00,11,1027,-0.2,94,10,8000,11.112,,,210,,,,1,,,,,,60,wg-a,,,,AAXX 05004 07070 02658 82106 10110 20100 30159 40270 58002 60016 76066 8352/ 90000 333 60017=
07070,1997-03-05 03:00:00,10,1025.8,-1.2,93,9,8000,7.408,,,230,,,,2,,,,,,,wg-a,,,,AAXX 05034 07070 12858 82304 10100 20090 30147 40258 56012 60027 8802/ 90300=
07070,1997-03-05 06:00:00,10,1026.5,0.6,93,9,6000,18.52,,,270,9.6,13.4,,,,,3,,,3,wg-a,,,,AAXX 05064 07070 02356 72710 10100 20090 30153 40265 53006 60006 70362 875// 90600 333 10134 20096 60034=
07070,1997-03-05 09:00:00,9,1027.9,1.4,87,7,12000,14.816,,,260,,,,,,,,,,,wg-a,,,,AAXX 05094 07070 12462 62608 10090 20070 30167 40279 51014 60006 86830 90900=
07070,1997-03-05 12:00:00,9,1028.6,0.7,81,6,20000,18.52,,,280,,,,0,,,,,,21,wg-a,,,,AAXX 05124 07070 02470 82810 10090 20060 30174 40286 51007 60006 72162 888// 91200 333 60007=
07070,1997-03-05 15:00:00,8,1028.6,-0,87,6,10000,22.224,,,280,,,,,,,,,,1,wg-a,,,,AAXX 05154 07070 02460 72812 10080 20060 30174 40286 55000 61000 70162 878// 91500 333 ////=
07070,1997-03-05 18:00:00,8,1029.2,0.5,87,6,7000,14.816,,,250,7.7,9.8,,,,,,,,1,wg-a,,,,AAXX 05184 07070 12557 72508 10080 20060 30179 40292 51005 60006 70162 878// 91800 333 10098 20077=
07070,1997-03-05 21:00:00,7,1029.6,0.4,87,5,10000,7.408,,,230,,,,,,,,,,,wg-a,,,,AAXX 05214 07070 12760 42304 10070 20050 30183 40296 51004 60006 84500 92100=
07070,1997-03-06 00:00:00,8,1029,-0.6,81,5,15000,11.112,,,240,,,,,,,,,,,wg-a,,,,AAXX 06004 07070 12665 72406 10080 20050 30177 40290 58006 60006 875// 90000=
07070,1997-03-06 03:00:00,7,1029.1,0.1,93,6,2500,11.112,,,210,,,,2,,,,,,10,wg-a,,,,AAXX 06034 07070 12225 82106 10070 20060 30178 40291 50001 60027 71065 887// 90300=
07070,1997-03-06 06:00:00,7,1029.9,0.8,100,7,3000,14.816,,,180,6.6,7.8,,,,,,,,10,wg-a,,,,AAXX 06064 07070 02230 81808 10070 20070 30186 40299 53008 61000 71065 886// 90600 333 10078 20066 6005=
07070,1997-03-06 09:00:00,8,1031.3,1.4,100,8,1000,7.408,,,180,,,,0,,,,,,10,wg-a,,,,AAXX 06094 07070 12110 81804 10080 20080 30200 40313 52014 60007 71065 887// 90900=
07070,1997-03-06 12:00:00,9,1032.1,0.9,100,9,4000,3.704,,,230,,,,,,,,,,10,wg-a,,,,AAXX 06124 07070 02240 82302 10090 20090 30209 40321 51009 60006 71065 886// 91200 333 61000=
07070,1997-03-06 15:00:00,10,1032.1,-0,93,9,6000,7.408,,,40,,,,,,,,,,,wg-a,,,,AAXX 06154 07070 12456 80404 10100 20090 30209 40321 55000 60006 885// 91500=
07070,1997-03-06 18:00:00,10,1032.8,0.7,93,9,500,7.408,,,60,6.6,10.7,,,,,,,,,wg-a,,,,AAXX 06184 07070 12300 80604 10100 20090 30216 40328 53007 60006 886// 91800 333 10107 20066=
07070,1997-03-07 00:00:00,9,1033.3,-0.3,93,8,500,0,,,0,,,,,,,,,,,wg-a,,,,AAXX 07004 07070 12600 70000 10090 20080 30220 40333 58003 60006 875// 90000=
07070,1997-03-07 03:00:00,8,1032.6,-0.7,100,8,7000,7.408,,,110,,,,,,,,,,,wg-a,,,,AAXX 07034 07070 12657 71104 10080 20080 30213 40326 58007 60006 875// 90300=
07070,1997-03-07 06:00:00,8,1032.6,-0,93,7,10000,3.704,,,50,7.9,9.8,,,,,,,,,wg-a,,,,AAXX 07064 07070 02660 70502 10080 20070 30213 40326 55000 60006 875// 90600 333 10098 20079 60004=
07070,1997-03-07 09:00:00,11,1032.9,0.4,76,7,12000,22.224,,,130,,,,,,,,,,,wg-a,,,,AAXX 07094 07070 12/62 51312 10110 20070 30217 40329 52004 60006 83032 90900=
07070,1997-03-07 12:00:00,13,1032.2,-0.6,58,5,15000,14.816,,,100,,,,,,,,,,,wg-a,,,,AAXX 07124 07070 12/65 51008 10130 20050 30211 40322 58006 60006 80002 91200=
07070,1997-03-07 15:00:00,14,1030.4,-1.7,58,6,15000,7.408,,,90,,,,,,,,,,,wg-a,,,,AAXX 07154 07070 12/65 50904 10140 20060 30194 40304 56017 60006 80001 91500=
07070,1997-03-07 18:00:00,11,1030.5,-0.1,82,8,10000,3.704,,,80,7.9,14.5,,,,,,,,,wg-a,,,,AAXX 07184 07070 12/60 10802 10110 20080 30193 40305 55001 60006 80001 91800 333 10145 20079=
07070,1997-03-07 21:00:00,6,1031.3,0.6,93,5,10000,0,,,0,,,,,,,,,,,wg-a,,,,AAXX 07214 07070 12/60 00000 10060 20050 30199 40313 51006 60006 80000 92100=
07070,1997-03-08 00:00:00,4,1032,0.6,93,3,3500,3.704,,,340,,,,,,,,,,10,wg-a,,,,AAXX 08004 07070 12/35 03402 10040 20030 30205 40320 51006 60006 71000 80000 90000=
07070,1997-03-08 03:00:00,2,1032.1,0.1,100,2,4000,3.704,,,30,,,,,,,,,,10,wg-a,,,,AAXX 08034 07070 12/40 00302 10020 20020 30206 40321 52001 60006 71000 80000 90300=
07070,1997-03-08 06:00:00,1,1033.8,1.6,93,0,1200,0,,,0,0.5,10.7,,0,,,,,,10,wg-a,,,,AAXX 08064 07070 02/12 /0000 10010 20000 30222 40338 51016 60006 71000 80001 90600 333 10107 20005 60007=
07070,1997-03-08 09:00:00,6,1034.6,1,100,6,3000,3.704,,,120,,,,0,,,,,,10,wg-a,,,,AAXX 08094 07070 12/30 /1202 10060 20060 30232 40346 51010 60007 71040 80001 90900=
07070,1997-03-08 12:00:00,13,1034.2,-0.1,72,8,6000,7.408,,,50,,,,,,,,,,2,wg-a,,,,AAXX 08124 07070 12/56 /0504 10130 20080 30231 40342 58001 60006 70240 80001 91200=
07070,1997-03-08 15:00:00,14,1033.6,-0.6,63,7,6000,11.112,,,40,,,,,,,,,,,wg-a,,,,AAXX 08154 07070 12/56 /0406 10140 20070 30225 40336 56006 60006 80001 91500=
07070,1997-03-08 18:00:00,11,1033.9,0.2,82,8,500,7.408,,,350,0.3,14.5,,,,,,,,,wg-a,,,,AAXX 08184 07070 12/00 /3504 10110 20080 30227 40339 53002 60006 80001 91800 333 10145 20003=
07070,1997-03-08 21:00:00,6,1034.1,-0,93,5,500,7.408,,,70,,,,,,,,,,,wg-a,,,,AAXX 08214 07070 12/00 /0704 10060 20050 30227 40341 54000 60006 80001 92100=
07070,1997-03-09 00:00:00,4,1034.5,0.3,93,3,4000,7.408,,,20,,,,,,,,,,10,wg-a,,,,AAXX 09004 07070 12/40 /0204 10040 20030 30230 40345 52003 60006 71000 80001 90000=
07070,1997-03-09 03:00:00,2,1033.8,-0.7,100,2,1500,3.704,,,330,,,,,,,,,,10,wg-a,,,,AAXX 09034 07070 12/15 /3302 10020 20020 30223 40338 57007 60006 71000 80001 90300=
07070,1997-03-09 06:00:00,1,1034.1,0.2,100,1,400,3.704,,,360,0.4,11.1,,,,,,,,44,wg-a,,,,AAXX 09064 07070 02/04 03602 10010 20010 30225 40341 53002 60006 74440 80000 90600 333 10111 20004 60004=
07070,1997-03-09 09:00:00,7,1034.4,0.5,93,6,500,11.112,,,90,,,,,,,,,,2,wg-a,,,,AAXX 09094 07070 32/00 00906 10070 20060 30230 40344 51005 70240 80000 90900=
07070,1997-03-09 12:00:00,13,1033,-1.1,62,6,10000,14.816,,,90,,,,,,,,,,2,wg-a,,,,AAXX 09124 07070 12/60 00908 10130 20060 30219 40330 58011 60006 70240 80000 91200=
07070,1997-03-09 15:00:00,16,1031.4,-1.5,45,4,10000,7.408,,,80,,,,,,,,,,,wg-a,,,,AAXX 09154 07070 12/60 00804 10160 20040 30204 40314 56015 60006 80000 91500=
07070,1997-03-09 18:00:00,13,1031.2,-0.3,58,5,10000,3.704,,,290,0,16.7,,,,,,,,,wg-a,,,,AAXX 09184 07070 12/60 02902 10130 20050 30201 40312 55003 60006 80000 91800 333 10167 20000=
07070,1997-03-09 21:00:00,6,1031.9,0.4,81,3,12000,0,,,0,,,,,,,,,,,wg-a,,,,AAXX 09214 07070 12/62 00000 10060 20030 30205 40319 50004 60006 80000 92100=
07070,1997-03-10 00:00:00,2,1031.8,-0.2,93,1,12000,0,,,0,,,,,,,,,,,wg-a,,,,AAXX 10004 07070 12/62 00000 10020 20010 30203 40318 55002 60006 80000 90000=
07070,1997-03-10 03:00:00,2,1032,0.1,93,1,15000,0,,,0,,,,,,,,,,,wg-a,,,,AAXX 10034 07070 12/65 00000 10020 20010 30204 40320 50001 60006 80000 90300=
07070,1997-03-10 06:00:00,0,1032.9,0.9,93,-1,7000,0,,,0,0,12.9,,,,,,,,,wg-a,,,,AAXX 10064 07070 02/57 00000 10000 21010 30213 40329 53009 60006 80000 90600 333 10129 20000 60004=
07070,1997-03-10 09:00:00,8,1033.7,1.1,76,4,6000,3.704,,,180,,,,,,,,,,,wg-a,,,,AAXX 10094 07070 12/56 01802 10080 20040 30224 40337 51011 60006 80000 90900=
07070,1997-03-10 12:00:00,16,1033.3,-0.1,51,6,8000,0,,,0,,,,,,,,,,,wg-a,,,,AAXX 10124 07070 12/58 00000 10160 20060 30223 40333 58001 60006 80000 91200=
07070,1997-03-10 15:00:00,17,1032.6,-0.6,48,6,8000,3.704,,,60,,,,,,,,,,,wg-a,,,,AAXX 10154 07070 12/58 00602 10170 20060 30217 40326 56006 60006 80000 91500=
07070,1997-03-10 18:00:00,12,1033.1,0.3,71,7,6000,3.704,,,40,-0.2,17.3,,,,,,,,,wg-a,,,,AAXX 10184 07070 12/56 00402 10120 20070 30220 40331 53003 60006 80000 91800 333 10173 21002=
07070,1997-03-10 21:00:00,6,1033.8,0.4,93,5,8000,0,,,0,,,,,,,,,,,wg-a,,,,AAXX 10214 07070 12/58 00000 10060 20050 30224 40338 51004 60006 80000 92100=
07070,1997-03-11 00:00:00,3,1034.1,0.2,93,2,8000,0,,,0,,,,,,,,,,11,wg-a,,,,AAXX 11004 07070 12/58 00000 10030 20020 30226 40341 52002 60006 71100 80000 90000=
07070,1997-03-11 03:00:00,1,1034,-0.2,100,1,600,0,,,0,,,,,,,,,,44,wg-a,,,,AAXX 11034 07070 12/06 00000 10010 20010 30224 40340 57002 60006 74440 80000 90300=
07070,1997-03-11 06:00:00,0,1034.5,0.4,100,0,300,0,,,0,-0.4,12.1,,,,,,,,41,wg-a,,,,AAXX 11064 07070 12/03 00000 10000 20000 30228 40345 53004 60006 74140 80000 90600 333 10121 21004=
07070,1997-03-11 09:00:00,7,1034.9,0.7,100,7,2200,0,,,0,,,,,,,,,,28,wg-a,,,,AAXX 11094 07070 32/22 00000 10070 20070 30235 40349 51007 72840 80000 90900=
07070,1997-03-11 12:00:00,16,1033.5,-1,59,8,4500,7.408,,,60,,,,,,,,,,10,wg-a,,,,AAXX 11124 07070 12/45 00604 10160 20080 30225 40335 58010 60006 71040 80000 91200=
07070,1997-03-11 15:00:00,19,1031.7,-1.7,40,5,8000,18.52,,,40,,,,,,,,,,,wg-a,,,,AAXX 11154 07070 12/58 00410 10190 20050 30208 40317 56017 60006 80000 91500=
07070,1997-03-11 18:00:00,14,1031,-0.8,63,7,6000,11.112,,,10,-1.1,18.8,,,,,,,,,wg-a,,,,AAXX 11184 07070 12/56 00106 10140 20070 30200 40310 56008 60006 80000 91800 333 10188 21011=
07070,1997-03-11 21:00:00,8,1031.7,0.4,81,5,7000,7.408,,,60,,,,,,,,,,,wg-a,,,,AAXX 11214 07070 12/57 00604 10080 20050 30204 40317 51004 60006 80000 92100=
07070,1997-03-12 00:00:00,4,1032,0.1,93,3,6000,0,,,0,,,,,,,,,,,wg-a,,,,AAXX 12004 07070 12/56 00000 10040 20030 30205 40320 50001 60006 80000 90000=
07070,1997-03-12 03:00:00,3,1030.9,-1.1,100,3,400,0,,,0,,,,,,,,,,41,wg-a,,,,AAXX 12034 07070 12/04 00000 10030 20030 30194 40309 58011 60006 74140 80000 90300=
07070,1997-03-12 06:00:00,1,1030.7,-0.3,93,0,900,7.408,,,90,0.4,13.8,,,,,,,,41,wg-a,,,,AAXX 12064 07070 02/09 00904 10010 20000 30191 40307 58003 60006 74140 80000 90600 333 10138 20004 60004=
07070,1997-03-12 09:00:00,7,1030.3,-0.1,93,6,1800,0,,,0,,,,,,,,,,10,wg-a,,,,AAXX 12094 07070 12/18 /0000 10070 20060 30190 40303 56001 60006 71040 80001 90900=
07070,1997-03-12 12:00:00,16,1029.3,-0.7,55,7,3500,3.704,,,300,,,,,,,,,,10,wg-a,,,,AAXX 12124 07070 12/35 03002 10160 20070 30183 40293 57007 60006 71040 80000 91200=
07070,1997-03-12 15:00:00,19,1027.7,-1.4,40,5,500,14.816,,,260,,,,,,,,,,,wg-a,,,,AAXX 12154 07070 12/00 02608 10190 20050 30169 40277 56014 60006 80000 91500=
07070,1997-03-12 18:00:00,15,1028.4,0.5,55,6,3000,18.52,,,280,0.7,19,,,,,,,,10,wg-a,,,,AAXX 12184 07070 12/30 /2810 10150 20060 30174 40284 53005 60006 71000 80001 91800 333 10190 20007=
07070,1997-03-12 21:00:00,10,1029.7,1.1,82,7,500,14.816,,,330,,,,,,,,,,,wg-a,,,,AAXX 12214 07070 12/00 03308 10100 20070 30185 40297 53011 60006 80000 92100=
07070,1997-03-13 00:00:00,9,1030.7,1,93,8,500,22.224,,,330,,,,,,,,,,,wg-a,,,,AAXX 13004 07070 12400 73312 10090 20080 30195 40307 53010 60006 876// 90000=
07070,1997-03-13 03:00:00,9,1030.5,-0.2,93,8,500,14.816,,,340,,,,,,,,,,,wg-a,,,,AAXX 13034 07070 12400 73408 10090 20080 30193 40305 58002 60006 876// 90300=
07070,1997-03-13 06:00:00,8,1031.2,0.6,100,8,1500,0,,,0,8.3,14.8,,,,,,,,10,wg-a,,,,AAXX 13064 07070 12315 80000 10080 20080 30199 40312 53006 60006 71022 886// 90600 333 10148 20083=
07070,1997-03-13 09:00:00,10,1031.7,0.6,87,8,2400,3.704,,,260,,,,,,,,,,10,wg-a,,,,AAXX 13094 07070 12324 72602 10100 20080 30205 40317 53006 60006 71022 876// 90900=
07070,1997-03-13 12:00:00,11,1031.8,,82,8,3000,7.408,,,270,,,,,,,,,,10,wg-a,,,,AAXX 13124 07070 12430 72704 10110 20080 30207 40318 60006 710// 91200=
07070,1997-03-13 15:00:00,14,1029.5,-2.2,67,8,3800,3.704,,,130,,,,,,,,,,10,wg-a,,,,AAXX 13154 07070 12538 21302 10140 20080 30185 40295 56022 60006 71011 82100 91500=
07070,1997-03-13 18:00:00,10,1028.3,-1.4,87,8,2500,11.112,,,170,8.3,14.2,,,,,,,,10,wg-a,,,,AAXX 13184 07070 12625 31706 10100 20080 30171 40283 56014 60006 71000 8/02/ 91800 333 10142 20083=
07070,1997-03-13 21:00:00,8,1028,-0.3,93,7,2000,7.408,,,20,,,,,,,,,,10,wg-a,,,,AAXX 13214 07070 12/20 /0204 10080 20070 30168 40280 58003 60006 71000 80001 92100=
07070,1997-03-14 00:00:00,7,1026.6,-1.5,93,6,3000,7.408,,,190,,,,,,,,,,10,wg-a,,,,AAXX 14004 07070 12/30 /1904 10070 20060 30153 40266 58015 60006 71011 80000 90000=
07070,1997-03-14 06:00:00,7,1024.8,-0.6,100,7,2000,11.112,,,260,6.3,10,,,,,,,,10,wg-a,,,,AAXX 14064 07070 12420 82606 10070 20070 30136 40248 56006 60006 71011 885// 90600 333 10100 20063=
07070,1997-03-14 09:00:00,8,1024.4,-0.4,87,6,4500,18.52,,,250,,,,,,,,,,10,wg-a,,,,AAXX 14094 07070 12545 72510 10080 20060 30132 40244 56004 60006 71022 878// 90900=
07070,1997-03-14 12:00:00,10,1023.3,-1,82,7,500,22.224,,,250,,,,,,,,,,,wg-a,,,,AAXX 14124 07070 12400 82512 10100 20070 30122 40233 58010 60006 888// 91200=
07070,1997-03-14 15:00:00,11,1022.6,-0.7,82,8,500,18.52,,,260,,,,,,,,,,1,wg-a,,,,AAXX 14154 07070 02400 72610 10110 20080 30115 40226 56007 61000 70152 8517/ 91500 333 ////=
07070,1997-03-14 18:00:00,10,1023.3,0.7,87,8,7000,11.112,,,260,6.9,11,,,,,,,,3,wg-a,,,,AAXX 14184 07070 12557 82606 10100 20080 30122 40233 52007 60006 70352 878// 91800 333 10110 20069=
07070,1997-03-14 21:00:00,10,1024.9,1.6,87,8,8000,11.112,,,290,,,,,,,,,,,wg-a,,,,AAXX 14214 07070 12658 42906 10100 20080 30138 40249 53016 60006 84500 92100=
07070,1997-03-15 00:00:00,8,1025.5,0.5,87,6,10000,7.408,,,250,,,,,,,,,,,wg-a,,,,AAXX 15004 07070 12660 32504 10080 20060 30143 40255 51005 60006 83500 90000=
07070,1997-03-15 06:00:00,6,1025.8,0.2,100,6,6000,11.112,,,230,4.9,9.9,,,,,,,,,wg-a,,,,AAXX 15064 07070 02856 82306 10060 20060 30145 40258 53002 60006 8707/ 90600 333 10099 20049 61000=
07070,1997-03-15 09:00:00,9,1026.6,0.9,87,7,500,14.816,,,260,,,,,,,,,,10,wg-a,,,,AAXX 15094 07070 02300 72608 10090 20070 30154 40266 51009 61000 71062 8277/ 90900 333 ////=
07070,1997-03-15 12:00:00,9,1026.4,-0.2,100,9,2500,14.816,,,240,,,,0,,,,,,10,wg-a,,,,AAXX 15124 07070 02225 82408 10090 20090 30152 40264 57002 60006 71065 8667/ 91200 333 60007=
07070,1997-03-15 15:00:00,11,1025.7,-0.6,94,10,2200,22.224,,,260,,,,,,,,,,10,wg-a,,,,AAXX 15154 07070 12322 82612 10110 20100 30146 40257 56006 60006 71022 876// 91500=
07070,1997-03-15 18:00:00,11,1026.2,0.5,94,10,1500,14.816,,,260,6.2,10.9,,,,,,,,10,wg-a,,,,AAXX 15184 07070 02315 82608 10110 20100 30151 40262 53005 61000 71052 886// 91800 333 10109 20062 6100=
07070,1997-03-15 21:00:00,11,1027.4,1.2,94,10,3000,11.112,,,280,,,,,,,,,,10,wg-a,,,,AAXX 15214 07070 12530 82806 10110 20100 30163 40274 52012 60006 71052 885// 92100=
07070,1997-03-16 00:00:00,10,1028.1,0.6,93,9,500,14.816,,,290,,,,,,,,,,2,wg-a,,,,AAXX 16004 07070 12400 82908 10100 20090 30169 40281 53006 60006 70252 8352/ 90000=
07070,1997-03-16 03:00:00,9,1027.7,-0.4,93,8,500,14.816,,,270,,,,,,,,,,,wg-a,,,,AAXX 16034 07070 12300 72708 10090 20080 30165 40277 58004 60006 876// 90300=
07070,1997-03-16 06:00:00,9,1028.5,0.8,93,8,500,11.112,,,270,9.2,11.1,,,,,,,,,wg-a,,,,AAXX 16064 07070 02300 82706 10090 20080 30173 40285 51008 60006 886// 90600 333 10111 20092 60004=
07070,1997-03-16 12:00:00,11,1028.9,-0.5,87,9,500,22.224,,,260,,,,,,,,,,,wg-a,,,,AAXX 16124 07070 12400 72612 10110 20090 30178 40289 58005 60006 875// 91200=
07070,1997-03-16 18:00:00,12,1026.8,-1.4,82,9,10000,14.816,,,230,9.2,12.8,,,,,,,,,wg-a,,,,AAXX 16184 07070 12560 72308 10120 20090 30157 40268 56014 60006 875// 91800 333 10128 20092=
07070,1997-03-16 21:00:00,10,1027.3,0.5,93,9,7000,22.224,,,340,,,,,,,,,,,wg-a,,,,AAXX 16214 07070 12357 73412 10100 20090 30162 40273 53005 60006 875// 92100=
07070,1997-03-17 00:00:00,9,1028.3,0.9,87,7,6000,11.112,,,320,,,,,,,,,,,wg-a,,,,AAXX 17004 07070 12456 83206 10090 20070 30171 40283 51009 60006 876// 90000=
07070,1997-03-17 03:00:00,9,1028,-0.3,87,7,4000,11.112,,,320,,,,,,,,,,10,wg-a,,,,AAXX 17034 07070 12340 83206 10090 20070 30168 40280 55003 60006 71022 886// 90300=
07070,1997-03-17 06:00:00,9,1028.3,0.3,87,7,2500,11.112,,,250,8.3,11.8,,,,,,,,10,wg-a,,,,AAXX 17064 07070 12325 82506 10090 20070 30171 40283 53003 60006 71022 886// 90600 333 10118 20083=
07070,1997-03-17 09:00:00,11,1028.8,0.6,87,9,3500,11.112,,,260,,,,,,,,,,10,wg-a,,,,AAXX 17094 07070 12435 72606 10110 20090 30177 40288 51006 60006 71022 83132 90900=
07070,1997-03-17 12:00:00,13,1028.5,-0.3,77,9,4500,11.112,,,250,,,,,,,,,,10,wg-a,,,,AAXX 17124 07070 12445 /2506 10130 20090 30174 40285 58003 60006 71022 861// 91200=
07070,1997-03-17 15:00:00,15,1027,-1.4,72,10,6000,7.408,,,340,,,,,,,,,,,wg-a,,,,AAXX 17154 07070 12556 73404 10150 20100 30160 40270 56014 60006 871// 91500=
07070,1997-03-17 18:00:00,12,1026.7,-0.4,88,10,3000,11.112,,,50,8.5,15,,,,,,,,10,wg-a,,,,AAXX 17184 07070 12730 70506 10120 20100 30156 40267 56004 60006 71011 875// 91800 333 10150 20085=
07070,1997-03-17 21:00:00,11,1025.8,-0.9,94,10,4000,11.112,,,150,,,,,,,,,,10,wg-a,,,,AAXX 17214 07070 12440 81506 10110 20100 30147 40258 58009 60006 71022 885// 92100=
07070,1997-03-18 00:00:00,7,1024.1,-1.8,100,7,4000,7.408,,,180,,,,,,,,,,10,wg-a,,,,AAXX 18004 07070 12/40 01804 10070 20070 30129 40241 58018 60006 71011 80000 90000=
07070,1997-03-18 03:00:00,7,1021.2,-2.9,100,7,4000,7.408,,,200,,,,,,,,,,10,wg-a,,,,AAXX 18034 07070 12/40 02004 10070 20070 30100 40212 58029 60006 71000 80000 90300=
07070,1997-03-18 06:00:00,5,1019.1,-2.2,93,4,6000,3.704,,,180,4.4,11.6,,,,,,,,,wg-a,,,,AAXX 18064 07070 12/56 31802 10050 20040 30078 40191 58022 60006 80001 90600 333 10116 20044=
07070,1997-03-18 09:00:00,10,1017.3,-1.5,87,8,4000,18.52,,,260,,,,,,,,,,10,wg-a,,,,AAXX 18094 07070 12440 72610 10100 20080 30063 40173 58015 60006 71011 876// 90900=
07070,1997-03-18 12:00:00,10,1015.9,-1.4,82,7,500,22.224,,,290,,,,,,,,,,,wg-a,,,,AAXX 18124 07070 12400 82912 10100 20070 30049 40159 56014 60006 875// 91200=
07070,1997-03-18 15:00:00,11,1013.4,-2.5,76,7,7000,25.928,,,260,,,,,,,,,,,wg-a,,,,AAXX 18154 07070 12557 82614 10110 20070 30024 40134 58025 60006 878// 91500=
07070,1997-03-18 18:00:00,9,1010.8,-2.6,93,8,4500,22.224,,,240,4.3,11.4,,,,,,,,10,wg-a,,,,AAXX 18184 07070 02445 72412 10090 20080 39998 40108 56026 61000 71062 878// 91800 333 10114 20043 6001=
07070,1997-03-18 21:00:00,8,1011,0.1,81,5,10000,25.928,,,270,,,,,,,,,,1,wg-a,,,,AAXX 18214 07070 02660 /2714 10080 20050 39999 40110 50001 61000 70161 81500 92100 333 ////=
07070,1997-03-19 00:00:00,7,1010,-1,87,5,20000,18.52,,,260,,,,,,,,,,3,wg-a,,,,AAXX 19004 07070 02570 42610 10070 20050 39989 40100 56010 61000 70361 84500 90000 333 ////=
07070,1997-03-19 06:00:00,7,1007.1,-1.4,87,5,10000,29.632,,,260,6.4,9.4,,,,,1,,,,wg-a,,,,AAXX 19064 07070 02560 82616 10070 20050 39960 40071 56014 60006 885// 90600 333 10094 20064 60014=
07070,1997-03-19 09:00:00,7,1006.5,-0.5,93,6,8000,25.928,,,260,,,,1,,,,,,80,wg-a,,,,AAXX 19094 07070 12458 82614 10070 20060 39955 40065 58005 60017 78086 878// 90900=
07070,1997-03-19 12:00:00,10,1006.4,-0,82,7,15000,31.484,,50.004,300,,,,1,,,,,,25,wg-a,,,,AAXX 19124 07070 02565 73017 10100 20070 39955 40064 55000 60026 72586 878// 91200 333 60017 91027=
07070,1997-03-19 15:00:00,9,1008.4,1.9,81,6,15000,42.596,,,330,,,,,,,,,,3,wg-a,,,,AAXX 19154 07070 12465 73323 10090 20060 39974 40084 53019 60006 70382 878// 91500=
07070,1997-03-19 18:00:00,8,1012.2,3.7,76,4,20000,29.632,,,330,6.5,10.1,,,,,,,,,wg-a,,,,AAXX 19184 07070 12570 63316 10080 20040 30011 40122 51037 60006 86800 91800 333 10101 20065=
07070,1997-03-19 21:00:00,6,1014.3,2,75,2,15000,25.928,,,340,,,,,,,,,,,wg-a,,,,AAXX 19214 07070 12565 /3414 10060 20020 30031 40143 51020 60006 858// 92100=
07070,1997-03-20 00:00:00,5,1016.6,2.3,87,3,12000,22.224,,,320,,,,,,,,,,,wg-a,,,,AAXX 20004 07070 12562 83212 10050 20030 30054 40166 51023 60006 875// 90000=
07070,1997-03-20 03:00:00,5,1018,1.3,87,3,10000,18.52,,,330,,,,,,,,,,,wg-a,,,,AAXX 20034 07070 12560 83310 10050 20030 30067 40180 51013 60006 875// 90300=
07070,1997-03-20 06:00:00,4,1019.2,1.2,87,2,7000,11.112,,,330,4,7.6,,,,,2,,,,wg-a,,,,AAXX 20064 07070 02557 73306 10040 20020 30079 40192 53012 60006 878// 90600 333 10076 20040 60024=
07070,1997-03-20 09:00:00,6,1020.8,1.6,65,0,10000,11.112,,,330,,,,,,,,,,,wg-a,,,,AAXX 20094 07070 12560 23306 10060 20000 30095 40208 51016 60006 82800 90900=
07070,1997-03-20 12:00:00,8,1021,0.3,66,2,12000,11.112,,,320,,,,,,,,,,,wg-a,,,,AAXX 20124 07070 12662 73206 10080 20020 30098 40210 50003 60006 878// 91200=
07070,1997-03-20 15:00:00,9,1020.6,-0.3,66,3,12000,11.112,,,300,,,,,,,,,,,wg-a,,,,AAXX 20154 07070 12662 73006 10090 20030 30095 40206 57003 60006 878// 91500=
07070,1997-03-20 18:00:00,8,1020.6,-0.1,76,4,8000,3.704,,,230,4.1,9.6,,,,,,,,,wg-a,,,,AAXX 20184 07070 12758 /2302 10080 20040 30094 40206 55001 60006 81500 91800 333 10096 20041=
07070,1997-03-20 21:00:00,7,1020.8,0.2,81,4,7000,11.112,,,230,,,,,,,,,,,wg-a,,,,AAXX 20214 07070 12757 72306 10070 20040 30096 40208 53002 60006 875// 92100=
07070,1997-03-21 00:00:00,6,1020.7,-0.1,87,4,7000,11.112,,,250,,,,,,,,,,,wg-a,,,,AAXX 21004 07070 12757 72506 10060 20040 30095 40207 57001 60006 875// 90000=
07070,1997-03-21 03:00:00,6,1020,-0.7,87,4,8000,11.112,,,250,,,,,,,,,,,wg-a,,,,AAXX 21034 07070 12658 72506 10060 20040 30088 40200 58007 60006 875// 90300=
07070,1997-03-21 06:00:00,5,1020.7,0.6,93,4,10000,7.408,,,250,5.4,7.7,,,,,,,,21,wg-a,,,,AAXX 21064 07070 02460 82504 10050 20040 30094 40207 53006 61000 72162 885// 90600 333 10077 20054 6100=
07070,1997-03-21 09:00:00,7,1022.2,1.6,93,6,4000,7.408,,,340,,,,,,,,,,10,wg-a,,,,AAXX 21094 07070 12340 73404 10070 20060 30110 40222 53016 60006 71022 878// 90900=
07070,1997-03-21 12:00:00,10,1023.1,1,62,3,15000,18.52,,,360,,,,,,,,,,,wg-a,,,,AAXX 21124 07070 12565 73610 10100 20030 30120 40231 51010 60006 878// 91200=
07070,1997-03-21 15:00:00,11,1023.5,0.4,50,1,20000,18.52,,,360,,,,,,,,,,,wg-a,,,,AAXX 21154 07070 12670 43610 10110 20010 30124 40235 51004 60006 84400 91500=
07070,1997-03-21 18:00:00,7,1024.8,1.2,61,0,20000,14.816,,,20,5.4,10.8,,,,,,,,,wg-a,,,,AAXX 21184 07070 12770 60208 10070 20000 30136 40248 53012 60006 844/2 91800 333 10108 20054=
07070,1997-03-21 21:00:00,3,1026.6,1.6,87,1,15000,11.112,,,10,,,,,,,,,,,wg-a,,,,AAXX 21214 07070 12/65 00106 10030 20010 30152 40266 51016 60006 80000 92100=
07070,1997-03-22 00:00:00,0,1027.4,0.6,93,-1,15000,3.704,,,350,,,,,,,,,,,wg-a,,,,AAXX 22004 07070 12/65 03502 10000 21010 30158 40274 51006 60006 80000 90000=
07070,1997-03-22 06:00:00,-2,1028.1,0.5,100,-2,1800,3.704,,,290,-2.7,7.4,,,,,,,,10,wg-a,,,,AAXX 22064 07070 12/18 02902 11020 21020 30164 40281 53005 60006 71000 80000 90600 333 10074 21027=
07070,1997-03-22 09:00:00,2,1028.9,1,93,1,1500,11.112,,,80,,,,,,,,,,,wg-a,,,,AAXX 22094 07070 32/15 /0806 10020 20010 30174 40289 51010 90900=
07070,1997-03-22 12:00:00,8,1027.6,-1,66,2,8000,3.704,,,20,,,,,,,,,,,wg-a,,,,AAXX 22124 07070 12558 20202 10080 20020 30164 40276 58010 60006 82100 91200=
07070,1997-03-22 15:00:00,10,1025.7,-1.9,50,0,10000,3.704,,,30,,,,,,,,,,,wg-a,,,,AAXX 22154 07070 12/60 00302 10100 20000 30145 40257 58019 60006 80000 91500=
07070,1997-03-22 18:00:00,8,1024.6,-1.1,61,1,10000,3.704,,,40,-2.1,10.5,,,,,,,,,wg-a,,,,AAXX 22184 07070 12/60 00402 10080 20010 30134 40246 55011 60006 80000 91800 333 10105 21021=
07070,1997-03-22 21:00:00,2,1024.2,-0.6,93,1,10000,3.704,,,270,,,,,,,,,,,wg-a,,,,AAXX 22214 07070 12/60 22702 10020 20010 30128 40242 56006 60006 80001 92100=
07070,1997-03-23 00:00:00,1,1022,-2.3,86,-1,9000,0,,,0,,,,,,,,,,,wg-a,,,,AAXX 23004 07070 12/59 30000 10010 21010 30105 40220 58023 60006 80001 90000=
07070,1997-03-23 03:00:00,2,1019.3,-2.6,87,0,10000,7.408,,,180,,,,,,,,,,,wg-a,,,,AAXX 23034 07070 12/60 71804 10020 20000 30079 40193 56026 60006 80001 90300=
07070,1997-03-23 06:00:00,2,1016.1,-3.2,87,0,9000,22.224,,,170,0.4,8.1,,,,,,,,,wg-a,,,,AAXX 23064 07070 02/59 71712 10020 20000 30047 40161 58032 60006 83031 90600 333 10081 20004 60004=
07070,1997-03-23 09:00:00,7,1014.3,-1.6,70,2,8000,11.112,,,190,,,,,,,,,,,wg-a,,,,AAXX 23094 07070 12858 71906 10070 20020 30031 40143 58016 60006 8707/ 90900=
07070,1997-03-23 12:00:00,12,1010.7,-3.3,62,5,10000,35.188,,,260,,,,,,,,,,,wg-a,,,,AAXX 23124 07070 12/60 72619 10120 20050 39998 40107 56033 60006 8707/ 91200=
07070,1997-03-23 15:00:00,10,1009.4,-1.4,76,6,10000,29.632,,,280,,,,,,,,,,25,wg-a,,,,AAXX 23154 07070 02660 72816 10100 20060 39984 40094 56014 61000 72582 8227/ 91500 333 ////=
07070,1997-03-23 18:00:00,10,1010.1,0.7,71,5,15000,18.52,,,300,2.2,12.2,,,,,,,,1,wg-a,,,,AAXX 23184 07070 12565 73010 10100 20050 39991 40101 53007 60006 70182 8487/ 91800 333 10122 20022=
07070,1997-03-23 21:00:00,9,1011.1,1,76,5,20000,18.52,,,290,,,,,,,,,,,wg-a,,,,AAXX 23214 07070 12770 72910 10090 20050 30001 40111 51010 60006 8357/ 92100=
07070,1997-03-24 00:00:00,8,1010.4,-0.8,81,5,15000,14.816,,,260,,,,,,,,,,,wg-a,,,,AAXX 24004 07070 12465 72608 10080 20050 39993 40104 57008 60006 875// 90000=
07070,1997-03-24 03:00:00,8,1010.2,-0.2,87,6,15000,11.112,,,270,,,,,,,,,,,wg-a,,,,AAXX 24034 07070 12465 72706 10080 20060 39991 40102 57002 60006 875// 90300=
07070,1997-03-24 06:00:00,8,1010.6,0.4,87,6,500,11.112,,,290,7.1,9.7,,,,,,,,,wg-a,,,,AAXX 24064 07070 02400 82906 10080 20060 39995 40106 51004 60006 886// 90600 333 10097 20071 61000=
07070,1997-03-24 09:00:00,8,1011.6,1,87,6,7000,14.816,,,350,,,,,,,,,,,wg-a,,,,AAXX 24094 07070 12457 73508 10080 20060 30005 40116 53010 60006 875// 90900=
07070,1997-03-24 12:00:00,11,1011.1,-0.4,62,4,10000,14.816,,,320,,,,,,,,,,,wg-a,,,,AAXX 24124 07070 12560 73208 10110 20040 30001 40111 58004 60006 878// 91200=
07070,1997-03-24 15:00:00,11,1010.5,-0.5,62,4,15000,14.816,,,280,,,,,,,,,,,wg-a,,,,AAXX 24154 07070 12665 82808 10110 20040 39996 40105 56005 60006 8587/ 91500=
07070,1997-03-24 18:00:00,10,1011.2,0.6,76,6,10000,7.408,,,60,7.5,12.4,,,,,,,,,wg-a,,,,AAXX 24184 07070 12660 80604 10100 20060 30002 40112 53006 60006 875// 91800 333 10124 20075=
07070,1997-03-24 21:00:00,8,1012.6,1.3,87,6,10000,3.704,,,290,,,,,,,,,,,wg-a,,,,AAXX 24214 07070 12560 82902 10080 20060 30015 40126 53013 60006 885// 92100=
07070,1997-03-25 00:00:00,8,1013,0.4,87,6,7000,3.704,,,80,,,,,,,,,,,wg-a,,,,AAXX 25004 07070 12757 80802 10080 20060 30019 40130 50004 60006 885// 90000=
07070,1997-03-25 03:00:00,6,1013.6,0.5,93,5,500,3.704,,,300,,,,,,,,,,,wg-a,,,,AAXX 25034 07070 12700 83002 10060 20050 30024 40136 53005 60006 885// 90300=
07070,1997-03-25 06:00:00,7,1015.1,1.6,93,6,2000,11.112,,,250,6.3,9.6,,,,,,,,10,wg-a,,,,AAXX 25064 07070 02620 /2506 10070 20060 30040 40151 53016 61000 71062 875// 90600 333 10096 20063 6100=
07070,1997-03-25 09:00:00,8,1016.1,1,93,7,1600,14.816,,,290,,,,0,,,,,,10,wg-a,,,,AAXX 25094 07070 12316 82908 10080 20070 30050 40161 52010 60007 71065 877// 90900=
07070,1997-03-25 12:00:00,10,1017.1,1.1,82,7,500,18.52,,,340,,,,0,,,,,,1,wg-a,,,,AAXX 25124 07070 02400 73410 10100 20070 30061 40171 51011 60016 70165 878// 91200 333 60007=
07070,1997-03-25 15:00:00,12,1018,0.9,62,5,8000,22.224,,,340,,,,,,,,,,,wg-a,,,,AAXX 25154 07070 12658 23412 10120 20050 30070 40180 53009 60006 82200 91500=
07070,1997-03-25 18:00:00,9,1019.5,1.4,71,4,9000,11.112,,,330,7,12.5,,,,,,,,,wg-a,,,,AAXX 25184 07070 12/59 /3306 10090 20040 30084 40195 53014 60006 80001 91800 333 10125 20070=
07070,1997-03-25 21:00:00,4,1021.1,1.4,93,3,7000,3.704,,,240,,,,,,,,,,,wg-a,,,,AAXX 25214 07070 12/57 02402 10040 20030 30098 40211 51014 60006 80000 92100=
07070,1997-03-26 00:00:00,2,1021.7,0.5,93,1,6000,7.408,,,190,,,,,,,,,,,wg-a,,,,AAXX 26004 07070 12656 /1904 10020 20010 30103 40217 51005 60006 81500 90000=
07070,1997-03-26 03:00:00,2,1021.3,-0.4,93,1,6000,3.704,,,190,,,,,,,,,,,wg-a,,,,AAXX 26034 07070 12756 31902 10020 20010 30099 40213 58004 60006 82502 90300=
07070,1997-03-26 06:00:00,1,1022,0.6,100,1,3000,3.704,,,230,0.3,8.9,,,,,1,,,10,wg-a,,,,AAXX 26064 07070 02/30 /2302 10010 20010 30105 40220 50006 60006 71011 82032 90600 333 10089 20003 60014=
07070,1997-03-26 12:00:00,14,1020.9,-0.9,55,5,10000,25.928,,,250,,,,,,,,,,,wg-a,,,,AAXX 26124 07070 12660 72514 10140 20050 30100 40209 56009 60006 8123/ 91200=
07070,1997-03-26 18:00:00,14,1019.3,-0.1,58,6,12000,18.52,,,240,0.8,15,,,,,,,,3,wg-a,,,,AAXX 26184 07070 12762 72410 10140 20060 30084 40193 55001 60006 70382 8357/ 91800 333 10150 20008=
07070,1997-03-26 21:00:00,13,1020.3,0.9,58,5,15000,18.52,,,250,,,,,,,,,,,wg-a,,,,AAXX 26214 07070 12665 82510 10130 20050 30093 40203 51009 60006 8657/ 92100=
07070,1997-03-27 00:00:00,12,1020.5,0.2,76,8,15000,18.52,,,250,,,,,,,,,,,wg-a,,,,AAXX 27004 07070 12565 82510 10120 20080 30095 40205 51002 60006 875// 90000=
07070,1997-03-27 03:00:00,12,1021,0.5,88,10,10000,14.816,,,260,,,,,,,,,,,wg-a,,,,AAXX 27034 07070 12460 82608 10120 20100 30100 40210 51005 60006 875// 90300=
07070,1997-03-27 06:00:00,11,1021.7,0.7,100,11,3800,14.816,,,250,11.1,14.2,,,,,,,,10,wg-a,,,,AAXX 27064 07070 02438 82508 10110 20110 30107 40217 53007 61000 71052 875// 90600 333 10142 20111 6100=
07070,1997-03-27 09:00:00,12,1022.8,1.1,94,11,4000,14.816,,,260,,,,0,,,,,,10,wg-a,,,,AAXX 27094 07070 12340 82608 10120 20110 30118 40228 51011 60007 71055 878// 90900=
07070,1997-03-27 12:00:00,14,1022.3,-0.4,77,10,10000,22.224,,,270,,,,,,,,,,1,wg-a,,,,AAXX 27124 07070 02460 72712 10140 20100 30114 40223 58004 60006 70152 878// 91200 333 61000=
07070,1997-03-27 15:00:00,16,1020.5,-1.8,68,10,12000,18.52,,,260,,,,,,,,,,,wg-a,,,,AAXX 27154 07070 12562 62610 10160 20100 30096 40205 57018 60006 86800 91500=
07070,1997-03-27 18:00:00,14,1019.1,-1.4,77,10,12000,14.816,,,250,11.1,16.3,,,,,,,,,wg-a,,,,AAXX 27184 07070 12662 72508 10140 20100 30082 40191 56014 60006 874// 91800 333 10163 20111=
07070,1997-03-27 21:00:00,13,1017.9,-1.2,88,11,10000,14.816,,,230,,,,,,,,,,,wg-a,,,,AAXX 27214 07070 12660 /2308 10130 20110 30070 40179 58012 60006 85500 92100=
07070,1997-03-28 00:00:00,14,1015.6,-2.3,82,11,15000,31.484,,53.708,260,,,,,,,,,,,wg-a,,,,AAXX 28004 07070 12465 72617 10140 20110 30047 40156 57023 60006 875// 90000 333 91029=
07070,1997-03-28 03:00:00,12,1015.1,-0.6,76,8,10000,38.892,,64.82,290,,,,,,,,,,61,wg-a,,,,AAXX 28034 07070 02560 82921 10120 20080 30041 40151 55006 61000 76162 885// 90300 333 //// 91035=
07070,1997-03-28 06:00:00,9,1017.1,1.9,76,5,20000,29.632,,,310,8.7,14.3,,,,,,,,3,wg-a,,,,AAXX 28064 07070 02570 73116 10090 20050 30060 40171 53019 60006 70362 86801 90600 333 10143 20087 60004=
07070,1997-03-28 09:00:00,9,1019.5,2.4,66,3,25000,35.188,,53.708,320,,,,,,,,,,,wg-a,,,,AAXX 28094 07070 12575 /3219 10090 20030 30084 40195 51024 60006 85200 90900 333 91029=
07070,1997-03-28 12:00:00,11,1021.1,1.6,50,1,25000,31.484,,50.004,330,,,,,,,,,,,wg-a,,,,AAXX 28124 07070 12675 /3317 10110 20010 30100 40211 51016 60006 86200 91200 333 91027=
07070,1997-03-28 15:00:00,10,1021.9,0.8,50,0,25000,29.632,,,330,,,,,,,,,,,wg-a,,,,AAXX 28154 07070 12775 73316 10100 20000 30108 40219 51008 60006 872// 91500=
07070,1997-03-28 18:00:00,8,1022.8,0.8,53,-1,25000,18.52,,,330,8.2,11.1,,,,,,,,,wg-a,,,,AAXX 28184 07070 12775 33310 10080 21010 30116 40228 53008 60006 83200 91800 333 10111 20082=
07070,1997-03-28 21:00:00,4,1023.9,0.9,70,-1,15000,11.112,,,300,,,,,,,,,,,wg-a,,,,AAXX 28214 07070 12765 23006 10040 21010 30125 40239 50009 60006 82400 92100=
07070,1997-03-29 00:00:00,4,1024.3,0.4,75,0,12000,14.816,,,310,,,,,,,,,,,wg-a,,,,AAXX 29004 07070 12/62 03108 10040 20000 30129 40243 51004 60006 80000 90000=
07070,1997-03-29 03:00:00,2,1024.6,0.2,87,0,10000,7.408,,,290,,,,,,,,,,,wg-a,,,,AAXX 29034 07070 12/60 02904 10020 20000 30131 40246 53002 60006 80000 90300=
07070,1997-03-29 06:00:00,1,1025.4,0.8,93,0,10000,7.408,,,250,0.3,8.3,,,,,,,,,wg-a,,,,AAXX 29064 07070 12760 12504 10010 20000 30139 40254 53008 60006 81400 90600 333 10083 20003=
07070,1997-03-29 09:00:00,7,1025.4,0.2,81,4,8000,14.816,,,320,,,,,,,,,,,wg-a,,,,AAXX 29094 07070 12458 63208 10070 20040 30141 40254 51002 60006 85801 90900=
07070,1997-03-29 12:00:00,9,1025.3,0,57,1,12000,18.52,,,310,,,,,,,,,,,wg-a,,,,AAXX 29124 07070 12662 73110 10090 20010 30141 40253 50000 60006 878// 91200=
07070,1997-03-29 15:00:00,9,1024.7,-0.6,61,2,10000,18.52,,,340,,,,,,,,,,3,wg-a,,,,AAXX 29154 07070 02660 73410 10090 20020 30135 40247 57006 61000 70362 878// 91500 333 ////=
07070,1997-03-29 18:00:00,9,1025.3,0.6,61,2,10000,14.816,,,340,0.7,10.3,,,,,,,,1,wg-a,,,,AAXX 29184 07070 12760 63408 10090 20020 30141 40253 53006 60006 70162 86500 91800 333 10103 20007=
07070,1997-03-29 21:00:00,4,1026.4,0.9,87,2,20000,11.112,,,340,,,,,,,,,,,wg-a,,,,AAXX 29214 07070 12770 23406 10040 20020 30150 40264 53009 60006 82500 92100=
07070,1997-03-30 00:00:00,3,1026.9,0.4,87,1,10000,7.408,,,280,,,,,,,,,,,wg-a,,,,AAXX 30004 07070 12760 62804 10030 20010 30154 40269 51004 60006 86500 90000=
07070,1997-03-30 03:00:00,3,1027,0.1,87,1,10000,7.408,,,220,,,,,,,,,,,wg-a,,,,AAXX 30034 07070 12760 52204 10030 20010 30155 40270 51001 60006 85500 90300=
07070,1997-03-30 06:00:00,3,1027,0.1,93,2,8000,7.408,,,240,1.9,8.5,,,,,,,,,wg-a,,,,AAXX 30064 07070 02758 32404 10030 20020 30156 40270 53001 60006 83500 90600 333 10085 20019 61000=
07070,1997-03-30 09:00:00,9,1027.9,1.1,81,6,7000,11.112,,,360,,,,,,,,,,,wg-a,,,,AAXX 30094 07070 12757 /3606 10090 20060 30167 40279 53011 60006 86500 90900=
07070,1997-03-30 12:00:00,11,1027.4,-0.4,66,5,10000,3.704,,,20,,,,,,,,,,,wg-a,,,,AAXX 30124 07070 12660 70202 10110 20050 30163 40274 58004 60006 872// 91200=
07070,1997-03-30 15:00:00,13,1026.7,-0.6,51,3,12000,11.112,,,350,,,,,,,,,,,wg-a,,,,AAXX 30154 07070 12762 63506 10130 20030 30157 40267 56006 60006 86500 91500=
07070,1997-03-30 18:00:00,10,1027.2,0.3,66,4,10000,7.408,,,50,2.8,13.1,,,,,,,,,wg-a,,,,AAXX 30184 07070 12760 20504 10100 20040 30160 40272 53003 60006 82500 91800 333 10131 20028=
07070,1997-03-30 21:00:00,4,1027.7,0.3,87,2,8000,3.704,,,80,,,,,,,,,,,wg-a,,,,AAXX 30214 07070 12/58 00802 10040 20020 30163 40277 51003 60006 80000 92100=
07070,1997-03-31 00:00:00,2,1028,0.2,93,1,10000,3.704,,,290,,,,,,,,,,,wg-a,,,,AAXX 31004 07070 12/60 02902 10020 20010 30165 40280 51002 60006 80000 90000=
07070,1997-03-31 06:00:00,-1,1028,0.4,100,-1,900,0,,,0,-1.3,10,,,,,,,,44,wg-a,,,,AAXX 31064 07070 12/09 /0000 11010 21010 30164 40280 53004 60006 74440 80001 90600 333 10100 21013=
07070,1997-03-31 09:00:00,9,1028.2,0.6,76,5,8000,0,,,0,,,,,,,,,,,wg-a,,,,AAXX 31094 07070 12/58 00000 10090 20050 30170 40282 52006 60006 80000 90900=
07070,1997-03-31 12:00:00,14,1026.8,-1.2,47,3,12000,11.112,,,110,,,,,,,,,,,wg-a,,,,AAXX 31124 07070 12/62 01106 10140 20030 30158 40268 58012 60006 80000 91200=
07070,1997-03-31 15:00:00,16,1024.9,-1.8,48,5,15000,7.408,,,40,,,,,,,,,,,wg-a,,,,AAXX 31154 07070 12/65 00404 10160 20050 30140 40249 58018 60006 80000 91500=
07070,1997-03-31 18:00:00,13,1024.1,-0.9,62,6,15000,7.408,,,40,-1,15.8,,,,,,,,,wg-a,,,,AAXX 31184 07070 12/65 00404 10130 20060 30131 40241 56009 60006 80000 91800 333 10158 21010=
07070,1997-03-31 21:00:00,6,1024.3,-0.1,87,4,12000,3.704,,,80,,,,,,,,,,,wg-a,,,,AAXX 31214 07070 12/62 00802 10060 20040 30130 40243 55001 60006 80000 92100=
07070,1997-04-01 00:00:00,4,1024,-0.4,87,2,9000,3.704,,,280,,,,,,,,,,,wg-a,,,,AAXX 01004 07070 12/59 02802 10040 20020 30126 40240 58004 60006 80000 90000=
07070,1997-04-01 03:00:00,2,1023.4,-0.7,93,1,7000,0,,,0,,,,,,,,,,,wg-a,,,,AAXX 01034 07070 12/57 00000 10020 20010 30119 40234 56007 60006 80000 90300=
07070,1997-04-01 06:00:00,0,1023.7,0.3,93,-1,2000,0,,,0,-0.3,13.3,,,,,,,,10,wg-a,,,,AAXX 01064 07070 12/20 00000 10000 21010 30122 40237 53003 60006 71000 80000 90600 333 10133 21003=
07070,1997-04-01 09:00:00,11,1023.7,0.4,76,7,6000,3.704,,,70,,,,,,,,,,,wg-a,,,,AAXX 01094 07070 12/56 00702 10110 20070 30126 40237 50004 60006 80000 90900=
07070,1997-04-01 12:00:00,17,1022.5,-0.9,52,7,0,7.408,,,50,,,,,,,,,,,wg-a,,,,AAXX 01124 07070 12/// /0504 10170 20070 30117 40225 58009 60006 91200=
07070,1997-04-01 15:00:00,19,1020.8,-1.6,40,5,15000,7.408,,,360,,,,,,,,,,,wg-a,,,,AAXX 01154 07070 12/65 03604 10190 20050 30101 40208 56016 60006 80000 91500=
07070,1997-04-01 18:00:00,16,1020.4,-0.6,51,6,15000,11.112,,,30,-0.1,19.2,,,,,,,,,wg-a,,,,AAXX 01184 07070 12/65 00306 10160 20060 30095 40204 55006 60006 80000 91800 333 10192 21001=
07070,1997-04-01 21:00:00,9,1021.4,0.8,81,6,12000,7.408,,,340,,,,,,,,,,,wg-a,,,,AAXX 01214 07070 12/62 03404 10090 20060 30103 40214 51008 60006 80000 92100=
07070,1997-04-02 00:00:00,6,1021.3,-0.3,87,4,10000,0,,,0,,,,,,,,,,,wg-a,,,,AAXX 02004 07070 12/60 00000 10060 20040 30100 40213 57003 60006 80000 90000=
07070,1997-04-02 03:00:00,3,1020.7,-0.7,100,3,8000,0,,,0,,,,,,,,,,,wg-a,,,,AAXX 02034 07070 12/58 00000 10030 20030 30093 40207 58007 60006 80000 90300=
07070,1997-04-02 06:00:00,4,1020.7,-0,93,3,2100,0,,,0,2.8,16.1,,,,,,,,10,wg-a,,,,AAXX 02064 07070 12/21 70000 10040 20030 30093 40207 55000 60006 71011 80002 90600 333 10161 20028=
07070,1997-04-02 12:00:00,15,1019.3,-0.9,63,8,3200,7.408,,,350,,,,,,,,,,5,wg-a,,,,AAXX 02124 07070 12/32 /3504 10150 20080 30084 40193 56009 60006 70522 80002 91200=
07070,1997-04-02 18:00:00,14,1017.2,-0.5,63,7,4000,7.408,,,330,2.9,17.7,,,,,,,,5,wg-a,,,,AAXX 02184 07070 12/40 73304 10140 20070 30063 40172 56005 60006 70522 800/2 91800 333 10177 20029=
07070,1997-04-02 21:00:00,10,1017.9,0.5,71,5,6000,11.112,,,310,,,,,,,,,,,wg-a,,,,AAXX 02214 07070 12/56 03106 10100 20050 30068 40179 51005 60006 80000 92100=
07070,1997-04-03 00:00:00,4,1017,-1.1,93,3,6000,7.408,,,200,,,,,,,,,,,wg-a,,,,AAXX 03004 07070 12/56 02004 10040 20030 30057 40170 58011 60006 80000 90000=
07070,1997-04-03 03:00:00,4,1016,-1,93,3,3000,3.704,,,230,,,,,,,,,,10,wg-a,,,,AAXX 03034 07070 12/30 02302 10040 20030 30047 40160 58010 60006 71000 80000 90300=
07070,1997-04-03 06:00:00,4,1016.3,0.3,87,2,3500,7.408,,,200,2.8,14.1,,,,,,,,10,wg-a,,,,AAXX 03064 07070 12635 22004 10040 20020 30050 40163 51003 60006 71000 82100 90600 333 10141 20028=
07070,1997-04-03 09:00:00,11,1016.3,0.3,76,7,6000,29.632,,,290,,,,,,,,,,,wg-a,,,,AAXX 03094 07070 12456 32916 10110 20070 30053 40163 53003 60006 83800 90900=
07070,1997-04-03 12:00:00,13,1016.1,-0.1,62,6,10000,22.224,,,290,,,,,,,,,,,wg-a,,,,AAXX 03124 07070 12560 72912 10130 20060 30052 40161 56001 60006 872// 91200=
07070,1997-04-03 15:00:00,12,1016.5,0.3,71,7,10000,22.224,,,300,,,,,,,,,,,wg-a,,,,AAXX 03154 07070 12560 83012 10120 20070 30055 40165 50003 60006 888// 91500=
07070,1997-04-03 18:00:00,12,1016.5,0,58,4,25000,25.928,,,300,3.7,13.2,,,,,,,,,wg-a,,,,AAXX 03184 07070 12775 73014 10120 20040 30055 40165 50000 60006 875// 91800 333 10132 20037=
07070,1997-04-03 21:00:00,10,1018.2,1.6,71,5,12000,14.816,,,300,,,,,,,,,,,wg-a,,,,AAXX 03214 07070 12662 73008 10100 20050 30071 40182 51016 60006 875// 92100=
07070,1997-04-04 00:00:00,7,1019.6,1.3,87,5,10000,14.816,,,320,,,,2,,,,,,1,wg-a,,,,AAXX 04004 07070 02760 73208 10070 20050 30084 40196 51013 60026 70162 87500 90000 333 60027=
07070,1997-04-04 03:00:00,5,1021,1.3,81,2,10000,22.224,,,330,,,,,,,,,,,wg-a,,,,AAXX 04034 07070 12760 33312 10050 20020 30097 40210 53013 60006 83500 90300=
07070,1997-04-04 06:00:00,4,1023.8,2.7,87,2,15000,22.224,,,330,3.6,11.5,,,,,2,,,,wg-a,,,,AAXX 04064 07070 02465 33312 10040 20020 30124 40238 53027 60006 81802 90600 333 10115 20036 60024=
07070,1997-04-04 09:00:00,7,1026.2,2.5,70,2,15000,25.928,,,360,,,,,,,,,,,wg-a,,,,AAXX 04094 07070 12565 63614 10070 20020 30149 40262 51025 60006 83201 90900=
07070,1997-04-04 12:00:00,9,1027.1,1,53,0,15000,22.224,,,320,,,,,,,,,,1,wg-a,,,,AAXX 04124 07070 12665 73212 10090 20000 30159 40271 51010 60006 70181 878// 91200=
07070,1997-04-04 18:00:00,8,1027.1,-0.2,42,-4,25000,14.816,,,340,5.7,13,,,,,,,,,wg-a,,,,AAXX 04184 07070 12/75 /3408 10080 21040 30158 40271 55002 60006 8253/ 91800 333 10130 20057=
07070,1997-04-04 21:00:00,4,1028.1,0.9,60,-3,25000,3.704,,,300,,,,,,,,,,,wg-a,,,,AAXX 04214 07070 12/75 03002 10040 21030 30167 40281 51009 60006 80000 92100=
07070,1997-04-05 00:00:00,2,1027.7,-0.5,80,-1,20000,7.408,,,210,,,,,,,,,,,wg-a,,,,AAXX 05004 07070 12/70 72104 10020 21010 30162 40277 56005 60006 8703/ 90000=
07070,1997-04-05 03:00:00,2,1025,-2.7,75,-2,20000,7.408,,,220,,,,,,,,,,,wg-a,,,,AAXX 05034 07070 12/70 72204 10020 21020 30135 40250 56027 60006 8707/ 90300=
07070,1997-04-05 06:00:00,6,1022.2,-2.6,65,0,15000,25.928,,,230,0.7,7.6,,,,,,,,,wg-a,,,,AAXX 05064 07070 12765 72314 10060 20000 30109 40222 56026 60006 8357/ 90600 333 10076 20007=
07070,1997-04-05 09:00:00,8,1021.3,-0.8,76,4,15000,35.188,,,270,,,,,,,,,,,wg-a,,,,AAXX 05094 07070 12465 72719 10080 20040 30101 40213 56008 60006 8217/ 90900=
07070,1997-04-05 12:00:00,11,1019.6,-1.5,76,7,10000,25.928,,,260,,,,,,,,,,,wg-a,,,,AAXX 05124 07070 12560 82614 10110 20070 30086 40196 58015 60006 885// 91200=
07070,1997-04-05 15:00:00,13,1018.1,-1.5,67,7,16000,31.484,,61.116,290,,,,,,,,,,,wg-a,,,,AAXX 05154 07070 12566 72917 10130 20070 30071 40181 56015 60006 875// 91500 333 91033=
07070,1997-04-05 18:00:00,11,1017.5,-0.6,71,6,16000,29.632,,,280,5.7,12.6,,,,,,,,,wg-a,,,,AAXX 05184 07070 12566 /2816 10110 20060 30065 40175 55006 60006 81200 91800 333 10126 20057=
07070,1997-04-05 21:00:00,12,1018.5,1,71,7,8000,29.632,,,280,,,,,,,,,,,wg-a,,,,AAXX 05214 07070 12658 82816 10120 20070 30075 40185 51010 60006 885// 92100=
07070,1997-04-06 00:00:00,11,1019.3,0.8,82,8,6000,22.224,,,290,,,,,,,,,,51,wg-a,,,,AAXX 06004 07070 02556 82912 10110 20080 30083 40193 53008 61000 75152 885// 90000 333 6100=
07070,1997-04-06 03:00:00,11,1019.5,0.2,82,8,6000,18.52,,,300,,,,,,,,,,,wg-a,,,,AAXX 06034 07070 12456 83010 10110 20080 30085 40195 53002 60006 885// 90300=
07070,1997-04-06 06:00:00,10,1021.9,2.3,93,9,6000,22.224,,,340,9.8,11.8,,,,,,,,1,wg-a,,,,AAXX 06064 07070 12556 73412 10100 20090 30108 40219 53023 60006 70162 875// 90600 333 10118 20098=
07070,1997-04-06 09:00:00,9,1025.4,3.4,66,3,10000,25.928,,,20,,,,,,,,,,,wg-a,,,,AAXX 06094 07070 12560 /0214 10090 20030 30142 40254 51034 60006 81200 90900=
07070,1997-04-06 12:00:00,11,1026.4,1.1,47,0,15000,22.224,,,40,,,,,,,,,,,wg-a,,,,AAXX 06124 07070 12/65 10412 10110 20000 30153 40264 51011 60006 80001 91200=
07070,1997-04-06 15:00:00,12,1026.6,0.2,44,0,15000,18.52,,,40,,,,,,,,,,,wg-a,,,,AAXX 06154 07070 12/65 20410 10120 20000 30155 40266 51002 60006 80001 91500=
07070,1997-04-06 18:00:00,9,1027.9,1.2,46,-2,15000,18.52,,,30,8.5,12.2,,,,,,,,,wg-a,,,,AAXX 06184 07070 12/65 00310 10090 21020 30167 40279 53012 60006 80000 91800 333 10122 20085=
07070,1997-04-06 21:00:00,3,1030.2,2,70,-2,15000,14.816,,,50,,,,,,,,,,,wg-a,,,,AAXX 06214 07070 12/65 00508 10030 21020 30187 40302 51020 60006 80000 92100=
07070,1997-04-07 00:00:00,0,1031.2,0.9,86,-2,15000,3.704,,,70,,,,,,,,,,,wg-a,,,,AAXX 07004 07070 12/65 00702 10000 21020 30196 40312 51009 60006 80000 90000=
07070,1997-04-07 03:00:00,-2,1031.7,0.4,86,-4,15000,3.704,,,40,,,,,,,,,,,wg-a,,,,AAXX 07034 07070 12/65 00402 11020 21040 30200 40317 53004 60006 80000 90300=
07070,1997-04-07 06:00:00,-3,1032.6,0.8,93,-4,15000,3.704,,,40,-3,9.3,,,,,,,,,wg-a,,,,AAXX 07064 07070 12/65 00402 11030 21040 30208 40326 53008 60006 80000 90600 333 10093 21030=
07070,1997-04-07 12:00:00,11,1031.2,-0.8,40,-2,20000,18.52,,,90,,,,,,,,,,,wg-a,,,,AAXX 07124 07070 12/70 20910 10110 21020 30200 40312 58008 60006 80001 91200=
07070,1997-04-07 15:00:00,13,1030,-1.1,26,-6,25000,22.224,,,80,,,,,,,,,,,wg-a,,,,AAXX 07154 07070 12/75 70812 10130 21060 30189 40300 58011 60006 80002 91500=
07070,1997-04-07 18:00:00,10,1029.5,-0.6,40,-3,25000,14.816,,,90,-2.6,12.9,,,,,,,,,wg-a,,,,AAXX 07184 07070 12/75 30908 10100 21030 30183 40295 56006 60006 80001 91800 333 10129 21026=
07070,1997-04-07 21:00:00,2,1030.3,0.5,75,-2,25000,11.112,,,90,,,,,,,,,,,wg-a,,,,AAXX 07214 07070 12/75 00906 10020 21020 30188 40303 50005 60006 80000 92100=
07070,1997-04-08 00:00:00,2,1029.7,-0.6,60,-5,20000,0,,,0,,,,,,,,,,,wg-a,,,,AAXX 08004 07070 12/70 00000 10020 21050 30182 40297 58006 60006 80000 90000=
07070,1997-04-08 03:00:00,0,1029.4,-0.4,59,-7,25000,7.408,,,20,,,,,,,,,,,wg-a,,,,AAXX 08034 07070 12/75 00204 10000 21070 30178 40294 58004 60006 80000 90300=
07070,1997-04-08 06:00:00,-1,1029.5,0.1,69,-6,20000,3.704,,,80,-1.9,10,,,,,,,,,wg-a,,,,AAXX 08064 07070 12/70 10802 11010 21060 30179 40295 51001 60006 80002 90600 333 10100 21019=
07070,1997-04-08 09:00:00,9,1029.1,-0,37,-5,25000,22.224,,,100,,,,,,,,,,,wg-a,,,,AAXX 08094 07070 12/75 11012 10090 21050 30179 40291 55000 60006 80001 90900=
07070,1997-04-08 12:00:00,14,1027.5,-1.4,24,-6,25000,25.928,,,100,,,,,,,,,,,wg-a,,,,AAXX 08124 07070 12/75 11014 10140 21060 30165 40275 58014 60006 80001 91200=
07070,1997-04-08 15:00:00,16,1025.9,-1.5,23,-5,25000,18.52,,,100,,,,,,,,,,,wg-a,,,,AAXX 08154 07070 12/75 11010 10160 21050 30150 40259 58015 60006 80001 91500=
07070,1997-04-08 18:00:00,12,1026,-0.1,35,-3,25000,14.816,,,100,-0.6,16.6,,,,,,,,,wg-a,,,,AAXX 08184 07070 12/75 61008 10120 21030 30149 40260 55001 60006 80001 91800 333 10166 21006=
07070,1997-04-08 21:00:00,4,1027.1,0.8,65,-2,15000,11.112,,,100,,,,,,,,,,,wg-a,,,,AAXX 08214 07070 12/65 31006 10040 21020 30157 40271 53008 60006 80001 92100=
07070,1997-04-09 00:00:00,3,1027.6,0.5,60,-4,15000,7.408,,,90,,,,,,,,,,,wg-a,,,,AAXX 09004 07070 12/65 50904 10030 21040 30162 40276 52005 60006 80001 90000=
07070,1997-04-09 03:00:00,1,1027.8,0,75,-3,15000,7.408,,,70,,,,,,,,,,,wg-a,,,,AAXX 09034 07070 12/65 10704 10010 21030 30162 40278 50000 60006 80001 90300=
07070,1997-04-09 06:00:00,0,1028.3,0.5,80,-3,10000,11.112,,,80,-1,11.8,,,,,,,,,wg-a,,,,AAXX 09064 07070 12/60 70806 10000 21030 30167 40283 53005 60006 80001 90600 333 10118 21010=
07070,1997-04-09 09:00:00,11,1028.5,0.7,47,0,10000,7.408,,,100,,,,,,,,,,,wg-a,,,,AAXX 09094 07070 12/60 71004 10110 20000 30174 40285 52007 60006 80001 90900=
07070,1997-04-09 12:00:00,18,1028.1,-0.2,34,2,10000,3.704,,,100,,,,,,,,,,,wg-a,,,,AAXX 09124 07070 12/60 71002 10180 20020 30172 40281 58002 60006 80001 91200=
07070,1997-04-09 15:00:00,20,1027.4,-0.6,30,2,10000,3.704,,,320,,,,,,,,,,,wg-a,,,,AAXX 09154 07070 12/60 73202 10200 20020 30166 40274 58006 60006 80001 91500=
07070,1997-04-09 18:00:00,17,1028.1,0.6,36,2,12000,3.704,,,30,-0.2,19.6,,,,,,,,,wg-a,,,,AAXX 09184 07070 12/62 70302 10170 20020 30172 40281 53006 60006 80001 91800 333 10196 21002=
07070,1997-04-09 21:00:00,8,1029.8,1.3,66,2,15000,3.704,,,330,,,,,,,,,,,wg-a,,,,AAXX 09214 07070 12/65 03302 10080 20020 30185 40298 53013 60006 80000 92100=
07070,1997-04-10 00:00:00,5,1030.5,0.6,81,2,15000,0,,,0,,,,,,,,,,,wg-a,,,,AAXX 10004 07070 12/65 00000 10050 20020 30191 40305 53006 60006 80000 90000=
07070,1997-04-10 03:00:00,2,1030.9,0.3,80,-1,10000,0,,,0,,,,,,,,,,,wg-a,,,,AAXX 10034 07070 12/60 00000 10020 21010 30194 40309 51003 60006 80000 90300=
07070,1997-04-10 06:00:00,1,1031.9,0.9,93,0,7000,3.704,,,240,0.4,17.3,,,,,,,,,wg-a,,,,AAXX 10064 07070 12/57 /2402 10010 20000 30203 40319 53009 60006 80001 90600 333 10173 20004=
07070,1997-04-10 09:00:00,13,1032.1,0.7,58,5,8000,3.704,,,30,,,,,,,,,,,wg-a,,,,AAXX 10094 07070 12/58 /0302 10130 20050 30210 40321 52007 60006 80001 90900=
07070,1997-04-10 12:00:00,19,1031.1,-0.8,30,1,9000,11.112,,,350,,,,,,,,,,,wg-a,,,,AAXX 10124 07070 12/59 33506 10190 20010 30202 40311 57008 60006 80001 91200=
07070,1997-04-10 15:00:00,20,1029.2,-1.8,24,-1,20000,14.816,,,10,,,,,,,,,,,wg-a,,,,AAXX 10154 07070 12/70 70108 10200 21010 30184 40292 56018 60006 80001 91500=
07070,1997-04-10 18:00:00,15,1029.1,-0.3,48,4,10000,11.112,,,350,1.2,20.3,,,,,,,,,wg-a,,,,AAXX 10184 07070 12/60 73506 10150 20040 30181 40291 56003 60006 80001 91800 333 10203 20012=
07070,1997-04-10 21:00:00,10,1029.6,0.3,53,1,8000,3.704,,,310,,,,,,,,,,,wg-a,,,,AAXX 10214 07070 12/58 73102 10100 20010 30184 40296 50003 60006 80001 92100=
07070,1997-04-11 00:00:00,6,1028.7,-1,75,2,8000,3.704,,,230,,,,,,,,,,,wg-a,,,,AAXX 11004 07070 12/58 72302 10060 20020 30174 40287 58010 60006 80001 90000=
07070,1997-04-11 03:00:00,4,1027.4,-1.4,81,1,6000,3.704,,,250,,,,,,,,,,,wg-a,,,,AAXX 11034 07070 12/56 /2502 10040 20010 30160 40274 58014 60006 80001 90300=
07070,1997-04-11 06:00:00,6,1026.1,-1.2,70,1,500,3.704,,,260,3,15.3,,,,,,,,,wg-a,,,,AAXX 11064 07070 12/00 /2602 10060 20010 30148 40261 56012 60006 80001 90600 333 10153 20030=
07070,1997-04-11 09:00:00,14,1024.5,-1.3,47,3,8000,18.52,,,310,,,,,,,,,,,wg-a,,,,AAXX 11094 07070 12/58 /3110 10140 20030 30135 40245 58013 60006 80001 90900=
07070,1997-04-11 12:00:00,17,1023.2,-1.2,55,8,8000,29.632,,,330,,,,,,,,,,,wg-a,,,,AAXX 11124 07070 12558 43316 10170 20080 30123 40232 56012 60006 84201 91200=
07070,1997-04-11 15:00:00,11,1024.4,1,71,6,8000,31.484,,,350,,,,,,,,,,,wg-a,,,,AAXX 11154 07070 12558 83517 10110 20060 30133 40244 53010 60006 882// 91500=
07070,1997-04-11 18:00:00,9,1025.8,1.3,57,1,10000,31.484,,50.004,10,5.6,16.9,,,,,,,,,wg-a,,,,AAXX 11184 07070 12660 80117 10090 20010 30146 40258 53013 60006 82277 91800 333 10169 20056 91027=
07070,1997-04-11 21:00:00,3,1028.7,2.6,75,-1,10000,14.816,,,350,,,,,,,,,,,wg-a,,,,AAXX 11214 07070 12/60 33508 10030 21010 30172 40287 51026 60006 80001 92100=
07070,1997-04-12 00:00:00,2,1029.2,0.5,80,-1,10000,18.52,,,10,,,,,,,,,,,wg-a,,,,AAXX 12004 07070 12/60 00110 10020 21010 30177 40292 51005 60006 80000 90000=
07070,1997-04-12 03:00:00,-1,1028.8,-0.5,93,-2,10000,7.408,,,320,,,,,,,,,,,wg-a,,,,AAXX 12034 07070 12/60 03204 11010 21020 30172 40288 58005 60006 80000 90300=
07070,1997-04-12 06:00:00,-1,1029.1,0.3,93,-2,10000,7.408,,,350,-2,8.6,,,,,,,,,wg-a,,,,AAXX 12064 07070 12/60 63504 11010 21020 30175 40291 51003 60006 81102 90600 333 10086 21020=
07070,1997-04-12 09:00:00,8,1028.5,-0.3,61,1,15000,25.928,,,20,,,,,,,,,,,wg-a,,,,AAXX 12094 07070 12565 /0214 10080 20010 30172 40285 58003 60006 85200 90900=
07070,1997-04-12 12:00:00,9,1027.6,-0.8,53,0,15000,25.928,,,30,,,,,,,,,,,wg-a,,,,AAXX 12124 07070 12665 70314 10090 20000 30164 40276 58008 60006 875// 91200=
07070,1997-04-12 15:00:00,10,1026.9,-0.7,53,1,15000,22.224,,,10,,,,,,,,,,,wg-a,,,,AAXX 12154 07070 12665 70112 10100 20010 30157 40269 57007 60006 818// 91500=
07070,1997-04-12 18:00:00,8,1026.8,-0.1,53,-1,15000,22.224,,,360,-0.7,10,,,,,,,,,wg-a,,,,AAXX 12184 07070 12765 73612 10080 21010 30156 40268 55001 60006 875// 91800 333 10100 21007=
07070,1997-04-12 21:00:00,6,1027.7,0.7,70,1,20000,22.224,,,10,,,,,,,,,,,wg-a,,,,AAXX 12214 07070 12770 50112 10060 20010 30163 40277 51007 60006 85500 92100=
07070,1997-04-13 00:00:00,2,1027.8,0,87,0,15000,14.816,,,350,,,,,,,,,,,wg-a,,,,AAXX 13004 07070 12/65 03508 10020 20000 30163 40278 50000 60006 80000 90000=
07070,1997-04-13 03:00:00,-1,1027.7,-0.2,100,-1,10000,7.408,,,310,,,,,,,,,,,wg-a,,,,AAXX 13034 07070 12/60 03104 11010 21010 30161 40277 56002 60006 80000 90300=
07070,1997-04-13 06:00:00,-1,1028.3,0.6,100,-1,6000,3.704,,,300,-1.3,8.3,,,,,,,,,wg-a,,,,AAXX 13064 07070 12656 /3002 11010 21010 30167 40283 53006 60006 81500 90600 333 10083 21013=
07070,1997-04-13 09:00:00,8,1028.1,0.1,61,1,12000,11.112,,,50,,,,,,,,,,,wg-a,,,,AAXX 13094 07070 12562 30506 10080 20010 30168 40281 50001 60006 83200 90900=
07070,1997-04-13 12:00:00,10,1026.9,-1.1,50,0,20000,14.816,,,20,,,,,,,,,,,wg-a,,,,AAXX 13124 07070 12670 30208 10100 20000 30157 40269 56011 60006 83200 91200=
07070,1997-04-13 15:00:00,12,1025.3,-1.5,47,1,20000,14.816,,,350,,,,,,,,,,,wg-a,,,,AAXX 13154 07070 12770 13508 10120 20010 30142 40253 57015 60006 81100 91500=
07070,1997-04-13 18:00:00,11,1024.5,-0.8,54,2,15000,11.112,,,360,-0.5,12.3,,,,,,,,,wg-a,,,,AAXX 13184 07070 12/65 03606 10110 20020 30134 40245 55008 60006 80000 91800 333 10123 21005=
07070,1997-04-13 21:00:00,4,1025.1,0.3,81,1,10000,14.816,,,350,,,,,,,,,,,wg-a,,,,AAXX 13214 07070 12/60 /3508 10040 20010 30137 40251 51003 60006 92100=
07070,1997-04-14 00:00:00,2,1024.9,,87,0,10000,3.704,,,340,,,,,,,,,,,wg-a,,,,AAXX 14004 07070 12/60 03402 10020 20000 30135 40249 60006 80000 90000=
07070,1997-04-14 03:00:00,-1,1025.2,-0.1,93,-2,10000,3.704,,,200,,,,,,,,,,,wg-a,,,,AAXX 14034 07070 12/60 02002 11010 21020 30136 40252 57001 60006 80000 90300=
07070,1997-04-14 06:00:00,0,1025.5,0.3,93,-1,500,0,,,0,-1.2,10.8,,,,,,,,,wg-a,,,,AAXX 14064 07070 12700 /0000 10000 21010 30139 40255 53003 60006 86500 90600 333 10108 21012=
07070,1997-04-14 09:00:00,8,1025.9,0.8,71,3,6000,3.704,,,310,,,,,,,,,,,wg-a,,,,AAXX 14094 07070 12656 83102 10080 20030 30147 40259 53008 60006 885// 90900=
07070,1997-04-14 12:00:00,13,1025,-0.7,54,4,10000,11.112,,,350,,,,,,,,,,,wg-a,,,,AAXX 14124 07070 12760 33506 10130 20040 30140 40250 58007 60006 83500 91200=
07070,1997-04-14 15:00:00,16,1023,-1.9,48,5,15000,14.816,,,350,,,,,,,,,,,wg-a,,,,AAXX 14154 07070 12765 73508 10160 20050 30121 40230 56019 60006 875// 91500=
07070,1997-04-14 18:00:00,13,1023.4,0.3,62,6,8000,22.224,,,350,-0.4,16.1,,,,,,,,,wg-a,,,,AAXX 14184 07070 12758 73512 10130 20060 30124 40234 53003 60006 875// 91800 333 10161 21004=
07070,1997-04-14 21:00:00,11,1024.3,0.8,76,7,6000,14.816,,,360,,,,,,,,,,,wg-a,,,,AAXX 14214 07070 12756 73608 10110 20070 30132 40243 52008 60006 875// 92100=
07070,1997-04-15 00:00:00,8,1024.8,0.4,81,5,10000,18.52,,,350,,,,,,,,,,,wg-a,,,,AAXX 15004 07070 12560 /3510 10080 20050 30136 40248 51004 60006 86500 90000=
07070,1997-04-15 03:00:00,6,1025.6,0.7,81,3,10000,11.112,,,20,,,,,,,,,,,wg-a,,,,AAXX 15034 07070 12560 40206 10060 20030 30143 40256 53007 60006 84500 90300=
07070,1997-04-15 06:00:00,5,1026.7,1,87,3,10000,18.52,,,360,2.5,12.8,,,,,,,,,wg-a,,,,AAXX 15064 07070 12560 /3610 10050 20030 30153 40267 53010 60006 86500 90600 333 10128 20025=
07070,1997-04-15 09:00:00,8,1028.2,1.6,53,-1,15000,22.224,,,40,,,,,,,,,,,wg-a,,,,AAXX 15094 07070 12665 /0412 10080 21010 30169 40282 51016 60006 86500 90900=
07070,1997-04-15 12:00:00,11,1027.5,-0.6,47,0,15000,22.224,,35.188,20,,,,,,,,,,,wg-a,,,,AAXX 15124 07070 12765 10212 10110 20000 30163 40275 58006 60006 81500 91200 333 91019=
07070,1997-04-15 15:00:00,12,1026.4,-1,40,-1,25000,25.928,,,20,,,,,,,,,,,wg-a,,,,AAXX 15154 07070 12/75 00214 10120 21010 30153 40264 56010 60006 80000 91500=
07070,1997-04-15 18:00:00,9,1027.2,0.7,53,0,25000,22.224,,,360,4.7,12.1,,,,,,,,,wg-a,,,,AAXX 15184 07070 12/75 03612 10090 20000 30160 40272 53007 60006 80000 91800 333 10121 20047=
07070,1997-04-15 21:00:00,5,1028.4,1,65,-1,12000,18.52,,,10,,,,,,,,,,,wg-a,,,,AAXX 15214 07070 12/62 00110 10050 21010 30170 40284 51010 60006 80000 92100=
07070,1997-04-16 00:00:00,2,1028.5,0,87,0,12000,14.816,,,360,,,,,,,,,,,wg-a,,,,AAXX 16004 07070 12/62 53608 10020 20000 30170 40285 50000 60006 80001 90000=
07070,1997-04-16 03:00:00,0,1028.1,-0.5,93,-1,12000,11.112,,,10,,,,,,,,,,,wg-a,,,,AAXX 16034 07070 12/62 30106 10000 21010 30165 40281 57005 60006 80001 90300=
07070,1997-04-16 06:00:00,0,1028.5,0.4,100,0,8000,11.112,,,320,-1.5,9.2,,,,,,,,,wg-a,,,,AAXX 16064 07070 12/58 /3206 10000 20000 30169 40285 53004 60006 80001 90600 333 10092 21015=
07070,1997-04-16 09:00:00,6,1028.2,-0,75,2,12000,18.52,,,40,,,,,,,,,,,wg-a,,,,AAXX 16094 07070 12562 70410 10060 20020 30169 40282 55000 60006 8723/ 90900=
07070,1997-04-16 12:00:00,9,1026.9,-1.2,53,0,15000,18.52,,,40,,,,,,,,,,,wg-a,,,,AAXX 16124 07070 12665 70410 10090 20000 30157 40269 57012 60006 8623/ 91200=
07070,1997-04-16 15:00:00,11,1025,-1.8,47,0,15000,14.816,,,30,,,,,,,,,,,wg-a,,,,AAXX 16154 07070 12665 60308 10110 20000 30139 40250 56018 60006 84431 91500=
07070,1997-04-16 18:00:00,8,1023.8,-1.3,53,-1,15000,18.52,,,30,0.3,10.7,,,,,,,,,wg-a,,,,AAXX 16184 07070 12765 20310 10080 21010 30126 40238 56013 60006 82400 91800 333 10107 20003=
07070,1997-04-16 21:00:00,4,1023.4,-0.6,81,1,10000,14.816,,,20,,,,,,,,,,,wg-a,,,,AAXX 16214 07070 12/60 00208 10040 20010 30120 40234 56006 60006 80000 92100=
07070,1997-04-17 00:00:00,4,1023.2,-0.2,87,2,10000,11.112,,,360,,,,,,,,,,,wg-a,,,,AAXX 17004 07070 12/60 73606 10040 20020 30118 40232 58002 60006 8703/ 90000=
07070,1997-04-17 03:00:00,3,1021.9,-1.3,93,2,10000,7.408,,,340,,,,,,,,,,,wg-a,,,,AAXX 17034 07070 12/60 /3404 10030 20020 30105 40219 56013 60006 90300=
07070,1997-04-17 06:00:00,2,1022.7,0.7,93,1,2500,7.408,,,20,1.3,8.2,,,,,,,,10,wg-a,,,,AAXX 17064 07070 12725 /0204 10020 20010 30112 40227 53007 60006 71011 83501 90600 333 10082 20013=
07070,1997-04-17 09:00:00,9,1023,0.6,49,-1,15000,22.224,,,70,,,,,,,,,,,wg-a,,,,AAXX 17094 07070 12665 /0712 10090 21010 30118 40230 50006 60006 82131 90900=
07070,1997-04-17 12:00:00,12,1021.9,-0.9,32,-4,500,29.632,,,90,,,,,,,,,,,wg-a,,,,AAXX 17124 07070 12700 20916 10120 21040 30109 40219 58009 60006 82100 91200=
07070,1997-04-17 15:00:00,14,1020.9,-1,33,-2,500,25.928,,,90,,,,,,,,,,,wg-a,,,,AAXX 17154 07070 12700 10914 10140 21020 30099 40209 58010 60006 81100 91500=
07070,1997-04-17 18:00:00,12,1021.2,0.2,38,-2,500,14.816,,,80,1.5,13.9,,,,,,,,,wg-a,,,,AAXX 17184 07070 12/00 00808 10120 21020 30101 40212 53002 60006 80000 91800 333 10139 20015=
07070,1997-04-17 21:00:00,4,1022.7,1.3,70,-1,25000,3.704,,,100,,,,,,,,,,,wg-a,,,,AAXX 17214 07070 12/75 01002 10040 21010 30114 40227 51013 60006 80000 92100=
07070,1997-04-18 00:00:00,1,1023.2,0.3,80,-2,15000,3.704,,,30,,,,,,,,,,,wg-a,,,,AAXX 18004 07070 12/65 00302 10010 21020 30117 40232 50003 60006 80000 90000=
07070,1997-04-18 03:00:00,-1,1022.9,-0.4,86,-3,15000,3.704,,,290,,,,,,,,,,,wg-a,,,,AAXX 18034 07070 12/65 02902 11010 21030 30113 40229 58004 60006 80000 90300=
07070,1997-04-18 06:00:00,-2,1022.7,-0.2,93,-3,9000,3.704,,,190,-2.7,11.5,,,,,,,,,wg-a,,,,AAXX 18064 07070 12/59 /1902 11020 21030 30111 40227 55002 60006 80001 90600 333 10115 21027=
07070,1997-04-18 12:00:00,15,1019.2,-2,39,1,15000,14.816,,,60,,,,,,,,,,,wg-a,,,,AAXX 18124 07070 12765 30608 10150 20010 30083 40192 58020 60006 82101 91200=
07070,1997-04-18 15:00:00,16,1016.7,-2.4,36,1,10000,11.112,,,50,,,,,,,,,,,wg-a,,,,AAXX 18154 07070 12/60 /0506 10160 20010 30059 40167 58024 60006 91500=
07070,1997-04-18 18:00:00,12,1015.8,-1.1,50,2,15000,22.224,,,360,-1.4,16.1,,,,,,,,,wg-a,,,,AAXX 18184 07070 12/65 53612 10120 20020 30048 40158 56011 60006 80001 91800 333 10161 21014=
07070,1997-04-18 21:00:00,7,1016.5,0.5,76,3,9000,14.816,,,350,,,,,,,,,,,wg-a,,,,AAXX 18214 07070 12/59 /3508 10070 20030 30053 40165 50005 60006 80001 92100=
07070,1997-04-19 00:00:00,4,1016.4,-0.2,87,2,7000,11.112,,,350,,,,,,,,,,,wg-a,,,,AAXX 19004 07070 12/57 33506 10040 20020 30051 40164 58002 60006 80001 90000=
07070,1997-04-19 03:00:00,1,1015.4,-1.1,93,0,3000,14.816,,,350,,,,,,,,,,10,wg-a,,,,AAXX 19034 07070 12/30 33508 10010 20000 30040 40154 56011 60006 71000 80001 90300=
07070,1997-04-19 06:00:00,3,1014.7,-0.6,100,3,2500,11.112,,,360,0.7,12.2,,,,,,,,10,wg-a,,,,AAXX 19064 07070 12725 73606 10030 20030 30034 40147 56006 60006 71011 875// 90600 333 10122 20007=
07070,1997-04-19 12:00:00,11,1012.8,-1.3,62,4,12000,22.224,,,30,,,,,,,,,,,wg-a,,,,AAXX 19124 07070 12562 70312 10110 20040 30018 40128 58013 60006 878// 91200=
07070,1997-04-19 18:00:00,10,1011.6,-0.1,43,-2,15000,29.632,,,20,3.3,12.5,,,,,,,,,wg-a,,,,AAXX 19184 07070 12765 50216 10100 21020 30006 40116 55001 60006 81530 91800 333 10125 20033=
07070,1997-04-19 21:00:00,4,1013.7,1.8,65,-2,10000,18.52,,,10,,,,,,,,,,,wg-a,,,,AAXX 19214 07070 12/60 00110 10040 21020 30024 40137 51018 60006 80000 92100=
07070,1997-04-20 00:00:00,1,1014.4,0.6,80,-2,15000,14.816,,,360,,,,,,,,,,,wg-a,,,,AAXX 20004 07070 12/65 03608 10010 21020 30030 40144 51006 60006 80000 90000=
07070,1997-04-20 06:00:00,1,1015.7,1.4,93,0,500,11.112,,,350,0,9.7,,,,,,,,,wg-a,,,,AAXX 20064 07070 12700 /3506 10010 20000 30043 40157 53014 60006 81500 90600 333 10097 20000=
07070,1997-04-20 09:00:00,6,1016.4,0.9,61,-1,10000,31.484,,,30,,,,,,,,,,,wg-a,,,,AAXX 20094 07070 12560 30317 10060 21010 30052 40164 53009 60006 83100 90900=
07070,1997-04-20 12:00:00,9,1016.4,0.1,49,-1,10000,29.632,,,40,,,,,,,,,,,wg-a,,,,AAXX 20124 07070 12660 20416 10090 21010 30053 40164 50001 60006 82200 91200=
07070,1997-04-20 15:00:00,10,1015.9,-0.5,40,-3,16000,18.52,,,40,,,,,,,,,,,wg-a,,,,AAXX 20154 07070 12766 40410 10100 21030 30048 40159 58005 60006 84200 91500=
07070,1997-04-20 18:00:00,8,1016.2,0.3,39,-5,10000,18.52,,,40,0.8,10.1,,,,,,,,,wg-a,,,,AAXX 20184 07070 12/60 /0410 10080 21050 30051 40162 51003 60006 91800 333 10101 20008=
07070,1997-04-20 21:00:00,1,1018,1.4,64,-5,20000,11.112,,,50,,,,,,,,,,,wg-a,,,,AAXX 20214 07070 12/70 10506 10010 21050 30065 40180 51014 60006 80001 92100=
07070,1997-04-21 00:00:00,-1,1018,0,69,-6,20000,7.408,,,50,,,,,,,,,,,wg-a,,,,AAXX 21004 07070 12/70 00504 11010 21060 30065 40180 50000 60006 80000 90000=
07070,1997-04-21 03:00:00,-4,1017.7,-0.4,86,-6,20000,0,,,0,,,,,,,,,,,wg-a,,,,AAXX 21034 07070 12/70 00000 11040 21060 30061 40177 56004 60006 80000 90300=
07070,1997-04-21 06:00:00,-3,1017.3,-0.4,86,-5,15000,0,,,0,,8.2,,,,,,,,,wg-a,,174,,AAXX 21064 07070 12/65 00000 11030 21050 30057 40173 56004 60006 80000 90600 333 10082 4/174=
07070,1997-04-21 09:00:00,8,1016.3,-0.6,42,-4,15000,11.112,,,90,,,,,,,,,,,wg-a,,,,AAXX 21094 07070 12665 /0906 10080 21040 30051 40163 58006 60006 81100 90900=
07070,1997-04-21 12:00:00,11,1014.3,-1.8,32,-5,20000,11.112,,,30,,,,,,,,,,,wg-a,,,,AAXX 21124 07070 12/70 00306 10110 21050 30033 40143 58018 60006 80000 91200=
07070,1997-04-21 15:00:00,12,1012.1,-2.1,30,-5,20000,11.112,,,60,,,,,,,,,,,wg-a,,,,AAXX 21154 07070 12/70 00606 10120 21050 30012 40121 58021 60006 80000 91500=
07070,1997-04-21 18:00:00,11,1011.2,-1,28,-7,20000,18.52,,,10,-2.8,12.6,,,,,,,,,wg-a,,,,AAXX 21184 07070 12/70 10110 10110 21070 30002 40112 56010 60006 80001 91800 333 10126 21028=
07070,1997-04-21 21:00:00,4,1012.6,1.2,52,-5,15000,11.112,,,10,,,,,,,,,,,wg-a,,,,AAXX 21214 07070 12/65 00106 10040 21050 30014 40126 52012 60006 80000 92100=
07070,1997-04-22 00:00:00,1,1013.1,0.3,75,-3,12000,11.112,,,350,,,,,,,,,,,wg-a,,,,AAXX 22004 07070 12/62 03506 10010 21030 30017 40131 50003 60006 80000 90000=
07070,1997-04-22 03:00:00,-1,1013.5,0.3,86,-3,10000,11.112,,,330,,,,,,,,,,,wg-a,,,,AAXX 22034 07070 12760 13306 11010 21030 30020 40135 53003 60006 81500 90300=
07070,1997-04-22 06:00:00,2,1014.6,1.3,80,-1,6000,11.112,,,350,-0.7,11.2,,,,,,,,70,wg-a,,,,AAXX 22064 07070 02756 73506 10020 21010 30033 40146 53013 61000 77071 875// 90600 333 10112 21007 6100=
07070,1997-04-22 09:00:00,8,1015.1,0.7,66,2,7000,22.224,,,20,,,,,,,,,,3,wg-a,,,,AAXX 22094 07070 02557 70212 10080 20020 30040 40151 53007 61000 70372 878// 90900 333 ////=
07070,1997-04-22 12:00:00,10,1015.3,0.3,53,1,15000,18.52,,,20,,,,,,,,,,1,wg-a,,,,AAXX 22124 07070 02665 /0210 10100 20010 30043 40153 53003 61000 70172 86200 91200 333 ////=
07070,1997-04-22 15:00:00,11,1015.2,-0.1,37,-3,20000,25.928,,,40,,,,,,,,,,,wg-a,,,,AAXX 22154 07070 12770 50414 10110 21030 30042 40152 56001 60006 85400 91500=
07070,1997-04-22 18:00:00,10,1016.1,0.8,43,-2,15000,18.52,,,20,2.5,11.8,,,,,,,,,wg-a,,,,AAXX 22184 07070 12765 60210 10100 21020 30050 40161 53008 60006 86400 91800 333 10118 20025=
07070,1997-04-22 21:00:00,6,1017.8,1.6,61,-1,15000,11.112,,,10,,,,,,,,,,,wg-a,,,,AAXX 22214 07070 12765 70106 10060 21010 30066 40178 51016 60006 875// 92100=
07070,1997-04-23 00:00:00,4,1018.9,1,70,-1,15000,3.704,,,340,,,,,,,,,,,wg-a,,,,AAXX 23004 07070 12865 73402 10040 21010 30076 40189 52010 60006 865/1 90000=
07070,1997-04-23 03:00:00,-2,1019.3,0.1,86,-4,15000,0,,,0,,,,,,,,,,,wg-a,,,,AAXX 23034 07070 12/65 00000 11020 21040 30077 40193 53001 60006 80000 90300=
07070,1997-04-23 06:00:00,-1,1020.6,1.3,86,-3,10000,0,,,0,-2.5,9.8,,,,,,,,,wg-a,,,,AAXX 23064 07070 02/60 10000 11010 21030 30090 40206 53013 60006 81031 90600 333 10098 21025 61000=
07070,1997-04-23 09:00:00,10,1020.6,0.5,40,-3,15000,7.408,,,90,,,,,,,,,,,wg-a,,,,AAXX 23094 07070 12665 40904 10100 21030 30095 40206 51005 60006 81101 90900=
07070,1997-04-23 12:00:00,12,1020,-0.5,35,-3,18000,7.408,,,180,,,,,,,,,,,wg-a,,,,AAXX 23124 07070 12/68 21804 10120 21030 30090 40200 58005 60006 80001 91200=
07070,1997-04-23 15:00:00,14,1019.1,-0.8,33,-2,18000,3.704,,,50,,,,,,,,,,,wg-a,,,,AAXX 23154 07070 12/68 10502 10140 21020 30082 40191 56008 60006 80001 91500=
07070,1997-04-23 18:00:00,12,1019.2,-0,40,-1,15000,3.704,,,140,-1.2,13.7,,,,,,,,,wg-a,,,,AAXX 23184 07070 12/65 41402 10120 21010 30082 40192 55000 60006 80002 91800 333 10137 21012=
07070,1997-04-23 21:00:00,4,1020.7,1.2,65,-2,15000,0,,,0,,,,,,,,,,,wg-a,,,,AAXX 23214 07070 12/65 30000 10040 21020 30094 40207 51012 60006 80002 92100=
07070,1997-04-24 00:00:00,1,1021.2,0.3,80,-2,8000,0,,,0,,,,,,,,,,,wg-a,,,,AAXX 24004 07070 12/58 00000 10010 21020 30097 40212 51003 60006 80000 90000=
07070,1997-04-24 03:00:00,1,1021,-0.2,80,-2,8000,7.408,,,220,,,,,,,,,,,wg-a,,,,AAXX 24034 07070 12/58 02204 10010 21020 30095 40210 55002 60006 80000 90300=
07070,1997-04-24 06:00:00,1,1021.7,0.7,86,-1,4000,0,,,0,-1.3,11.7,,,,,,,,10,wg-a,,,,AAXX 24064 07070 12/40 40000 10010 21010 30102 40217 53007 60006 71000 80001 90600 333 10117 21013=
07070,1997-04-24 12:00:00,17,1020.2,-1.2,29,-1,20000,14.816,,,230,,,,,,,,,,,wg-a,,,,AAXX 24124 07070 12/70 32308 10170 21010 30094 40202 58012 60006 80001 91200=
07070,1997-04-24 18:00:00,16,1018,-0.7,29,-2,20000,14.816,,,240,1.4,17.8,,,,,,,,,wg-a,,,,AAXX 24184 07070 12/70 72408 10160 21020 30071 40180 56007 60006 80002 91800 333 10178 20014=
07070,1997-04-24 21:00:00,7,1018.5,0.2,57,-1,20000,11.112,,,180,,,,,,,,,,,wg-a,,,,AAXX 24214 07070 12/70 71806 10070 21010 30073 40185 50002 60006 80002 92100=
07070,1997-04-25 00:00:00,5,1018.9,0.3,65,-1,20000,3.704,,,230,,,,,,,,,,,wg-a,,,,AAXX 25004 07070 12/70 62302 10050 21010 30076 40189 53003 60006 80002 90000=
07070,1997-04-25 03:00:00,5,1018,-0.9,65,-1,20000,3.704,,,230,,,,,,,,,,,wg-a,,,,AAXX 25034 07070 12/70 72302 10050 21010 30067 40180 56009 60006 80002 90300=
07070,1997-04-25 06:00:00,3,1018.4,0.4,81,0,10000,0,,,0,2.3,15.4,,,,,,,,,wg-a,,,,AAXX 25064 07070 12/60 70000 10030 20000 30071 40184 53004 60006 80002 90600 333 10154 20023=
07070,1997-04-25 09:00:00,15,1017.1,-0.9,48,4,10000,14.816,,,170,,,,,,,,,,,wg-a,,,,AAXX 25094 07070 12/60 71708 10150 20040 30062 40171 58009 60006 81032 90900=
07070,1997-04-25 12:00:00,19,1015,-1.9,28,0,18000,25.928,,46.3,220,,,,,,,,,,,wg-a,,,,AAXX 25124 07070 12/68 72214 10190 20000 30043 40150 58019 60006 85032 91200 333 91025=
07070,1997-04-25 18:00:00,11,1015.6,-0.1,94,10,1300,7.408,,,250,3.3,19.7,,,,,,,,10,wg-a,,,,AAXX 25184 07070 12/13 /2504 10110 20100 30046 40156 58001 60006 710// 91800 333 10197 20033=
07070,1997-04-25 21:00:00,10,1015.7,0.1,100,10,2700,7.408,,,250,,,,0,,,,,,10,wg-a,,,,AAXX 25214 07070 12527 82504 10100 20100 30047 40157 53001 60007 71065 875// 92100=
07070,1997-04-26 00:00:00,10,1015.2,-0.5,100,10,3000,14.816,,,250,,,,,,,,,,10,wg-a,,,,AAXX 26004 07070 12430 72508 10100 20100 30042 40152 58005 60016 71065 875// 90000=
07070,1997-04-26 06:00:00,11,1015.3,0.6,94,10,2300,14.816,,,240,9.9,11.2,,,,,6,,,10,wg-a,,,,AAXX 26064 07070 02423 72408 10110 20100 30043 40153 53006 60006 71062 878// 90600 333 10112 20099 60064=
07070,1997-04-26 09:00:00,14,1015.1,-0.1,77,10,8000,11.112,,,260,,,,,,,,,,,wg-a,,,,AAXX 26094 07070 12558 82606 10140 20100 30042 40151 56001 60006 888// 90900=
07070,1997-04-26 12:00:00,14,1013.7,-1.4,82,11,7000,18.52,,,230,,,,,,,,,,61,wg-a,,,,AAXX 26124 07070 02557 82310 10140 20110 30028 40137 57014 61000 76162 8457/ 91200 333 6100=
07070,1997-04-26 15:00:00,14,1010.3,-3.3,88,12,7000,18.52,,,180,,,,1,,,,,,61,wg-a,,,,AAXX 26154 07070 12557 81810 10140 20120 39995 40103 58033 60017 76162 8687/ 91500=
07070,1997-04-26 18:00:00,13,1007.6,-2.7,94,12,500,11.112,,,180,10.9,14.4,,,,,,,,21,wg-a,,,,AAXX 26184 07070 02400 71806 10130 20120 39968 40076 58027 61000 72162 8687/ 91800 333 10144 20109 6005=
07070,1997-04-26 21:00:00,11,1006.8,-0.9,100,11,7000,11.112,,,200,,,,4,,,,,,61,wg-a,,,,AAXX 26214 07070 12457 72006 10110 20110 39959 40068 58009 60047 76162 875// 92100=
07070,1997-04-27 00:00:00,10,1006.3,-0.5,93,9,8000,7.408,,,260,,,,1,,,,,,80,wg-a,,,,AAXX 27004 07070 02458 72604 10100 20090 39954 40063 56005 60046 78086 878// 90000 333 60017=
07070,1997-04-27 03:00:00,9,1006,-0.4,93,8,12000,11.112,,,230,,,,,,,,,,1,wg-a,,,,AAXX 27034 07070 12562 42306 10090 20080 39950 40060 56004 60006 70181 83202 90300=
07070,1997-04-27 06:00:00,10,1007.1,1.2,93,9,500,7.408,,,240,8.8,12.6,,,,,10,,,3,wg-a,,,,AAXX 27064 07070 02300 72404 10100 20090 39962 40071 53012 60006 70381 877// 90600 333 10126 20088 60104=
07070,1997-04-27 09:00:00,12,1008.5,1.4,88,10,8000,14.816,,,270,,,,,,,,,,,wg-a,,,,AAXX 27094 07070 12458 72708 10120 20100 39976 40085 52014 60006 878// 90900=
07070,1997-04-27 12:00:00,13,1009.4,1,82,10,12000,18.52,,,270,,,,,,,,,,1,wg-a,,,,AAXX 27124 07070 12462 72710 10130 20100 39986 40094 51010 60006 70182 878// 91200=
07070,1997-04-27 18:00:00,13,1012.6,2.1,82,10,10000,11.112,,,290,9.8,14.9,,,,,,,,3,wg-a,,,,AAXX 27184 07070 12560 72906 10130 20100 30017 40126 51021 60006 70382 878// 91800 333 10149 20098=
07070,1997-04-27 21:00:00,11,1014.5,1.8,87,9,8000,7.408,,,250,,,,,,,,,,,wg-a,,,,AAXX 27214 07070 12758 /2504 10110 20090 30035 40145 51018 60006 81500 92100=
07070,1997-04-28 00:00:00,8,1015.1,0.5,100,8,8000,7.408,,,230,,,,,,,,,,,wg-a,,,,AAXX 28004 07070 12658 /2304 10080 20080 30040 40151 51005 60006 86500 90000=
07070,1997-04-28 03:00:00,9,1013.6,-1.4,100,9,8000,7.408,,,180,,,,,,,,,,60,wg-a,,,,AAXX 28034 07070 02658 81804 10090 20090 30026 40136 56014 61000 76062 875// 90300 333 ////=
07070,1997-04-28 06:00:00,11,1012.8,-0.7,94,10,500,14.816,,,210,6.5,13,,,,,,,,51,wg-a,,,,AAXX 28064 07070 02400 82108 10110 20100 30019 40128 58007 61000 75165 885// 90600 333 10130 20065 6000=
07070,1997-04-28 09:00:00,13,1012.6,-0.2,94,12,7000,22.224,,,240,,,,,,,,,,20,wg-a,,,,AAXX 28094 07070 02457 82412 10130 20120 30017 40126 58002 61000 72052 877// 90900 333 ////=
07070,1997-04-28 12:00:00,14,1012,-0.5,82,11,12000,25.928,,,260,,,,,,,,,,21,wg-a,,,,AAXX 28124 07070 02462 82614 10140 20110 30012 40120 58005 61000 72152 8587/ 91200 333 6100=
07070,1997-04-28 15:00:00,16,1010.5,-1.4,72,11,20000,25.928,,,260,,,,0,,,,,,3,wg-a,,,,AAXX 28154 07070 12570 72614 10160 20110 39998 40105 58014 60007 70362 8687/ 91500=
07070,1997-04-28 18:00:00,15,1009.8,-0.8,63,8,25000,29.632,,,270,11.1,16.4,,,,,,,,3,wg-a,,,,AAXX 28184 07070 12675 72716 10150 20080 39990 40098 58008 60006 70386 86802 91800 333 10164 20111=
07070,1997-04-28 21:00:00,12,1010.6,0.7,76,8,20000,18.52,,,260,,,,,,,,,,,wg-a,,,,AAXX 28214 07070 12670 22610 10120 20080 39997 40106 51007 60006 82800 92100=
07070,1997-04-29 03:00:00,11,1010,-0,87,9,12000,29.632,,,260,,,,,,,,,,,wg-a,,,,AAXX 29034 07070 12562 72616 10110 20090 39991 40100 55000 60006 875// 90300=
07070,1997-04-29 06:00:00,11,1011.3,1.2,94,10,500,25.928,,,270,10.2,14.9,,,,,,,,51,wg-a,,,,AAXX 29064 07070 02300 82714 10110 20100 30003 40113 53012 61000 75165 887// 90600 333 10149 20102 6001=
07070,1997-04-29 09:00:00,13,1012.8,1.6,82,10,8000,29.632,,,310,,,,,,,,,,3,wg-a,,,,AAXX 29094 07070 02558 73116 10130 20100 30019 40128 51016 61000 70365 872// 90900 333 ////=
07070,1997-04-29 12:00:00,14,1013.8,1.1,63,7,12000,31.484,,,290,,,,1,,,,,,3,wg-a,,,,AAXX 29124 07070 02562 72917 10140 20070 30030 40138 51011 60016 70386 878// 91200 333 60017=
07070,1997-04-29 18:00:00,12,1016.5,1.2,76,8,12000,14.816,,,310,10.5,14.5,,,,,,,,25,wg-a,,,,AAXX 29184 07070 02662 73108 10120 20080 30055 40165 51012 61000 72582 878// 91800 333 10145 20105 6100=
07070,1997-04-30 00:00:00,10,1019.5,1,87,8,10000,11.112,,,300,,,,,,,,,,,wg-a,,,,AAXX 30004 07070 12660 73006 10100 20080 30084 40195 53010 60006 875// 90000=
07070,1997-04-30 06:00:00,9,1022.8,2.3,93,8,4500,11.112,,,330,7.6,11.9,,,,,1,,,10,wg-a,,,,AAXX 30064 07070 02445 83306 10090 20080 30117 40228 53023 60006 71011 886// 90600 333 10119 20076 60014=
07070,1997-04-30 09:00:00,11,1024.9,2.1,87,9,6000,14.816,,,340,,,,,,,,,,,wg-a,,,,AAXX 30094 07070 12456 83408 10110 20090 30138 40249 51021 60006 878// 90900=
07070,1997-04-30 12:00:00,14,1025.8,1,67,8,8000,14.816,,,330,,,,,,,,,,,wg-a,,,,AAXX 30124 07070 12558 43308 10140 20080 30148 40258 51010 60006 84200 91200=
07070,1997-04-30 15:00:00,17,1025.5,-0.2,55,8,12000,14.816,,,10,,,,,,,,,,,wg-a,,,,AAXX 30154 07070 12662 40108 10170 20080 30146 40255 56002 60006 84200 91500=
07070,1997-04-30 18:00:00,16,1026.7,1.2,59,8,15000,18.52,,,30,9.1,17.2,,,,,,,,,wg-a,,,,AAXX 30184 07070 12765 50310 10160 20080 30158 40267 53012 60006 85500 91800 333 10172 20091=
07070,1997-04-30 21:00:00,8,1028.4,1.4,93,7,7000,3.704,,,60,,,,,,,,,,,wg-a,,,,AAXX 30214 07070 12/57 20602 10080 20070 30172 40284 53014 60006 80001 92100=
07070,1997-05-01 00:00:00,6,1029.1,0.6,93,5,7000,3.704,,,10,,,,,,,,,,,wg-a,,,,AAXX 01004 07070 12/57 00102 10060 20050 30178 40291 51006 60006 80000 90000=
07070,1997-05-01 06:00:00,4,1030,,100,4,100,0,,,0,2.2,15.4,,,,,,,,44,wg-a,,,,AAXX 01064 07070 02/01 00000 10040 20040 30189 40300 60006 74440 80000 90600 333 10154 20022 60004=
07070,1997-05-01 09:00:00,14,1030.2,0.3,82,11,2000,3.704,,,70,,,,,,,,,,10,wg-a,,,,AAXX 01094 07070 12/20 00702 10140 20110 30192 40302 51003 60006 71000 80000 90900=
07070,1997-05-01 12:00:00,17,1029.4,-0.7,59,9,10000,11.112,,,60,,,,,,,,,,,wg-a,,,,AAXX 01124 07070 12560 20606 10170 20090 30185 40294 58007 60006 82100 91200=
07070,1997-05-01 15:00:00,19,1027.9,-1.4,56,10,10000,11.112,,,60,,,,,,,,,,,wg-a,,,,AAXX 01154 07070 12/60 00606 10190 20100 30171 40279 58014 60006 80000 91500=
07070,1997-05-01 18:00:00,18,1026.7,-1.2,68,12,10000,7.408,,,80,4,19.4,,,,,,,,,wg-a,,,,AAXX 01184 07070 12/60 10804 10180 20120 30159 40267 56012 60006 80001 91800 333 10194 20040=
07070,1997-05-01 21:00:00,11,1027.7,0.7,82,8,20000,7.408,,,90,,,,,,,,,,,wg-a,,,,AAXX 01214 07070 12/70 10904 10110 20080 30166 40277 51007 60006 80001 92100=
07070,1997-05-02 00:00:00,7,1027.9,0,93,6,20000,3.704,,,70,,,,,,,,,,,wg-a,,,,AAXX 02004 07070 12/70 00702 10070 20060 30166 40279 50000 60006 80000 90000=
07070,1997-05-02 03:00:00,6,1028,0.1,93,5,15000,7.408,,,80,,,,,,,,,,,wg-a,,,,AAXX 02034 07070 12/65 10804 10060 20050 30167 40280 51001 60006 80001 90300=
07070,1997-05-02 06:00:00,8,1028.7,0.7,93,7,6000,0,,,0,4.8,18.1,,,,,,,,,wg-a,,,,AAXX 02064 07070 12/56 /0000 10080 20070 30174 40287 53007 60006 80001 90600 333 10181 20048=
07070,1997-05-02 09:00:00,17,1027.6,-0.7,63,10,10000,11.112,,,90,,,,,,,,,,,wg-a,,,,AAXX 02094 07070 12/60 10906 10170 20100 30167 40276 58007 60006 80001 90900=
07070,1997-05-02 12:00:00,21,1025.5,-1.9,43,8,15000,14.816,,,120,,,,,,,,,,,wg-a,,,,AAXX 02124 07070 12/65 01208 10210 20080 30148 40255 58019 60006 80000 91200=
07070,1997-05-02 18:00:00,21,1022,-1.1,53,11,25000,11.112,,,140,7.5,23.5,,,,,,,,,wg-a,,,,AAXX 02184 07070 12/75 01406 10210 20110 30113 40220 56011 60006 80000 91800 333 10235 20075=
07070,1997-05-02 21:00:00,13,1022,-0.3,72,8,15000,7.408,,,150,,,,,,,,,,,wg-a,,,,AAXX 02214 07070 12/65 01504 10130 20080 30110 40220 58003 60006 80000 92100=
07070,1997-05-03 00:00:00,10,1021.2,-0.9,87,8,15000,3.704,,,90,,,,,,,,,,,wg-a,,,,AAXX 03004 07070 12/65 00902 10100 20080 30101 40212 58009 60006 80000 90000=
07070,1997-05-03 06:00:00,9,1019,-0.8,93,8,8000,0,,,0,6.4,20.4,,,,,,,,,wg-a,,,,AAXX 03064 07070 12/58 /0000 10090 20080 30079 40190 56008 60006 80001 90600 333 10204 20064=
07070,1997-05-03 09:00:00,20,1017.4,-1.2,53,10,12000,7.408,,,170,,,,,,,,,,,wg-a,,,,AAXX 03094 07070 12/62 11704 10200 20100 30067 40174 58012 60006 80001 90900=
07070,1997-05-03 12:00:00,24,1015.4,-1.8,44,11,12000,14.816,,,150,,,,,,,,,,,wg-a,,,,AAXX 03124 07070 12/62 21508 10240 20110 30049 40154 58018 60006 80001 91200=
07070,1997-05-03 15:00:00,25,1013.6,-1.7,39,10,15000,25.928,,,250,,,,,,,,,,,wg-a,,,,AAXX 03154 07070 12765 72514 10250 20100 30032 40136 56017 60006 81202 91500=
07070,1997-05-03 18:00:00,24,1012.4,-1.3,44,11,15000,11.112,,,240,9.3,26.8,,,,,,,,,wg-a,,,,AAXX 03184 07070 12765 82406 10240 20110 30019 40124 56013 60006 8357/ 91800 333 10268 20093=
07070,1997-05-03 21:00:00,20,1014.1,1.6,53,10,12000,14.816,,,310,,,,,,,,,,25,wg-a,,,,AAXX 03214 07070 02762 83108 10200 20100 30035 40141 53016 61000 72582 872// 92100 333 ////=
07070,1997-05-04 00:00:00,15,1014.2,-0.1,77,11,8000,11.112,,,310,,,,,,,,,,3,wg-a,,,,AAXX 04004 07070 12758 /3106 10150 20110 30034 40142 58001 60006 70382 86500 90000=
07070,1997-05-04 03:00:00,13,1013,-1.3,94,12,8000,7.408,,,180,,,,,,,,,,,wg-a,,,,AAXX 04034 07070 12658 71804 10130 20120 30021 40130 56013 60006 8357/ 90300=
07070,1997-05-04 06:00:00,15,1012.1,-0.8,88,13,4000,7.408,,,220,12.9,23.6,,,,,,,,10,wg-a,,,,AAXX 04064 07070 12640 72204 10150 20130 30013 40121 56008 60006 71022 86501 90600 333 10236 20129=
07070,1997-05-04 09:00:00,20,1010.3,-1.6,68,14,7000,18.52,,,200,,,,,,,,,,,wg-a,,,,AAXX 04094 07070 12557 72010 10200 20140 39997 40103 58016 60006 82101 90900=
07070,1997-05-04 12:00:00,21,1008.7,-1.5,53,11,20000,25.928,,,260,,,,,,,,,,,wg-a,,,,AAXX 04124 07070 12670 72614 10210 20110 39982 40087 58015 60006 81231 91200=
07070,1997-05-04 15:00:00,20,1006.4,-2.3,60,12,500,25.928,,,240,,,,,,,,,,,wg-a,,,,AAXX 04154 07070 12600 72414 10200 20120 39959 40064 58023 60006 8585/ 91500=
07070,1997-05-04 18:00:00,20,1003.8,-2.6,60,12,25000,22.224,,,220,14.5,22.1,,,,,,,,1,wg-a,,,,AAXX 04184 07070 02675 72212 10200 20120 39933 40038 57026 60006 70162 8583/ 91800 333 10221 20145 61000=
07070,1997-05-05 00:00:00,17,1000.3,-1.6,72,12,20000,25.928,,,250,,,,,,,,,,,wg-a,,,,AAXX 05004 07070 12770 82514 10170 20120 39897 40003 56016 60006 8457/ 90000=
07070,1997-05-05 03:00:00,14,998,-2.4,88,12,8000,18.52,,,230,,,,1,,,,,,61,wg-a,,,,AAXX 05034 07070 12758 82310 10140 20120 39873 49980 56024 60017 76162 8457/ 90300=
07070,1997-05-05 06:00:00,13,996.6,-1.4,94,12,15000,11.112,,,210,12.5,20.1,,,,,,,,60,wg-a,,,,AAXX 05064 07070 02465 82106 10130 20120 39859 49966 57014 61000 76062 8687/ 90600 333 10201 20125 6008=
07070,1997-05-05 09:00:00,15,996,-0.5,88,13,15000,25.928,,,230,,,,3,,,,,,25,wg-a,,,,AAXX 05094 07070 12465 72314 10150 20130 39854 49960 57005 60037 72586 8527/ 90900=
07070,1997-05-05 12:00:00,17,994.3,-1.6,72,12,500,31.484,,53.708,220,,,,2,,,,,,1,wg-a,,,,AAXX 05124 07070 02500 /2217 10170 20120 39838 49943 58016 60056 70186 85270 91200 333 60027 91029=
07070,1997-05-05 15:00:00,18,994,-0.3,68,12,500,29.632,,61.116,240,,,,1,,,,,,1,wg-a,,,,AAXX 05154 07070 12500 62416 10180 20120 39835 49940 58003 60017 70182 85902 91500 333 91033=
07070,1997-05-05 18:00:00,15,993.1,-1,82,12,500,18.52,,,210,12.6,17.9,,,,,,,,25,wg-a,,,,AAXX 05184 07070 02500 72110 10150 20120 39825 49931 58010 61000 72582 8586/ 91800 333 10179 20126 6000=
07070,1997-05-05 21:00:00,14,991.9,-1.2,82,11,20000,22.224,,,210,,,,,,,,,,80,wg-a,,,,AAXX 05214 07070 02570 72112 10140 20110 39813 49919 56012 61000 78081 879// 92100 333 ////=
07070,1997-05-06 00:00:00,13,991.4,-0.5,94,12,15000,18.52,,,210,,,,0,,,,,,80,wg-a,,,,AAXX 06004 07070 02465 82110 10130 20120 39808 49914 58005 60006 78081 888// 90000 333 60007=
07070,1997-05-06 03:00:00,12,989.2,-2.2,94,11,15000,14.816,,,210,,,,0,,,,,,1,wg-a,,,,AAXX 06034 07070 12665 82108 10120 20110 39786 49892 58022 60007 70182 888// 90300=
07070,1997-05-06 06:00:00,11,987.7,-1.6,100,11,10000,11.112,,,210,11.3,15,,,,,,,,61,wg-a,,,,AAXX 06064 07070 02360 82106 10110 20110 39770 49877 58016 61000 76186 878// 90600 333 10150 20113 6008=
07070,1997-05-06 09:00:00,9,988.5,0.7,93,8,500,18.52,,,330,,,,,,,,,,,wg-a,,,,AAXX 06094 07070 32/00 /3310 10090 20080 39777 49885 53007 90900=
07070,1997-05-06 12:00:00,10,989.6,1.1,87,8,500,14.816,,,300,,,,4,,,,,,63,wg-a,,,,AAXX 06124 07070 02400 83008 10100 20080 39788 49896 53011 60146 76366 8487/ 91200 333 60047=
07070,1997-05-06 15:00:00,7,992.1,2.4,87,5,10000,29.632,,,340,,,,2,,,,,,61,wg-a,,,,AAXX 06154 07070 12460 83416 10070 20050 39812 49921 53024 60027 76166 8587/ 91500=
07070,1997-05-06 18:00:00,6,996.4,4.2,93,5,8000,25.928,,,340,5.9,11.3,,,,,,,,60,wg-a,,,,AAXX 06184 07070 02458 73414 10060 20050 39854 49964 53042 61000 76066 857// 91800 333 10113 20059 6001=
07070,1997-05-06 21:00:00,4,1001.3,4.8,93,3,8000,18.52,,,320,,,,1,,,,,,63,wg-a,,,,AAXX 06214 07070 12458 83210 10040 20030 39902 40013 51048 60017 76362 8567/ 92100=
07070,1997-05-07 00:00:00,4,1003.2,1.9,93,3,6000,14.816,,,300,,,,1,,,,,,21,wg-a,,,,AAXX 07004 07070 02456 73008 10040 20030 39921 40032 51019 60026 72162 877// 90000 333 60017=
07070,1997-05-07 03:00:00,3,1003.5,0.2,93,2,6000,7.408,,,280,,,,,,,,,,,wg-a,,,,AAXX 07034 07070 12456 82804 10030 20020 39923 40035 51002 60006 887// 90300=
07070,1997-05-07 06:00:00,3,1003.6,0.1,93,2,15000,3.704,,,260,2.3,5.9,,,,,20,,,,wg-a,,,,AAXX 07064 07070 02465 72602 10030 20020 39924 40036 52001 60006 877// 90600 333 10059 20023 60204=
07070,1997-05-07 09:00:00,6,1003.6,0.1,75,2,15000,3.704,,,240,,,,,,,,,,,wg-a,,,,AAXX 07094 07070 12465 72402 10060 20020 39925 40036 51001 60006 878// 90900=
07070,1997-05-07 12:00:00,7,1002.6,-0.9,76,3,12000,11.112,,,120,,,,,,,,,,60,wg-a,,,,AAXX 07124 07070 02562 81206 10070 20030 39916 40026 56009 61000 76062 8322/ 91200 333 6100=
07070,1997-05-07 15:00:00,5,1003.3,0.6,87,3,8000,0,,,0,,,,2,,,,,,61,wg-a,,,,AAXX 07154 07070 12458 80000 10050 20030 39922 40033 50006 60027 76186 8627/ 91500=
07070,1997-05-07 18:00:00,5,1003.4,0.1,87,3,15000,11.112,,,70,3.3,7.8,,0,,,,,,1,wg-a,,,,AAXX 07184 07070 02465 50706 10050 20030 39923 40034 53001 60006 70186 82871 91800 333 10078 20033 60007=
07070,1997-05-07 21:00:00,3,1005.3,1.8,93,2,15000,3.704,,,290,,,,,,,,,,,wg-a,,,,AAXX 07214 07070 12565 /2902 10030 20020 39941 40053 53018 60006 85800 92100=
07070,1997-05-08 00:00:00,2,1005.4,0.1,100,2,8000,14.816,,,250,,,,,,,,,,,wg-a,,,,AAXX 08004 07070 12/58 02508 10020 20020 39942 40054 50001 60006 80000 90000=
07070,1997-05-08 03:00:00,1,1005.7,0.2,100,1,8000,14.816,,,220,,,,,,,,,,,wg-a,,,,AAXX 08034 07070 12758 /2208 10010 20010 39944 40057 50002 60006 81500 90300=
07070,1997-05-08 06:00:00,4,1005.7,0.1,93,3,10000,14.816,,,200,0.6,5.3,,,,,2,,,,wg-a,,,,AAXX 08064 07070 02/60 12008 10040 20030 39945 40057 53001 60006 80001 90600 333 10053 20006 60024=
07070,1997-05-08 09:00:00,9,1004.9,-0.6,66,3,20000,29.632,,50.004,220,,,,,,,,,,,wg-a,,,,AAXX 08094 07070 12570 42216 10090 20030 39939 40049 58006 60006 83201 90900 333 91027=
07070,1997-05-08 12:00:00,11,1004.6,-0.2,66,5,15000,25.928,,,220,,,,,,,,,,,wg-a,,,,AAXX 08124 07070 12565 72214 10110 20050 39937 40046 58002 60006 86202 91200=
07070,1997-05-08 15:00:00,11,1003.3,-1.3,76,7,25000,25.928,,,220,,,,1,,,,,,1,wg-a,,,,AAXX 08154 07070 12575 82214 10110 20070 39924 40033 56013 60017 70182 83807 91500=
07070,1997-05-08 18:00:00,9,1002.7,-0.6,87,7,10000,25.928,,46.3,200,3.6,12,,,,,,,,80,wg-a,,,,AAXX 08184 07070 02560 72014 10090 20070 39918 40027 58006 61000 78082 86802 91800 333 10120 20036 6000 91025=
07070,1997-05-08 21:00:00,9,1001.1,-1.6,87,7,15000,25.928,,,190,,,,0,,,,,,60,wg-a,,,,AAXX 08214 07070 12565 71914 10090 20070 39902 40011 58016 60007 76086 878// 92100=
07070,1997-05-09 00:00:00,9,998.4,-2.7,93,8,15000,25.928,,46.3,190,,,,1,,,,,,21,wg-a,,,,AAXX 09004 07070 02565 61914 10090 20080 39875 49984 56027 60016 72186 86800 90000 333 60017 91025=
07070,1997-05-09 03:00:00,8,998.9,0.5,93,7,11000,14.816,,,210,,,,,,,,,,,wg-a,,,,AAXX 09034 07070 32/61 /2108 10080 20070 39880 49989 51005 90300=
07070,1997-05-09 06:00:00,8,1000.3,1.4,93,7,15000,22.224,,,230,7.5,9.6,,,,,5,,,3,wg-a,,,,AAXX 09064 07070 02465 72312 10080 20070 39894 40003 51014 60006 70362 878// 90600 333 10096 20075 60054=
07070,1997-05-09 09:00:00,10,1001.3,1,76,6,25000,29.632,,,250,,,,,,,,,,,wg-a,,,,AAXX 09094 07070 12575 72516 10100 20060 39904 40013 53010 60006 86802 90900=
07070,1997-05-09 12:00:00,13,1002.4,1.2,62,6,16000,31.484,,,260,,,,0,,,,,,25,wg-a,,,,AAXX 09124 07070 02566 /2617 10130 20060 39916 40024 53012 60006 72582 85900 91200 333 60007=
07070,1997-05-09 15:00:00,12,1004.5,2.1,76,8,12000,25.928,,,280,,,,1,,,,,,25,wg-a,,,,AAXX 09154 07070 12562 72814 10120 20080 39937 40045 53021 60017 72582 86901 91500=
07070,1997-05-09 18:00:00,12,1005.7,1.2,67,6,18000,18.52,,,250,8.2,14.5,,,,,,,,3,wg-a,,,,AAXX 09184 07070 12568 62510 10120 20060 39949 40057 51012 60006 70381 84901 91800 333 10145 20082=
07070,1997-05-09 21:00:00,7,1008.1,2.1,93,6,20000,11.112,,,190,,,,,,,,,,,wg-a,,,,AAXX 09214 07070 12770 31906 10070 20060 39970 40081 52021 60006 815/1 92100=
07070,1997-05-10 00:00:00,9,1009.5,1.5,87,7,25000,14.816,,,230,,,,,,,,,,,wg-a,,,,AAXX 10004 07070 12675 72308 10090 20070 39985 40095 53015 60006 86802 90000=
07070,1997-05-10 03:00:00,9,1010.1,0.6,87,7,25000,14.816,,,230,,,,,,,,,,,wg-a,,,,AAXX 10034 07070 12775 42308 10090 20070 39991 40101 51006 60006 825/1 90300=
07070,1997-05-10 06:00:00,10,1010.9,0.8,87,8,10000,14.816,,,210,6.8,12.4,,,,,1,,,,wg-a,,,,AAXX 10064 07070 02460 72108 10100 20080 39999 40109 53008 60006 8463/ 90600 333 10124 20068 60014=
07070,1997-05-10 09:00:00,13,1011.3,0.5,77,9,20000,25.928,,,210,,,,,,,,,,,wg-a,,,,AAXX 10094 07070 12570 72114 10130 20090 30004 40113 51005 60006 878// 90900=
07070,1997-05-10 12:00:00,14,1010.8,-0.4,72,9,15000,22.224,,,210,,,,,,,,,,1,wg-a,,,,AAXX 10124 07070 02565 82112 10140 20090 30000 40108 56004 61000 70162 87/// 91200 333 6100=
07070,1997-05-10 15:00:00,15,1009.8,-1,67,9,20000,25.928,,,210,,,,,,,,,,60,wg-a,,,,AAXX 10154 07070 02670 82114 10150 20090 39990 40098 58010 61000 76086 888// 91500 333 ////=
07070,1997-05-10 18:00:00,14,1009.1,-0.7,82,11,7000,18.52,,,210,9.4,16.1,,,,,,,,80,wg-a,,,,AAXX 10184 07070 02557 72110 10140 20110 39983 40091 55007 61000 78098 86903 91800 333 10161 20094 6000=
07070,1997-05-10 21:00:00,11,1009.5,0.3,94,10,15000,14.816,,,170,,,,,,,,,,1,wg-a,,,,AAXX 10214 07070 12765 71708 10110 20100 39988 40095 53003 60006 70198 825/2 92100=
07070,1997-05-11 00:00:00,11,1009.9,0.4,94,10,15000,11.112,,,190,,,,,,,,,,1,wg-a,,,,AAXX 11004 07070 12/65 71906 10110 20100 39990 40099 53004 60006 70198 83022 90000=
07070,1997-05-11 03:00:00,12,1009.5,-0.4,88,10,15000,14.816,,,190,,,,,,,,,,,wg-a,,,,AAXX 11034 07070 12665 81908 10120 20100 39986 40095 58004 60006 8152/ 90300=
07070,1997-05-11 06:00:00,12,1010.3,0.8,94,11,12000,11.112,,,200,11.1,14.2,,,,,,,,,wg-a,,,,AAXX 11064 07070 02462 82006 10120 20110 39994 40103 53008 60006 8587/ 90600 333 10142 20111 60004=
07070,1997-05-11 09:00:00,13,1011,0.8,94,12,12000,14.816,,,210,,,,1,,,,,,21,wg-a,,,,AAXX 11094 07070 12562 82108 10130 20120 30002 40110 51008 60017 72162 8287/ 90900=
07070,1997-05-11 12:00:00,13,1011.5,0.5,94,12,15000,18.52,,,200,,,,0,,,,,,60,wg-a,,,,AAXX 11124 07070 02465 82010 10130 20120 30007 40115 53005 60016 76062 8587/ 91200 333 60007=
07070,1997-05-11 18:00:00,13,1012.7,0.8,88,11,15000,14.816,,,200,12.3,14,,,,,,,,21,wg-a,,,,AAXX 11184 07070 02465 82008 10130 20110 30018 40127 51008 61000 72162 8487/ 91800 333 10140 20123 6001=
07070,1997-05-11 21:00:00,11,1014.9,2.1,94,10,20000,11.112,,,210,,,,,,,,,,1,wg-a,,,,AAXX 11214 07070 12570 42106 10110 20100 30039 40149 53021 60006 70161 82802 92100=
07070,1997-05-12 00:00:00,10,1016.8,1.9,93,9,15000,14.816,,,210,,,,,,,,,,,wg-a,,,,AAXX 12004 07070 12765 22108 10100 20090 30058 40168 51019 60006 81501 90000=
07070,1997-05-12 03:00:00,8,1018.1,1.2,93,7,15000,14.816,,,220,,,,,,,,,,,wg-a,,,,AAXX 12034 07070 12/65 32208 10080 20070 30070 40181 53012 60006 80002 90300=
07070,1997-05-12 06:00:00,9,1019.9,1.8,93,8,12000,7.408,,,200,7.9,12.6,,,,,2,,,,wg-a,,,,AAXX 12064 07070 02462 42004 10090 20080 30088 40199 53018 60006 81804 90600 333 10126 20079 60024=
07070,1997-05-12 09:00:00,13,1021.4,1.6,77,9,16000,11.112,,,240,,,,,,,,,,,wg-a,,,,AAXX 12094 07070 12466 /2406 10130 20090 30104 40214 51016 60006 83209 90900=
07070,1997-05-12 12:00:00,17,1021.4,0.2,52,7,25000,18.52,,,220,,,,,,,,,,,wg-a,,,,AAXX 12124 07070 12675 42210 10170 20070 30106 40214 50002 60006 84200 91200=
07070,1997-05-12 15:00:00,18,1020.9,-0.5,49,7,25000,14.816,,,230,,,,,,,,,,,wg-a,,,,AAXX 12154 07070 12775 52308 10180 20070 30101 40209 58005 60006 85200 91500=
07070,1997-05-12 18:00:00,16,1020.7,-0.2,59,8,35000,11.112,,,220,8.6,18.5,,,,,,,,,wg-a,,,,AAXX 12184 07070 12781 62206 10160 20080 30099 40207 55002 60006 86200 91800 333 10185 20086=
07070,1997-05-12 21:00:00,10,1022.5,1.5,87,8,500,3.704,,,110,,,,,,,,,,,wg-a,,,,AAXX 12214 07070 12700 21102 10100 20080 30114 40225 53015 60006 82400 92100=
07070,1997-05-13 00:00:00,7,1022.5,-0.1,93,6,25000,0,,,0,,,,,,,,,,,wg-a,,,,AAXX 13004 07070 12/75 00000 10070 20060 30113 40225 58001 60006 80000 90000=
07070,1997-05-13 03:00:00,7,1022.4,-0.1,93,6,20000,0,,,0,,,,,,,,,,,wg-a,,,,AAXX 13034 07070 12770 60000 10070 20060 30112 40224 55001 60006 86500 90300=
07070,1997-05-13 06:00:00,8,1022.6,0.2,100,8,7000,0,,,0,6,16.1,,,,,,,,,wg-a,,,,AAXX 13064 07070 12/57 60000 10080 20080 30114 40226 53002 60006 82082 90600 333 10161 20060=
07070,1997-05-13 09:00:00,17,1021.9,-0.3,77,13,12000,3.704,,,100,,,,,,,,,,,wg-a,,,,AAXX 13094 07070 12562 31002 10170 20130 30111 40219 58003 60006 81281 90900=
07070,1997-05-13 12:00:00,19,1020.8,-1,64,12,20000,11.112,,,140,,,,,,,,,,,wg-a,,,,AAXX 13124 07070 12670 71406 10190 20120 30101 40208 58010 60006 85201 91200=
07070,1997-05-13 15:00:00,20,1019.3,-1.5,64,13,25000,14.816,,,150,,,,,,,,,,,wg-a,,,,AAXX 13154 07070 12675 71508 10200 20130 30086 40193 58015 60006 83231 91500=
07070,1997-05-13 18:00:00,19,1017.9,-1.4,78,15,20000,3.704,,,110,8.3,21.2,,,,,,,,,wg-a,,,,AAXX 13184 07070 12670 71102 10190 20150 30072 40179 56014 60006 8598/ 91800 333 10212 20083=
07070,1997-05-13 21:00:00,13,1017.7,-0.4,94,12,15000,11.112,,,90,,,,1,,,,,,3,wg-a,,,,AAXX 13214 07070 12665 70906 10130 20120 30068 40177 58004 60017 70398 85963 92100=
07070,1997-05-13 22:00:00,13,1017.4,-1.1,94,12,12000,3.704,,,10,,,,,,,,,,80,wg-a,,,,AAXX 13224 07070 02662 80102 10130 20120 30065 40174 58011 61000 78098 889// 92200 333 ////=
07070,1997-05-14 00:00:00,13,1018.2,0.5,94,12,7000,11.112,,,310,,,,8,,,,,,80,wg-a,,,,AAXX 14004 07070 02257 83106 10130 20120 30073 40182 53005 60096 78098 889// 90000 333 60087=
07070,1997-05-14 03:00:00,13,1017.3,-0.9,100,13,6000,7.408,,,290,,,,0,,,,,,3,wg-a,,,,AAXX 14034 07070 12356 82904 10130 20130 30064 40173 58009 60007 70362 886// 90300=
07070,1997-05-14 06:00:00,12,1019,1.6,100,12,1500,14.816,,,300,11.8,18.9,,,,,,,,10,wg-a,,,,AAXX 14064 07070 02215 83008 10120 20120 30080 40190 51016 61000 71065 887// 90600 333 10189 20118 6009=
07070,1997-05-14 09:00:00,12,1021.4,2.4,94,11,4000,11.112,,,320,,,,1,,,,,,10,wg-a,,,,AAXX 14094 07070 12240 83206 10120 20110 30104 40214 51024 60017 71065 878// 90900=
07070,1997-05-14 12:00:00,15,1022.1,0.8,82,12,10000,18.52,,,340,,,,,,,,,,1,wg-a,,,,AAXX 14124 07070 12460 73410 10150 20120 30112 40221 51008 60016 70165 85211 91200=
07070,1997-05-14 15:00:00,16,1022.1,0,72,11,12000,11.112,,,360,,,,,,,,,,,wg-a,,,,AAXX 14154 07070 12562 73606 10160 20110 30112 40221 50000 60006 85808 91500=
07070,1997-05-14 18:00:00,15,1021.8,-0.3,82,12,10000,7.408,,,50,11.5,16.3,,,,,,,,,wg-a,,,,AAXX 14184 07070 12560 70504 10150 20120 30109 40218 55003 60006 81101 91800 333 10163 20115=
07070,1997-05-14 21:00:00,11,1022.6,0.6,94,10,8000,7.408,,,50,,,,,,,,,,,wg-a,,,,AAXX 14214 07070 12/58 70504 10110 20100 30115 40226 51006 60006 80002 92100=
07070,1997-05-15 00:00:00,9,1022.3,-0.3,93,8,7000,3.704,,,150,,,,,,,,,,,wg-a,,,,AAXX 15004 07070 12757 71502 10090 20080 30112 40223 55003 60006 83502 90000=
07070,1997-05-15 03:00:00,9,1021.1,-1.2,100,9,4000,7.408,,,40,,,,,,,,,,10,wg-a,,,,AAXX 15034 07070 12740 70404 10090 20090 30100 40211 57012 60006 71022 85502 90300=
07070,1997-05-15 06:00:00,11,1019.8,-1.2,94,10,4500,14.816,,,40,8.4,14.8,,,,,1,,,10,wg-a,,,,AAXX 15064 07070 02745 70408 10110 20100 30088 40198 57012 60006 71062 81532 90600 333 10148 20084 60014=
07070,1997-05-15 09:00:00,16,1018.7,-0.9,82,13,7000,14.816,,,100,,,,,,,,,,,wg-a,,,,AAXX 15094 07070 12457 /1008 10160 20130 30079 40187 58009 60006 81177 90900=
07070,1997-05-15 12:00:00,21,1016.7,-1.8,73,16,15000,18.52,,,90,,,,,,,,,,,wg-a,,,,AAXX 15124 07070 12565 30910 10210 20160 30061 40167 58018 60006 81102 91200=
07070,1997-05-15 15:00:00,24,1014.9,-1.7,61,16,20000,14.816,,,130,,,,,,,,,,,wg-a,,,,AAXX 15154 07070 12/70 51308 10240 20160 30044 40149 56017 60006 81031 91500=
07070,1997-05-15 18:00:00,23,1014.5,-0.4,78,19,20000,7.408,,,50,10.9,24.2,,,,,,,,,wg-a,,,,AAXX 15184 07070 12/70 60504 10230 20190 30040 40145 55004 60006 83082 91800 333 10242 20109=
07070,1997-05-15 21:00:00,17,1014.8,0.1,88,15,10000,7.408,,,90,,,,,,,,,,,wg-a,,,,AAXX 15214 07070 12/60 70904 10170 20150 30041 40148 52001 60006 81081 92100=
07070,1997-05-16 00:00:00,17,1015.7,0.8,88,15,10000,3.704,,,150,,,,,,,,,,13,wg-a,,,,AAXX 16004 07070 12560 71502 10170 20150 30049 40157 53008 60006 71322 8299/ 90000=
07070,1997-05-16 03:00:00,16,1014.8,-0.9,94,15,10000,3.704,,,10,,,,1,,,,,,13,wg-a,,,,AAXX 16034 07070 12560 70102 10160 20150 30040 40148 55009 60017 71398 8198/ 90300=
07070,1997-05-16 06:00:00,15,1014.8,-0,100,15,4500,7.408,,,330,14.4,22.4,,,,,1,,,10,wg-a,,,,AAXX 16064 07070 02645 73304 10150 20150 30040 40148 55000 60006 71098 81582 90600 333 10224 20144 60014=
07070,1997-05-16 09:00:00,21,1014.9,0.3,83,18,8000,11.112,,,100,,,,,,,,,,,wg-a,,,,AAXX 16094 07070 12758 71006 10210 20180 30043 40149 50003 60006 81532 90900=
07070,1997-05-16 12:00:00,22,1014.3,-0.5,83,19,6000,11.112,,,120,,,,0,,,,,,21,wg-a,,,,AAXX 16124 07070 02756 71206 10220 20190 30038 40143 58005 60006 72162 875// 91200 333 60007=
07070,1997-05-16 15:00:00,25,1012.4,-1.8,69,19,10000,14.816,,,150,,,,,,,,,,,wg-a,,,,AAXX 16154 07070 12/60 71508 10250 20190 30020 40124 56018 60006 80002 91500=
07070,1997-05-16 18:00:00,22,1011.7,-0.8,78,18,8000,11.112,,,150,15.5,25.4,,,,,,,,,wg-a,,,,AAXX 16184 07070 12/58 71506 10220 20180 30012 40117 57008 60006 82072 91800 333 10254 20155=
07070,1997-05-16 21:00:00,19,1013.4,1.5,78,15,10000,11.112,,,180,,,,,,,,,,,wg-a,,,,AAXX 16214 07070 12/60 51806 10190 20150 30027 40134 51015 60006 83072 92100=
07070,1997-05-17 00:00:00,16,1013.4,-0.1,94,15,10000,11.112,,,80,,,,,,,,,,,wg-a,,,,AAXX 17004 07070 12/60 50806 10160 20150 30026 40134 57001 60006 83072 90000=
07070,1997-05-17 03:00:00,13,1013.3,-0.2,94,12,500,11.112,,,70,,,,,,,,,,,wg-a,,,,AAXX 17034 07070 12/00 30706 10130 20120 30024 40133 58002 60006 80002 90300=
07070,1997-05-17 06:00:00,14,1013.2,-0.1,100,14,15000,14.816,,,90,12.7,22,,,,,,,,,wg-a,,,,AAXX 17064 07070 02/65 40908 10140 20140 30024 40132 57001 60006 82082 90600 333 10220 20127 60004=
07070,1997-05-17 09:00:00,20,1013.5,0.5,78,16,10000,7.408,,,100,,,,,,,,,,,wg-a,,,,AAXX 17094 07070 12/60 71004 10200 20160 30029 40135 51005 60006 8707/ 90900=
07070,1997-05-17 12:00:00,25,1012.3,-1,54,15,15000,14.816,,,160,,,,,,,,,,,wg-a,,,,AAXX 17124 07070 12/65 51608 10250 20150 30019 40123 57010 60006 80001 91200=
07070,1997-05-17 15:00:00,26,1010.7,-1.6,58,17,15000,18.52,,,150,,,,,,,,,,,wg-a,,,,AAXX 17154 07070 12665 /1510 10260 20170 30003 40107 58016 60006 81202 91500=
07070,1997-05-17 18:00:00,22,1010.5,-0.3,83,19,15000,3.704,,,160,14.4,25.9,,,,,,,,2,wg-a,,,,AAXX 17184 07070 12665 71602 10220 20190 30000 40105 55003 60006 70292 82982 91800 333 10259 20144=
07070,1997-05-17 21:00:00,17,1012.9,2.2,88,15,12000,7.408,,,90,,,,4,,,,,,29,wg-a,,,,AAXX 17214 07070 12462 70904 10170 20150 30022 40129 51022 60047 72998 8423/ 92100=
07070,1997-05-18 00:00:00,16,1012.9,-0.1,94,15,10000,7.408,,,160,,,,,,,,,,61,wg-a,,,,AAXX 18004 07070 02760 81604 10160 20150 30021 40129 56001 60046 76198 885// 90000 333 61000=
07070,1997-05-18 03:00:00,16,1012,-0.8,94,15,8000,3.704,,,170,,,,1,,,,,,61,wg-a,,,,AAXX 18034 07070 12758 81702 10160 20150 30013 40120 56008 60017 76166 885// 90300=
07070,1997-05-18 06:00:00,15,1012.4,0.3,100,15,4500,3.704,,,160,15.1,22.3,,,,,,,,63,wg-a,,,,AAXX 18064 07070 02445 81602 10150 20150 30016 40124 53003 61000 76366 885// 90600 333 10223 20151 6007=
07070,1997-05-18 09:00:00,17,1012.6,0.3,88,15,10000,11.112,,,240,,,,1,,,,,,,wg-a,,,,AAXX 18094 07070 12460 82406 10170 20150 30019 40126 51003 60017 8557/ 90900=
07070,1997-05-18 12:00:00,19,1012.3,-0.2,73,14,20000,18.52,,,220,,,,,,,,,,3,wg-a,,,,AAXX 18124 07070 12570 72210 10190 20140 30017 40123 58002 60016 70362 872// 91200=
07070,1997-05-18 18:00:00,18,1011.4,-0.6,73,13,500,11.112,,,230,15,19.7,,,,,,,,1,wg-a,,,,AAXX 18184 07070 12600 /2306 10180 20130 30007 40114 56006 60006 70182 83231 91800 333 10197 20150=
07070,1997-05-18 21:00:00,12,1012.2,0.6,100,12,25000,11.112,,,160,,,,,,,,,,,wg-a,,,,AAXX 18214 07070 12675 /1606 10120 20120 30013 40122 53006 60006 81400 92100=
07070,1997-05-19 00:00:00,12,1011.9,-0.3,94,11,25000,7.408,,,190,,,,,,,,,,,wg-a,,,,AAXX 19004 07070 12/75 01904 10120 20110 30010 40119 58003 60006 80000 90000=
07070,1997-05-19 03:00:00,10,1010.8,-1.2,100,10,10000,0,,,0,,,,,,,,,,,wg-a,,,,AAXX 19034 07070 12/60 00000 10100 20100 39998 40108 58012 60006 80000 90300=
07070,1997-05-19 06:00:00,13,1009.4,-1.2,94,12,15000,11.112,,,90,8.9,18.2,,,,,2,,,,wg-a,,,,AAXX 19064 07070 02765 50906 10130 20120 39986 40094 58012 60006 815/1 90600 333 10182 20089 60024=
07070,1997-05-19 09:00:00,19,1008.4,-0.5,78,15,25000,18.52,,,160,,,,,,,,,,,wg-a,,,,AAXX 19094 07070 12575 41610 10190 20150 39978 40084 57005 60006 90900=
07070,1997-05-19 12:00:00,22,1007.3,-0.9,69,16,25000,22.224,,,160,,,,,,,,,,,wg-a,,,,AAXX 19124 07070 12575 71612 10220 20160 39968 40073 58009 60006 81131 91200=
07070,1997-05-19 15:00:00,22,1007.4,0.1,60,14,25000,22.224,,,260,,,,,,,,,,,wg-a,,,,AAXX 19154 07070 12675 72612 10220 20140 39969 40074 51001 60006 83232 91500=
07070,1997-05-19 18:00:00,20,1007.4,-0.1,64,13,25000,14.816,,,260,12.8,22.3,,,,,,,,,wg-a,,,,AAXX 19184 07070 12675 72608 10200 20130 39968 40074 55001 60006 81272 91800 333 10223 20128=
07070,1997-05-19 21:00:00,15,1008.7,1.2,82,12,25000,3.704,,,320,,,,,,,,,,,wg-a,,,,AAXX 19214 07070 12/75 23202 10150 20120 39980 40087 51012 60006 82030 92100=
07070,1997-05-20 00:00:00,12,1008.4,-0.5,94,11,25000,3.704,,,100,,,,,,,,,,,wg-a,,,,AAXX 20004 07070 12/75 71002 10120 20110 39975 40084 57005 60006 8707/ 90000=
07070,1997-05-20 03:00:00,13,1007.1,-1.2,94,12,20000,14.816,,,170,,,,,,,,,,,wg-a,,,,AAXX 20034 07070 12/70 61708 10130 20120 39963 40071 56012 60006 86070 90300=
07070,1997-05-20 06:00:00,14,1007.1,-0,94,13,15000,14.816,,,180,11.7,19.6,,,,,,,,,wg-a,,,,AAXX 20064 07070 12665 51808 10140 20130 39963 40071 55000 60006 81282 90600 333 10196 20117=
07070,1997-05-20 09:00:00,17,1006.4,-0.6,77,13,15000,18.52,,,220,,,,,,,,,,,wg-a,,,,AAXX 20094 07070 12565 72210 10170 20130 39957 40064 56006 60006 878// 90900=
07070,1997-05-20 12:00:00,18,1005.5,-0.8,59,10,20000,29.632,,,240,,,,0,,,,,,1,wg-a,,,,AAXX 20124 07070 02570 62416 10180 20100 39949 40055 58008 60016 70162 85802 91200 333 60007=
07070,1997-05-20 15:00:00,17,1005.4,-0.1,68,11,25000,25.928,,,240,,,,0,,,,,,29,wg-a,,,,AAXX 20154 07070 12575 72414 10170 20110 39948 40054 58001 60007 72998 83903 91500=
07070,1997-05-20 18:00:00,15,1005.9,0.4,77,11,25000,29.632,,,230,12.7,19.2,,2,,,,,,1,wg-a,,,,AAXX 20184 07070 02675 62316 10150 20110 39952 40059 51004 60006 70198 84903 91800 333 10192 20127 60027=
07070,1997-05-20 21:00:00,13,1007.2,1.2,88,11,15000,14.816,,,220,,,,0,,,,,,1,wg-a,,,,AAXX 20214 07070 12765 72208 10130 20110 39964 40072 51012 60007 70182 8653/ 92100=
07070,1997-05-21 00:00:00,13,1007,-0.2,88,11,15000,22.224,,,220,,,,,,,,,,3,wg-a,,,,AAXX 21004 07070 12565 72212 10130 20110 39962 40070 58002 60016 70382 878// 90000=
07070,1997-05-21 03:00:00,12,1006.4,-0.6,94,11,10000,25.928,,,230,,,,,,,,,,25,wg-a,,,,AAXX 21034 07070 02460 82314 10120 20110 39956 40064 56006 61000 72582 878// 90300 333 ////=
07070,1997-05-21 06:00:00,12,1006.3,-0.1,94,11,10000,18.52,,,220,11.8,15.3,,,,,3,,,3,wg-a,,,,AAXX 21064 07070 02460 72210 10120 20110 39955 40063 55001 60006 70382 872// 90600 333 10153 20118 60034=
07070,1997-05-21 12:00:00,14,1006.5,0.5,88,12,10000,29.632,,,250,,,,1,,,,,,80,wg-a,,,,AAXX 21124 07070 02360 82516 10140 20120 39957 40065 52005 60026 78086 878// 91200 333 60017=
07070,1997-05-21 15:00:00,13,1007.9,1.4,88,11,500,18.52,,,280,,,,3,,,,,,81,wg-a,,,,AAXX 21154 07070 12400 82810 10130 20110 39971 40079 53014 60037 78182 872// 91500=
07070,1997-05-21 18:00:00,13,1009.9,2,94,12,20000,18.52,,,320,12.1,15,,,,,,,,60,wg-a,,,,AAXX 21184 07070 02470 83210 10130 20120 39991 40099 53020 61000 76086 8587/ 91800 333 10150 20121 6001=
07070,1997-05-21 21:00:00,12,1012.4,2.4,94,11,6000,14.816,,,330,,,,,,,,,,3,wg-a,,,,AAXX 21214 07070 02456 73308 10120 20110 30015 40124 51024 61000 70362 86801 92100 333 ////=
07070,1997-05-22 00:00:00,11,1013.5,1,94,10,8000,7.408,,,250,,,,,,,,,,3,wg-a,,,,AAXX 22004 07070 02458 72504 10110 20100 30025 40135 51010 61000 70362 875// 90000 333 ////=
07070,1997-05-22 03:00:00,11,1013.5,-0,87,9,8000,7.408,,,330,,,,,,,,,,,wg-a,,,,AAXX 22034 07070 12458 73304 10110 20090 30025 40135 55000 60006 876// 90300=
07070,1997-05-22 06:00:00,10,1014.7,1.2,93,9,7000,3.704,,,330,10.2,13.1,,,,,,,,20,wg-a,,,,AAXX 22064 07070 02457 83302 10100 20090 30037 40147 53012 61000 72052 886// 90600 333 10131 20102 6006=
07070,1997-05-22 09:00:00,10,1016.2,1.5,93,9,3500,7.408,,,310,,,,0,,,,,,10,wg-a,,,,AAXX 22094 07070 12435 83104 10100 20090 30052 40162 51015 60007 71062 887// 90900=
07070,1997-05-22 12:00:00,12,1016.5,0.3,88,10,8000,7.408,,,300,,,,,,,,,,1,wg-a,,,,AAXX 22124 07070 12358 83004 10120 20100 30055 40165 50003 60006 70162 875// 91200=
07070,1997-05-22 18:00:00,14,1016.2,0.4,77,10,15000,11.112,,,30,9.8,15.9,,,,,,,,,wg-a,,,,AAXX 22184 07070 12565 /0306 10140 20100 30053 40162 53004 60006 83572 91800 333 10159 20098=
07070,1997-05-22 21:00:00,12,1017.1,0.8,88,10,8000,3.704,,,360,,,,,,,,,,,wg-a,,,,AAXX 22214 07070 12558 73602 10120 20100 30061 40171 51008 60006 875// 92100=
07070,1997-05-23 00:00:00,10,1017.1,0,93,9,6000,11.112,,,10,,,,,,,,,,,wg-a,,,,AAXX 23004 07070 12656 70106 10100 20090 30061 40171 50000 60006 875// 90000=
07070,1997-05-23 03:00:00,9,1017.3,0.1,93,8,500,7.408,,,10,,,,,,,,,,,wg-a,,,,AAXX 23034 07070 12600 70104 10090 20080 30062 40173 53001 60006 875// 90300=
07070,1997-05-23 06:00:00,9,1018.2,0.9,93,8,3000,11.112,,,360,8.3,14,,,,,,,,10,wg-a,,,,AAXX 23064 07070 02730 73606 10090 20080 30071 40182 53009 60006 71022 81501 90600 333 10140 20083 60004=
07070,1997-05-23 09:00:00,13,1018.7,0.7,77,9,8000,14.816,,,40,,,,,,,,,,,wg-a,,,,AAXX 23094 07070 12458 70408 10130 20090 30078 40187 51007 60006 84202 90900=
07070,1997-05-23 12:00:00,15,1018.4,-0.2,67,9,15000,11.112,,,20,,,,,,,,,,,wg-a,,,,AAXX 23124 07070 12565 70206 10150 20090 30076 40184 56002 60006 86202 91200=
07070,1997-05-23 15:00:00,16,1018.2,-0.2,59,8,20000,7.408,,,40,,,,,,,,,,,wg-a,,,,AAXX 23154 07070 12670 /0404 10160 20080 30074 40182 57002 60006 85200 91500=
07070,1997-05-23 18:00:00,16,1018.3,0.1,68,10,20000,11.112,,,20,9.2,18.1,,,,,,,,,wg-a,,,,AAXX 23184 07070 12770 50206 10160 20100 30075 40183 53001 60006 814/2 91800 333 10181 20092=
07070,1997-05-23 21:00:00,10,1020.1,1.5,82,7,10000,11.112,,,30,,,,,,,,,,,wg-a,,,,AAXX 23214 07070 12/60 20306 10100 20070 30090 40201 53015 60006 80001 92100=
07070,1997-05-24 00:00:00,8,1021,0.8,81,5,10000,11.112,,,10,,,,,,,,,,,wg-a,,,,AAXX 24004 07070 12/60 00106 10080 20050 30098 40210 52008 60006 80000 90000=
07070,1997-05-24 03:00:00,8,1021.8,0.8,87,6,10000,7.408,,,350,,,,,,,,,,,wg-a,,,,AAXX 24034 07070 12660 73504 10080 20060 30106 40218 53008 60006 875// 90300=
07070,1997-05-24 06:00:00,10,1022.3,0.6,71,5,10000,18.52,,,50,7.2,16.3,,,,,,,,,wg-a,,,,AAXX 24064 07070 12760 10510 10100 20050 30112 40223 53006 60006 81500 90600 333 10163 20072=
07070,1997-05-24 09:00:00,15,1023,0.9,55,6,10000,25.928,,,60,,,,,,,,,,,wg-a,,,,AAXX 24094 07070 12/60 50614 10150 20060 30121 40230 51009 60006 80001 90900=
07070,1997-05-24 12:00:00,17,1022.7,-0.2,52,7,12000,22.224,,,40,,,,,,,,,,,wg-a,,,,AAXX 24124 07070 12/62 70412 10170 20070 30119 40227 58002 60006 80001 91200=
07070,1997-05-24 15:00:00,18,1022.9,0.2,49,7,12000,22.224,,,40,,,,,,,,,,,wg-a,,,,AAXX 24154 07070 12762 60412 10180 20070 30121 40229 53002 60006 81101 91500=
07070,1997-05-24 18:00:00,16,1023.5,0.5,55,7,12000,22.224,,,40,9.5,18,,,,,,,,,wg-a,,,,AAXX 24184 07070 12/62 60412 10160 20070 30126 40235 53005 60006 80001 91800 333 10180 20095=
07070,1997-05-25 00:00:00,6,1026.1,0.4,87,4,10000,7.408,,,60,,,,,,,,,,,wg-a,,,,AAXX 25004 07070 12/60 00604 10060 20040 30148 40261 50004 60006 80000 90000=
07070,1997-05-25 03:00:00,4,1026.2,-0,93,3,10000,3.704,,,20,,,,,,,,,,,wg-a,,,,AAXX 25034 07070 12/60 00202 10040 20030 30148 40262 55000 60006 80000 90300=
07070,1997-05-25 06:00:00,9,1026.3,0.3,81,6,15000,14.816,,,70,3.9,16,,,,,,,,,wg-a,,,,AAXX 25064 07070 12/65 00708 10090 20060 30151 40263 53003 60006 80000 90600 333 10160 20039=
07070,1997-05-25 09:00:00,15,1025.8,-0.2,59,7,500,25.928,,,90,,,,,,,,,,,wg-a,,,,AAXX 25094 07070 12/00 00914 10150 20070 30149 40258 58002 60006 80000 90900=
07070,1997-05-25 12:00:00,18,1025.3,-0.5,37,3,500,18.52,,,60,,,,,,,,,,,wg-a,,,,AAXX 25124 07070 12/00 30610 10180 20030 30144 40253 58005 60006 80002 91200=
07070,1997-05-25 15:00:00,19,1023.8,-1.4,40,5,500,18.52,,,80,,,,,,,,,,,wg-a,,,,AAXX 25154 07070 12/00 10810 10190 20050 30130 40238 58014 60006 80001 91500=
07070,1997-05-25 18:00:00,18,1023.2,-0.6,56,9,500,7.408,,,90,8.6,19.4,,,,,,,,,wg-a,,,,AAXX 25184 07070 12/00 00904 10180 20090 30124 40232 55006 60006 80000 91800 333 10194 20086=
07070,1997-05-25 21:00:00,11,1024.6,1.1,76,7,500,11.112,,,20,,,,,,,,,,,wg-a,,,,AAXX 25214 07070 12/00 00206 10110 20070 30135 40246 53011 60006 80000 92100=
07070,1997-05-26 00:00:00,7,1025.1,0.3,87,5,20000,3.704,,,260,,,,,,,,,,,wg-a,,,,AAXX 26004 07070 12/70 02602 10070 20050 30138 40251 50003 60006 80000 90000=
07070,1997-05-26 06:00:00,7,1025.1,0.4,93,6,10000,0,,,0,3.3,18.3,,,,,,,,,wg-a,,,,AAXX 26064 07070 12/60 50000 10070 20060 30139 40251 53004 60006 80001 90600 333 10183 20033=
07070,1997-05-26 09:00:00,16,1025.1,0.3,55,7,20000,3.704,,,330,,,,,,,,,,,wg-a,,,,AAXX 26094 07070 12/70 53302 10160 20070 30142 40251 50003 60006 80001 90900=
07070,1997-05-26 12:00:00,19,1023.9,-1.1,46,7,20000,3.704,,,100,,,,,,,,,,,wg-a,,,,AAXX 26124 07070 12/70 51002 10190 20070 30131 40239 57011 60006 80001 91200=
07070,1997-05-26 18:00:00,19,1022,-0.3,46,7,500,14.816,,,340,7.4,21,,,,,,,,,wg-a,,,,AAXX 26184 07070 12/00 33408 10190 20070 30112 40220 55003 60006 80001 91800 333 10210 20074=
07070,1997-05-26 21:00:00,13,1022.6,0.4,72,8,20000,11.112,,,10,,,,,,,,,,,wg-a,,,,AAXX 26214 07070 12/70 00106 10130 20080 30116 40226 52004 60006 80000 92100=
07070,1997-05-27 00:00:00,10,1022.8,0.1,82,7,10000,0,,,0,,,,,,,,,,,wg-a,,,,AAXX 27004 07070 12/60 00000 10100 20070 30117 40228 50001 60006 80000 90000=
07070,1997-05-27 03:00:00,9,1022.1,-0.8,87,7,10000,7.408,,,40,,,,,,,,,,,wg-a,,,,AAXX 27034 07070 12/60 00404 10090 20070 30109 40221 57008 60006 80000 90300=
07070,1997-05-27 06:00:00,11,1022.7,0.7,76,7,10000,11.112,,,360,7.3,19.2,,,,,,,,,wg-a,,,,AAXX 27064 07070 12/60 03606 10110 20070 30116 40227 53007 60006 80000 90600 333 10192 20073=
07070,1997-05-27 09:00:00,14,1023,0.5,72,9,15000,18.52,,,10,,,,,,,,,,,wg-a,,,,AAXX 27094 07070 12565 /0110 10140 20090 30121 40230 51005 60006 86200 90900=
07070,1997-05-27 12:00:00,17,1022.3,-0.6,55,8,20000,14.816,,,20,,,,,,,,,,,wg-a,,,,AAXX 27124 07070 12670 /0208 10170 20080 30115 40223 58006 60006 85500 91200=
07070,1997-05-27 15:00:00,19,1021.5,-0.8,52,9,20000,18.52,,,30,,,,,,,,,,,wg-a,,,,AAXX 27154 07070 12670 30310 10190 20090 30107 40215 57008 60006 83500 91500=
07070,1997-05-27 18:00:00,16,1021.8,0.2,59,8,20000,25.928,,,20,11,18.8,,,,,,,,,wg-a,,,,AAXX 27184 07070 12670 10214 10160 20080 30109 40218 53002 60006 81500 91800 333 10188 20110=
07070,1997-05-28 00:00:00,7,1024.6,1.2,93,6,8000,14.816,,,350,,,,,,,,,,,wg-a,,,,AAXX 28004 07070 12/58 03508 10070 20060 30134 40246 51012 60006 80000 90000=
07070,1997-05-28 03:00:00,6,1025.4,0.7,93,5,8000,14.816,,,10,,,,,,,,,,,wg-a,,,,AAXX 28034 07070 12/58 00108 10060 20050 30141 40254 53007 60006 80000 90300=
07070,1997-05-28 06:00:00,7,1026.9,1.5,87,5,9000,11.112,,,10,4.5,16.3,,,,,,,,,wg-a,,,,AAXX 28064 07070 12359 /0106 10070 20050 30156 40269 51015 60006 81600 90600 333 10163 20045=
07070,1997-05-28 09:00:00,12,1026.9,0.2,54,3,500,22.224,,,60,,,,,,,,,,,wg-a,,,,AAXX 28094 07070 12600 30612 10120 20030 30158 40269 50002 60006 83100 90900=
07070,1997-05-28 12:00:00,15,1026.4,-0.3,59,7,500,22.224,,,60,,,,,,,,,,,wg-a,,,,AAXX 28124 07070 12/00 00612 10150 20070 30155 40264 58003 60006 80000 91200=
07070,1997-05-28 18:00:00,17,1025.4,-0.3,52,7,500,14.816,,,100,7.1,17.8,,,,,,,,,wg-a,,,,AAXX 28184 07070 12/00 01008 10170 20070 30145 40254 56003 60006 80000 91800 333 10178 20071=
07070,1997-05-28 21:00:00,10,1027.1,1.4,82,7,500,3.704,,,50,,,,,,,,,,,wg-a,,,,AAXX 28214 07070 12/00 00502 10100 20070 30159 40271 53014 60006 80000 92100=
07070,1997-05-29 00:00:00,6,1027.8,0.6,93,5,15000,0,,,0,,,,,,,,,,,wg-a,,,,AAXX 29004 07070 12/65 00000 10060 20050 30165 40278 50006 60006 80000 90000=
07070,1997-05-29 03:00:00,3,1027.8,-0.2,93,2,10000,3.704,,,110,,,,,,,,,,,wg-a,,,,AAXX 29034 07070 12/60 01102 10030 20020 30163 40278 57002 60006 80000 90300=
07070,1997-05-29 06:00:00,9,1027.4,-0.1,87,7,15000,7.408,,,60,2.6,16.9,,,,,,,,,wg-a,,,,AAXX 29064 07070 12/65 30604 10090 20070 30162 40274 55001 60006 80001 90600 333 10169 20026=
07070,1997-05-29 09:00:00,16,1027,-0.1,59,8,500,22.224,,,90,,,,,,,,,,,wg-a,,,,AAXX 29094 07070 12/00 60912 10160 20080 30161 40270 57001 60006 80001 90900=
07070,1997-05-29 12:00:00,20,1026.4,-0.5,46,8,500,18.52,,,80,,,,,,,,,,,wg-a,,,,AAXX 29124 07070 12/00 60810 10200 20080 30156 40264 58005 60006 80001 91200=
07070,1997-05-29 15:00:00,21,1025.3,-1,46,9,500,14.816,,,50,,,,,,,,,,,wg-a,,,,AAXX 29154 07070 12/00 50508 10210 20090 30146 40253 56010 60006 80001 91500=
07070,1997-05-29 18:00:00,21,1024.6,-0.7,53,11,500,7.408,,,90,8.9,21.7,,,,,,,,,wg-a,,,,AAXX 29184 07070 12/00 60904 10210 20110 30139 40246 56007 60006 80001 91800 333 10217 20089=
07070,1997-05-29 21:00:00,13,1025.6,0.7,77,9,12000,11.112,,,40,,,,,,,,,,,wg-a,,,,AAXX 29214 07070 12/62 70406 10130 20090 30146 40256 53007 60006 80001 92100=
07070,1997-05-30 00:00:00,10,1026.5,0.7,82,7,12000,3.704,,,340,,,,,,,,,,,wg-a,,,,AAXX 30004 07070 12/62 53402 10100 20070 30153 40265 52007 60006 80001 90000=
07070,1997-05-30 03:00:00,6,1027.3,0.7,100,6,10000,0,,,0,,,,,,,,,,,wg-a,,,,AAXX 30034 07070 12/60 10000 10060 20060 30160 40273 52007 60006 80001 90300=
07070,1997-05-30 06:00:00,11,1027.5,0.4,87,9,6000,3.704,,,30,5.4,20.6,,,,,,,,,wg-a,,,,AAXX 30064 07070 12/56 /0302 10110 20090 30164 40275 52004 60006 80001 90600 333 10206 20054=
07070,1997-05-30 09:00:00,18,1026.9,-0.4,59,10,500,18.52,,,70,,,,,,,,,,,wg-a,,,,AAXX 30094 07070 12/00 30710 10180 20100 30160 40269 58004 60006 80001 90900=
07070,1997-05-30 12:00:00,21,1025.6,-1.1,46,9,500,14.816,,,60,,,,,,,,,,,wg-a,,,,AAXX 30124 07070 12/00 20608 10210 20090 30149 40256 58011 60006 80001 91200=
07070,1997-05-30 15:00:00,22,1024.2,-1.4,38,7,500,18.52,,,70,,,,,,,,,,,wg-a,,,,AAXX 30154 07070 12/00 10710 10220 20070 30135 40242 56014 60006 80001 91500=
07070,1997-05-30 18:00:00,20,1023.2,-1,49,9,500,14.816,,,90,11.3,22.7,,,,,,,,,wg-a,,,,AAXX 30184 07070 12/00 10908 10200 20090 30125 40232 56010 60006 80001 91800 333 10227 20113=
07070,1997-05-30 21:00:00,12,1024.2,0.6,76,8,500,7.408,,,60,,,,,,,,,,,wg-a,,,,AAXX 30214 07070 12/00 00604 10120 20080 30131 40242 53006 60006 80000 92100=
07070,1997-05-31 00:00:00,8,1024.1,-0.2,87,6,20000,3.704,,,20,,,,,,,,,,,wg-a,,,,AAXX 31004 07070 12/70 00202 10080 20060 30129 40241 58002 60006 80000 90000=
07070,1997-05-31 03:00:00,5,1023.8,-0.4,93,4,20000,0,,,0,,,,,,,,,,,wg-a,,,,AAXX 31034 07070 12/70 00000 10050 20040 30125 40238 58004 60006 80000 90300=
07070,1997-05-31 09:00:00,16,1022.3,-0.6,48,5,25000,29.632,,,80,,,,,,,,,,,wg-a,,,,AAXX 31094 07070 12/75 10816 10160 20050 30114 40223 56006 60006 80001 90900=
07070,1997-05-31 12:00:00,19,1020.7,-1.5,37,4,25000,31.484,,,80,,,,,,,,,,,wg-a,,,,AAXX 31124 07070 12/75 20817 10190 20040 30099 40207 56015 60006 80001 91200=
07070,1997-05-31 15:00:00,20,1019.4,-1.2,32,3,25000,31.484,,,90,,,,,,,,,,,wg-a,,,,AAXX 31154 07070 12/75 20917 10200 20030 30087 40194 56012 60006 80001 91500=
07070,1997-05-31 18:00:00,18,1018.5,-1,37,3,25000,29.632,,,70,10.9,20.1,,,,,,,,,wg-a,,,,AAXX 31184 07070 12/75 20716 10180 20030 30077 40185 56010 60006 80001 91800 333 10201 20109=
07070,1997-06-01 00:00:00,7,1019.3,-0.4,70,2,15000,14.816,,,70,,,,,,,,,,,wg-a,,,,AAXX 01004 07070 12/65 00708 10070 20020 30081 40193 58004 60006 80000 90000=
07070,1997-06-01 03:00:00,5,1018.3,-1.1,75,1,20000,11.112,,,60,,,,,,,,,,,wg-a,,,,AAXX 01034 07070 12/70 10606 10050 20010 30070 40183 56011 60006 80001 90300=
07070,1997-06-01 06:00:00,10,1018.1,0,62,3,25000,29.632,,,60,4.6,17.7,,,,,,,,,wg-a,,,,AAXX 01064 07070 12/75 00616 10100 20030 30070 40181 50000 60006 80000 90600 333 10177 20046=
07070,1997-06-01 09:00:00,14,1016.7,-1.2,44,2,40000,42.596,,61.116,80,,,,,,,,,,,wg-a,,,,AAXX 01094 07070 12782 10823 10140 20020 30058 40167 58012 60006 81100 90900 333 91033=
07070,1997-06-01 12:00:00,15,1014.5,-2.1,41,2,40000,38.892,,57.412,60,,,,,,,,,,,wg-a,,,,AAXX 01124 07070 12782 60621 10150 20020 30037 40145 57021 60006 86100 91200 333 91031=
07070,1997-06-01 15:00:00,15,1012.4,-2.1,51,5,500,31.484,,50.004,70,,,,,,,,,,,wg-a,,,,AAXX 01154 07070 12700 70717 10150 20050 30016 40124 56021 60006 872// 91500 333 91027=
07070,1997-06-01 18:00:00,15,1011.4,-1,55,6,25000,22.224,,,80,10.2,16.6,,,,,,,,,wg-a,,,,AAXX 01184 07070 12775 50812 10150 20060 30006 40114 56010 60006 85100 91800 333 10166 20102=
07070,1997-06-01 21:00:00,9,1011.9,0.3,87,7,20000,11.112,,,70,,,,,,,,,,,wg-a,,,,AAXX 01214 07070 12770 10706 10090 20070 30009 40119 52003 60006 81400 92100=
07070,1997-06-02 00:00:00,12,1011.5,-0.3,76,8,15000,14.816,,,70,,,,,,,,,,,wg-a,,,,AAXX 02004 07070 12/65 70708 10120 20080 30006 40115 58003 60006 8703/ 90000=
07070,1997-06-02 06:00:00,12,1012.2,0.8,76,8,12000,25.928,,,80,8.5,15.1,,,,,,,,,wg-a,,,,AAXX 02064 07070 12/62 20814 10120 20080 30013 40122 53008 60006 82030 90600 333 10151 20085=
07070,1997-06-02 09:00:00,16,1012.6,0.6,68,10,15000,25.928,,,90,,,,,,,,,,,wg-a,,,,AAXX 02094 07070 12/65 20914 10160 20100 30019 40126 52006 60006 80001 90900=
07070,1997-06-02 12:00:00,20,1012.3,-0.2,56,11,15000,22.224,,,110,,,,,,,,,,,wg-a,,,,AAXX 02124 07070 12665 51112 10200 20110 30017 40123 58002 60006 82101 91200=
07070,1997-06-02 18:00:00,17,1013.1,0.4,68,11,15000,14.816,,,80,12.3,20.8,,,,,,,,,wg-a,,,,AAXX 02184 07070 12765 70808 10170 20110 30024 40131 53004 60006 875// 91800 333 10208 20123=
07070,1997-06-02 21:00:00,15,1014.2,1,88,13,10000,11.112,,,150,,,,,,,,,,60,wg-a,,,,AAXX 02214 07070 32760 81506 10150 20130 30034 40142 53010 76062 885// 92100=
07070,1997-06-03 00:00:00,13,1014.3,-0,100,13,10000,3.704,,,60,,,,0,,,,,,,wg-a,,,,AAXX 03004 07070 02760 80602 10130 20130 30034 40143 55000 60006 885// 90000 333 60007=
07070,1997-06-03 03:00:00,13,1014.1,-0.2,100,13,4000,3.704,,,20,,,,,,,,,,10,wg-a,,,,AAXX 03034 07070 12640 80202 10130 20130 30032 40141 56002 60006 71022 888// 90300=
07070,1997-06-03 06:00:00,13,1014.4,0.3,94,12,4500,3.704,,,350,12.9,18.3,,,,,,,,10,wg-a,,,,AAXX 03064 07070 02745 73502 10130 20120 30035 40144 53003 60006 71022 8558/ 90600 333 10183 20129 60004=
07070,1997-06-03 09:00:00,18,1014.8,0.6,77,14,500,7.408,,,40,,,,,,,,,,,wg-a,,,,AAXX 03094 07070 12400 20404 10180 20140 30041 40148 51006 60006 81801 90900=
07070,1997-06-03 12:00:00,21,1014.9,0.2,60,13,12000,7.408,,,80,,,,,,,,,,,wg-a,,,,AAXX 03124 07070 12662 70804 10210 20130 30043 40149 50002 60006 878// 91200=
07070,1997-06-03 15:00:00,22,1014.9,-0,53,12,12000,7.408,,,360,,,,,,,,,,,wg-a,,,,AAXX 03154 07070 12662 /3604 10220 20120 30043 40149 54000 60006 85800 91500=
07070,1997-06-03 18:00:00,21,1014.6,-0.3,56,12,8000,14.816,,,50,13.3,22.6,,,,,,,,16,wg-a,,,,AAXX 03184 07070 12658 30508 10210 20120 30040 40146 57003 60006 71611 82901 91800 333 10226 20133=
07070,1997-06-03 21:00:00,17,1016.4,1.6,77,13,11000,3.704,,,310,,,,,,,,,,,wg-a,,,,AAXX 03214 07070 12/61 /3102 10170 20130 30056 40164 51016 60006 92100=
07070,1997-06-04 00:00:00,12,1016.6,0.1,94,11,12000,3.704,,,70,,,,,,,,,,,wg-a,,,,AAXX 04004 07070 12/62 20702 10120 20110 30057 40166 50001 60006 80001 90000=
07070,1997-06-04 03:00:00,11,1016.5,-0.2,94,10,500,3.704,,,200,,,,,,,,,,,wg-a,,,,AAXX 04034 07070 12/00 22002 10110 20100 30055 40165 56002 60006 80001 90300=
07070,1997-06-04 06:00:00,13,1016.5,0.1,94,12,3500,3.704,,,80,8.6,21,,,,,,,,10,wg-a,,,,AAXX 04064 07070 12/35 20802 10130 20120 30056 40165 53001 60006 71000 80001 90600 333 10210 20086=
07070,1997-06-04 09:00:00,20,1016.2,-0,68,14,10000,11.112,,,120,,,,,,,,,,,wg-a,,,,AAXX 04094 07070 12460 /1206 10200 20140 30056 40162 55000 60006 81200 90900=
07070,1997-06-04 12:00:00,23,1014.7,-1.4,57,14,25000,11.112,,,80,,,,,,,,,,,wg-a,,,,AAXX 04124 07070 12675 20806 10230 20140 30042 40147 56014 60006 82200 91200=
07070,1997-06-04 15:00:00,23,1013.3,-1.4,47,11,18000,18.52,,,100,,,,,,,,,,,wg-a,,,,AAXX 04154 07070 12768 31010 10230 20110 30028 40133 56014 60006 834/2 91500=
07070,1997-06-04 18:00:00,23,1011.7,-1.6,53,13,25000,14.816,,,90,12.7,24.5,,,,,,,,,wg-a,,,,AAXX 04184 07070 12775 10908 10230 20130 30012 40117 58016 60006 81400 91800 333 10245 20127=
07070,1997-06-04 21:00:00,14,1011.9,-0.1,82,11,10000,11.112,,,80,,,,,,,,,,,wg-a,,,,AAXX 04214 07070 12/60 /0806 10140 20110 30011 40119 55001 60006 92100=
07070,1997-06-05 00:00:00,12,1010.5,-1.5,88,10,15000,14.816,,,100,,,,,,,,,,,wg-a,,,,AAXX 05004 07070 12/65 31008 10120 20100 39996 40105 58015 60006 80001 90000=
07070,1997-06-05 03:00:00,11,1008.8,-1.7,87,9,12000,0,,,0,,,,,,,,,,,wg-a,,,,AAXX 05034 07070 12/62 70000 10110 20090 39979 40088 56017 60006 82032 90300=
07070,1997-06-05 06:00:00,14,1007.5,-1.2,82,11,10000,14.816,,,80,10.3,22.5,,,,,,,,,wg-a,,,,AAXX 05064 07070 12460 70808 10140 20110 39967 40075 56012 60006 81152 90600 333 10225 20103=
07070,1997-06-05 12:00:00,24,1005.5,-1,57,15,20000,18.52,,,150,,,,,,,,,,1,wg-a,,,,AAXX 05124 07070 02670 61510 10240 20150 39951 40055 58010 61000 70162 83272 91200 333 ////=
07070,1997-06-05 18:00:00,23,1004.7,-0.2,73,18,25000,11.112,,,150,14.3,25,,,,,,,,,wg-a,,,,AAXX 05184 07070 12575 71506 10230 20180 39943 40047 55002 60006 8399/ 91800 333 10250 20143=
07070,1997-06-05 21:00:00,18,1005.8,0.9,88,16,15000,7.408,,,130,,,,,,,,,,3,wg-a,,,,AAXX 05214 07070 12665 71304 10180 20160 39952 40058 53009 60006 70382 878// 92100=
07070,1997-06-06 00:00:00,17,1007.1,1.2,94,16,12000,3.704,,,180,,,,3,,,,,,80,wg-a,,,,AAXX 06004 07070 02662 81802 10170 20160 39964 40071 50012 60036 78082 889// 90000 333 60037=
07070,1997-06-06 03:00:00,16,1007.4,0.3,100,16,15000,3.704,,,90,,,,1,,,,,,21,wg-a,,,,AAXX 06034 07070 12765 80902 10160 20160 39967 40074 51003 60017 72186 8558/ 90300=
07070,1997-06-06 06:00:00,17,1008.9,1.5,94,16,16000,11.112,,,170,15.8,22.8,,,,,4,,,3,wg-a,,,,AAXX 06064 07070 02766 71706 10170 20160 39982 40089 53015 60006 70386 8553/ 90600 333 10228 20158 60044=
07070,1997-06-06 09:00:00,20,1010.1,1.3,83,17,18000,18.52,,,180,,,,,,,,,,,wg-a,,,,AAXX 06094 07070 12568 71810 10200 20170 39995 40101 53013 60006 84832 90900=
07070,1997-06-06 12:00:00,24,1009.9,0,61,16,20000,22.224,,,180,,,,,,,,,,,wg-a,,,,AAXX 06124 07070 12670 71812 10240 20160 39995 40099 50000 60006 82232 91200=
07070,1997-06-06 15:00:00,25,1009.5,-0.4,61,17,25000,14.816,,,180,,,,,,,,,,,wg-a,,,,AAXX 06154 07070 12775 71808 10250 20170 39991 40095 56004 60006 81202 91500=
07070,1997-06-06 18:00:00,24,1009.4,-0.1,65,17,25000,14.816,,,170,16.8,25.2,,,,,,,,,wg-a,,,,AAXX 06184 07070 12/75 71708 10240 20170 39990 40094 55001 60006 81032 91800 333 10252 20168=
07070,1997-06-07 00:00:00,18,1009.4,-0.7,88,16,15000,14.816,,,160,,,,,,,,,,,wg-a,,,,AAXX 07004 07070 12/65 01608 10180 20160 39988 40094 56007 60006 80000 90000=
07070,1997-06-07 03:00:00,17,1008.8,-0.7,94,16,15000,18.52,,,160,,,,,,,,,,,wg-a,,,,AAXX 07034 07070 12/65 31610 10170 20160 39981 40088 58007 60006 80002 90300=
07070,1997-06-07 06:00:00,18,1008.9,0.2,83,15,15000,3.704,,,90,15.4,23.7,,,,,,,,,wg-a,,,,AAXX 07064 07070 12665 /0902 10180 20150 39983 40089 53002 60006 81282 90600 333 10237 20154=
07070,1997-06-07 09:00:00,23,1007.9,-0.8,78,19,20000,18.52,,,150,,,,,,,,,,,wg-a,,,,AAXX 07094 07070 12670 /1510 10230 20190 39975 40079 58008 60006 81282 90900=
07070,1997-06-07 12:00:00,26,1009.4,1.6,58,17,15000,22.224,,,240,,,,,,,,,,,wg-a,,,,AAXX 07124 07070 12565 72412 10260 20170 39991 40094 52016 60006 8498/ 91200=
07070,1997-06-07 15:00:00,20,1009.7,-0,88,18,12000,11.112,,,200,,,,3,,,,,,25,wg-a,,,,AAXX 07154 07070 12562 72006 10200 20180 39991 40097 55000 60037 72522 879// 91500=
07070,1997-06-07 18:00:00,23,1009.8,0.3,73,18,25000,0,,,0,17.5,26.8,,,,,,,,3,wg-a,,,,AAXX 07184 07070 12775 70000 10230 20180 39994 40098 50003 60006 70382 84283 91800 333 10268 20175=
07070,1997-06-07 21:00:00,18,1010.8,0.8,94,17,15000,7.408,,,130,,,,,,,,,,13,wg-a,,,,AAXX 07214 07070 12565 81304 10180 20170 30002 40108 53008 60006 71322 83983 92100=
07070,1997-06-08 00:00:00,17,1010.5,-0.4,88,15,15000,7.408,,,170,,,,1,,,,,,1,wg-a,,,,AAXX 08004 07070 02565 81704 10170 20150 39998 40105 55004 60016 70198 889// 90000 333 60017=
07070,1997-06-08 03:00:00,16,1011.5,1,100,16,15000,7.408,,,160,,,,,,,,,,,wg-a,,,,AAXX 08034 07070 12565 81604 10160 20160 30008 40115 51010 60006 8388/ 90300=
07070,1997-06-08 06:00:00,17,1013.2,1.7,94,16,20000,14.816,,,270,16.3,23.3,,,,,4,,,,wg-a,,,,AAXX 08064 07070 02470 42708 10170 20160 30025 40132 53017 60006 81280 90600 333 10233 20163 60044=
07070,1997-06-08 09:00:00,22,1014.9,1.8,60,14,25000,14.816,,,270,,,,,,,,,,,wg-a,,,,AAXX 08094 07070 12675 22708 10220 20140 30043 40149 51018 60006 81130 90900=
07070,1997-06-08 12:00:00,24,1015.4,0.6,50,13,25000,18.52,,,270,,,,,,,,,,,wg-a,,,,AAXX 08124 07070 12675 /2710 10240 20130 30049 40154 51006 60006 85200 91200=
07070,1997-06-08 15:00:00,22,1016,0.5,57,13,15000,22.224,,,240,,,,,,,,,,80,wg-a,,,,AAXX 08154 07070 02565 82412 10220 20130 30054 40160 53005 61000 78092 889// 91500 333 ////=
07070,1997-06-08 18:00:00,20,1018.2,2.2,73,15,20000,11.112,,,350,16.8,25.3,,,,,,,,1,wg-a,,,,AAXX 08184 07070 12570 63506 10200 20150 30076 40182 53022 60006 70198 84282 91800 333 10253 20168=
07070,1997-06-09 06:00:00,15,1023.5,1.2,94,14,12000,3.704,,,50,11.2,20.2,,,,,,,,,wg-a,,,,AAXX 09064 07070 02462 20502 10150 20140 30126 40235 51012 60006 81801 90600 333 10202 20112 60004=
07070,1997-06-09 09:00:00,21,1023.9,0.6,64,14,20000,7.408,,,120,,,,,,,,,,,wg-a,,,,AAXX 09094 07070 32570 /1204 10210 20140 30132 40239 50006 85201 90900=
07070,1997-06-09 12:00:00,22,1023.3,-0.5,65,15,11000,7.408,,,70,,,,,,,,,,,wg-a,,,,AAXX 09124 07070 12/61 /0704 10220 20150 30127 40233 57005 60006 91200=
07070,1997-06-09 15:00:00,23,1022.3,-1,57,14,25000,7.408,,,130,,,,,,,,,,,wg-a,,,,AAXX 09154 07070 12675 71304 10230 20140 30117 40223 58010 60006 83202 91500=
07070,1997-06-09 18:00:00,22,1021.5,-0.8,78,18,25000,7.408,,,90,16.5,23.7,,,,,,,,,wg-a,,,,AAXX 09184 07070 12675 70904 10220 20180 30109 40215 56008 60006 83402 91800 333 10237 20165=
07070,1997-06-09 21:00:00,17,1021.7,-0,88,15,20000,0,,,0,,,,,,,,,,,wg-a,,,,AAXX 09214 07070 12/70 70000 10170 20150 30109 40217 55000 60006 81082 92100=
07070,1997-06-10 00:00:00,14,1021,-0.8,94,13,15000,0,,,0,,,,,,,,,,,wg-a,,,,AAXX 10004 07070 12665 70000 10140 20130 30101 40210 56008 60006 81582 90000=
07070,1997-06-10 03:00:00,13,1020.2,-0.9,94,12,15000,3.704,,,30,,,,,,,,,,,wg-a,,,,AAXX 10034 07070 12/65 30302 10130 20120 30092 40202 57009 60006 81082 90300=
07070,1997-06-10 06:00:00,16,1019.4,-0.6,82,13,12000,3.704,,,30,12,21.4,,,,,,,,,wg-a,,,,AAXX 10064 07070 12/62 60302 10160 20130 30086 40194 57006 60006 80001 90600 333 10214 20120=
07070,1997-06-10 09:00:00,23,1018.1,-1.1,65,16,12000,11.112,,,100,,,,,,,,,,,wg-a,,,,AAXX 10094 07070 12/62 61006 10230 20160 30075 40181 56011 60006 81031 90900=
07070,1997-06-10 12:00:00,26,1015.5,-2.4,58,17,15000,14.816,,,80,,,,,,,,,,,wg-a,,,,AAXX 10124 07070 12/65 60808 10260 20170 30051 40155 58024 60006 81032 91200=
07070,1997-06-10 15:00:00,28,1013.4,-2,48,16,20000,14.816,,,130,,,,,,,,,,,wg-a,,,,AAXX 10154 07070 12770 61308 10280 20160 30031 40134 58020 60006 81101 91500=
07070,1997-06-10 18:00:00,25,1011.6,-1.9,65,18,20000,14.816,,,120,15.9,27.9,,,,,,,,,wg-a,,,,AAXX 10184 07070 12770 61208 10250 20180 30012 40116 57019 60006 81432 91800 333 10279 20159=
07070,1997-06-11 00:00:00,20,1009.7,-1.4,78,16,15000,7.408,,,80,,,,,,,,,,,wg-a,,,,AAXX 11004 07070 12765 70804 10200 20160 39991 40097 58014 60006 83572 90000=
07070,1997-06-11 03:00:00,19,1008.3,-1.4,83,16,10000,3.704,,,20,,,,,,,,,,,wg-a,,,,AAXX 11034 07070 12760 80202 10190 20160 39977 40083 58014 60006 8557/ 90300=
07070,1997-06-11 06:00:00,20,1008.1,-0.1,88,18,15000,7.408,,,170,18.6,25.2,,,,,,,,60,wg-a,,,,AAXX 11064 07070 02765 81704 10200 20180 39976 40081 57001 61000 76062 81572 90600 333 10252 20186 6100=
07070,1997-06-11 09:00:00,22,1009.3,1.2,83,19,10000,14.816,,,250,,,,1,,,,,,61,wg-a,,,,AAXX 11094 07070 12760 72508 10220 20190 39988 40093 53012 60017 76162 8647/ 90900=
07070,1997-06-11 12:00:00,24,1008.8,-0.4,78,20,12000,7.408,,,210,,,,1,,,,,,1,wg-a,,,,AAXX 11124 07070 02562 /2104 10240 20200 39984 40088 58004 60026 70198 83202 91200 333 60017=
07070,1997-06-11 15:00:00,26,1006.9,-1.8,70,20,15000,18.52,,,160,,,,,,,,,,,wg-a,,,,AAXX 11154 07070 12665 /1610 10260 20200 39966 40069 58018 60006 85202 91500=
07070,1997-06-11 18:00:00,15,1008.7,1.4,100,15,10000,11.112,,,80,15.4,26.5,,,,,,,,61,wg-a,,,,AAXX 11184 07070 02660 70806 10150 20150 39980 40087 50014 61000 76198 879// 91800 333 10265 20154 6004=
07070,1997-06-11 21:00:00,15,1010.1,1.3,94,14,10000,14.816,,,180,,,,,,,,,,,wg-a,,,,AAXX 11214 07070 02/60 51808 10150 20140 39993 40101 51013 61000 85030 92100 333 ////=
07070,1997-06-12 00:00:00,15,1010.4,0.3,100,15,10000,11.112,,,190,,,,,,,,,,,wg-a,,,,AAXX 12004 07070 02/60 01906 10150 20150 39996 40104 52003 61000 80000 90000 333 ////=
07070,1997-06-12 03:00:00,15,1010.9,0.5,88,13,10000,7.408,,,200,,,,,,,,,,,wg-a,,,,AAXX 12034 07070 32/60 02004 10150 20130 30001 40109 51005 80000 90300=
07070,1997-06-12 06:00:00,17,1011.4,0.6,88,15,12000,14.816,,,180,13.6,16.8,,,,,7,,,,wg-a,,,,AAXX 12064 07070 02362 61808 10170 20150 30007 40114 52006 60006 84801 90600 333 10168 20136 60074=
07070,1997-06-12 09:00:00,18,1011.3,0,83,15,18000,18.52,,,210,,,,,,,,,,,wg-a,,,,AAXX 12094 07070 12468 72110 10180 20150 30007 40113 50000 60006 878// 90900=
07070,1997-06-12 12:00:00,20,1011.4,0.1,64,13,25000,18.52,,,230,,,,,,,,,,,wg-a,,,,AAXX 12124 07070 12575 72310 10200 20130 30008 40114 52001 60006 85802 91200=
07070,1997-06-12 15:00:00,22,1010.2,-1.1,60,14,25000,11.112,,,210,,,,,,,,,,,wg-a,,,,AAXX 12154 07070 12675 72106 10220 20140 39997 40102 58011 60006 82402 91500=
07070,1997-06-12 18:00:00,22,1008.8,-1.4,65,15,25000,14.816,,,230,16.8,23.1,,,,,,,,,wg-a,,,,AAXX 12184 07070 12675 62308 10220 20150 39983 40088 57014 60006 82832 91800 333 10231 20168=
07070,1997-06-13 00:00:00,14,1009.7,-0.1,94,13,12000,7.408,,,120,,,,,,,,,,,wg-a,,,,AAXX 13004 07070 12/62 41204 10140 20130 39989 40097 58001 60006 83032 90000=
07070,1997-06-13 03:00:00,13,1009.3,-0.4,94,12,8000,11.112,,,180,,,,,,,,,,,wg-a,,,,AAXX 13034 07070 12758 /1806 10130 20120 39985 40093 58004 60006 81500 90300=
07070,1997-06-13 06:00:00,16,1008.6,-0.6,94,15,9000,11.112,,,220,11.9,22.5,,,,,,,,,wg-a,,,,AAXX 13064 07070 12/59 72206 10160 20150 39979 40086 56006 60006 81034 90600 333 10225 20119=
07070,1997-06-13 09:00:00,21,1008.3,-0.1,64,14,20000,7.408,,,230,,,,,,,,,,,wg-a,,,,AAXX 13094 07070 12570 72304 10210 20140 39978 40083 58001 60006 84132 90900=
07070,1997-06-13 12:00:00,23,1007.3,-0.9,57,14,11000,14.816,,,250,,,,,,,,,,,wg-a,,,,AAXX 13124 07070 12/61 /2508 10230 20140 39969 40073 58009 60006 91200=
07070,1997-06-13 15:00:00,22,1006,-1.3,73,17,20000,18.52,,,250,,,,1,,,,,,80,wg-a,,,,AAXX 13154 07070 12670 /2510 10220 20170 39956 40060 56013 60017 78082 85232 91500=
07070,1997-06-13 18:00:00,21,1006,-0.1,64,14,25000,18.52,,,260,16.4,24.3,,,,,,,,2,wg-a,,,,AAXX 13184 07070 12675 72610 10210 20140 39955 40060 55001 60006 70282 84432 91800 333 10243 20164=
07070,1997-06-13 21:00:00,16,1006.9,0.7,100,16,10000,7.408,,,250,,,,1,,,,,,21,wg-a,,,,AAXX 13214 07070 12460 82504 10160 20160 39962 40069 52007 60017 72162 8557/ 92100=
07070,1997-06-14 00:00:00,16,1006.9,-0,94,15,6000,7.408,,,250,,,,1,,,,,,21,wg-a,,,,AAXX 14004 07070 02256 72504 10160 20150 39962 40069 54000 60026 72162 875// 90000 333 60017=
07070,1997-06-14 03:00:00,16,1007.1,0.2,94,15,6000,7.408,,,250,,,,,,,,,,,wg-a,,,,AAXX 14034 07070 12256 82504 10160 20150 39964 40071 53002 60006 885// 90300=
07070,1997-06-14 06:00:00,16,1008.1,1,94,15,500,11.112,,,230,15.3,20.5,,,,,,,,21,wg-a,,,,AAXX 14064 07070 02200 82306 10160 20150 39974 40081 53010 61000 72162 885// 90600 333 10205 20153 6003=
07070,1997-06-14 09:00:00,18,1008.5,0.5,88,16,10000,11.112,,,230,,,,,,,,,,,wg-a,,,,AAXX 14094 07070 12460 82306 10180 20160 39979 40085 50005 60006 885// 90900=
07070,1997-06-14 12:00:00,16,1010.6,2,94,15,8000,22.224,,,290,,,,5,,,,,,80,wg-a,,,,AAXX 14124 07070 02358 72912 10160 20150 39999 40106 53020 60056 78098 872// 91200 333 60057=
07070,1997-06-14 15:00:00,19,1011.8,1.3,73,14,15000,29.632,,,260,,,,0,,,,,,,wg-a,,,,AAXX 14154 07070 12465 /2616 10190 20140 30012 40118 51013 60007 86200 91500=
07070,1997-06-14 18:00:00,17,1013.8,1.9,82,14,15000,18.52,,,270,15,19.5,,,,,,,,21,wg-a,,,,AAXX 14184 07070 02465 72710 10170 20140 30031 40138 52019 61000 72162 83882 91800 333 10195 20150 6100=
07070,1997-06-14 21:00:00,15,1016.2,2.3,88,13,12000,11.112,,,270,,,,,,,,,,,wg-a,,,,AAXX 14214 07070 12662 72706 10150 20130 30054 40162 52023 60006 875// 92100=
07070,1997-06-15 00:00:00,13,1017.6,1.3,88,11,15000,11.112,,,250,,,,,,,,,,,wg-a,,,,AAXX 15004 07070 12765 62506 10130 20110 30067 40176 51013 60006 86500 90000=
07070,1997-06-15 06:00:00,12,1018.9,1.1,82,9,20000,3.704,,,220,7.7,16.7,,,,,5,,,,wg-a,,,,AAXX 15064 07070 02770 22202 10120 20090 30079 40189 53011 60006 81501 90600 333 10167 20077 60054=
07070,1997-06-15 09:00:00,17,1019.4,0.7,52,7,25000,7.408,,,320,,,,,,,,,,,wg-a,,,,AAXX 15094 07070 12575 /3204 10170 20070 30086 40194 51007 60006 81130 90900=
07070,1997-06-15 12:00:00,20,1019.4,0.1,46,8,25000,11.112,,,260,,,,,,,,,,,wg-a,,,,AAXX 15124 07070 12675 32606 10200 20080 30087 40194 51001 60006 81201 91200=
07070,1997-06-15 18:00:00,20,1018.9,-0,53,10,25000,7.408,,,40,11.8,21.1,,,,,,,,,wg-a,,,,AAXX 15184 07070 12775 10404 10200 20100 30082 40189 55000 60006 81200 91800 333 10211 20118=
07070,1997-06-15 21:00:00,15,1019.7,0.6,88,13,20000,7.408,,,80,,,,,,,,,,,wg-a,,,,AAXX 15214 07070 12770 70804 10150 20130 30088 40197 53006 60006 8358/ 92100=
07070,1997-06-16 00:00:00,14,1019.4,-0.3,88,12,10000,7.408,,,40,,,,,,,,,,,wg-a,,,,AAXX 16004 07070 12760 70404 10140 20120 30085 40194 58003 60006 8357/ 90000=
07070,1997-06-16 03:00:00,13,1019.1,-0.3,94,12,10000,3.704,,,340,,,,,,,,,,,wg-a,,,,AAXX 16034 07070 12760 73402 10130 20120 30082 40191 57003 60006 875// 90300=
07070,1997-06-16 06:00:00,15,1019.1,-0,82,12,10000,11.112,,,60,12.8,19.6,,,,,,,,,wg-a,,,,AAXX 16064 07070 12560 70606 10150 20120 30082 40191 55000 60006 87832 90600 333 10196 20128=
07070,1997-06-16 09:00:00,18,1018.3,-0.6,68,12,20000,18.52,,,80,,,,,,,,,,,wg-a,,,,AAXX 16094 07070 12670 70810 10180 20120 30076 40183 56006 60006 85831 90900=
07070,1997-06-16 12:00:00,21,1017.1,-1.1,56,12,20000,22.224,,,80,,,,,,,,,,,wg-a,,,,AAXX 16124 07070 12670 70812 10210 20120 30065 40171 58011 60006 83831 91200=
07070,1997-06-16 18:00:00,17,1015.7,-0.5,88,15,7000,14.816,,,40,14.5,21.5,,1,,,,,,29,wg-a,,,,AAXX 16184 07070 02557 50408 10170 20150 30050 40157 55005 60006 72998 83931 91800 333 10215 20145 60017=
07070,1997-06-16 21:00:00,14,1016.4,0.5,88,12,8000,3.704,,,350,,,,,,,,,,,wg-a,,,,AAXX 16214 07070 12758 /3502 10140 20120 30055 40164 53005 60006 82280 92100=
07070,1997-06-17 00:00:00,13,1016.1,-0.3,94,12,10000,7.408,,,70,,,,,,,,,,,wg-a,,,,AAXX 17004 07070 12760 70704 10130 20120 30052 40161 55003 60006 8558/ 90000=
07070,1997-06-17 03:00:00,13,1015.7,-0.4,94,12,7000,7.408,,,60,,,,,,,,,,13,wg-a,,,,AAXX 17034 07070 12657 70604 10130 20120 30048 40157 56004 60006 71322 879// 90300=
07070,1997-06-17 06:00:00,14,1016.3,0.6,94,13,4000,3.704,,,320,12.4,17.5,,,,,,,,10,wg-a,,,,AAXX 17064 07070 02440 83202 10140 20130 30054 40163 53006 61000 71052 877// 90600 333 10175 20124 6001=
07070,1997-06-17 12:00:00,15,1017.8,0.5,94,14,8000,14.816,,,80,,,,1,,,,,,60,wg-a,,,,AAXX 17124 07070 02458 80808 10150 20140 30070 40178 53005 60096 76065 8627/ 91200 333 60017=
07070,1997-06-17 15:00:00,15,1018,0.2,94,14,10000,7.408,,,20,,,,0,,,,,,60,wg-a,,,,AAXX 17154 07070 12460 80204 10150 20140 30072 40180 52002 60007 76062 888// 91500=
07070,1997-06-17 18:00:00,15,1018.2,0.2,88,13,10000,7.408,,,30,13,16.5,,0,,,,,,1,wg-a,,,,AAXX 17184 07070 02460 70304 10150 20130 30074 40182 53002 60006 70162 878// 91800 333 10165 20130 60007=
07070,1997-06-17 21:00:00,14,1019.5,1.2,94,13,7000,7.408,,,320,,,,,,,,,,,wg-a,,,,AAXX 17214 07070 12757 73204 10140 20130 30086 40195 53012 60006 875// 92100=
07070,1997-06-18 00:00:00,12,1019.6,-0,94,11,8000,7.408,,,300,,,,,,,,,,,wg-a,,,,AAXX 18004 07070 12/58 23004 10120 20110 30086 40196 55000 60006 82030 90000=
07070,1997-06-18 06:00:00,11,1019.8,0.3,94,10,3000,7.408,,,310,9.3,15,,,,,10,,,10,wg-a,,,,AAXX 18064 07070 02/30 03104 10110 20100 30088 40198 51003 60006 71000 80000 90600 333 10150 20093 60104=
07070,1997-06-18 09:00:00,16,1019.6,0,77,12,6000,14.816,,,320,,,,,,,,,,,wg-a,,,,AAXX 18094 07070 12456 23208 10160 20120 30088 40196 50000 60006 82101 90900=
07070,1997-06-18 12:00:00,19,1019.1,-0.4,49,8,18000,11.112,,,300,,,,,,,,,,,wg-a,,,,AAXX 18124 07070 12668 23006 10190 20080 30084 40191 56004 60006 82201 91200=
07070,1997-06-18 18:00:00,19,1017,-0.9,43,6,25000,3.704,,,40,11,20.4,,0,,,,,,,wg-a,,,,AAXX 18184 07070 02775 10402 10190 20060 30063 40170 56009 60006 81100 91800 333 10204 20110 60007=
07070,1997-06-18 21:00:00,12,1016.9,-0.4,82,9,10000,3.704,,,100,,,,,,,,,,,wg-a,,,,AAXX 18214 07070 12/60 /1002 10120 20090 30059 40169 56004 60006 92100=
07070,1997-06-19 00:00:00,8,1015.4,-1.6,93,7,10000,0,,,0,,,,,,,,,,,wg-a,,,,AAXX 19004 07070 12/60 20000 10080 20070 30043 40154 56016 60006 80001 90000=
07070,1997-06-19 03:00:00,8,1013.4,-2,93,7,10000,0,,,0,,,,,,,,,,,wg-a,,,,AAXX 19034 07070 12860 50000 10080 20070 30023 40134 58020 60006 83032 90300=
07070,1997-06-19 06:00:00,11,1011.7,-1.5,94,10,7000,0,,,0,7.3,19.5,,,,,,,,,wg-a,,,,AAXX 19064 07070 12857 70000 10110 20100 30008 40117 56015 60006 85082 90600 333 10195 20073=
07070,1997-06-19 12:00:00,21,1007.9,-1.9,53,11,15000,3.704,,,290,,,,,,,,,,,wg-a,,,,AAXX 19124 07070 12665 72902 10210 20110 39974 40079 58019 60006 82238 91200=
07070,1997-06-19 15:00:00,15,1007.2,-0.9,88,13,10000,7.408,,,120,,,,5,,,,,,61,wg-a,,,,AAXX 19154 07070 12660 71204 10150 20130 39965 40072 56009 60057 76198 8327/ 91500=
07070,1997-06-19 18:00:00,16,1006,-1.2,88,14,10000,7.408,,,160,11.2,21.5,,,,,,,,3,wg-a,,,,AAXX 19184 07070 02660 71604 10160 20140 39953 40060 55012 61000 70398 8597/ 91800 333 10215 20112 6000=
07070,1997-06-19 21:00:00,11,1007.6,1.4,94,10,7000,14.816,,,290,,,,8,,,,,,61,wg-a,,,,AAXX 19214 07070 12757 82908 10110 20100 39967 40076 51014 60087 76198 8357/ 92100=
07070,1997-06-20 00:00:00,11,1007.2,-0.4,94,10,8000,14.816,,,220,,,,1,,,,,,1,wg-a,,,,AAXX 20004 07070 02758 42208 10110 20100 39963 40072 58004 60096 70198 81530 90000 333 60017=
07070,1997-06-20 03:00:00,12,1006.6,-0.6,94,11,10000,14.816,,,230,,,,,,,,,,,wg-a,,,,AAXX 20034 07070 12560 52308 10120 20110 39957 40066 57006 60006 85800 90300=
07070,1997-06-20 06:00:00,13,1007.2,0.7,88,11,12000,22.224,,,240,10.6,16,,,,,14,,,,wg-a,,,,AAXX 20064 07070 02462 72412 10130 20110 39964 40072 52007 60006 86801 90600 333 10160 20106 60144=
07070,1997-06-20 09:00:00,15,1007.2,0.1,72,10,20000,18.52,,,240,,,,,,,,,,,wg-a,,,,AAXX 20094 07070 12570 72410 10150 20100 39965 40072 50001 60006 878// 90900=
07070,1997-06-20 12:00:00,18,1006.1,-1,56,9,20000,25.928,,,220,,,,,,,,,,,wg-a,,,,AAXX 20124 07070 12670 72214 10180 20090 39955 40061 56010 60006 86804 91200=
07070,1997-06-20 15:00:00,18,1004.6,-1.5,59,10,20000,18.52,,,200,,,,,,,,,,,wg-a,,,,AAXX 20154 07070 12670 82010 10180 20100 39940 40046 58015 60006 8645/ 91500=
07070,1997-06-20 18:00:00,15,1003.5,-1.2,94,14,7000,14.816,,,230,12.9,19.2,,,,,,,,61,wg-a,,,,AAXX 20184 07070 02457 82308 10150 20140 39928 40035 56012 61000 76162 878// 91800 333 10192 20129 6002=
07070,1997-06-20 21:00:00,15,1002.2,-1.3,88,13,12000,18.52,,,200,,,,,,,,,,3,wg-a,,,,AAXX 20214 07070 02562 72010 10150 20130 39915 40022 56013 61000 70362 878// 92100 333 ////=
07070,1997-06-21 00:00:00,15,1000.3,-1.9,88,13,10000,22.224,,,210,,,,0,,,,,,21,wg-a,,,,AAXX 21004 07070 02460 82112 10150 20130 39896 40003 56019 60016 72162 878// 90000 333 60007=
07070,1997-06-21 03:00:00,14,999.6,-0.7,94,13,10000,18.52,,,220,,,,0,,,,,,1,wg-a,,,,AAXX 21034 07070 12460 72210 10140 20130 39889 49996 56007 60007 70162 86571 90300=
07070,1997-06-21 06:00:00,15,1000.2,,82,12,15000,22.224,,,220,,,,,,,,,,1,wg-a,,,,AAXX 21064 07070 12565 72212 10150 20120 39895 40002 60006 70161 8287/ 90600=
07070,1997-06-21 12:00:00,17,999.9,-0.8,68,11,25000,29.632,,,240,,,,0,,,,,,25,wg-a,,,,AAXX 21124 07070 02575 72416 10170 20110 39893 49999 58008 60016 72582 8587/ 91200 333 60007=
07070,1997-06-21 15:00:00,17,999,-0.9,72,12,25000,18.52,,,210,,,,1,,,,,,25,wg-a,,,,AAXX 21154 07070 12675 /2110 10170 20120 39884 49990 58009 60017 72582 85870 91500=
07070,1997-06-21 18:00:00,16,999.2,0.2,77,12,6000,18.52,,,220,13.8,18.8,,,,,,,,80,wg-a,,,,AAXX 21184 07070 02556 72210 10160 20120 39886 49992 53002 61000 78098 879// 91800 333 10188 20138 6000=
07070,1997-06-21 21:00:00,12,1000.7,1.3,88,10,10000,14.816,,,230,,,,7,,,,,,21,wg-a,,,,AAXX 21214 07070 12760 72308 10120 20100 39899 40007 51013 60077 72198 874// 92100=
07070,1997-06-22 00:00:00,11,1001.8,1.1,87,9,10000,11.112,,,220,,,,,,,,,,,wg-a,,,,AAXX 22004 07070 12560 /2206 10110 20090 39910 40018 53011 60076 85400 90000=
07070,1997-06-22 03:00:00,10,1002,0.1,100,10,12000,11.112,,,200,,,,,,,,,,,wg-a,,,,AAXX 22034 07070 12662 42006 10100 20100 39911 40020 50001 60006 84400 90300=
07070,1997-06-22 06:00:00,12,1002.4,0.5,88,10,10000,14.816,,,210,10.3,16,,,,,8,,,,wg-a,,,,AAXX 22064 07070 02460 72108 10120 20100 39916 40024 50005 60006 875// 90600 333 10160 20103 60084=
07070,1997-06-22 09:00:00,15,1002.4,0.1,77,11,15000,29.632,,,230,,,,,,,,,,,wg-a,,,,AAXX 22094 07070 12465 72316 10150 20110 39917 40024 51001 60006 872// 90900=
07070,1997-06-22 12:00:00,17,1002.4,0.1,77,13,15000,29.632,,,220,,,,1,,,,,,25,wg-a,,,,AAXX 22124 07070 02565 52216 10170 20130 39918 40024 50001 60016 72582 83230 91200 333 60017=
07070,1997-06-22 15:00:00,20,1001.9,-0.4,46,8,500,25.928,,,250,,,,0,,,,,,1,wg-a,,,,AAXX 22154 07070 12600 52514 10200 20080 39914 40019 56004 60007 70181 84201 91500=
07070,1997-06-22 18:00:00,15,1003.3,1.2,77,11,12000,22.224,,,240,11.8,19.8,,,,,,,,80,wg-a,,,,AAXX 22184 07070 02662 72412 10150 20110 39926 40033 53012 61000 78081 86931 91800 333 10198 20118 6002=
07070,1997-06-22 21:00:00,13,1004.8,1.4,94,12,15000,14.816,,,220,,,,0,,,,,,60,wg-a,,,,AAXX 22214 07070 12665 /2208 10130 20120 39940 40048 51014 60007 76086 86801 92100=
07070,1997-06-23 00:00:00,13,1005.4,0.6,88,11,15000,18.52,,,230,,,,0,,,,,,3,wg-a,,,,AAXX 23004 07070 02565 72310 10130 20110 39946 40054 51006 60016 70386 875// 90000 333 60007=
07070,1997-06-23 03:00:00,13,1005.5,0.1,94,12,12000,18.52,,,250,,,,,,,,,,,wg-a,,,,AAXX 23034 07070 12462 82510 10130 20120 39947 40055 53001 60006 888// 90300=
07070,1997-06-23 06:00:00,14,1006.8,1.3,88,12,10000,22.224,,,260,12.5,14.9,,,,,,,,21,wg-a,,,,AAXX 23064 07070 02460 82612 10140 20120 39960 40068 53013 61000 72162 8687/ 90600 333 10149 20125 6004=
07070,1997-06-23 09:00:00,15,1008.5,1.8,82,12,11000,25.928,,,260,,,,,,,,,,25,wg-a,,,,AAXX 23094 07070 02461 72614 10150 20120 39978 40085 52018 61000 72582 8587/ 90900 333 ////=
07070,1997-06-23 12:00:00,17,1009.5,1,72,12,12000,29.632,,,270,,,,,,,,,,3,wg-a,,,,AAXX 23124 07070 12562 72716 10170 20120 39988 40095 51010 60006 70382 87231 91200=
07070,1997-06-23 15:00:00,14,1011,1.4,88,12,7000,18.52,,,250,,,,12,,,,,,29,wg-a,,,,AAXX 23154 07070 12457 72510 10140 20120 30002 40110 53014 60127 72998 879// 91500=
07070,1997-06-23 18:00:00,16,1011.1,0.2,88,14,10000,7.408,,,300,13.4,18.9,,,,,,,,3,wg-a,,,,AAXX 23184 07070 02460 73004 10160 20140 30004 40111 53002 60006 70398 879// 91800 333 10189 20134 61000=
07070,1997-06-23 21:00:00,13,1013.4,2.1,94,12,7000,11.112,,,280,,,,2,,,,,,80,wg-a,,,,AAXX 23214 07070 12457 72806 10130 20120 30025 40134 53021 60027 78082 879// 92100=
07070,1997-06-24 00:00:00,13,1014.1,0.7,100,13,10000,7.408,,,290,,,,3,,,,,,25,wg-a,,,,AAXX 24004 07070 02560 82904 10130 20130 30032 40141 51007 60056 72582 8487/ 90000 333 60037=
07070,1997-06-24 03:00:00,12,1014.1,-0,100,12,7000,14.816,,,260,,,,0,,,,,,,wg-a,,,,AAXX 24034 07070 12657 72608 10120 20120 30032 40141 55000 60007 8257/ 90300=
07070,1997-06-24 06:00:00,12,1014.9,0.8,94,11,2000,14.816,,,270,11.9,16.5,,,,,,,,10,wg-a,,,,AAXX 24064 07070 02320 82708 10120 20110 30040 40149 53008 61000 71062 877// 90600 333 10165 20119 6018=
07070,1997-06-24 09:00:00,13,1016,1.1,94,12,500,14.816,,,260,,,,,,,,,,60,wg-a,,,,AAXX 24094 07070 02300 72608 10130 20120 30051 40160 53011 61000 76062 878// 90900 333 ////=
07070,1997-06-24 12:00:00,17,1015.5,-0.3,77,13,10000,25.928,,,260,,,,,,,,,,,wg-a,,,,AAXX 24124 07070 02460 72614 10170 20130 30048 40155 58003 61000 878// 91200 333 6100=
07070,1997-06-24 15:00:00,15,1016.1,0.5,88,13,8000,22.224,,,320,,,,0,,,,,,80,wg-a,,,,AAXX 24154 07070 12458 73212 10150 20130 30053 40161 51005 60007 78082 873// 91500=
07070,1997-06-24 18:00:00,16,1015.7,-0.4,77,12,10000,7.408,,,310,11.9,17.4,,0,,,,,,1,wg-a,,,,AAXX 24184 07070 02560 73104 10160 20120 30049 40157 56004 60006 70182 878// 91800 333 10174 20119 60007=
07070,1997-06-24 21:00:00,13,1016,0.2,88,11,10000,11.112,,,260,,,,,,,,,,,wg-a,,,,AAXX 24214 07070 12760 62606 10130 20110 30051 40160 52002 60006 845/2 92100=
07070,1997-06-25 00:00:00,10,1015.4,-0.7,93,9,10000,3.704,,,170,,,,,,,,,,,wg-a,,,,AAXX 25004 07070 12760 21702 10100 20090 30044 40154 58007 60006 82500 90000=
07070,1997-06-25 06:00:00,12,1012,-1.5,94,11,6000,3.704,,,160,9.3,16,,,,,,,,21,wg-a,,,,AAXX 25064 07070 02456 71602 10120 20110 30011 40120 58015 61000 72122 878// 90600 333 10160 20093 6000=
07070,1997-06-25 09:00:00,16,1010.1,-1.7,72,11,12000,11.112,,,200,,,,,,,,,,,wg-a,,,,AAXX 25094 07070 12562 72006 10160 20110 39994 40101 58017 60006 8287/ 90900=
07070,1997-06-25 12:00:00,16,1008.2,-1.9,82,13,500,18.52,,,160,,,,0,,,,,,61,wg-a,,,,AAXX 25124 07070 02400 81610 10160 20130 39975 40082 58019 60006 76162 8587/ 91200 333 60007=
07070,1997-06-25 15:00:00,15,1005.7,-2.5,88,13,15000,18.52,,,200,,,,0,,,,,,21,wg-a,,,,AAXX 25154 07070 12565 82010 10150 20130 39950 40057 58025 60007 72162 8487/ 91500=
07070,1997-06-25 18:00:00,13,1003.9,-1.9,94,12,500,14.816,,,170,11.7,16.9,,,,,,,,63,wg-a,,,,AAXX 25184 07070 02300 81708 10130 20120 39931 40039 58019 61000 76365 885// 91800 333 10169 20117 6003=
07070,1997-06-25 21:00:00,12,1001.5,-2.4,100,12,3500,22.224,,,170,,,,3,,,,,,10,wg-a,,,,AAXX 25214 07070 12335 81712 10120 20120 39907 40015 56024 60037 71065 887// 92100=
07070,1997-06-26 00:00:00,13,998.4,-3,94,12,10000,18.52,,,180,,,,0,,,,,,2,wg-a,,,,AAXX 26004 07070 02360 81810 10130 20120 39877 49984 58030 60036 70265 887// 90000 333 60007=
07070,1997-06-26 03:00:00,13,996.6,-1.8,94,12,12000,11.112,,,240,,,,1,,,,,,21,wg-a,,,,AAXX 26034 07070 12462 72406 10130 20120 39859 49966 56018 60017 72165 875// 90300=
07070,1997-06-26 06:00:00,13,996,-0.6,94,12,12000,14.816,,,220,12,13.4,,,,,7,,,3,wg-a,,,,AAXX 26064 07070 02462 82208 10130 20120 39853 49960 57006 60006 70365 888// 90600 333 10134 20120 60074=
07070,1997-06-26 12:00:00,16,994.5,-0.8,88,14,10000,18.52,,,200,,,,0,,,,,,51,wg-a,,,,AAXX 26124 07070 02460 82010 10160 20140 39839 49945 58008 60036 75165 877// 91200 333 60007=
07070,1997-06-26 15:00:00,17,993.2,-1.2,88,15,15000,18.52,,,180,,,,1,,,,,,25,wg-a,,,,AAXX 26154 07070 12465 71810 10170 20150 39827 49932 56012 60017 72585 879// 91500=
07070,1997-06-26 18:00:00,16,993.3,0.1,88,14,15000,14.816,,,210,13.4,17.4,,2,,,,,,1,wg-a,,,,AAXX 26184 07070 02565 72108 10160 20140 39828 49933 53001 60006 70182 83892 91800 333 10174 20134 60027=
07070,1997-06-26 21:00:00,14,994.5,1.1,94,13,10000,14.816,,,220,,,,0,,,,,,1,wg-a,,,,AAXX 26214 07070 12460 62208 10140 20130 39839 49945 53011 60007 70182 84802 92100=
07070,1997-06-27 00:00:00,13,995.2,0.6,94,12,10000,11.112,,,190,,,,,,,,,,,wg-a,,,,AAXX 27004 07070 12560 41906 10130 20120 39845 49952 51006 60006 84500 90000=
07070,1997-06-27 03:00:00,12,995.4,,100,12,7000,7.408,,,200,,,,,,,,,,,wg-a,,,,AAXX 27034 07070 32457 72004 10120 20120 39847 49954 875// 90300=
07070,1997-06-27 06:00:00,12,996.5,1.2,88,10,12000,18.52,,,210,11.1,16.2,,,,,5,,,,wg-a,,,,AAXX 27064 07070 02462 /2110 10120 20100 39858 49965 53012 60006 86800 90600 333 10162 20111 60054=
07070,1997-06-27 09:00:00,14,996.8,0.3,77,10,20000,22.224,,,170,,,,,,,,,,,wg-a,,,,AAXX 27094 07070 12570 71712 10140 20100 39861 49968 53003 60006 878// 90900=
07070,1997-06-27 12:00:00,15,997.4,0.7,77,11,25000,11.112,,,240,,,,1,,,,,,16,wg-a,,,,AAXX 27124 07070 02475 72406 10150 20110 39868 49974 52007 60016 71682 879// 91200 333 60017=
07070,1997-06-27 18:00:00,14,998.9,0.8,88,12,8000,18.52,,,180,12,16.8,,,,,,,,61,wg-a,,,,AAXX 27184 07070 02658 71810 10140 20120 39882 49989 52008 61000 76186 878// 91800 333 10168 20120 6001=
07070,1997-06-27 21:00:00,13,1000.5,1.6,94,12,4000,7.408,,,180,,,,4,,,,,,10,wg-a,,,,AAXX 27214 07070 12440 71804 10130 20120 39898 40005 52016 60047 71066 878// 92100=
07070,1997-06-28 00:00:00,13,1001.5,1,100,13,8000,11.112,,,210,,,,1,,,,,,61,wg-a,,,,AAXX 28004 07070 02458 82106 10130 20130 39908 40015 53010 60056 76166 888// 90000 333 60017=
07070,1997-06-28 06:00:00,14,1004.6,1.6,88,12,10000,14.816,,,190,12.8,14.1,,,,,7,,,1,wg-a,,,,AAXX 28064 07070 02460 71908 10140 20120 39938 40046 53016 60006 70162 878// 90600 333 10141 20128 60074=
07070,1997-06-28 09:00:00,16,1006.4,1.9,77,12,18000,18.52,,,190,,,,,,,,,,,wg-a,,,,AAXX 28094 07070 12568 71910 10160 20120 39957 40064 52019 60006 878// 90900=
07070,1997-06-28 12:00:00,18,1007.6,1.3,64,11,25000,18.52,,,220,,,,,,,,,,,wg-a,,,,AAXX 28124 07070 12675 /2210 10180 20110 39970 40076 51013 60006 86200 91200=
07070,1997-06-28 15:00:00,20,1007.9,0.3,60,12,25000,11.112,,,200,,,,,,,,,,,wg-a,,,,AAXX 28154 07070 12675 /2006 10200 20120 39973 40079 53003 60006 86800 91500=
07070,1997-06-28 18:00:00,20,1007.9,0,56,11,25000,11.112,,,190,13.7,20.8,,,,,,,,,wg-a,,,,AAXX 28184 07070 12775 11906 10200 20110 39973 40079 50000 60006 81200 91800 333 10208 20137=
07070,1997-06-28 21:00:00,12,1008.7,0.5,88,10,20000,7.408,,,100,,,,,,,,,,,wg-a,,,,AAXX 28214 07070 12/70 31004 10120 20100 39978 40087 51005 60006 80001 92100=
07070,1997-06-29 00:00:00,10,1007.7,-1,93,9,15000,3.704,,,60,,,,,,,,,,,wg-a,,,,AAXX 29004 07070 12/65 30602 10100 20090 39968 40077 58010 60006 80002 90000=
07070,1997-06-29 03:00:00,11,1005.5,-2.2,94,10,15000,7.408,,,10,,,,,,,,,,,wg-a,,,,AAXX 29034 07070 12/65 70104 10110 20100 39946 40055 58022 60006 85072 90300=
07070,1997-06-29 06:00:00,12,1006.3,0.9,94,11,6000,7.408,,,290,9.6,19.8,,,,,,,,61,wg-a,,,,AAXX 29064 07070 02756 82904 10120 20110 39955 40063 50009 61000 76162 83572 90600 333 10198 20096 6004=
07070,1997-06-29 09:00:00,15,1004,-2.2,88,13,15000,25.928,,,40,,,,7,,,,,,3,wg-a,,,,AAXX 29094 07070 12565 80414 10150 20130 39933 40040 56022 60077 70362 8682/ 90900=
07070,1997-06-29 12:00:00,17,1003.2,-0.7,82,14,20000,14.816,,,90,,,,,,,,,,3,wg-a,,,,AAXX 29124 07070 12470 80908 10170 20140 39926 40032 56007 60076 70362 872// 91200=
07070,1997-06-29 15:00:00,18,1002.3,-0.9,83,15,15000,11.112,,,100,,,,,,,,,,,wg-a,,,,AAXX 29154 07070 12465 81006 10180 20150 39917 40023 56009 60006 8622/ 91500=
07070,1997-06-29 18:00:00,19,1001.4,-0.8,83,16,20000,0,,,0,11.7,19,,,,,,,,,wg-a,,,,AAXX 29184 07070 12470 70000 10190 20160 39909 40014 56008 60006 84832 91800 333 10190 20117=
07070,1997-06-29 21:00:00,14,1000.9,-0.7,94,13,12000,7.408,,,70,,,,,,,,,,1,wg-a,,,,AAXX 29214 07070 12462 30704 10140 20130 39902 40009 58007 60006 70191 81203 92100=
07070,1997-06-30 00:00:00,12,1001.6,0.6,100,12,15000,3.704,,,240,,,,,,,,,,3,wg-a,,,,AAXX 30004 07070 12/65 42402 10120 20120 39908 40016 53006 60006 70391 82082 90000=
07070,1997-06-30 03:00:00,11,1000.7,-0.9,100,11,12000,0,,,0,,,,,,,,,,,wg-a,,,,AAXX 30034 07070 12462 70000 10110 20110 39899 40007 58009 60006 81602 90300=
07070,1997-06-30 06:00:00,13,1001.1,0.5,94,12,7000,11.112,,,190,11.1,18.5,,,,,7,,,,wg-a,,,,AAXX 30064 07070 02357 81906 10130 20120 39904 40011 52005 60006 886// 90600 333 10185 20111 60074=
07070,1997-06-30 09:00:00,15,1001.5,0.4,94,14,12000,7.408,,,180,,,,,,,,,,,wg-a,,,,AAXX 30094 07070 12362 71804 10150 20140 39908 40015 50004 60006 872// 90900=
07070,1997-06-30 12:00:00,18,1001.3,-0.1,77,14,10000,22.224,,,200,,,,,,,,,,25,wg-a,,,,AAXX 30124 07070 02460 72012 10180 20140 39907 40013 55001 61000 72582 878// 91200 333 6100=
07070,1997-06-30 15:00:00,16,1001.6,0.3,88,14,500,14.816,,,250,,,,,,,,,,15,wg-a,,,,AAXX 30154 07070 12400 72508 10160 20140 39910 40016 53003 60006 71522 879// 91500=
07070,1997-06-30 18:00:00,14,1003.8,2.1,94,13,4000,18.52,,,330,12.9,18.8,,,,,,,,10,wg-a,,,,AAXX 30184 07070 02340 83310 10140 20130 39931 40038 53021 61000 71082 882// 91800 333 10188 20129 6006=
07070,1997-06-30 21:00:00,13,1006.1,2.2,94,12,500,7.408,,,250,,,,1,,,,,,61,wg-a,,,,AAXX 30214 07070 12500 82504 10130 20120 39953 40061 51022 60017 76186 878// 92100=
07070,1997-07-01 00:00:00,13,1006.9,0.8,94,12,8000,7.408,,,230,,,,,,,,,,1,wg-a,,,,AAXX 01004 07070 02558 82304 10130 20120 39961 40069 52008 60016 70186 8582/ 90000 333 61000=
07070,1997-07-01 03:00:00,13,1007.2,0.3,94,12,6000,7.408,,,230,,,,,,,,,,,wg-a,,,,AAXX 01034 07070 12456 82304 10130 20120 39964 40072 53003 60006 872// 90300=
07070,1997-07-01 06:00:00,12,1008.4,1.2,94,11,4500,7.408,,,210,11.8,14,,,,,7,,,10,wg-a,,,,AAXX 01064 07070 02445 82104 10120 20110 39976 40084 53012 60006 71022 8687/ 90600 333 10140 20118 60074=
07070,1997-07-01 12:00:00,15,1009.4,0.4,88,13,8000,22.224,,,230,,,,1,,,,,,80,wg-a,,,,AAXX 01124 07070 02458 72312 10150 20130 39986 40094 53004 60016 78086 8587/ 91200 333 60017=
07070,1997-07-01 18:00:00,17,1008.6,-0.4,77,13,25000,18.52,,,200,12.3,18.4,,1,,,,,,1,wg-a,,,,AAXX 01184 07070 02575 42010 10170 20130 39979 40086 58004 60006 70181 83809 91800 333 10184 20123 60017=
07070,1997-07-01 21:00:00,12,1010.1,1.3,94,11,20000,11.112,,,140,,,,,,,,,,,wg-a,,,,AAXX 01214 07070 12570 /1406 10120 20110 39992 40101 53013 60006 82832 92100=
07070,1997-07-02 00:00:00,12,1010.3,0.2,88,10,15000,11.112,,,180,,,,,,,,,,,wg-a,,,,AAXX 02004 07070 12765 51806 10120 20100 39994 40103 50002 60006 85500 90000=
07070,1997-07-02 03:00:00,12,1010.1,-0.2,94,11,15000,11.112,,,180,,,,,,,,,,,wg-a,,,,AAXX 02034 07070 12865 51806 10120 20110 39992 40101 58002 60006 83572 90300=
07070,1997-07-02 06:00:00,13,1009.9,-0.1,100,13,20000,11.112,,,150,11.4,17,,,,,3,,,,wg-a,,,,AAXX 02064 07070 02570 71506 10130 20130 39991 40099 58001 60006 81872 90600 333 10170 20114 60034=
07070,1997-07-02 09:00:00,14,1009.5,-0.4,94,13,10000,7.408,,,150,,,,,,,,,,21,wg-a,,,,AAXX 02094 07070 02460 81504 10140 20130 39987 40095 56004 61000 72162 8587/ 90900 333 ////=
07070,1997-07-02 12:00:00,15,1007.5,-1.9,100,15,4000,7.408,,,90,,,,2,,,,,,61,wg-a,,,,AAXX 02124 07070 02440 80904 10150 20150 39968 40075 58019 60026 76162 878// 91200 333 60027=
07070,1997-07-02 15:00:00,16,1007.1,-0.4,94,15,7000,18.52,,,190,,,,2,,,,,,61,wg-a,,,,AAXX 02154 07070 12457 81910 10160 20150 39964 40071 55004 60027 76165 8657/ 91500=
07070,1997-07-02 18:00:00,15,1009.6,2.4,82,12,20000,11.112,,,240,13.3,16,,0,,,,,,1,wg-a,,,,AAXX 02184 07070 02470 72406 10150 20120 39988 40096 51024 60006 70186 85832 91800 333 10160 20133 60007=
07070,1997-07-02 21:00:00,13,1011.9,2.2,94,12,20000,7.408,,,150,,,,,,,,,,,wg-a,,,,AAXX 02214 07070 12670 71504 10130 20120 30010 40119 51022 60006 83532 92100=
07070,1997-07-03 00:00:00,13,1012.4,0.5,94,12,15000,7.408,,,200,,,,,,,,,,,wg-a,,,,AAXX 03004 07070 12465 62004 10130 20120 30015 40124 51005 60006 83501 90000=
07070,1997-07-03 03:00:00,10,1013.2,0.7,93,9,15000,7.408,,,190,,,,,,,,,,,wg-a,,,,AAXX 03034 07070 12/65 21904 10100 20090 30022 40132 53007 60006 81031 90300=
07070,1997-07-03 06:00:00,13,1013.8,0.7,88,11,15000,14.816,,,200,9.1,15.1,,,,,4,,,,wg-a,,,,AAXX 03064 07070 02465 22008 10130 20110 30029 40138 53007 60006 81832 90600 333 10151 20091 60044=
07070,1997-07-03 09:00:00,17,1014.5,0.9,72,12,20000,14.816,,,210,,,,,,,,,,,wg-a,,,,AAXX 03094 07070 12570 42108 10170 20120 30038 40145 51009 60006 84831 90900=
07070,1997-07-03 12:00:00,18,1014.2,-0.3,59,10,25000,22.224,,,210,,,,,,,,,,11,wg-a,,,,AAXX 03124 07070 12675 72112 10180 20100 30035 40142 58003 60006 71111 878// 91200=
07070,1997-07-03 15:00:00,18,1014.4,0.2,64,11,40000,22.224,,,210,,,,0,,,,,,25,wg-a,,,,AAXX 03154 07070 12782 72112 10180 20110 30037 40144 53002 60007 72582 878// 91500=
07070,1997-07-03 18:00:00,18,1014.8,0.4,68,12,40000,14.816,,,200,12.6,19.5,,1,,,,,,1,wg-a,,,,AAXX 03184 07070 02682 52008 10180 20120 30041 40148 52004 60006 70182 84831 91800 333 10195 20126 60017=
07070,1997-07-03 21:00:00,12,1016.5,1.5,94,11,20000,7.408,,,180,,,,,,,,,,,wg-a,,,,AAXX 03214 07070 12670 51804 10120 20110 30056 40165 53015 60006 84802 92100=
07070,1997-07-04 00:00:00,12,1017.2,0.6,94,11,20000,11.112,,,180,,,,,,,,,,,wg-a,,,,AAXX 04004 07070 12670 71806 10120 20110 30062 40172 50006 60006 878// 90000=
07070,1997-07-04 06:00:00,14,1017.9,0.9,94,13,20000,7.408,,,170,10.1,17.9,,,,,1,,,,wg-a,,,,AAXX 04064 07070 02470 71704 10140 20130 30070 40179 51009 60006 81182 90600 333 10179 20101 60014=
07070,1997-07-04 09:00:00,18,1018.2,0.4,68,12,25000,11.112,,,220,,,,,,,,,,,wg-a,,,,AAXX 04094 07070 12575 72206 10180 20120 30074 40182 51004 60006 82232 90900=
07070,1997-07-04 12:00:00,20,1017.7,-0.4,53,10,25000,18.52,,,200,,,,,,,,,,,wg-a,,,,AAXX 04124 07070 12675 72010 10200 20100 30070 40177 58004 60006 84232 91200=
07070,1997-07-04 15:00:00,15,1018,0.2,94,14,20000,3.704,,,250,,,,2,,,,,,60,wg-a,,,,AAXX 04154 07070 12570 72502 10150 20140 30072 40180 50002 60027 76086 879// 91500=
07070,1997-07-04 18:00:00,16,1018,0,77,12,25000,3.704,,,200,13.8,20.8,,0,,,,,,1,wg-a,,,,AAXX 04184 07070 02575 52002 10160 20120 30072 40180 50000 60006 70182 82933 91800 333 10208 20138 60007=
07070,1997-07-04 21:00:00,13,1019.5,1.4,94,12,20000,0,,,0,,,,,,,,,,,wg-a,,,,AAXX 04214 07070 12570 40000 10130 20120 30086 40195 53014 60006 81832 92100=
07070,1997-07-05 00:00:00,10,1020.4,0.7,100,10,15000,3.704,,,190,,,,,,,,,,,wg-a,,,,AAXX 05004 07070 12565 31902 10100 20100 30093 40204 52007 60006 83500 90000=
07070,1997-07-05 06:00:00,12,1021.3,1.4,100,12,4000,3.704,,,280,8.2,16.2,,,,,2,,,10,wg-a,,,,AAXX 05064 07070 02240 82802 10120 20120 30103 40213 52014 60006 71041 886// 90600 333 10162 20082 60024=
07070,1997-07-05 09:00:00,16,1022,0.9,94,15,6000,11.112,,,30,,,,,,,,,,,wg-a,,,,AAXX 05094 07070 12356 70306 10160 20150 30112 40220 51009 60006 8683/ 90900=
07070,1997-07-05 12:00:00,18,1022.3,0.3,77,14,12000,18.52,,,300,,,,,,,,,,,wg-a,,,,AAXX 05124 07070 12562 73010 10180 20140 30115 40223 51003 60006 878// 91200=
07070,1997-07-05 15:00:00,19,1022.6,0.4,73,14,15000,22.224,,,340,,,,,,,,,,,wg-a,,,,AAXX 05154 07070 12565 /3412 10190 20140 30119 40226 53004 60006 86800 91500=
07070,1997-07-05 18:00:00,17,1024.2,1.5,77,13,12000,14.816,,,340,11.8,19.5,,,,,,,,1,wg-a,,,,AAXX 05184 07070 02562 73408 10170 20130 30134 40242 53015 60006 70182 8183/ 91800 333 10195 20118 61000=
07070,1997-07-05 21:00:00,14,1026.4,2,88,12,8000,11.112,,,330,,,,,,,,,,,wg-a,,,,AAXX 05214 07070 12558 43306 10140 20120 30154 40264 53020 60006 83801 92100=
07070,1997-07-06 00:00:00,11,1027.7,1.2,94,10,500,11.112,,,300,,,,,,,,,,,wg-a,,,,AAXX 06004 07070 12600 23006 10110 20100 30166 40277 51012 60006 82500 90000=
07070,1997-07-06 03:00:00,12,1027.9,0.2,94,11,4500,11.112,,,320,,,,,,,,,,10,wg-a,,,,AAXX 06034 07070 12545 83206 10120 20110 30168 40279 51002 60006 71011 885// 90300=
07070,1997-07-06 06:00:00,13,1028.5,0.7,88,11,6000,7.408,,,320,10.9,17.3,,,,,,,,,wg-a,,,,AAXX 06064 07070 02556 73204 10130 20110 30175 40285 52007 60006 875// 90600 333 10173 20109 61000=
07070,1997-07-06 09:00:00,16,1029,0.6,72,11,15000,14.816,,,340,,,,,,,,,,,wg-a,,,,AAXX 06094 07070 12565 53408 10160 20110 30181 40290 53006 60006 85800 90900=
07070,1997-07-06 12:00:00,17,1028.8,-0.2,72,12,15000,11.112,,,320,,,,,,,,,,,wg-a,,,,AAXX 06124 07070 12565 73206 10170 20120 30179 40288 58002 60006 8427/ 91200=
07070,1997-07-06 15:00:00,19,1027.8,-0.9,60,11,20000,3.704,,,340,,,,,,,,,,,wg-a,,,,AAXX 06154 07070 12670 83402 10190 20110 30170 40278 58009 60006 8327/ 91500=
07070,1997-07-06 18:00:00,19,1027.4,-0.4,73,14,20000,3.704,,,140,13,19.5,,,,,,,,,wg-a,,,,AAXX 06184 07070 12670 71402 10190 20140 30166 40274 56004 60006 8487/ 91800 333 10195 20130=
07070,1997-07-06 21:00:00,18,1027.7,0.3,83,15,10000,7.408,,,340,,,,,,,,,,,wg-a,,,,AAXX 06214 07070 12/60 73404 10180 20150 30169 40277 53003 60006 8703/ 92100=
07070,1997-07-07 00:00:00,15,1028,0.1,94,14,10000,11.112,,,350,,,,,,,,,,,wg-a,,,,AAXX 07004 07070 12/60 63506 10150 20140 30170 40280 52001 60006 83031 90000=
07070,1997-07-07 03:00:00,13,1027.5,-0.5,94,12,6000,7.408,,,340,,,,,,,,,,,wg-a,,,,AAXX 07034 07070 12/56 43404 10130 20120 30165 40275 58005 60006 82031 90300=
07070,1997-07-07 06:00:00,14,1028,0.5,100,14,3500,7.408,,,310,10.9,19.2,,,,,,,,10,wg-a,,,,AAXX 07064 07070 12/35 23104 10140 20140 30170 40280 52005 60006 71041 80001 90600 333 10192 20109=
07070,1997-07-07 09:00:00,19,1027.4,-0.4,73,14,15000,7.408,,,20,,,,,,,,,,,wg-a,,,,AAXX 07094 07070 12565 30204 10190 20140 30166 40274 58004 60006 81201 90900=
07070,1997-07-07 12:00:00,22,1026.6,-0.7,60,14,20000,14.816,,,10,,,,,,,,,,,wg-a,,,,AAXX 07124 07070 12670 50108 10220 20140 30159 40266 56007 60006 83201 91200=
07070,1997-07-07 15:00:00,24,1025.6,-0.9,54,14,25000,18.52,,,20,,,,,,,,,,,wg-a,,,,AAXX 07154 07070 12675 50210 10240 20140 30150 40256 57009 60006 85800 91500=
07070,1997-07-07 18:00:00,21,1025.4,-0.3,73,16,15000,11.112,,,30,13.9,24,,,,,,,,,wg-a,,,,AAXX 07184 07070 12665 10306 10210 20160 30147 40254 56003 60006 81200 91800 333 10240 20139=
07070,1997-07-08 00:00:00,13,1025.8,-0.1,94,12,10000,3.704,,,50,,,,,,,,,,,wg-a,,,,AAXX 08004 07070 12/60 00502 10130 20120 30148 40258 58001 60006 80000 90000=
07070,1997-07-08 06:00:00,15,1024.9,0.3,100,15,1500,3.704,,,360,10.3,20.8,,,,,,,,10,wg-a,,,,AAXX 08064 07070 12/15 03602 10150 20150 30140 40249 52003 60006 71000 80000 90600 333 10208 20103=
07070,1997-07-08 09:00:00,21,1024.5,-0.2,73,16,12000,14.816,,,30,,,,,,,,,,,wg-a,,,,AAXX 08094 07070 12462 /0308 10210 20160 30138 40245 58002 60006 81100 90900=
07070,1997-07-08 12:00:00,23,1023.3,-1.1,61,15,15000,18.52,,,30,,,,,,,,,,,wg-a,,,,AAXX 08124 07070 12665 /0310 10230 20150 30127 40233 58011 60006 81100 91200=
07070,1997-07-08 15:00:00,23,1022,-1.3,53,13,20000,22.224,,,30,,,,,,,,,,,wg-a,,,,AAXX 08154 07070 12670 20312 10230 20130 30114 40220 58013 60006 82400 91500=
07070,1997-07-08 18:00:00,22,1020.8,-1.2,60,14,25000,18.52,,,50,14.7,24.1,,,,,,,,,wg-a,,,,AAXX 08184 07070 12775 10510 10220 20140 30102 40208 56012 60006 81401 91800 333 10241 20147=
07070,1997-07-08 21:00:00,16,1021.3,0.2,88,14,10000,11.112,,,40,,,,,,,,,,,wg-a,,,,AAXX 08214 07070 12/60 00406 10160 20140 30104 40213 53002 60006 80000 92100=
07070,1997-07-09 00:00:00,13,1021.1,-0.3,88,11,8000,7.408,,,30,,,,,,,,,,,wg-a,,,,AAXX 09004 07070 12/58 00304 10130 20110 30101 40211 58003 60006 80000 90000=
07070,1997-07-09 03:00:00,11,1020,-1.1,94,10,6000,3.704,,,360,,,,,,,,,,,wg-a,,,,AAXX 09034 07070 12/56 /3602 10110 20100 30090 40200 56011 60006 80001 90300=
07070,1997-07-09 06:00:00,14,1019.9,-0,94,13,4500,7.408,,,30,10.1,21.8,,,,,,,,10,wg-a,,,,AAXX 09064 07070 12645 70304 10140 20130 30090 40199 55000 60006 71011 875// 90600 333 10218 20101=
07070,1997-07-09 12:00:00,23,1017.8,-1.1,57,14,15000,22.224,,,50,,,,,,,,,,,wg-a,,,,AAXX 09124 07070 12665 /0512 10230 20140 30073 40178 58011 60006 85101 91200=
07070,1997-07-09 15:00:00,24,1016.1,-1.7,57,15,20000,18.52,,,60,,,,,,,,,,,wg-a,,,,AAXX 09154 07070 12670 40610 10240 20150 30056 40161 56017 60006 83101 91500=
07070,1997-07-09 18:00:00,23,1015.3,-0.8,65,16,10000,18.52,,,30,14.3,24.6,,,,,,,,,wg-a,,,,AAXX 09184 07070 12660 /0310 10230 20160 30048 40153 56008 60006 81200 91800 333 10246 20143=
07070,1997-07-09 21:00:00,16,1016.3,0.7,88,14,6000,11.112,,,10,,,,,,,,,,,wg-a,,,,AAXX 09214 07070 12/56 00106 10160 20140 30055 40163 53007 60006 80000 92100=
07070,1997-07-10 00:00:00,13,1016.4,0,94,12,500,7.408,,,350,,,,,,,,,,,wg-a,,,,AAXX 10004 07070 12/00 03504 10130 20120 30055 40164 50000 60006 80000 90000=
07070,1997-07-10 03:00:00,12,1015.3,-1.1,94,11,4500,7.408,,,350,,,,,,,,,,10,wg-a,,,,AAXX 10034 07070 12745 23504 10120 20110 30044 40153 58011 60006 71000 81501 90300=
07070,1997-07-10 06:00:00,14,1014.7,-0.5,94,13,3800,7.408,,,360,11,23,,,,,,,,10,wg-a,,,,AAXX 10064 07070 12/38 /3604 10140 20130 30039 40147 55005 60006 71000 80001 90600 333 10230 20110=
07070,1997-07-10 09:00:00,20,1014.1,-0.4,78,16,7000,11.112,,,30,,,,,,,,,,,wg-a,,,,AAXX 10094 07070 12/57 70306 10200 20160 30035 40141 58004 60006 80001 90900=
07070,1997-07-10 12:00:00,24,1013.2,-0.8,54,14,12000,14.816,,,40,,,,,,,,,,,wg-a,,,,AAXX 10124 07070 12662 70408 10240 20140 30027 40132 58008 60006 82201 91200=
07070,1997-07-10 15:00:00,26,1012.2,-0.9,45,13,15000,3.704,,,30,,,,,,,,,,,wg-a,,,,AAXX 10154 07070 12765 50302 10260 20130 30018 40122 56009 60006 82201 91500=
07070,1997-07-10 18:00:00,25,1011.9,-0.3,61,17,20000,14.816,,,10,14.1,26.6,,,,,,,,,wg-a,,,,AAXX 10184 07070 12770 50108 10250 20170 30015 40119 55003 60006 814/1 91800 333 10266 20141=
07070,1997-07-11 00:00:00,14,1013.3,-0.1,100,14,10000,3.704,,,210,,,,,,,,,,,wg-a,,,,AAXX 11004 07070 12/60 02102 10140 20140 30025 40133 58001 60006 80000 90000=
07070,1997-07-11 03:00:00,13,1013.3,-0.1,94,12,500,0,,,0,,,,,,,,,,,wg-a,,,,AAXX 11034 07070 12500 30000 10130 20120 30024 40133 55001 60006 83100 90300=
07070,1997-07-11 06:00:00,15,1013.9,0.7,100,15,2500,0,,,0,11.7,24.6,,,,,,,,10,wg-a,,,,AAXX 11064 07070 12625 30000 10150 20150 30031 40139 51007 60006 71040 83100 90600 333 10246 20117=
07070,1997-07-11 12:00:00,26,1013.7,0.1,54,16,12000,11.112,,,300,,,,,,,,,,,wg-a,,,,AAXX 11124 07070 12662 /3006 10260 20160 30033 40137 50001 60006 85200 91200=
07070,1997-07-11 15:00:00,27,1013.2,-0.5,51,16,15000,11.112,,,340,,,,,,,,,,,wg-a,,,,AAXX 11154 07070 12665 /3406 10270 20160 30028 40132 58005 60006 85200 91500=
07070,1997-07-11 18:00:00,25,1013.3,0.1,57,16,15000,11.112,,,330,15.5,27.3,,,,,,,,,wg-a,,,,AAXX 11184 07070 12665 /3306 10250 20160 30029 40133 53001 60006 81901 91800 333 10273 20155=
07070,1997-07-11 21:00:00,20,1014.8,1.3,78,16,10000,7.408,,,310,,,,,,,,,,,wg-a,,,,AAXX 11214 07070 12/60 13104 10200 20160 30042 40148 51013 60006 80001 92100=
07070,1997-07-12 00:00:00,17,1015.3,0.4,88,15,10000,3.704,,,250,,,,,,,,,,,wg-a,,,,AAXX 12004 07070 12/60 42502 10170 20150 30046 40153 53004 60006 80002 90000=
07070,1997-07-12 03:00:00,13,1015.6,0.1,94,12,7000,0,,,0,,,,,,,,,,11,wg-a,,,,AAXX 12034 07070 12/57 00000 10130 20120 30047 40156 53001 60006 71100 80000 90300=
07070,1997-07-12 06:00:00,16,1016.3,0.8,94,15,3500,7.408,,,280,12,25.3,,,,,,,,10,wg-a,,,,AAXX 12064 07070 12635 /2804 10160 20150 30055 40163 53008 60006 71000 81200 90600 333 10253 20120=
07070,1997-07-12 09:00:00,21,1016.4,0.3,78,17,500,0,,,0,,,,,,,,,,,wg-a,,,,AAXX 12094 07070 12/00 00000 10210 20170 30058 40164 51003 60006 80000 90900=
07070,1997-07-12 12:00:00,19,1016.5,-0,83,16,700,22.224,,57.412,150,,,,16,,,,,,44,wg-a,,,,AAXX 12124 07070 02607 71512 10190 20160 30058 40165 55000 60166 74498 873// 91200 333 60167 91031=
07070,1997-07-12 15:00:00,22,1015.7,-0.6,73,17,10000,11.112,,,210,,,,3,,,,,,1,wg-a,,,,AAXX 12154 07070 12660 32106 10220 20170 30052 40157 58006 60037 70198 83801 91500=
07070,1997-07-12 18:00:00,23,1015.3,-0.4,78,19,15000,7.408,,,130,16.2,24.8,,,,,,,,3,wg-a,,,,AAXX 12184 07070 12665 /1304 10230 20190 30048 40153 56004 60006 70398 81230 91800 333 10248 20162=
07070,1997-07-12 21:00:00,18,1016.3,0.8,94,17,10000,3.704,,,180,,,,,,,,,,,wg-a,,,,AAXX 12214 07070 12/60 11802 10180 20170 30056 40163 53008 60006 80001 92100=
07070,1997-07-13 00:00:00,16,1016.5,-0,94,15,10000,3.704,,,80,,,,,,,,,,,wg-a,,,,AAXX 13004 07070 12/60 00802 10160 20150 30057 40165 54000 60006 80000 90000=
07070,1997-07-13 03:00:00,16,1016.4,-0.1,94,15,8000,3.704,,,200,,,,,,,,,,,wg-a,,,,AAXX 13034 07070 12/58 02002 10160 20150 30056 40164 58001 60006 80000 90300=
07070,1997-07-13 06:00:00,17,1016.6,0.3,100,17,4500,3.704,,,220,14.1,23,,,,,19,,,10,wg-a,,,,AAXX 13064 07070 02645 72202 10170 20170 30059 40166 52003 60006 71011 83201 90600 333 10230 20141 60194=
07070,1997-07-13 09:00:00,23,1017.2,0.8,65,16,11000,11.112,,,270,,,,,,,,,,,wg-a,,,,AAXX 13094 07070 12/61 /2706 10230 20160 30067 40172 51008 60006 90900=
07070,1997-07-13 12:00:00,26,1017,-0.2,48,14,16000,11.112,,,270,,,,,,,,,,,wg-a,,,,AAXX 13124 07070 12666 72706 10260 20140 30065 40170 58002 60006 81201 91200=
07070,1997-07-13 15:00:00,26,1016.7,-0.2,48,14,18000,11.112,,,290,,,,,,,,,,,wg-a,,,,AAXX 13154 07070 12/68 72906 10260 20140 30063 40167 55002 60006 81082 91500=
07070,1997-07-13 18:00:00,25,1016.5,-0.2,61,17,16000,3.704,,,330,17.3,26.3,,,,,,,,,wg-a,,,,AAXX 13184 07070 12/66 73302 10250 20170 30061 40165 55002 60006 81082 91800 333 10263 20173=
07070,1997-07-13 21:00:00,20,1017.8,1.1,88,18,10000,0,,,0,,,,,,,,,,,wg-a,,,,AAXX 13214 07070 12/60 70000 10200 20180 30072 40178 53011 60006 86072 92100=
07070,1997-07-14 00:00:00,17,1017.7,-0.2,94,16,10000,0,,,0,,,,,,,,,,,wg-a,,,,AAXX 14004 07070 12760 70000 10170 20160 30070 40177 58002 60006 83571 90000=
07070,1997-07-14 03:00:00,17,1017.9,0.2,94,16,10000,0,,,0,,,,,,,,,,,wg-a,,,,AAXX 14034 07070 12760 70000 10170 20160 30072 40179 53002 60006 82572 90300=
07070,1997-07-14 06:00:00,18,1018.7,0.8,100,18,500,7.408,,,50,16,25.1,,,,,,,,,wg-a,,,,AAXX 14064 07070 12600 70504 10180 20180 30080 40187 52008 60006 81982 90600 333 10251 20160=
07070,1997-07-14 09:00:00,20,1019,0.3,88,18,3500,11.112,,,360,,,,,,,,,,10,wg-a,,,,AAXX 14094 07070 12535 63606 10200 20180 30083 40190 50003 60006 71022 85982 90900=
07070,1997-07-14 12:00:00,21,1019.3,0.4,78,17,7000,25.928,,,350,,,,,,,,,,80,wg-a,,,,AAXX 14124 07070 02457 73514 10210 20170 30087 40193 51004 61000 78098 8498/ 91200 333 6100=
07070,1997-07-14 15:00:00,24,1018.7,-0.5,61,16,15000,11.112,,,320,,,,,,,,,,1,wg-a,,,,AAXX 14154 07070 12665 23206 10240 20160 30082 40187 55005 60006 70198 81980 91500=
07070,1997-07-14 18:00:00,21,1019,0.2,78,17,500,7.408,,,350,18.4,24,,,,,,,,80,wg-a,,,,AAXX 14184 07070 02500 73504 10210 20170 30084 40190 53002 61000 78098 8698/ 91800 333 10240 20184 6100=
07070,1997-07-14 21:00:00,17,1021.1,1.9,100,17,10000,7.408,,,290,,,,21,,,,,,11,wg-a,,,,AAXX 14214 07070 12560 42904 10170 20170 30103 40211 51019 60217 71198 84801 92100=
07070,1997-07-15 00:00:00,15,1022.2,1,88,13,15000,7.408,,,290,,,,,,,,,,1,wg-a,,,,AAXX 15004 07070 12565 52904 10150 20130 30113 40222 53010 60216 70198 85800 90000=
07070,1997-07-15 03:00:00,12,1022.5,0.2,94,11,15000,0,,,0,,,,,,,,,,,wg-a,,,,AAXX 15034 07070 12665 70000 10120 20110 30115 40225 50002 60006 81501 90300=
07070,1997-07-15 06:00:00,14,1023.1,0.7,88,12,15000,11.112,,,300,11.8,20.7,,,,,21,,,,wg-a,,,,AAXX 15064 07070 02665 23006 10140 20120 30122 40231 53007 60006 81531 90600 333 10207 20118 60214=
07070,1997-07-15 12:00:00,21,1023.5,-0.5,56,12,25000,7.408,,,310,,,,,,,,,,,wg-a,,,,AAXX 15124 07070 12675 53104 10210 20120 30128 40235 58005 60006 83230 91200=
07070,1997-07-15 15:00:00,23,1022.5,-0.9,53,13,25000,11.112,,,320,,,,,,,,,,,wg-a,,,,AAXX 15154 07070 12675 73206 10230 20130 30119 40225 56009 60006 8343/ 91500=
07070,1997-07-15 18:00:00,23,1021.7,-0.8,57,14,25000,11.112,,,330,13.8,23,,,,,,,,,wg-a,,,,AAXX 15184 07070 12675 23306 10230 20140 30111 40217 57008 60006 82230 91800 333 10230 20138=
07070,1997-07-15 21:00:00,16,1022.2,0.3,88,14,20000,3.704,,,140,,,,,,,,,,,wg-a,,,,AAXX 15214 07070 12/70 11402 10160 20140 30114 40222 53003 60006 80001 92100=
07070,1997-07-16 00:00:00,15,1021.7,-0.6,88,13,20000,0,,,0,,,,,,,,,,,wg-a,,,,AAXX 16004 07070 12/70 10000 10150 20130 30108 40217 58006 60006 80001 90000=
07070,1997-07-16 03:00:00,13,1020.5,-1.2,94,12,500,3.704,,,330,,,,,,,,,,,wg-a,,,,AAXX 16034 07070 12/00 33302 10130 20120 30096 40205 56012 60006 80001 90300=
07070,1997-07-16 06:00:00,16,1019.8,-0.6,94,15,10000,3.704,,,220,11.9,22.6,,,,,,,,,wg-a,,,,AAXX 16064 07070 12860 72202 10160 20150 30090 40198 57006 60006 835/1 90600 333 10226 20119=
07070,1997-07-16 12:00:00,24,1017.9,-1.7,54,14,15000,7.408,,,260,,,,,,,,,,,wg-a,,,,AAXX 16124 07070 12665 72604 10240 20140 30074 40179 56017 60006 87202 91200=
07070,1997-07-16 15:00:00,24,1016.7,-1.2,65,17,25000,18.52,,,340,,,,,,,,,,,wg-a,,,,AAXX 16154 07070 12575 73410 10240 20170 30062 40167 56012 60006 85202 91500=
07070,1997-07-16 18:00:00,21,1016.4,-0.4,73,16,15000,18.52,,,350,16.2,24.8,,,,,,,,,wg-a,,,,AAXX 16184 07070 12565 73510 10210 20160 30058 40164 56004 60006 84502 91800 333 10248 20162=
07070,1997-07-16 21:00:00,16,1017.1,0.5,82,13,15000,11.112,,,350,,,,,,,,,,,wg-a,,,,AAXX 16214 07070 12/65 53506 10160 20130 30063 40171 53005 60006 80001 92100=
07070,1997-07-17 00:00:00,13,1016.9,-0.3,94,12,12000,3.704,,,290,,,,,,,,,,,wg-a,,,,AAXX 17004 07070 12/62 22902 10130 20120 30060 40169 58003 60006 80001 90000=
07070,1997-07-17 03:00:00,11,1016,-1,94,10,7000,0,,,0,,,,,,,,,,,wg-a,,,,AAXX 17034 07070 12/57 00000 10110 20100 30050 40160 55010 60006 80000 90300=
07070,1997-07-17 06:00:00,14,1014.9,-1,100,14,500,0,,,0,10,20.6,,,,,,,,1,wg-a,,,,AAXX 17064 07070 12200 50000 10140 20140 30040 40149 56010 60006 70141 82609 90600 333 10206 20100=
07070,1997-07-17 09:00:00,18,1014,-0.7,77,14,10000,11.112,,,310,,,,,,,,,,,wg-a,,,,AAXX 17094 07070 12560 73106 10180 20140 30033 40140 58007 60006 84231 90900=
07070,1997-07-17 12:00:00,21,1013.1,-0.8,64,14,25000,18.52,,,330,,,,,,,,,,,wg-a,,,,AAXX 17124 07070 12675 73310 10210 20140 30025 40131 56008 60006 84238 91200=
07070,1997-07-17 15:00:00,22,1011.7,-1.3,57,13,25000,14.816,,,330,,,,,,,,,,,wg-a,,,,AAXX 17154 07070 12675 73308 10220 20130 30012 40117 56013 60006 878// 91500=
07070,1997-07-17 18:00:00,21,1011.3,-0.5,69,15,25000,11.112,,,300,13.7,23,,,,,,,,,wg-a,,,,AAXX 17184 07070 12675 73006 10210 20150 30007 40113 56005 60006 878// 91800 333 10230 20137=
07070,1997-07-18 00:00:00,16,1011.2,-0.3,94,15,10000,18.52,,,320,,,,1,,,,,,80,wg-a,,,,AAXX 18004 07070 02460 83210 10160 20150 30005 40112 55003 60016 78098 889// 90000 333 60017=
07070,1997-07-18 06:00:00,14,1013.1,1.2,94,13,7000,18.52,,,320,13.6,20.7,,,,,,,,21,wg-a,,,,AAXX 18064 07070 02357 73210 10140 20130 30023 40131 53012 61000 72162 876// 90600 333 10207 20136 6001=
07070,1997-07-18 09:00:00,16,1014,0.9,88,14,12000,22.224,,,300,,,,,,,,,,,wg-a,,,,AAXX 18094 07070 12462 83012 10160 20140 30032 40140 50009 60006 878// 90900=
07070,1997-07-18 12:00:00,17,1014.4,0.5,88,15,500,22.224,,,310,,,,0,,,,,,80,wg-a,,,,AAXX 18124 07070 02400 73112 10170 20150 30037 40144 51005 60006 78086 878// 91200 333 60007=
07070,1997-07-18 15:00:00,17,1015.6,1.2,77,13,20000,22.224,,,330,,,,2,,,,,,25,wg-a,,,,AAXX 18154 07070 12570 73312 10170 20130 30049 40156 51012 60027 72582 878// 91500=
07070,1997-07-18 18:00:00,17,1016.6,1,82,14,20000,11.112,,,330,14,18.1,,,,,,,,1,wg-a,,,,AAXX 18184 07070 12570 73306 10170 20140 30059 40166 52010 60006 70182 878// 91800 333 10181 20140=
07070,1997-07-19 00:00:00,15,1018.1,-0.2,94,14,6000,14.816,,,290,,,,,,,,,,,wg-a,,,,AAXX 19004 07070 12556 72908 10150 20140 30073 40181 58002 60006 875// 90000=
07070,1997-07-19 03:00:00,15,1018.2,0.1,94,14,500,18.52,,,310,,,,,,,,,,,wg-a,,,,AAXX 19034 07070 12300 83110 10150 20140 30074 40182 53001 60006 886// 90300=
07070,1997-07-19 06:00:00,16,1019.6,1.4,100,16,2500,18.52,,,340,14.7,17.6,,,,,4,,,,wg-a,,,,AAXX 19064 07070 02325 73410 10160 20160 30088 40196 53014 60006 875// 90600 333 10176 20147 60044=
07070,1997-07-19 09:00:00,20,1020.9,1.4,73,15,8000,25.928,,,20,,,,,,,,,,,wg-a,,,,AAXX 19094 07070 12558 /0214 10200 20150 30102 40209 51014 60006 86200 90900=
07070,1997-07-19 12:00:00,22,1021.6,0.8,60,14,16000,22.224,,,10,,,,,,,,,,,wg-a,,,,AAXX 19124 07070 12666 /0112 10220 20140 30110 40216 51008 60006 85200 91200=
07070,1997-07-19 15:00:00,24,1021.3,-0.3,54,14,18000,18.52,,,360,,,,,,,,,,,wg-a,,,,AAXX 19154 07070 12668 53610 10240 20140 30107 40213 55003 60006 85800 91500=
07070,1997-07-19 18:00:00,18,1022.4,,83,15,12000,18.52,,,340,,,,,,,,,,0,wg-a,,,,AAXX 19184 07070 12662 73410 10180 20150 30116 40224 60006 700// 91800=
07070,1997-07-19 21:00:00,15,1023.7,1.2,94,14,8000,11.112,,,300,,,,,,,,,,,wg-a,,,,AAXX 19214 07070 12758 23006 10150 20140 30128 40237 53012 60006 82400 92100=
07070,1997-07-20 00:00:00,14,1023.8,0.1,94,13,8000,14.816,,,330,,,,,,,,,,,wg-a,,,,AAXX 20004 07070 12758 33308 10140 20130 30129 40238 52001 60006 83501 90000=
07070,1997-07-20 03:00:00,14,1023.4,-0.5,94,13,4500,14.816,,,330,,,,,,,,,,10,wg-a,,,,AAXX 20034 07070 12245 23308 10140 20130 30124 40234 56005 60006 71000 82600 90300=
07070,1997-07-20 06:00:00,15,1023.7,0.4,94,14,3500,7.408,,,330,12.9,18.7,,,,,1,,,10,wg-a,,,,AAXX 20064 07070 02435 53304 10150 20140 30128 40237 53004 60006 71011 85200 90600 333 10187 20129 60014=
07070,1997-07-20 09:00:00,17,1024,0.4,82,14,8000,11.112,,,350,,,,,,,,,,,wg-a,,,,AAXX 20094 07070 32558 /3506 10170 20140 30132 40240 50004 85200 90900=
07070,1997-07-20 12:00:00,19,1022.7,-1.2,68,13,20000,7.408,,,30,,,,,,,,,,25,wg-a,,,,AAXX 20124 07070 02670 60304 10190 20130 30120 40227 56012 61000 72582 86300 91200 333 ////=
07070,1997-07-20 15:00:00,21,1021.8,-0.9,60,13,20000,14.816,,,310,,,,0,,,,,,1,wg-a,,,,AAXX 20154 07070 12670 43108 10210 20130 30111 40218 56009 60007 70198 84300 91500=
07070,1997-07-20 18:00:00,19,1021.6,-0.2,68,13,25000,11.112,,,20,15,21.7,,,,,,,,1,wg-a,,,,AAXX 20184 07070 12775 30206 10190 20130 30109 40216 55002 60006 70198 83800 91800 333 10217 20150=
07070,1997-07-20 21:00:00,15,1022.2,0.4,88,13,15000,11.112,,,350,,,,,,,,,,,wg-a,,,,AAXX 20214 07070 12/65 03506 10150 20130 30113 40222 53004 60006 80000 92100=
07070,1997-07-21 00:00:00,12,1022.2,-0.1,100,12,12000,7.408,,,330,,,,,,,,,,,wg-a,,,,AAXX 21004 07070 12/62 03304 10120 20120 30112 40222 58001 60006 80000 90000=
07070,1997-07-21 06:00:00,13,1022.1,0.4,100,13,800,7.408,,,320,10.8,19,,,,,,,,44,wg-a,,,,AAXX 21064 07070 02008 83204 10130 20130 30111 40221 53004 60006 74441 886// 90600 333 10190 20108 60004=
07070,1997-07-21 09:00:00,17,1022.1,0.2,82,14,500,14.816,,,340,,,,,,,,,,,wg-a,,,,AAXX 21094 07070 12400 /3408 10170 20140 30113 40221 50002 60006 84200 90900=
07070,1997-07-21 12:00:00,23,1020.7,-1.2,50,12,15000,14.816,,,10,,,,,,,,,,3,wg-a,,,,AAXX 21124 07070 12665 30108 10230 20120 30101 40207 57012 60006 70341 82202 91200=
07070,1997-07-21 15:00:00,24,1019.7,-0.9,50,13,20000,18.52,,,350,,,,,,,,,,,wg-a,,,,AAXX 21154 07070 12770 53510 10240 20130 30092 40197 58009 60006 85400 91500=
07070,1997-07-21 18:00:00,22,1019.3,-0.5,53,12,25000,18.52,,,360,13,24,,,,,,,,,wg-a,,,,AAXX 21184 07070 12775 13610 10220 20120 30087 40193 55005 60006 81100 91800 333 10240 20130=
07070,1997-07-21 21:00:00,16,1020.4,0.9,82,13,25000,3.704,,,310,,,,,,,,,,,wg-a,,,,AAXX 21214 07070 12775 13102 10160 20130 30096 40204 52009 60006 81500 92100=
07070,1997-07-22 00:00:00,14,1020.2,-0.3,88,12,10000,11.112,,,340,,,,,,,,,,,wg-a,,,,AAXX 22004 07070 12/60 03406 10140 20120 30093 40202 58003 60006 80000 90000=
07070,1997-07-22 03:00:00,11,1020.1,-0.2,94,10,800,0,,,0,,,,,,,,,,44,wg-a,,,,AAXX 22034 07070 12/08 00000 10110 20100 30091 40201 55002 60006 74440 80000 90300=
07070,1997-07-22 06:00:00,12,1020.3,0.2,100,12,200,0,,,0,9.7,22,,,,,,,,44,wg-a,,,,AAXX 22064 07070 02/02 00000 10120 20120 30093 40203 52002 60006 74444 80000 90600 333 10220 20097 60004=
07070,1997-07-22 09:00:00,18,1020.7,0.6,88,16,7000,7.408,,,10,,,,,,,,,,1,wg-a,,,,AAXX 22094 07070 12457 20104 10180 20160 30099 40207 50006 60006 70141 81101 90900=
07070,1997-07-22 12:00:00,24,1019.3,-1.1,54,14,18000,7.408,,,80,,,,,,,,,,,wg-a,,,,AAXX 22124 07070 12668 40804 10240 20140 30088 40193 58011 60006 83202 91200=
07070,1997-07-22 15:00:00,25,1018.5,-0.8,50,14,18000,14.816,,,50,,,,,,,,,,,wg-a,,,,AAXX 22154 07070 12768 30508 10250 20140 30080 40185 58008 60006 83200 91500=
07070,1997-07-22 18:00:00,24,1018,-0.5,50,13,20000,14.816,,,50,12.4,25.4,,,,,,,,,wg-a,,,,AAXX 22184 07070 12770 30508 10240 20130 30075 40180 56005 60006 814/1 91800 333 10254 20124=
07070,1997-07-22 21:00:00,17,1019.4,1.1,82,14,15000,11.112,,,40,,,,,,,,,,,wg-a,,,,AAXX 22214 07070 12/65 60406 10170 20140 30086 40194 51011 60006 80002 92100=
07070,1997-07-23 00:00:00,15,1019.7,0.2,88,13,15000,0,,,0,,,,,,,,,,,wg-a,,,,AAXX 23004 07070 12/65 70000 10150 20130 30088 40197 50002 60006 80002 90000=
07070,1997-07-23 03:00:00,13,1019.7,-0.1,94,12,500,3.704,,,350,,,,,,,,,,,wg-a,,,,AAXX 23034 07070 12/00 /3502 10130 20120 30087 40197 58001 60006 80001 90300=
07070,1997-07-23 06:00:00,14,1019.5,-0.1,100,14,4000,0,,,0,11.6,24,,,,,,,,10,wg-a,,,,AAXX 23064 07070 12/40 20000 10140 20140 30086 40195 55001 60006 71011 82031 90600 333 10240 20116=
07070,1997-07-23 09:00:00,23,1019.2,0,65,16,10000,11.112,,,70,,,,,,,,,,,wg-a,,,,AAXX 23094 07070 12/60 10706 10230 20160 30086 40192 50000 60006 81031 90900=
07070,1997-07-23 12:00:00,26,1018.4,-0.6,45,13,15000,3.704,,,70,,,,,,,,,,,wg-a,,,,AAXX 23124 07070 12665 60702 10260 20130 30080 40184 57006 60006 83231 91200=
07070,1997-07-23 18:00:00,26,1017,-0.6,42,12,25000,14.816,,,20,13.9,27.6,,,,,,,,,wg-a,,,,AAXX 23184 07070 12775 60208 10260 20120 30066 40170 55006 60006 814/1 91800 333 10276 20139=
07070,1997-07-24 00:00:00,15,1017.9,-0.5,88,13,15000,0,,,0,,,,,,,,,,,wg-a,,,,AAXX 24004 07070 12/65 20000 10150 20130 30070 40179 58005 60006 80001 90000=
07070,1997-07-24 03:00:00,12,1016.7,-1.2,94,11,15000,0,,,0,,,,,,,,,,,wg-a,,,,AAXX 24034 07070 12/65 30000 10120 20110 30058 40167 57012 60006 80001 90300=
07070,1997-07-24 06:00:00,16,1016.3,-0.3,88,14,8000,3.704,,,60,12.2,26.1,,,,,,,,,wg-a,,,,AAXX 24064 07070 12758 70602 10160 20140 30055 40163 56003 60006 84531 90600 333 10261 20122=
07070,1997-07-24 09:00:00,19,1015.6,-0.5,88,17,500,7.408,,,50,,,,1,,,,,,1,wg-a,,,,AAXX 24094 07070 12600 70504 10190 20170 30050 40156 58005 60017 70182 82802 90900=
07070,1997-07-24 12:00:00,26,1014.1,-1.3,54,16,10000,11.112,,,170,,,,,,,,,,1,wg-a,,,,AAXX 24124 07070 12760 71706 10260 20160 30037 40141 58013 60016 70182 81102 91200=
07070,1997-07-24 15:00:00,20,1012.7,-1.6,94,19,500,22.224,,46.3,240,,,,4,,,,,,17,wg-a,,,,AAXX 24154 07070 12600 62412 10200 20190 30021 40127 56016 60047 71798 85331 91500 333 91025=
07070,1997-07-24 18:00:00,21,1012.7,0.1,94,20,10000,3.704,,,200,15.7,26.5,,,,,,,,1,wg-a,,,,AAXX 24184 07070 12/60 72002 10210 20200 30022 40127 51001 60006 70198 8703/ 91800 333 10265 20157=
07070,1997-07-25 00:00:00,18,1012.7,-0.5,77,14,9000,11.112,,,230,,,,,,,,,,,wg-a,,,,AAXX 25004 07070 12759 82306 10180 20140 30020 40127 58005 60006 875// 90000=
07070,1997-07-25 03:00:00,16,1012.1,-0.6,94,15,500,14.816,,,230,,,,,,,,,,21,wg-a,,,,AAXX 25034 07070 02500 82308 10160 20150 30014 40121 57006 61000 72162 8553/ 90300 333 ////=
07070,1997-07-25 06:00:00,16,1013.2,1,88,14,15000,22.224,,,270,15.6,21.7,,,,,6,,,3,wg-a,,,,AAXX 25064 07070 02465 72712 10160 20140 30024 40132 53010 60006 70365 878// 90600 333 10217 20156 60064=
07070,1997-07-25 12:00:00,20,1014.1,0.4,68,14,18000,22.224,,,270,,,,,,,,,,3,wg-a,,,,AAXX 25124 07070 12568 72712 10200 20140 30035 40141 50004 60006 70382 8683/ 91200=
07070,1997-07-25 15:00:00,19,1014.2,0.1,83,16,10000,11.112,,,280,,,,0,,,,,,61,wg-a,,,,AAXX 25154 07070 12560 72806 10190 20160 30036 40142 52001 60007 76162 8487/ 91500=
07070,1997-07-25 18:00:00,17,1015,0.7,82,14,15000,18.52,,,260,15.7,20.3,,,,,,,,3,wg-a,,,,AAXX 25184 07070 02665 82610 10170 20140 30043 40150 53007 60006 70386 8187/ 91800 333 10203 20157 61000=
07070,1997-07-25 21:00:00,16,1016.1,1,94,15,9000,11.112,,,230,,,,,,,,,,21,wg-a,,,,AAXX 25214 07070 02459 72306 10160 20150 30053 40161 53010 61000 72162 8587/ 92100 333 ////=
07070,1997-07-26 00:00:00,13,1016.9,0.7,100,13,500,3.704,,,260,,,,,,,,,,11,wg-a,,,,AAXX 26004 07070 02700 /2602 10130 20130 30060 40169 52007 61000 71161 81500 90000 333 ////=
07070,1997-07-26 03:00:00,13,1018,1.1,100,13,3500,7.408,,,240,,,,,,,,,,10,wg-a,,,,AAXX 26034 07070 12235 72404 10130 20130 30071 40180 51011 60006 71041 876// 90300=
07070,1997-07-26 06:00:00,14,1019.6,1.6,100,14,500,11.112,,,270,11.3,16.9,,,,,,,,1,wg-a,,,,AAXX 26064 07070 02300 72706 10140 20140 30087 40196 53016 60006 70141 876// 90600 333 10169 20113 60004=
07070,1997-07-26 09:00:00,18,1020,0.6,83,15,10000,11.112,,,240,,,,,,,,,,,wg-a,,,,AAXX 26094 07070 12460 32406 10180 20150 30093 40200 51006 60006 83100 90900=
07070,1997-07-26 12:00:00,23,1019.7,-0.2,57,14,15000,14.816,,,250,,,,,,,,,,,wg-a,,,,AAXX 26124 07070 12665 72508 10230 20140 30091 40197 58002 60006 85209 91200=
07070,1997-07-26 18:00:00,24,1017.8,-0.9,54,14,20000,14.816,,,260,14.3,24.5,,,,,,,,,wg-a,,,,AAXX 26184 07070 12870 72608 10240 20140 30073 40178 56009 60006 875// 91800 333 10245 20143=
07070,1997-07-26 21:00:00,20,1018.2,0.3,83,17,15000,14.816,,,220,,,,,,,,,,61,wg-a,,,,AAXX 26214 07070 02765 82208 10200 20170 30076 40182 53003 61000 76162 8657/ 92100 333 ////=
07070,1997-07-27 00:00:00,19,1017.7,-0.6,94,18,20000,7.408,,,210,,,,0,,,,,,1,wg-a,,,,AAXX 27004 07070 02770 72104 10190 20180 30070 40177 58006 60006 70162 8257/ 90000 333 60007=
07070,1997-07-27 03:00:00,18,1017.5,-0.2,94,17,20000,11.112,,,240,,,,,,,,,,,wg-a,,,,AAXX 27034 07070 12/70 42406 10180 20170 30068 40175 58002 60006 84070 90300=
07070,1997-07-27 06:00:00,20,1018.3,0.8,83,17,20000,18.52,,,260,17.9,23.5,,,,,,,,,wg-a,,,,AAXX 27064 07070 02570 42610 10200 20170 30076 40183 53008 60006 82880 90600 333 10235 20179 60004=
07070,1997-07-27 09:00:00,20,1019.4,1.1,68,14,20000,29.632,,,300,,,,,,,,,,,wg-a,,,,AAXX 27094 07070 12570 63016 10200 20140 30087 40194 51011 60006 86800 90900=
07070,1997-07-27 12:00:00,22,1019.9,0.6,57,13,20000,22.224,,,290,,,,,,,,,,,wg-a,,,,AAXX 27124 07070 12670 /2912 10220 20130 30093 40199 51006 60006 85201 91200=
07070,1997-07-27 15:00:00,24,1020,0.2,54,14,25000,18.52,,,330,,,,,,,,,,,wg-a,,,,AAXX 27154 07070 12675 73310 10240 20140 30095 40200 53002 60006 85839 91500=
07070,1997-07-27 18:00:00,23,1020.4,0.3,53,13,25000,11.112,,,320,19,24.2,,,,,,,,,wg-a,,,,AAXX 27184 07070 12775 23206 10230 20130 30098 40204 53003 60006 81231 91800 333 10242 20190=
07070,1997-07-27 21:00:00,17,1022,1.4,82,14,20000,7.408,,,10,,,,,,,,,,,wg-a,,,,AAXX 27214 07070 12770 10104 10170 20140 30112 40220 53014 60006 81400 92100=
07070,1997-07-28 00:00:00,13,1023.1,0.9,94,12,15000,0,,,0,,,,,,,,,,,wg-a,,,,AAXX 28004 07070 12/65 00000 10130 20120 30121 40231 51009 60006 80000 90000=
07070,1997-07-28 03:00:00,10,1023.4,0.2,93,9,800,3.704,,,60,,,,,,,,,,44,wg-a,,,,AAXX 28034 07070 12/08 00602 10100 20090 30123 40234 51002 60006 74440 80000 90300=
07070,1997-07-28 06:00:00,11,1024,0.6,100,11,400,3.704,,,30,9.4,23,,,,,,,,44,wg-a,,,,AAXX 28064 07070 12/04 30302 10110 20110 30129 40240 53006 60006 74440 80001 90600 333 10230 20094=
07070,1997-07-28 09:00:00,20,1023.5,-0.1,60,12,11000,3.704,,,150,,,,,,,,,,3,wg-a,,,,AAXX 28094 07070 12561 /1502 10200 20120 30128 40235 58001 60006 70341 81101 90900=
07070,1997-07-28 12:00:00,24,1022.6,-0.8,38,9,25000,7.408,,,360,,,,,,,,,,3,wg-a,,,,AAXX 28124 07070 12675 73604 10240 20090 30120 40226 56008 60006 70341 81101 91200=
07070,1997-07-28 15:00:00,26,1021.1,-1.4,37,10,25000,7.408,,,230,,,,,,,,,,,wg-a,,,,AAXX 28154 07070 12775 62304 10260 20100 30106 40211 57014 60006 81102 91500=
07070,1997-07-28 18:00:00,23,1021,-0.2,50,12,500,11.112,,,10,11.3,25.9,,,,,,,,,wg-a,,,,AAXX 28184 07070 12700 70106 10230 20120 30104 40210 55002 60006 81132 91800 333 10259 20113=
07070,1997-07-28 21:00:00,17,1021.7,0.5,77,13,20000,0,,,0,,,,,,,,,,,wg-a,,,,AAXX 28214 07070 12/70 70000 10170 20130 30109 40217 53005 60006 81032 92100=
07070,1997-07-29 00:00:00,15,1022.3,0.5,88,13,20000,3.704,,,350,,,,,,,,,,,wg-a,,,,AAXX 29004 07070 12/70 23502 10150 20130 30114 40223 51005 60006 80001 90000=
07070,1997-07-29 03:00:00,11,1022,-0.5,94,10,20000,0,,,0,,,,,,,,,,,wg-a,,,,AAXX 29034 07070 12/70 10000 10110 20100 30109 40220 56005 60006 80001 90300=
07070,1997-07-29 06:00:00,13,1022.3,0.4,100,13,7000,0,,,0,10.1,23.4,,,,,,,,,wg-a,,,,AAXX 29064 07070 12/57 50000 10130 20130 30113 40223 52004 60006 80001 90600 333 10234 20101=
07070,1997-07-29 09:00:00,23,1022.3,0.4,50,12,10000,3.704,,,80,,,,,,,,,,,wg-a,,,,AAXX 29094 07070 12/60 70802 10230 20120 30117 40223 51004 60006 80001 90900=
07070,1997-07-29 12:00:00,26,1021.3,-0.9,39,11,20000,7.408,,,90,,,,,,,,,,,wg-a,,,,AAXX 29124 07070 12770 70904 10260 20110 30108 40213 57009 60006 81101 91200=
07070,1997-07-29 15:00:00,28,1020,-1.2,25,6,25000,7.408,,,360,,,,,,,,,,,wg-a,,,,AAXX 29154 07070 12775 33604 10280 20060 30096 40200 58012 60006 81101 91500=
07070,1997-07-29 18:00:00,27,1019.2,-0.8,34,10,25000,3.704,,,320,13.4,27.9,,,,,,,,,wg-a,,,,AAXX 29184 07070 12775 23202 10270 20100 30088 40192 56008 60006 81401 91800 333 10279 20134=
07070,1997-07-29 21:00:00,16,1019.9,0.3,82,13,20000,11.112,,,120,,,,,,,,,,,wg-a,,,,AAXX 29214 07070 12/70 31206 10160 20130 30091 40199 51003 60006 80001 92100=
07070,1997-07-30 00:00:00,15,1019.4,-0.6,82,12,20000,0,,,0,,,,,,,,,,,wg-a,,,,AAXX 30004 07070 12/70 00000 10150 20120 30085 40194 58006 60006 80000 90000=
07070,1997-07-30 03:00:00,13,1018.5,-0.9,88,11,20000,3.704,,,220,,,,,,,,,,,wg-a,,,,AAXX 30034 07070 12/70 22202 10130 20110 30076 40185 58009 60006 81031 90300=
07070,1997-07-30 06:00:00,16,1018.2,-0.2,88,14,15000,0,,,0,13.1,27.2,,,,,,,,,wg-a,,,,AAXX 30064 07070 12/65 60000 10160 20140 30074 40182 57002 60006 84031 90600 333 10272 20131=
07070,1997-07-30 09:00:00,25,1017.8,-0.1,47,13,20000,14.816,,,240,,,,,,,,,,,wg-a,,,,AAXX 30094 07070 12/70 72408 10250 20130 30073 40178 55001 60006 81032 90900=
07070,1997-07-30 12:00:00,28,1016.9,-0.8,42,14,25000,18.52,,,240,,,,,,,,,,,wg-a,,,,AAXX 30124 07070 12775 72410 10280 20140 30065 40169 57008 60006 8327/ 91200=
07070,1997-07-30 15:00:00,28,1015.9,-0.9,48,16,20000,22.224,,,270,,,,,,,,,,,wg-a,,,,AAXX 30154 07070 12770 72712 10280 20160 30056 40159 56009 60006 82231 91500=
07070,1997-07-30 18:00:00,23,1016.7,0.6,69,17,25000,25.928,,,330,15.9,29.1,,,,,,,,,wg-a,,,,AAXX 30184 07070 12775 43314 10230 20170 30062 40167 53006 60006 81281 91800 333 10291 20159=
07070,1997-07-30 21:00:00,18,1018.5,1.6,52,8,20000,18.52,,,340,,,,,,,,,,,wg-a,,,,AAXX 30214 07070 12/70 33410 10180 20080 30078 40185 52016 60006 80001 92100=
07070,1997-07-31 00:00:00,14,1019.5,0.8,77,10,15000,7.408,,,260,,,,,,,,,,,wg-a,,,,AAXX 31004 07070 12/65 02604 10140 20100 30086 40195 51008 60006 80000 90000=
07070,1997-07-31 03:00:00,14,1018.5,-1,82,11,15000,14.816,,,260,,,,,,,,,,,wg-a,,,,AAXX 31034 07070 12765 52608 10140 20110 30076 40185 58010 60006 85500 90300=
07070,1997-07-31 06:00:00,14,1018.6,0.1,88,12,15000,18.52,,,270,13,23.3,,,,,,,,,wg-a,,,,AAXX 31064 07070 12/65 82710 10140 20120 30077 40186 51001 60006 85072 90600 333 10233 20130=
07070,1997-07-31 09:00:00,18,1018.7,0.2,73,13,20000,22.224,,,280,,,,,,,,,,,wg-a,,,,AAXX 31094 07070 12570 72812 10180 20130 30079 40187 50002 60006 84232 90900=
07070,1997-07-31 12:00:00,17,1019,0.3,77,13,15000,22.224,,,280,,,,,,,,,,61,wg-a,,,,AAXX 31124 07070 02565 82812 10170 20130 30082 40190 51003 61000 76162 8427/ 91200 333 6100=
07070,1997-07-31 15:00:00,16,1018.2,-0.8,88,14,12000,7.408,,,240,,,,1,,,,,,21,wg-a,,,,AAXX 31154 07070 12662 82404 10160 20140 30074 40182 58008 60017 72162 8327/ 91500=
07070,1997-07-31 18:00:00,15,1018,-0.3,94,14,7000,11.112,,,320,13.7,18.3,,,,,,,,61,wg-a,,,,AAXX 31184 07070 02557 83206 10150 20140 30071 40180 56003 61000 76162 8487/ 91800 333 10183 20137 6000=
07070,1997-07-31 21:00:00,14,1018.2,0.2,94,13,8000,7.408,,,260,,,,1,,,,,,61,wg-a,,,,AAXX 31214 07070 12558 82604 10140 20130 30073 40182 50002 60017 76162 8187/ 92100=
07070,1997-08-01 00:00:00,14,1017.2,-1,94,13,15000,7.408,,,240,,,,0,,,,,,60,wg-a,,,,AAXX 01004 07070 02665 82404 10140 20130 30063 40172 58010 60016 76062 8157/ 90000 333 60007=
07070,1997-08-01 03:00:00,14,1015.9,-1.3,94,13,8000,11.112,,,260,,,,1,,,,,,61,wg-a,,,,AAXX 01034 07070 12358 82606 10140 20130 30050 40159 56013 60017 76166 8557/ 90300=
07070,1997-08-01 06:00:00,14,1015.3,-0.6,94,13,3500,14.816,,,250,13.5,14.6,,,,,,,,10,wg-a,,,,AAXX 01064 07070 02335 82508 10140 20130 30044 40153 56006 61000 71065 8572/ 90600 333 10146 20135 6006=
07070,1997-08-01 09:00:00,15,1015.5,0.3,94,14,3500,14.816,,,270,,,,2,,,,,,10,wg-a,,,,AAXX 01094 07070 12335 82708 10150 20140 30047 40155 51003 60027 71065 877// 90900=
07070,1997-08-01 12:00:00,16,1015.8,0.3,94,15,7000,18.52,,,270,,,,1,,,,,,10,wg-a,,,,AAXX 01124 07070 02357 82710 10160 20150 30050 40158 52003 60036 71065 877// 91200 333 60017=
07070,1997-08-01 15:00:00,17,1015.7,-0,88,15,12000,14.816,,,260,,,,,,,,,,,wg-a,,,,AAXX 01154 07070 12462 82608 10170 20150 30050 40157 54000 60006 878// 91500=
07070,1997-08-01 18:00:00,16,1016,0.2,100,16,2500,7.408,,,230,13.5,17.2,,,,,,,,10,wg-a,,,,AAXX 01184 07070 02225 82304 10160 20160 30052 40160 52002 61000 71055 877// 91800 333 10172 20135 6000=
07070,1997-08-01 21:00:00,16,1016.8,0.8,100,16,11000,7.408,,,240,,,,,,,,,,10,wg-a,,,,AAXX 01214 07070 12/61 /2404 10160 20160 30060 40168 53008 60006 710// 92100=
07070,1997-08-02 00:00:00,16,1016.5,-0.3,100,16,2500,7.408,,,210,,,,1,,,,,,10,wg-a,,,,AAXX 02004 07070 02425 82104 10160 20160 30057 40165 58003 60016 71052 877// 90000 333 60017=
07070,1997-08-02 03:00:00,17,1015.8,-0.6,94,16,2500,11.112,,,240,,,,,,,,,,10,wg-a,,,,AAXX 02034 07070 02325 82406 10170 20160 30051 40158 58006 61000 71055 877// 90300 333 ////=
07070,1997-08-02 06:00:00,17,1016.4,0.6,100,17,2000,7.408,,,280,16.2,17.3,,,,,,,,10,wg-a,,,,AAXX 02064 07070 02220 82804 10170 20170 30057 40164 51006 61000 71052 877// 90600 333 10173 20162 6004=
07070,1997-08-02 09:00:00,18,1017.5,1.1,100,18,500,11.112,,,310,,,,,,,,,,2,wg-a,,,,AAXX 02094 07070 02200 83106 10180 20180 30068 40175 53011 61000 70252 886// 90900 333 ////=
07070,1997-08-02 12:00:00,22,1017.6,0.2,78,18,9000,7.408,,,300,,,,,,,,,,1,wg-a,,,,AAXX 02124 07070 02459 73004 10220 20180 30070 40176 53002 61000 70152 872// 91200 333 ////=
07070,1997-08-02 15:00:00,21,1017.5,-0.1,88,19,9000,11.112,,,10,,,,,,,,,,,wg-a,,,,AAXX 02154 07070 12459 80106 10210 20190 30069 40175 58001 60006 888// 91500=
07070,1997-08-02 18:00:00,21,1017.5,0,88,19,9000,11.112,,,330,17.3,22.3,,,,,,,,3,wg-a,,,,AAXX 02184 07070 02559 73306 10210 20190 30069 40175 50000 60006 70382 878// 91800 333 10223 20173 61000=
07070,1997-08-02 21:00:00,19,1018,0.4,94,18,8000,0,,,0,,,,,,,,,,,wg-a,,,,AAXX 02214 07070 12758 70000 10190 20180 30073 40180 53004 60006 875// 92100=
07070,1997-08-03 00:00:00,18,1018,0,100,18,7000,0,,,0,,,,,,,,,,,wg-a,,,,AAXX 03004 07070 12657 80000 10180 20180 30073 40180 50000 60006 875// 90000=
07070,1997-08-03 03:00:00,17,1017.3,-0.8,94,16,1500,0,,,0,,,,,,,,,,10,wg-a,,,,AAXX 03034 07070 12615 /0000 10170 20160 30065 40173 56008 60006 71022 85500 90300=
07070,1997-08-03 06:00:00,16,1017.3,-0,100,16,4500,0,,,0,15,20.9,,,,,,,,10,wg-a,,,,AAXX 03064 07070 02545 80000 10160 20160 30065 40173 55000 60006 71042 8457/ 90600 333 10209 20150 61000=
07070,1997-08-03 09:00:00,18,1017.8,0.6,94,17,4500,7.408,,,10,,,,0,,,,,,10,wg-a,,,,AAXX 03094 07070 12745 80104 10180 20170 30071 40178 52006 60007 71052 8557/ 90900=
07070,1997-08-03 12:00:00,23,1017.2,-0.4,78,19,10000,7.408,,,20,,,,,,,,,,,wg-a,,,,AAXX 03124 07070 12460 /0204 10230 20190 30067 40172 55004 60006 83270 91200=
07070,1997-08-03 15:00:00,25,1016.1,-1,69,19,15000,7.408,,,20,,,,,,,,,,,wg-a,,,,AAXX 03154 07070 12565 70204 10250 20190 30057 40161 56010 60006 8323/ 91500=
07070,1997-08-03 18:00:00,24,1016,-0.2,74,19,25000,7.408,,,30,16.4,25.3,,,,,,,,,wg-a,,,,AAXX 03184 07070 12675 60304 10240 20190 30055 40160 55002 60006 82280 91800 333 10253 20164=
07070,1997-08-03 21:00:00,19,1016.6,0.4,94,18,12000,7.408,,,50,,,,,,,,,,,wg-a,,,,AAXX 03214 07070 12/62 40504 10190 20180 30059 40166 53004 60006 83031 92100=
07070,1997-08-04 00:00:00,18,1016.5,-0.1,100,18,12000,3.704,,,30,,,,,,,,,,,wg-a,,,,AAXX 04004 07070 12/62 60302 10180 20180 30058 40165 57001 60006 86030 90000=
07070,1997-08-04 03:00:00,16,1016.4,-0.2,100,16,2000,3.704,,,80,,,,,,,,,,,wg-a,,,,AAXX 04034 07070 12/20 /0802 10160 20160 30056 40164 57002 60006 86030 90300=
07070,1997-08-04 06:00:00,18,1016.4,0.1,100,18,4000,3.704,,,60,15.8,24.3,,,,,,,,10,wg-a,,,,AAXX 04064 07070 02/40 70602 10180 20180 30057 40164 53001 60006 71011 8707/ 90600 333 10243 20158 60004=
07070,1997-08-04 09:00:00,24,1016.6,0.4,78,20,10000,11.112,,,30,,,,,,,,,,,wg-a,,,,AAXX 04094 07070 12/60 70306 10240 20200 30061 40166 51004 60006 86082 90900=
07070,1997-08-04 12:00:00,27,1016.5,-0,66,20,12000,7.408,,,70,,,,,,,,,,21,wg-a,,,,AAXX 04124 07070 02662 /0704 10270 20200 30061 40165 54000 61000 72162 81270 91200 333 6100=
07070,1997-08-04 15:00:00,29,1015.9,-0.5,58,20,25000,14.816,,,50,,,,,,,,,,,wg-a,,,,AAXX 04154 07070 12675 30508 10290 20200 30056 40159 57005 60006 81230 91500=
07070,1997-08-04 18:00:00,27,1015.8,-0.1,66,20,25000,14.816,,,50,18.2,29.3,,,,,,,,,wg-a,,,,AAXX 04184 07070 12775 30508 10270 20200 30055 40158 55001 60006 81132 91800 333 10293 20182=
07070,1997-08-04 21:00:00,22,1016.2,0.2,88,20,15000,14.816,,,90,,,,,,,,,,,wg-a,,,,AAXX 04214 07070 12/65 50908 10220 20200 30057 40162 53002 60006 83082 92100=
07070,1997-08-05 00:00:00,19,1016.9,0.5,94,18,10000,7.408,,,10,,,,,,,,,,,wg-a,,,,AAXX 05004 07070 12/60 50104 10190 20180 30062 40169 51005 60006 80002 90000=
07070,1997-08-05 03:00:00,17,1016.2,-0.7,100,17,8000,7.408,,,350,,,,,,,,,,,wg-a,,,,AAXX 05034 07070 12/58 33504 10170 20170 30055 40162 56007 60006 80002 90300=
07070,1997-08-05 06:00:00,18,1016.4,0.2,100,18,2500,3.704,,,90,17.2,27.4,,,,,,,,10,wg-a,,,,AAXX 05064 07070 02725 /0902 10180 20180 30057 40164 53002 60006 71022 84982 90600 333 10274 20172 61000=
07070,1997-08-05 09:00:00,24,1015.3,-0.8,78,20,4000,7.408,,,170,,,,,,,,,,10,wg-a,,,,AAXX 05094 07070 12740 71704 10240 20200 30049 40153 58008 60006 71092 86981 90900=
07070,1997-08-05 12:00:00,25,1015.1,-0.2,79,21,500,7.408,,,300,,,,,,,,,,21,wg-a,,,,AAXX 05124 07070 02500 83004 10250 20210 30047 40151 55002 61000 72198 8117/ 91200 333 6100=
07070,1997-08-05 15:00:00,28,1013.4,-1.6,62,20,10000,7.408,,,70,,,,,,,,,,,wg-a,,,,AAXX 05154 07070 12660 70704 10280 20200 30031 40134 57016 60006 8128/ 91500=
07070,1997-08-05 18:00:00,26,1013.4,-0,74,21,8000,7.408,,,40,17.9,28.7,,,,,,,,,wg-a,,,,AAXX 05184 07070 12/58 70404 10260 20210 30031 40134 55000 60006 8708/ 91800 333 10287 20179=
07070,1997-08-05 21:00:00,23,1013.2,-0.4,83,20,8000,3.704,,,30,,,,,,,,,,,wg-a,,,,AAXX 05214 07070 12/58 80302 10230 20200 30027 40132 58004 60006 8708/ 92100=
07070,1997-08-06 00:00:00,21,1013.2,-0,94,20,8000,7.408,,,350,,,,,,,,,,,wg-a,,,,AAXX 06004 07070 12/58 73504 10210 20200 30027 40132 55000 60006 8707/ 90000=
07070,1997-08-06 03:00:00,20,1012.2,-1.1,94,19,10000,11.112,,,120,,,,,,,,,,,wg-a,,,,AAXX 06034 07070 12/60 71206 10200 20190 30016 40122 56011 60006 8708/ 90300=
07070,1997-08-06 06:00:00,19,1012.6,0.4,94,18,8000,3.704,,,100,18,26.4,,,,,,,,,wg-a,,,,AAXX 06064 07070 02/58 /1002 10190 20180 30020 40126 52004 60006 83082 90600 333 10264 20180 61000=
07070,1997-08-06 09:00:00,22,1013,0.5,88,20,15000,7.408,,,170,,,,,,,,,,21,wg-a,,,,AAXX 06094 07070 02565 71704 10220 20200 30025 40130 53005 61000 72162 82772 90900 333 ////=
07070,1997-08-06 12:00:00,26,1012.7,-0.2,65,19,25000,14.816,,,140,,,,,,,,,,1,wg-a,,,,AAXX 06124 07070 02575 71408 10260 20190 30023 40127 58002 61000 70162 83272 91200 333 6100=
07070,1997-08-06 15:00:00,27,1011.9,-0.7,58,18,25000,3.704,,,200,,,,,,,,,,,wg-a,,,,AAXX 06154 07070 12675 72002 10270 20180 30016 40119 57007 60006 83272 91500=
07070,1997-08-06 18:00:00,20,1012.8,0.6,100,20,6000,3.704,,,90,18.7,27.4,,,,,,,,80,wg-a,,,,AAXX 06184 07070 02656 70902 10200 20200 30022 40128 53006 61000 78098 879// 91800 333 10274 20187 6007=
07070,1997-08-06 21:00:00,20,1013.6,0.8,88,18,8000,3.704,,,20,,,,2,,,,,,80,wg-a,,,,AAXX 06214 07070 12458 70202 10200 20180 30030 40136 53008 60027 78098 8598/ 92100=
07070,1997-08-07 00:00:00,19,1013.7,0.1,94,18,10000,0,,,0,,,,1,,,,,,1,wg-a,,,,AAXX 07004 07070 02/60 70000 10190 20180 30031 40137 51001 60036 70198 8707/ 90000 333 60017=
07070,1997-08-07 03:00:00,19,1013.3,-0.4,94,18,8000,3.704,,,30,,,,,,,,,,,wg-a,,,,AAXX 07034 07070 12/58 70302 10190 20180 30027 40133 56004 60006 8707/ 90300=
07070,1997-08-07 06:00:00,19,1013.6,0.3,100,19,4500,3.704,,,50,18.4,20.5,,,,,9,,,10,wg-a,,,,AAXX 07064 07070 02645 70502 10190 20190 30030 40136 53003 60006 71022 8153/ 90600 333 10205 20184 60094=
07070,1997-08-07 09:00:00,22,1013.5,0,73,17,8000,18.52,,,90,,,,,,,,,,,wg-a,,,,AAXX 07094 07070 12758 50910 10220 20170 30030 40135 50000 60006 81531 90900=
07070,1997-08-07 12:00:00,25,1013.2,-0.2,74,20,8000,7.408,,,120,,,,,,,,,,,wg-a,,,,AAXX 07124 07070 12558 71204 10250 20200 30028 40132 58002 60006 82131 91200=
07070,1997-08-07 15:00:00,27,1012.3,-0.8,58,18,11000,11.112,,,80,,,,,,,,,,,wg-a,,,,AAXX 07154 07070 12/61 /0806 10270 20180 30020 40123 56008 60006 91500=
07070,1997-08-07 18:00:00,24,1013.3,0.8,69,18,10000,14.816,,,160,19.1,27.6,,,,,,,,13,wg-a,,,,AAXX 07184 07070 12560 71608 10240 20180 30028 40133 53008 60006 71322 8497/ 91800 333 10276 20191=
07070,1997-08-07 21:00:00,20,1014.7,1.3,88,18,20000,14.816,,,160,,,,,,,,,,1,wg-a,,,,AAXX 07214 07070 12670 71608 10200 20180 30041 40147 53013 60006 70192 84832 92100=
07070,1997-08-08 00:00:00,18,1015.2,0.4,94,17,20000,0,,,0,,,,,,,,,,1,wg-a,,,,AAXX 08004 07070 12770 60000 10180 20170 30045 40152 51004 60006 70192 81531 90000=
07070,1997-08-08 03:00:00,16,1015.7,0.4,100,16,20000,0,,,0,,,,,,,,,,,wg-a,,,,AAXX 08034 07070 12/70 50000 10160 20160 30049 40157 51004 60006 83031 90300=
07070,1997-08-08 06:00:00,18,1016.8,1.2,100,18,500,3.704,,,180,15.2,23.6,,,,,,,,,wg-a,,,,AAXX 08064 07070 12/00 /1802 10180 20180 30061 40168 51012 60006 86080 90600 333 10236 20152=
07070,1997-08-08 09:00:00,25,1017.3,0.7,65,18,12000,3.704,,,180,,,,,,,,,,,wg-a,,,,AAXX 08094 07070 12562 31802 10250 20180 30068 40173 52007 60006 81130 90900=
07070,1997-08-08 12:00:00,26,1017.1,-0.1,65,19,25000,14.816,,,260,,,,,,,,,,,wg-a,,,,AAXX 08124 07070 12675 42608 10260 20190 30067 40171 58001 60006 82280 91200=
07070,1997-08-08 15:00:00,29,1016.3,-0.7,52,18,25000,7.408,,,180,,,,,,,,,,,wg-a,,,,AAXX 08154 07070 12675 31804 10290 20180 30060 40163 58007 60006 83900 91500=
07070,1997-08-08 18:00:00,25,1016.4,-0,74,20,25000,11.112,,,100,18.1,29.5,,,,,,,,,wg-a,,,,AAXX 08184 07070 12775 21006 10250 20200 30060 40164 55000 60006 82200 91800 333 10295 20181=
07070,1997-08-09 00:00:00,19,1018.5,0.6,88,17,10000,0,,,0,,,,,,,,,,,wg-a,,,,AAXX 09004 07070 12/60 00000 10190 20170 30078 40185 53006 60006 80000 90000=
07070,1997-08-09 06:00:00,17,1019.8,0.9,100,17,100,3.704,,,40,15.9,25.1,,,,,,,,45,wg-a,,,,AAXX 09064 07070 12/01 90402 10170 20170 30090 40198 53009 60006 74540 89/// 90600 333 10251 20159=
07070,1997-08-09 09:00:00,24,1019.6,0.1,78,20,7000,3.704,,,50,,,,,,,,,,3,wg-a,,,,AAXX 09094 07070 12557 /0502 10240 20200 30091 40196 50001 60006 70341 81200 90900=
07070,1997-08-09 12:00:00,29,1018.7,-0.7,52,18,12000,3.704,,,150,,,,,,,,,,3,wg-a,,,,AAXX 09124 07070 12662 31502 10290 20180 30084 40187 58007 60006 70341 83200 91200=
07070,1997-08-09 18:00:00,28,1017.3,-0.4,55,18,20000,11.112,,,90,17.4,30.6,,,,,,,,,wg-a,,,,AAXX 09184 07070 12770 10906 10280 20180 30070 40173 55004 60006 81200 91800 333 10306 20174=
07070,1997-08-09 21:00:00,19,1018.1,0.4,83,16,10000,11.112,,,100,,,,,,,,,,,wg-a,,,,AAXX 09214 07070 12/60 01006 10190 20160 30074 40181 50004 60006 80000 92100=
07070,1997-08-10 00:00:00,18,1018.6,0.5,88,16,10000,0,,,0,,,,,,,,,,,wg-a,,,,AAXX 10004 07070 12/60 00000 10180 20160 30079 40186 51005 60006 80000 90000=
07070,1997-08-10 03:00:00,15,1018.4,-0.3,100,15,10000,7.408,,,80,,,,,,,,,,,wg-a,,,,AAXX 10034 07070 12/60 00804 10150 20150 30076 40184 55003 60006 80000 90300=
07070,1997-08-10 06:00:00,16,1018.4,-0,94,15,8000,0,,,0,14,28.1,,,,,,,,,wg-a,,,,AAXX 10064 07070 12/58 /0000 10160 20150 30076 40184 55000 60006 80001 90600 333 10281 20140=
07070,1997-08-10 09:00:00,26,1018.1,0,54,16,20000,14.816,,,100,,,,,,,,,,,wg-a,,,,AAXX 10094 07070 12/70 01008 10260 20160 30076 40181 50000 60006 80000 90900=
07070,1997-08-10 12:00:00,30,1016.3,-1.6,38,14,20000,25.928,,,100,,,,,,,,,,,wg-a,,,,AAXX 10124 07070 12/70 01014 10300 20140 30060 40163 57016 60006 80000 91200=
07070,1997-08-10 15:00:00,31,1014.6,-1.6,36,14,25000,25.928,,,100,,,,,,,,,,,wg-a,,,,AAXX 10154 07070 12/75 01014 10310 20140 30044 40146 56016 60006 80000 91500=
07070,1997-08-10 18:00:00,28,1013.8,-0.9,45,15,25000,14.816,,,110,16.3,31,,,,,,,,,wg-a,,,,AAXX 10184 07070 12/75 01108 10280 20150 30035 40138 55009 60006 80000 91800 333 10310 20163=
07070,1997-08-10 21:00:00,21,1014.1,-0,73,16,15000,18.52,,,110,,,,,,,,,,,wg-a,,,,AAXX 10214 07070 12/65 41110 10210 20160 30035 40141 54000 60006 80002 92100=
07070,1997-08-11 00:00:00,19,1014.5,0.4,78,15,15000,3.704,,,200,,,,,,,,,,,wg-a,,,,AAXX 11004 07070 12/65 42002 10190 20150 30039 40145 53004 60006 80001 90000=
07070,1997-08-11 03:00:00,17,1013.7,-0.9,82,14,12000,14.816,,,60,,,,,,,,,,,wg-a,,,,AAXX 11034 07070 12/62 50608 10170 20140 30030 40137 58009 60006 80001 90300=
07070,1997-08-11 06:00:00,18,1014.6,0.9,88,16,12000,7.408,,,50,16.2,27.4,,,,,,,,,wg-a,,,,AAXX 11064 07070 12/62 20504 10180 20160 30039 40146 51009 60006 80001 90600 333 10274 20162=
07070,1997-08-11 09:00:00,25,1014.7,0.4,54,15,12000,14.816,,,90,,,,,,,,,,,wg-a,,,,AAXX 11094 07070 12/62 10908 10250 20150 30043 40147 53004 60006 80001 90900=
07070,1997-08-11 12:00:00,29,1014.3,-0.3,45,16,12000,11.112,,,70,,,,,,,,,,,wg-a,,,,AAXX 11124 07070 12/62 10706 10290 20160 30040 40143 58003 60006 80001 91200=
07070,1997-08-11 15:00:00,31,1014.7,0.5,38,15,12000,11.112,,,120,,,,,,,,,,,wg-a,,,,AAXX 11154 07070 12/62 71206 10310 20150 30045 40147 53005 60006 80002 91500=
07070,1997-08-11 18:00:00,29,1015.7,0.9,52,18,12000,7.408,,,70,18.2,31.4,,,,,,,,,wg-a,,,,AAXX 11184 07070 12/62 20704 10290 20180 30054 40157 52009 60006 80001 91800 333 10314 20182=
07070,1997-08-11 21:00:00,23,1017.4,1.5,73,18,10000,3.704,,,30,,,,,,,,,,,wg-a,,,,AAXX 11214 07070 12/60 /0302 10230 20180 30069 40174 53015 60006 92100=
07070,1997-08-12 00:00:00,20,1018,0.4,83,17,8000,7.408,,,40,,,,,,,,,,,wg-a,,,,AAXX 12004 07070 12/58 00404 10200 20170 30073 40180 51004 60006 80000 90000=
07070,1997-08-12 03:00:00,17,1019,0.9,94,16,8000,3.704,,,330,,,,,,,,,,,wg-a,,,,AAXX 12034 07070 12/58 03302 10170 20160 30082 40190 51009 60006 80000 90300=
07070,1997-08-12 06:00:00,18,1020.1,1.1,88,16,8000,3.704,,,60,16.4,28.5,,,,,,,,,wg-a,,,,AAXX 12064 07070 12/58 /0602 10180 20160 30093 40201 53011 60006 82031 90600 333 10285 20164=
07070,1997-08-12 09:00:00,25,1020.4,0.6,74,20,9000,7.408,,,90,,,,,,,,,,,wg-a,,,,AAXX 12094 07070 12/59 /0904 10250 20200 30099 40204 51006 60006 82031 90900=
07070,1997-08-12 12:00:00,30,1019.9,-0.3,49,18,10000,11.112,,,80,,,,,,,,,,,wg-a,,,,AAXX 12124 07070 12/60 20806 10300 20180 30096 40199 58003 60006 80001 91200=
07070,1997-08-12 15:00:00,32,1019.3,-0.6,41,17,15000,7.408,,,120,,,,,,,,,,,wg-a,,,,AAXX 12154 07070 12765 21204 10320 20170 30090 40193 58006 60006 81101 91500=
07070,1997-08-12 18:00:00,29,1018.9,-0.4,55,19,12000,11.112,,,60,17.5,31.8,,,,,,,,,wg-a,,,,AAXX 12184 07070 12762 10606 10290 20190 30086 40189 56004 60006 81101 91800 333 10318 20175=
07070,1997-08-12 21:00:00,22,1020,0.8,78,18,15000,3.704,,,50,,,,,,,,,,,wg-a,,,,AAXX 12214 07070 12/65 20502 10220 20180 30094 40200 53008 60006 80001 92100=
07070,1997-08-13 00:00:00,19,1019.5,-0.6,88,17,15000,0,,,0,,,,,,,,,,,wg-a,,,,AAXX 13004 07070 12/65 00000 10190 20170 30088 40195 58006 60006 80000 90000=
07070,1997-08-13 03:00:00,18,1019.5,0,94,17,15000,3.704,,,30,,,,,,,,,,,wg-a,,,,AAXX 13034 07070 12/65 20302 10180 20170 30088 40195 50000 60006 80001 90300=
07070,1997-08-13 06:00:00,19,1020.5,1,88,17,500,3.704,,,340,17.1,28.4,,,,,,,,,wg-a,,,,AAXX 13064 07070 12600 63402 10190 20170 30098 40205 53010 60006 85281 90600 333 10284 20171=
07070,1997-08-13 09:00:00,23,1021.4,1,73,18,500,7.408,,,30,,,,4,,,,,,,wg-a,,,,AAXX 13094 07070 12600 30304 10230 20180 30108 40214 51010 60047 81202 90900=
07070,1997-08-13 12:00:00,28,1020.8,-0.4,62,20,20000,14.816,,,290,,,,,,,,,,1,wg-a,,,,AAXX 13124 07070 12/70 02908 10280 20200 30104 40208 56004 60046 70198 80000 91200=
07070,1997-08-13 18:00:00,28,1021.3,,58,19,500,11.112,,,310,18.5,29.8,,,,,,,,,wg-a,,,,AAXX 13184 07070 12600 33106 10280 20190 30109 40213 60006 82802 91800 333 10298 20185=
07070,1997-08-13 21:00:00,22,1023.5,2,78,18,15000,18.52,,,330,,,,,,,,,,,wg-a,,,,AAXX 13214 07070 12765 23310 10220 20180 30129 40235 53020 60006 81401 92100=
07070,1997-08-14 00:00:00,19,1024.4,0.8,83,16,15000,7.408,,,300,,,,,,,,,,,wg-a,,,,AAXX 14004 07070 12765 33004 10190 20160 30137 40244 51008 60006 83501 90000=
07070,1997-08-14 03:00:00,17,1024.5,0,88,15,15000,7.408,,,330,,,,,,,,,,,wg-a,,,,AAXX 14034 07070 12765 53304 10170 20150 30137 40245 50000 60006 85501 90300=
07070,1997-08-14 06:00:00,17,1024.6,-0.1,88,15,15000,3.704,,,260,16.3,27.9,,,,,4,,,,wg-a,,,,AAXX 14064 07070 02765 52602 10170 20150 30138 40246 55001 60006 83801 90600 333 10279 20163 60044=
07070,1997-08-14 09:00:00,21,1024.2,-0.3,73,16,15000,3.704,,,310,,,,,,,,,,,wg-a,,,,AAXX 14094 07070 12765 53102 10210 20160 30135 40242 58003 60006 81801 90900=
07070,1997-08-14 12:00:00,25,1022.9,-1.1,54,15,20000,11.112,,,320,,,,,,,,,,0,wg-a,,,,AAXX 14124 07070 12670 /3206 10250 20150 30124 40229 58011 60006 70032 81102 91200=
07070,1997-08-14 15:00:00,27,1021.8,-1.1,39,12,20000,14.816,,,330,,,,,,,,,,,wg-a,,,,AAXX 14154 07070 12770 63308 10270 20120 30113 40218 56011 60006 81102 91500=
07070,1997-08-14 18:00:00,25,1021,-0.8,54,15,20000,11.112,,,310,16.9,27.1,,,,,,,,,wg-a,,,,AAXX 14184 07070 12770 63106 10250 20150 30105 40210 57008 60006 814/2 91800 333 10271 20169=
07070,1997-08-14 21:00:00,19,1022,0.7,73,14,15000,0,,,0,,,,,,,,,,,wg-a,,,,AAXX 14214 07070 12/65 10000 10190 20140 30112 40220 51007 60006 80002 92100=
07070,1997-08-15 00:00:00,15,1022.2,0.1,94,14,12000,0,,,0,,,,,,,,,,,wg-a,,,,AAXX 15004 07070 12/62 10000 10150 20140 30113 40222 50001 60006 80002 90000=
07070,1997-08-15 03:00:00,13,1021.9,-0.4,94,12,8000,0,,,0,,,,,,,,,,,wg-a,,,,AAXX 15034 07070 12/58 /0000 10130 20120 30109 40219 56004 60006 81080 90300=
07070,1997-08-15 06:00:00,14,1022.2,0.4,100,14,4000,3.704,,,50,12.1,24.9,,,,,,,,28,wg-a,,,,AAXX 15064 07070 12/40 40502 10140 20140 30113 40222 53004 60006 72840 82081 90600 333 10249 20121=
07070,1997-08-15 12:00:00,26,1021.3,-0.7,51,15,12000,7.408,,,40,,,,,,,,,,,wg-a,,,,AAXX 15124 07070 12662 50404 10260 20150 30108 40213 57007 60006 84201 91200=
07070,1997-08-15 15:00:00,27,1020.6,-0.6,45,14,15000,3.704,,,330,,,,,,,,,,,wg-a,,,,AAXX 15154 07070 12765 43302 10270 20140 30102 40206 58006 60006 83201 91500=
07070,1997-08-15 18:00:00,25,1019.9,-0.8,57,16,20000,11.112,,,50,14.3,27.5,,,,,,,,,wg-a,,,,AAXX 15184 07070 12770 60506 10250 20160 30094 40199 56008 60006 814/1 91800 333 10275 20143=
07070,1997-08-15 21:00:00,18,1020.6,0.4,83,15,15000,7.408,,,70,,,,,,,,,,,wg-a,,,,AAXX 15214 07070 12/65 50704 10180 20150 30098 40206 51004 60006 80001 92100=
07070,1997-08-16 00:00:00,17,1021,0.4,82,14,15000,3.704,,,330,,,,,,,,,,,wg-a,,,,AAXX 16004 07070 12/65 73302 10170 20140 30102 40210 51004 60006 82031 90000=
07070,1997-08-16 03:00:00,14,1020.1,-1,88,12,15000,0,,,0,,,,,,,,,,,wg-a,,,,AAXX 16034 07070 12/65 40000 10140 20120 30092 40201 56010 60006 80001 90300=
07070,1997-08-16 06:00:00,14,1020.3,0.2,100,14,7000,0,,,0,12.3,24.6,,,,,,,,,wg-a,,,,AAXX 16064 07070 12/57 30000 10140 20140 30094 40203 51002 60006 80001 90600 333 10246 20123=
07070,1997-08-16 09:00:00,23,1020.1,0.1,69,17,8000,7.408,,,130,,,,,,,,,,,wg-a,,,,AAXX 16094 07070 12/58 01304 10230 20170 30095 40201 50001 60006 80000 90900=
07070,1997-08-16 12:00:00,26,1018.9,-1,48,14,12000,11.112,,,80,,,,,,,,,,,wg-a,,,,AAXX 16124 07070 12662 /0806 10260 20140 30085 40189 57010 60006 81400 91200=
07070,1997-08-16 15:00:00,27,1018.1,-0.8,48,15,12000,14.816,,,80,,,,,,,,,,,wg-a,,,,AAXX 16154 07070 12762 10808 10270 20150 30077 40181 58008 60006 81400 91500=
07070,1997-08-16 18:00:00,25,1017.5,-0.7,54,15,15000,11.112,,,80,14.3,27.5,,,,,,,,,wg-a,,,,AAXX 16184 07070 12/65 10806 10250 20150 30070 40175 55007 60006 80001 91800 333 10275 20143=
07070,1997-08-16 21:00:00,18,1018.4,0.7,83,15,15000,0,,,0,,,,,,,,,,,wg-a,,,,AAXX 16214 07070 12/65 10000 10180 20150 30077 40184 51007 60006 80001 92100=
07070,1997-08-17 00:00:00,15,1018.8,0.2,88,13,12000,0,,,0,,,,,,,,,,,wg-a,,,,AAXX 17004 07070 12/62 10000 10150 20130 30079 40188 50002 60006 80001 90000=
07070,1997-08-17 03:00:00,13,1018.2,-0.6,94,12,12000,0,,,0,,,,,,,,,,,wg-a,,,,AAXX 17034 07070 12/62 10000 10130 20120 30073 40182 56006 60006 80001 90300=
07070,1997-08-17 06:00:00,14,1018.4,0.2,100,14,3000,0,,,0,11.8,25.3,,,,,,,,10,wg-a,,,,AAXX 17064 07070 12/30 00000 10140 20140 30075 40184 53002 60006 71000 80000 90600 333 10253 20118=
07070,1997-08-17 09:00:00,23,1018.7,0.7,69,17,11000,3.704,,,350,,,,,,,,,,,wg-a,,,,AAXX 17094 07070 12/61 03502 10230 20170 30082 40187 51007 60006 80000 90900=
07070,1997-08-17 12:00:00,28,1017.7,-0.9,45,15,12000,11.112,,,70,,,,,,,,,,,wg-a,,,,AAXX 17124 07070 12662 /0706 10280 20150 30073 40177 58009 60006 81200 91200=
07070,1997-08-17 15:00:00,29,1016.3,-1.3,37,13,12000,7.408,,,330,,,,,,,,,,,wg-a,,,,AAXX 17154 07070 12762 13304 10290 20130 30060 40163 58013 60006 81200 91500=
07070,1997-08-17 18:00:00,28,1016.4,0,48,16,12000,3.704,,,20,14.3,29.4,,,,,,,,,wg-a,,,,AAXX 17184 07070 12762 20202 10280 20160 30060 40164 50000 60006 81401 91800 333 10294 20143=
07070,1997-08-17 21:00:00,20,1017.9,1.2,73,15,12000,0,,,0,,,,,,,,,,,wg-a,,,,AAXX 17214 07070 12/62 10000 10200 20150 30072 40179 51012 60006 80001 92100=
07070,1997-08-18 00:00:00,16,1017.9,-0.1,94,15,10000,3.704,,,290,,,,,,,,,,,wg-a,,,,AAXX 18004 07070 12/60 02902 10160 20150 30071 40179 57001 60006 80000 90000=
07070,1997-08-18 03:00:00,15,1017.7,-0.2,94,14,8000,3.704,,,30,,,,,,,,,,,wg-a,,,,AAXX 18034 07070 12/58 /0302 10150 20140 30069 40177 58002 60006 80002 90300=
07070,1997-08-18 06:00:00,15,1017.9,0.2,94,14,4000,0,,,0,13.6,27.7,,,,,,,,10,wg-a,,,,AAXX 18064 07070 12/40 40000 10150 20140 30071 40179 52002 60006 71011 80001 90600 333 10277 20136=
07070,1997-08-18 09:00:00,24,1018.2,0.6,65,17,8000,7.408,,,70,,,,,,,,,,,wg-a,,,,AAXX 18094 07070 12/58 20704 10240 20170 30077 40182 51006 60006 80001 90900=
07070,1997-08-18 12:00:00,29,1017.6,-0.4,45,16,8000,7.408,,,20,,,,,,,,,,,wg-a,,,,AAXX 18124 07070 12658 30204 10290 20160 30073 40176 57004 60006 81101 91200=
07070,1997-08-18 15:00:00,30,1016.6,-1,35,13,12000,7.408,,,40,,,,,,,,,,,wg-a,,,,AAXX 18154 07070 12762 10404 10300 20130 30063 40166 58010 60006 81201 91500=
07070,1997-08-18 18:00:00,27,1016.8,0.1,48,15,12000,7.408,,,30,14.8,29.9,,,,,,,,,wg-a,,,,AAXX 18184 07070 12/62 00304 10270 20150 30064 40168 53001 60006 80000 91800 333 10299 20148=
07070,1997-08-18 21:00:00,19,1017.7,0.6,83,16,10000,7.408,,,10,,,,,,,,,,,wg-a,,,,AAXX 18214 07070 12/60 00104 10190 20160 30070 40177 51006 60006 80000 92100=
07070,1997-08-19 00:00:00,17,1017.8,0,88,15,10000,0,,,0,,,,,,,,,,,wg-a,,,,AAXX 19004 07070 12/60 00000 10170 20150 30070 40178 50000 60006 80000 90000=
07070,1997-08-19 06:00:00,15,1017.6,0.2,100,15,1500,0,,,0,13.5,27.3,,,,,,,,10,wg-a,,,,AAXX 19064 07070 12/15 30000 10150 20150 30068 40176 53002 60006 71000 80001 90600 333 10273 20135=
07070,1997-08-19 09:00:00,24,1017.5,0.2,65,17,500,3.704,,,50,,,,,,,,,,,wg-a,,,,AAXX 19094 07070 12/00 /0502 10240 20170 30070 40175 53002 60006 80001 90900=
07070,1997-08-19 12:00:00,28,1016.5,-0.9,40,13,12000,7.408,,,50,,,,,,,,,,,wg-a,,,,AAXX 19124 07070 12/62 70504 10280 20130 30061 40165 58009 60006 80002 91200=
07070,1997-08-19 15:00:00,30,1015.7,-0.7,31,11,12000,11.112,,,30,,,,,,,,,,,wg-a,,,,AAXX 19154 07070 12/62 70306 10300 20110 30054 40157 56007 60006 80002 91500=
07070,1997-08-19 18:00:00,27,1015.6,-0.2,42,13,15000,11.112,,,20,15,30.1,,,,,,,,,wg-a,,,,AAXX 19184 07070 12/65 70206 10270 20130 30052 40156 55002 60006 80002 91800 333 10301 20150=
07070,1997-08-19 21:00:00,20,1016.7,0.8,68,14,15000,3.704,,,320,,,,,,,,,,,wg-a,,,,AAXX 19214 07070 12/65 03202 10200 20140 30060 40167 51008 60006 80000 92100=
07070,1997-08-20 00:00:00,15,1017.2,0.3,82,12,10000,0,,,0,,,,,,,,,,,wg-a,,,,AAXX 20004 07070 12/60 00000 10150 20120 30063 40172 50003 60006 80000 90000=
07070,1997-08-20 03:00:00,12,1017.2,-0,94,11,10000,0,,,0,,,,,,,,,,,wg-a,,,,AAXX 20034 07070 12/60 10000 10120 20110 30063 40172 55000 60006 80001 90300=
07070,1997-08-20 06:00:00,13,1018,0.8,100,13,500,3.704,,,300,11.1,26.8,,,,,,,,,wg-a,,,,AAXX 20064 07070 12/00 /3002 10130 20130 30071 40180 53008 60006 81039 90600 333 10268 20111=
07070,1997-08-20 09:00:00,22,1018,0.3,69,16,10000,3.704,,,340,,,,,,,,,,,wg-a,,,,AAXX 20094 07070 12/60 03402 10220 20160 30074 40180 50003 60006 80000 90900=
07070,1997-08-20 12:00:00,28,1017.2,-0.6,40,13,20000,11.112,,,330,,,,,,,,,,,wg-a,,,,AAXX 20124 07070 12/70 03306 10280 20130 30068 40172 58006 60006 80000 91200=
07070,1997-08-20 15:00:00,29,1016.5,-0.6,35,12,25000,3.704,,,350,,,,,,,,,,,wg-a,,,,AAXX 20154 07070 12875 23502 10290 20120 30062 40165 56006 60006 81082 91500=
07070,1997-08-20 18:00:00,28,1016.6,-0,42,14,25000,7.408,,,340,13.2,29.3,,,,,,,,,wg-a,,,,AAXX 20184 07070 12/75 03404 10280 20140 30062 40166 55000 60006 80000 91800 333 10293 20132=
07070,1997-08-20 21:00:00,19,1018,1.1,73,14,15000,0,,,0,,,,,,,,,,,wg-a,,,,AAXX 20214 07070 12/65 10000 10190 20140 30073 40180 52011 60006 80001 92100=
07070,1997-08-21 00:00:00,16,1018.1,0,82,13,15000,0,,,0,,,,,,,,,,,wg-a,,,,AAXX 21004 07070 12/65 10000 10160 20130 30073 40181 50000 60006 80001 90000=
07070,1997-08-21 03:00:00,14,1018.3,0.1,94,13,15000,0,,,0,,,,,,,,,,,wg-a,,,,AAXX 21034 07070 12/65 00000 10140 20130 30074 40183 50001 60006 80000 90300=
07070,1997-08-21 06:00:00,14,1019.2,0.9,94,13,4000,0,,,0,12.2,27.6,,,,,,,,10,wg-a,,,,AAXX 21064 07070 12/40 30000 10140 20130 30083 40192 51009 60006 71000 81031 90600 333 10276 20122=
07070,1997-08-21 07:00:00,14,1019.2,0.9,94,13,4000,0,,,0,12.2,27.6,,,,,,,,10,wg-a,,,,AAXX 21074 07070 12/40 30000 10140 20130 30083 40192 51009 60006 71000 81031 90700 333 10276 20122=
07070,1997-08-21 09:00:00,24,1019.4,0.6,54,14,8000,3.704,,,160,,,,,,,,,,,wg-a,,,,AAXX 21094 07070 12/58 51602 10240 20140 30089 40194 52006 60006 82089 90900=
07070,1997-08-21 12:00:00,29,1018.4,-0.8,40,14,10000,7.408,,,270,,,,,,,,,,,wg-a,,,,AAXX 21124 07070 12/60 62704 10290 20140 30081 40184 56008 60006 84089 91200=
07070,1997-08-21 18:00:00,28,1017.6,-0.1,48,16,16000,3.704,,,190,13.8,31.1,,,,,,,,,wg-a,,,,AAXX 21184 07070 12/66 11902 10280 20160 30073 40176 55001 60006 80001 91800 333 10311 20138=
07070,1997-08-22 00:00:00,19,1019.7,0.6,78,15,10000,0,,,0,,,,,,,,,,,wg-a,,,,AAXX 22004 07070 12/60 60000 10190 20150 30090 40197 53006 60006 80001 90000=
07070,1997-08-22 06:00:00,19,1020.8,1,94,18,4500,3.704,,,290,17.4,28.4,,,,,,,,10,wg-a,,,,AAXX 22064 07070 12745 72902 10190 20180 30101 40208 52010 60006 71022 81572 90600 333 10284 20174=
07070,1997-08-22 09:00:00,21,1021.4,0.7,83,18,10000,3.704,,,340,,,,,,,,,,60,wg-a,,,,AAXX 22094 07070 02860 73402 10210 20180 30108 40214 51007 61000 76062 8707/ 90900 333 ////=
07070,1997-08-22 12:00:00,25,1020.9,-0.4,61,17,20000,7.408,,,360,,,,,,,,,,2,wg-a,,,,AAXX 22124 07070 02870 73604 10250 20170 30104 40209 58004 61000 70262 86072 91200 333 6100=
07070,1997-08-22 15:00:00,28,1019.9,-0.9,45,15,25000,3.704,,,20,,,,,,,,,,,wg-a,,,,AAXX 22154 07070 12875 60202 10280 20150 30095 40199 57009 60006 84082 91500=
07070,1997-08-22 18:00:00,25,1019.8,-0.2,57,16,25000,11.112,,,40,18.9,28.8,,,,,,,,,wg-a,,,,AAXX 22184 07070 12875 60406 10250 20160 30093 40198 57002 60006 84082 91800 333 10288 20189=
07070,1997-08-22 21:00:00,20,1019.9,-0.1,83,17,20000,7.408,,,130,,,,,,,,,,,wg-a,,,,AAXX 22214 07070 12/70 51304 10200 20170 30092 40199 58001 60006 83082 92100=
07070,1997-08-23 00:00:00,19,1019.4,-0.5,88,17,15000,0,,,0,,,,,,,,,,,wg-a,,,,AAXX 23004 07070 12/65 70000 10190 20170 30087 40194 58005 60006 85032 90000=
07070,1997-08-23 03:00:00,17,1018.8,-0.7,94,16,12000,0,,,0,,,,,,,,,,,wg-a,,,,AAXX 23034 07070 12/62 30000 10170 20160 30080 40188 58007 60006 82032 90300=
07070,1997-08-23 06:00:00,16,1018.6,-0.2,94,15,10000,3.704,,,70,15.6,24.6,,,,,,,,,wg-a,,,,AAXX 23064 07070 02/60 40702 10160 20150 30078 40186 58002 60006 83032 90600 333 10246 20156 61000=
07070,1997-08-23 09:00:00,27,1017.8,-0.4,51,16,8000,11.112,,,170,,,,,,,,,,,wg-a,,,,AAXX 23094 07070 12/58 /1706 10270 20160 30074 40178 56004 60006 81031 90900=
07070,1997-08-23 12:00:00,31,1016.2,-1.4,46,18,10000,11.112,,,180,,,,,,,,,,,wg-a,,,,AAXX 23124 07070 12760 41806 10310 20180 30060 40162 58014 60006 82130 91200=
07070,1997-08-23 15:00:00,32,1014.7,-1.5,43,18,12000,11.112,,,210,,,,,,,,,,,wg-a,,,,AAXX 23154 07070 12762 42106 10320 20180 30045 40147 58015 60006 82831 91500=
07070,1997-08-23 18:00:00,30,1013.7,-1.1,46,17,10000,11.112,,,180,16.4,31.9,,,,,,,,,wg-a,,,,AAXX 23184 07070 12/60 41806 10300 20170 30034 40137 56011 60006 84030 91800 333 10319 20164=
07070,1997-08-23 21:00:00,23,1013.8,-0.1,73,18,12000,11.112,,,170,,,,,,,,,,,wg-a,,,,AAXX 23214 07070 12/62 01706 10230 20180 30033 40138 58001 60006 80000 92100=
07070,1997-08-24 00:00:00,21,1014,0.1,83,18,12000,11.112,,,180,,,,,,,,,,,wg-a,,,,AAXX 24004 07070 12/62 11806 10210 20180 30034 40140 53001 60006 81080 90000=
07070,1997-08-24 03:00:00,20,1013.8,-0.2,83,17,12000,3.704,,,250,,,,,,,,,,,wg-a,,,,AAXX 24034 07070 12/62 02502 10200 20170 30032 40138 58002 60006 80000 90300=
07070,1997-08-24 06:00:00,19,1015,1.1,88,17,8000,0,,,0,18.2,29.5,,,,,,,,,wg-a,,,,AAXX 24064 07070 12/58 /0000 10190 20170 30043 40150 53011 60006 81080 90600 333 10295 20182=
07070,1997-08-24 09:00:00,27,1014.3,-0.3,62,19,15000,3.704,,,100,,,,,,,,,,,wg-a,,,,AAXX 24094 07070 12/65 01002 10270 20190 30040 40143 58003 60006 80000 90900=
07070,1997-08-24 12:00:00,33,1013.1,-1.1,44,19,15000,14.816,,,240,,,,,,,,,,,wg-a,,,,AAXX 24124 07070 12665 32408 10330 20190 30029 40131 58011 60006 83200 91200=
07070,1997-08-24 15:00:00,33,1011.6,-1.4,41,18,25000,11.112,,,200,,,,,,,,,,,wg-a,,,,AAXX 24154 07070 12675 /2006 10330 20180 30015 40116 57014 60006 85280 91500=
07070,1997-08-24 18:00:00,30,1010.4,-1.3,46,17,20000,7.408,,,200,18.7,33.6,,,,,,,,,wg-a,,,,AAXX 24184 07070 12670 32004 10300 20170 30002 40104 56013 60006 81282 91800 333 10336 20187=
07070,1997-08-24 21:00:00,23,1011.1,0.5,78,19,15000,7.408,,,280,,,,,,,,,,,wg-a,,,,AAXX 24214 07070 12/65 52804 10230 20190 30007 40111 51005 60006 85030 92100=
07070,1997-08-25 00:00:00,20,1010.7,-0.6,88,18,12000,0,,,0,,,,,,,,,,,wg-a,,,,AAXX 25004 07070 12/62 00000 10200 20180 30001 40107 57006 60006 80000 90000=
07070,1997-08-25 03:00:00,18,1009.4,-1.3,94,17,10000,3.704,,,340,,,,,,,,,,,wg-a,,,,AAXX 25034 07070 12/60 23402 10180 20170 39988 40094 56013 60006 80001 90300=
07070,1997-08-25 06:00:00,20,1008.7,-0.6,88,18,10000,11.112,,,180,17.2,30.1,,,,,,,,,wg-a,,,,AAXX 25064 07070 12/60 11806 10200 20180 39982 40087 56006 60006 81031 90600 333 10301 20172=
07070,1997-08-25 09:00:00,27,1007.8,-0.7,58,18,12000,18.52,,,180,,,,,,,,,,,wg-a,,,,AAXX 25094 07070 12662 /1810 10270 20180 39975 40078 57007 60006 81180 90900=
07070,1997-08-25 12:00:00,30,1007,-0.7,49,18,15000,18.52,,,210,,,,,,,,,,,wg-a,,,,AAXX 25124 07070 12765 42110 10300 20180 39968 40070 58007 60006 81280 91200=
07070,1997-08-25 15:00:00,32,1006.2,-0.7,32,13,20000,22.224,,,220,,,,,,,,,,,wg-a,,,,AAXX 25154 07070 12770 32212 10320 20130 39961 40062 58007 60006 81201 91500=
07070,1997-08-25 18:00:00,24,1008,1.5,74,19,10000,29.632,,,310,20.3,32.3,,,,,,,,,wg-a,,,,AAXX 25184 07070 12/60 73116 10240 20190 39976 40080 53015 60006 80001 91800 333 10323 20203=
07070,1997-08-25 21:00:00,20,1010.4,2.3,88,18,10000,18.52,,,310,,,,,,,,,,,wg-a,,,,AAXX 25214 07070 12560 /3110 10200 20180 39999 40104 51023 60006 86600 92100=
07070,1997-08-26 00:00:00,19,1011.2,0.7,88,17,10000,18.52,,,320,,,,,,,,,,,wg-a,,,,AAXX 26004 07070 12460 /3210 10190 20170 30006 40112 53007 60006 83602 90000=
07070,1997-08-26 03:00:00,17,1011.5,0.2,94,16,500,11.112,,,300,,,,3,,,,,,61,wg-a,,,,AAXX 26034 07070 12400 73006 10170 20160 30008 40115 50002 60037 76166 878// 90300=
07070,1997-08-26 06:00:00,17,1012,0.5,94,16,4000,7.408,,,300,16.7,24.2,,,,,,,,10,wg-a,,,,AAXX 26064 07070 02440 83004 10170 20160 30013 40120 51005 61000 71062 8577/ 90600 333 10242 20167 6004=
07070,1997-08-26 09:00:00,18,1012.5,0.6,88,16,7000,7.408,,,320,,,,,,,,,,,wg-a,,,,AAXX 26094 07070 02457 73204 10180 20160 30019 40125 53006 61000 8523/ 90900 333 ////=
07070,1997-08-26 12:00:00,20,1012,-0.5,78,16,10000,3.704,,,330,,,,,,,,,,1,wg-a,,,,AAXX 26124 07070 02560 73302 10200 20160 30014 40120 58005 61000 70162 85232 91200 333 ////=
07070,1997-08-26 15:00:00,24,1010.5,-1.3,54,14,12000,7.408,,,350,,,,,,,,,,,wg-a,,,,AAXX 26154 07070 12662 /3504 10240 20140 30001 40105 56013 60006 83232 91500=
07070,1997-08-26 18:00:00,21,1010.2,-0.4,73,16,16000,7.408,,,170,16.7,24,,,,,,,,,wg-a,,,,AAXX 26184 07070 12666 51704 10210 20160 39997 40102 56004 60006 82202 91800 333 10240 20167=
07070,1997-08-26 21:00:00,18,1010.2,-0.2,88,16,12000,11.112,,,180,,,,,,,,,,,wg-a,,,,AAXX 26214 07070 12/62 71806 10180 20160 39995 40102 55002 60006 85082 92100=
07070,1997-08-27 00:00:00,17,1009,-1.2,94,16,7000,7.408,,,190,,,,,,,,,,,wg-a,,,,AAXX 27004 07070 12/57 71904 10170 20160 39983 40090 56012 60006 85081 90000=
07070,1997-08-27 06:00:00,17,1006.3,-1.1,100,17,3500,7.408,,,170,13.7,20.6,,,,,,,,10,wg-a,,,,AAXX 27064 07070 02835 71704 10170 20170 39957 40063 56011 60006 71041 8707/ 90600 333 10206 20137 61000=
07070,1997-08-27 09:00:00,21,1005.5,-0.7,88,19,12000,18.52,,,170,,,,,,,,,,,wg-a,,,,AAXX 27094 07070 12662 71710 10210 20190 39950 40055 56007 60006 85282 90900=
07070,1997-08-27 12:00:00,23,1004,-1.4,78,19,15000,14.816,,,190,,,,0,,,,,,60,wg-a,,,,AAXX 27124 07070 02565 81908 10230 20190 39936 40040 56014 60006 76062 8327/ 91200 333 60007=
07070,1997-08-27 15:00:00,24,1002.6,-1.3,74,19,20000,22.224,,,190,,,,2,,,,,,,wg-a,,,,AAXX 27154 07070 12670 81912 10240 20190 39923 40026 58013 60027 83272 91500=
07070,1997-08-27 18:00:00,23,1002.5,-0.2,69,17,25000,18.52,,,220,16.8,24.5,,,,,,,,1,wg-a,,,,AAXX 27184 07070 12675 72210 10230 20170 39921 40025 55002 60006 70186 84872 91800 333 10245 20168=
07070,1997-08-27 21:00:00,17,1004.4,1.7,94,16,10000,7.408,,,200,,,,6,,,,,,61,wg-a,,,,AAXX 27214 07070 12760 82004 10170 20160 39938 40044 51017 60067 76186 8457/ 92100=
07070,1997-08-28 00:00:00,17,1003.1,-1.3,94,16,10000,14.816,,,170,,,,6,,,,,,61,wg-a,,,,AAXX 28004 07070 02760 81708 10170 20160 39925 40031 56013 60126 76186 8157/ 90000 333 60067=
07070,1997-08-28 06:00:00,15,1000.6,-1,100,15,2500,14.816,,,170,15,22.7,,,,,,,,10,wg-a,,,,AAXX 28064 07070 02325 81708 10150 20150 39899 40006 56010 61000 71062 8452/ 90600 333 10227 20150 6026=
07070,1997-08-28 09:00:00,15,1002.7,2.1,88,13,25000,14.816,,,240,,,,5,,,,,,21,wg-a,,,,AAXX 28094 07070 12475 82408 10150 20130 39920 40027 53021 60057 72162 8487/ 90900=
07070,1997-08-28 12:00:00,20,1002.4,-0.1,73,15,25000,29.632,,,220,,,,0,,,,,,1,wg-a,,,,AAXX 28124 07070 02575 52216 10200 20150 39919 40024 58001 60056 70162 84232 91200 333 60007=
07070,1997-08-28 18:00:00,17,1004.4,1.3,77,13,25000,14.816,,,220,14.2,21.6,,0,,,,,,1,wg-a,,,,AAXX 28184 07070 02675 32208 10170 20130 39938 40044 53013 60006 70181 83900 91800 333 10216 20142 60007=
07070,1997-08-28 21:00:00,16,1007,2.5,82,13,20000,14.816,,,200,,,,,,,,,,,wg-a,,,,AAXX 28214 07070 12770 52008 10160 20130 39963 40070 53025 60006 825/2 92100=
07070,1997-08-29 00:00:00,15,1008.6,1.5,82,12,15000,18.52,,,240,,,,,,,,,,,wg-a,,,,AAXX 29004 07070 12/65 02410 10150 20120 39978 40086 51015 60006 80000 90000=
07070,1997-08-29 03:00:00,15,1010.2,1.6,82,12,10000,22.224,,,240,,,,,,,,,,,wg-a,,,,AAXX 29034 07070 12860 72412 10150 20120 39994 40102 51016 60006 8707/ 90300=
07070,1997-08-29 06:00:00,14,1012.4,2.2,82,11,20000,22.224,,,240,13.2,16.7,,,,,6,,,,wg-a,,,,AAXX 29064 07070 02770 32412 10140 20110 30016 40124 51022 60006 81579 90600 333 10167 20132 60064=
07070,1997-08-29 12:00:00,19,1014.5,0.8,56,10,25000,25.928,,,260,,,,,,,,,,,wg-a,,,,AAXX 29124 07070 12675 /2614 10190 20100 30038 40145 52008 60006 86800 91200=
07070,1997-08-29 15:00:00,21,1015.3,0.9,46,9,20000,25.928,,,250,,,,,,,,,,,wg-a,,,,AAXX 29154 07070 12670 72514 10210 20090 30047 40153 53009 60006 84801 91500=
07070,1997-08-29 18:00:00,19,1015.9,0.5,56,10,500,14.816,,,260,13.5,20.9,,,,,,,,,wg-a,,,,AAXX 29184 07070 12700 62608 10190 20100 30052 40159 53005 60006 85801 91800 333 10209 20135=
07070,1997-08-30 00:00:00,15,1016.4,-0.4,88,13,15000,7.408,,,200,,,,,,,,,,,wg-a,,,,AAXX 30004 07070 12/65 82004 10150 20130 30056 40164 58004 60006 8807/ 90000=
07070,1997-08-30 03:00:00,15,1015.3,-1.1,94,14,10000,11.112,,,190,,,,1,,,,,,61,wg-a,,,,AAXX 30034 07070 12760 81906 10150 20140 30045 40153 58011 60017 76162 8257/ 90300=
07070,1997-08-30 06:00:00,15,1013.5,-1.8,94,14,6000,22.224,,,180,12.5,19.2,,,,,,,,51,wg-a,,,,AAXX 30064 07070 02256 81812 10150 20140 30027 40135 56018 61000 75165 877// 90600 333 10192 20125 6003=
07070,1997-08-30 09:00:00,16,1012.9,-0.5,94,15,4000,18.52,,,190,,,,1,,,,,,10,wg-a,,,,AAXX 30094 07070 12340 81910 10160 20150 30022 40129 56005 60017 71065 877// 90900=
07070,1997-08-30 12:00:00,22,1012.8,0.1,83,19,20000,31.484,,,240,,,,0,,,,,,20,wg-a,,,,AAXX 30124 07070 02470 72417 10220 20190 30023 40128 53001 60016 72065 86702 91200 333 60007=
07070,1997-08-30 15:00:00,24,1014,1.2,74,19,25000,29.632,,,260,,,,,,,,,,,wg-a,,,,AAXX 30154 07070 12575 62616 10240 20190 30035 40140 52012 60006 85802 91500=
07070,1997-08-30 18:00:00,23,1015.2,1.2,73,18,25000,18.52,,,270,15,24.4,,,,,,,,,wg-a,,,,AAXX 30184 07070 12575 42710 10230 20180 30047 40152 53012 60006 84801 91800 333 10244 20150=
07070,1997-08-30 21:00:00,19,1017.3,1.9,83,16,20000,3.704,,,270,,,,,,,,,,,wg-a,,,,AAXX 30214 07070 12670 22702 10190 20160 30066 40173 51019 60006 82400 92100=
07070,1997-08-31 00:00:00,18,1017.9,0.6,88,16,15000,3.704,,,350,,,,,,,,,,,wg-a,,,,AAXX 31004 07070 12565 73502 10180 20160 30072 40179 51006 60006 875// 90000=
07070,1997-08-31 03:00:00,16,1017.9,-0.1,94,15,12000,0,,,0,,,,,,,,,,,wg-a,,,,AAXX 31034 07070 12662 70000 10160 20150 30071 40179 58001 60006 875// 90300=
07070,1997-08-31 06:00:00,17,1017.3,-0.5,100,17,700,14.816,,,170,14.8,23,,,,,1,,,44,wg-a,,,,AAXX 31064 07070 02007 71708 10170 20170 30066 40173 56005 60006 74441 86601 90600 333 10230 20148 60014=
07070,1997-08-31 09:00:00,22,1016.6,-0.6,83,19,25000,22.224,,,160,,,,,,,,,,14,wg-a,,,,AAXX 31094 07070 12475 71612 10220 20190 30060 40166 58006 60006 71442 8118/ 90900=
07070,1997-08-31 12:00:00,26,1014.4,-2,61,18,35000,31.484,,,160,,,,,,,,,,14,wg-a,,,,AAXX 31124 07070 12681 /1617 10260 20180 30040 40144 57020 60006 71442 81282 91200=
07070,1997-08-31 15:00:00,28,1012.7,-1.6,55,18,35000,25.928,,,180,,,,,,,,,,,wg-a,,,,AAXX 31154 07070 12/81 61814 10280 20180 30024 40127 56016 60006 81081 91500=
07070,1997-08-31 18:00:00,26,1012.5,-0.3,70,20,35000,11.112,,,160,17.2,28.3,,,,,,,,,wg-a,,,,AAXX 31184 07070 12681 71606 10260 20200 30021 40125 56003 60006 81202 91800 333 10283 20172=
07070,1997-08-31 21:00:00,20,1013.7,1,88,18,500,11.112,,,180,,,,,,,,,,,wg-a,,,,AAXX 31214 07070 12/00 41806 10200 20180 30031 40137 53010 60006 80002 92100=
07070,1997-09-01 00:00:00,20,1015.4,1.7,83,17,500,7.408,,,280,,,,,,,,,,,wg-a,,,,AAXX 01004 07070 12/00 12804 10200 20170 30048 40154 53017 60006 80002 90000=
07070,1997-09-01 03:00:00,17,1016.5,1,88,15,500,11.112,,,260,,,,,,,,,,,wg-a,,,,AAXX 01034 07070 12/00 02606 10170 20150 30058 40165 51010 60006 80000 90300=
07070,1997-09-01 06:00:00,15,1017.9,1.3,94,14,25000,3.704,,,210,14.3,25.6,,,,,,,,,wg-a,,,,AAXX 01064 07070 12/75 12102 10150 20140 30071 40179 53013 60006 81081 90600 333 10256 20143=
07070,1997-09-01 09:00:00,20,1018.4,0.6,73,15,25000,11.112,,,290,,,,,,,,,,,wg-a,,,,AAXX 01094 07070 12575 32906 10200 20150 30077 40184 50006 60006 81182 90900=
07070,1997-09-01 12:00:00,20,1018.4,0,78,16,10000,7.408,,,350,,,,0,,,,,,61,wg-a,,,,AAXX 01124 07070 02560 73504 10200 20160 30077 40184 50000 60016 76162 8387/ 91200 333 60007=
07070,1997-09-01 15:00:00,18,1017.4,-1,88,16,8000,11.112,,,350,,,,5,,,,,,17,wg-a,,,,AAXX 01154 07070 12458 73506 10180 20160 30067 40174 58010 60057 71798 8597/ 91500=
07070,1997-09-01 18:00:00,17,1018.3,0.8,94,16,4000,7.408,,,300,14.8,21.1,,,,,,,,63,wg-a,,,,AAXX 01184 07070 02440 83004 10170 20160 30075 40183 53008 61000 76366 8597/ 91800 333 10211 20148 6008=
07070,1997-09-01 21:00:00,16,1018.7,0.4,94,15,6000,14.816,,,330,,,,2,,,,,,21,wg-a,,,,AAXX 01214 07070 12456 83308 10160 20150 30079 40187 51004 60027 72162 885// 92100=
07070,1997-09-02 00:00:00,15,1019.4,0.7,94,14,6000,11.112,,,330,,,,,,,,,,2,wg-a,,,,AAXX 02004 07070 12556 83306 10150 20140 30086 40194 51007 60026 70262 885// 90000=
07070,1997-09-02 03:00:00,15,1019.4,-0.1,94,14,8000,3.704,,,300,,,,,,,,,,,wg-a,,,,AAXX 02034 07070 12558 83002 10150 20140 30085 40194 55001 60006 885// 90300=
07070,1997-09-02 06:00:00,14,1020.4,1,100,14,7000,11.112,,,310,14.3,16.5,,,,,15,,,,wg-a,,,,AAXX 02064 07070 02657 73106 10140 20140 30095 40204 53010 60006 8553/ 90600 333 10165 20143 60154=
07070,1997-09-02 09:00:00,17,1021.1,0.8,82,14,12000,18.52,,,360,,,,,,,,,,,wg-a,,,,AAXX 02094 07070 12462 53610 10170 20140 30103 40211 51008 60006 83239 90900=
07070,1997-09-02 12:00:00,19,1021.7,0.7,64,12,15000,11.112,,,320,,,,,,,,,,,wg-a,,,,AAXX 02124 07070 12665 73206 10190 20120 30110 40217 51007 60006 8127/ 91200=
07070,1997-09-02 18:00:00,19,1021.3,0.1,64,12,20000,0,,,0,14.3,20.5,,,,,,,,,wg-a,,,,AAXX 02184 07070 12670 30000 10190 20120 30106 40213 53001 60006 81471 91800 333 10205 20143=
07070,1997-09-02 21:00:00,14,1022.6,1.1,88,12,15000,3.704,,,230,,,,,,,,,,,wg-a,,,,AAXX 02214 07070 12/65 02302 10140 20120 30117 40226 51011 60006 80000 92100=
07070,1997-09-03 00:00:00,12,1022.7,0,94,11,12000,3.704,,,270,,,,,,,,,,,wg-a,,,,AAXX 03004 07070 12/62 02702 10120 20110 30117 40227 50000 60006 80000 90000=
07070,1997-09-03 03:00:00,10,1022.3,-0.5,93,9,8000,0,,,0,,,,,,,,,,,wg-a,,,,AAXX 03034 07070 12/58 00000 10100 20090 30112 40223 57005 60006 80000 90300=
07070,1997-09-03 06:00:00,10,1022.3,-0,93,9,3500,0,,,0,9.1,18.8,,,,,,,,11,wg-a,,,,AAXX 03064 07070 02/35 20000 10100 20090 30112 40223 55000 60006 71100 81031 90600 333 10188 20091 60004=
07070,1997-09-03 09:00:00,18,1022.1,0.1,77,14,8000,0,,,0,,,,,,,,,,,wg-a,,,,AAXX 03094 07070 12/58 20000 10180 20140 30113 40221 51001 60006 80001 90900=
07070,1997-09-03 12:00:00,22,1020.7,-1.2,53,12,10000,3.704,,,220,,,,,,,,,,,wg-a,,,,AAXX 03124 07070 12660 32202 10220 20120 30101 40207 57012 60006 81101 91200=
07070,1997-09-03 18:00:00,19,1019.8,-0.1,78,15,15000,7.408,,,200,9.7,22.9,,,,,,,,,wg-a,,,,AAXX 03184 07070 12765 72004 10190 20150 30091 40198 55001 60006 815/2 91800 333 10229 20097=
07070,1997-09-03 21:00:00,16,1020.3,0.4,88,14,12000,11.112,,,170,,,,,,,,,,,wg-a,,,,AAXX 03214 07070 12/62 71706 10160 20140 30095 40203 50004 60006 80002 92100=
07070,1997-09-04 00:00:00,15,1020,-0.4,94,14,10000,7.408,,,190,,,,,,,,,,,wg-a,,,,AAXX 04004 07070 12/60 71904 10150 20140 30091 40200 56004 60006 81081 90000=
07070,1997-09-04 03:00:00,14,1019.6,-0.4,94,13,12000,11.112,,,200,,,,,,,,,,,wg-a,,,,AAXX 04034 07070 12/62 52006 10140 20130 30087 40196 58004 60006 81082 90300=
07070,1997-09-04 06:00:00,15,1019.9,0.3,94,14,4500,7.408,,,200,14,19.2,,,,,,,,10,wg-a,,,,AAXX 04064 07070 12745 72004 10150 20140 30090 40199 53003 60006 71022 8253/ 90600 333 10192 20140=
07070,1997-09-04 09:00:00,20,1020,0.3,73,15,8000,11.112,,,190,,,,,,,,,,,wg-a,,,,AAXX 04094 07070 12758 71906 10200 20150 30093 40200 53003 60006 8357/ 90900=
07070,1997-09-04 12:00:00,23,1019.5,-0.4,57,14,15000,14.816,,,210,,,,,,,,,,1,wg-a,,,,AAXX 04124 07070 02865 72108 10230 20140 30089 40195 58004 61000 70162 8553/ 91200 333 6100=
07070,1997-09-04 15:00:00,24,1018.6,-0.8,57,15,11000,11.112,,,200,,,,,,,,,,,wg-a,,,,AAXX 04154 07070 12/61 /2006 10240 20150 30081 40186 56008 60006 91500=
07070,1997-09-04 18:00:00,22,1018.7,-0,73,17,15000,3.704,,,210,15.1,24.9,,,,,,,,21,wg-a,,,,AAXX 04184 07070 02865 52102 10220 20170 30081 40187 55000 61000 72162 83531 91800 333 10249 20151 6100=
07070,1997-09-04 21:00:00,18,1019.5,0.7,83,15,15000,7.408,,,290,,,,,,,,,,,wg-a,,,,AAXX 04214 07070 12865 52904 10180 20150 30088 40195 51007 60006 82580 92100=
07070,1997-09-05 00:00:00,16,1020,0.4,88,14,10000,3.704,,,290,,,,,,,,,,,wg-a,,,,AAXX 05004 07070 12860 72902 10160 20140 30092 40200 51004 60006 8358/ 90000=
07070,1997-09-05 03:00:00,16,1020.4,,100,16,10000,11.112,,,320,,,,,,,,,,0,wg-a,,,,AAXX 05034 07070 32/60 73206 10160 20160 30095 40204 70032 8707/ 90300=
07070,1997-09-05 06:00:00,15,1020,0.4,94,14,10000,7.408,,,290,15,21.7,,,,,,,,,wg-a,,,,AAXX 05064 07070 02460 72904 10150 20140 30091 40200 53004 60006 876// 90600 333 10217 20150 61000=
07070,1997-09-05 12:00:00,21,1019.6,-0.4,73,16,16000,11.112,,,340,,,,,,,,,,,wg-a,,,,AAXX 05124 07070 12566 73406 10210 20160 30090 40196 58004 60006 83802 91200=
07070,1997-09-05 15:00:00,21,1019.3,-0.3,64,14,25000,18.52,,,330,,,,,,,,,,,wg-a,,,,AAXX 05154 07070 12575 73310 10210 20140 30087 40193 57003 60006 8383/ 91500=
07070,1997-09-05 18:00:00,18,1019.6,0.2,77,14,25000,11.112,,,330,15.4,21.3,,,,,,,,,wg-a,,,,AAXX 05184 07070 12575 73306 10180 20140 30089 40196 53002 60006 8143/ 91800 333 10213 20154=
07070,1997-09-05 21:00:00,17,1020.8,1.1,72,12,20000,11.112,,,310,,,,,,,,,,,wg-a,,,,AAXX 05214 07070 12670 73106 10170 20120 30100 40208 51011 60006 8253/ 92100=
07070,1997-09-06 00:00:00,15,1022,1.1,82,12,15000,11.112,,,330,,,,,,,,,,,wg-a,,,,AAXX 06004 07070 12/65 73306 10150 20120 30111 40220 51011 60006 86032 90000=
07070,1997-09-06 03:00:00,13,1022.5,0.4,88,11,12000,3.704,,,300,,,,,,,,,,,wg-a,,,,AAXX 06034 07070 12/62 73002 10130 20110 30115 40225 53004 60006 86032 90300=
07070,1997-09-06 06:00:00,11,1023.9,1.3,94,10,7000,7.408,,,210,10.6,18.4,,,,,,,,,wg-a,,,,AAXX 06064 07070 12457 42104 10110 20100 30128 40239 53013 60006 81832 90600 333 10184 20106=
07070,1997-09-06 09:00:00,17,1024.7,1.1,82,14,20000,7.408,,,330,,,,,,,,,,,wg-a,,,,AAXX 06094 07070 12470 53304 10170 20140 30139 40247 53011 60006 85200 90900=
07070,1997-09-06 12:00:00,20,1024.4,-0.2,60,12,25000,11.112,,,300,,,,,,,,,,,wg-a,,,,AAXX 06124 07070 12675 /3006 10200 20120 30137 40244 58002 60006 85200 91200=
07070,1997-09-06 15:00:00,21,1024,-0.4,49,10,25000,11.112,,,290,,,,,,,,,,,wg-a,,,,AAXX 06154 07070 12775 52906 10210 20100 30133 40240 56004 60006 84202 91500=
07070,1997-09-06 18:00:00,19,1024,-0.1,60,11,25000,7.408,,,280,10.6,21,,,,,,,,,wg-a,,,,AAXX 06184 07070 12775 32804 10190 20110 30132 40240 57001 60006 81831 91800 333 10210 20106=
07070,1997-09-06 21:00:00,13,1025.1,0.9,82,10,25000,0,,,0,,,,,,,,,,,wg-a,,,,AAXX 06214 07070 12/75 00000 10130 20100 30141 40251 51009 60006 80000 92100=
07070,1997-09-07 00:00:00,11,1025.5,0.3,87,9,20000,7.408,,,220,,,,,,,,,,,wg-a,,,,AAXX 07004 07070 12/70 02204 10110 20090 30144 40255 51003 60006 80000 90000=
07070,1997-09-07 06:00:00,12,1025.8,0.5,88,10,20000,7.408,,,250,9.9,18.7,,,,,,,,,wg-a,,,,AAXX 07064 07070 12570 72504 10120 20100 30147 40258 53005 60006 8727/ 90600 333 10187 20099=
07070,1997-09-07 09:00:00,15,1026.6,1,82,12,15000,14.816,,,260,,,,,,,,,,21,wg-a,,,,AAXX 07094 07070 02465 72608 10150 20120 30157 40266 51010 61000 72162 8112/ 90900 333 ////=
07070,1997-09-07 12:00:00,19,1026.6,0.1,64,12,25000,14.816,,,300,,,,,,,,,,3,wg-a,,,,AAXX 07124 07070 02575 73008 10190 20120 30158 40266 50001 61000 70362 872// 91200 333 ////=
07070,1997-09-07 18:00:00,16,1027.2,0.2,88,14,15000,7.408,,,250,11.7,19.3,,,,,,,,1,wg-a,,,,AAXX 07184 07070 12765 32504 10160 20140 30163 40272 50002 60006 70161 82531 91800 333 10193 20117=
07070,1997-09-07 21:00:00,13,1028.5,1.2,100,13,10000,0,,,0,,,,,,,,,,,wg-a,,,,AAXX 07214 07070 12760 10000 10130 20130 30175 40285 51012 60006 81500 92100=
07070,1997-09-08 00:00:00,11,1028.8,0.2,100,11,10000,3.704,,,210,,,,,,,,,,,wg-a,,,,AAXX 08004 07070 12/60 02102 10110 20110 30177 40288 51002 60006 80000 90000=
07070,1997-09-08 03:00:00,10,1028.8,-0.1,100,10,600,0,,,0,,,,,,,,,,45,wg-a,,,,AAXX 08034 07070 32/06 90000 10100 20100 30176 40288 55001 74544 89/// 90300=
07070,1997-09-08 06:00:00,11,1028.2,-0.5,100,11,100,0,,,0,9.5,16.3,,,,,,,,45,wg-a,,,,AAXX 08064 07070 02/01 90000 10110 20110 30171 40282 55005 60006 74544 89/// 90600 333 10163 20095 60004=
07070,1997-09-08 09:00:00,14,1028.5,0.4,100,14,500,3.704,,,90,,,,,,,,,,28,wg-a,,,,AAXX 08094 07070 12200 40902 10140 20140 30175 40285 53004 60006 72841 84100 90900=
07070,1997-09-08 12:00:00,20,1027.1,-1.1,64,13,25000,7.408,,,280,,,,,,,,,,1,wg-a,,,,AAXX 08124 07070 12575 32804 10200 20130 30164 40271 58011 60006 70141 83200 91200=
07070,1997-09-08 15:00:00,23,1025.1,-1.9,53,13,25000,11.112,,,250,,,,,,,,,,,wg-a,,,,AAXX 08154 07070 12/75 02506 10230 20130 30145 40251 58019 60006 80000 91500=
07070,1997-09-08 18:00:00,20,1024.5,-0.7,68,14,25000,11.112,,,330,11.2,22.9,,,,,,,,,wg-a,,,,AAXX 08184 07070 12775 13306 10200 20140 30138 40245 56007 60006 81500 91800 333 10229 20112=
07070,1997-09-08 21:00:00,15,1025.1,0.4,88,13,12000,11.112,,,320,,,,,,,,,,,wg-a,,,,AAXX 08214 07070 12/62 03206 10150 20130 30142 40251 53004 60006 80000 92100=
07070,1997-09-09 03:00:00,12,1024.1,-1.1,94,11,10000,7.408,,,310,,,,,,,,,,,wg-a,,,,AAXX 09034 07070 12260 /3104 10120 20110 30131 40241 56011 60006 85600 90300=
07070,1997-09-09 06:00:00,12,1024.1,-0,100,12,1000,3.704,,,300,10.9,19.7,,,,,,,,10,wg-a,,,,AAXX 09064 07070 02010 83002 10120 20120 30131 40241 55000 61000 71052 886// 90600 333 10197 20109 ////=
07070,1997-09-09 09:00:00,14,1024.3,0.3,94,13,3500,7.408,,,280,,,,,,,,,,10,wg-a,,,,AAXX 09094 07070 02235 82804 10140 20130 30134 40243 51003 61000 71052 886// 90900 333 ////=
07070,1997-09-09 12:00:00,17,1024,-0.2,77,13,9000,14.816,,,310,,,,,,,,,,1,wg-a,,,,AAXX 09124 07070 02459 73108 10170 20130 30132 40240 57002 61000 70152 878// 91200 333 ////=
07070,1997-09-09 15:00:00,20,1023,-0.9,56,11,12000,14.816,,,330,,,,,,,,,,,wg-a,,,,AAXX 09154 07070 12562 23308 10200 20110 30123 40230 56009 60006 82800 91500=
07070,1997-09-09 18:00:00,16,1023.3,0.1,72,11,12000,14.816,,,10,12.4,20,,,,,,,,,wg-a,,,,AAXX 09184 07070 12662 /0108 10160 20110 30124 40233 53001 60006 81400 91800 333 10200 20124=
07070,1997-09-09 21:00:00,12,1025.4,2,88,10,10000,14.816,,,10,,,,,,,,,,,wg-a,,,,AAXX 09214 07070 12/60 00108 10120 20100 30144 40254 52020 60006 80000 92100=
07070,1997-09-10 00:00:00,8,1026.1,0.5,93,7,10000,3.704,,,10,,,,,,,,,,,wg-a,,,,AAXX 10004 07070 12/60 00102 10080 20070 30149 40261 53005 60006 80000 90000=
07070,1997-09-10 03:00:00,6,1025.9,-0.3,100,6,500,0,,,0,,,,,,,,,,,wg-a,,,,AAXX 10034 07070 12/00 00000 10060 20060 30146 40259 58003 60006 80000 90300=
07070,1997-09-10 06:00:00,6,1026.3,0.4,100,6,4000,0,,,0,5.1,16.4,,,,,,,,10,wg-a,,,,AAXX 10064 07070 02540 /0000 10060 20060 30150 40263 53004 60006 71040 81500 90600 333 10164 20051 61000=
07070,1997-09-10 09:00:00,14,1026.1,0.1,82,11,6000,11.112,,,50,,,,0,,,,,,,wg-a,,,,AAXX 10094 07070 12456 /0506 10140 20110 30151 40261 52001 60007 81100 90900=
07070,1997-09-10 12:00:00,17,1024.8,-1.2,59,9,12000,11.112,,,40,,,,,,,,,,,wg-a,,,,AAXX 10124 07070 12662 20406 10170 20090 30139 40248 57012 60006 82101 91200=
07070,1997-09-10 18:00:00,15,1021.6,-0.8,72,10,20000,11.112,,,60,6.2,18.9,,,,,,,,,wg-a,,,,AAXX 10184 07070 12/70 60606 10150 20100 30107 40216 56008 60006 80001 91800 333 10189 20062=
07070,1997-09-11 00:00:00,9,1020,-1.7,87,7,15000,14.816,,,100,,,,,,,,,,,wg-a,,,,AAXX 11004 07070 12/65 21008 10090 20070 30089 40200 58017 60006 80001 90000=
07070,1997-09-11 03:00:00,6,1019.1,-1,93,5,10000,11.112,,,60,,,,,,,,,,,wg-a,,,,AAXX 11034 07070 12/60 20606 10060 20050 30079 40191 56010 60006 80001 90300=
07070,1997-09-11 06:00:00,8,1017.1,-1.9,87,6,12000,11.112,,,40,5.2,15.3,,,,,,,,,wg-a,,,,AAXX 11064 07070 02/62 10406 10080 20060 30060 40171 55019 60006 80001 90600 333 10153 20052 60004=
07070,1997-09-11 09:00:00,16,1015.2,-1.6,68,10,20000,14.816,,,170,,,,,,,,,,,wg-a,,,,AAXX 11094 07070 12/70 61708 10160 20100 30044 40152 56016 60006 80001 90900=
07070,1997-09-11 12:00:00,21,1012.5,-2.5,53,11,25000,18.52,,,150,,,,,,,,,,,wg-a,,,,AAXX 11124 07070 12/75 31510 10210 20110 30019 40125 56025 60006 80002 91200=
07070,1997-09-11 15:00:00,24,1010.6,-1.8,47,12,20000,14.816,,,200,,,,,,,,,,,wg-a,,,,AAXX 11154 07070 12/70 32008 10240 20120 30001 40106 56018 60006 80002 91500=
07070,1997-09-11 18:00:00,19,1009.4,-1.3,64,12,15000,14.816,,,170,7.7,23.8,,,,,,,,,wg-a,,,,AAXX 11184 07070 12/65 51708 10190 20120 39988 40094 56013 60006 82032 91800 333 10238 20077=
07070,1997-09-11 21:00:00,18,1009.1,-0.3,68,12,15000,14.816,,,200,,,,,,,,,,,wg-a,,,,AAXX 11214 07070 12/65 32008 10180 20120 39985 40091 58003 60006 83030 92100=
07070,1997-09-12 00:00:00,15,1008.7,-0.5,82,12,15000,11.112,,,190,,,,,,,,,,,wg-a,,,,AAXX 12004 07070 12/65 01906 10150 20120 39980 40087 55005 60006 80000 90000=
07070,1997-09-12 03:00:00,17,1008.7,-0,77,13,15000,14.816,,,240,,,,,,,,,,,wg-a,,,,AAXX 12034 07070 12/65 72408 10170 20130 39980 40087 55000 60006 8707/ 90300=
07070,1997-09-12 06:00:00,16,1010.1,1.4,88,14,6000,14.816,,,250,14.1,19.3,,,,,,,,,wg-a,,,,AAXX 12064 07070 12856 72508 10160 20140 39994 40101 51014 60006 8708/ 90600 333 10193 20141=
07070,1997-09-12 09:00:00,18,1011.1,1.1,83,15,7000,14.816,,,270,,,,,,,,,,,wg-a,,,,AAXX 12094 07070 12457 72708 10180 20150 30005 40111 51011 60006 8387/ 90900=
07070,1997-09-12 12:00:00,19,1010.3,-0.8,83,16,8000,14.816,,,200,,,,,,,,,,,wg-a,,,,AAXX 12124 07070 12558 72008 10190 20160 39997 40103 56008 60006 8427/ 91200=
07070,1997-09-12 15:00:00,18,1009.5,-0.8,88,16,4000,14.816,,,230,,,,0,,,,,,10,wg-a,,,,AAXX 12154 07070 12540 82308 10180 20160 39989 40095 55008 60007 71062 8387/ 91500=
07070,1997-09-12 18:00:00,17,1008.5,-1.1,88,15,7000,18.52,,,230,15.9,19.7,,1,,,,,,1,wg-a,,,,AAXX 12184 07070 02457 32310 10170 20150 39978 40085 56011 60006 70161 81732 91800 333 10197 20159 60017=
07070,1997-09-12 21:00:00,15,1009.1,0.6,94,14,6000,14.816,,,230,,,,,,,,,,,wg-a,,,,AAXX 12214 07070 12756 72308 10150 20140 39984 40091 51006 60006 875// 92100=
07070,1997-09-13 00:00:00,15,1010.4,1.2,88,13,10000,18.52,,,270,,,,0,,,,,,1,wg-a,,,,AAXX 13004 07070 02460 82710 10150 20130 39996 40104 51012 60016 70161 885// 90000 333 60007=
07070,1997-09-13 03:00:00,13,1011.3,0.8,88,11,15000,18.52,,,280,,,,0,,,,,,1,wg-a,,,,AAXX 13034 07070 12765 62810 10130 20110 30004 40113 53008 60007 70162 86500 90300=
07070,1997-09-13 06:00:00,11,1013,1.6,94,10,16000,18.52,,,260,10.9,16.4,,,,,2,,,3,wg-a,,,,AAXX 13064 07070 02666 /2610 10110 20100 30020 40130 53016 60006 70361 81500 90600 333 10164 20109 60024=
07070,1997-09-13 09:00:00,15,1015.3,2.5,67,9,25000,25.928,,,280,,,,,,,,,,,wg-a,,,,AAXX 13094 07070 12575 42814 10150 20090 30045 40153 53025 60006 82230 90900=
07070,1997-09-13 12:00:00,16,1017.2,1.9,51,6,25000,29.632,,,290,,,,,,,,,,,wg-a,,,,AAXX 13124 07070 12675 32916 10160 20060 30064 40172 51019 60006 82230 91200=
07070,1997-09-13 15:00:00,16,1018.9,1.7,51,6,500,25.928,,,300,,,,,,,,,,,wg-a,,,,AAXX 13154 07070 12600 33014 10160 20060 30081 40189 51017 60006 8/800 91500=
07070,1997-09-13 18:00:00,14,1020.5,1.5,63,7,25000,11.112,,,280,11,17.3,,,,,,,,,wg-a,,,,AAXX 13184 07070 12775 12806 10140 20070 30096 40205 53015 60006 81200 91800 333 10173 20110=
07070,1997-09-14 00:00:00,6,1023.9,0.5,93,5,15000,7.408,,,210,,,,,,,,,,,wg-a,,,,AAXX 14004 07070 12/65 02104 10060 20050 30126 40239 50005 60006 80000 90000=
07070,1997-09-14 03:00:00,6,1024.3,0.4,93,5,15000,7.408,,,210,,,,,,,,,,,wg-a,,,,AAXX 14034 07070 12765 52104 10060 20050 30130 40243 53004 60006 85500 90300=
07070,1997-09-14 06:00:00,6,1025.6,1.3,93,5,20000,7.408,,,220,5.3,13.9,,,,,,,,,wg-a,,,,AAXX 14064 07070 12/70 62204 10060 20050 30143 40256 53013 60006 80001 90600 333 10139 20053=
07070,1997-09-14 09:00:00,13,1027,1.6,72,8,16000,0,,,0,,,,,,,,,,,wg-a,,,,AAXX 14094 07070 12/66 70000 10130 20080 30159 40270 51016 60006 80002 90900=
07070,1997-09-14 12:00:00,16,1027.2,0.4,48,5,25000,3.704,,,90,,,,,,,,,,,wg-a,,,,AAXX 14124 07070 12675 70902 10160 20050 30163 40272 51004 60006 81101 91200=
07070,1997-09-14 18:00:00,15,1026.5,0.1,55,6,25000,7.408,,,260,5.7,17.7,,,,,,,,,wg-a,,,,AAXX 14184 07070 12/75 12604 10150 20060 30156 40265 50001 60006 80001 91800 333 10177 20057=
07070,1997-09-14 21:00:00,9,1027.9,1.1,87,7,25000,3.704,,,210,,,,,,,,,,,wg-a,,,,AAXX 14214 07070 12/75 02102 10090 20070 30167 40279 51011 60006 80000 92100=
07070,1997-09-15 00:00:00,6,1027.7,-0.3,93,5,25000,0,,,0,,,,,,,,,,,wg-a,,,,AAXX 15004 07070 12/75 00000 10060 20050 30164 40277 57003 60006 80000 90000=
07070,1997-09-15 03:00:00,4,1027.2,-0.6,93,3,15000,0,,,0,,,,,,,,,,,wg-a,,,,AAXX 15034 07070 12/65 00000 10040 20030 30158 40272 58006 60006 80000 90300=
07070,1997-09-15 06:00:00,3,1027.8,0.5,93,2,10000,0,,,0,1.6,15.4,,,,,,,,28,wg-a,,,,AAXX 15064 07070 12/60 30000 10030 20020 30163 40278 53005 60006 72840 80001 90600 333 10154 20016=
07070,1997-09-15 09:00:00,13,1027.7,0.3,77,9,10000,3.704,,,140,,,,,,,,,,2,wg-a,,,,AAXX 15094 07070 12/60 51402 10130 20090 30166 40277 50003 60006 70241 80001 90900=
07070,1997-09-15 12:00:00,19,1026.1,-1.3,46,7,500,11.112,,,100,,,,,,,,,,2,wg-a,,,,AAXX 15124 07070 12/00 71006 10190 20070 30153 40261 58013 60006 70241 80001 91200=
07070,1997-09-15 18:00:00,15,1024.3,-0.4,67,9,500,3.704,,,70,2.5,19.9,,,,,,,,,wg-a,,,,AAXX 15184 07070 12/00 70702 10150 20090 30134 40243 55004 60006 82032 91800 333 10199 20025=
07070,1997-09-15 21:00:00,11,1024.7,0.2,87,9,15000,3.704,,,340,,,,,,,,,,,wg-a,,,,AAXX 15214 07070 12/65 73402 10110 20090 30136 40247 51002 60006 80002 92100=
07070,1997-09-16 00:00:00,7,1025,0.1,93,6,15000,3.704,,,40,,,,,,,,,,,wg-a,,,,AAXX 16004 07070 12/65 50402 10070 20060 30137 40250 53001 60006 80002 90000=
07070,1997-09-16 03:00:00,4,1024.2,-0.9,93,3,10000,0,,,0,,,,,,,,,,11,wg-a,,,,AAXX 16034 07070 12/60 /0000 10040 20030 30128 40242 57009 60006 71122 81032 90300=
07070,1997-09-16 06:00:00,4,1023.9,-0.3,100,4,500,0,,,0,3,14.9,,,,,,,,2,wg-a,,,,AAXX 16064 07070 12/00 70000 10040 20040 30125 40239 55003 60006 70242 81032 90600 333 10149 20030=
07070,1997-09-16 09:00:00,15,1023.4,0,72,10,12000,3.704,,,110,,,,,,,,,,,wg-a,,,,AAXX 16094 07070 12/62 61102 10150 20100 30125 40234 50000 60006 81032 90900=
07070,1997-09-16 15:00:00,23,1019.6,-1.6,44,10,20000,7.408,,,190,,,,,,,,,,,wg-a,,,,AAXX 16154 07070 12/70 11904 10230 20100 30090 40196 57016 60006 81031 91500=
07070,1997-09-16 18:00:00,16,1019.4,-0.4,77,12,20000,11.112,,,160,4.2,23,,,,,,,,,wg-a,,,,AAXX 16184 07070 12/70 71606 10160 20120 30086 40194 57004 60006 81032 91800 333 10230 20042=
07070,1997-09-16 21:00:00,14,1020.2,0.7,88,12,15000,11.112,,,190,,,,,,,,,,,wg-a,,,,AAXX 16214 07070 12/65 71906 10140 20120 30093 40202 52007 60006 81032 92100=
07070,1997-09-17 00:00:00,13,1020.6,0.3,94,12,12000,11.112,,,190,,,,,,,,,,,wg-a,,,,AAXX 17004 07070 12/62 71906 10130 20120 30096 40206 51003 60006 82032 90000=
07070,1997-09-17 06:00:00,10,1021.8,1,93,9,4500,3.704,,,80,8.8,15.5,,,,,,,,11,wg-a,,,,AAXX 17064 07070 12/45 70802 10100 20090 30107 40218 53010 60006 71122 81032 90600 333 10155 20088=
07070,1997-09-17 09:00:00,18,1022.6,1.1,83,15,7000,3.704,,,40,,,,,,,,,,,wg-a,,,,AAXX 17094 07070 12657 /0402 10180 20150 30118 40226 53011 60006 81502 90900=
07070,1997-09-17 12:00:00,25,1022.4,0.1,54,15,15000,3.704,,,200,,,,,,,,,,,wg-a,,,,AAXX 17124 07070 12565 42002 10250 20150 30119 40224 50001 60006 81101 91200=
07070,1997-09-17 15:00:00,26,1021.9,-0.5,48,14,16000,11.112,,,210,,,,,,,,,,,wg-a,,,,AAXX 17154 07070 12666 62106 10260 20140 30114 40219 56005 60006 84201 91500=
07070,1997-09-17 18:00:00,19,1022.2,0.1,78,15,15000,11.112,,,170,9.4,26.2,,,,,,,,,wg-a,,,,AAXX 17184 07070 12765 31706 10190 20150 30115 40222 53001 60006 814/1 91800 333 10262 20094=
07070,1997-09-18 00:00:00,15,1023.1,-0.1,88,13,8000,3.704,,,240,,,,,,,,,,,wg-a,,,,AAXX 18004 07070 12/58 02402 10150 20130 30122 40231 58001 60006 80000 90000=
07070,1997-09-18 03:00:00,14,1022.8,-0.3,94,13,7000,0,,,0,,,,,,,,,,,wg-a,,,,AAXX 18034 07070 12/57 /0000 10140 20130 30119 40228 56003 60006 85080 90300=
07070,1997-09-18 06:00:00,14,1023.4,0.6,94,13,6000,3.704,,,230,12.3,19.2,,,,,,,,,wg-a,,,,AAXX 18064 07070 12756 /2302 10140 20130 30125 40234 53006 60006 86500 90600 333 10192 20123=
07070,1997-09-18 09:00:00,22,1023.7,0.5,69,16,8000,7.408,,,180,,,,,,,,,,,wg-a,,,,AAXX 18094 07070 12/58 01804 10220 20160 30130 40237 51005 60006 80000 90900=
07070,1997-09-18 12:00:00,27,1022.7,-0.8,45,14,12000,18.52,,,270,,,,,,,,,,,wg-a,,,,AAXX 18124 07070 12762 12710 10270 20140 30122 40227 58008 60006 81100 91200=
07070,1997-09-18 15:00:00,28,1021.3,-1.3,45,15,12000,11.112,,,240,,,,,,,,,,,wg-a,,,,AAXX 18154 07070 12762 12406 10280 20150 30109 40213 56013 60006 81100 91500=
07070,1997-09-18 18:00:00,23,1021.3,-0.2,61,15,10000,7.408,,,220,13.6,27.6,,,,,,,,,wg-a,,,,AAXX 18184 07070 12760 22204 10230 20150 30107 40213 55002 60006 82100 91800 333 10276 20136=
07070,1997-09-19 00:00:00,17,1022.1,0.1,82,14,8000,7.408,,,200,,,,,,,,,,,wg-a,,,,AAXX 19004 07070 12758 /2004 10170 20140 30113 40221 51001 60006 81500 90000=
07070,1997-09-19 03:00:00,16,1021.9,-0.2,88,14,10000,7.408,,,210,,,,,,,,,,,wg-a,,,,AAXX 19034 07070 12760 72104 10160 20140 30111 40219 56002 60006 875// 90300=
07070,1997-09-19 06:00:00,13,1022.8,0.7,94,12,3500,3.704,,,330,13.1,22.8,,,,,,,,11,wg-a,,,,AAXX 19064 07070 12735 43302 10130 20120 30118 40228 53007 60006 71111 81530 90600 333 10228 20131=
07070,1997-09-19 09:00:00,19,1023.2,0.7,83,16,6000,3.704,,,240,,,,,,,,,,,wg-a,,,,AAXX 19094 07070 12756 /2402 10190 20160 30125 40232 51007 60006 82280 90900=
07070,1997-09-19 12:00:00,24,1022.8,-0.3,61,16,8000,14.816,,,350,,,,,,,,,,,wg-a,,,,AAXX 19124 07070 12858 23508 10240 20160 30122 40228 56003 60006 82080 91200=
07070,1997-09-19 15:00:00,25,1022.4,-0.3,57,16,10000,18.52,,,30,,,,,,,,,,,wg-a,,,,AAXX 19154 07070 12/60 20310 10250 20160 30119 40224 57003 60006 82030 91500=
07070,1997-09-19 18:00:00,19,1023.7,1.1,68,13,8000,18.52,,,20,13,25.6,,,,,,,,,wg-a,,,,AAXX 19184 07070 12858 /0210 10190 20130 30130 40237 53011 60006 86500 91800 333 10256 20130=
07070,1997-09-20 00:00:00,12,1026.1,0.7,82,9,6000,11.112,,,50,,,,,,,,,,,wg-a,,,,AAXX 20004 07070 12/56 00506 10120 20090 30150 40261 51007 60006 80000 90000=
07070,1997-09-20 03:00:00,9,1026.2,0.1,87,7,8000,14.816,,,40,,,,,,,,,,,wg-a,,,,AAXX 20034 07070 12/58 00408 10090 20070 30150 40262 53001 60006 80000 90300=
07070,1997-09-20 06:00:00,7,1026.5,0.2,93,6,10000,7.408,,,40,6.6,19.2,,,,,,,,,wg-a,,,,AAXX 20064 07070 12/60 10404 10070 20060 30152 40265 53002 60006 81031 90600 333 10192 20066=
07070,1997-09-20 09:00:00,15,1026.6,0.4,63,8,15000,22.224,,,80,,,,,,,,,,,wg-a,,,,AAXX 20094 07070 12/65 20812 10150 20080 30156 40266 51004 60006 81031 90900=
07070,1997-09-20 12:00:00,19,1025.6,-0.8,46,7,25000,18.52,,,80,,,,,,,,,,,wg-a,,,,AAXX 20124 07070 12/75 20810 10190 20070 30148 40256 56008 60006 80009 91200=
07070,1997-09-20 18:00:00,12,1024.5,-0.1,67,6,35000,14.816,,,90,6.8,19.7,,,,,,,,,wg-a,,,,AAXX 20184 07070 12/81 30908 10120 20060 30135 40245 55001 60006 82082 91800 333 10197 20068=
07070,1997-09-20 21:00:00,8,1025.4,0.7,76,4,10000,7.408,,,90,,,,,,,,,,,wg-a,,,,AAXX 20214 07070 12/60 /0904 10080 20040 30142 40254 51007 60006 92100=
07070,1997-09-21 00:00:00,5,1025.3,-0.2,87,3,10000,11.112,,,50,,,,,,,,,,,wg-a,,,,AAXX 21004 07070 12/60 20506 10050 20030 30140 40253 56002 60006 82030 90000=
07070,1997-09-21 03:00:00,4,1025,-0.4,93,3,10000,0,,,0,,,,,,,,,,,wg-a,,,,AAXX 21034 07070 12/60 50000 10040 20030 30136 40250 56004 60006 83032 90300=
07070,1997-09-21 06:00:00,3,1024.6,-0.4,93,2,20000,3.704,,,70,2.7,12.1,,,,,,,,,wg-a,,,,AAXX 21064 07070 12/70 50702 10030 20020 30132 40246 55004 60006 81031 90600 333 10121 20027=
07070,1997-09-21 09:00:00,13,1024.2,0,62,6,20000,14.816,,,100,,,,,,,,,,,wg-a,,,,AAXX 21094 07070 12/70 31008 10130 20060 30132 40242 50000 60006 80001 90900=
07070,1997-09-21 12:00:00,19,1023.1,-0.9,46,7,25000,14.816,,,80,,,,,,,,,,,wg-a,,,,AAXX 21124 07070 12/75 50808 10190 20070 30123 40231 56009 60006 80001 91200=
07070,1997-09-21 15:00:00,20,1022,-1,43,7,25000,14.816,,,90,,,,,,,,,,,wg-a,,,,AAXX 21154 07070 12/75 60908 10200 20070 30113 40220 56010 60006 81031 91500=
07070,1997-09-21 18:00:00,14,1022.4,0.2,67,8,25000,7.408,,,70,2.7,20.1,,,,,,,,,wg-a,,,,AAXX 21184 07070 12/75 60704 10140 20080 30115 40224 53002 60006 80001 91800 333 10201 20027=
07070,1997-09-21 21:00:00,8,1023.2,0.5,87,6,20000,11.112,,,80,,,,,,,,,,,wg-a,,,,AAXX 21214 07070 12/70 00806 10080 20060 30120 40232 51005 60006 80000 92100=
07070,1997-09-22 00:00:00,6,1023.4,0.1,87,4,20000,3.704,,,30,,,,,,,,,,,wg-a,,,,AAXX 22004 07070 12/70 00302 10060 20040 30121 40234 50001 60006 80000 90000=
07070,1997-09-22 03:00:00,4,1023.6,0.1,93,3,20000,0,,,0,,,,,,,,,,,wg-a,,,,AAXX 22034 07070 12/70 00000 10040 20030 30122 40236 50001 60006 80000 90300=
07070,1997-09-22 09:00:00,11,1023.8,0.4,76,7,10000,7.408,,,70,,,,,,,,,,,wg-a,,,,AAXX 22094 07070 12/60 30704 10110 20070 30127 40238 51004 60006 80001 90900=
07070,1997-09-22 12:00:00,19,1023,-0.5,52,9,20000,7.408,,,110,,,,,,,,,,,wg-a,,,,AAXX 22124 07070 12/70 31104 10190 20090 30122 40230 57005 60006 80001 91200=
07070,1997-09-22 15:00:00,21,1022,-0.9,46,9,20000,11.112,,,70,,,,,,,,,,,wg-a,,,,AAXX 22154 07070 12770 30706 10210 20090 30113 40220 56009 60006 81131 91500=
07070,1997-09-22 18:00:00,15,1022.2,-0,72,10,15000,7.408,,,60,2.5,21.9,,,,,,,,,wg-a,,,,AAXX 22184 07070 12/65 30604 10150 20100 30113 40222 55000 60006 81031 91800 333 10219 20025=
07070,1997-09-22 21:00:00,11,1023.6,1.2,82,8,15000,3.704,,,30,,,,,,,,,,,wg-a,,,,AAXX 22214 07070 12/65 00302 10110 20080 30125 40236 51012 60006 80000 92100=
07070,1997-09-23 00:00:00,7,1023.7,-0,93,6,12000,0,,,0,,,,,,,,,,,wg-a,,,,AAXX 23004 07070 12/62 00000 10070 20060 30125 40237 54000 60006 80000 90000=
07070,1997-09-23 03:00:00,5,1023.4,-0.4,93,4,12000,3.704,,,30,,,,,,,,,,,wg-a,,,,AAXX 23034 07070 12/62 00302 10050 20040 30121 40234 57004 60006 80000 90300=
07070,1997-09-23 06:00:00,2,1023.8,0.3,100,2,500,3.704,,,50,2.3,15.4,,,,,,,,41,wg-a,,,,AAXX 23064 07070 12/05 00502 10020 20020 30124 40238 53003 60006 74140 80000 90600 333 10154 20023=
07070,1997-09-23 09:00:00,13,1023.9,0.5,72,8,8000,7.408,,,80,,,,,,,,,,2,wg-a,,,,AAXX 23094 07070 12/58 00804 10130 20080 30129 40239 51005 60006 70240 80000 90900=
07070,1997-09-23 12:00:00,21,1022.8,-0.8,40,7,15000,14.816,,,80,,,,,,,,,,2,wg-a,,,,AAXX 23124 07070 12/65 00808 10210 20070 30121 40228 58008 60006 70240 80000 91200=
07070,1997-09-23 15:00:00,22,1021.9,-0.8,35,6,20000,18.52,,,60,,,,,,,,,,,wg-a,,,,AAXX 23154 07070 12/70 00610 10220 20060 30113 40219 56008 60006 80000 91500=
07070,1997-09-23 18:00:00,17,1022.3,0.2,55,8,20000,11.112,,,30,2.4,22.6,,,,,,,,,wg-a,,,,AAXX 23184 07070 12/70 10306 10170 20080 30115 40223 53002 60006 81031 91800 333 10226 20024=
07070,1997-09-23 21:00:00,11,1023.8,1.2,87,9,10000,7.408,,,350,,,,,,,,,,,wg-a,,,,AAXX 23214 07070 12/60 /3504 10110 20090 30127 40238 51012 60006 92100=
07070,1997-09-24 00:00:00,9,1024.3,0.4,93,8,10000,0,,,0,,,,,,,,,,,wg-a,,,,AAXX 24004 07070 12/60 00000 10090 20080 30131 40243 50004 60006 80000 90000=
07070,1997-09-24 03:00:00,6,1024.3,-0.1,93,5,800,0,,,0,,,,,,,,,,44,wg-a,,,,AAXX 24034 07070 12/08 00000 10060 20050 30130 40243 55001 60006 74442 80000 90300=
07070,1997-09-24 06:00:00,4,1025,0.6,100,4,100,0,,,0,3.8,17.1,,,,,,,,41,wg-a,,,,AAXX 24064 07070 12/01 30000 10040 20040 30136 40250 53006 60006 74142 80001 90600 333 10171 20038=
07070,1997-09-24 09:00:00,14,1025,0.4,77,10,6000,11.112,,,60,,,,,,,,,,2,wg-a,,,,AAXX 24094 07070 12/56 50606 10140 20100 30140 40250 50004 60006 70241 80002 90900=
07070,1997-09-24 12:00:00,19,1024.1,-0.7,60,11,12000,14.816,,,70,,,,,,,,,,3,wg-a,,,,AAXX 24124 07070 12/62 70708 10190 20110 30133 40241 58007 60006 70342 80002 91200=
07070,1997-09-24 15:00:00,21,1022.9,-1.1,49,10,12000,18.52,,,60,,,,,,,,,,,wg-a,,,,AAXX 24154 07070 12/62 40610 10210 20100 30122 40229 56011 60006 80002 91500=
07070,1997-09-24 18:00:00,13,1023.1,-0.1,77,9,15000,14.816,,,90,3.8,20.8,,,,,,,,,wg-a,,,,AAXX 24184 07070 12/65 20908 10130 20090 30121 40231 55001 60006 80001 91800 333 10208 20038=
07070,1997-09-24 21:00:00,10,1024,0.8,87,8,10000,14.816,,,90,,,,,,,,,,,wg-a,,,,AAXX 24214 07070 12/60 00908 10100 20080 30129 40240 51008 60006 80000 92100=
07070,1997-09-25 00:00:00,9,1024.1,0.1,93,8,10000,7.408,,,70,,,,,,,,,,,wg-a,,,,AAXX 25004 07070 12/60 00704 10090 20080 30130 40241 50001 60006 80000 90000=
07070,1997-09-25 03:00:00,6,1024.2,-0.1,93,5,2500,0,,,0,,,,,,,,,,10,wg-a,,,,AAXX 25034 07070 12/25 00000 10060 20050 30129 40242 56001 60006 71000 80000 90300=
07070,1997-09-25 06:00:00,3,1024.9,0.6,100,3,600,0,,,0,2.8,13.3,,,,,,,,41,wg-a,,,,AAXX 25064 07070 12/06 00000 10030 20030 30135 40249 51006 60006 74140 80000 90600 333 10133 20028=
07070,1997-09-25 09:00:00,13,1025.4,0.5,82,10,6000,11.112,,,90,,,,,,,,,,2,wg-a,,,,AAXX 25094 07070 12/56 00906 10130 20100 30144 40254 53005 60006 70240 80000 90900=
07070,1997-09-25 12:00:00,20,1024.4,-0.7,56,11,10000,14.816,,,90,,,,,,,,,,3,wg-a,,,,AAXX 25124 07070 12/60 20908 10200 20110 30137 40244 58007 60006 70340 80001 91200=
07070,1997-09-25 15:00:00,22,1023.3,-1,50,11,12000,11.112,,,80,,,,,,,,,,,wg-a,,,,AAXX 25154 07070 12/62 10806 10220 20110 30127 40233 56010 60006 80001 91500=
07070,1997-09-25 21:00:00,11,1025.2,0.7,87,9,8000,11.112,,,90,,,,,,,,,,,wg-a,,,,AAXX 25214 07070 12/58 00906 10110 20090 30141 40252 51007 60006 80000 92100=
07070,1997-09-26 00:00:00,8,1025.1,-0.2,87,6,10000,7.408,,,80,,,,,,,,,,,wg-a,,,,AAXX 26004 07070 12/60 00804 10080 20060 30139 40251 58002 60006 80000 90000=
07070,1997-09-26 06:00:00,5,1024.9,0.1,93,4,4000,0,,,0,4.6,15.8,,,,,,,,10,wg-a,,,,AAXX 26064 07070 02/40 00000 10050 20040 30136 40249 53001 60006 71000 80000 90600 333 10158 20046 60004=
07070,1997-09-26 09:00:00,16,1024.4,-0.1,63,9,9000,7.408,,,100,,,,,,,,,,,wg-a,,,,AAXX 26094 07070 12/59 01004 10160 20090 30135 40244 58001 60006 80000 90900=
07070,1997-09-26 12:00:00,22,1022.8,-1.4,46,10,12000,11.112,,,80,,,,,,,,,,,wg-a,,,,AAXX 26124 07070 12/62 10806 10220 20100 30121 40228 58014 60006 80001 91200=
07070,1997-09-26 15:00:00,25,1020.5,-2.1,39,10,20000,14.816,,,90,,,,,,,,,,,wg-a,,,,AAXX 26154 07070 12/70 00908 10250 20100 30100 40205 57021 60006 80000 91500=
07070,1997-09-26 18:00:00,18,1020.1,-0.6,68,12,20000,0,,,0,4.6,24.9,,,,,,,,,wg-a,,,,AAXX 26184 07070 12/70 00000 10180 20120 30094 40201 56006 60006 80000 91800 333 10249 20046=
07070,1997-09-26 21:00:00,12,1020.3,-0.1,88,10,15000,7.408,,,140,,,,,,,,,,,wg-a,,,,AAXX 26214 07070 12/65 01404 10120 20100 30093 40203 58001 60006 80000 92100=
07070,1997-09-27 00:00:00,9,1019.9,-0.5,87,7,15000,0,,,0,,,,,,,,,,,wg-a,,,,AAXX 27004 07070 12/65 00000 10090 20070 30088 40199 56005 60006 80000 90000=
07070,1997-09-27 03:00:00,7,1019,-1,93,6,15000,7.408,,,40,,,,,,,,,,,wg-a,,,,AAXX 27034 07070 12/65 00404 10070 20060 30078 40190 58010 60006 80000 90300=
07070,1997-09-27 06:00:00,4,1018.8,-0.3,93,3,500,7.408,,,70,3.4,18.4,,,,,,,,41,wg-a,,,,AAXX 27064 07070 12105 /0704 10040 20030 30075 40188 55003 60006 74140 81601 90600 333 10184 20034=
07070,1997-09-27 09:00:00,16,1017.8,-0.5,72,11,8000,3.704,,,170,,,,,,,,,,3,wg-a,,,,AAXX 27094 07070 12/58 21702 10160 20110 30070 40178 58005 60006 70340 80001 90900=
07070,1997-09-27 12:00:00,23,1016,-1.5,44,10,16000,11.112,,,120,,,,,,,,,,3,wg-a,,,,AAXX 27124 07070 12/66 41206 10230 20100 30055 40160 56015 60006 70340 80002 91200=
07070,1997-09-27 15:00:00,24,1014.6,-1.4,41,10,18000,7.408,,,130,,,,,,,,,,,wg-a,,,,AAXX 27154 07070 12/68 21304 10240 20100 30041 40146 56014 60006 80002 91500=
07070,1997-09-27 18:00:00,18,1014.9,0.1,59,10,16000,0,,,0,3.8,24.6,,,,,,,,,wg-a,,,,AAXX 27184 07070 12/66 10000 10180 20100 30042 40149 53001 60006 80002 91800 333 10246 20038=
07070,1997-09-27 21:00:00,12,1015.3,0.1,82,9,12000,0,,,0,,,,,,,,,,,wg-a,,,,AAXX 27214 07070 12/62 00000 10120 20090 30043 40153 52001 60006 80000 92100=
07070,1997-09-28 00:00:00,9,1015.1,-0.3,93,8,10000,0,,,0,,,,,,,,,,,wg-a,,,,AAXX 28004 07070 12/60 00000 10090 20080 30040 40151 58003 60006 80000 90000=
07070,1997-09-28 03:00:00,7,1015,-0.2,93,6,200,0,,,0,,,,,,,,,,44,wg-a,,,,AAXX 28034 07070 12/02 00000 10070 20060 30038 40150 56002 60006 74440 80000 90300=
07070,1997-09-28 06:00:00,6,1015.7,0.7,100,6,200,0,,,0,5.7,18.4,,,,,,,,42,wg-a,,,,AAXX 28064 07070 12/02 /0000 10060 20060 30045 40157 53007 60006 74241 81031 90600 333 10184 20057=
07070,1997-09-28 12:00:00,21,1015.2,-0.6,53,11,8000,0,,,0,,,,,,,,,,,wg-a,,,,AAXX 28124 07070 12/58 /0000 10210 20110 30046 40152 58006 60006 81031 91200=
07070,1997-09-28 15:00:00,24,1014.3,-0.8,44,11,15000,3.704,,,340,,,,,,,,,,,wg-a,,,,AAXX 28154 07070 12/65 13402 10240 20110 30038 40143 56008 60006 81031 91500=
07070,1997-09-28 18:00:00,18,1015.4,0.9,64,11,12000,0,,,0,6.1,24.1,,,,,,,,,wg-a,,,,AAXX 28184 07070 12/62 10000 10180 20110 30047 40154 53009 60006 81031 91800 333 10241 20061=
07070,1997-09-28 21:00:00,11,1017,1.3,87,9,10000,3.704,,,260,,,,,,,,,,,wg-a,,,,AAXX 28214 07070 12/60 02602 10110 20090 30060 40170 51013 60006 80000 92100=
07070,1997-09-29 00:00:00,9,1017.6,0.5,100,9,2000,0,,,0,,,,,,,,,,40,wg-a,,,,AAXX 29004 07070 12/20 00000 10090 20090 30065 40176 51005 60006 74000 80000 90000=
07070,1997-09-29 03:00:00,7,1018.4,0.7,100,7,2500,0,,,0,,,,,,,,,,10,wg-a,,,,AAXX 29034 07070 12/25 /0000 10070 20070 30072 40184 51007 60006 71041 80001 90300=
07070,1997-09-29 06:00:00,7,1020,1.6,100,7,1200,0,,,0,6.2,17.9,,,,,,,,40,wg-a,,,,AAXX 29064 07070 12012 70000 10070 20070 30088 40200 53016 60006 74041 84601 90600 333 10179 20062=
07070,1997-09-29 09:00:00,14,1021.3,1.6,94,13,2500,0,,,0,,,,0,,,,,,10,wg-a,,,,AAXX 29094 07070 12/25 70000 10140 20130 30104 40213 51016 60007 71042 80002 90900=
07070,1997-09-29 12:00:00,21,1021.7,0.6,60,13,500,3.704,,,310,,,,,,,,,,3,wg-a,,,,AAXX 29124 07070 12/00 73102 10210 20130 30110 40217 53006 60006 70342 81032 91200=
07070,1997-09-29 15:00:00,22,1021.6,-0,50,11,8000,11.112,,,350,,,,,,,,,,,wg-a,,,,AAXX 29154 07070 12/58 73506 10220 20110 30110 40216 55000 60006 80002 91500=
07070,1997-09-29 18:00:00,17,1022.5,0.7,72,12,8000,3.704,,,360,6.9,21.9,,,,,,,,,wg-a,,,,AAXX 29184 07070 12/58 73602 10170 20120 30117 40225 53007 60006 81032 91800 333 10219 20069=
07070,1997-09-29 21:00:00,11,1023.5,0.8,100,11,8000,3.704,,,210,,,,,,,,,,,wg-a,,,,AAXX 29214 07070 12/58 02102 10110 20110 30125 40235 53008 60006 80000 92100=
07070,1997-09-30 00:00:00,10,1024,0.4,93,9,8000,0,,,0,,,,,,,,,,,wg-a,,,,AAXX 30004 07070 12/58 00000 10100 20090 30129 40240 51004 60006 80000 90000=
07070,1997-09-30 03:00:00,9,1024.5,0.4,93,8,500,0,,,0,,,,,,,,,,,wg-a,,,,AAXX 30034 07070 12/00 00000 10090 20080 30133 40245 52004 60006 80000 90300=
07070,1997-09-30 06:00:00,8,1024.9,0.4,93,7,900,0,,,0,7.5,16.8,,,,,,,,10,wg-a,,,,AAXX 30064 07070 02/09 /0000 10080 20070 30137 40249 53004 60006 71041 81032 90600 333 10168 20075 60004=
07070,1997-09-30 09:00:00,17,1025.4,0.8,77,13,2500,3.704,,,200,,,,,,,,,,10,wg-a,,,,AAXX 30094 07070 12/25 /2002 10170 20130 30145 40254 51008 60006 71011 80002 90900=
07070,1997-09-30 12:00:00,23,1024,-1.1,53,13,8000,11.112,,,240,,,,,,,,,,2,wg-a,,,,AAXX 30124 07070 12/58 02406 10230 20130 30134 40240 58011 60006 70241 80000 91200=
07070,1997-09-30 15:00:00,25,1023.1,-0.9,41,11,12000,14.816,,,320,,,,,,,,,,,wg-a,,,,AAXX 30154 07070 12/62 13208 10250 20110 30125 40231 57009 60006 81030 91500=
07070,1997-09-30 18:00:00,20,1023.2,0,56,11,12000,3.704,,,320,7.6,25,,,,,,,,,wg-a,,,,AAXX 30184 07070 12/62 63202 10200 20110 30125 40232 50000 60006 80001 91800 333 10250 20076=
07070,1997-10-01 00:00:00,13,1022.9,-0.8,82,10,12000,0,,,0,,,,,,,,,,,wg-a,,,,AAXX 01004 07070 12/62 20000 10130 20100 30119 40229 55008 60006 80001 90000=
07070,1997-10-01 03:00:00,11,1022.2,-0.8,87,9,12000,7.408,,,200,,,,,,,,,,,wg-a,,,,AAXX 01034 07070 12/62 12004 10110 20090 30111 40222 58008 60006 80001 90300=
07070,1997-10-01 06:00:00,10,1021.9,-0.3,93,9,3000,0,,,0,9.7,19.7,,,,,,,,10,wg-a,,,,AAXX 01064 07070 12/30 30000 10100 20090 30108 40219 56003 60006 71011 81031 90600 333 10197 20097=
07070,1997-10-01 09:00:00,16,1022,0.4,82,13,3500,3.704,,,50,,,,,,,,,,,wg-a,,,,AAXX 01094 07070 12/35 /0502 10160 20130 30112 40220 51004 60006 90900=
07070,1997-10-01 12:00:00,22,1020.4,-1.4,69,16,10000,14.816,,,280,,,,,,,,,,,wg-a,,,,AAXX 01124 07070 12560 72808 10220 20160 30098 40204 58014 60006 878// 91200=
07070,1997-10-01 15:00:00,24,1018.6,-1.7,57,15,20000,18.52,,,320,,,,,,,,,,,wg-a,,,,AAXX 01154 07070 12570 63210 10240 20150 30081 40186 56017 60006 83831 91500=
07070,1997-10-01 18:00:00,21,1017.8,,64,14,15000,11.112,,,300,,,,,,,,,,,wg-a,,,,AAXX 01184 07070 12765 53006 10210 20140 30072 40178 60006 8/009 91800=
07070,1997-10-01 21:00:00,19,1017.7,-0.2,78,15,15000,18.52,,,290,,,,,,,,,,,wg-a,,,,AAXX 01214 07070 12/65 22910 10190 20150 30070 40177 58002 60006 81031 92100=
07070,1997-10-02 00:00:00,17,1016.7,-1,88,15,12000,18.52,,,280,,,,,,,,,,,wg-a,,,,AAXX 02004 07070 12762 62810 10170 20150 30060 40167 58010 60006 85501 90000=
07070,1997-10-02 03:00:00,17,1016,-0.7,88,15,8000,11.112,,,280,,,,,,,,,,,wg-a,,,,AAXX 02034 07070 12458 72806 10170 20150 30053 40160 58007 60006 876// 90300=
07070,1997-10-02 06:00:00,17,1016.5,0.4,88,15,4500,18.52,,,290,16.6,20.8,,,,,,,,10,wg-a,,,,AAXX 02064 07070 12445 72910 10170 20150 30057 40165 53004 60006 71022 878// 90600 333 10208 20166=
07070,1997-10-02 12:00:00,19,1017.6,-0.1,60,11,16000,18.52,,,320,,,,,,,,,,,wg-a,,,,AAXX 02124 07070 12666 43210 10190 20110 30069 40176 55001 60006 84200 91200=
07070,1997-10-02 15:00:00,20,1017.4,-0.2,53,10,16000,22.224,,,330,,,,,,,,,,,wg-a,,,,AAXX 02154 07070 12666 /3312 10200 20100 30067 40174 55002 60006 81400 91500=
07070,1997-10-02 18:00:00,15,1018.7,1.1,67,9,12000,7.408,,,350,15.2,20.5,,,,,,,,,wg-a,,,,AAXX 02184 07070 12/62 03504 10150 20090 30078 40187 53011 60006 80000 91800 333 10205 20152=
07070,1997-10-02 21:00:00,10,1020.5,1.6,82,7,10000,7.408,,,330,,,,,,,,,,,wg-a,,,,AAXX 02214 07070 12/60 /3304 10100 20070 30094 40205 51016 60006 92100=
07070,1997-10-03 00:00:00,7,1021.3,0.7,100,7,10000,0,,,0,,,,,,,,,,,wg-a,,,,AAXX 03004 07070 12/60 00000 10070 20070 30101 40213 52007 60006 80000 90000=
07070,1997-10-03 03:00:00,4,1021.5,0.1,93,3,10000,0,,,0,,,,,,,,,,,wg-a,,,,AAXX 03034 07070 12/60 00000 10040 20030 30102 40215 51001 60006 80000 90300=
07070,1997-10-03 06:00:00,2,1021.9,0.3,100,2,100,0,,,0,2,15.2,,,,,,,,44,wg-a,,,,AAXX 03064 07070 12/01 20000 10020 20020 30105 40219 53003 60006 74444 80001 90600 333 10152 20020=
07070,1997-10-03 09:00:00,10,1022.9,1.3,87,8,6000,3.704,,,10,,,,,,,,,,3,wg-a,,,,AAXX 03094 07070 12/56 20102 10100 20080 30118 40229 51013 60006 70340 80002 90900=
07070,1997-10-03 12:00:00,16,1022.2,-0.5,51,6,15000,7.408,,,40,,,,,,,,,,1,wg-a,,,,AAXX 03124 07070 12665 70404 10160 20060 30113 40222 56005 60006 70141 86402 91200=
07070,1997-10-03 15:00:00,16,1021.2,-1,55,7,20000,3.704,,,20,,,,,,,,,,,wg-a,,,,AAXX 03154 07070 12770 70202 10160 20070 30103 40212 56010 60006 875// 91500=
07070,1997-10-03 18:00:00,11,1022,0.6,76,7,12000,7.408,,,80,2,16.9,,,,,,,,,wg-a,,,,AAXX 03184 07070 12762 20804 10110 20070 30109 40220 53006 60006 82500 91800 333 10169 20020=
07070,1997-10-03 21:00:00,7,1023,0.9,87,5,10000,0,,,0,,,,,,,,,,,wg-a,,,,AAXX 03214 07070 12/60 00000 10070 20050 30118 40230 53009 60006 80000 92100=
07070,1997-10-04 00:00:00,5,1023.1,0,93,4,10000,3.704,,,250,,,,,,,,,,,wg-a,,,,AAXX 04004 07070 12/60 02502 10050 20040 30118 40231 50000 60006 80000 90000=
07070,1997-10-04 03:00:00,3,1023.3,0.1,93,2,10000,3.704,,,40,,,,,,,,,,,wg-a,,,,AAXX 04034 07070 12/60 00402 10030 20020 30119 40233 53001 60006 80000 90300=
07070,1997-10-04 06:00:00,2,1023.5,0.1,93,1,1800,7.408,,,150,1.4,10.7,,,,,,,,10,wg-a,,,,AAXX 04064 07070 12718 /1504 10020 20010 30120 40235 50001 60006 71040 81500 90600 333 10107 20014=
07070,1997-10-04 09:00:00,10,1024.3,1.2,87,8,8000,0,,,0,,,,,,,,,,,wg-a,,,,AAXX 04094 07070 12658 70000 10100 20080 30132 40243 52012 60006 875// 90900=
07070,1997-10-04 12:00:00,18,1022.7,-1.3,52,8,12000,11.112,,,210,,,,,,,,,,,wg-a,,,,AAXX 04124 07070 12662 /2106 10180 20080 30119 40227 58013 60006 81501 91200=
07070,1997-10-04 15:00:00,19,1021.6,-1.1,49,8,15000,7.408,,,310,,,,,,,,,,,wg-a,,,,AAXX 04154 07070 12765 13104 10190 20080 30108 40216 57011 60006 81501 91500=
07070,1997-10-04 18:00:00,13,1021.4,-0.4,77,9,12000,0,,,0,1.8,19.1,,,,,,,,,wg-a,,,,AAXX 04184 07070 12/62 10000 10130 20090 30104 40214 56004 60006 80001 91800 333 10191 20018=
07070,1997-10-04 21:00:00,9,1021.3,-0.2,87,7,15000,0,,,0,,,,,,,,,,,wg-a,,,,AAXX 04214 07070 12/65 00000 10090 20070 30102 40213 57002 60006 80000 92100=
07070,1997-10-05 00:00:00,7,1020.6,-0.8,93,6,10000,0,,,0,,,,,,,,,,,wg-a,,,,AAXX 05004 07070 12/60 00000 10070 20060 30094 40206 58008 60006 80000 90000=
07070,1997-10-05 03:00:00,5,1019.8,-0.9,100,5,8000,7.408,,,180,,,,,,,,,,,wg-a,,,,AAXX 05034 07070 12/58 01804 10050 20050 30085 40198 58009 60006 80000 90300=
07070,1997-10-05 06:00:00,4,1019.2,-0.6,93,3,2500,0,,,0,3.2,12.9,,,,,,,,11,wg-a,,,,AAXX 05064 07070 12/25 00000 10040 20030 30079 40192 55006 60006 71100 80000 90600 333 10129 20032=
07070,1997-10-05 09:00:00,13,1018.6,-0.3,77,9,6000,0,,,0,,,,,,,,,,,wg-a,,,,AAXX 05094 07070 12/56 00000 10130 20090 30076 40186 57003 60006 80000 90900=
07070,1997-10-05 11:00:00,19,1016.9,-1.4,56,10,8000,3.704,,,30,,,,,,,,,,,wg-a,,,,AAXX 05114 07070 32558 /0302 10190 20100 30062 40169 58014 81100 91100=
07070,1997-10-05 12:00:00,19,1016.9,-1.4,52,9,8000,3.704,,,30,,,,,,,,,,,wg-a,,,,AAXX 05124 07070 12658 /0302 10190 20090 30062 40169 58014 60006 81100 91200=
07070,1997-10-05 15:00:00,19,1014.9,-2,56,10,10000,11.112,,,80,,,,,,,,,,,wg-a,,,,AAXX 05154 07070 12760 10806 10190 20100 30042 40149 57020 60006 81100 91500=
07070,1997-10-05 18:00:00,12,1013.9,-1.2,82,9,8000,11.112,,,80,3.3,19.7,,,,,,,,,wg-a,,,,AAXX 05184 07070 12/58 00806 10120 20090 30030 40139 56012 60006 80000 91800 333 10197 20033=
07070,1997-10-05 21:00:00,9,1013.2,-0.8,93,8,8000,0,,,0,,,,,,,,,,,wg-a,,,,AAXX 05214 07070 12/58 00000 10090 20080 30022 40132 58008 60006 80000 92100=
07070,1997-10-06 00:00:00,6,1011.9,-1.5,93,5,500,0,,,0,,,,,,,,,,44,wg-a,,,,AAXX 06004 07070 12/05 00000 10060 20050 30007 40119 58015 60006 74440 80000 90000=
07070,1997-10-06 03:00:00,3,1010.1,-1.9,100,3,500,0,,,0,,,,,,,,,,42,wg-a,,,,AAXX 06034 07070 32/05 00000 10030 20030 39988 40101 58019 74244 80000 90300=
07070,1997-10-06 06:00:00,3,1008.9,-1.1,100,3,1600,3.704,,,320,3,11.8,,,,,,,,10,wg-a,,,,AAXX 06064 07070 02/16 33202 10030 20030 39977 40089 56011 60006 71040 80002 90600 333 10118 20030 60004=
07070,1997-10-06 09:00:00,14,1008.2,-0.3,88,12,8000,11.112,,,190,,,,,,,,,,,wg-a,,,,AAXX 06094 07070 12/58 /1906 10140 20120 39974 40082 58003 60006 83082 90900=
07070,1997-10-06 12:00:00,23,1005.8,-2,57,14,10000,18.52,,,180,,,,,,,,,,,wg-a,,,,AAXX 06124 07070 12/60 51810 10230 20140 39954 40058 58020 60006 81082 91200=
07070,1997-10-06 15:00:00,24,1003.9,-1.9,57,15,15000,22.224,,,190,,,,,,,,,,,wg-a,,,,AAXX 06154 07070 12/65 51912 10240 20150 39935 40039 56019 60006 83082 91500=
07070,1997-10-06 18:00:00,20,1002.9,-1.1,73,15,8000,14.816,,,170,3.2,24.5,,,,,,,,,wg-a,,,,AAXX 06184 07070 12758 71708 10200 20150 39924 40029 56011 60006 83172 91800 333 10245 20032=
07070,1997-10-06 21:00:00,21,1002.9,-0,69,15,10000,22.224,,,200,,,,,,,,,,25,wg-a,,,,AAXX 06214 07070 02760 82012 10210 20150 39924 40029 55000 61000 72582 8527/ 92100 333 ////=
07070,1997-10-07 00:00:00,17,1002.6,-0.4,94,16,7000,18.52,,,230,,,,1,,,,,,61,wg-a,,,,AAXX 07004 07070 02557 82310 10170 20160 39920 40026 55004 60016 76186 8457/ 90000 333 60017=
07070,1997-10-07 06:00:00,16,1001.7,0.1,94,15,7000,18.52,,,210,16,21.5,,,,,4,,,3,wg-a,,,,AAXX 07064 07070 02457 72110 10160 20150 39911 40017 53001 60006 70362 875// 90600 333 10215 20160 60044=
07070,1997-10-07 12:00:00,16,1003.6,0.6,88,14,4000,22.224,,,250,,,,1,,,,,,61,wg-a,,,,AAXX 07124 07070 02540 72512 10160 20140 39930 40036 53006 60016 76162 8687/ 91200 333 60017=
07070,1997-10-07 15:00:00,18,1004.4,0.8,83,15,20000,18.52,,,240,,,,4,,,,,,1,wg-a,,,,AAXX 07154 07070 12670 72410 10180 20150 39938 40044 51008 60047 70162 86802 91500=
07070,1997-10-07 18:00:00,15,1007.2,2.6,77,11,25000,14.816,,,240,14.6,19.3,,,,,,,,1,wg-a,,,,AAXX 07184 07070 12675 72408 10150 20110 39964 40072 53026 60006 70162 81232 91800 333 10193 20146=
07070,1997-10-07 21:00:00,15,1009.1,1.9,82,12,10000,14.816,,,220,,,,,,,,,,,wg-a,,,,AAXX 07214 07070 12/60 /2208 10150 20120 39983 40091 52019 60006 92100=
07070,1997-10-08 00:00:00,14,1010.6,1.5,82,11,15000,18.52,,,220,,,,,,,,,,,wg-a,,,,AAXX 08004 07070 12765 72210 10140 20110 39998 40106 53015 60006 875// 90000=
07070,1997-10-08 03:00:00,14,1010.5,-0.1,94,13,15000,14.816,,,180,,,,0,,,,,,61,wg-a,,,,AAXX 08034 07070 12365 81808 10140 20130 39997 40105 58001 60007 76162 8587/ 90300=
07070,1997-10-08 06:00:00,15,1010.1,-0.4,82,12,20000,18.52,,,200,13.5,14.7,,,,,5,,,3,wg-a,,,,AAXX 08064 07070 02470 72010 10150 20120 39993 40101 56004 60006 70362 86802 90600 333 10147 20135 60054=
07070,1997-10-08 12:00:00,18,1010.3,-0.3,83,15,15000,22.224,,,220,,,,0,,,,,,21,wg-a,,,,AAXX 08124 07070 02565 82212 10180 20150 39996 40103 58003 60006 72162 8252/ 91200 333 60007=
07070,1997-10-08 15:00:00,17,1009.3,-1,94,16,8000,22.224,,,200,,,,1,,,,,,61,wg-a,,,,AAXX 08154 07070 12658 82012 10170 20160 39986 40093 58010 60017 76166 8252/ 91500=
07070,1997-10-08 18:00:00,17,1007.6,-1.7,88,15,8000,25.928,,,210,14.7,18.1,,,,,,,,21,wg-a,,,,AAXX 08184 07070 02658 82114 10170 20150 39969 40076 56017 61000 72162 8552/ 91800 333 10181 20147 6002=
07070,1997-10-08 21:00:00,18,1007.6,0.1,83,15,8000,31.484,,61.116,220,,,,0,,,,,,21,wg-a,,,,AAXX 08214 07070 12558 72217 10180 20150 39970 40076 53001 60007 72162 875// 92100 333 91033=
07070,1997-10-09 00:00:00,17,1007.8,0.1,94,16,8000,29.632,,,230,,,,1,,,,,,61,wg-a,,,,AAXX 09004 07070 02658 82316 10170 20160 39971 40078 50001 60016 76162 8552/ 90000 333 60017=
07070,1997-10-09 03:00:00,18,1007.1,-0.6,83,15,8000,25.928,,,220,,,,,,,,,,60,wg-a,,,,AAXX 09034 07070 02558 82214 10180 20150 39965 40071 58006 61000 76066 8352/ 90300 333 ////=
07070,1997-10-09 06:00:00,19,1007.5,0.4,78,15,20000,38.892,,61.116,240,16.9,18.9,,,,,4,,,3,wg-a,,,,AAXX 09064 07070 02470 72421 10190 20150 39969 40075 53004 60006 70362 878// 90600 333 10189 20169 60044 91033=
07070,1997-10-09 09:00:00,20,1009,1.5,78,16,25000,35.188,,57.412,240,,,,,,,,,,,wg-a,,,,AAXX 09094 07070 12575 72419 10200 20160 39984 40090 51015 60006 872// 90900 333 91031=
07070,1997-10-09 12:00:00,22,1010.2,1.3,69,16,25000,42.596,,61.116,250,,,,,,,,,,,wg-a,,,,AAXX 09124 07070 12575 /2523 10220 20160 39997 40102 51013 60006 84801 91200 333 91033=
07070,1997-10-09 15:00:00,22,1010.4,0.2,73,17,20000,25.928,,,240,,,,,,,,,,,wg-a,,,,AAXX 09154 07070 12670 62414 10220 20170 39999 40104 51002 60006 85802 91500=
07070,1997-10-09 18:00:00,20,1011.4,0.9,64,13,20000,18.52,,,240,18.6,22.5,,,,,,,,,wg-a,,,,AAXX 09184 07070 12670 42410 10200 20130 30008 40114 53009 60006 83801 91800 333 10225 20186=
07070,1997-10-09 21:00:00,18,1011.9,0.4,73,13,15000,22.224,,,230,,,,,,,,,,,wg-a,,,,AAXX 09214 07070 12665 72312 10180 20130 30012 40119 50004 60006 82501 92100=
07070,1997-10-10 00:00:00,18,1010.3,-1.6,77,14,12000,29.632,,,230,,,,,,,,,,,wg-a,,,,AAXX 10004 07070 12562 82316 10180 20140 39996 40103 58016 60006 8357/ 90000=
07070,1997-10-10 03:00:00,18,1008.4,-1.8,83,15,15000,31.484,,50.004,230,,,,,,,,,,,wg-a,,,,AAXX 10034 07070 12565 82317 10180 20150 39978 40084 58018 60006 8657/ 90300 333 91027=
07070,1997-10-10 06:00:00,17,1006.2,-2.2,88,15,15000,25.928,,,230,16.7,19.5,,,,,,,,21,wg-a,,,,AAXX 10064 07070 02465 82314 10170 20150 39956 40062 57022 61000 72162 8457/ 90600 333 10195 20167 6001=
07070,1997-10-10 09:00:00,16,1004,-2.2,94,15,7000,35.188,,53.708,240,,,,2,,,,,,21,wg-a,,,,AAXX 10094 07070 12457 72419 10160 20150 39934 40040 57022 60027 72162 8357/ 90900 333 91029=
07070,1997-10-10 12:00:00,15,1005.7,1.6,72,10,15000,29.632,,,300,,,,1,,,,,,25,wg-a,,,,AAXX 10124 07070 02465 73016 10150 20100 39950 40057 53016 60026 72586 878// 91200 333 60017=
07070,1997-10-10 15:00:00,17,1006.7,1,59,9,20000,29.632,,,290,,,,,,,,,,,wg-a,,,,AAXX 10154 07070 12570 /2916 10170 20090 39960 40067 53010 60006 81200 91500=
07070,1997-10-10 18:00:00,14,1009.4,2.6,67,8,35000,22.224,,,290,13.6,17.8,,,,,,,,,wg-a,,,,AAXX 10184 07070 12681 /2912 10140 20080 39986 40094 53026 60006 81100 91800 333 10178 20136=
07070,1997-10-10 21:00:00,11,1011.2,1.7,82,8,500,22.224,,,240,,,,,,,,,,,wg-a,,,,AAXX 10214 07070 12/00 12412 10110 20080 30003 40112 51017 60006 80001 92100=
07070,1997-10-11 00:00:00,12,1011.7,0.5,82,9,500,22.224,,,250,,,,,,,,,,,wg-a,,,,AAXX 11004 07070 12/00 52512 10120 20090 30008 40117 51005 60006 84031 90000=
07070,1997-10-11 03:00:00,11,1011.1,-0.6,87,9,500,25.928,,,260,,,,,,,,,,,wg-a,,,,AAXX 11034 07070 12/00 52614 10110 20090 30002 40111 58006 60006 82031 90300=
07070,1997-10-11 06:00:00,11,1010.7,-0.4,87,9,15000,18.52,,,240,10.5,13.7,,,,,2,,,,wg-a,,,,AAXX 11064 07070 02665 72410 10110 20090 39998 40107 58004 60006 85532 90600 333 10137 20105 60024=
07070,1997-10-11 12:00:00,15,1007.6,-2.9,72,10,20000,25.928,,,230,,,,,,,,,,60,wg-a,,,,AAXX 11124 07070 02570 72314 10150 20100 39968 40076 58029 61000 76062 8587/ 91200 333 6100=
07070,1997-10-11 15:00:00,12,1005.1,-2.5,94,11,4000,14.816,,,220,,,,3,,,,,,10,wg-a,,,,AAXX 11154 07070 12440 82208 10120 20110 39943 40051 56025 60037 71062 8557/ 91500=
07070,1997-10-11 18:00:00,12,999.5,-5.6,94,11,6000,18.52,,,200,10.5,15,,,,,,,,60,wg-a,,,,AAXX 11184 07070 02456 82010 10120 20110 39887 49995 56056 61000 76062 877// 91800 333 10150 20105 6008=
07070,1997-10-11 21:00:00,15,996.8,-2.5,94,14,7000,22.224,,,250,,,,2,,,,,,1,wg-a,,,,AAXX 11214 07070 12457 82512 10150 20140 39862 49968 56025 60027 70162 876// 92100=
07070,1997-10-12 00:00:00,14,995.9,-0.9,88,12,8000,29.632,,,280,,,,1,,,,,,21,wg-a,,,,AAXX 12004 07070 02458 52816 10140 20120 39853 49959 57009 60036 72122 85800 90000 333 60017=
07070,1997-10-12 03:00:00,12,996.3,0.3,94,11,500,31.484,,,270,,,,1,,,,,,63,wg-a,,,,AAXX 12034 07070 12500 72717 10120 20110 39856 49963 50003 60017 76382 878// 90300=
07070,1997-10-12 06:00:00,11,999.2,2.8,94,10,10000,22.224,,,10,10.8,15.2,,,,,,,,60,wg-a,,,,AAXX 12064 07070 02360 80112 10110 20100 39884 49992 53028 61000 76062 8682/ 90600 333 10152 20108 6020=
07070,1997-10-12 09:00:00,12,1004.7,5.5,82,9,15000,22.224,,,10,,,,,,,,,,1,wg-a,,,,AAXX 12094 07070 02465 20112 10120 20090 39939 40047 51055 61000 70161 81231 90900 333 ////=
07070,1997-10-12 12:00:00,14,1008.1,3.4,67,8,20000,25.928,,,10,,,,,,,,,,3,wg-a,,,,AAXX 12124 07070 02570 70114 10140 20080 39973 40081 51034 61000 70361 878// 91200 333 ////=
07070,1997-10-12 15:00:00,12,1010.5,2.3,82,9,15000,25.928,,,340,,,,1,,,,,,25,wg-a,,,,AAXX 12154 07070 12565 73414 10120 20090 39996 40105 53023 60017 72581 8583/ 91500=
07070,1997-10-12 18:00:00,10,1013.8,3.2,87,8,15000,18.52,,,330,10.2,15.2,,0,,,,,,1,wg-a,,,,AAXX 12184 07070 02665 /3310 10100 20080 30028 40138 51032 60006 70181 81230 91800 333 10152 20102 60007=
07070,1997-10-12 21:00:00,8,1015.9,2,87,6,15000,14.816,,,300,,,,,,,,,,,wg-a,,,,AAXX 12214 07070 12565 73008 10080 20060 30048 40159 51020 60006 878// 92100=
07070,1997-10-13 00:00:00,8,1016.2,0.3,87,6,15000,14.816,,,280,,,,,,,,,,,wg-a,,,,AAXX 13004 07070 12565 72808 10080 20060 30051 40162 50003 60006 878// 90000=
07070,1997-10-13 03:00:00,7,1015.9,-0.3,87,5,15000,11.112,,,280,,,,,,,,,,,wg-a,,,,AAXX 13034 07070 12765 72806 10070 20050 30048 40159 56003 60006 875// 90300=
07070,1997-10-13 06:00:00,6,1016,0,87,4,10000,18.52,,,290,5.6,10.4,,,,,1,,,,wg-a,,,,AAXX 13064 07070 02560 72910 10060 20040 30048 40160 50000 60006 8683/ 90600 333 10104 20056 60014=
07070,1997-10-13 09:00:00,8,1016.4,0.5,81,5,15000,14.816,,,260,,,,,,,,,,,wg-a,,,,AAXX 13094 07070 12665 72608 10080 20050 30053 40164 50005 60006 878// 90900=
07070,1997-10-13 12:00:00,10,1015.6,-0.7,71,5,20000,22.224,,,320,,,,,,,,,,,wg-a,,,,AAXX 13124 07070 12570 73212 10100 20050 30046 40156 58007 60006 8523/ 91200=
07070,1997-10-13 15:00:00,9,1015.2,-0.4,93,8,7000,18.52,,,310,,,,1,,,,,,61,wg-a,,,,AAXX 13154 07070 12457 83110 10090 20080 30042 40152 55004 60017 76162 875// 91500=
07070,1997-10-13 18:00:00,7,1017.3,1.9,93,6,12000,18.52,,,310,5.9,11,,2,,,,,,1,wg-a,,,,AAXX 13184 07070 02562 23110 10070 20060 30061 40173 53019 60006 70161 81530 91800 333 10110 20059 60027=
07070,1997-10-13 21:00:00,6,1019,1.7,93,5,15000,18.52,,,310,,,,,,,,,,,wg-a,,,,AAXX 13214 07070 32/65 03110 10060 20050 30078 40190 53017 80000 92100=
07070,1997-10-14 00:00:00,6,1019.8,0.8,93,5,15000,18.52,,,310,,,,,,,,,,,wg-a,,,,AAXX 14004 07070 12665 73110 10060 20050 30086 40198 53008 60006 8357/ 90000=
07070,1997-10-14 03:00:00,7,1020.7,0.9,93,6,10000,18.52,,,320,,,,,,,,,,,wg-a,,,,AAXX 14034 07070 12660 73210 10070 20060 30095 40207 53009 60006 875// 90300=
07070,1997-10-14 06:00:00,8,1022.1,1.4,93,7,12000,18.52,,,310,5.4,7.6,,,,,,,,21,wg-a,,,,AAXX 14064 07070 02462 73110 10080 20070 30109 40221 52014 61000 72161 875// 90600 333 10076 20054 6003=
07070,1997-10-14 09:00:00,10,1023.7,1.7,82,7,12000,25.928,,,330,,,,,,,,,,3,wg-a,,,,AAXX 14094 07070 12462 73314 10100 20070 30126 40237 51017 60006 70382 878// 90900=
07070,1997-10-14 12:00:00,11,1023.5,0.2,76,7,18000,25.928,,,300,,,,,,,,,,3,wg-a,,,,AAXX 14124 07070 12468 73014 10110 20070 30124 40235 50002 60006 70382 85832 91200=
07070,1997-10-14 15:00:00,9,1022.8,-0.7,87,7,15000,29.632,,,320,,,,,,,,,,80,wg-a,,,,AAXX 14154 07070 02565 73216 10090 20070 30117 40228 58007 61000 78082 878// 91500 333 ////=
07070,1997-10-14 18:00:00,8,1022.4,-0.5,93,7,15000,7.408,,,240,7.5,11.3,,,,,,,,3,wg-a,,,,AAXX 14184 07070 12565 72404 10080 20070 30112 40224 58005 60006 70382 8487/ 91800 333 10113 20075=
07070,1997-10-14 21:00:00,8,1022.5,0.1,87,6,10000,11.112,,,270,,,,,,,,,,,wg-a,,,,AAXX 14214 07070 12760 72706 10080 20060 30113 40225 50001 60006 8257/ 92100=
07070,1997-10-15 00:00:00,7,1021.1,-1.4,87,5,9000,7.408,,,230,,,,0,,,,,,21,wg-a,,,,AAXX 15004 07070 02659 82304 10070 20050 30099 40211 58014 60016 72162 8357/ 90000 333 60007=
07070,1997-10-15 03:00:00,7,1018.4,-2.7,87,5,8000,14.816,,,230,,,,0,,,,,,2,wg-a,,,,AAXX 15034 07070 12558 82308 10070 20050 30072 40184 58027 60007 70262 8257/ 90300=
07070,1997-10-15 06:00:00,6,1015.6,-2.8,100,6,4000,11.112,,,210,6.1,8.7,,,,,,,,10,wg-a,,,,AAXX 15064 07070 02440 82106 10060 20060 30044 40156 56028 61000 71066 8687/ 90600 333 10087 20061 6004=
07070,1997-10-15 09:00:00,8,1012.9,-2.6,93,7,4500,18.52,,,200,,,,2,,,,,,10,wg-a,,,,AAXX 15094 07070 12445 82010 10080 20070 30018 40129 57026 60027 71065 877// 90900=
07070,1997-10-15 12:00:00,9,1011.1,-1.7,100,9,2500,14.816,,,210,,,,5,,,,,,51,wg-a,,,,AAXX 15124 07070 02425 82108 10090 20090 30001 40111 56017 60066 75165 877// 91200 333 60057=
07070,1997-10-15 15:00:00,10,1009.7,-1.3,93,9,8000,7.408,,,210,,,,0,,,,,,20,wg-a,,,,AAXX 15154 07070 12358 82104 10100 20090 39988 40097 56013 60007 72065 877// 91500=
07070,1997-10-15 18:00:00,10,1010.4,0.6,100,10,1600,3.704,,,200,6.2,10.4,,,,,,,,10,wg-a,,,,AAXX 15184 07070 02016 82002 10100 20100 39994 40104 53006 61000 71065 887// 91800 333 10104 20062 6100=
07070,1997-10-15 21:00:00,10,1011.5,1.1,100,10,1200,7.408,,,340,,,,,,,,,,10,wg-a,,,,AAXX 15214 07070 02112 83404 10100 20100 30005 40115 53011 61000 71022 886// 92100 333 ////=
07070,1997-10-16 00:00:00,10,1012.1,0.6,93,9,3000,7.408,,,340,,,,0,,,,,,10,wg-a,,,,AAXX 16004 07070 02230 83404 10100 20090 30011 40121 50006 60006 71022 885// 90000 333 60007=
07070,1997-10-16 03:00:00,9,1012.4,0.3,100,9,4500,11.112,,,340,,,,,,,,,,10,wg-a,,,,AAXX 16034 07070 12345 83406 10090 20090 30014 40124 52003 60006 71022 885// 90300=
07070,1997-10-16 06:00:00,9,1014,1.5,93,8,4000,7.408,,,350,8.7,10.3,,,,,7,,,10,wg-a,,,,AAXX 16064 07070 02440 73504 10090 20080 30029 40140 52015 60006 71022 85531 90600 333 10103 20087 60074=
07070,1997-10-16 09:00:00,9,1015.9,1.9,93,8,6000,11.112,,,320,,,,,,,,,,,wg-a,,,,AAXX 16094 07070 12456 73206 10090 20080 30048 40159 51019 60006 875// 90900=
07070,1997-10-16 12:00:00,11,1016,0.2,82,8,15000,0,,,0,,,,,,,,,,,wg-a,,,,AAXX 16124 07070 12465 70000 10110 20080 30050 40160 50002 60006 878// 91200=
07070,1997-10-16 15:00:00,12,1015.5,-0.5,71,7,20000,7.408,,,220,,,,,,,,,,,wg-a,,,,AAXX 16154 07070 12570 72204 10120 20070 30045 40155 57005 60006 84232 91500=
07070,1997-10-16 18:00:00,10,1016.6,1.1,87,8,15000,11.112,,,160,8.3,12.2,,,,,,,,,wg-a,,,,AAXX 16184 07070 12565 71606 10100 20080 30056 40166 51011 60006 81532 91800 333 10122 20083=
07070,1997-10-16 21:00:00,9,1017,0.3,93,8,8000,11.112,,,180,,,,,,,,,,,wg-a,,,,AAXX 16214 07070 12/58 31806 10090 20080 30059 40170 50003 60006 81031 92100=
07070,1997-10-17 00:00:00,9,1016.5,-0.5,93,8,500,11.112,,,180,,,,,,,,,,,wg-a,,,,AAXX 17004 07070 12700 71806 10090 20080 30054 40165 56005 60006 875// 90000=
07070,1997-10-17 03:00:00,9,1016.2,-0.3,93,8,6000,11.112,,,190,,,,,,,,,,,wg-a,,,,AAXX 17034 07070 12756 71906 10090 20080 30051 40162 58003 60006 875// 90300=
07070,1997-10-17 06:00:00,8,1016.8,0.6,100,8,3500,14.816,,,170,8,10,,,,,,,,10,wg-a,,,,AAXX 17064 07070 12535 41708 10080 20080 30057 40168 53006 60006 71011 82501 90600 333 10100 20080=
07070,1997-10-17 09:00:00,11,1018,1.3,100,11,2400,14.816,,,170,,,,,,,,,,10,wg-a,,,,AAXX 17094 07070 12224 51708 10110 20110 30070 40180 51013 60006 71022 83601 90900=
07070,1997-10-17 12:00:00,16,1017.3,-0.5,72,11,10000,25.928,,,160,,,,,,,,,,,wg-a,,,,AAXX 17124 07070 12560 31614 10160 20110 30065 40173 58005 60006 81101 91200=
07070,1997-10-17 15:00:00,17,1016.2,-1.1,72,12,20000,25.928,,,150,,,,,,,,,,,wg-a,,,,AAXX 17154 07070 12/70 61514 10170 20120 30054 40162 58011 60006 80001 91500=
07070,1997-10-17 18:00:00,13,1016.7,0.4,88,11,15000,11.112,,,100,8.1,17.3,,,,,,,,,wg-a,,,,AAXX 17184 07070 12/65 61006 10130 20110 30058 40167 53004 60006 80002 91800 333 10173 20081=
07070,1997-10-17 21:00:00,11,1017.9,1.1,94,10,10000,14.816,,,120,,,,,,,,,,,wg-a,,,,AAXX 17214 07070 12/60 71208 10110 20100 30069 40179 53011 60006 80002 92100=
07070,1997-10-18 00:00:00,10,1019.1,1.1,93,9,8000,3.704,,,80,,,,,,,,,,,wg-a,,,,AAXX 18004 07070 12/58 70802 10100 20090 30080 40191 53011 60006 80001 90000=
07070,1997-10-18 03:00:00,10,1019.1,0.1,93,9,8000,11.112,,,140,,,,,,,,,,,wg-a,,,,AAXX 18034 07070 12/58 /1406 10100 20090 30081 40191 50001 60006 80001 90300=
07070,1997-10-18 06:00:00,11,1019.7,0.6,87,9,12000,18.52,,,170,8.9,12.4,,,,,,,,,wg-a,,,,AAXX 18064 07070 12/62 61710 10110 20090 30087 40197 53006 60006 80001 90600 333 10124 20089=
07070,1997-10-18 09:00:00,14,1021.1,1.5,88,12,10000,22.224,,,170,,,,,,,,,,,wg-a,,,,AAXX 18094 07070 12/60 11712 10140 20120 30102 40211 51015 60006 80001 90900=
07070,1997-10-18 12:00:00,18,1020.4,-0.5,77,14,12000,18.52,,,160,,,,,,,,,,,wg-a,,,,AAXX 18124 07070 12/62 01610 10180 20140 30097 40204 58005 60006 80000 91200=
07070,1997-10-18 15:00:00,20,1019.8,-0.6,68,14,12000,18.52,,,150,,,,,,,,,,,wg-a,,,,AAXX 18154 07070 12/62 01510 10200 20140 30091 40198 56006 60006 80000 91500=
07070,1997-10-18 18:00:00,15,1020,0.2,82,12,15000,7.408,,,170,10.7,19.8,,,,,,,,,wg-a,,,,AAXX 18184 07070 12/65 11704 10150 20120 30091 40200 53002 60006 80001 91800 333 10198 20107=
07070,1997-10-18 21:00:00,13,1020.2,0.2,94,12,15000,7.408,,,190,,,,,,,,,,,wg-a,,,,AAXX 18214 07070 12/65 01904 10130 20120 30093 40202 52002 60006 80000 92100=
07070,1997-10-19 00:00:00,10,1019.8,-0.6,93,9,10000,3.704,,,30,,,,,,,,,,,wg-a,,,,AAXX 19004 07070 12/60 00302 10100 20090 30087 40198 58006 60006 80000 90000=
07070,1997-10-19 03:00:00,11,1018.9,-0.8,94,10,10000,3.704,,,120,,,,,,,,,,,wg-a,,,,AAXX 19034 07070 12/60 01202 10110 20100 30079 40189 58008 60006 80000 90300=
07070,1997-10-19 06:00:00,11,1018.6,-0.3,94,10,10000,11.112,,,160,8.9,14.5,,,,,,,,,wg-a,,,,AAXX 19064 07070 12/60 01606 10110 20100 30076 40186 58003 60006 80000 90600 333 10145 20089=
07070,1997-10-19 09:00:00,15,1018.6,0.1,82,12,10000,14.816,,,180,,,,0,,,,,,,wg-a,,,,AAXX 19094 07070 12/60 11808 10150 20120 30077 40186 50001 60007 80001 90900=
07070,1997-10-19 12:00:00,19,1017,-1.4,73,14,12000,11.112,,,160,,,,,,,,,,,wg-a,,,,AAXX 19124 07070 12/62 11606 10190 20140 30063 40170 58014 60006 80001 91200=
07070,1997-10-19 15:00:00,19,1016,,78,15,12000,11.112,,,140,,,,,,,,,,,wg-a,,,,AAXX 19154 07070 12/62 11406 10190 20150 30053 40160 60006 80001 91500=
07070,1997-10-19 18:00:00,13,1015.9,-0.3,88,11,12000,7.408,,,170,10.6,19.7,,,,,,,,,wg-a,,,,AAXX 19184 07070 12/62 21704 10130 20110 30050 40159 55003 60006 80001 91800 333 10197 20106=
07070,1997-10-20 00:00:00,8,1015.3,-0.6,93,7,300,0,,,0,,,,,,,,,,44,wg-a,,,,AAXX 20004 07070 12/03 70000 10080 20070 30042 40153 57006 60006 74441 80001 90000=
07070,1997-10-20 03:00:00,7,1014.9,-0.5,93,6,100,0,,,0,,,,,,,,,,45,wg-a,,,,AAXX 20034 07070 12/01 90000 10070 20060 30037 40149 55005 60006 74544 89/// 90300=
07070,1997-10-20 06:00:00,8,1014.2,-0.6,100,8,500,0,,,0,6.4,12.9,,,,,1,,,45,wg-a,,,,AAXX 20064 07070 02/00 90000 10080 20080 30031 40142 56006 60006 74544 89/// 90600 333 10129 20064 60014=
07070,1997-10-20 09:00:00,9,1014.6,0.5,100,9,200,0,,,0,,,,,,,,,,43,wg-a,,,,AAXX 20094 07070 12/02 90000 10090 20090 30036 40146 52005 60006 74344 89/// 90900=
07070,1997-10-20 12:00:00,13,1013.4,-1.1,100,13,4500,7.408,,,360,,,,,,,,,,10,wg-a,,,,AAXX 20124 07070 12445 /3604 10130 20130 30025 40134 58011 60006 71042 84602 91200=
07070,1997-10-20 15:00:00,16,1012.4,-0.8,88,14,7000,7.408,,,340,,,,,,,,,,,wg-a,,,,AAXX 20154 07070 12/57 73404 10160 20140 30017 40124 57008 60006 8707/ 91500=
07070,1997-10-20 18:00:00,13,1014.1,1.5,94,12,3500,14.816,,,50,7.6,15.9,,,,,,,,10,wg-a,,,,AAXX 20184 07070 02735 80508 10130 20120 30032 40141 51015 61000 71062 875// 91800 333 10159 20076 6100=
07070,1997-10-20 21:00:00,11,1014.4,0.2,94,10,500,22.224,,,60,,,,,,,,,,1,wg-a,,,,AAXX 20214 07070 02400 80612 10110 20100 30034 40144 53002 61000 70162 875// 92100 333 ////=
07070,1997-10-21 00:00:00,11,1014.3,-0.1,87,9,8000,29.632,,,60,,,,,,,,,,1,wg-a,,,,AAXX 21004 07070 02458 80616 10110 20090 30033 40143 55001 61000 70162 885// 90000 333 ////=
07070,1997-10-21 03:00:00,9,1014.1,-0.2,87,7,10000,18.52,,,70,,,,,,,,,,,wg-a,,,,AAXX 21034 07070 12460 70710 10090 20070 30031 40141 55002 60006 8557/ 90300=
07070,1997-10-21 06:00:00,8,1014.8,0.6,87,6,10000,18.52,,,60,7.4,13,,,,,,,,,wg-a,,,,AAXX 21064 07070 02560 /0610 10080 20060 30037 40148 52006 60006 81531 90600 333 10130 20074 61000=
07070,1997-10-21 09:00:00,10,1015.1,0.4,82,7,10000,25.928,,,80,,,,,,,,,,,wg-a,,,,AAXX 21094 07070 12560 50814 10100 20070 30041 40151 51004 60006 82132 90900=
07070,1997-10-21 12:00:00,13,1014.9,-0.1,72,8,15000,29.632,,,90,,,,,,,,,,,wg-a,,,,AAXX 21124 07070 12565 /0916 10130 20080 30040 40149 57001 60006 82101 91200=
07070,1997-10-21 15:00:00,13,1014.9,-0,67,7,20000,25.928,,,100,,,,,,,,,,,wg-a,,,,AAXX 21154 07070 12/70 11014 10130 20070 30040 40149 54000 60006 80001 91500=
07070,1997-10-21 18:00:00,8,1016.1,1,76,4,20000,11.112,,,90,7,13.4,,,,,,,,,wg-a,,,,AAXX 21184 07070 12/70 10906 10080 20040 30050 40161 53010 60006 80002 91800 333 10134 20070=
07070,1997-10-21 21:00:00,4,1016.5,0.2,81,1,20000,7.408,,,80,,,,,,,,,,,wg-a,,,,AAXX 21214 07070 12/70 00804 10040 20010 30052 40165 52002 60006 80000 92100=
07070,1997-10-22 00:00:00,1,1015.9,-0.7,86,-1,15000,3.704,,,60,,,,,,,,,,,wg-a,,,,AAXX 22004 07070 12/65 00602 10010 21010 30045 40159 58007 60006 80000 90000=
07070,1997-10-22 03:00:00,0,1014.7,-1.2,93,-1,15000,3.704,,,40,,,,,,,,,,,wg-a,,,,AAXX 22034 07070 12/65 00402 10000 21010 30033 40147 58012 60006 80000 90300=
07070,1997-10-22 06:00:00,-1,1014.5,-0.3,93,-2,12000,3.704,,,50,-1,7.7,,,,,,,,,wg-a,,,,AAXX 22064 07070 12/62 00502 11010 21020 30030 40145 56003 60006 80000 90600 333 10077 21010=
07070,1997-10-22 09:00:00,4,1014.4,0.1,93,3,12000,11.112,,,70,,,,,,,,,,,wg-a,,,,AAXX 22094 07070 12/62 10706 10040 20030 30031 40144 50001 60006 80001 90900=
07070,1997-10-22 12:00:00,10,1013.1,-1,82,7,10000,11.112,,,90,,,,,,,,,,,wg-a,,,,AAXX 22124 07070 12/60 10906 10100 20070 30021 40131 58010 60006 81030 91200=
07070,1997-10-22 15:00:00,12,1012.3,-0.7,71,7,10000,11.112,,,80,,,,,,,,,,,wg-a,,,,AAXX 22154 07070 12/60 30806 10120 20070 30014 40123 56007 60006 83030 91500=
07070,1997-10-22 18:00:00,6,1013.5,0.9,87,4,7000,7.408,,,100,-1.2,12,,,,,,,,,wg-a,,,,AAXX 22184 07070 12/57 31004 10060 20040 30023 40135 53009 60006 83030 91800 333 10120 21012=
07070,1997-10-22 21:00:00,2,1014.1,0.5,93,1,500,11.112,,,60,,,,,,,,,,,wg-a,,,,AAXX 22214 07070 12/00 00606 10020 20010 30028 40141 53005 60006 80000 92100=
07070,1997-10-23 00:00:00,1,1014.4,0.2,93,0,2000,7.408,,,60,,,,,,,,,,10,wg-a,,,,AAXX 23004 07070 12/20 00604 10010 20000 30030 40144 50002 60006 71000 80000 90000=
07070,1997-10-23 03:00:00,-2,1014.3,-0.2,100,-2,200,3.704,,,100,,,,,,,,,,44,wg-a,,,,AAXX 23034 07070 12/02 01002 11020 21020 30028 40143 57002 60006 74444 80000 90300=
07070,1997-10-23 06:00:00,-2,1014.8,0.5,93,-3,500,0,,,0,-2.4,5.4,,,,,,,,49,wg-a,,,,AAXX 23064 07070 02/00 90000 11020 21030 30033 40148 53005 60006 74940 89/// 90600 333 10054 21024 60004=
07070,1997-10-23 09:00:00,0,1015.6,0.8,100,0,500,3.704,,,60,,,,,,,,,,47,wg-a,,,,AAXX 23094 07070 32/00 90602 10000 20000 30041 40156 51008 74744 89/// 90900=
07070,1997-10-23 12:00:00,7,1015.2,-0.1,87,5,4200,3.704,,,310,,,,,,,,,,10,wg-a,,,,AAXX 23124 07070 12/42 /3102 10070 20050 30040 40152 58001 60006 71041 80001 91200=
07070,1997-10-23 15:00:00,13,1014.2,-0.7,47,2,10000,11.112,,,40,,,,,,,,,,,wg-a,,,,AAXX 23154 07070 12/60 00406 10130 20020 30033 40142 55007 60006 80000 91500=
07070,1997-10-23 18:00:00,7,1016,1.5,81,4,10000,14.816,,,10,-3,12.5,,,,,,,,,wg-a,,,,AAXX 23184 07070 12/60 00108 10070 20040 30048 40160 53015 60006 80000 91800 333 10125 21030=
07070,1997-10-24 00:00:00,1,1019.2,1.1,93,0,10000,0,,,0,,,,,,,,,,,wg-a,,,,AAXX 24004 07070 12660 /0000 10010 20000 30077 40192 51011 60006 86500 90000=
07070,1997-10-24 03:00:00,4,1020,1,93,3,6000,0,,,0,,,,,,,,,,,wg-a,,,,AAXX 24034 07070 12656 70000 10040 20030 30087 40200 51010 60006 875// 90300=
07070,1997-10-24 06:00:00,5,1021.6,1.6,93,4,500,0,,,0,0.4,7.4,,,,,,,,,wg-a,,,,AAXX 24064 07070 02600 70000 10050 20040 30103 40216 53016 60006 875// 90600 333 10074 20004 60004=
07070,1997-10-24 09:00:00,8,1023.8,2.3,87,6,8000,11.112,,,30,,,,,,,,,,,wg-a,,,,AAXX 24094 07070 12558 70306 10080 20060 30126 40238 51023 60006 828// 90900=
07070,1997-10-24 12:00:00,10,1024.7,1,62,3,20000,25.928,,,60,,,,,,,,,,,wg-a,,,,AAXX 24124 07070 12670 70614 10100 20030 30136 40247 51010 60006 878// 91200=
07070,1997-10-24 15:00:00,10,1025.3,0.6,57,2,20000,14.816,,,50,,,,,,,,,,,wg-a,,,,AAXX 24154 07070 12670 40508 10100 20020 30142 40253 53006 60006 84500 91500=
07070,1997-10-24 18:00:00,4,1026.9,1.3,81,1,15000,7.408,,,10,4.1,11,,,,,,,,,wg-a,,,,AAXX 24184 07070 12/65 00104 10040 20010 30155 40269 53013 60006 80000 91800 333 10110 20041=
07070,1997-10-24 21:00:00,1,1028,1,93,0,12000,0,,,0,,,,,,,,,,,wg-a,,,,AAXX 24214 07070 12/62 00000 10010 20000 30165 40280 51010 60006 80000 92100=
07070,1997-10-25 00:00:00,0,1028.2,0.1,93,-1,10000,3.704,,,250,,,,,,,,,,,wg-a,,,,AAXX 25004 07070 12/60 02502 10000 21010 30166 40282 53001 60006 80000 90000=
07070,1997-10-25 03:00:00,-1,1028.7,0.5,93,-2,10000,3.704,,,260,,,,,,,,,,,wg-a,,,,AAXX 25034 07070 12/60 02602 11010 21020 30171 40287 52005 60006 80000 90300=
07070,1997-10-25 06:00:00,-2,1029.4,0.6,93,-3,500,3.704,,,280,-2.1,4.1,,,,,,,,,wg-a,,,,AAXX 25064 07070 02700 22802 11020 21030 30177 40294 52006 60006 82500 90600 333 10041 21021 61000=
07070,1997-10-25 09:00:00,3,1029.8,0.6,100,3,500,3.704,,,250,,,,,,,,,,,wg-a,,,,AAXX 25094 07070 12600 /2502 10030 20030 30183 40298 50006 60006 85500 90900=
07070,1997-10-25 12:00:00,10,1028.9,-0.6,71,5,11000,7.408,,,30,,,,,,,,,,,wg-a,,,,AAXX 25124 07070 12/61 /0304 10100 20050 30177 40289 58006 60006 91200=
07070,1997-10-25 15:00:00,11,1027.8,-1,58,3,20000,7.408,,,10,,,,,,,,,,,wg-a,,,,AAXX 25154 07070 12670 /0104 10110 20030 30167 40278 57010 60006 86500 91500=
07070,1997-10-25 18:00:00,6,1028.2,0.2,81,3,10000,0,,,0,-2.2,12,,,,,,,,,wg-a,,,,AAXX 25184 07070 12/60 00000 10060 20030 30169 40282 53002 60006 80000 91800 333 10120 21022=
07070,1997-10-25 21:00:00,2,1028.5,0.1,93,1,15000,0,,,0,,,,,,,,,,,wg-a,,,,AAXX 25214 07070 12/65 00000 10020 20010 30170 40285 51001 60006 80000 92100=
07070,1997-10-26 00:00:00,0,1028.1,-0.5,93,-1,12000,0,,,0,,,,,,,,,,,wg-a,,,,AAXX 26004 07070 12/62 00000 10000 21010 30165 40281 57005 60006 80000 90000=
07070,1997-10-26 03:00:00,-1,1027.2,-0.9,100,-1,900,3.704,,,240,,,,,,,,,,41,wg-a,,,,AAXX 26034 07070 12/09 02402 11010 21010 30156 40272 58009 60006 74140 80000 90300=
07070,1997-10-26 06:00:00,-2,1027.3,-0,100,-2,200,0,,,0,-2,6,,,,,,,,49,wg-a,,,,AAXX 26064 07070 12/02 90000 11020 21020 30156 40273 55000 60006 74941 89/// 90600 333 10060 21020=
07070,1997-10-26 09:00:00,0,1027.9,0.7,100,0,200,0,,,0,,,,,,,,,,43,wg-a,,,,AAXX 26094 07070 32/02 90000 10000 20000 30163 40279 50007 74344 89/// 90900=
07070,1997-10-26 12:00:00,7,1026.7,-0.9,100,7,3000,0,,,0,,,,,,,,,,10,wg-a,,,,AAXX 26124 07070 12/30 /0000 10070 20070 30154 40267 58009 60006 71041 80001 91200=
07070,1997-10-26 15:00:00,11,1024.8,-1.7,71,6,6000,7.408,,,50,,,,,,,,,,,wg-a,,,,AAXX 26154 07070 12556 30504 10110 20060 30137 40248 56017 60006 82801 91500=
07070,1997-10-26 18:00:00,7,1025.1,0.1,87,5,10000,7.408,,,40,-1.7,11.7,,,,,,,,,wg-a,,,,AAXX 26184 07070 12660 40404 10070 20050 30138 40251 53001 60006 81501 91800 333 10117 21017=
07070,1997-10-26 21:00:00,4,1025.1,-0.1,100,4,10000,7.408,,,60,,,,,,,,,,,wg-a,,,,AAXX 26214 07070 12/60 00604 10040 20040 30137 40251 58001 60006 80000 92100=
07070,1997-10-27 00:00:00,3,1025,-0.1,93,2,7000,7.408,,,50,,,,,,,,,,,wg-a,,,,AAXX 27004 07070 12757 80504 10030 20020 30136 40250 57001 60006 885// 90000=
07070,1997-10-27 03:00:00,1,1024.9,-0.2,100,1,500,0,,,0,,,,,,,,,,,wg-a,,,,AAXX 27034 07070 12700 80000 10010 20010 30134 40249 55002 60006 885// 90300=
07070,1997-10-27 06:00:00,-1,1025.3,0.3,100,-1,7000,0,,,0,-0.6,6.7,,,,,,,,11,wg-a,,,,AAXX 27064 07070 02757 20000 11010 21010 30137 40253 53003 60006 71111 81570 90600 333 10067 21006 60004=
07070,1997-10-27 09:00:00,4,1026.1,1,93,3,9000,3.704,,,50,,,,0,,,,,,,wg-a,,,,AAXX 27094 07070 12659 /0502 10040 20030 30147 40261 51010 60007 86500 90900=
07070,1997-10-27 12:00:00,11,1025.1,-0.7,71,6,12000,18.52,,,90,,,,,,,,,,,wg-a,,,,AAXX 27124 07070 12562 /0910 10110 20060 30140 40251 58007 60006 85200 91200=
07070,1997-10-27 18:00:00,4,1026.4,1.1,81,1,12000,22.224,,,90,,11,,,,,,,,,wg-a,,,,AAXX 27184 07070 12662 /0912 10040 20010 30150 40264 53011 60006 81500 91800 333 10110=
07070,1997-10-27 21:00:00,0,1028,1.3,74,-4,10000,7.408,,,70,,,,,,,,,,,wg-a,,,,AAXX 27214 07070 12/60 00704 10000 21040 30164 40280 52013 60006 80000 92100=
07070,1997-10-28 00:00:00,-1,1028.2,0.2,74,-5,20000,18.52,,,70,,,,,,,,,,,wg-a,,,,AAXX 28004 07070 12/70 00710 11010 21050 30166 40282 51002 60006 80000 90000=
07070,1997-10-28 03:00:00,-1,1028.7,0.4,74,-5,20000,22.224,,,60,,,,,,,,,,,wg-a,,,,AAXX 28034 07070 12/70 00612 11010 21050 30170 40287 51004 60006 80000 90300=
07070,1997-10-28 06:00:00,-1,1029.1,0.5,74,-5,20000,29.632,,,70,-2,3.5,,,,,,,,,wg-a,,,,AAXX 28064 07070 02/70 00716 11010 21050 30175 40291 53005 60006 80000 90600 333 10035 21020 60004=
07070,1997-10-28 09:00:00,2,1030.8,1.8,60,-5,20000,29.632,,,80,,,,,,,,,,,wg-a,,,,AAXX 28094 07070 12/70 00816 10020 21050 30193 40308 51018 60006 80000 90900=
07070,1997-10-28 12:00:00,7,1030.9,0.3,33,-8,25000,35.188,,,80,,,,,,,,,,,wg-a,,,,AAXX 28124 07070 12/75 00819 10070 21080 30196 40309 53003 60006 80000 91200=
07070,1997-10-28 15:00:00,7,1031.3,0.4,24,-12,25000,38.892,,,80,,,,,,,,,,,wg-a,,,,AAXX 28154 07070 12/75 00821 10070 21120 30200 40313 51004 60006 80000 91500=
07070,1997-10-28 18:00:00,2,1033.2,1.6,47,-8,20000,18.52,,,50,-0.9,7.6,,,,,,,,,wg-a,,,,AAXX 28184 07070 12/70 00510 10020 21080 30216 40332 53016 60006 80000 91800 333 10076 21009=
07070,1997-10-28 21:00:00,-1,1034.5,1.2,64,-7,15000,7.408,,,70,,,,,,,,,,,wg-a,,,,AAXX 28214 07070 12/65 00704 11010 21070 30228 40345 53012 60006 80000 92100=
07070,1997-10-29 00:00:00,-1,1034.9,0.4,59,-8,10000,11.112,,,30,,,,,,,,,,,wg-a,,,,AAXX 29004 07070 12/60 /0306 11010 21080 30232 40349 53004 60006 90000=
07070,1997-10-29 03:00:00,-3,1035.1,0.1,74,-7,10000,7.408,,,20,,,,,,,,,,,wg-a,,,,AAXX 29034 07070 12/60 00204 11030 21070 30233 40351 51001 60006 80000 90300=
07070,1997-10-29 06:00:00,-5,1035.2,-0,86,-7,20000,7.408,,,340,-4.9,1.5,,,,,,,,,wg-a,,,,AAXX 29064 07070 12/70 03404 11050 21070 30233 40352 55000 60006 80000 90600 333 10015 21049=
07070,1997-10-29 09:00:00,2,1035.5,0.6,55,-6,12000,14.816,,,60,,,,,,,,,,,wg-a,,,,AAXX 29094 07070 12/62 20608 10020 21060 30239 40355 51006 60006 80001 90900=
07070,1997-10-29 12:00:00,8,1034.1,-1.1,29,-9,20000,18.52,,,80,,,,,,,,,,,wg-a,,,,AAXX 29124 07070 12/70 30810 10080 21090 30228 40341 58011 60006 80001 91200=
07070,1997-10-29 15:00:00,10,1033,-1.1,25,-9,25000,18.52,,,70,,,,,,,,,,,wg-a,,,,AAXX 29154 07070 12/75 30710 10100 21090 30217 40330 56011 60006 80001 91500=
07070,1997-10-29 18:00:00,3,1033.5,0.3,52,-6,20000,14.816,,,90,-4.9,9.8,,,,,,,,,wg-a,,,,AAXX 29184 07070 12/70 60908 10030 21060 30220 40335 53003 60006 80001 91800 333 10098 21049=
07070,1997-10-29 21:00:00,0,1034.2,0.5,59,-7,15000,0,,,0,,,,,,,,,,,wg-a,,,,AAXX 29214 07070 12/65 60000 10000 21070 30225 40342 53005 60006 80001 92100=
07070,1997-10-30 00:00:00,-3,1033.7,-0.6,74,-7,15000,0,,,0,,,,,,,,,,,wg-a,,,,AAXX 30004 07070 12/65 20000 11030 21070 30219 40337 58006 60006 80001 90000=
07070,1997-10-30 03:00:00,-4,1032.4,-1.3,80,-7,15000,0,,,0,,,,,,,,,,,wg-a,,,,AAXX 30034 07070 12/65 00000 11040 21070 30206 40324 56013 60006 80000 90300=
07070,1997-10-30 06:00:00,-5,1032,-0.5,86,-7,20000,7.408,,,210,-5,3.3,,,,,,,,,wg-a,,,,AAXX 30064 07070 12/70 02104 11050 21070 30201 40320 57005 60006 80000 90600 333 10033 21050=
07070,1997-10-30 09:00:00,2,1031.4,-0.3,69,-3,20000,3.704,,,340,,,,,,,,,,,wg-a,,,,AAXX 30094 07070 12/70 13402 10020 21030 30198 40314 57003 60006 80001 90900=
07070,1997-10-30 12:00:00,11,1029.4,-1.6,37,-3,500,22.224,,,70,,,,,,,,,,,wg-a,,,,AAXX 30124 07070 12/00 00712 10110 21030 30182 40294 58016 60006 80000 91200=
07070,1997-10-30 18:00:00,8,1028.6,0.7,61,1,20000,18.52,,,20,-4.9,12.9,,,,,,,,,wg-a,,,,AAXX 30184 07070 12/70 20210 10080 20010 30173 40286 53007 60006 80001 91800 333 10129 21049=
07070,1997-10-30 21:00:00,2,1029.3,0.5,87,0,15000,3.704,,,180,,,,,,,,,,,wg-a,,,,AAXX 30214 07070 12/65 01802 10020 20000 30178 40293 51005 60006 80000 92100=
07070,1997-10-31 00:00:00,-1,1029.2,-0.2,93,-2,12000,3.704,,,20,,,,,,,,,,,wg-a,,,,AAXX 31004 07070 12/62 00202 11010 21020 30176 40292 55002 60006 80000 90000=
07070,1997-10-31 03:00:00,-2,1028.9,-0.4,93,-3,10000,0,,,0,,,,,,,,,,,wg-a,,,,AAXX 31034 07070 12/60 00000 11020 21030 30172 40289 56004 60006 80000 90300=
07070,1997-10-31 06:00:00,-3,1028.8,-0.1,100,-3,6000,3.704,,,260,-2.9,7.6,,,,,,,,,wg-a,,,,AAXX 31064 07070 12/56 02602 11030 21030 30171 40288 56001 60006 80000 90600 333 10076 21029=
07070,1997-10-31 09:00:00,1,1029.1,0.5,100,1,6000,3.704,,,50,,,,,,,,,,,wg-a,,,,AAXX 31094 07070 12/56 40502 10010 20010 30176 40291 51005 60006 84030 90900=
07070,1997-10-31 12:00:00,7,1027.7,-1.2,61,0,8000,11.112,,,70,,,,,,,,,,,wg-a,,,,AAXX 31124 07070 12/58 /0706 10070 20000 30164 40277 58012 60006 85030 91200=
07070,1997-10-31 15:00:00,7,1026.9,-0.8,70,2,9000,7.408,,,350,,,,,,,,,,,wg-a,,,,AAXX 31154 07070 12/59 73504 10070 20020 30156 40269 55008 60006 8703/ 91500=
07070,1997-10-31 18:00:00,5,1027.5,0.5,75,1,10000,11.112,,,40,-3.5,8.8,,,,,,,,,wg-a,,,,AAXX 31184 07070 12/60 70406 10050 20010 30161 40275 53005 60006 8703/ 91800 333 10088 21035=
07070,1997-10-31 21:00:00,2,1027.1,-0.5,87,0,8000,0,,,0,,,,,,,,,,,wg-a,,,,AAXX 31214 07070 12/58 00000 10020 20000 30156 40271 55005 60006 80000 92100=
07070,1997-11-01 00:00:00,-2,1026.9,-0.3,100,-2,7000,0,,,0,,,,,,,,,,,wg-a,,,,AAXX 01004 07070 12/57 00000 11020 21020 30153 40269 56003 60006 80000 90000=
07070,1997-11-01 03:00:00,-4,1026.2,-0.8,93,-5,7000,0,,,0,,,,,,,,,,,wg-a,,,,AAXX 01034 07070 12/57 00000 11040 21050 30145 40262 56008 60006 80000 90300=
07070,1997-11-01 06:00:00,-4,1025.8,-0.5,93,-5,1200,0,,,0,-4.4,5.2,,,,,,,,10,wg-a,,,,AAXX 01064 07070 12/12 00000 11040 21050 30140 40258 57005 60006 71000 80000 90600 333 10052 21044=
07070,1997-11-01 09:00:00,-1,1026.3,0.7,100,-1,800,0,,,0,,,,,,,,,,,wg-a,,,,AAXX 01094 07070 32/08 /0000 11010 21010 30147 40263 51007 90900=
07070,1997-11-01 12:00:00,7,1024.7,-1.3,66,1,7000,3.704,,,20,,,,,,,,,,,wg-a,,,,AAXX 01124 07070 12/57 00202 10070 20010 30134 40247 58013 60006 80000 91200=
07070,1997-11-01 15:00:00,7,1023.5,-1.1,61,0,8000,3.704,,,30,,,,,,,,,,,wg-a,,,,AAXX 01154 07070 12/58 00302 10070 20000 30123 40235 56011 60006 80000 91500=
07070,1997-11-01 18:00:00,0,1023.5,-0.3,86,-2,500,0,,,0,-5.2,7.7,,,,,,,,,wg-a,,,,AAXX 01184 07070 12/00 /0000 10000 21020 30120 40235 56003 60006 91800 333 10077 21052=
07070,1997-11-01 21:00:00,-2,1023.1,-0.5,93,-3,500,0,,,0,,,,,,,,,,,wg-a,,,,AAXX 01214 07070 12/00 00000 11020 21030 30115 40231 56005 60006 80000 92100=
07070,1997-11-02 00:00:00,-4,1023.1,-0.1,100,-4,3500,0,,,0,,,,,,,,,,10,wg-a,,,,AAXX 02004 07070 12/35 00000 11040 21040 30114 40231 57001 60006 71000 80000 90000=
07070,1997-11-02 03:00:00,-5,1022.5,-0.7,93,-6,100,0,,,0,,,,,,,,,,44,wg-a,,,,AAXX 02034 07070 12/01 00000 11050 21060 30107 40225 56007 60006 74440 80000 90300=
07070,1997-11-02 06:00:00,-5,1022.1,-0.3,100,-5,100,0,,,0,-5.2,0.3,,,,,,,,49,wg-a,,,,AAXX 02064 07070 02/01 90000 11050 21050 30104 40221 56003 60006 74940 89/// 90600 333 10003 21052 60004=
07070,1997-11-02 12:00:00,-1,1021.3,-1.1,100,-1,300,3.704,,,340,,,,,,,,,,43,wg-a,,,,AAXX 02124 07070 12/03 93402 11010 21010 30098 40213 58011 60006 74344 89/// 91200=
07070,1997-11-02 15:00:00,5,1019.3,-1.8,87,3,3000,3.704,,,340,,,,,,,,,,10,wg-a,,,,AAXX 02154 07070 12/30 03402 10050 20030 30080 40193 56018 60006 71000 80000 91500=
07070,1997-11-02 18:00:00,0,1019,-0.5,93,-1,1800,0,,,0,-4.6,5.2,,,,,,,,11,wg-a,,,,AAXX 02184 07070 12/18 00000 10000 21010 30075 40190 56005 60006 71100 80000 91800 333 10052 21046=
07070,1997-11-02 21:00:00,-2,1019.1,-0,100,-2,800,0,,,0,,,,,,,,,,48,wg-a,,,,AAXX 02214 07070 12/08 00000 11020 21020 30075 40191 55000 60006 74844 80000 92100=
07070,1997-11-03 00:00:00,-4,1018.7,-0.4,100,-4,100,0,,,0,,,,,,,,,,49,wg-a,,,,AAXX 03004 07070 12/01 90000 11040 21040 30071 40187 58004 60006 74944 89/// 90000=
07070,1997-11-03 06:00:00,-4,1017.3,-0.6,93,-5,800,0,,,0,-5,0.2,,,,,,,,48,wg-a,,,,AAXX 03064 07070 12/08 00000 11040 21050 30056 40173 56006 60006 74844 80000 90600 333 10002 21050=
07070,1997-11-03 09:00:00,1,1017,0,93,0,1700,3.704,,,60,,,,,,,,,,10,wg-a,,,,AAXX 03094 07070 32/17 00602 10010 20000 30056 40170 50000 71040 80000 90900=
07070,1997-11-03 12:00:00,9,1015.1,-1.6,61,2,500,18.52,,,90,,,,,,,,,,2,wg-a,,,,AAXX 03124 07070 12/00 00910 10090 20020 30040 40151 58016 60006 70240 80000 91200=
07070,1997-11-03 15:00:00,11,1013.1,-1.9,54,2,8000,22.224,,,80,,,,,,,,,,,wg-a,,,,AAXX 03154 07070 12/58 00812 10110 20020 30021 40131 56019 60006 80000 91500=
07070,1997-11-03 18:00:00,4,1013.1,-0.3,81,1,10000,14.816,,,100,-4.4,11.4,,,,,,,,,wg-a,,,,AAXX 03184 07070 12/60 01008 10040 20010 30018 40131 56003 60006 80000 91800 333 10114 21044=
07070,1997-11-03 21:00:00,5,1012.4,-0.6,70,0,10000,7.408,,,140,,,,,,,,,,,wg-a,,,,AAXX 03214 07070 12/60 01404 10050 20000 30012 40124 56006 60006 80000 92100=
07070,1997-11-04 00:00:00,3,1011.9,-0.6,87,1,10000,0,,,0,,,,,,,,,,,wg-a,,,,AAXX 04004 07070 12/60 00000 10030 20010 30006 40119 56006 60006 80000 90000=
07070,1997-11-04 03:00:00,2,1010.6,-1.3,93,1,10000,11.112,,,110,,,,,,,,,,,wg-a,,,,AAXX 04034 07070 12/60 01106 10020 20010 39993 40106 58013 60006 80000 90300=
07070,1997-11-04 06:00:00,3,1010,-0.5,87,1,8000,14.816,,,90,1.8,4.7,,,,,,,,,wg-a,,,,AAXX 04064 07070 02/58 20908 10030 20010 39988 40100 55005 60006 82030 90600 333 10047 20018 60004=
07070,1997-11-04 09:00:00,5,1009.4,-0.6,87,3,8000,18.52,,,110,,,,,,,,,,,wg-a,,,,AAXX 04094 07070 12758 71110 10050 20030 39982 40094 58006 60006 875// 90900=
07070,1997-11-04 12:00:00,8,1007.9,-1.3,87,6,500,7.408,,,120,,,,0,,,,,,61,wg-a,,,,AAXX 04124 07070 02500 81204 10080 20060 39969 40079 58013 60006 76166 888// 91200 333 60007=
07070,1997-11-04 18:00:00,10,1006,-0.5,100,10,3500,25.928,,,160,2.4,10.3,,,,,,,,10,wg-a,,,,AAXX 04184 07070 02435 81614 10100 20100 39951 40060 55005 61000 71065 877// 91800 333 10103 20024 6001=
07070,1997-11-04 21:00:00,11,1006.1,0.1,100,11,3000,14.816,,,190,,,,2,,,,,,10,wg-a,,,,AAXX 04214 07070 12230 81908 10110 20110 39952 40061 53001 60027 71065 888// 92100=
07070,1997-11-05 00:00:00,11,1006.6,0.5,94,10,500,22.224,,,170,,,,2,,,,,,1,wg-a,,,,AAXX 05004 07070 02300 81712 10110 20100 39957 40066 51005 60046 70165 888// 90000 333 60027=
07070,1997-11-05 03:00:00,11,1005.7,-0.9,100,11,500,14.816,,,170,,,,,,,,,,,wg-a,,,,AAXX 05034 07070 12400 81708 10110 20110 39948 40057 58009 60006 885// 90300=
07070,1997-11-05 06:00:00,11,1005,-0.7,100,11,500,22.224,,,170,10.2,11,,,,,5,,,,wg-a,,,,AAXX 05064 07070 02400 81712 10110 20110 39941 40050 58007 60006 875// 90600 333 10110 20102 60054=
07070,1997-11-05 12:00:00,13,1002.7,-2.1,94,12,8000,22.224,,,180,,,,,,,,,,,wg-a,,,,AAXX 05124 07070 12458 81812 10130 20120 39919 40027 58021 60006 888// 91200=
07070,1997-11-05 15:00:00,14,1000,-2.6,88,12,10000,25.928,,,170,,,,,,,,,,,wg-a,,,,AAXX 05154 07070 12560 81714 10140 20120 39893 40000 56026 60006 8252/ 91500=
07070,1997-11-05 18:00:00,12,997.3,-2.7,94,11,8000,22.224,,,150,10.8,13.8,,,,,,,,,wg-a,,,,AAXX 05184 07070 12558 81512 10120 20110 39866 49973 58027 60006 8357/ 91800 333 10138 20108=
07070,1997-11-05 21:00:00,11,994.7,-2.6,94,10,8000,22.224,,,160,,,,,,,,,,,wg-a,,,,AAXX 05214 07070 12/58 81612 10110 20100 39840 49947 57026 60006 8807/ 92100=
07070,1997-11-06 00:00:00,11,992.7,-2,100,11,6000,14.816,,,170,,,,2,,,,,,61,wg-a,,,,AAXX 06004 07070 02856 81708 10110 20110 39820 49927 58020 60026 76162 8807/ 90000 333 60027=
07070,1997-11-06 03:00:00,11,991.1,-1.6,100,11,500,11.112,,,190,,,,,,,,,,,wg-a,,,,AAXX 06034 07070 02800 81906 10110 20110 39804 49911 58016 61000 8807/ 90300 333 ////=
07070,1997-11-06 06:00:00,11,989,-2.1,100,11,8000,11.112,,,150,10.6,12,,,,,2,,,3,wg-a,,,,AAXX 06064 07070 02558 71506 10110 20110 39783 49890 58021 60006 70362 875// 90600 333 10120 20106 60024=
07070,1997-11-06 12:00:00,13,990.8,-0.2,82,10,25000,11.112,,,220,,,,0,,,,,,21,wg-a,,,,AAXX 06124 07070 02475 72206 10130 20100 39802 49908 58002 60016 72162 8177/ 91200 333 60007=
07070,1997-11-06 15:00:00,12,989.5,-1.4,94,11,7000,14.816,,,150,,,,0,,,,,,61,wg-a,,,,AAXX 06154 07070 12457 81508 10120 20110 39788 49895 56014 60007 76162 8177/ 91500=
07070,1997-11-06 18:00:00,10,987,-2.5,100,10,2700,7.408,,,350,10.4,13.1,,,,,,,,10,wg-a,,,,AAXX 06184 07070 02227 83504 10100 20100 39763 49870 56025 61000 71062 875// 91800 333 10131 20104 6009=
07070,1997-11-06 21:00:00,11,984.2,-2.7,100,11,6000,11.112,,,20,,,,10,,,,,,21,wg-a,,,,AAXX 06214 07070 12256 80206 10110 20110 39736 49842 56027 60107 72162 877// 92100=
07070,1997-11-07 00:00:00,13,983.3,-0.9,94,12,15000,31.484,,50.004,200,,,,,,,,,,3,wg-a,,,,AAXX 07004 07070 12465 82017 10130 20120 39727 49833 55009 60106 70362 877// 90000 333 91027=
07070,1997-11-07 03:00:00,10,989.6,6.1,87,8,15000,29.632,,,240,,,,0,,,,,,21,wg-a,,,,AAXX 07034 07070 12465 82416 10100 20080 39788 49896 51061 60007 72162 875// 90300=
07070,1997-11-07 06:00:00,9,991.8,2.2,93,8,15000,22.224,,,220,9.1,13.4,,,,,21,,,1,wg-a,,,,AAXX 07064 07070 02465 72212 10090 20080 39810 49918 51022 60006 70162 875// 90600 333 10134 20091 60214=
07070,1997-11-07 09:00:00,11,994.3,2.5,82,8,20000,31.484,,50.004,210,,,,,,,,,,,wg-a,,,,AAXX 07094 07070 12570 72117 10110 20080 39835 49943 51025 60006 84132 90900 333 91027=
07070,1997-11-07 12:00:00,12,995.9,1.7,76,8,25000,35.188,,53.708,220,,,,,,,,,,25,wg-a,,,,AAXX 07124 07070 02575 42219 10120 20080 39852 49959 51017 61000 72582 84800 91200 333 6100 91029=
07070,1997-11-07 15:00:00,13,996.1,0.2,77,9,25000,22.224,,42.596,220,,,,,,,,,,,wg-a,,,,AAXX 07154 07070 12675 62212 10130 20090 39854 49961 53002 60006 85801 91500 333 91023=
07070,1997-11-07 18:00:00,11,996.9,0.7,87,9,20000,22.224,,,170,9.4,13.4,,,,,,,,,wg-a,,,,AAXX 07184 07070 12770 71712 10110 20090 39861 49969 51007 60006 875// 91800 333 10134 20094=
07070,1997-11-07 21:00:00,11,996.2,-0.7,82,8,25000,14.816,,,200,,,,,,,,,,,wg-a,,,,AAXX 07214 07070 12775 62008 10110 20080 39854 49962 57007 60006 82511 92100=
07070,1997-11-08 00:00:00,9,995.2,-1,87,7,25000,22.224,,,170,,,,,,,,,,,wg-a,,,,AAXX 08004 07070 12/75 21712 10090 20070 39844 49952 58010 60006 82070 90000=
07070,1997-11-08 03:00:00,9,993.7,-1.5,81,6,25000,22.224,,,180,,,,,,,,,,,wg-a,,,,AAXX 08034 07070 12775 71812 10090 20060 39829 49937 56015 60006 875// 90300=
07070,1997-11-08 06:00:00,9,994.7,1,93,8,15000,14.816,,,220,7.9,11.6,,,,,,,,21,wg-a,,,,AAXX 08064 07070 02465 82208 10090 20080 39839 49947 53010 61000 72162 875// 90600 333 10116 20079 6001=
07070,1997-11-08 09:00:00,11,997.5,2.8,82,8,12000,29.632,,,230,,,,,,,,,,,wg-a,,,,AAXX 08094 07070 12462 42316 10110 20080 39867 49975 51028 60006 82132 90900=
07070,1997-11-08 12:00:00,13,998.6,1.2,67,7,15000,31.484,,50.004,230,,,,,,,,,,,wg-a,,,,AAXX 08124 07070 12565 32317 10130 20070 39879 49986 51012 60006 82202 91200 333 91027=
07070,1997-11-08 15:00:00,13,998.6,0,62,6,15000,29.632,,,230,,,,,,,,,,,wg-a,,,,AAXX 08154 07070 12665 42316 10130 20060 39879 49986 50000 60006 84200 91500=
07070,1997-11-08 18:00:00,11,997.8,-0.9,76,7,15000,18.52,,,190,9,13.7,,,,,,,,,wg-a,,,,AAXX 08184 07070 12665 /1910 10110 20070 39870 49978 58009 60006 81404 91800 333 10137 20090=
07070,1997-11-08 21:00:00,10,996.3,-1.5,87,8,9000,25.928,,,190,,,,1,,,,,,61,wg-a,,,,AAXX 08214 07070 12559 81914 10100 20080 39855 49963 56015 60017 76162 8257/ 92100=
07070,1997-11-09 00:00:00,11,993.8,-2.5,87,9,15000,29.632,,,190,,,,1,,,,,,21,wg-a,,,,AAXX 09004 07070 02565 81916 10110 20090 39830 49938 56025 60026 72162 875// 90000 333 60017=
07070,1997-11-09 03:00:00,10,994.1,0.3,87,8,15000,14.816,,,210,,,,2,,,,,,21,wg-a,,,,AAXX 09034 07070 12465 82108 10100 20080 39833 49941 50003 60027 72162 8457/ 90300=
07070,1997-11-09 09:00:00,11,995.9,0.3,82,8,25000,22.224,,,210,,,,,,,,,,,wg-a,,,,AAXX 09094 07070 12575 72112 10110 20080 39851 49959 51003 60006 872// 90900=
07070,1997-11-09 12:00:00,11,996.3,0.4,76,7,500,18.52,,,220,,,,,,,,,,25,wg-a,,,,AAXX 09124 07070 02500 72210 10110 20070 39855 49963 50004 61000 72582 872// 91200 333 ////=
07070,1997-11-09 15:00:00,11,995.5,-0.8,71,6,500,25.928,,,200,,,,,,,,,,,wg-a,,,,AAXX 09154 07070 12600 /2014 10110 20060 39847 49955 58008 60006 86200 91500=
07070,1997-11-09 18:00:00,9,993.2,-2.3,81,6,15000,29.632,,50.004,190,8.9,12.2,,,,,,,,25,wg-a,,,,AAXX 09184 07070 02565 71916 10090 20060 39824 49932 57023 61000 72582 872// 91800 333 10122 20089 //// 91027=
07070,1997-11-09 21:00:00,10,996.5,3.3,82,7,10000,42.596,,,240,,,,4,,,,,,1,wg-a,,,,AAXX 09214 07070 12560 32423 10100 20070 39857 49965 53033 60047 70181 83800 92100=
07070,1997-11-10 00:00:00,10,998.8,2.2,82,7,15000,25.928,,,220,,,,,,,,,,2,wg-a,,,,AAXX 10004 07070 12565 22214 10100 20070 39879 49988 51022 60046 70281 82800 90000=
07070,1997-11-10 03:00:00,9,998.9,0.1,87,7,15000,18.52,,,210,,,,,,,,,,,wg-a,,,,AAXX 10034 07070 12465 /2110 10090 20070 39880 49989 50001 60006 84502 90300=
07070,1997-11-10 06:00:00,9,999.2,0.3,87,7,15000,22.224,,,210,8.6,9.8,,,,,4,,,,wg-a,,,,AAXX 10064 07070 02565 /2112 10090 20070 39883 49992 53003 60006 86200 90600 333 10098 20086 60044=
07070,1997-11-10 09:00:00,9,999.9,0.7,87,7,20000,14.816,,,210,,,,,,,,,,,wg-a,,,,AAXX 10094 07070 12470 72108 10090 20070 39890 49999 50007 60006 875// 90900=
07070,1997-11-10 12:00:00,9,998.5,-1.4,93,8,12000,22.224,,,200,,,,0,,,,,,60,wg-a,,,,AAXX 10124 07070 02462 82012 10090 20080 39876 49985 57014 60016 76062 875// 91200 333 60007=
07070,1997-11-10 15:00:00,10,997.6,-0.8,82,7,25000,25.928,,,210,,,,,,,,,,21,wg-a,,,,AAXX 10154 07070 02575 72114 10100 20070 39868 49976 56008 61000 72162 86802 91500 333 ////=
07070,1997-11-10 18:00:00,10,998.1,0.4,82,7,25000,18.52,,,200,8.5,10.3,,,,,,,,1,wg-a,,,,AAXX 10184 07070 12575 62010 10100 20070 39872 49981 53004 60006 70162 84801 91800 333 10103 20085=
07070,1997-11-10 21:00:00,8,999.5,1.4,81,5,25000,22.224,,,200,,,,,,,,,,,wg-a,,,,AAXX 10214 07070 12575 /2012 10080 20050 39886 49995 51014 60006 81100 92100=
07070,1997-11-11 00:00:00,7,999.8,0.2,87,5,25000,25.928,,,180,,,,,,,,,,,wg-a,,,,AAXX 11004 07070 12575 51814 10070 20050 39888 49998 50002 60006 85800 90000=
07070,1997-11-11 06:00:00,7,997.8,-0.8,93,6,8000,18.52,,,200,6.3,9.5,,,,,,,,61,wg-a,,,,AAXX 11064 07070 02458 82010 10070 20060 39868 49978 56008 61000 76186 8582/ 90600 333 10095 20063 6001=
07070,1997-11-11 12:00:00,9,998.5,0.4,87,7,15000,14.816,,,210,,,,,,,,,,2,wg-a,,,,AAXX 11124 07070 12465 72108 10090 20070 39876 49985 51004 60026 70262 875// 91200=
07070,1997-11-11 15:00:00,10,998.2,-0.3,87,8,8000,7.408,,,190,,,,0,,,,,,61,wg-a,,,,AAXX 11154 07070 12458 71904 10100 20080 39873 49982 57003 60007 76182 86802 91500=
07070,1997-11-11 18:00:00,7,998,-0.3,93,6,12000,11.112,,,180,6.7,9.7,,,,,,,,3,wg-a,,,,AAXX 11184 07070 12462 71806 10070 20060 39870 49980 56003 60006 70382 8385/ 91800 333 10097 20067=
07070,1997-11-11 21:00:00,7,998.5,0.5,100,7,15000,7.408,,,110,,,,,,,,,,,wg-a,,,,AAXX 11214 07070 12665 71104 10070 20070 39875 49985 51005 60006 8457/ 92100=
07070,1997-11-12 00:00:00,7,998.2,-0.3,93,6,12000,0,,,0,,,,0,,,,,,60,wg-a,,,,AAXX 12004 07070 02662 80000 10070 20060 39872 49982 56003 60006 76062 8357/ 90000 333 60007=
07070,1997-11-12 03:00:00,6,998.3,0.1,100,6,9000,0,,,0,,,,0,,,,,,60,wg-a,,,,AAXX 12034 07070 12759 80000 10060 20060 39873 49983 52001 60007 76062 8357/ 90300=
07070,1997-11-12 06:00:00,7,998.6,0.3,93,6,1200,7.408,,,300,6.2,7.4,,,,,,,,10,wg-a,,,,AAXX 12064 07070 02112 83004 10070 20060 39876 49986 53003 61000 71065 877// 90600 333 10074 20062 6003=
07070,1997-11-12 09:00:00,7,1000.1,1.5,100,7,1600,7.408,,,340,,,,2,,,,,,10,wg-a,,,,AAXX 12094 07070 12116 83404 10070 20070 39891 40001 51015 60027 71065 877// 90900=
07070,1997-11-12 12:00:00,9,1000.7,0.7,93,8,500,11.112,,,340,,,,1,,,,,,51,wg-a,,,,AAXX 12124 07070 02300 83406 10090 20080 39898 40007 52007 60026 75165 888// 91200 333 60017=
07070,1997-11-12 18:00:00,8,1003.8,2,93,7,6000,7.408,,,310,6.5,9.9,,,,,,,,2,wg-a,,,,AAXX 12184 07070 12356 73104 10080 20070 39928 40038 53020 60006 70265 876// 91800 333 10099 20065=
07070,1997-11-12 21:00:00,7,1005.6,1.7,93,6,4000,3.704,,,270,,,,,,,,,,10,wg-a,,,,AAXX 12214 07070 12340 72702 10070 20060 39945 40056 52017 60006 71022 875// 92100=
07070,1997-11-13 00:00:00,7,1006.4,0.8,93,6,3000,11.112,,,260,,,,,,,,,,10,wg-a,,,,AAXX 13004 07070 12230 82606 10070 20060 39953 40064 53008 60006 71022 886// 90000=
07070,1997-11-13 03:00:00,6,1006.8,0.4,100,6,700,11.112,,,230,,,,,,,,,,45,wg-a,,,,AAXX 13034 07070 12/07 92306 10060 20060 39957 40068 52004 60006 74542 89/// 90300=
07070,1997-11-13 06:00:00,6,1007,0.2,100,6,1500,3.704,,,200,5.6,7.6,,,,,2,,,10,wg-a,,,,AAXX 13064 07070 02115 82002 10060 20060 39959 40070 53002 60006 71042 886// 90600 333 10076 20056 60024=
07070,1997-11-13 09:00:00,6,1008,1,100,6,3500,7.408,,,200,,,,,,,,,,10,wg-a,,,,AAXX 13094 07070 12235 82004 10060 20060 39969 40080 51010 60006 71022 886// 90900=
07070,1997-11-13 12:00:00,8,1007.5,-0.4,93,7,4000,7.408,,,160,,,,,,,,,,10,wg-a,,,,AAXX 13124 07070 12440 81604 10080 20070 39965 40075 58004 60006 71022 877// 91200=
07070,1997-11-13 15:00:00,8,1007.4,-0.1,81,5,12000,7.408,,,240,,,,,,,,,,,wg-a,,,,AAXX 13154 07070 12462 52404 10080 20050 39964 40074 56001 60006 84601 91500=
07070,1997-11-13 18:00:00,4,1008.8,1.2,93,3,15000,0,,,0,4.1,8.5,,,,,,,,,wg-a,,,,AAXX 13184 07070 12565 /0000 10040 20030 39976 40088 53012 60006 86500 91800 333 10085 20041=
07070,1997-11-13 21:00:00,3,1009.7,0.8,100,3,500,3.704,,,220,,,,,,,,,,,wg-a,,,,AAXX 13214 07070 12500 /2202 10030 20030 39984 40097 53008 60006 86500 92100=
07070,1997-11-14 00:00:00,5,1010.2,0.6,100,5,500,7.408,,,240,,,,,,,,,,,wg-a,,,,AAXX 14004 07070 12500 72404 10050 20050 39990 40102 53006 60006 875// 90000=
07070,1997-11-14 03:00:00,5,1010.4,0.2,100,5,6000,3.704,,,190,,,,,,,,,,,wg-a,,,,AAXX 14034 07070 12756 71902 10050 20050 39992 40104 53002 60006 875// 90300=
07070,1997-11-14 06:00:00,6,1011.6,1.2,93,5,500,11.112,,,170,1.9,5.6,,,,,,,,,wg-a,,,,AAXX 14064 07070 12300 81706 10060 20050 30004 40116 51012 60006 886// 90600 333 10056 20019=
07070,1997-11-14 09:00:00,7,1013.6,2.1,93,6,500,7.408,,,210,,,,,,,,,,,wg-a,,,,AAXX 14094 07070 12300 72104 10070 20060 30025 40136 51021 60006 878// 90900=
07070,1997-11-14 12:00:00,8,1014.7,1.1,87,6,8000,14.816,,,260,,,,,,,,,,,wg-a,,,,AAXX 14124 07070 12458 72608 10080 20060 30036 40147 51011 60006 874// 91200=
07070,1997-11-14 15:00:00,8,1015.4,0.7,87,6,8000,7.408,,,210,,,,,,,,,,,wg-a,,,,AAXX 14154 07070 12/58 /2104 10080 20060 30043 40154 53007 60006 91500=
07070,1997-11-14 18:00:00,7,1016.9,1.4,87,5,7000,11.112,,,210,5.4,8.7,,,,,,,,,wg-a,,,,AAXX 14184 07070 12457 72106 10070 20050 30057 40169 51014 60006 875// 91800 333 10087 20054=
07070,1997-11-14 21:00:00,6,1018.5,1.6,93,5,6000,7.408,,,180,,,,,,,,,,,wg-a,,,,AAXX 14214 07070 12/56 /1804 10060 20050 30073 40185 53016 60006 92100=
07070,1997-11-15 00:00:00,5,1019,0.4,93,4,500,3.704,,,220,,,,,,,,,,,wg-a,,,,AAXX 15004 07070 12300 /2202 10050 20040 30077 40190 53004 60006 86500 90000=
07070,1997-11-15 03:00:00,6,1018.5,-0.4,93,5,500,14.816,,,190,,,,,,,,,,,wg-a,,,,AAXX 15034 07070 12700 71908 10060 20050 30073 40185 58004 60006 875// 90300=
07070,1997-11-15 06:00:00,6,1018.9,0.4,93,5,6000,18.52,,,170,4.5,6.9,,,,,,,,,wg-a,,,,AAXX 15064 07070 12556 71710 10060 20050 30077 40189 50004 60006 875// 90600 333 10069 20045=
07070,1997-11-15 09:00:00,7,1019.1,0.2,87,5,8000,22.224,,,180,,,,,,,,,,21,wg-a,,,,AAXX 15094 07070 02558 71812 10070 20050 30079 40191 53002 61000 72162 875// 90900 333 ////=
07070,1997-11-15 12:00:00,10,1018.7,-0.3,82,7,15000,22.224,,,190,,,,,,,,,,3,wg-a,,,,AAXX 15124 07070 02565 71912 10100 20070 30076 40187 58003 61000 70362 875// 91200 333 ////=
07070,1997-11-15 15:00:00,10,1017.9,-0.7,87,8,10000,11.112,,,200,,,,,,,,,,3,wg-a,,,,AAXX 15154 07070 02460 82006 10100 20080 30069 40179 56007 61000 70352 885// 91500 333 ////=
07070,1997-11-15 18:00:00,10,1017.6,-0.3,93,9,10000,14.816,,,200,5.3,10.5,,,,,,,,3,wg-a,,,,AAXX 15184 07070 12460 82008 10100 20090 30066 40176 58003 60006 70352 885// 91800 333 10105 20053=
07070,1997-11-15 21:00:00,10,1017.2,-0.5,93,9,4000,14.816,,,170,,,,6,,,,,,10,wg-a,,,,AAXX 15214 07070 12440 81708 10100 20090 30061 40172 56005 60067 71062 885// 92100=
07070,1997-11-16 00:00:00,10,1016.8,-0.3,93,9,3500,14.816,,,130,,,,12,,,,,,10,wg-a,,,,AAXX 16004 07070 02335 81308 10100 20090 30058 40168 55003 60186 71065 886// 90000 333 60127=
07070,1997-11-16 03:00:00,10,1016.2,-0.6,100,10,500,7.408,,,180,,,,5,,,,,,61,wg-a,,,,AAXX 16034 07070 12300 81804 10100 20100 30052 40162 57006 60057 76165 886// 90300=
07070,1997-11-16 06:00:00,10,1016.3,0.1,100,10,2000,0,,,0,9.3,10.4,,,,,,,,10,wg-a,,,,AAXX 16064 07070 02120 80000 10100 20100 30053 40163 53001 61000 71065 886// 90600 333 10104 20093 6025=
07070,1997-11-16 09:00:00,11,1017.3,1,100,11,500,0,,,0,,,,0,,,,,,51,wg-a,,,,AAXX 16094 07070 12205 80000 10110 20110 30063 40173 52010 60007 75154 886// 90900=
07070,1997-11-16 12:00:00,12,1017,-0.3,94,11,500,11.112,,,120,,,,,,,,,,3,wg-a,,,,AAXX 16124 07070 12200 81206 10120 20110 30060 40170 58003 60006 70354 886// 91200=
07070,1997-11-16 15:00:00,12,1016.8,-0.2,94,11,500,14.816,,,150,,,,,,,,,,50,wg-a,,,,AAXX 16154 07070 02200 81508 10120 20110 30058 40168 55002 61000 75052 886// 91500 333 ////=
07070,1997-11-16 18:00:00,11,1017.8,1,94,10,500,18.52,,,130,10.1,12,,,,,,,,20,wg-a,,,,AAXX 16184 07070 02300 81310 10110 20100 30068 40178 51010 61000 72052 886// 91800 333 10120 20101 6100=
07070,1997-11-16 21:00:00,10,1018.2,0.4,93,9,4000,18.52,,,130,,,,0,,,,,,10,wg-a,,,,AAXX 16214 07070 12240 81310 10100 20090 30072 40182 53004 60007 71052 886// 92100=
07070,1997-11-17 00:00:00,9,1018.7,0.4,93,8,4000,11.112,,,130,,,,0,,,,,,10,wg-a,,,,AAXX 17004 07070 02340 81306 10090 20080 30076 40187 51004 60016 71052 885// 90000 333 60007=
07070,1997-11-17 03:00:00,10,1017.9,-0.8,93,9,6000,14.816,,,130,,,,,,,,,,1,wg-a,,,,AAXX 17034 07070 02556 71308 10100 20090 30068 40179 58008 61000 70152 875// 90300 333 ////=
07070,1997-11-17 06:00:00,9,1018.4,0.5,93,8,500,18.52,,,130,8.7,10.7,,,,,1,,,3,wg-a,,,,AAXX 17064 07070 02300 71310 10090 20080 30073 40184 53005 60006 70352 875// 90600 333 10107 20087 60014=
07070,1997-11-17 09:00:00,8,1018.7,0.3,100,8,500,18.52,,,130,,,,,,,,,,,wg-a,,,,AAXX 17094 07070 12300 71310 10080 20080 30076 40187 50003 60006 876// 90900=
07070,1997-11-17 12:00:00,8,1017.7,-1,93,7,3500,18.52,,,140,,,,0,,,,,,10,wg-a,,,,AAXX 17124 07070 02235 81410 10080 20070 30066 40177 58010 60006 71022 886// 91200 333 60007=
07070,1997-11-17 15:00:00,8,1016.1,-1.6,93,7,4000,18.52,,,140,,,,,,,,,,10,wg-a,,,,AAXX 17154 07070 12340 71410 10080 20070 30050 40161 56016 60006 71022 876// 91500=
07070,1997-11-17 18:00:00,5,1016.9,0.7,93,4,500,7.408,,,160,5.3,9,,,,,,,,,wg-a,,,,AAXX 17184 07070 12400 /1604 10050 20040 30057 40169 53007 60006 81602 91800 333 10090 20053=
07070,1997-11-17 21:00:00,3,1015,-2,100,3,6000,11.112,,,100,,,,,,,,,,,wg-a,,,,AAXX 17214 07070 12/56 31006 10030 20030 30037 40150 58020 60006 80002 92100=
07070,1997-11-18 00:00:00,3,1013.7,-1.3,93,2,500,14.816,,,120,,,,,,,,,,,wg-a,,,,AAXX 18004 07070 12/00 31208 10030 20020 30024 40137 58013 60006 80002 90000=
07070,1997-11-18 06:00:00,3,1011.2,-1,87,1,500,35.188,,,130,2.2,5.3,,,,,,,,,wg-a,,,,AAXX 18064 07070 12400 81319 10030 20010 39999 40112 58010 60006 886// 90600 333 10053 20022=
07070,1997-11-18 09:00:00,4,1011,-0.1,93,3,500,18.52,,,130,,,,,,,,,,,wg-a,,,,AAXX 18094 07070 12400 71310 10040 20030 39998 40110 55001 60006 8453/ 90900=
07070,1997-11-18 12:00:00,9,1009.1,-1.7,87,7,7000,25.928,,,140,,,,,,,,,,,wg-a,,,,AAXX 18124 07070 12/57 21414 10090 20070 39981 40091 56017 60006 81031 91200=
07070,1997-11-18 15:00:00,10,1008.5,-0.6,82,7,8000,18.52,,,120,,,,,,,,,,,wg-a,,,,AAXX 18154 07070 12/58 21210 10100 20070 39975 40085 56006 60006 81031 91500=
07070,1997-11-18 18:00:00,7,1008.2,-0.4,93,6,8000,14.816,,,120,2.5,10.7,,,,,,,,,wg-a,,,,AAXX 18184 07070 12/58 71208 10070 20060 39971 40082 56004 60006 83054 91800 333 10107 20025=
07070,1997-11-19 00:00:00,7,1005.9,-1.2,87,5,7000,14.816,,,130,,,,,,,,,,,wg-a,,,,AAXX 19004 07070 12457 81308 10070 20050 39949 40059 58012 60006 885// 90000=
07070,1997-11-19 06:00:00,5,1003.7,-0.9,93,4,2500,18.52,,,110,4.5,8.2,,,,,,,,10,wg-a,,,,AAXX 19064 07070 02225 81110 10050 20040 39926 40037 57009 61000 71052 886// 90600 333 10082 20045 6001=
07070,1997-11-19 09:00:00,4,1003.4,-0.3,100,4,1200,22.224,,,120,,,,2,,,,,,10,wg-a,,,,AAXX 19094 07070 12412 81212 10040 20040 39923 40034 58003 60027 71065 886// 90900=
07070,1997-11-19 12:00:00,5,1002.8,-0.6,93,4,1200,18.52,,,120,,,,0,,,,,,10,wg-a,,,,AAXX 19124 07070 02212 81210 10050 20040 39917 40028 58006 60026 71065 886// 91200 333 60007=
07070,1997-11-19 15:00:00,5,1002.2,-0.6,93,4,1800,22.224,,,130,,,,2,,,,,,10,wg-a,,,,AAXX 19154 07070 12218 81312 10050 20040 39911 40022 55006 60027 71065 887// 91500=
07070,1997-11-19 18:00:00,5,1001.8,-0.4,93,4,2500,22.224,,,120,4.1,5.1,,0,,,,,,10,wg-a,,,,AAXX 19184 07070 02225 81212 10050 20040 39907 40018 58004 60006 71065 886// 91800 333 10051 20041 60007=
07070,1997-11-19 21:00:00,5,1001.8,-0,93,4,4000,11.112,,,110,,,,1,,,,,,10,wg-a,,,,AAXX 19214 07070 12240 81106 10050 20040 39907 40018 54000 60017 71052 887// 92100=
07070,1997-11-20 03:00:00,6,999.1,-1.3,100,6,3500,11.112,,,110,,,,,,,,,,10,wg-a,,,,AAXX 20034 07070 02335 81106 10060 20060 39881 49991 58013 61000 71052 887// 90300 333 ////=
07070,1997-11-20 06:00:00,9,997.7,-1.3,93,8,500,18.52,,,180,4.2,8.6,,,,,5,,,1,wg-a,,,,AAXX 20064 07070 02400 71810 10090 20080 39868 49977 56013 60006 70152 875// 90600 333 10086 20042 60054=
07070,1997-11-20 09:00:00,9,997.1,-0.6,93,8,7000,31.484,,,180,,,,1,,,,,,21,wg-a,,,,AAXX 20094 07070 12457 81817 10090 20080 39862 49971 58006 60017 72162 8652/ 90900=
07070,1997-11-20 12:00:00,11,996.4,-0.6,87,9,4000,25.928,,,200,,,,1,,,,,,10,wg-a,,,,AAXX 20124 07070 02440 72014 10110 20090 39856 49964 56006 60016 71086 8587/ 91200 333 60017=
07070,1997-11-20 15:00:00,12,997.6,1.2,76,8,15000,18.52,,,210,,,,2,,,,,,1,wg-a,,,,AAXX 20154 07070 12565 22110 10120 20080 39868 49976 53012 60027 70182 82801 91500=
07070,1997-11-20 18:00:00,9,1000,2.2,87,7,20000,18.52,,,210,8.5,12.3,,,,,,,,,wg-a,,,,AAXX 20184 07070 12770 42110 10090 20070 39891 40000 53022 60006 83501 91800 333 10123 20085=
07070,1997-11-20 21:00:00,8,1002.3,2.2,93,7,15000,11.112,,,220,,,,,,,,,,,wg-a,,,,AAXX 20214 07070 12665 /2206 10080 20070 39913 40023 53022 60006 85800 92100=
07070,1997-11-21 00:00:00,9,1003.8,1.5,87,7,15000,14.816,,,220,,,,,,,,,,,wg-a,,,,AAXX 21004 07070 12465 72208 10090 20070 39928 40038 51015 60006 878// 90000=
07070,1997-11-21 06:00:00,6,1007,1.2,93,5,10000,11.112,,,220,6,9.5,,,,,3,,,,wg-a,,,,AAXX 21064 07070 02760 12206 10060 20050 39959 40070 52012 60006 81500 90600 333 10095 20060 60034=
07070,1997-11-21 09:00:00,8,1009.1,2.1,93,7,7000,7.408,,,230,,,,0,,,,,,,wg-a,,,,AAXX 21094 07070 12357 72304 10080 20070 39978 40091 51021 60007 876// 90900=
07070,1997-11-21 12:00:00,10,1009.2,0.8,87,8,10000,14.816,,,180,,,,,,,,,,,wg-a,,,,AAXX 21124 07070 12460 41808 10100 20080 39982 40092 51008 60006 82230 91200=
07070,1997-11-21 15:00:00,10,1009.9,0.6,87,8,15000,11.112,,,190,,,,,,,,,,,wg-a,,,,AAXX 21154 07070 12565 71906 10100 20080 39989 40099 53006 60006 86802 91500=
07070,1997-11-21 18:00:00,7,1010.6,0.6,93,6,15000,7.408,,,190,5.5,11,,,,,,,,,wg-a,,,,AAXX 21184 07070 12865 41904 10070 20060 39995 40106 53006 60006 81031 91800 333 10110 20055=
07070,1997-11-21 21:00:00,4,1011.3,0.6,100,4,12000,11.112,,,100,,,,,,,,,,,wg-a,,,,AAXX 21214 07070 12762 21006 10040 20040 30001 40113 51006 60006 82500 92100=
07070,1997-11-22 09:00:00,6,1013.8,1.3,100,6,9000,3.704,,,110,,,,0,,,,,,61,wg-a,,,,AAXX 22094 07070 12759 81102 10060 20060 30026 40138 51013 60007 76162 8252/ 90900=
07070,1997-11-22 15:00:00,10,1014.3,0.4,87,8,8000,3.704,,,360,,,,,,,,,,,wg-a,,,,AAXX 22154 07070 12558 73602 10100 20080 30033 40143 53004 60006 8587/ 91500=
07070,1997-11-22 18:00:00,7,1015.3,0.9,100,7,4000,3.704,,,310,5.2,9.9,,,,,,,,10,wg-a,,,,AAXX 22184 07070 12640 43102 10070 20070 30042 40153 51009 60006 71011 84500 91800 333 10099 20052=
07070,1997-11-22 21:00:00,7,1016.6,1.2,100,7,2000,3.704,,,270,,,,,,,,,,10,wg-a,,,,AAXX 22214 07070 12620 72702 10070 20070 30054 40166 53012 60006 71011 875// 92100=
07070,1997-11-23 00:00:00,7,1017.6,1,100,7,800,3.704,,,40,,,,,,,,,,45,wg-a,,,,AAXX 23004 07070 12/08 90402 10070 20070 30064 40176 52010 60006 74541 89/// 90000=
07070,1997-11-23 03:00:00,5,1018.4,0.7,93,4,3000,7.408,,,160,,,,,,,,,,10,wg-a,,,,AAXX 23034 07070 12330 71604 10050 20040 30071 40184 53007 60006 71042 876// 90300=
07070,1997-11-23 06:00:00,4,1019.2,0.8,100,4,1800,7.408,,,90,3.8,7.1,,,,,,,,10,wg-a,,,,AAXX 23064 07070 02118 70904 10040 20040 30079 40192 53008 60006 71042 876// 90600 333 10071 20038 60004=
07070,1997-11-23 18:00:00,4,1021.2,-0,93,3,6000,14.816,,,140,3.5,4.6,,,,,,,,,wg-a,,,,AAXX 23184 07070 12356 71408 10040 20030 30099 40212 55000 60006 876// 91800 333 10046 20035=
07070,1997-11-23 21:00:00,3,1021.8,0.5,93,2,6000,22.224,,,130,,,,,,,,,,,wg-a,,,,AAXX 23214 07070 12256 81312 10030 20020 30104 40218 53005 60006 886// 92100=
07070,1997-11-24 03:00:00,3,1019.6,-1.4,87,1,8000,14.816,,,150,,,,,,,,,,,wg-a,,,,AAXX 24034 07070 12458 81508 10030 20010 30082 40196 56014 60006 885// 90300=
07070,1997-11-24 12:00:00,5,1013.7,-2.9,81,2,8000,25.928,,,130,,,,,,,,,,,wg-a,,,,AAXX 24124 07070 12458 71314 10050 20020 30025 40137 58029 60006 85502 91200=
07070,1997-11-24 15:00:00,5,1011.7,-2,81,2,9000,18.52,,,120,,,,,,,,,,,wg-a,,,,AAXX 24154 07070 12559 71210 10050 20020 30005 40117 56020 60006 8157/ 91500=
07070,1997-11-24 18:00:00,3,1009.6,-2.1,93,2,7000,18.52,,,80,2.6,5.1,,,,,,,,,wg-a,,,,AAXX 24184 07070 12/57 70810 10030 20020 39984 40096 56021 60006 84032 91800 333 10051 20026=
07070,1997-11-24 21:00:00,3,1008,-1.6,93,2,8000,25.928,,,100,,,,,,,,,,,wg-a,,,,AAXX 24214 07070 12/58 71014 10030 20020 39968 40080 57016 60006 8703/ 92100=
07070,1997-11-25 00:00:00,3,1007.2,-0.8,87,1,8000,14.816,,,120,,,,,,,,,,,wg-a,,,,AAXX 25004 07070 12/58 71208 10030 20010 39960 40072 58008 60006 85032 90000=
07070,1997-11-25 03:00:00,3,1007,-0.2,87,1,8000,7.408,,,90,,,,,,,,,,,wg-a,,,,AAXX 25034 07070 12758 70904 10030 20010 39958 40070 55002 60006 86502 90300=
07070,1997-11-25 06:00:00,4,1006.5,-0.5,87,2,8000,3.704,,,170,2,4.1,,,,,,,,,wg-a,,,,AAXX 25064 07070 02758 71702 10040 20020 39953 40065 56005 60006 845/2 90600 333 10041 20020 60004=
07070,1997-11-25 12:00:00,11,1006.4,-0.4,71,6,10000,11.112,,,160,,,,,,,,,,,wg-a,,,,AAXX 25124 07070 12760 71606 10110 20060 39955 40064 58004 60006 86532 91200=
07070,1997-11-25 18:00:00,6,1005.7,0.2,87,4,12000,11.112,,,70,3.7,10.8,,,,,,,,,wg-a,,,,AAXX 25184 07070 12/62 40706 10060 20040 39946 40057 52002 60006 81032 91800 333 10108 20037=
07070,1997-11-25 21:00:00,7,1006.2,0.5,87,5,10000,11.112,,,120,,,,,,,,,,,wg-a,,,,AAXX 25214 07070 12/60 31206 10070 20050 39951 40062 53005 60006 81032 92100=
07070,1997-11-26 00:00:00,5,1006.2,0,93,4,10000,7.408,,,100,,,,,,,,,,,wg-a,,,,AAXX 26004 07070 12/60 61004 10050 20040 39951 40062 50000 60006 83031 90000=
07070,1997-11-26 03:00:00,6,1005.9,-0.3,87,4,10000,11.112,,,70,,,,,,,,,,,wg-a,,,,AAXX 26034 07070 12860 70706 10060 20040 39948 40059 58003 60006 8707/ 90300=
07070,1997-11-26 06:00:00,7,1006.1,0.2,81,4,10000,7.408,,,90,3.5,7.2,,,,,,,,,wg-a,,,,AAXX 26064 07070 02860 30904 10070 20040 39950 40061 53002 60006 81031 90600 333 10072 20035 60004=
07070,1997-11-26 09:00:00,7,1007.2,1.1,81,4,8000,11.112,,,100,,,,,,,,,,,wg-a,,,,AAXX 26094 07070 12758 /1006 10070 20040 39961 40072 51011 60006 86571 90900=
07070,1997-11-26 12:00:00,9,1007.7,0.6,76,5,10000,14.816,,,130,,,,,,,,,,,wg-a,,,,AAXX 26124 07070 12760 81308 10090 20050 39967 40077 50006 60006 885// 91200=
07070,1997-11-26 15:00:00,9,1008,0.3,81,6,9000,11.112,,,120,,,,,,,,,,,wg-a,,,,AAXX 26154 07070 12759 81206 10090 20060 39970 40080 53003 60006 8457/ 91500=
07070,1997-11-26 18:00:00,9,1009.2,1.2,76,5,8000,3.704,,,50,4.5,9.8,,,,,,,,,wg-a,,,,AAXX 26184 07070 12758 80502 10090 20050 39982 40092 52012 60006 8357/ 91800 333 10098 20045=
07070,1997-11-26 21:00:00,9,1010.5,1.3,76,5,8000,0,,,0,,,,,,,,,,,wg-a,,,,AAXX 26214 07070 12/58 /0000 10090 20050 39995 40105 53013 60006 92100=
07070,1997-11-27 00:00:00,9,1011.4,0.9,71,4,8000,14.816,,,140,,,,,,,,,,,wg-a,,,,AAXX 27004 07070 12758 81408 10090 20040 30004 40114 51009 60006 8557/ 90000=
07070,1997-11-27 03:00:00,7,1011.6,0.1,81,4,7000,11.112,,,110,,,,,,,,,,,wg-a,,,,AAXX 27034 07070 12757 81106 10070 20040 30005 40116 50001 60006 8557/ 90300=
07070,1997-11-27 06:00:00,6,1012,0.4,81,3,7000,18.52,,,130,6.2,9.2,,,,,,,,,wg-a,,,,AAXX 27064 07070 02757 81310 10060 20030 30009 40120 53004 60006 8457/ 90600 333 10092 20062 60004=
07070,1997-11-27 09:00:00,6,1012,0.4,81,3,7000,14.816,,,110,6.2,9.2,,,,,,,,,wg-a,,,,AAXX 27094 07070 02757 81108 10060 20030 30009 40120 53004 60006 8457/ 90900 333 10092 20062 60004=
07070,1997-11-27 12:00:00,6,1012.7,-0.7,93,5,3000,11.112,,,120,,,,3,,,,,,10,wg-a,,,,AAXX 27124 07070 02530 81206 10060 20050 30015 40127 58007 60046 71062 8652/ 91200 333 60037=
07070,1997-11-27 15:00:00,6,1012.7,0.1,100,6,2500,18.52,,,170,,,,6,,,,,,10,wg-a,,,,AAXX 27154 07070 12325 81710 10060 20060 30016 40127 53001 60067 71065 877// 91500=
07070,1997-11-27 18:00:00,7,1013.3,0.6,100,7,4000,11.112,,,190,4.8,7.1,,,,,,,,10,wg-a,,,,AAXX 27184 07070 02340 71906 10070 20070 30022 40133 53006 60006 71065 875// 91800 333 10071 20048 61000=
07070,1997-11-27 21:00:00,7,1013.6,0.3,100,7,4000,11.112,,,200,,,,,,,,,,10,wg-a,,,,AAXX 27214 07070 12540 72006 10070 20070 30025 40136 51003 60006 71022 875// 92100=
07070,1997-11-28 00:00:00,7,1013.2,-0.4,93,6,4000,3.704,,,140,,,,,,,,,,10,wg-a,,,,AAXX 28004 07070 12740 71402 10070 20060 30021 40132 58004 60006 71011 875// 90000=
07070,1997-11-28 03:00:00,5,1012.5,-0.8,100,5,1500,11.112,,,190,,,,,,,,,,10,wg-a,,,,AAXX 28034 07070 12/15 01906 10050 20050 30013 40125 58008 60006 71011 80000 90300=
07070,1997-11-28 06:00:00,7,1011.7,-0.7,100,7,3000,14.816,,,180,5.3,7.6,,,,,10,,,10,wg-a,,,,AAXX 28064 07070 02730 81808 10070 20070 30006 40117 56007 60006 71011 8252/ 90600 333 10076 20053 60104=
07070,1997-11-28 09:00:00,8,1010.1,-1.6,93,7,2000,18.52,,,170,,,,1,,,,,,10,wg-a,,,,AAXX 28094 07070 12420 81710 10080 20070 39990 40101 56016 60017 71062 8457/ 90900=
07070,1997-11-28 12:00:00,9,1008.4,-1.6,93,8,500,14.816,,,180,,,,4,,,,,,61,wg-a,,,,AAXX 28124 07070 02400 81808 10090 20080 39974 40084 58016 60056 76162 8587/ 91200 333 60047=
07070,1997-11-28 15:00:00,10,1007.9,-0.5,93,9,9000,11.112,,,210,,,,,,,,,,,wg-a,,,,AAXX 28154 07070 32/59 /2106 10100 20090 39969 40079 55005 91500=
07070,1997-11-28 18:00:00,9,1007.9,0,93,8,9000,11.112,,,150,7,10.1,,,,,,,,2,wg-a,,,,AAXX 28184 07070 12459 /1506 10090 20080 39969 40079 50000 60006 70265 86500 91800 333 10101 20070=
07070,1997-11-28 21:00:00,10,1006.7,-1.1,93,9,8000,18.52,,,190,,,,,,,,,,,wg-a,,,,AAXX 28214 07070 12558 71910 10100 20090 39958 40067 58011 60006 875// 92100=
07070,1997-11-29 00:00:00,10,1005.8,-0.9,93,9,10000,11.112,,,210,,,,,,,,,,1,wg-a,,,,AAXX 29004 07070 02460 72106 10100 20090 39949 40058 58009 61000 70186 87800 90000 333 6100=
07070,1997-11-29 03:00:00,10,1004.4,-1.4,93,9,10000,7.408,,,260,,,,4,,,,,,21,wg-a,,,,AAXX 29034 07070 12260 72604 10100 20090 39935 40044 56014 60047 72162 875// 90300=
07070,1997-11-29 06:00:00,10,1005.3,0.9,93,9,12000,11.112,,,240,7.7,10.4,,,,,10,,,1,wg-a,,,,AAXX 29064 07070 02462 82406 10100 20090 39944 40053 53009 60006 70162 888// 90600 333 10104 20077 60104=
07070,1997-11-29 09:00:00,10,1006.3,1,93,9,12000,18.52,,,240,,,,,,,,,,1,wg-a,,,,AAXX 29094 07070 02462 82410 10100 20090 39954 40063 51010 61000 70162 878// 90900 333 ////=
07070,1997-11-29 15:00:00,11,1005.3,-0.7,82,8,20000,22.224,,,230,,,,,,,,,,,wg-a,,,,AAXX 29154 07070 12570 72312 10110 20080 39944 40053 56007 60006 83801 91500=
07070,1997-11-29 18:00:00,9,1005.6,0.2,87,7,15000,14.816,,,210,8.9,11.9,,,,,,,,,wg-a,,,,AAXX 29184 07070 12665 52108 10090 20070 39946 40056 52002 60006 83501 91800 333 10119 20089=
07070,1997-11-29 21:00:00,9,1005.7,0.1,87,7,15000,11.112,,,210,,,,,,,,,,,wg-a,,,,AAXX 29214 07070 12765 52106 10090 20070 39947 40057 51001 60006 835/1 92100=
07070,1997-11-30 00:00:00,8,1005.9,0.2,93,7,12000,18.52,,,220,,,,,,,,,,,wg-a,,,,AAXX 30004 07070 12762 52210 10080 20070 39949 40059 50002 60006 85500 90000=
07070,1997-11-30 03:00:00,8,1005.6,-0.3,93,7,8000,22.224,,,230,,,,,,,,,,58,wg-a,,,,AAXX 30034 07070 02458 82312 10080 20070 39946 40056 57003 61000 75865 877// 90300 333 ////=
07070,1997-11-30 06:00:00,8,1005.6,-0,93,7,9000,18.52,,,240,7.6,9.1,,,,,,,,3,wg-a,,,,AAXX 30064 07070 02459 82410 10080 20070 39946 40056 55000 60006 70365 877// 90600 333 10091 20076 61000=
07070,1997-11-30 09:00:00,8,1006.8,1.2,100,8,6000,18.52,,,250,,,,1,,,,,,61,wg-a,,,,AAXX 30094 07070 12356 82510 10080 20080 39958 40068 53012 60017 76162 882// 90900=
07070,1997-11-30 12:00:00,9,1007.5,0.7,93,8,10000,22.224,,,270,,,,0,,,,,,60,wg-a,,,,AAXX 30124 07070 02460 82712 10090 20080 39965 40075 51007 60016 76062 888// 91200 333 60007=
07070,1997-11-30 15:00:00,10,1008.3,0.8,87,8,12000,22.224,,,290,,,,0,,,,,,21,wg-a,,,,AAXX 30154 07070 12462 82912 10100 20080 39973 40083 53008 60007 72162 882// 91500=
07070,1997-11-30 18:00:00,9,1010.3,2,87,7,12000,29.632,,,310,8.2,10.1,,,,,,,,1,wg-a,,,,AAXX 30184 07070 02462 83116 10090 20070 39993 40103 53020 60006 70186 882// 91800 333 10101 20082 61000=
07070,1997-11-30 21:00:00,7,1012.3,1.9,93,6,7000,29.632,,,320,,,,,,,,,,80,wg-a,,,,AAXX 30214 07070 02457 83216 10070 20060 30012 40123 53019 61000 78086 877// 92100 333 ////=
07070,1997-12-01 00:00:00,7,1014,1.7,93,6,9000,22.224,,,330,,,,0,,,,,,50,wg-a,,,,AAXX 01004 07070 02459 83312 10070 20060 30029 40140 53017 60006 75086 877// 90000 333 60007=
07070,1997-12-01 03:00:00,6,1015.4,1.3,93,5,8000,18.52,,,340,,,,0,,,,,,21,wg-a,,,,AAXX 01034 07070 12458 73410 10060 20050 30042 40154 51013 60007 72165 875// 90300=
07070,1997-12-01 06:00:00,3,1016.8,1.3,93,2,7000,7.408,,,310,2.9,8.9,,,,,2,,,1,wg-a,,,,AAXX 01064 07070 02757 /3104 10030 20020 30055 40168 53013 60006 70165 81500 90600 333 10089 20029 60024=
07070,1997-12-01 09:00:00,4,1017.7,0.9,100,4,500,3.704,,,210,,,,0,,,,,,,wg-a,,,,AAXX 01094 07070 12/00 /2102 10040 20040 30064 40177 51009 60007 81030 90900=
07070,1997-12-01 12:00:00,8,1016.5,-1,71,3,9000,7.408,,,230,,,,,,,,,,,wg-a,,,,AAXX 01124 07070 12459 22304 10080 20030 30054 40165 58010 60006 82202 91200=
07070,1997-12-01 15:00:00,7,1015.2,-1.4,76,3,15000,7.408,,,130,,,,,,,,,,,wg-a,,,,AAXX 01154 07070 12665 /1304 10070 20030 30040 40152 58014 60006 81234 91500=
07070,1997-12-01 18:00:00,4,1013.7,-1.6,93,3,10000,14.816,,,160,1.3,9,,,,,,,,,wg-a,,,,AAXX 01184 07070 12/60 51608 10040 20030 30024 40137 58016 60006 82031 91800 333 10090 20013=
07070,1997-12-01 21:00:00,4,1011,-2.6,81,1,15000,14.816,,,130,,,,,,,,,,,wg-a,,,,AAXX 01214 07070 12/65 71308 10040 20010 39998 40110 58026 60006 86032 92100=
07070,1997-12-02 00:00:00,3,1007.9,-3.1,87,1,15000,14.816,,,130,,,,,,,,,,,wg-a,,,,AAXX 02004 07070 12765 81308 10030 20010 39967 40079 56031 60006 8653/ 90000=
07070,1997-12-02 03:00:00,3,1003.4,-4.5,81,0,15000,25.928,,,100,,,,,,,,,,,wg-a,,,,AAXX 02034 07070 12565 81014 10030 20000 39922 40034 56045 60006 878// 90300=
07070,1997-12-02 06:00:00,1,999.8,-3.6,93,0,1500,35.188,,,80,0.9,4,,,,,,,,61,wg-a,,,,AAXX 02064 07070 02315 80819 10010 20000 39886 49998 56036 61000 76176 885// 90600 333 10040 20009 6001=
07070,1997-12-02 09:00:00,1,998.7,-1.1,93,0,1800,35.188,,,60,,,,1,,,,,,10,wg-a,,,,AAXX 02094 07070 12118 80619 10010 20000 39875 49987 55011 60017 71077 875// 90900=
07070,1997-12-02 12:00:00,2,999.5,0.8,80,-1,8000,25.928,,,20,,,,2,,,,,,22,wg-a,,,,AAXX 02124 07070 02358 80214 10020 21010 39883 49995 51008 60046 72276 8457/ 91200 333 60027=
07070,1997-12-02 15:00:00,2,1001.2,1.7,80,-1,10000,29.632,,,10,,,,,,,,,,22,wg-a,,,,AAXX 02154 07070 02560 80116 10020 21010 39900 40012 53017 61000 72272 8387/ 91500 333 ////=
07070,1997-12-02 18:00:00,0,1003.2,1.9,100,0,2500,11.112,,57.412,350,0.1,2.4,,,,,,,,10,wg-a,,3,,AAXX 02184 07070 02225 83506 10000 20000 39919 40032 51019 61000 71072 875// 91800 333 10024 20001 4/003 6001 91031=
07070,1997-12-02 21:00:00,0,1004.6,1.4,93,-1,4000,22.224,,,360,,,,0,,,,,,70,wg-a,,,,AAXX 02214 07070 12240 83612 10000 21010 39933 40046 52014 60007 77072 8657/ 92100=
07070,1997-12-03 00:00:00,0,1006.2,1.6,100,0,1000,22.224,,,10,,,,0,,,,,,10,wg-a,,,,AAXX 03004 07070 02310 80112 10000 20000 39949 40062 51016 60016 71072 8657/ 90000 333 60007=
07070,1997-12-03 03:00:00,0,1008,1.7,93,-1,1500,22.224,,,10,,,,0,,,,,,10,wg-a,,,,AAXX 03034 07070 12315 80112 10000 21010 39966 40080 53017 60007 71077 8657/ 90300=
07070,1997-12-03 06:00:00,0,1010.2,2.2,93,-1,1100,25.928,,,10,-0.2,0.8,,,,,,,,10,wg-a,,7,,AAXX 03064 07070 02311 80114 10000 21010 39988 40102 53022 61000 71077 8657/ 90600 333 10008 21002 4/007 6005=
07070,1997-12-03 12:00:00,1,1013.8,1.3,86,-1,500,18.52,,,10,,,,,,,,,,3,wg-a,,,,AAXX 03124 07070 02500 70110 10010 21010 30024 40138 51013 61000 70372 82572 91200 333 6100=
07070,1997-12-03 15:00:00,1,1014.9,1.1,80,-2,8000,14.816,,,350,,,,,,,,,,,wg-a,,,,AAXX 03154 07070 12/58 73508 10010 21020 30035 40149 53011 60006 83032 91500=
07070,1997-12-03 18:00:00,0,1016.3,1.3,86,-2,6000,7.408,,,300,-0.4,1.6,,,,,,,,,wg-a,,7,,AAXX 03184 07070 12556 73004 10000 21020 30048 40163 51013 60006 8357/ 91800 333 10016 21004 4/007=
07070,1997-12-03 21:00:00,1,1016.1,-0.1,93,0,6000,11.112,,,290,,,,,,,,,,,wg-a,,,,AAXX 03214 07070 12556 72906 10010 20000 30047 40161 58001 60006 875// 92100=
07070,1997-12-04 00:00:00,0,1016.1,0,93,-1,500,14.816,,,340,,,,,,,,,,,wg-a,,,,AAXX 04004 07070 12/00 /3408 10000 21010 30047 40161 50000 60006 80002 90000=
07070,1997-12-04 03:00:00,1,1016.4,0.3,93,0,4000,14.816,,,10,,,,,,,,,,10,wg-a,,,,AAXX 04034 07070 12640 80108 10010 20000 30050 40164 53003 60006 71022 885// 90300=
07070,1997-12-04 06:00:00,0,1016.9,0.4,86,-2,7000,11.112,,,20,-0.4,1.1,,,,,,,,,wg-a,,3,,AAXX 04064 07070 02657 70206 10000 21020 30054 40169 53004 60006 875// 90600 333 10011 21004 4/003 61000=
07070,1997-12-04 09:00:00,1,1018.3,1.4,80,-2,6000,14.816,,,20,,,,,,,,,,,wg-a,,,,AAXX 04094 07070 12656 70208 10010 21020 30068 40183 51014 60006 875// 90900=
07070,1997-12-04 12:00:00,2,1018.1,-0.1,87,0,7000,14.816,,,20,,,,,,,,,,,wg-a,,,,AAXX 04124 07070 12457 70208 10020 20000 30067 40181 58001 60006 875// 91200=
07070,1997-12-04 15:00:00,2,1018.6,0.5,93,1,4000,11.112,,,20,,,,,,,,,,10,wg-a,,,,AAXX 04154 07070 12440 80206 10020 20010 30072 40186 53005 60006 71022 875// 91500=
07070,1997-12-04 18:00:00,2,1019.9,1.3,93,1,500,11.112,,,30,-0.1,2.4,,,,,,,,,wg-a,,,,AAXX 04184 07070 12/00 /0306 10020 20010 30085 40199 52013 60006 91800 333 10024 21001=
07070,1997-12-04 21:00:00,2,1021.3,1.4,93,1,6000,7.408,,,40,,,,,,,,,,,wg-a,,,,AAXX 04214 07070 12456 80404 10020 20010 30099 40213 51014 60006 885// 92100=
07070,1997-12-05 00:00:00,2,1022.2,0.9,93,1,500,7.408,,,10,,,,,,,,,,,wg-a,,,,AAXX 05004 07070 12400 70104 10020 20010 30108 40222 51009 60006 875// 90000=
07070,1997-12-05 03:00:00,2,1022.6,0.3,93,1,4000,7.408,,,350,,,,,,,,,,10,wg-a,,,,AAXX 05034 07070 12440 83504 10020 20010 30111 40226 51003 60006 71022 885// 90300=
07070,1997-12-05 06:00:00,1,1023.5,0.9,100,1,4000,11.112,,,360,1.2,2,,,,,,,,10,wg-a,,,,AAXX 05064 07070 02440 83606 10010 20010 30120 40235 52009 60006 71022 885// 90600 333 10020 20012 60004=
07070,1997-12-05 09:00:00,2,1025.1,1.6,93,1,3500,7.408,,,360,,,,,,,,,,10,wg-a,,,,AAXX 05094 07070 12235 83604 10020 20010 30136 40251 53016 60006 71022 885// 90900=
07070,1997-12-05 12:00:00,2,1024.9,-0.2,87,0,4500,3.704,,,10,,,,,,,,,,10,wg-a,,,,AAXX 05124 07070 12345 80102 10020 20000 30134 40249 58002 60006 71022 876// 91200=
07070,1997-12-05 15:00:00,2,1025.4,0.5,80,-1,8000,3.704,,,70,,,,,,,,,,,wg-a,,,,AAXX 05154 07070 12458 70702 10020 21010 30139 40254 51005 60006 876// 91500=
07070,1997-12-05 18:00:00,0,1026.9,1.4,86,-2,8000,3.704,,,280,0.3,1.9,,,,,,,,,wg-a,,,,AAXX 05184 07070 12/58 /2802 10000 21020 30153 40269 52014 60006 91800 333 10019 20003=
07070,1997-12-05 21:00:00,-2,1027.5,0.6,100,-2,8000,7.408,,,180,,,,,,,,,,,wg-a,,,,AAXX 05214 07070 12/58 01804 11020 21020 30159 40275 53006 60006 80000 92100=
07070,1997-12-06 00:00:00,-3,1027.5,-0.1,100,-3,6000,3.704,,,200,,,,,,,,,,,wg-a,,,,AAXX 06004 07070 12/56 02002 11030 21030 30158 40275 57001 60006 80000 90000=
07070,1997-12-06 03:00:00,-4,1027.1,-0.4,100,-4,6000,7.408,,,190,,,,,,,,,,,wg-a,,,,AAXX 06034 07070 12/56 01904 11040 21040 30154 40271 56004 60006 80000 90300=
07070,1997-12-06 06:00:00,-3,1026.8,-0.3,93,-4,8000,3.704,,,170,-4.2,0.5,,,,,,,,,wg-a,,,,AAXX 06064 07070 02458 81702 11030 21040 30151 40268 58003 60006 886// 90600 333 10005 21042 60004=
07070,1997-12-06 09:00:00,-1,1026.7,0,93,-2,4500,11.112,,,170,,,,,,,,,,10,wg-a,,,,AAXX 06094 07070 12445 71706 11010 21020 30151 40267 50000 60006 71022 875// 90900=
07070,1997-12-06 12:00:00,2,1025.8,-0.8,80,-1,8000,14.816,,,250,,,,,,,,,,,wg-a,,,,AAXX 06124 07070 12458 72508 10020 21010 30143 40258 58008 60006 8553/ 91200=
07070,1997-12-06 15:00:00,1,1025.1,-0.7,86,-1,8000,11.112,,,230,,,,,,,,,,,wg-a,,,,AAXX 06154 07070 12/58 /2306 10010 21010 30136 40251 55007 60006 83031 91500=
07070,1997-12-06 18:00:00,-1,1024.7,-0.5,93,-2,7000,11.112,,,180,-3.1,1.8,,,,,,,,,wg-a,,,,AAXX 06184 07070 12/57 31806 11010 21020 30131 40247 58005 60006 80001 91800 333 10018 21031=
07070,1997-12-06 21:00:00,-1,1025,0.3,93,-2,7000,11.112,,,180,,,,,,,,,,,wg-a,,,,AAXX 06214 07070 12/57 01806 11010 21020 30134 40250 51003 60006 80000 92100=
07070,1997-12-07 00:00:00,-2,1024,-1,93,-3,7000,7.408,,,160,,,,,,,,,,,wg-a,,,,AAXX 07004 07070 12/57 01604 11020 21030 30124 40240 58010 60006 80000 90000=
07070,1997-12-07 06:00:00,-3,1022.3,-0.8,93,-4,500,7.408,,,190,-2.8,-0.7,,,,,,,,,wg-a,,,,AAXX 07064 07070 02/00 01904 11030 21040 30107 40223 57008 60006 80000 90600 333 11007 21028 60004=
07070,1997-12-07 09:00:00,-1,1021.6,-0.7,93,-2,3500,11.112,,,180,,,,,,,,,,10,wg-a,,,,AAXX 07094 07070 12/35 /1806 11010 21020 30100 40216 56007 60006 71011 80001 90900=
07070,1997-12-07 12:00:00,1,1019,-2.4,86,-1,500,11.112,,,170,,,,,,,,,,,wg-a,,,,AAXX 07124 07070 12/00 /1706 10010 21010 30076 40190 58024 60006 80001 91200=
07070,1997-12-07 15:00:00,1,1016.8,-2.2,86,-1,800,11.112,,,120,,,,,,,,,,,wg-a,,,,AAXX 07154 07070 12/08 /1206 10010 21010 30054 40168 58022 60006 80002 91500=
07070,1997-12-07 18:00:00,1,1014.8,-2,86,-1,8000,14.816,,,170,-3.9,2.2,,,,,,,,,wg-a,,,,AAXX 07184 07070 12/58 /1708 10010 21010 30034 40148 56020 60006 84012 91800 333 10022 21039=
07070,1997-12-07 21:00:00,0,1013.4,-1.4,86,-2,8000,11.112,,,170,,,,,,,,,,,wg-a,,,,AAXX 07214 07070 12/58 31706 10000 21020 30020 40134 55014 60006 81031 92100=
07070,1997-12-08 00:00:00,-1,1012.2,-1.3,86,-3,12000,11.112,,,160,,,,,,,,,,,wg-a,,,,AAXX 08004 07070 12/62 41606 11010 21030 30007 40122 58013 60006 83031 90000=
07070,1997-12-08 03:00:00,2,1010.3,-1.7,75,-2,12000,22.224,,,180,,,,,,,,,,60,wg-a,,,,AAXX 08034 07070 02462 71812 10020 21020 39990 40103 56017 61000 76061 875// 90300 333 ////=
07070,1997-12-08 06:00:00,3,1010,-0.3,87,1,10000,7.408,,,150,-1.2,2.6,,,,,,,,21,wg-a,,,,AAXX 08064 07070 02460 81504 10030 20010 39987 40100 56003 61000 72161 875// 90600 333 10026 21012 6000=
07070,1997-12-08 09:00:00,4,1010.6,0.7,93,3,10000,14.816,,,190,,,,,,,,,,,wg-a,,,,AAXX 08094 07070 12460 81908 10040 20030 39994 40106 50007 60006 875// 90900=
07070,1997-12-08 12:00:00,6,1009.6,-0.9,81,3,15000,22.224,,,140,,,,,,,,,,,wg-a,,,,AAXX 08124 07070 12465 /1412 10060 20030 39985 40096 58009 60006 85500 91200=
07070,1997-12-08 15:00:00,6,1008.1,-1.5,81,3,20000,25.928,,,160,,,,,,,,,,,wg-a,,,,AAXX 08154 07070 12470 51614 10060 20030 39970 40081 56015 60006 83530 91500=
07070,1997-12-08 18:00:00,6,1008.1,-0,87,4,15000,22.224,,,160,2.4,7.1,,,,,,,,,wg-a,,,,AAXX 08184 07070 12565 /1612 10060 20040 39970 40081 54000 60006 85500 91800 333 10071 20024=
07070,1997-12-08 21:00:00,6,1008,-0.1,93,5,12000,14.816,,,160,,,,,,,,,,,wg-a,,,,AAXX 08214 07070 12562 71608 10060 20050 39969 40080 55001 60006 875// 92100=
07070,1997-12-09 00:00:00,8,1008.3,0.4,93,7,10000,14.816,,,220,,,,,,,,,,21,wg-a,,,,AAXX 09004 07070 02460 72208 10080 20070 39973 40083 53004 61000 72162 875// 90000 333 6100=
07070,1997-12-09 09:00:00,9,1012.6,1.6,87,7,6000,14.816,,,220,,,,0,,,,,,1,wg-a,,,,AAXX 09094 07070 12456 /2208 10090 20070 30015 40126 52016 60007 70186 86800 90900=
07070,1997-12-09 12:00:00,9,1012.8,0.3,87,7,12000,14.816,,,220,,,,,,,,,,1,wg-a,,,,AAXX 09124 07070 12762 72208 10090 20070 30018 40128 50003 60006 70186 8553/ 91200=
07070,1997-12-09 15:00:00,9,1013.1,0.3,87,7,12000,22.224,,,220,,,,,,,,,,,wg-a,,,,AAXX 09154 07070 12762 52212 10090 20070 30021 40131 51003 60006 82531 91500=
07070,1997-12-09 18:00:00,9,1013.7,0.6,87,7,9000,22.224,,,210,7.7,10.2,,,,,,,,60,wg-a,,,,AAXX 09184 07070 02559 82112 10090 20070 30027 40137 51006 61000 76062 875// 91800 333 10102 20077 6100=
07070,1997-12-10 00:00:00,10,1012.8,-0.9,93,9,10000,29.632,,,230,,,,0,,,,,,61,wg-a,,,,AAXX 10004 07070 02460 82316 10100 20090 30018 40128 56009 60016 76162 885// 90000 333 60007=
07070,1997-12-10 03:00:00,11,1012.2,-0.6,87,9,15000,31.484,,,230,,,,0,,,,,,3,wg-a,,,,AAXX 10034 07070 12465 82317 10110 20090 30012 40122 55006 60007 70362 885// 90300=
07070,1997-12-10 06:00:00,11,1010.6,-1.6,82,8,15000,18.52,,,210,9.3,10.9,,,,,1,,,3,wg-a,,,,AAXX 10064 07070 02465 82110 10110 20080 39996 40106 58016 60006 70362 885// 90600 333 10109 20093 60014=
07070,1997-12-10 09:00:00,11,1008.9,-1.6,87,9,8000,25.928,,,200,,,,0,,,,,,61,wg-a,,,,AAXX 10094 07070 12458 82014 10110 20090 39980 40089 58016 60007 76162 885// 90900=
07070,1997-12-10 12:00:00,11,1006.2,-2.7,94,10,6000,31.484,,,220,,,,3,,,,,,61,wg-a,,,,AAXX 10124 07070 02456 82217 10110 20100 39953 40062 57027 60036 76162 888// 91200 333 60037=
07070,1997-12-10 18:00:00,12,1008.5,1.6,94,11,12000,25.928,,,240,10.2,12.5,,,,,,,,1,wg-a,,,,AAXX 10184 07070 02462 /2414 10120 20110 39976 40085 52016 60006 70165 83801 91800 333 10125 20102 61000=
07070,1997-12-10 21:00:00,12,1010.8,2.3,94,11,12000,14.816,,,250,,,,,,,,,,,wg-a,,,,AAXX 10214 07070 12462 72508 10120 20110 39999 40108 51023 60006 878// 92100=
07070,1997-12-11 00:00:00,12,1010.9,0.1,88,10,12000,18.52,,,240,,,,,,,,,,,wg-a,,,,AAXX 11004 07070 12462 82410 10120 20100 30000 40109 50001 60006 878// 90000=
07070,1997-12-11 03:00:00,12,1009.8,-1.1,94,11,8000,18.52,,,220,,,,1,,,,,,61,wg-a,,,,AAXX 11034 07070 12458 82210 10120 20110 39989 40098 58011 60017 76162 8587/ 90300=
07070,1997-12-11 06:00:00,12,1006.9,-2.9,94,11,7000,7.408,,,210,10.8,12.7,,,,,,,,21,wg-a,,,,AAXX 11064 07070 02357 82104 10120 20110 39960 40069 56029 61000 72162 877// 90600 333 10127 20108 6007=
07070,1997-12-11 12:00:00,14,1006,-1.1,94,13,15000,25.928,,,240,,,,0,,,,,,21,wg-a,,,,AAXX 11124 07070 02565 82414 10140 20130 39953 40060 57011 60006 72165 885// 91200 333 60007=
07070,1997-12-11 15:00:00,14,1004.7,-1.4,88,12,8000,22.224,,,250,,,,3,,,,,,25,wg-a,,,,AAXX 11154 07070 12258 72512 10140 20120 39939 40047 56014 60037 72586 8487/ 91500=
07070,1997-12-11 18:00:00,12,1004.3,-0.4,94,11,15000,22.224,,,250,11.5,14.5,,,,,,,,3,wg-a,,,,AAXX 11184 07070 12565 42512 10120 20110 39935 40043 57004 60006 70386 82530 91800 333 10145 20115=
07070,1997-12-11 21:00:00,12,1004.4,0.1,76,8,15000,35.188,,,280,,,,,,,,,,25,wg-a,,,,AAXX 11214 07070 02565 52819 10120 20080 39936 40044 52001 61000 72586 85800 92100 333 ////=
07070,1997-12-12 00:00:00,10,1006.4,1.9,82,7,10000,31.484,,,280,,,,1,,,,,,80,wg-a,,,,AAXX 12004 07070 02560 72817 10100 20070 39955 40064 53019 60016 78086 878// 90000 333 60017=
07070,1997-12-12 03:00:00,9,1008.2,1.7,87,7,15000,25.928,,,260,,,,,,,,,,61,wg-a,,,,AAXX 12034 07070 02565 72614 10090 20070 39972 40082 53017 61000 76186 878// 90300 333 ////=
07070,1997-12-12 06:00:00,8,1009.9,1.7,93,7,10000,31.484,,,280,7.9,12.3,,,,,,,,21,wg-a,,,,AAXX 12064 07070 02460 82817 10080 20070 39989 40099 53017 61000 72186 888// 90600 333 10123 20079 6005=
07070,1997-12-12 12:00:00,8,1016.4,2.8,87,6,8000,29.632,,,310,,,,0,,,,,,51,wg-a,,,,AAXX 12124 07070 02458 83116 10080 20060 30053 40164 51028 60016 75165 875// 91200 333 60007=
07070,1997-12-12 18:00:00,7,1022.7,3.1,87,5,10000,29.632,,,310,7.1,8.3,,,,,,,,80,wg-a,,,,AAXX 12184 07070 02460 73116 10070 20050 30115 40227 51031 61000 78086 87800 91800 333 10083 20071 6000=
07070,1997-12-12 21:00:00,7,1025.1,2.3,87,5,10000,18.52,,,320,,,,,,,,,,25,wg-a,,,,AAXX 12214 07070 02460 73210 10070 20050 30138 40251 52023 61000 72586 878// 92100 333 ////=
07070,1997-12-13 00:00:00,6,1026.9,1.8,93,5,7000,18.52,,,320,,,,2,,,,,,3,wg-a,,,,AAXX 13004 07070 02457 83210 10060 20050 30156 40269 53018 60026 70386 877// 90000 333 60027=
07070,1997-12-13 03:00:00,6,1028.1,1.2,93,5,10000,14.816,,,320,,,,,,,,,,,wg-a,,,,AAXX 13034 07070 12460 83208 10060 20050 30168 40281 52012 60006 878// 90300=
07070,1997-12-13 06:00:00,4,1029.4,1.2,93,3,10000,14.816,,,310,3.6,7.1,,,,,2,,,,wg-a,,,,AAXX 13064 07070 02/60 03108 10040 20030 30180 40294 53012 60006 80000 90600 333 10071 20036 60024=
07070,1997-12-13 09:00:00,3,1031.6,2.1,93,2,8000,7.408,,,280,,,,,,,,,,,wg-a,,,,AAXX 13094 07070 12/58 02804 10030 20020 30201 40316 51021 60006 80000 90900=
07070,1997-12-13 12:00:00,7,1032.3,0.8,76,3,10000,14.816,,,310,,,,,,,,,,,wg-a,,,,AAXX 13124 07070 12460 /3108 10070 20030 30209 40323 51008 60006 81130 91200=
07070,1997-12-13 15:00:00,7,1032.5,0.2,81,4,12000,3.704,,,300,,,,,,,,,,,wg-a,,,,AAXX 13154 07070 12562 /3002 10070 20040 30211 40325 53002 60006 81200 91500=
07070,1997-12-13 18:00:00,3,1033.1,0.5,93,2,15000,7.408,,,230,2.5,7.2,,,,,,,,,wg-a,,,,AAXX 13184 07070 12/65 42304 10030 20020 30216 40331 51005 60006 80002 91800 333 10072 20025=
07070,1997-12-14 00:00:00,1,1033.4,-0.2,100,1,8000,3.704,,,210,,,,0,,,,,,,wg-a,,,,AAXX 14004 07070 02558 /2102 10010 20010 30218 40334 58002 60006 85500 90000 333 60007=
07070,1997-12-14 03:00:00,2,1032.8,-0.6,93,1,8000,11.112,,,240,,,,,,,,,,,wg-a,,,,AAXX 14034 07070 12558 52406 10020 20010 30212 40328 56006 60006 83508 90300=
07070,1997-12-14 06:00:00,2,1031.4,-1.4,93,1,8000,7.408,,,270,0.8,3.1,,,,,,,,,wg-a,,,,AAXX 14064 07070 02458 72704 10020 20010 30198 40314 56014 60006 875// 90600 333 10031 20008 60004=
07070,1997-12-14 09:00:00,4,1030.8,-0.5,93,3,500,7.408,,,280,,,,,,,,,,,wg-a,,,,AAXX 14094 07070 12300 82804 10040 20030 30193 40308 55005 60006 8368/ 90900=
07070,1997-12-14 12:00:00,5,1029,-1.7,93,4,3000,11.112,,,280,,,,,,,,,,10,wg-a,,,,AAXX 14124 07070 12130 82806 10050 20040 30176 40290 58017 60006 71022 886// 91200=
07070,1997-12-14 15:00:00,6,1027.2,-1.7,93,5,1000,11.112,,,320,,,,0,,,,,,10,wg-a,,,,AAXX 14154 07070 12210 83206 10060 20050 30159 40272 56017 60007 71062 886// 91500=
07070,1997-12-14 18:00:00,4,1026.6,-0.7,100,4,1000,14.816,,,340,1.1,5.7,,,,,,,,10,wg-a,,,,AAXX 14184 07070 12510 /3408 10040 20040 30152 40266 57007 60006 71061 83500 91800 333 10057 20011=
07070,1997-12-14 21:00:00,2,1026.3,-0.4,100,2,500,11.112,,,350,,,,,,,,,,,wg-a,,,,AAXX 14214 07070 12500 /3506 10020 20020 30148 40263 58004 60006 85530 92100=
07070,1997-12-15 00:00:00,3,1025.8,-0.4,93,2,8000,18.52,,,20,,,,0,,,,,,,wg-a,,,,AAXX 15004 07070 02658 70210 10030 20020 30144 40258 55004 60006 875// 90000 333 60007=
07070,1997-12-15 03:00:00,3,1026,0.1,81,0,10000,18.52,,,20,,,,,,,,,,,wg-a,,,,AAXX 15034 07070 12660 40210 10030 20000 30145 40260 53001 60006 84500 90300=
07070,1997-12-15 06:00:00,3,1025.8,-0.1,87,1,10000,22.224,,,30,2,4.3,,,,,1,,,,wg-a,,,,AAXX 15064 07070 02760 80312 10030 20010 30144 40258 57001 60006 885// 90600 333 10043 20020 60014=
07070,1997-12-15 09:00:00,2,1026.6,0.7,87,0,8000,25.928,,,40,,,,,,,,,,,wg-a,,,,AAXX 15094 07070 12658 70414 10020 20000 30151 40266 52007 60006 8553/ 90900=
07070,1997-12-15 12:00:00,4,1026.4,-0.1,75,0,20000,25.928,,,70,,,,,,,,,,,wg-a,,,,AAXX 15124 07070 12570 50714 10040 20000 30150 40264 58001 60006 85800 91200=
07070,1997-12-15 15:00:00,4,1025.9,-0.5,65,-2,25000,22.224,,,80,,,,,,,,,,,wg-a,,,,AAXX 15154 07070 12575 70812 10040 21020 30145 40259 56005 60006 878// 91500=
07070,1997-12-15 18:00:00,3,1026.2,0.3,70,-2,20000,31.484,,,70,1.7,4.3,,,,,,,,,wg-a,,,,AAXX 15184 07070 12670 70717 10030 21020 30148 40262 51003 60006 875// 91800 333 10043 20017=
07070,1997-12-16 00:00:00,1,1025.2,-1,69,-4,20000,31.484,,,80,,,,,,,,,,,wg-a,,,,AAXX 16004 07070 12570 70817 10010 21040 30137 40252 58010 60006 875// 90000=
07070,1997-12-16 03:00:00,0,1024,-1.3,74,-4,12000,29.632,,,90,,,,,,,,,,,wg-a,,,,AAXX 16034 07070 12562 70916 10000 21040 30124 40240 58013 60006 875// 90300=
07070,1997-12-16 06:00:00,-1,1022.2,-1.8,80,-4,10000,29.632,,,80,-1.3,3,,,,,,,,,wg-a,,,,AAXX 16064 07070 02560 70816 11010 21040 30106 40222 58018 60006 875// 90600 333 10030 21013 60004=
07070,1997-12-16 15:00:00,-2,1017.6,-1.5,74,-6,15000,29.632,,,100,,,,,,,,,,,wg-a,,,,AAXX 16154 07070 12565 21016 11020 21060 30060 40176 55015 60006 82100 91500=
07070,1997-12-16 18:00:00,-4,1015.5,-2.1,80,-7,15000,25.928,,,100,-3.5,-1,,,,,,,,,wg-a,,,,AAXX 16184 07070 12/65 21014 11040 21070 30039 40155 58021 60006 80002 91800 333 11010 21035=
07070,1997-12-16 21:00:00,-3,1014.2,-1.3,80,-6,15000,18.52,,,120,,,,,,,,,,,wg-a,,,,AAXX 16214 07070 12/65 21210 11030 21060 30026 40142 58013 60006 80002 92100=
07070,1997-12-17 00:00:00,-3,1011.3,-2.8,86,-5,10000,25.928,,,110,,,,,,,,,,,wg-a,,,,AAXX 17004 07070 12/60 61114 11030 21050 39998 40113 56028 60006 80001 90000=
07070,1997-12-17 03:00:00,-2,1009.2,-2,80,-5,10000,29.632,,,130,,,,,,,,,,,wg-a,,,,AAXX 17034 07070 12/60 81316 11020 21050 39978 40092 58020 60006 8807/ 90300=
07070,1997-12-17 06:00:00,-1,1006.8,-2.4,86,-3,8000,25.928,,,110,-3.6,-1.3,,,,,,,,66,wg-a,,,,AAXX 17064 07070 02/58 71114 11010 21030 39954 40068 56024 61000 76662 8707/ 90600 333 11013 21036 6100=
07070,1997-12-17 09:00:00,0,1006.4,-0.3,93,-1,3500,18.52,,,120,,,,2,,,,,,71,wg-a,,,,AAXX 17094 07070 12335 81210 10000 21010 39951 40064 58003 60027 77176 8152/ 90900=
07070,1997-12-17 12:00:00,1,1004.7,-1.7,93,0,500,18.52,,,130,,,,0,,,,,,10,wg-a,,,,AAXX 17124 07070 02500 81310 10010 20000 39934 40047 57017 60026 71076 8557/ 91200 333 60007=
07070,1997-12-17 15:00:00,2,1004.7,0.1,93,1,6000,18.52,,,120,,,,,,,,,,60,wg-a,,,,AAXX 17154 07070 02356 81210 10020 20010 39935 40047 53001 61000 76066 875// 91500 333 ////=
07070,1997-12-17 18:00:00,4,1004.2,-0.5,93,3,500,29.632,,,130,-1.4,3.6,,,,,,,,61,wg-a,,,,AAXX 17184 07070 02300 81316 10040 20030 39930 40042 58005 61000 76162 875// 91800 333 10036 21014 6100=
07070,1997-12-17 21:00:00,4,1004.3,0.2,93,3,9000,14.816,,,100,,,,,,,,,,2,wg-a,,,,AAXX 17214 07070 02459 81008 10040 20030 39932 40043 50002 61000 70262 875// 92100 333 ////=
07070,1997-12-18 00:00:00,4,1003.8,-0.5,93,3,10000,14.816,,,80,,,,,,,,,,1,wg-a,,,,AAXX 18004 07070 02760 80808 10040 20030 39927 40038 56005 61000 70162 8553/ 90000 333 ////=
07070,1997-12-18 03:00:00,6,1002.4,-1.4,81,3,10000,22.224,,,110,,,,0,,,,,,,wg-a,,,,AAXX 18034 07070 12760 71112 10060 20030 39913 40024 58014 60007 8353/ 90300=
07070,1997-12-18 06:00:00,6,1002.1,-0.2,87,4,10000,22.224,,,110,3.1,6.4,,,,,,,,60,wg-a,,,,AAXX 18064 07070 02760 81112 10060 20040 39911 40021 55002 61000 76062 8557/ 90600 333 10064 20031 6003=
07070,1997-12-18 09:00:00,8,1001.6,-0.5,87,6,7000,29.632,,,140,,,,,,,,,,61,wg-a,,,,AAXX 18094 07070 02757 81416 10080 20060 39906 40016 55005 61000 76162 8557/ 90900 333 ////=
07070,1997-12-18 12:00:00,8,1000.5,-1,93,7,7000,38.892,,,160,,,,1,,,,,,60,wg-a,,,,AAXX 18124 07070 02457 81621 10080 20070 39896 40005 58010 60016 76062 8677/ 91200 333 60017=
07070,1997-12-18 15:00:00,10,1000.2,-0.3,93,9,7000,31.484,,,170,,,,1,,,,,,61,wg-a,,,,AAXX 18154 07070 12457 81717 10100 20090 39893 40002 56003 60017 76166 8557/ 91500=
07070,1997-12-18 18:00:00,10,999.3,-0.8,93,9,10000,29.632,,,170,6.4,10.3,,,,,,,,60,wg-a,,,,AAXX 18184 07070 02460 81716 10100 20090 39885 49993 56008 61000 76066 8387/ 91800 333 10103 20064 6001=
07070,1997-12-19 00:00:00,9,998.2,-0.9,93,8,10000,29.632,,,150,,,,3,,,,,,61,wg-a,,,,AAXX 19004 07070 02560 81516 10090 20080 39873 49982 58009 60046 76166 8687/ 90000 333 60037=
07070,1997-12-19 03:00:00,9,997,-1.2,93,8,7000,22.224,,,140,,,,,,,,,,3,wg-a,,,,AAXX 19034 07070 02557 81412 10090 20080 39861 49970 56012 61000 70362 875// 90300 333 ////=
07070,1997-12-19 06:00:00,9,996.5,-0.4,93,8,7000,25.928,,,180,8.1,9.9,,,,,,,,50,wg-a,,,,AAXX 19064 07070 02457 71814 10090 20080 39857 49965 56004 61000 75065 876// 90600 333 10099 20081 6008=
07070,1997-12-19 09:00:00,10,998.9,2.4,87,8,25000,22.224,,,210,,,,,,,,,,1,wg-a,,,,AAXX 19094 07070 02475 72112 10100 20080 39881 49989 53024 61000 70152 878// 90900 333 ////=
07070,1997-12-19 12:00:00,12,1000.3,1.4,82,9,11000,18.52,,,220,,,,,,,,,,,wg-a,,,,AAXX 19124 07070 02/61 /2210 10120 20090 39895 40003 51014 61000 91200 333 ////=
07070,1997-12-19 15:00:00,10,1000.1,-0.3,87,8,20000,14.816,,,170,,,,,,,,,,,wg-a,,,,AAXX 19154 07070 12570 71708 10100 20080 39892 40001 55003 60006 81832 91500=
07070,1997-12-19 18:00:00,6,1000.7,0.5,93,5,15000,11.112,,,120,5.7,12,,,,,,,,,wg-a,,,,AAXX 19184 07070 12/65 51206 10060 20050 39897 40007 53005 60006 83032 91800 333 10120 20057=
07070,1997-12-19 21:00:00,7,1001.4,0.7,93,6,15000,3.704,,,30,,,,,,,,,,,wg-a,,,,AAXX 19214 07070 12/65 40302 10070 20060 39904 40014 53007 60006 83032 92100=
07070,1997-12-20 00:00:00,5,1000.9,-0.6,93,4,15000,11.112,,,50,,,,,,,,,,,wg-a,,,,AAXX 20004 07070 12/65 00506 10050 20040 39898 40009 58006 60006 80000 90000=
07070,1997-12-20 03:00:00,2,1000.5,-0.5,100,2,10000,11.112,,,70,,,,,,,,,,,wg-a,,,,AAXX 20034 07070 12/60 00706 10020 20020 39893 40005 56005 60006 80000 90300=
07070,1997-12-20 06:00:00,3,1000.8,0.3,93,2,10000,3.704,,,80,1.8,8.3,,,,,,,,,wg-a,,,,AAXX 20064 07070 02/60 00802 10030 20020 39896 40008 51003 60006 80000 90600 333 10083 20018 61000=
07070,1997-12-20 09:00:00,4,1002.2,1.5,100,4,1800,3.704,,,90,,,,,,,,,,10,wg-a,,,,AAXX 20094 07070 12118 80902 10040 20040 39911 40022 52015 60006 71011 886// 90900=
07070,1997-12-20 15:00:00,6,1003.9,1.3,100,6,300,3.704,,,50,,,,,,,,,,45,wg-a,,,,AAXX 20154 07070 12/03 90502 10060 20060 39928 40039 53013 60006 74544 89/// 91500=
07070,1997-12-20 18:00:00,5,1005.1,1.2,100,5,300,3.704,,,10,2.3,5.8,,,,,,,,45,wg-a,,,,AAXX 20184 07070 12/03 90102 10050 20050 39940 40051 53012 60006 74544 89/// 91800 333 10058 20023=
07070,1997-12-20 21:00:00,5,1005.9,0.8,100,5,1200,7.408,,,270,,,,,,,,,,,wg-a,,,,AAXX 20214 07070 32/12 /2704 10050 20050 39948 40059 51008 92100=
07070,1997-12-21 00:00:00,6,1006.8,0.9,100,6,800,11.112,,,310,,,,,,,,,,45,wg-a,,,,AAXX 21004 07070 12/08 93106 10060 20060 39957 40068 51009 60006 74542 89/// 90000=
07070,1997-12-21 03:00:00,6,1007.3,0.5,100,6,900,11.112,,,300,,,,,,,,,,43,wg-a,,,,AAXX 21034 07070 12/09 93006 10060 20060 39962 40073 53005 60006 74344 89/// 90300=
07070,1997-12-21 06:00:00,6,1008.1,0.8,100,6,2500,18.52,,,330,5.4,5.9,,,,,,,,10,wg-a,,,,AAXX 21064 07070 02125 83310 10060 20060 39970 40081 53008 60006 71042 886// 90600 333 10059 20054 60004=
07070,1997-12-21 09:00:00,5,1009.6,1.4,100,5,1000,14.816,,,330,,,,,,,,,,,wg-a,,,,AAXX 21094 07070 32/10 /3308 10050 20050 39984 40096 53014 90900=
07070,1997-12-21 12:00:00,6,1009.9,0.4,93,5,3000,22.224,,,320,,,,,,,,,,,wg-a,,,,AAXX 21124 07070 02/30 /3212 10060 20050 39988 40099 50004 61000 91200 333 ////=
07070,1997-12-21 15:00:00,6,1010.3,0.4,93,5,4000,18.52,,,320,,,,,,,,,,10,wg-a,,,,AAXX 21154 07070 12340 73210 10060 20050 39992 40103 53004 60006 71022 876// 91500=
07070,1997-12-21 18:00:00,6,1011.4,1.1,93,5,3000,22.224,,,340,5.2,6.2,,,,,,,,10,wg-a,,,,AAXX 21184 07070 12330 73412 10060 20050 30003 40114 51011 60006 71022 876// 91800 333 10062 20052=
07070,1997-12-21 21:00:00,6,1012.6,1.1,93,5,500,18.52,,,330,,,,,,,,,,,wg-a,,,,AAXX 21214 07070 12300 83310 10060 20050 30014 40126 53011 60006 886// 92100=
07070,1997-12-22 00:00:00,6,1013.4,0.8,93,5,4000,14.816,,,310,,,,,,,,,,10,wg-a,,,,AAXX 22004 07070 12340 83108 10060 20050 30022 40134 51008 60006 71022 886// 90000=
07070,1997-12-22 03:00:00,5,1014.2,0.8,93,4,3500,11.112,,,340,,,,,,,,,,10,wg-a,,,,AAXX 22034 07070 12235 83406 10050 20040 30030 40142 53008 60006 71022 886// 90300=
07070,1997-12-22 06:00:00,5,1013.6,-0.6,93,4,2000,11.112,,,300,4.6,6.1,,,,,,,,10,wg-a,,,,AAXX 22064 07070 02220 83006 10050 20040 30024 40136 56006 60006 71022 886// 90600 333 10061 20046 61000=
07070,1997-12-22 09:00:00,5,1014.6,1,93,4,3800,7.408,,,350,,,,,,,,,,10,wg-a,,,,AAXX 22094 07070 12238 83504 10050 20040 30034 40146 51010 60006 71022 886// 90900=
07070,1997-12-22 12:00:00,5,1014.5,-0.1,93,4,4000,7.408,,,350,,,,,,,,,,10,wg-a,,,,AAXX 22124 07070 12240 83504 10050 20040 30033 40145 58001 60006 71022 886// 91200=
07070,1997-12-22 15:00:00,5,1014.6,0.1,93,4,2500,7.408,,,20,,,,,,,,,,10,wg-a,,,,AAXX 22154 07070 02325 80204 10050 20040 30034 40146 53001 61000 71052 886// 91500 333 ////=
07070,1997-12-22 18:00:00,4,1014.9,0.2,100,4,1700,7.408,,,90,4.2,5.1,,,,,,,,10,wg-a,,,,AAXX 22184 07070 02217 80904 10040 20040 30036 40149 52002 61000 71052 876// 91800 333 10051 20042 6100=
07070,1997-12-22 21:00:00,4,1015.4,0.5,100,4,3000,3.704,,,80,,,,,,,,,,10,wg-a,,,,AAXX 22214 07070 02330 80802 10040 20040 30041 40154 52005 61000 71052 886// 92100 333 ////=
07070,1997-12-23 00:00:00,4,1015.7,0.3,100,4,2000,7.408,,,90,,,,,,,,,,10,wg-a,,,,AAXX 23004 07070 02220 80904 10040 20040 30044 40157 50003 61000 71052 886// 90000 333 ////=
07070,1997-12-23 12:00:00,6,1020.2,0.9,93,5,7000,11.112,,,200,,,,,,,,,,,wg-a,,,,AAXX 23124 07070 12457 82006 10060 20050 30090 40202 50009 60006 876// 91200=
07070,1997-12-23 15:00:00,7,1021.6,1.4,93,6,500,11.112,,,200,,,,,,,,,,,wg-a,,,,AAXX 23154 07070 12300 82006 10070 20060 30104 40216 53014 60006 876// 91500=
07070,1997-12-23 18:00:00,7,1022.7,1.1,93,6,6000,11.112,,,200,4,6.8,,,,,,,,,wg-a,,,,AAXX 23184 07070 12456 72006 10070 20060 30115 40227 51011 60006 878// 91800 333 10068 20040=
07070,1997-12-23 21:00:00,7,1022.8,0.1,93,6,10000,11.112,,,200,,,,,,,,,,60,wg-a,,,,AAXX 23214 07070 02660 82006 10070 20060 30116 40228 50001 61000 76062 885// 92100 333 ////=
07070,1997-12-24 00:00:00,8,1022.7,-0.1,100,8,7000,11.112,,,200,,,,1,,,,,,50,wg-a,,,,AAXX 24004 07070 02357 82006 10080 20080 30115 40227 58001 60016 75065 886// 90000 333 60017=
07070,1997-12-24 03:00:00,10,1022.6,-0,93,9,7000,11.112,,,200,,,,,,,,,,2,wg-a,,,,AAXX 24034 07070 02357 82006 10100 20090 30115 40226 55000 61000 70252 886// 90300 333 ////=
07070,1997-12-24 06:00:00,11,1021.9,-0.6,100,11,8000,11.112,,,200,6.8,11.4,,,,,1,,,2,wg-a,,,,AAXX 24064 07070 02458 82006 10110 20110 30109 40219 56006 60006 70252 886// 90600 333 10114 20068 60014=
07070,1997-12-24 09:00:00,12,1023.1,1.2,94,11,7000,11.112,,,200,,,,,,,,,,20,wg-a,,,,AAXX 24094 07070 02457 82006 10120 20110 30121 40231 53012 61000 72052 886// 90900 333 ////=
07070,1997-12-24 12:00:00,13,1022.1,-1,88,11,10000,18.52,,,220,,,,,,,,,,1,wg-a,,,,AAXX 24124 07070 02460 82210 10130 20110 30111 40221 58010 61000 70152 885// 91200 333 ////=
07070,1997-12-24 15:00:00,12,1020.1,-2,88,10,15000,14.816,,,210,,,,,,,,,,,wg-a,,,,AAXX 24154 07070 12465 72108 10120 20100 30091 40201 56020 60006 878// 91500=
07070,1997-12-24 18:00:00,12,1018.6,-1.5,88,10,10000,25.928,,,210,11.4,12.6,,,,,,,,61,wg-a,,,,AAXX 24184 07070 02460 82114 10120 20100 30076 40186 58015 61000 76162 888// 91800 333 10126 20114 6002=
07070,1997-12-24 21:00:00,12,1018.6,-0,88,10,11000,25.928,,,230,,,,,,,,,,,wg-a,,,,AAXX 24214 07070 32/61 /2314 10120 20100 30076 40186 55000 92100=
07070,1997-12-25 00:00:00,12,1018.9,0.3,88,10,10000,18.52,,,230,,,,,,,,,,2,wg-a,,,,AAXX 25004 07070 02460 82310 10120 20100 30079 40189 52003 60016 70265 888// 90000 333 61000=
07070,1997-12-25 06:00:00,9,1018.8,-0.5,87,7,10000,14.816,,,210,9,11.8,,,,,3,,,,wg-a,,,,AAXX 25064 07070 02660 32108 10090 20070 30077 40188 55005 60006 83500 90600 333 10118 20090 60034=
07070,1997-12-25 09:00:00,11,1015.7,-3,94,10,7000,18.52,,,190,,,,,,,,,,50,wg-a,,,,AAXX 25094 07070 02357 71910 10110 20100 30047 40157 57030 61000 75051 876// 90900 333 ////=
07070,1997-12-25 12:00:00,13,1011.6,-4,94,12,8000,25.928,,,210,,,,1,,,,,,61,wg-a,,,,AAXX 25124 07070 02458 82114 10130 20120 30007 40116 58040 60016 76165 876// 91200 333 60017=
07070,1997-12-25 15:00:00,14,1008.4,-3.1,82,11,500,42.596,,,230,,,,,,,,,,80,wg-a,,,,AAXX 25154 07070 02400 82323 10140 20110 39976 40084 56031 61000 78086 872// 91500 333 ////=
07070,1997-12-25 18:00:00,14,1006.6,-1.8,72,9,15000,42.596,,62.968,250,8.3,14.6,,,,,,,,25,wg-a,,,,AAXX 25184 07070 02565 82523 10140 20090 39958 40066 55018 61000 72586 8727/ 91800 333 10146 20083 6100 91034=
07070,1997-12-25 21:00:00,11,1008.7,2,76,7,20000,35.188,,,250,,,,0,,,,,,1,wg-a,,,,AAXX 25214 07070 12670 42519 10110 20070 39978 40087 51020 60007 70186 82201 92100=
07070,1997-12-26 00:00:00,10,1008.9,0.1,82,7,20000,31.484,,,250,,,,,,,,,,3,wg-a,,,,AAXX 26004 07070 12670 42517 10100 20070 39979 40089 50001 60006 70386 81101 90000=
07070,1997-12-26 03:00:00,10,1008.1,-0.8,76,6,15000,35.188,,,240,,,,,,,,,,,wg-a,,,,AAXX 26034 07070 12565 42419 10100 20060 39971 40081 58008 60006 83101 90300=
07070,1997-12-26 06:00:00,9,1007.1,-1,81,6,15000,42.596,,61.116,240,9.3,13.6,,,,,1,,,,wg-a,,,,AAXX 26064 07070 02565 22423 10090 20060 39961 40071 56010 60006 82100 90600 333 10136 20093 60014 91033=
07070,1997-12-26 09:00:00,9,1007.2,0.1,81,6,15000,31.484,,,240,,,,,,,,,,,wg-a,,,,AAXX 26094 07070 12565 /2417 10090 20060 39962 40072 53001 60006 85200 90900=
07070,1997-12-26 12:00:00,10,1005.2,-1.9,76,6,15000,35.188,,51.856,240,,,,,,,,,,,wg-a,,,,AAXX 26124 07070 12565 /2419 10100 20060 39943 40052 58019 60006 86200 91200 333 91028=
07070,1997-12-26 18:00:00,7,1005,1.7,87,5,15000,29.632,,,260,7,10.8,,,,,,,,21,wg-a,,,,AAXX 26184 07070 02565 72616 10070 20050 39940 40050 53017 61000 72186 8527/ 91800 333 10108 20070 6002=
07070,1997-12-26 21:00:00,7,1007.5,2.4,87,5,7000,31.484,,,280,,,,1,,,,,,80,wg-a,,,,AAXX 26214 07070 12557 72817 10070 20050 39964 40075 51024 60017 78086 8523/ 92100=
07070,1997-12-27 00:00:00,6,1008.4,0.9,93,5,15000,22.224,,,240,,,,2,,,,,,1,wg-a,,,,AAXX 27004 07070 02565 32412 10060 20050 39973 40084 51009 60036 70186 8323/ 90000 333 60027=
07070,1997-12-27 03:00:00,6,1009,0.6,93,5,15000,22.224,,,240,,,,1,,,,,,,wg-a,,,,AAXX 27034 07070 12565 32412 10060 20050 39979 40090 51006 60017 83800 90300=
07070,1997-12-27 06:00:00,6,1009.5,0.5,93,5,10000,18.52,,,230,4.5,7.3,,,,,,,,51,wg-a,,,,AAXX 27064 07070 02360 82310 10060 20050 39984 40095 53005 61000 75186 886// 90600 333 10073 20045 6006=
07070,1997-12-27 09:00:00,6,1010.5,1,93,5,7000,18.52,,,240,,,,,,,,,,21,wg-a,,,,AAXX 27094 07070 02357 72410 10060 20050 39994 40105 52010 61000 72165 876// 90900 333 ////=
07070,1997-12-27 12:00:00,8,1010.5,0,87,6,12000,25.928,,,270,,,,,,,,,,3,wg-a,,,,AAXX 27124 07070 02462 72714 10080 20060 39994 40105 50000 61000 70365 872// 91200 333 ////=
07070,1997-12-27 15:00:00,8,1010.7,0.2,87,6,10000,18.52,,,260,,,,0,,,,,,80,wg-a,,,,AAXX 27154 07070 12460 72610 10080 20060 39996 40107 53002 60007 78086 872// 91500=
07070,1997-12-27 18:00:00,7,1011.7,1,87,5,12000,14.816,,,260,5.6,8.8,,0,,,,,,3,wg-a,,,,AAXX 27184 07070 02662 72608 10070 20050 30006 40117 52010 60006 70386 85402 91800 333 10088 20056 60007=
07070,1997-12-27 21:00:00,5,1012.3,0.5,93,4,12000,22.224,,,250,,,,,,,,,,,wg-a,,,,AAXX 27214 07070 12462 72512 10050 20040 30011 40123 53005 60006 878// 92100=
07070,1997-12-28 00:00:00,5,1013,0.7,93,4,8000,22.224,,,260,,,,,,,,,,61,wg-a,,,,AAXX 28004 07070 02558 82612 10050 20040 30018 40130 53007 61000 76186 885// 90000 333 6100=
07070,1997-12-28 03:00:00,5,1013.8,0.8,93,4,10000,14.816,,,250,,,,0,,,,,,1,wg-a,,,,AAXX 28034 07070 12460 72508 10050 20040 30026 40138 51008 60007 70162 875// 90300=
07070,1997-12-28 06:00:00,4,1014.2,0.4,93,3,10000,3.704,,,250,4.3,6.5,,,,,1,,,1,wg-a,,,,AAXX 28064 07070 02460 72502 10040 20030 30030 40142 53004 60006 70162 875// 90600 333 10065 20043 60014=
07070,1997-12-28 09:00:00,4,1015.5,1.2,93,3,10000,14.816,,,250,,,,,,,,,,,wg-a,,,,AAXX 28094 07070 12560 72508 10040 20030 30042 40155 53012 60006 878// 90900=
07070,1997-12-28 12:00:00,7,1014.4,-1,81,4,15000,14.816,,,240,,,,,,,,,,,wg-a,,,,AAXX 28124 07070 12465 72408 10070 20040 30032 40144 58010 60006 81502 91200=
07070,1997-12-28 15:00:00,4,1014,-0.4,93,3,10000,18.52,,,220,,,,,,,,,,,wg-a,,,,AAXX 28154 07070 12460 72210 10040 20030 30028 40140 55004 60006 82602 91500=
07070,1997-12-28 18:00:00,4,1014,-0.1,93,3,10000,22.224,,,220,3.6,7.1,,,,,,,,,wg-a,,,,AAXX 28184 07070 12360 72212 10040 20030 30027 40140 55001 60006 866// 91800 333 10071 20036=
07070,1997-12-28 21:00:00,4,1013.3,-0.7,93,3,10000,22.224,,,230,,,,,,,,,,,wg-a,,,,AAXX 28214 07070 12360 72312 10040 20030 30020 40133 58007 60006 866// 92100=
07070,1997-12-29 00:00:00,4,1012.2,-1,93,3,10000,22.224,,,230,,,,,,,,,,,wg-a,,,,AAXX 29004 07070 12360 72312 10040 20030 30010 40122 56010 60006 866// 90000=
07070,1997-12-29 03:00:00,4,1012.1,-0.1,93,3,8000,22.224,,,240,,,,,,,,,,,wg-a,,,,AAXX 29034 07070 12358 72412 10040 20030 30009 40121 58001 60006 866// 90300=
07070,1997-12-29 06:00:00,4,1012,-0.1,87,2,10000,18.52,,,250,3.7,4.1,,,,,,,,,wg-a,,,,AAXX 29064 07070 02360 72510 10040 20020 30008 40120 55001 60006 866// 90600 333 10041 20037 60004=
07070,1997-12-29 09:00:00,4,1013,0.9,87,2,12000,14.816,,,230,,,,,,,,,,,wg-a,,,,AAXX 29094 07070 12362 72308 10040 20020 30017 40130 53009 60006 866// 90900=
07070,1997-12-29 12:00:00,4,1013.1,0.2,87,2,10000,14.816,,,230,,,,,,,,,,,wg-a,,,,AAXX 29124 07070 12460 72308 10040 20020 30019 40131 50002 60006 866// 91200=
07070,1997-12-29 15:00:00,4,1012.8,-0.3,87,2,12000,7.408,,,220,,,,,,,,,,,wg-a,,,,AAXX 29154 07070 12462 82204 10040 20020 30016 40128 56003 60006 886// 91500=
07070,1997-12-29 18:00:00,3,1013,0.1,87,1,12000,7.408,,,160,2.7,4.2,,,,,,,,,wg-a,,,,AAXX 29184 07070 12462 81604 10030 20010 30017 40130 53001 60006 8467/ 91800 333 10042 20027=
07070,1997-12-29 21:00:00,2,1012.8,-0.2,93,1,12000,11.112,,,100,,,,,,,,,,,wg-a,,,,AAXX 29214 07070 12762 71006 10020 20010 30015 40128 58002 60006 8353/ 92100=
07070,1997-12-30 00:00:00,2,1011.9,-0.9,93,1,10000,22.224,,,170,,,,,,,,,,,wg-a,,,,AAXX 30004 07070 12/60 71712 10020 20010 30006 40119 58009 60006 8703/ 90000=
07070,1997-12-30 03:00:00,2,1011.6,-0.3,87,0,12000,11.112,,,180,,,,,,,,,,,wg-a,,,,AAXX 30034 07070 12762 71806 10020 20000 30003 40116 56003 60006 8553/ 90300=
07070,1997-12-30 06:00:00,2,1010.8,-0.8,87,0,12000,18.52,,,150,1.5,2.7,,,,,,,,,wg-a,,,,AAXX 30064 07070 02762 71510 10020 20000 39995 40108 58008 60006 875// 90600 333 10027 20015 60004=
07070,1997-12-30 09:00:00,3,1011.5,0.7,87,1,12000,14.816,,,170,,,,,,,,,,,wg-a,,,,AAXX 30094 07070 12762 71708 10030 20010 30002 40115 52007 60006 875// 90900=
07070,1997-12-30 12:00:00,6,1010.3,-1,75,2,12000,18.52,,,170,,,,,,,,,,,wg-a,,,,AAXX 30124 07070 12/62 51710 10060 20020 39992 40103 58010 60006 84032 91200=
07070,1997-12-30 15:00:00,7,1008.9,-1.4,76,3,15000,18.52,,,170,,,,,,,,,,,wg-a,,,,AAXX 30154 07070 12765 51710 10070 20030 39978 40089 56014 60006 85500 91500=
07070,1997-12-30 18:00:00,7,1008.8,-0.1,81,4,12000,22.224,,,180,1.7,7.7,,,,,,,,,wg-a,,,,AAXX 30184 07070 12562 71812 10070 20040 39977 40088 57001 60006 875// 91800 333 10077 20017=
07070,1997-12-30 21:00:00,8,1007.8,-0.9,81,5,10000,22.224,,,190,,,,,,,,,,,wg-a,,,,AAXX 30214 07070 12460 /1912 10080 20050 39968 40078 58009 60006 85500 92100=
07070,1997-12-31 00:00:00,8,1007,-0.8,87,6,10000,14.816,,,180,,,,,,,,,,,wg-a,,,,AAXX 31004 07070 12560 71808 10080 20060 39960 40070 58008 60006 875// 90000=
07070,1997-12-31 06:00:00,8,1005.7,-0.6,93,7,10000,18.52,,,180,7.1,8.5,,,,,,,,60,wg-a,,,,AAXX 31064 07070 02660 81810 10080 20070 39947 40057 55006 61000 76061 8757/ 90600 333 10085 20071 6100=
07070,1997-12-31 09:00:00,9,1006.6,0.9,87,7,12000,18.52,,,200,,,,,,,,,,21,wg-a,,,,AAXX 31094 07070 02562 82010 10090 20070 39956 40066 53009 61000 72162 8357/ 90900 333 ////=
07070,1997-12-31 12:00:00,9,1006.7,0.1,93,8,9000,14.816,,,200,,,,1,,,,,,61,wg-a,,,,AAXX 31124 07070 02459 82008 10090 20080 39957 40067 50001 60016 76162 875// 91200 333 60017=
07070,1997-12-31 15:00:00,9,1008.1,1.4,100,9,6000,14.816,,,250,,,,2,,,,,,61,wg-a,,,,AAXX 31154 07070 12256 82508 10090 20090 39971 40081 53014 60027 76166 887// 91500=
07070,1997-12-31 18:00:00,8,1010.6,2.4,93,7,8000,0,,,0,7.6,9.5,,,,,,,,61,wg-a,,,,AAXX 31184 07070 02758 80000 10080 20070 39995 40106 51024 61000 76166 8457/ 91800 333 10095 20076 6001=
07070,1997-12-31 21:00:00,7,1012.8,2.2,100,7,8000,7.408,,,240,,,,0,,,,,,2,wg-a,,,,AAXX 31214 07070 12558 82404 10070 20070 30017 40128 51022 60007 70262 875// 92100=
