station_id,dh_utc,temperature,pression,pression_variation_3h,humidite,point_de_rosee,visibilite,vent_moyen,vent_rafales,vent_rafales_10min,vent_direction,temperature_min,temperature_max,pluie_1h,pluie_3h,pluie_6h,pluie_12h,pluie_24h,ensoleillement,temperature_sol,temps_omm,source,radiations,neige_au_sol,nebulosite,raw_msg
07070,1998-01-01 00:00:00,5,1014.2,1.3,100,5,8000,3.704,,,190,,,,,,,,,,1,wg-a,,,,AAXX 01004 07070 12758 81902 10050 20050 30030 40142 52013 60006 70162 875// 90000=
07070,1998-01-01 03:00:00,5,1014.9,0.7,100,5,7000,7.408,,,190,,,,,,,,,,,wg-a,,,,AAXX 01034 07070 12557 71904 10050 20050 30037 40149 50007 60006 82508 90300=
07070,1998-01-01 06:00:00,5,1015.3,0.4,100,5,4000,7.408,,,190,4.1,7.6,,,,,3,,,10,wg-a,,,,AAXX 01064 07070 02340 81904 10050 20050 30041 40153 53004 60006 71022 876// 90600 333 10076 20041 60034=
07070,1998-01-01 09:00:00,6,1016.1,0.8,100,6,6000,11.112,,,170,,,,0,,,,,,,wg-a,,,,AAXX 01094 07070 12356 71706 10060 20060 30049 40161 51008 60007 8453/ 90900=
07070,1998-01-01 12:00:00,8,1014.6,-1.4,93,7,12000,18.52,,,220,,,,,,,,,,,wg-a,,,,AAXX 01124 07070 12462 72210 10080 20070 30035 40146 58014 60006 875// 91200=
07070,1998-01-01 18:00:00,7,1010,-2.2,87,5,11000,22.224,,,190,3.7,8.8,,,,,,,,,wg-a,,,,AAXX 01184 07070 12/61 /1912 10070 20050 39989 40100 58022 60006 91800 333 10088 20037=
07070,1998-01-01 21:00:00,7,1006.3,-3.7,81,4,12000,31.484,,,200,,,,,,,,,,,wg-a,,,,AAXX 01214 07070 12562 82017 10070 20040 39952 40063 58037 60006 81572 92100=
07070,1998-01-02 00:00:00,6,1001.3,-4.9,87,4,8000,35.188,,61.116,210,,,,1,,,,,,61,wg-a,,,,AAXX 02004 07070 02558 82119 10060 20040 39903 40013 56049 60016 76161 875// 90000 333 60017 91033=
07070,1998-01-02 03:00:00,8,998.5,-2.7,87,6,12000,38.892,,,230,,,,2,,,,,,61,wg-a,,,,AAXX 02034 07070 12562 82321 10080 20060 39876 49985 56027 60027 76166 885// 90300=
07070,1998-01-02 06:00:00,8,996.9,-1.6,93,7,12000,29.632,,,210,6.1,8.8,,,,,,,,61,wg-a,,,,AAXX 02064 07070 02462 82116 10080 20070 39860 49969 58016 61000 76162 885// 90600 333 10088 20061 6003=
07070,1998-01-02 09:00:00,9,993,-3.8,87,7,15000,29.632,,,190,,,,1,,,,,,60,wg-a,,,,AAXX 02094 07070 12465 81916 10090 20070 39822 49930 58038 60017 76062 875// 90900=
07070,1998-01-02 12:00:00,8,988.2,-4.8,93,7,8000,29.632,,,190,,,,1,,,,,,60,wg-a,,,,AAXX 02124 07070 02458 81916 10080 20070 39774 49882 56048 60016 76062 8652/ 91200 333 60017=
07070,1998-01-02 15:00:00,9,991.4,3.2,76,5,25000,38.892,,70.376,220,,,,,,,,,,1,wg-a,,,,AAXX 02154 07070 02575 72221 10090 20050 39806 49914 51032 61000 70162 875// 91500 333 //// 91038=
07070,1998-01-02 18:00:00,9,996.5,5,76,5,25000,50.004,,72.228,260,7.8,9.3,,,,,,,,21,wg-a,,,,AAXX 02184 07070 02575 /2627 10090 20050 39856 49965 53050 61000 72162 86500 91800 333 10093 20078 6000 91039=
07070,1998-01-02 21:00:00,8,1002.8,6.2,81,5,20000,29.632,,,250,,,,,,,,,,,wg-a,,,,AAXX 02214 07070 12570 32516 10080 20050 39918 40028 51062 60006 83500 92100=
07070,1998-01-03 00:00:00,8,1005.9,3.1,81,5,15000,25.928,,,250,,,,,,,,,,,wg-a,,,,AAXX 03004 07070 12565 /2514 10080 20050 39949 40059 51031 60006 85500 90000=
07070,1998-01-03 03:00:00,7,1006,0,87,5,12000,25.928,,,220,,,,,,,,,,,wg-a,,,,AAXX 03034 07070 12562 72214 10070 20050 39949 40060 50000 60006 83534 90300=
07070,1998-01-03 06:00:00,8,1003.8,-2.1,87,6,12000,25.928,,,200,6.6,8.9,,,,,2,,,,wg-a,,,,AAXX 03064 07070 02562 72014 10080 20060 39928 40038 58021 60006 81552 90600 333 10089 20066 60024=
07070,1998-01-03 09:00:00,8,1001,-2.8,93,7,6000,31.484,,50.004,200,,,,2,,,,,,51,wg-a,,,,AAXX 03094 07070 12356 82017 10080 20070 39900 40010 56028 60027 75165 877// 90900 333 91027=
07070,1998-01-03 12:00:00,12,996.2,-4.5,88,10,500,38.892,,61.116,230,,,,0,,,,,,20,wg-a,,,,AAXX 03124 07070 02400 82321 10120 20100 39855 49962 58045 60036 72065 875// 91200 333 60007 91033=
07070,1998-01-03 15:00:00,12,997,0.8,88,10,500,53.708,,77.784,270,,,,2,,,,,,80,wg-a,,,,AAXX 03154 07070 12400 82729 10120 20100 39863 49970 53008 60027 78086 872// 91500 333 91042=
07070,1998-01-03 21:00:00,7,1007.6,4.3,70,2,15000,31.484,,,250,,,,0,,,,,,3,wg-a,,,,AAXX 03214 07070 12465 32517 10070 20020 39965 40076 51043 60007 70386 81801 92100=
07070,1998-01-04 00:00:00,7,1010.2,2.6,76,3,15000,31.484,,,220,,,,,,,,,,1,wg-a,,,,AAXX 04004 07070 12/65 72217 10070 20030 39991 40102 51026 60016 70186 80002 90000=
07070,1998-01-04 09:00:00,6,1009.1,-1.3,93,5,12000,22.224,,,170,,,,,,,,,,,wg-a,,,,AAXX 04094 07070 12762 71712 10060 20050 39980 40091 56013 60006 875// 90900=
07070,1998-01-04 12:00:00,9,1002.5,-6.4,76,5,10000,31.484,,,180,,,,,,,,,,,wg-a,,,,AAXX 04124 07070 12560 71817 10090 20050 39916 40025 58064 60006 8223/ 91200=
07070,1998-01-04 15:00:00,9,998.6,-3.9,81,6,25000,46.3,,,240,,,,1,,,,,,21,wg-a,,,,AAXX 04154 07070 12575 52425 10090 20060 39877 49986 55039 60017 72162 84230 91500=
07070,1998-01-05 00:00:00,7,1005.2,2.5,70,2,25000,38.892,,,250,,,,0,,,,,,1,wg-a,,,,AAXX 05004 07070 02675 /2521 10070 20020 39941 40052 53025 60006 70186 86400 90000 333 60007=
07070,1998-01-05 03:00:00,6,1007.3,2.1,75,2,25000,38.892,,,250,,,,,,,,,,2,wg-a,,,,AAXX 05034 07070 02675 /2521 10060 20020 39962 40073 53021 61000 70286 81100 90300 333 ////=
07070,1998-01-05 06:00:00,5,1009.1,1.7,75,1,25000,29.632,,,240,4.9,7.5,,,,,4,,,2,wg-a,,,,AAXX 05064 07070 02/75 02416 10050 20010 39979 40091 53017 60006 70286 80000 90600 333 10075 20049 60044=
07070,1998-01-05 09:00:00,7,1008.4,-0.6,76,3,15000,22.224,,,210,,,,,,,,,,,wg-a,,,,AAXX 05094 07070 12465 42112 10070 20030 39973 40084 58006 60006 82231 90900=
07070,1998-01-05 12:00:00,9,1003.9,-4.3,76,5,12000,38.892,,59.264,210,,,,,,,,,,,wg-a,,,,AAXX 05124 07070 12562 82121 10090 20050 39930 40039 58043 60006 8557/ 91200 333 91032=
07070,1998-01-05 15:00:00,9,998,-5.9,87,7,500,35.188,,62.968,210,,,,1,,,,,,61,wg-a,,,,AAXX 05154 07070 12400 82119 10090 20070 39871 49980 58059 60017 76162 875// 91500 333 91034=
07070,1998-01-05 21:00:00,7,999,-0.9,70,2,15000,42.596,,,240,,,,1,,,,,,3,wg-a,,,,AAXX 05214 07070 12565 /2423 10070 20020 39880 49990 56009 60017 70386 86500 92100=
07070,1998-01-06 00:00:00,6,1005.7,6.6,87,4,15000,35.188,,,290,,,,2,,,,,,21,wg-a,,,,AAXX 06004 07070 02565 82919 10060 20040 39946 40057 53066 60036 72186 878// 90000 333 60027=
07070,1998-01-06 06:00:00,3,1014.3,2.4,93,2,15000,14.816,,,230,3.4,7.8,,,,,8,,,,wg-a,,,,AAXX 06064 07070 02665 /2308 10030 20020 30030 40143 51024 60006 81500 90600 333 10078 20034 60084=
07070,1998-01-06 09:00:00,5,1015.8,1.6,87,3,15000,18.52,,,230,,,,,,,,,,,wg-a,,,,AAXX 06094 07070 12765 72310 10050 20030 30046 40158 51016 60006 875// 90900=
07070,1998-01-06 12:00:00,7,1015.9,0.1,81,4,15000,14.816,,,210,,,,,,,,,,,wg-a,,,,AAXX 06124 07070 12465 82108 10070 20040 30047 40159 50001 60006 8687/ 91200=
07070,1998-01-07 00:00:00,11,1013.7,-0.5,94,10,10000,31.484,,,230,,,,0,,,,,,3,wg-a,,,,AAXX 07004 07070 02460 72317 10110 20100 30028 40137 56005 60016 70365 8657/ 90000 333 60007=
07070,1998-01-07 03:00:00,12,1013.4,-0.3,88,10,10000,29.632,,,220,,,,,,,,,,,wg-a,,,,AAXX 07034 07070 12460 82216 10120 20100 30025 40134 58003 60006 885// 90300=
07070,1998-01-07 06:00:00,11,1012.8,-0.7,82,8,10000,35.188,,61.116,220,6.2,11.7,,,,,,,,60,wg-a,,,,AAXX 07064 07070 02460 82219 10110 20080 30018 40128 55007 61000 76062 875// 90600 333 10117 20062 6003 91033=
07070,1998-01-07 12:00:00,11,1013.6,0.4,82,8,20000,38.892,,,230,,,,,,,,,,25,wg-a,,,,AAXX 07124 07070 02570 62321 10110 20080 30026 40136 50004 60016 72586 868/0 91200 333 61000=
07070,1998-01-07 15:00:00,12,1015.2,1.6,71,7,20000,29.632,,,240,,,,,,,,,,,wg-a,,,,AAXX 07154 07070 12570 22416 10120 20070 30042 40152 53016 60006 82200 91500=
07070,1998-01-07 18:00:00,10,1017.4,2.1,76,6,20000,22.224,,,230,9.6,12.2,,,,,,,,,wg-a,,,,AAXX 07184 07070 12670 52312 10100 20060 30063 40174 51021 60006 85800 91800 333 10122 20096=
07070,1998-01-07 21:00:00,10,1018.6,1.2,71,5,20000,35.188,,,230,,,,,,,,,,,wg-a,,,,AAXX 07214 07070 12/70 22319 10100 20050 30075 40186 51012 60006 80001 92100=
07070,1998-01-08 00:00:00,9,1019.7,1.1,81,6,15000,35.188,,,230,,,,,,,,,,,wg-a,,,,AAXX 08004 07070 12765 32319 10090 20060 30086 40197 51011 60006 815/1 90000=
07070,1998-01-08 03:00:00,9,1021.6,1.9,87,7,15000,25.928,,,230,,,,,,,,,,,wg-a,,,,AAXX 08034 07070 12565 52314 10090 20070 30105 40216 51019 60006 83501 90300=
07070,1998-01-08 06:00:00,8,1022.9,1.2,87,6,15000,14.816,,,220,8.3,10.1,,,,,1,,,,wg-a,,,,AAXX 08064 07070 02565 32208 10080 20060 30117 40229 53012 60006 82801 90600 333 10101 20083 60014=
07070,1998-01-08 09:00:00,10,1024.7,1.9,82,7,10000,25.928,,,230,,,,,,,,,,,wg-a,,,,AAXX 08094 07070 12560 /2314 10100 20070 30136 40247 53019 60006 82231 90900=
07070,1998-01-08 15:00:00,12,1024.8,-0.1,71,7,15000,29.632,,,240,,,,,,,,,,,wg-a,,,,AAXX 08154 07070 12565 42416 10120 20070 30137 40248 55001 60006 82202 91500=
07070,1998-01-08 18:00:00,9,1025.7,0.8,81,6,15000,11.112,,,210,8.3,12.4,,,,,,,,,wg-a,,,,AAXX 08184 07070 12665 22106 10090 20060 30145 40257 52008 60006 82400 91800 333 10124 20083=
07070,1998-01-09 00:00:00,10,1027.4,0.9,87,8,15000,18.52,,,230,,,,,,,,,,,wg-a,,,,AAXX 09004 07070 12765 42310 10100 20080 30163 40274 51009 60006 82530 90000=
07070,1998-01-09 03:00:00,9,1028.3,0.8,87,7,15000,22.224,,,230,,,,,,,,,,,wg-a,,,,AAXX 09034 07070 12/65 12312 10090 20070 30171 40283 51008 60006 81030 90300=
07070,1998-01-09 06:00:00,8,1028.7,0.3,87,6,15000,14.816,,,220,7.5,11.5,,,,,,,,,wg-a,,,,AAXX 09064 07070 02/65 12208 10080 20060 30174 40287 53003 60006 81030 90600 333 10115 20075 60004=
07070,1998-01-09 09:00:00,8,1030,1.3,93,7,15000,11.112,,,190,,,,,,,,,,,wg-a,,,,AAXX 09094 07070 12765 51906 10080 20070 30187 40300 53013 60006 85500 90900=
07070,1998-01-09 12:00:00,13,1030.5,0.7,72,8,16000,3.704,,,250,,,,,,,,,,,wg-a,,,,AAXX 09124 07070 12766 62502 10130 20080 30194 40305 51007 60006 86500 91200=
07070,1998-01-09 18:00:00,9,1029.6,-0.3,87,7,12000,3.704,,,110,6.8,14.2,,,,,,,,,wg-a,,,,AAXX 09184 07070 12/62 01102 10090 20070 30184 40296 56003 60006 80000 91800 333 10142 20068=
07070,1998-01-09 21:00:00,9,1028.9,-0.7,76,5,12000,14.816,,,140,,,,,,,,,,,wg-a,,,,AAXX 09214 07070 12/62 01408 10090 20050 30177 40289 58007 60006 80000 92100=
07070,1998-01-10 00:00:00,6,1028.4,-0.6,87,4,12000,11.112,,,160,,,,,,,,,,,wg-a,,,,AAXX 10004 07070 12/62 01606 10060 20040 30171 40284 58006 60006 80000 90000=
07070,1998-01-10 03:00:00,3,1027.8,-0.7,93,2,10000,7.408,,,60,,,,,,,,,,,wg-a,,,,AAXX 10034 07070 12/60 00604 10030 20020 30164 40278 55007 60006 80000 90300=
07070,1998-01-10 06:00:00,2,1027.3,-0.6,93,1,10000,3.704,,,90,1.5,8.7,,,,,,,,,wg-a,,,,AAXX 10064 07070 02/60 00902 10020 20010 30158 40273 56006 60006 80000 90600 333 10087 20015 60004=
07070,1998-01-10 09:00:00,4,1027.8,0.6,93,3,12000,7.408,,,170,,,,,,,,,,,wg-a,,,,AAXX 10094 07070 12/62 41704 10040 20030 30164 40278 53006 60006 81031 90900=
07070,1998-01-10 12:00:00,9,1026.9,-0.7,76,5,12000,11.112,,,150,,,,,,,,,,,wg-a,,,,AAXX 10124 07070 12/62 41506 10090 20050 30157 40269 58007 60006 81031 91200=
07070,1998-01-10 15:00:00,11,1025.6,-1.2,71,6,10000,7.408,,,190,,,,,,,,,,,wg-a,,,,AAXX 10154 07070 12/60 /1904 10110 20060 30145 40256 57012 60006 91500=
07070,1998-01-10 18:00:00,5,1024.3,-1.5,87,3,12000,11.112,,,110,1.2,11.6,,,,,,,,,wg-a,,,,AAXX 10184 07070 12/62 31106 10050 20030 30130 40243 56015 60006 81032 91800 333 10116 20012=
07070,1998-01-10 21:00:00,3,1023.7,-0.7,100,3,15000,3.704,,,290,,,,,,,,,,,wg-a,,,,AAXX 10214 07070 12/65 72902 10030 20030 30123 40237 58007 60006 83032 92100=
07070,1998-01-11 00:00:00,3,1022.8,-0.9,93,2,15000,11.112,,,110,,,,,,,,,,,wg-a,,,,AAXX 11004 07070 12/65 41106 10030 20020 30114 40228 58009 60006 81032 90000=
07070,1998-01-11 06:00:00,4,1020.8,-0.6,87,2,15000,11.112,,,180,1.7,5.1,,,,,,,,,wg-a,,,,AAXX 11064 07070 02/65 11806 10040 20020 30095 40208 56006 60006 80002 90600 333 10051 20017 60004=
07070,1998-01-11 09:00:00,5,1021.5,0.7,87,3,12000,7.408,,,200,,,,,,,,,,,wg-a,,,,AAXX 11094 07070 12/62 12004 10050 20030 30102 40215 52007 60006 80001 90900=
07070,1998-01-11 12:00:00,10,1020.8,-0.5,76,6,14000,11.112,,,180,,,,,,,,,,,wg-a,,,,AAXX 11124 07070 12/64 11806 10100 20060 30097 40208 58005 60006 81030 91200=
07070,1998-01-11 15:00:00,10,1020.1,-0.7,76,6,18000,18.52,,,200,,,,,,,,,,,wg-a,,,,AAXX 11154 07070 12/68 72010 10100 20060 30090 40201 56007 60006 85081 91500=
07070,1998-01-11 18:00:00,8,1020,-0.2,81,5,12000,3.704,,,210,3.4,10.3,,,,,,,,,wg-a,,,,AAXX 11184 07070 12/62 72102 10080 20050 30088 40200 57002 60006 85081 91800 333 10103 20034=
07070,1998-01-11 21:00:00,6,1020.2,0.2,87,4,12000,11.112,,,190,,,,,,,,,,,wg-a,,,,AAXX 11214 07070 12/62 71906 10060 20040 30090 40202 53002 60006 81032 92100=
07070,1998-01-12 00:00:00,5,1020.4,0.1,87,3,12000,14.816,,,180,,,,,,,,,,,wg-a,,,,AAXX 12004 07070 12/62 71808 10050 20030 30091 40204 50001 60006 81032 90000=
07070,1998-01-12 03:00:00,5,1020.2,-0.2,87,3,12000,14.816,,,200,,,,,,,,,,,wg-a,,,,AAXX 12034 07070 12/62 42008 10050 20030 30089 40202 58002 60006 81032 90300=
07070,1998-01-12 06:00:00,5,1019.6,-0.6,87,3,12000,18.52,,,190,4.2,7.5,,,,,,,,,wg-a,,,,AAXX 12064 07070 02/62 71910 10050 20030 30083 40196 58006 60006 81032 90600 333 10075 20042 60004=
07070,1998-01-12 09:00:00,6,1019.5,0,87,4,12000,11.112,,,170,,,,,,,,,,,wg-a,,,,AAXX 12094 07070 12/62 71706 10060 20040 30083 40195 50000 60006 83032 90900=
07070,1998-01-12 12:00:00,9,1018.8,-0.6,81,6,15000,11.112,,27.78,180,,,,,,,,,,,wg-a,,,,AAXX 12124 07070 12765 71806 10090 20060 30077 40188 58006 60006 8157/ 91200 333 91015=
07070,1998-01-12 15:00:00,9,1017,-1.8,81,6,15000,14.816,,,160,,,,,,,,,,,wg-a,,,,AAXX 12154 07070 12/65 71608 10090 20060 30059 40170 56018 60006 82032 91500=
07070,1998-01-12 17:00:00,8,1016.2,-0.8,87,6,15000,18.52,,,180,4.6,9.9,,,,,,,,,wg-a,,,,AAXX 12174 07070 12/65 71810 10080 20060 30055 40162 56008 60006 83032 91700 333 10099 20046=
07070,1998-01-12 18:00:00,8,1016.2,-0.8,87,6,15000,18.52,,,180,4.6,9.9,,,,,,,,,wg-a,,,,AAXX 12184 07070 12/65 71810 10080 20060 30051 40162 56008 60006 83032 91800 333 10099 20046=
07070,1998-01-12 21:00:00,8,1014.7,-1.5,81,5,15000,14.816,,,180,,,,,,,,,,,wg-a,,,,AAXX 12214 07070 12/65 71808 10080 20050 30036 40147 58015 60006 84032 92100=
07070,1998-01-13 00:00:00,7,1012.7,-2,87,5,10000,14.816,,,170,,,,,,,,,,,wg-a,,,,AAXX 13004 07070 12/60 31708 10070 20050 30016 40127 58020 60006 83030 90000=
07070,1998-01-13 09:00:00,7,1008.4,-0.4,87,5,12000,14.816,,,160,,,,,,,,,,,wg-a,,,,AAXX 13094 07070 12/62 71608 10070 20050 39973 40084 56004 60006 86072 90900=
07070,1998-01-13 12:00:00,10,1007.1,-1.1,82,7,12000,18.52,,,180,,,,,,,,,,60,wg-a,,,,AAXX 13124 07070 02862 71810 10100 20070 39962 40071 58011 61000 76061 8707/ 91200 333 6100=
07070,1998-01-13 15:00:00,11,1006.2,-0.9,82,8,15000,25.928,,,160,,,,,,,,,,1,wg-a,,,,AAXX 13154 07070 02665 71614 10110 20080 39953 40062 56009 61000 70162 8154/ 91500 333 ////=
07070,1998-01-13 21:00:00,10,1005.1,-0.1,82,7,20000,25.928,,,180,,,,,,,,,,,wg-a,,,,AAXX 13214 07070 12770 61814 10100 20070 39942 40051 55001 60006 86500 92100=
07070,1998-01-14 00:00:00,10,1005,-0.1,71,5,11000,29.632,,,200,,,,,,,,,,,wg-a,,,,AAXX 14004 07070 12/61 /2016 10100 20050 39941 40050 55001 60006 90000=
07070,1998-01-14 03:00:00,9,1004.8,-0.2,76,5,20000,35.188,,,180,,,,,,,,,,,wg-a,,,,AAXX 14034 07070 12570 81819 10090 20050 39939 40048 55002 60006 885// 90300=
07070,1998-01-14 06:00:00,10,1005.4,0.6,71,5,20000,31.484,,51.856,210,9.1,10.7,,,,,,,,,wg-a,,,,AAXX 14064 07070 02570 72117 10100 20050 39945 40054 53006 60006 872// 90600 333 10107 20091 61000 91028=
07070,1998-01-14 09:00:00,9,1008.9,3.4,81,6,20000,29.632,,,230,,,,,,,,,,,wg-a,,,,AAXX 14094 07070 12470 72316 10090 20060 39979 40089 53034 60006 875// 90900=
07070,1998-01-14 12:00:00,8,1011.8,2.8,93,7,10000,22.224,,,240,,,,0,,,,,,61,wg-a,,,,AAXX 14124 07070 02460 82412 10080 20070 30007 40118 51028 60006 76162 8687/ 91200 333 60007=
07070,1998-01-14 15:00:00,8,1015.2,3.4,87,6,20000,22.224,,,250,,,,1,,,,,,1,wg-a,,,,AAXX 14154 07070 12470 /2512 10080 20060 30041 40152 52034 60017 70162 83830 91500=
07070,1998-01-14 18:00:00,6,1018.2,2.9,81,3,15000,14.816,,,230,5.9,9.7,,,,,,,,1,wg-a,,,,AAXX 14184 07070 12465 /2308 10060 20030 30070 40182 53029 60006 70161 81130 91800 333 10097 20059=
07070,1998-01-14 21:00:00,5,1020.2,1.9,81,2,15000,18.52,,,230,,,,,,,,,,,wg-a,,,,AAXX 14214 07070 12/65 12310 10050 20020 30089 40202 51019 60006 81030 92100=
07070,1998-01-15 00:00:00,3,1021.4,1.1,93,2,12000,11.112,,,220,,,,,,,,,,,wg-a,,,,AAXX 15004 07070 12/62 12206 10030 20020 30100 40214 51011 60006 81031 90000=
07070,1998-01-15 06:00:00,3,1019.7,-1.4,93,2,12000,14.816,,,190,2.2,5.8,,,,,1,,,,wg-a,,,,AAXX 15064 07070 02/62 81908 10030 20020 30084 40197 56014 60006 80007 90600 333 10058 20022 60014=
07070,1998-01-15 09:00:00,6,1018.3,-1.3,87,4,10000,22.224,,,200,,,,,,,,,,60,wg-a,,,,AAXX 15094 07070 02460 72012 10060 20040 30071 40183 56013 61000 76062 8387/ 90900 333 ////=
07070,1998-01-15 12:00:00,8,1017,-1.2,93,7,12000,25.928,,,220,,,,1,,,,,,51,wg-a,,,,AAXX 15124 07070 02462 82214 10080 20070 30059 40170 56012 60016 75165 877// 91200 333 60017=
07070,1998-01-15 15:00:00,9,1015.6,-1.4,93,8,10000,22.224,,,220,,,,,,,,,,51,wg-a,,,,AAXX 15154 07070 02460 82212 10090 20080 30045 40156 56014 61000 75165 887// 91500 333 ////=
07070,1998-01-15 18:00:00,9,1014.3,-1.3,93,8,6000,22.224,,,210,3.5,9,,,,,,,,50,wg-a,,,,AAXX 15184 07070 02356 82112 10090 20080 30032 40143 58013 61000 75065 887// 91800 333 10090 20035 6100=
07070,1998-01-16 00:00:00,9,1011.7,-1.5,100,9,8000,14.816,,,210,,,,1,,,,,,1,wg-a,,,,AAXX 16004 07070 02458 82108 10090 20090 30007 40117 58015 60016 70152 887// 90000 333 60017=
07070,1998-01-16 03:00:00,8,1010.9,-0.8,100,8,8000,7.408,,,220,,,,1,,,,,,20,wg-a,,,,AAXX 16034 07070 12458 82204 10080 20080 39999 40109 56008 60017 72022 887// 90300=
07070,1998-01-16 06:00:00,8,1009.7,-1.2,93,7,8000,11.112,,,200,7.9,9.9,,,,,3,,,1,wg-a,,,,AAXX 16064 07070 02458 /2006 10080 20070 39987 40097 58012 60006 70152 85700 90600 333 10099 20079 60034=
07070,1998-01-16 09:00:00,8,1008.2,-1.5,100,8,8000,11.112,,,180,,,,1,,,,,,21,wg-a,,,,AAXX 16094 07070 12458 81806 10080 20080 39972 40082 56015 60017 72162 875// 90900=
07070,1998-01-16 12:00:00,8,1008,-0.2,93,7,15000,7.408,,,290,,,,8,,,,,,1,wg-a,,,,AAXX 16124 07070 02465 /2904 10080 20070 39970 40080 56002 60096 70162 84302 91200 333 60087=
07070,1998-01-16 15:00:00,9,1010,2,87,7,15000,22.224,,,290,,,,,,,,,,2,wg-a,,,,AAXX 16154 07070 02465 /2912 10090 20070 39990 40100 53020 61000 70286 84832 91500 333 ////=
07070,1998-01-16 21:00:00,6,1018.5,4,81,3,12000,22.224,,,310,,,,,,,,,,,wg-a,,,,AAXX 16214 07070 12762 13112 10060 20030 30073 40185 51040 60006 81500 92100=
07070,1998-01-17 00:00:00,5,1022.3,3.7,87,3,10000,14.816,,,300,,,,,,,,,,,wg-a,,,,AAXX 17004 07070 12/60 23008 10050 20030 30110 40223 51037 60006 82030 90000=
07070,1998-01-17 03:00:00,4,1025.3,2.9,93,3,10000,18.52,,,270,,,,,,,,,,,wg-a,,,,AAXX 17034 07070 12/60 02710 10040 20030 30139 40253 52029 60006 80000 90300=
07070,1998-01-17 06:00:00,2,1027.3,1.9,93,1,6000,11.112,,,240,1.9,7.9,,,,,9,,,,wg-a,,,,AAXX 17064 07070 02/56 02406 10020 20010 30158 40273 51019 60006 80000 90600 333 10079 20019 60094=
07070,1998-01-17 09:00:00,2,1028.6,1.3,93,1,6000,3.704,,,170,,,,,,,,,,,wg-a,,,,AAXX 17094 07070 12/56 71702 10020 20010 30171 40286 51013 60006 8703/ 90900=
07070,1998-01-17 12:00:00,7,1028.2,-0.2,81,4,16000,18.52,,,240,,,,,,,,,,,wg-a,,,,AAXX 17124 07070 12566 /2410 10070 20040 30169 40282 58002 60006 81230 91200=
07070,1998-01-17 21:00:00,2,1023.7,-1.9,93,1,10000,14.816,,,190,,,,,,,,,,,wg-a,,,,AAXX 17214 07070 12560 /1908 10020 20010 30122 40237 56019 60006 81500 92100=
07070,1998-01-18 00:00:00,2,1022,-1.6,93,1,10000,3.704,,,240,,,,,,,,,,,wg-a,,,,AAXX 18004 07070 12460 32402 10020 20010 30106 40220 58016 60006 83500 90000=
07070,1998-01-18 03:00:00,2,1017.9,-4.1,93,1,8000,14.816,,,150,,,,,,,,,,,wg-a,,,,AAXX 18034 07070 12358 71508 10020 20010 30065 40179 58041 60006 87600 90300=
07070,1998-01-18 06:00:00,2,1013,-4.8,93,1,10000,22.224,,,190,1.1,3.5,,,,,,,,,wg-a,,,,AAXX 18064 07070 02360 81912 10020 20010 30017 40130 56048 60006 875// 90600 333 10035 20011 60004=
07070,1998-01-18 09:00:00,3,1006.3,-6.6,81,0,18000,31.484,,,180,,,,,,,,,,60,wg-a,,,,AAXX 18094 07070 02768 71817 10030 20000 39951 40063 58066 61000 76062 875// 90900 333 ////=
07070,1998-01-18 12:00:00,4,1002,-4.2,93,3,6000,25.928,,,190,,,,3,,,,,,61,wg-a,,,,AAXX 18124 07070 02456 81914 10040 20030 39909 40020 58042 60036 76162 885// 91200 333 60037=
07070,1998-01-18 15:00:00,7,1000.6,-1.3,81,4,20000,25.928,,,240,,,,2,,,,,,21,wg-a,,,,AAXX 18154 07070 12470 42414 10070 20040 39896 40006 56013 60027 72161 81220 91500=
07070,1998-01-18 18:00:00,6,1001,0.4,75,2,15000,31.484,,,240,2.1,7.7,,2,,,,,,1,wg-a,,,,AAXX 18184 07070 02/65 42417 10060 20020 39900 40010 50004 60006 70187 80003 91800 333 10077 20021 60027=
07070,1998-01-18 21:00:00,7,998.7,-2.3,76,3,15000,35.188,,,230,,,,,,,,,,,wg-a,,,,AAXX 18214 07070 12/65 82319 10070 20030 39877 49987 58023 60006 80002 92100=
07070,1998-01-19 00:00:00,6,993.6,-5.1,87,4,8000,29.632,,,220,,,,2,,,,,,63,wg-a,,,,AAXX 19004 07070 02458 82216 10060 20040 39826 49936 58051 60026 76361 8557/ 90000 333 60027=
07070,1998-01-19 03:00:00,3,993.3,-0.4,93,2,8000,11.112,,,220,,,,5,,,,,,21,wg-a,,,,AAXX 19034 07070 12458 82206 10030 20020 39822 49933 55004 60057 72162 8/57/ 90300=
07070,1998-01-19 06:00:00,7,993.7,0.6,87,5,8000,46.3,,64.82,260,2.7,7.2,,,,,,,,63,wg-a,,,,AAXX 19064 07070 02458 82625 10070 20050 39828 49937 53006 61000 76362 875// 90600 333 10072 20027 6014 91035=
07070,1998-01-19 09:00:00,7,996.9,3.1,93,6,6000,29.632,,,260,,,,1,,,,,,61,wg-a,,,,AAXX 19094 07070 12456 82616 10070 20060 39859 49969 51031 60017 76166 878// 90900=
07070,1998-01-19 15:00:00,6,1004.4,3.7,87,4,15000,29.632,,,310,,,,0,,,,,,1,wg-a,,,,AAXX 19154 07070 12565 73116 10060 20040 39933 40044 53037 60007 70186 878// 91500=
07070,1998-01-19 18:00:00,5,1007.7,3.2,81,2,15000,22.224,,,310,4.8,7.9,,,,,,,,25,wg-a,,,,AAXX 19184 07070 02565 83112 10050 20020 39965 40077 51032 61000 72586 888// 91800 333 10079 20048 6000=
07070,1998-01-20 00:00:00,1,1012.1,2,80,-2,15000,22.224,,,310,,,,,,,,,,3,wg-a,,,,AAXX 20004 07070 12565 33112 10010 21020 30007 40121 51020 60016 70361 83800 90000=
07070,1998-01-20 06:00:00,2,1016.1,2.9,87,0,12000,35.188,,,320,1.2,4.8,,,,,,,,60,wg-a,,,,AAXX 20064 07070 02462 73219 10020 20000 30047 40161 53029 61000 76061 875// 90600 333 10048 20012 6003=
07070,1998-01-20 09:00:00,3,1019.3,3.2,87,1,15000,29.632,,,310,,,,,,,,,,1,wg-a,,,,AAXX 20094 07070 02465 73116 10030 20010 30079 40193 52032 61000 70176 878// 90900 333 ////=
07070,1998-01-20 12:00:00,5,1021.7,2.5,81,2,20000,31.484,,,340,,,,,,,,,,1,wg-a,,,,AAXX 20124 07070 02570 /3417 10050 20020 30104 40217 51025 61000 70176 86800 91200 333 ////=
07070,1998-01-20 15:00:00,5,1024.2,2.5,87,3,15000,25.928,,,330,,,,,,,,,,21,wg-a,,,,AAXX 20154 07070 02465 83314 10050 20030 30129 40242 51025 61000 72162 877// 91500 333 ////=
07070,1998-01-20 21:00:00,4,1029.8,2.5,87,2,15000,18.52,,,340,,,,,,,,,,,wg-a,,,,AAXX 20214 07070 12565 83410 10040 20020 30184 40298 53025 60006 885// 92100=
07070,1998-01-21 00:00:00,3,1031.7,1.8,87,1,12000,14.816,,,360,,,,,,,,,,,wg-a,,,,AAXX 21004 07070 12562 83608 10030 20010 30202 40317 51018 60006 885// 90000=
07070,1998-01-21 03:00:00,2,1033.1,1.3,80,-1,15000,18.52,,,10,,,,,,,,,,,wg-a,,,,AAXX 21034 07070 12465 80110 10020 21010 30215 40331 53013 60006 885// 90300=
07070,1998-01-21 06:00:00,2,1034.3,1.2,80,-1,15000,14.816,,,50,,,,,,,,,,,wg-a,,,,AAXX 21064 07070 02565 80508 10020 21010 30227 40343 53012 60006 885// 90600 333 10042 20016 61000=
07070,1998-01-21 09:00:00,2,1035.7,1.4,75,-2,15000,11.112,,,40,,,,,,,,,,,wg-a,,,,AAXX 21094 07070 12565 80406 10020 21020 30241 40357 51014 60006 885// 90900=
07070,1998-01-21 12:00:00,2,1035.9,0.2,75,-2,15000,11.112,,,20,,,,,,,,,,,wg-a,,,,AAXX 21124 07070 12565 70206 10020 21020 30243 40359 51002 60006 878// 91200=
07070,1998-01-21 15:00:00,2,1035.6,-0.3,69,-3,12000,11.112,,,30,,,,,,,,,,,wg-a,,,,AAXX 21154 07070 12562 70306 10020 21030 30240 40356 56003 60006 875// 91500=
07070,1998-01-21 21:00:00,0,1035.4,-0.4,86,-2,10000,11.112,,,40,,,,,,,,,,,wg-a,,,,AAXX 21214 07070 12560 /0406 10000 21020 30237 40354 57004 60006 86500 92100=
07070,1998-01-22 00:00:00,-1,1034.9,-0.5,86,-3,8000,11.112,,,50,,,,,,,,,,,wg-a,,,,AAXX 22004 07070 12658 70506 11010 21030 30232 40349 58005 60006 875// 90000=
07070,1998-01-22 03:00:00,-1,1034.2,-0.7,80,-4,8000,11.112,,,50,,,,,,,,,,,wg-a,,,,AAXX 22034 07070 12658 70506 11010 21040 30225 40342 56007 60006 875// 90300=
07070,1998-01-22 06:00:00,-2,1033.5,-0.7,80,-5,10000,11.112,,,30,,,,,,,,,,,wg-a,,,,AAXX 22064 07070 02/60 00306 11020 21050 30218 40335 56007 60006 80000 90600 333 10010 21021 60004=
07070,1998-01-22 09:00:00,-2,1033.2,-0.3,86,-4,7000,7.408,,,40,,,,,,,,,,,wg-a,,,,AAXX 22094 07070 12/57 00404 11020 21040 30215 40332 55003 60006 80000 90900=
07070,1998-01-22 12:00:00,1,1031.8,-1.3,69,-4,10000,22.224,,,90,,,,,,,,,,,wg-a,,,,AAXX 22124 07070 12460 /0912 10010 21040 30202 40318 58013 60006 81100 91200=
07070,1998-01-22 15:00:00,1,1030.4,-1.4,69,-4,20000,22.224,,,60,,,,,,,,,,,wg-a,,,,AAXX 22154 07070 12570 /0612 10010 21040 30188 40304 57014 60006 81500 91500=
07070,1998-01-22 18:00:00,-1,1030.3,-0.2,86,-3,10000,11.112,,,40,-3.6,1.4,,,,,,,,,wg-a,,,,AAXX 22184 07070 12/60 00406 11010 21030 30186 40303 55002 60006 80000 91800 333 10014 21036=
07070,1998-01-22 21:00:00,-3,1029.8,-0.5,93,-4,10000,7.408,,,30,,,,,,,,,,,wg-a,,,,AAXX 22214 07070 12/60 00304 11030 21040 30181 40298 56005 60006 80000 92100=
07070,1998-01-23 03:00:00,-2,1027.9,-0.6,93,-3,10000,3.704,,,20,,,,,,,,,,,wg-a,,,,AAXX 23034 07070 12660 70202 11020 21030 30162 40279 58006 60006 875// 90300=
07070,1998-01-23 06:00:00,-1,1027.3,-0.5,93,-2,10000,11.112,,,30,-3.3,-0.5,,,,,,,,,wg-a,,,,AAXX 23064 07070 02560 80306 11010 21020 30157 40273 56005 60006 885// 90600 333 11005 21033 60004=
07070,1998-01-23 09:00:00,0,1027.8,0.5,93,-1,8000,14.816,,,30,,,,,,,,,,,wg-a,,,,AAXX 23094 07070 12558 80308 10000 21010 30162 40278 51005 60006 885// 90900=
07070,1998-01-23 12:00:00,1,1027.4,-0.3,86,-1,7000,11.112,,,30,,,,,,,,,,,wg-a,,,,AAXX 23124 07070 12557 80306 10010 21010 30159 40274 58003 60006 885// 91200=
07070,1998-01-23 15:00:00,1,1026.7,-0.7,93,0,6000,11.112,,,30,,,,,,,,,,,wg-a,,,,AAXX 23154 07070 12556 80306 10010 20000 30152 40267 56007 60006 885// 91500=
07070,1998-01-23 18:00:00,1,1027.4,0.7,93,0,500,11.112,,,30,-0.5,1.3,,,,,,,,,wg-a,,,,AAXX 23184 07070 12500 80306 10010 20000 30159 40274 53007 60006 885// 91800 333 10013 21005=
07070,1998-01-23 21:00:00,2,1027.7,0.3,80,-1,6000,14.816,,,60,,,,,,,,,,,wg-a,,,,AAXX 23214 07070 12456 80608 10020 21010 30162 40277 52003 60006 885// 92100=
07070,1998-01-24 00:00:00,1,1027.3,-0.4,86,-1,6000,7.408,,,20,,,,,,,,,,,wg-a,,,,AAXX 24004 07070 12456 80204 10010 21010 30158 40273 58004 60006 885// 90000=
07070,1998-01-24 03:00:00,1,1027.1,-0.2,86,-1,6000,14.816,,,20,,,,,,,,,,,wg-a,,,,AAXX 24034 07070 12456 80208 10010 21010 30156 40271 56002 60006 886// 90300=
07070,1998-01-24 06:00:00,0,1027.1,-0.1,80,-3,7000,11.112,,,20,-0.1,1.7,,,,,,,,,wg-a,,,,AAXX 24064 07070 02557 70206 10000 21030 30155 40271 57001 60006 875// 90600 333 10017 21001 60004=
07070,1998-01-24 09:00:00,1,1027.2,0.1,86,-1,3000,14.816,,,350,,,,,,,,,,10,wg-a,,,,AAXX 24094 07070 12730 83508 10010 21010 30156 40272 50001 60006 71022 885// 90900=
07070,1998-01-24 12:00:00,3,1026.4,-0.6,81,0,8000,22.224,,,10,,,,,,,,,,,wg-a,,,,AAXX 24124 07070 12558 70112 10030 20000 30150 40264 58006 60006 878// 91200=
07070,1998-01-24 15:00:00,3,1025.7,-0.7,75,-1,15000,22.224,,,20,,,,,,,,,,,wg-a,,,,AAXX 24154 07070 12565 70212 10030 21010 30143 40257 55007 60006 878// 91500=
07070,1998-01-24 18:00:00,2,1025.6,-0.2,80,-1,20000,11.112,,,360,-0.3,3.3,,,,,,,,,wg-a,,,,AAXX 24184 07070 12570 83606 10020 21010 30141 40256 57002 60006 878// 91800 333 10033 21003=
07070,1998-01-24 21:00:00,1,1025.2,-0.4,80,-2,15000,22.224,,,20,,,,,,,,,,,wg-a,,,,AAXX 24214 07070 12565 70212 10010 21020 30137 40252 58004 60006 875// 92100=
07070,1998-01-25 00:00:00,1,1024.2,-1,86,-1,15000,22.224,,,360,,,,,,,,,,,wg-a,,,,AAXX 25004 07070 12565 73612 10010 21010 30127 40242 58010 60006 875// 90000=
07070,1998-01-25 03:00:00,1,1023.6,-0.6,75,-3,15000,22.224,,,30,,,,,,,,,,,wg-a,,,,AAXX 25034 07070 12765 40312 10010 21030 30121 40236 56006 60006 84500 90300=
07070,1998-01-25 06:00:00,0,1024.5,0.8,80,-3,15000,22.224,,,40,-0.1,2.1,,,,,,,,,wg-a,,,,AAXX 25064 07070 02765 60412 10000 21030 30129 40245 51008 60006 84570 90600 333 10021 21001 60004=
07070,1998-01-25 09:00:00,0,1025.7,1.2,80,-3,10000,25.928,,,40,,,,,,,,,,,wg-a,,,,AAXX 25094 07070 12660 70414 10000 21030 30141 40257 53012 60006 875// 90900=
07070,1998-01-25 12:00:00,1,1026.3,0.7,75,-3,12000,25.928,,,80,,,,,,,,,,,wg-a,,,,AAXX 25124 07070 12562 70814 10010 21030 30148 40263 53007 60006 875// 91200=
07070,1998-01-25 15:00:00,1,1026.8,0.5,75,-3,10000,22.224,,,60,,,,,,,,,,,wg-a,,,,AAXX 25154 07070 12560 80612 10010 21030 30153 40268 53005 60006 885// 91500=
07070,1998-01-25 18:00:00,1,1028.2,1.3,69,-4,10000,25.928,,,80,-0.5,1.1,,,,,,,,,wg-a,,,,AAXX 25184 07070 12560 80814 10010 21040 30166 40282 53013 60006 885// 91800 333 10011 21005=
07070,1998-01-25 21:00:00,0,1029.4,1.2,74,-4,10000,18.52,,,60,,,,,,,,,,,wg-a,,,,AAXX 25214 07070 12560 80610 10000 21040 30178 40294 51012 60006 885// 92100=
07070,1998-01-26 00:00:00,0,1029.8,0.4,74,-4,10000,18.52,,,70,,,,,,,,,,,wg-a,,,,AAXX 26004 07070 12560 80710 10000 21040 30182 40298 51004 60006 885// 90000=
07070,1998-01-26 03:00:00,-1,1029.7,-0.1,80,-4,10000,18.52,,,40,,,,,,,,,,,wg-a,,,,AAXX 26034 07070 12560 80410 11010 21040 30181 40297 58001 60006 885// 90300=
07070,1998-01-26 06:00:00,-3,1030.2,0.4,86,-5,10000,14.816,,,40,-2.6,0.7,,,,,,,,,wg-a,,,,AAXX 26064 07070 02560 80408 11030 21050 30185 40302 51004 60006 885// 90600 333 10007 21026 60004=
07070,1998-01-26 09:00:00,-3,1030.9,0.6,86,-5,500,14.816,,,80,,,,,,,,,,,wg-a,,,,AAXX 26094 07070 12500 40808 11030 21050 30191 40309 51006 60006 81501 90900=
07070,1998-01-26 12:00:00,-2,1030.4,-0.4,80,-5,500,14.816,,,90,,,,,,,,,,,wg-a,,,,AAXX 26124 07070 12400 /0908 11020 21050 30187 40304 58004 60006 86500 91200=
07070,1998-01-26 15:00:00,0,1028.8,-1.5,69,-5,500,11.112,,,90,,,,,,,,,,,wg-a,,,,AAXX 26154 07070 12/00 00906 10000 21050 30172 40288 56015 60006 80000 91500=
07070,1998-01-26 18:00:00,-3,1028.6,-0.3,86,-5,4500,0,,,0,-4.5,-0.1,,,,,,,,10,wg-a,,,,AAXX 26184 07070 12/45 00000 11030 21050 30169 40286 55003 60006 71011 80000 91800 333 11001 21045=
07070,1998-01-26 21:00:00,-4,1028.8,0.1,86,-6,6000,11.112,,,120,,,,,,,,,,,wg-a,,,,AAXX 26214 07070 12/56 01206 11040 21060 30170 40288 53001 60006 80000 92100=
07070,1998-01-27 00:00:00,-6,1027.6,-1.2,86,-8,6000,3.704,,,60,,,,,,,,,,,wg-a,,,,AAXX 27004 07070 12/56 00602 11060 21080 30158 40276 58012 60006 80000 90000=
07070,1998-01-27 03:00:00,-8,1026.2,-1.5,92,-9,500,3.704,,,70,,,,,,,,,,,wg-a,,,,AAXX 27034 07070 12/00 00702 11080 21090 30143 40262 58015 60006 80000 90300=
07070,1998-01-27 06:00:00,-8,1025.1,-1.1,92,-9,500,7.408,,,70,-7.9,-2.8,,,,,,,,,wg-a,,,,AAXX 27064 07070 02/00 00704 11080 21090 30132 40251 58011 60006 80000 90600 333 11028 21079 60004=
07070,1998-01-27 09:00:00,-6,1024.9,-0.1,93,-7,4500,0,,,0,,,,,,,,,,10,wg-a,,,,AAXX 27094 07070 12/45 00000 11060 21070 30131 40249 58001 60006 71000 80000 90900=
07070,1998-01-27 12:00:00,-1,1023.3,-1.4,74,-5,6000,18.52,,,100,,,,,,,,,,,wg-a,,,,AAXX 27124 07070 12556 31010 11010 21050 30117 40233 58014 60006 83100 91200=
07070,1998-01-27 18:00:00,-4,1021.5,-0.6,86,-6,4000,11.112,,,120,-8.6,0.1,,,,,,,,10,wg-a,,,,AAXX 27184 07070 12/40 01206 11040 21060 30098 40215 56006 60006 71000 80000 91800 333 10001 21086=
07070,1998-01-27 21:00:00,-6,1022,0.4,86,-8,6000,7.408,,,60,,,,,,,,,,,wg-a,,,,AAXX 27214 07070 12/56 00604 11060 21080 30102 40220 50004 60006 80000 92100=
07070,1998-01-28 00:00:00,-7,1022.1,0.1,93,-8,500,14.816,,,80,,,,,,,,,,,wg-a,,,,AAXX 28004 07070 12/00 00808 11070 21080 30103 40221 53001 60006 80000 90000=
07070,1998-01-28 03:00:00,-9,1021.1,-1.1,92,-10,500,7.408,,,90,,,,,,,,,,,wg-a,,,,AAXX 28034 07070 12/00 00904 11090 21100 30092 40211 58011 60006 80000 90300=
07070,1998-01-28 06:00:00,-9,1021.6,0.5,92,-10,2500,0,,,0,-9.3,-3.6,,,,,,,,10,wg-a,,,,AAXX 28064 07070 02/25 00000 11090 21100 30097 40216 50005 60006 71000 80000 90600 333 11036 21093 60004=
07070,1998-01-28 12:00:00,-3,1021.7,-0.1,86,-5,3000,11.112,,,90,,,,,,,,,,10,wg-a,,,,AAXX 28124 07070 12330 /0906 11030 21050 30101 40217 58001 60006 71011 85600 91200=
07070,1998-01-28 15:00:00,-1,1020.7,-0.9,80,-4,3500,14.816,,,70,,,,,,,,,,10,wg-a,,,,AAXX 28154 07070 12/35 /0708 11010 21040 30092 40207 56009 60006 71011 80002 91500=
07070,1998-01-28 18:00:00,-4,1021.1,0.2,93,-5,3500,3.704,,,110,-9.4,-0.4,,,,,,,,10,wg-a,,,,AAXX 28184 07070 12/35 01102 11040 21050 30094 40211 52002 60006 71011 80000 91800 333 11004 21094=
07070,1998-01-28 21:00:00,-7,1022.1,0.9,93,-8,3000,3.704,,,70,,,,,,,,,,10,wg-a,,,,AAXX 28214 07070 12/30 00702 11070 21080 30103 40221 51009 60006 71000 80000 92100=
07070,1998-01-29 00:00:00,-7,1022,-0.1,93,-8,2000,3.704,,,40,,,,,,,,,,10,wg-a,,,,AAXX 29004 07070 12/20 00402 11070 21080 30102 40220 57001 60006 71000 80000 90000=
07070,1998-01-29 06:00:00,-3,1022.4,0.2,93,-4,4000,0,,,0,-7.6,-3.3,,,,,,,,10,wg-a,,,,AAXX 29064 07070 02340 80000 11030 21040 30107 40224 51002 60006 71011 886// 90600 333 11033 21076 60004=
07070,1998-01-29 12:00:00,1,1023.4,0.3,80,-2,2000,0,,,0,,,,,,,,,,10,wg-a,,,,AAXX 29124 07070 12220 80000 10010 21020 30119 40234 50003 60006 71022 886// 91200=
07070,1998-01-29 15:00:00,2,1022.3,-1,93,1,1700,7.408,,,40,,,,,,,,,,10,wg-a,,,,AAXX 29154 07070 12317 70404 10020 20010 30109 40223 56010 60006 71022 876// 91500=
07070,1998-01-29 18:00:00,1,1022.7,0.3,93,0,1700,3.704,,,50,-3.3,3.2,,,,,,,,10,wg-a,,,,AAXX 29184 07070 12317 /0502 10010 20000 30112 40227 53003 60006 71022 876// 91800 333 10032 21033=
07070,1998-01-29 21:00:00,0,1022.6,-0.1,93,-1,1200,0,,,0,,,,,,,,,,10,wg-a,,,,AAXX 29214 07070 12212 70000 10000 21010 30111 40226 58001 60006 71022 875// 92100=
07070,1998-01-30 00:00:00,0,1022.1,-0.5,100,0,100,3.704,,,10,,,,,,,,,,45,wg-a,,,,AAXX 30004 07070 12/01 90102 10000 20000 30106 40221 57005 60006 74542 89/// 90000=
07070,1998-01-30 03:00:00,-1,1022,-0.1,100,-1,100,3.704,,,320,,,,,,,,,,45,wg-a,,,,AAXX 30034 07070 12/01 93202 11010 21010 30105 40220 56001 60006 74544 89/// 90300=
07070,1998-01-30 06:00:00,-1,1021.6,-0.5,100,-1,100,0,,,0,,,,,,,,,,49,wg-a,,,,AAXX 30064 07070 02/01 90000 11010 21010 30100 40216 57005 60006 74944 89/// 90600 333 10009 21009 60004=
07070,1998-01-30 09:00:00,-2,1021.9,0.3,100,-2,200,0,,,0,,,,,,,,,,48,wg-a,,,,AAXX 30094 07070 12002 80000 11020 21020 30103 40219 50003 60006 74844 886// 90900=
07070,1998-01-30 21:00:00,-3,1019.2,0.2,93,-4,4500,0,,,0,,,,,,,,,,10,wg-a,,,,AAXX 30214 07070 12/45 00000 11030 21040 30076 40192 53002 60006 71000 80000 92100=
07070,1998-01-31 03:00:00,-3,1018.1,-0.6,100,-3,800,3.704,,,340,,,,,,,,,,44,wg-a,,,,AAXX 31034 07070 12508 33402 11030 21030 30065 40181 56006 60006 74441 83500 90300=
07070,1998-01-31 06:00:00,-2,1017.7,-0.4,93,-3,1000,3.704,,,20,,,,,,,,,,10,wg-a,,,,AAXX 31064 07070 02710 70202 11020 21030 30061 40177 56004 60006 71041 875// 90600 333 11011 21050 60004=
07070,1998-01-31 12:00:00,3,1018.3,0,93,2,2500,7.408,,,20,,,,,,,,,,,wg-a,,,,AAXX 31124 07070 12/25 /0204 10030 20020 30070 40183 50000 60006 91200=
07070,1998-01-31 15:00:00,4,1017.9,-0.4,81,1,7000,14.816,,,80,,,,,,,,,,,wg-a,,,,AAXX 31154 07070 12557 70808 10040 20010 30066 40179 55004 60006 875// 91500=
07070,1998-01-31 18:00:00,2,1018.8,0.8,87,0,500,22.224,,,80,-2.1,4.7,,,,,,,,,wg-a,,,,AAXX 31184 07070 12500 70812 10020 20000 30074 40188 53008 60006 875// 91800 333 10047 21021=
07070,1998-02-01 00:00:00,-3,1019.6,-0.1,80,-6,12000,14.816,,,80,,,,,,,,,,,wg-a,,,,AAXX 01004 07070 12/62 00808 11030 21060 30080 40196 57001 60006 80000 90000=
07070,1998-02-01 03:00:00,-5,1018.8,-0.9,73,-9,12000,25.928,,,80,,,,,,,,,,,wg-a,,,,AAXX 01034 07070 12/62 00814 11050 21090 30071 40188 57009 60006 80000 90300=
07070,1998-02-01 06:00:00,-8,1018.1,-0.8,79,-11,12000,11.112,,,50,-8.1,2.3,,,,,,,,,wg-a,,,,AAXX 01064 07070 02/62 00506 11080 21110 30063 40181 58008 60006 80000 90600 333 10023 21081 60004=
07070,1998-02-01 09:00:00,-6,1018.5,0.5,73,-10,20000,11.112,,,100,,,,,,,,,,,wg-a,,,,AAXX 01094 07070 12/70 51006 11060 21100 30068 40185 51005 60006 80001 90900=
07070,1998-02-01 12:00:00,-3,1017.4,-1,58,-10,18000,14.816,,,90,,,,,,,,,,,wg-a,,,,AAXX 01124 07070 12/68 70908 11030 21100 30058 40174 58010 60006 81031 91200=
07070,1998-02-01 15:00:00,-1,1016,-1.3,54,-9,16000,11.112,,,80,,,,,,,,,,,wg-a,,,,AAXX 01154 07070 12/66 70806 11010 21090 30045 40160 56013 60006 82039 91500=
07070,1998-02-01 18:00:00,-4,1016.2,0.1,80,-7,12000,3.704,,,340,-8.4,-1.1,,,,,,,,,wg-a,,,,AAXX 01184 07070 12/62 73402 11040 21070 30046 40162 53001 60006 81032 91800 333 11011 21084=
07070,1998-02-01 21:00:00,-7,1016.5,0.1,86,-9,10000,0,,,0,,,,,,,,,,,wg-a,,,,AAXX 01214 07070 12/60 00000 11070 21090 30047 40165 51001 60006 80000 92100=
07070,1998-02-02 00:00:00,-9,1015.8,-0.7,92,-10,10000,0,,,0,,,,,,,,,,,wg-a,,,,AAXX 02004 07070 12/60 00000 11090 21100 30040 40158 58007 60006 80000 90000=
07070,1998-02-02 03:00:00,-10,1015.5,-0.4,92,-11,10000,3.704,,,60,,,,,,,,,,,wg-a,,,,AAXX 02034 07070 12/60 00602 11100 21110 30036 40155 57004 60006 80000 90300=
07070,1998-02-02 06:00:00,-11,1014.6,-0.9,92,-12,10000,0,,,0,-10.8,-3.7,,,,,,,,,wg-a,,,,AAXX 02064 07070 02/60 00000 11110 21120 30027 40146 58009 60006 80000 90600 333 11037 21108 60004=
07070,1998-02-02 09:00:00,-9,1014.8,0.2,92,-10,3700,0,,,0,,,,,,,,,,10,wg-a,,,,AAXX 02094 07070 12/37 40000 11090 21100 30029 40148 50002 60006 71000 80001 90900=
07070,1998-02-02 12:00:00,-1,1013.6,-0.8,64,-7,6000,0,,,0,,,,,,,,,,,wg-a,,,,AAXX 02124 07070 12/56 /0000 11010 21070 30021 40136 58008 60006 80001 91200=
07070,1998-02-02 15:00:00,1,1012.2,-1.3,51,-8,8000,3.704,,,290,,,,,,,,,,,wg-a,,,,AAXX 02154 07070 12/58 02902 10010 21080 30008 40122 56013 60006 80000 91500=
07070,1998-02-02 18:00:00,-4,1012.7,0.3,80,-7,6000,3.704,,,220,-11.4,0.9,,,,,,,,,wg-a,,,,AAXX 02184 07070 12/56 02202 11040 21070 30011 40127 50003 60006 80000 91800 333 10009 21114=
07070,1998-02-02 21:00:00,-5,1013.2,0.5,86,-7,4500,7.408,,,200,,,,,,,,,,10,wg-a,,,,AAXX 02214 07070 12445 72004 11050 21070 30016 40132 50005 60006 71011 876// 92100=
07070,1998-02-03 00:00:00,-2,1012.9,-0.2,80,-5,4500,3.704,,,210,,,,,,,,,,10,wg-a,,,,AAXX 03004 07070 12445 82102 11020 21050 30014 40129 57002 60006 71011 886// 90000=
07070,1998-02-03 06:00:00,-5,1013.4,0.2,93,-6,4500,7.408,,,190,-5.2,-1.8,,,,,,,,10,wg-a,,,,AAXX 03064 07070 02445 61904 11050 21060 30018 40134 53002 60006 71011 86500 90600 333 11018 21052 60004=
07070,1998-02-03 09:00:00,-2,1014.3,1,86,-4,3000,0,,,0,,,,,,,,,,10,wg-a,,,,AAXX 03094 07070 12330 80000 11020 21040 30028 40143 53010 60006 71022 876// 90900=
07070,1998-02-03 12:00:00,1,1014.9,0.7,80,-2,3500,3.704,,,60,,,,,,,,,,10,wg-a,,,,AAXX 03124 07070 12435 70602 10010 21020 30035 40149 51007 60006 71011 875// 91200=
07070,1998-02-03 15:00:00,3,1014.3,-0.5,75,-1,4200,7.408,,,50,,,,,,,,,,10,wg-a,,,,AAXX 03154 07070 12/42 /0504 10030 21010 30030 40143 55005 60006 71011 80001 91500=
07070,1998-02-03 18:00:00,-1,1014.9,0.4,86,-3,3000,0,,,0,-4.5,2.6,,,,,,,,,wg-a,,,,AAXX 03184 07070 12/30 /0000 11010 21030 30034 40149 51004 60006 91800 333 10026 21045=
07070,1998-02-03 21:00:00,-4,1016,1,93,-5,3000,0,,,0,,,,,,,,,,10,wg-a,,,,AAXX 03214 07070 12/30 00000 11040 21050 30044 40160 51010 60006 71000 80000 92100=
07070,1998-02-04 00:00:00,-6,1015.4,-0.7,93,-7,500,3.704,,,80,,,,,,,,,,46,wg-a,,,,AAXX 04004 07070 12/05 00802 11060 21070 30037 40154 58007 60006 74640 80000 90000=
07070,1998-02-04 06:00:00,-8,1015.4,0.2,92,-9,200,3.704,,,60,-8.3,-1.4,,,,,,,,49,wg-a,,,,AAXX 04064 07070 02/02 90602 11080 21090 30036 40154 51002 60006 74944 89/// 90600 333 11014 21083 60004=
07070,1998-02-04 09:00:00,-7,1015.8,0.4,93,-8,800,0,,,0,,,,,,,,,,42,wg-a,,,,AAXX 04094 07070 12/08 00000 11070 21080 30040 40158 51004 60006 74244 80000 90900=
07070,1998-02-04 12:00:00,1,1015.4,0,80,-2,500,11.112,,,340,,,,,,,,,,2,wg-a,,,,AAXX 04124 07070 12/00 03406 10010 21020 30040 40154 50000 60006 70241 80000 91200=
07070,1998-02-04 15:00:00,5,1014.6,-0.6,56,-3,10000,14.816,,,340,,,,,,,,,,,wg-a,,,,AAXX 04154 07070 12/60 13408 10050 21030 30034 40146 56006 60006 80001 91500=
07070,1998-02-04 18:00:00,-1,1016.8,1.9,86,-3,8000,11.112,,,320,-9.7,5,,,,,,,,,wg-a,,,,AAXX 04184 07070 12/58 03206 11010 21030 30053 40168 51019 60006 80000 91800 333 10050 21097=
07070,1998-02-05 00:00:00,-5,1019.5,0.6,93,-6,500,7.408,,,200,,,,,,,,,,,wg-a,,,,AAXX 05004 07070 12/00 02004 11050 21060 30078 40195 51006 60006 80000 90000=
07070,1998-02-05 03:00:00,-6,1020.6,1,100,-6,4000,0,,,0,,,,,,,,,,,wg-a,,,,AAXX 05034 07070 12440 /0000 11060 21060 30088 40206 51010 60006 85500 90300=
07070,1998-02-05 06:00:00,-2,1021.1,0.7,100,-2,2500,0,,,0,-6,-0.8,,,,,,,,10,wg-a,,,,AAXX 05064 07070 02125 80000 11020 21020 30095 40211 53007 60006 71011 886// 90600 333 11008 21060 60004=
07070,1998-02-05 09:00:00,0,1022.4,1.4,100,0,200,3.704,,,240,,,,,,,,,,45,wg-a,,,,AAXX 05094 07070 12/02 92402 10000 20000 30109 40224 51014 60006 74542 89/// 90900=
07070,1998-02-05 12:00:00,2,1023.1,0.8,100,2,2100,3.704,,,260,,,,,,,,,,10,wg-a,,,,AAXX 05124 07070 12221 82602 10020 20020 30117 40231 50008 60006 71042 886// 91200=
07070,1998-02-05 15:00:00,4,1022.8,-0.3,87,2,3000,0,,,0,,,,,,,,,,10,wg-a,,,,AAXX 05154 07070 12330 80000 10040 20020 30114 40228 56003 60006 71022 885// 91500=
07070,1998-02-05 18:00:00,2,1023.5,0.6,93,1,1000,3.704,,,60,-1.7,3.7,,,,,,,,10,wg-a,,,,AAXX 05184 07070 12310 80602 10020 20010 30120 40235 53006 60006 71022 885// 91800 333 10037 21017=
07070,1998-02-06 00:00:00,1,1024.6,0.5,93,0,1200,3.704,,,140,,,,,,,,,,10,wg-a,,,,AAXX 06004 07070 12612 71402 10010 20000 30131 40246 51005 60006 71042 875// 90000=
07070,1998-02-06 03:00:00,2,1024.4,-0.2,93,1,1500,3.704,,,170,,,,,,,,,,10,wg-a,,,,AAXX 06034 07070 12615 81702 10020 20010 30129 40244 58002 60006 71022 885// 90300=
07070,1998-02-06 06:00:00,1,1024.8,0.4,93,0,2500,3.704,,,30,0.8,1.8,,,,,,,,10,wg-a,,,,AAXX 06064 07070 02625 70302 10010 20000 30133 40248 53004 60006 71022 875// 90600 333 10018 20008 60004=
07070,1998-02-06 09:00:00,2,1026,1.2,93,1,1800,3.704,,,130,,,,,,,,,,10,wg-a,,,,AAXX 06094 07070 12618 71302 10020 20010 30145 40260 53012 60006 71022 875// 90900=
07070,1998-02-06 12:00:00,5,1025.5,-0.3,75,1,7000,3.704,,,130,,,,,,,,,,,wg-a,,,,AAXX 06124 07070 12657 81302 10050 20010 30142 40255 58003 60006 885// 91200=
07070,1998-02-06 15:00:00,6,1024.4,-1.1,70,1,10000,7.408,,,170,,,,,,,,,,,wg-a,,,,AAXX 06154 07070 12660 71704 10060 20010 30131 40244 56011 60006 875// 91500=
07070,1998-02-06 18:00:00,-1,1023.9,-0.8,93,-2,15000,0,,,0,-1.2,5.9,,,,,,,,,wg-a,,,,AAXX 06184 07070 12/65 00000 11010 21020 30123 40239 56008 60006 80000 91800 333 10059 21012=
07070,1998-02-06 21:00:00,-3,1023.6,-0.4,100,-3,10000,0,,,0,,,,,,,,,,,wg-a,,,,AAXX 06214 07070 12/60 00000 11030 21030 30119 40236 56004 60006 80000 92100=
07070,1998-02-07 00:00:00,-3,1022.7,-0.9,86,-5,8000,11.112,,,180,,,,,,,,,,,wg-a,,,,AAXX 07004 07070 12/58 /1806 11030 21050 30110 40227 56009 60006 80001 90000=
07070,1998-02-07 03:00:00,-2,1021.7,-0.9,93,-3,6000,11.112,,,170,,,,,,,,,,,wg-a,,,,AAXX 07034 07070 12/56 71706 11020 21030 30101 40217 58009 60006 80002 90300=
07070,1998-02-07 06:00:00,-1,1020.1,-1.5,93,-2,500,18.52,,,190,-3.8,-0.7,,,,,,,,,wg-a,,,,AAXX 07064 07070 02/00 71910 11010 21020 30086 40201 56015 60006 84022 90600 333 11007 21038 60004=
07070,1998-02-07 09:00:00,1,1020.3,0.2,86,-1,3000,11.112,,,190,,,,,,,,,,10,wg-a,,,,AAXX 07094 07070 12830 81906 10010 21010 30088 40203 51002 60006 71022 8807/ 90900=
07070,1998-02-07 12:00:00,2,1021.3,1.1,100,2,1800,14.816,,,230,,,,0,,,,,,10,wg-a,,,,AAXX 07124 07070 02418 82308 10020 20020 30099 40213 53011 60016 71076 8477/ 91200 333 60007=
07070,1998-02-07 15:00:00,5,1022.9,1.7,87,3,2500,18.52,,,260,,,,,,,,,,10,wg-a,,,,AAXX 07154 07070 02425 52610 10050 20030 30116 40229 53017 61000 71076 83731 91500 333 ////=
07070,1998-02-07 18:00:00,3,1025.9,2.9,93,2,2500,0,,,0,-0.9,4.9,,,,,,,,10,wg-a,,,,AAXX 07184 07070 12/25 /0000 10030 20020 30145 40259 52029 60006 71076 86030 91800 333 10049 21009=
07070,1998-02-07 21:00:00,2,1028.4,2.4,93,1,2000,14.816,,,230,,,,,,,,,,10,wg-a,,,,AAXX 07214 07070 12/20 72308 10020 20010 30169 40284 51024 60006 71022 8703/ 92100=
07070,1998-02-08 00:00:00,1,1029.4,0.9,93,0,1500,3.704,,,150,,,,,,,,,,10,wg-a,,,,AAXX 08004 07070 12/15 71502 10010 20000 30178 40294 51009 60006 71022 8703/ 90000=
07070,1998-02-08 03:00:00,1,1030.1,0.7,93,0,3000,3.704,,,180,,,,,,,,,,10,wg-a,,,,AAXX 08034 07070 12630 71802 10010 20000 30185 40301 51007 60006 71022 8753/ 90300=
07070,1998-02-08 06:00:00,1,1030.3,0.2,93,0,4000,14.816,,,190,0.4,2.9,,,,,,,,10,wg-a,,,,AAXX 08064 07070 02840 71908 10010 20000 30187 40303 53002 60006 71022 8703/ 90600 333 10029 20004 60004=
07070,1998-02-08 12:00:00,5,1031.3,0,87,3,4500,11.112,,,190,,,,,,,,,,10,wg-a,,,,AAXX 08124 07070 12345 61906 10050 20030 30199 40313 50000 60006 71022 84101 91200=
07070,1998-02-08 15:00:00,6,1029.7,-1.5,81,3,4500,18.52,,,170,,,,,,,,,,10,wg-a,,,,AAXX 08154 07070 12/45 21710 10060 20030 30184 40297 56015 60006 71011 82030 91500=
07070,1998-02-08 18:00:00,1,1030.6,0.6,93,0,6000,14.816,,,180,0.7,7,,,,,,,,,wg-a,,,,AAXX 08184 07070 12/56 /1808 10010 20000 30190 40306 53006 60006 80001 91800 333 10070 20007=
07070,1998-02-08 21:00:00,0,1030.3,-0.3,93,-1,8000,0,,,0,,,,,,,,,,,wg-a,,,,AAXX 08214 07070 12/58 /0000 10000 21010 30187 40303 58003 60006 80001 92100=
07070,1998-02-09 00:00:00,0,1029.5,-0.8,93,-1,8000,7.408,,,200,,,,,,,,,,,wg-a,,,,AAXX 09004 07070 12/58 02004 10000 21010 30179 40295 58008 60006 80000 90000=
07070,1998-02-09 03:00:00,-2,1029.1,-0.5,93,-3,10000,0,,,0,,,,,,,,,,,wg-a,,,,AAXX 09034 07070 12/60 10000 11020 21030 30174 40291 58005 60006 80001 90300=
07070,1998-02-09 06:00:00,-3,1028.7,-0.4,100,-3,10000,3.704,,,180,-3.3,1.1,,,,,,,,,wg-a,,,,AAXX 09064 07070 02/60 21802 11030 21030 30170 40287 57004 60006 81031 90600 333 10011 21033 60004=
07070,1998-02-09 09:00:00,2,1029.1,0.6,87,0,15000,3.704,,,140,,,,,,,,,,,wg-a,,,,AAXX 09094 07070 12/65 61402 10020 20000 30176 40291 50006 60006 80002 90900=
07070,1998-02-09 12:00:00,7,1027.9,-1,66,1,15000,14.816,,,150,,,,,,,,,,,wg-a,,,,AAXX 09124 07070 12/65 61508 10070 20010 30166 40279 58010 60006 80002 91200=
07070,1998-02-09 15:00:00,9,1027.1,-0.7,66,3,20000,18.52,,,150,,,,,,,,,,,wg-a,,,,AAXX 09154 07070 12/70 61510 10090 20030 30159 40271 55007 60006 80002 91500=
07070,1998-02-09 17:00:00,2,1027.8,0.4,87,0,15000,7.408,,,180,-2.5,8.9,,,,,,,,,wg-a,,,,AAXX 09174 07070 12/65 51804 10020 20000 30163 40278 53004 60006 82032 91700 333 10089 21025=
07070,1998-02-09 18:00:00,2,1027.8,0.4,87,0,15000,7.408,,,180,-2.5,8.9,,,,,,,,,wg-a,,,,AAXX 09184 07070 12/65 51804 10020 20000 30163 40278 53004 60006 82032 91800 333 10089 21025=
07070,1998-02-09 21:00:00,2,1027.9,0.1,80,-1,12000,11.112,,,160,,,,,,,,,,,wg-a,,,,AAXX 09214 07070 12/62 71606 10020 21010 30164 40279 53001 60006 80002 92100=
07070,1998-02-10 00:00:00,-1,1028.8,0.8,93,-2,10000,3.704,,,330,,,,,,,,,,,wg-a,,,,AAXX 10004 07070 12/60 73302 11010 21020 30172 40288 53008 60006 80002 90000=
07070,1998-02-10 03:00:00,0,1028.6,-0.2,86,-2,12000,11.112,,,180,,,,,,,,,,,wg-a,,,,AAXX 10034 07070 12/62 71806 10000 21020 30170 40286 57002 60006 80002 90300=
07070,1998-02-10 06:00:00,0,1029.3,0.7,93,-1,8000,0,,,0,-1.6,3,,,,,,,,,wg-a,,,,AAXX 10064 07070 02/58 70000 10000 21010 30177 40293 53007 60006 80002 90600 333 10030 21016 60004=
07070,1998-02-10 12:00:00,11,1030.4,-0.1,62,4,8000,18.52,,,230,,,,,,,,,,,wg-a,,,,AAXX 10124 07070 12/58 /2310 10110 20040 30192 40304 58001 60006 80002 91200=
07070,1998-02-10 15:00:00,12,1029.4,-0.9,62,5,10000,11.112,,,160,,,,,,,,,,,wg-a,,,,AAXX 10154 07070 12/60 31606 10120 20050 30183 40294 55009 60006 80002 91500=
07070,1998-02-10 18:00:00,3,1030.5,0.7,87,1,10000,14.816,,,160,-1.7,13.4,,,,,,,,,wg-a,,,,AAXX 10184 07070 12/60 11608 10030 20010 30190 40305 53007 60006 80002 91800 333 10134 21017=
07070,1998-02-10 21:00:00,4,1030.7,0.2,87,2,10000,7.408,,,190,,,,,,,,,,,wg-a,,,,AAXX 10214 07070 12/60 01904 10040 20020 30192 40307 53002 60006 80000 92100=
07070,1998-02-11 00:00:00,3,1031.4,0.7,87,1,8000,11.112,,,200,,,,,,,,,,,wg-a,,,,AAXX 11004 07070 12/58 02006 10030 20010 30199 40314 53007 60006 80000 90000=
07070,1998-02-11 03:00:00,0,1031.4,-0.1,93,-1,8000,7.408,,,190,,,,,,,,,,,wg-a,,,,AAXX 11034 07070 12/58 01904 10000 21010 30198 40314 58001 60006 80000 90300=
07070,1998-02-11 06:00:00,0,1031.1,-0.3,86,-2,10000,11.112,,,190,-0.5,4.1,,,,,,,,,wg-a,,,,AAXX 11064 07070 02/60 31906 10000 21020 30195 40311 56003 60006 80001 90600 333 10041 21005 60004=
07070,1998-02-11 09:00:00,4,1031.7,0.8,87,2,4500,11.112,,,200,,,,,,,,,,10,wg-a,,,,AAXX 11094 07070 12/45 72006 10040 20020 30203 40317 50008 60006 71011 80002 90900=
07070,1998-02-11 12:00:00,11,1031.6,0.1,66,5,500,3.704,,,170,,,,,,,,,,,wg-a,,,,AAXX 11124 07070 12/00 71702 10110 20050 30204 40316 50001 60006 80002 91200=
07070,1998-02-11 15:00:00,13,1030.4,-1.1,67,7,500,7.408,,,180,,,,,,,,,,,wg-a,,,,AAXX 11154 07070 12/00 /1804 10130 20070 30193 40304 56011 60006 80002 91500=
07070,1998-02-11 18:00:00,5,1030.6,-0.1,87,3,500,11.112,,,190,-0.4,14.3,,,,,,,,,wg-a,,,,AAXX 11184 07070 12/00 /1906 10050 20030 30192 40306 55001 60006 80002 91800 333 10143 21004=
07070,1998-02-11 21:00:00,3,1031.4,0.7,87,1,6000,3.704,,,150,,,,,,,,,,,wg-a,,,,AAXX 11214 07070 12/56 31502 10030 20010 30199 40314 51007 60006 80002 92100=
07070,1998-02-12 00:00:00,4,1031.6,0.2,93,3,500,0,,,0,,,,,,,,,,,wg-a,,,,AAXX 12004 07070 12/00 20000 10040 20030 30201 40316 53002 60006 80002 90000=
07070,1998-02-12 03:00:00,2,1031.4,-0.2,93,1,500,11.112,,,190,,,,,,,,,,,wg-a,,,,AAXX 12034 07070 12/00 21906 10020 20010 30199 40314 55002 60006 80002 90300=
07070,1998-02-12 06:00:00,3,1032,0.6,93,2,500,7.408,,,200,1.6,5.3,,,,,,,,,wg-a,,,,AAXX 12064 07070 02/00 42004 10030 20020 30205 40320 53006 60006 80002 90600 333 10053 20016 60004=
07070,1998-02-12 09:00:00,4,1032.8,0.8,93,3,3500,11.112,,,190,,,,,,,,,,,wg-a,,,,AAXX 12094 07070 12/35 /1906 10040 20030 30213 40328 50008 60006 90900=
07070,1998-02-12 12:00:00,13,1032.8,0.4,62,6,6000,11.112,,,230,,,,,,,,,,,wg-a,,,,AAXX 12124 07070 12/56 /2306 10130 20060 30217 40328 51004 60006 81032 91200=
07070,1998-02-12 15:00:00,15,1032.2,-0.5,59,7,8000,7.408,,,250,,,,,,,,,,,wg-a,,,,AAXX 12154 07070 12/58 32504 10150 20070 30212 40322 56005 60006 80002 91500=
07070,1998-02-12 18:00:00,7,1033,0.5,93,6,6000,11.112,,,180,1,15.1,,,,,,,,,wg-a,,,,AAXX 12184 07070 12/56 21806 10070 20060 30217 40330 51005 60006 80002 91800 333 10151 20010=
07070,1998-02-12 21:00:00,6,1033.8,0.7,93,5,500,7.408,,,210,,,,,,,,,,,wg-a,,,,AAXX 12214 07070 12/00 32104 10060 20050 30224 40338 52007 60006 80002 92100=
07070,1998-02-13 00:00:00,3,1034.6,0.7,93,2,6000,3.704,,,210,,,,,,,,,,,wg-a,,,,AAXX 13004 07070 12/56 /2102 10030 20020 30231 40346 53007 60006 80002 90000=
07070,1998-02-13 03:00:00,2,1034.7,0,100,2,2500,3.704,,,210,,,,,,,,,,10,wg-a,,,,AAXX 13034 07070 12/25 42102 10020 20020 30231 40347 50000 60006 71011 80002 90300=
07070,1998-02-13 09:00:00,3,1036.1,1.1,100,3,1000,0,,,0,,,,,,,,,,28,wg-a,,,,AAXX 13094 07070 12/10 20000 10030 20030 30245 40361 53011 60006 72841 80001 90900=
07070,1998-02-13 12:00:00,12,1035.7,0,76,8,3000,0,,,0,,,,,,,,,,10,wg-a,,,,AAXX 13124 07070 12/30 70000 10120 20080 30245 40357 50000 60006 71041 80002 91200=
07070,1998-02-13 15:00:00,15,1034.1,-1.4,63,8,4000,7.408,,,170,,,,,,,,,,10,wg-a,,,,AAXX 13154 07070 12/40 71704 10150 20080 30231 40341 56014 60006 71022 80002 91500=
07070,1998-02-13 18:00:00,7,1034.8,0.3,93,6,4500,0,,,0,-0.8,15.1,,,,,,,,10,wg-a,,,,AAXX 13184 07070 12/45 70000 10070 20060 30234 40348 53003 60006 71022 80002 91800 333 10151 21008=
07070,1998-02-13 21:00:00,3,1035.8,0.8,93,2,500,0,,,0,,,,,,,,,,11,wg-a,,,,AAXX 13214 07070 12/00 /0000 10030 20020 30242 40358 52008 60006 71122 80002 92100=
07070,1998-02-14 00:00:00,0,1035.6,-0.3,93,-1,100,3.704,,,70,,,,,,,,,,45,wg-a,,,,AAXX 14004 07070 12/01 90702 10000 21010 30239 40356 55003 60006 74541 89/// 90000=
07070,1998-02-14 03:00:00,-1,1035.1,-0.5,100,-1,100,0,,,0,,,,,,,,,,45,wg-a,,,,AAXX 14034 07070 12/01 90000 11010 21010 30234 40351 58005 60006 74544 89/// 90300=
07070,1998-02-14 06:00:00,-2,1035,-0.1,100,-2,500,3.704,,,280,-1.7,7,,,,,,,,48,wg-a,,,,AAXX 14064 07070 02/05 02802 11020 21020 30233 40350 58001 60006 74844 80000 90600 333 10070 21017 60004=
07070,1998-02-14 09:00:00,0,1035.8,0.8,93,-1,200,0,,,0,,,,,,,,,,48,wg-a,,,,AAXX 14094 07070 12/02 00000 10000 21010 30241 40358 51008 60006 74844 80000 90900=
07070,1998-02-14 12:00:00,9,1035.1,-0.3,100,9,2000,0,,,0,,,,,,,,,,10,wg-a,,,,AAXX 14124 07070 12/20 00000 10090 20090 30238 40351 58003 60006 71040 80000 91200=
07070,1998-02-14 15:00:00,15,1033.3,-1.5,77,11,4000,3.704,,,50,,,,,,,,,,10,wg-a,,,,AAXX 14154 07070 12/40 00502 10150 20110 30223 40333 56015 60006 71000 80000 91500=
07070,1998-02-14 18:00:00,8,1033.9,0.3,87,6,4000,7.408,,,170,-2,15.5,,,,,,,,11,wg-a,,,,AAXX 14184 07070 12/40 01704 10080 20060 30226 40339 53003 60006 71100 80000 91800 333 10155 21020=
07070,1998-02-14 21:00:00,3,1034.8,0.7,100,3,100,3.704,,,340,,,,,,,,,,44,wg-a,,,,AAXX 14214 07070 12/01 03402 10030 20030 30233 40348 53007 60006 74440 80000 92100=
07070,1998-02-15 00:00:00,0,1034.6,-0.4,100,0,100,3.704,,,70,,,,,,,,,,45,wg-a,,,,AAXX 15004 07070 12/01 90702 10000 20000 30229 40346 57004 60006 74541 89/// 90000=
07070,1998-02-15 03:00:00,-1,1034.1,-0.5,100,-1,100,3.704,,,100,,,,,,,,,,45,wg-a,,,,AAXX 15034 07070 12/01 91002 11010 21010 30224 40341 58005 60006 74544 89/// 90300=
07070,1998-02-15 06:00:00,-1,1034.2,0.1,100,-1,100,7.408,,,270,-1.1,7.5,,,,,,,,45,wg-a,,,,AAXX 15064 07070 02/01 92704 11010 21010 30225 40342 50001 60006 74544 89/// 90600 333 10075 21011 60004=
07070,1998-02-15 09:00:00,-1,1035.4,1.2,100,-1,100,3.704,,,60,,,,,,,,,,49,wg-a,,,,AAXX 15094 07070 12/01 90602 11010 21010 30237 40354 52012 60006 74944 89/// 90900=
07070,1998-02-15 12:00:00,5,1033.9,-1.2,100,5,400,3.704,,,150,,,,,,,,,,42,wg-a,,,,AAXX 15124 07070 12004 81502 10050 20050 30225 40339 58012 60006 74244 886// 91200=
07070,1998-02-15 15:00:00,10,1032,-1.7,93,9,2800,11.112,,,30,,,,,,,,,,10,wg-a,,,,AAXX 15154 07070 12/28 40306 10100 20090 30208 40320 56017 60006 71041 80001 91500=
07070,1998-02-15 18:00:00,6,1031,-1.2,100,6,300,3.704,,,330,-0.9,10.6,,,,,,,,44,wg-a,,,,AAXX 15184 07070 12/03 73302 10060 20060 30196 40310 56012 60006 74441 80002 91800 333 10106 21009=
07070,1998-02-15 21:00:00,5,1029,-2,100,5,500,7.408,,,190,,,,,,,,,,28,wg-a,,,,AAXX 15214 07070 12/00 81904 10050 20050 30176 40290 56020 60006 72842 80007 92100=
07070,1998-02-16 00:00:00,6,1026.8,-2.1,100,6,8000,14.816,,,190,,,,,,,,,,3,wg-a,,,,AAXX 16004 07070 12/58 71908 10060 20060 30155 40268 58021 60006 70342 8707/ 90000=
07070,1998-02-16 03:00:00,7,1024.8,-1.9,100,7,8000,0,,,0,,,,,,,,,,,wg-a,,,,AAXX 16034 07070 12/58 70000 10070 20070 30136 40248 58019 60006 8701/ 90300=
07070,1998-02-16 06:00:00,10,1023.5,-1.2,82,7,8000,18.52,,,250,2.7,10.2,,,,,,,,,wg-a,,,,AAXX 16064 07070 02/58 82510 10100 20070 30124 40235 55012 60006 8801/ 90600 333 10102 20027 60004=
07070,1998-02-16 09:00:00,11,1023.5,-0,87,9,7000,25.928,,,260,,,,,,,,,,,wg-a,,,,AAXX 16094 07070 12457 82614 10110 20090 30124 40235 55000 60006 8652/ 90900=
07070,1998-02-16 12:00:00,12,1024.6,1.1,76,8,12000,25.928,,,290,,,,,,,,,,,wg-a,,,,AAXX 16124 07070 12562 72914 10120 20080 30135 40246 53011 60006 8423/ 91200=
07070,1998-02-16 15:00:00,11,1024.8,0.2,66,5,15000,31.484,,,290,,,,,,,,,,,wg-a,,,,AAXX 16154 07070 12665 /2917 10110 20050 30137 40248 53002 60006 86500 91500=
07070,1998-02-16 18:00:00,10,1025.9,1.1,66,4,15000,25.928,,,290,9.4,12.3,,,,,,,,,wg-a,,,,AAXX 16184 07070 12665 72914 10100 20040 30148 40259 53011 60006 875// 91800 333 10123 20094=
07070,1998-02-16 21:00:00,9,1027.6,1.6,76,5,15000,22.224,,,280,,,,,,,,,,,wg-a,,,,AAXX 16214 07070 12665 82812 10090 20050 30164 40276 53016 60006 8357/ 92100=
07070,1998-02-17 00:00:00,9,1029.1,1.5,87,7,10000,22.224,,,290,,,,,,,,,,3,wg-a,,,,AAXX 17004 07070 02460 82912 10090 20070 30179 40291 52015 61000 70362 875// 90000 333 6100=
07070,1998-02-17 03:00:00,7,1030.9,1.7,93,6,8000,18.52,,,320,,,,,,,,,,1,wg-a,,,,AAXX 17034 07070 02458 83210 10070 20060 30196 40309 53017 61000 70162 875// 90300 333 ////=
07070,1998-02-17 06:00:00,6,1033.3,2.3,81,3,9000,18.52,,,330,6.2,10.2,,,,,,,,1,wg-a,,,,AAXX 17064 07070 02559 73310 10060 20030 30219 40333 51023 60006 70162 875// 90600 333 10102 20062 61000=
07070,1998-02-17 09:00:00,6,1036,2.7,70,1,10000,18.52,,,10,,,,,,,,,,,wg-a,,,,AAXX 17094 07070 12560 70110 10060 20010 30246 40360 51027 60006 875// 90900=
07070,1998-02-17 12:00:00,8,1037,1,66,2,10000,14.816,,,340,,,,,,,,,,,wg-a,,,,AAXX 17124 07070 12560 /3408 10080 20020 30256 40370 52010 60006 85500 91200=
07070,1998-02-17 15:00:00,9,1036.7,-0.2,61,2,10000,7.408,,,80,,,,,,,,,,,wg-a,,,,AAXX 17154 07070 12660 20804 10090 20020 30254 40367 58002 60006 82500 91500=
07070,1998-02-17 18:00:00,3,1038,1,87,1,500,3.704,,,90,3.3,9.6,,,,,,,,,wg-a,,,,AAXX 17184 07070 12/00 /0902 10030 20010 30264 40380 53010 60006 80001 91800 333 10096 20033=
07070,1998-02-17 21:00:00,1,1038.6,0.5,93,0,6000,0,,,0,,,,,,,,,,,wg-a,,,,AAXX 17214 07070 12/56 /0000 10010 20000 30269 40386 50005 60006 92100=
07070,1998-02-18 00:00:00,-1,1038.6,-0.1,93,-2,6000,0,,,0,,,,,,,,,,,wg-a,,,,AAXX 18004 07070 12/56 00000 11010 21020 30268 40386 58001 60006 80000 90000=
07070,1998-02-18 03:00:00,-3,1038.1,-0.5,100,-3,6000,0,,,0,,,,,,,,,,,wg-a,,,,AAXX 18034 07070 12/56 00000 11030 21030 30263 40381 58005 60006 80000 90300=
07070,1998-02-18 06:00:00,-2,1036.6,-1.5,100,-2,7000,3.704,,,170,-2.6,3.3,,,,,,,,,wg-a,,,,AAXX 18064 07070 02/57 01702 11020 21020 30248 40366 56015 60006 80000 90600 333 10033 21026 60004=
07070,1998-02-18 09:00:00,3,1036.3,-0,100,3,4500,3.704,,,180,,,,,,,,,,10,wg-a,,,,AAXX 18094 07070 12/45 01802 10030 20030 30248 40363 55000 60006 71000 80000 90900=
07070,1998-02-18 12:00:00,10,1034.4,-1.7,71,5,6000,18.52,,,150,,,,,,,,,,,wg-a,,,,AAXX 18124 07070 12/56 01510 10100 20050 30231 40344 58017 60006 80000 91200=
07070,1998-02-18 15:00:00,12,1031.2,-3,67,6,8000,14.816,,,130,,,,,,,,,,,wg-a,,,,AAXX 18154 07070 12/58 /1308 10120 20060 30201 40312 56030 60006 80001 91500=
07070,1998-02-18 18:00:00,5,1029.7,-1.8,87,3,8000,7.408,,,170,-2.9,12.2,,,,,,,,,wg-a,,,,AAXX 18184 07070 12/58 41704 10050 20030 30183 40297 56018 60006 80001 91800 333 10122 21029=
07070,1998-02-18 21:00:00,2,1029.2,-0.6,87,0,8000,7.408,,,170,,,,,,,,,,,wg-a,,,,AAXX 18214 07070 12/58 01704 10020 20000 30177 40292 55006 60006 80000 92100=
07070,1998-02-19 00:00:00,4,1028.5,-0.6,93,3,8000,11.112,,,210,,,,,,,,,,,wg-a,,,,AAXX 19004 07070 12/58 02106 10040 20030 30171 40285 55006 60006 80000 90000=
07070,1998-02-19 03:00:00,4,1029.1,0.6,87,2,8000,11.112,,,230,,,,,,,,,,,wg-a,,,,AAXX 19034 07070 12/58 02306 10040 20020 30177 40291 51006 60006 80000 90300=
07070,1998-02-19 06:00:00,6,1030.2,1.1,87,4,500,11.112,,,240,0.7,5.8,,,,,,,,,wg-a,,,,AAXX 19064 07070 02500 72406 10060 20040 30188 40302 53011 60006 875// 90600 333 10058 20007 60004=
07070,1998-02-19 09:00:00,8,1031.5,1.4,87,6,4000,22.224,,,240,,,,,,,,,,10,wg-a,,,,AAXX 19094 07070 12540 72412 10080 20060 30202 40315 51014 60006 71022 875// 90900=
07070,1998-02-19 12:00:00,9,1031.8,0.4,87,7,4500,14.816,,,220,,,,,,,,,,10,wg-a,,,,AAXX 19124 07070 02445 82208 10090 20070 30206 40318 50004 61000 71022 885// 91200 333 ////=
07070,1998-02-19 15:00:00,11,1030.9,-0.8,87,9,6000,11.112,,,250,,,,,,,,,,,wg-a,,,,AAXX 19154 07070 12456 72506 10110 20090 30198 40309 56008 60006 875// 91500=
07070,1998-02-19 18:00:00,11,1030.9,-0.1,87,9,6000,7.408,,,250,4.7,11.7,,,,,,,,,wg-a,,,,AAXX 19184 07070 12456 72504 10110 20090 30197 40309 55001 60006 875// 91800 333 10117 20047=
07070,1998-02-19 21:00:00,5,1030.2,-0.9,93,4,500,11.112,,,160,,,,,,,,,,,wg-a,,,,AAXX 19214 07070 12600 /1606 10050 20040 30188 40302 58009 60006 81500 92100=
07070,1998-02-20 00:00:00,2,1029.3,-1,93,1,100,0,,,0,,,,,,,,,,44,wg-a,,,,AAXX 20004 07070 12101 /0000 10020 20010 30178 40293 58010 60006 74441 85600 90000=
07070,1998-02-20 03:00:00,0,1027.4,-2,100,0,100,0,,,0,,,,,,,,,,44,wg-a,,,,AAXX 20034 07070 12/01 00000 10000 20000 30158 40274 57020 60006 74444 80000 90300=
07070,1998-02-20 06:00:00,-1,1025.5,-1.9,100,-1,600,0,,,0,-0.9,10.5,,,,,,,,48,wg-a,,,,AAXX 20064 07070 02/06 30000 11010 21010 30139 40255 58019 60006 74844 80001 90600 333 10105 21009 60004=
07070,1998-02-20 09:00:00,6,1023.9,-1.3,100,6,4000,18.52,,,160,,,,,,,,,,10,wg-a,,,,AAXX 20094 07070 12/40 /1610 10060 20060 30126 40239 58013 60006 71041 80001 90900=
07070,1998-02-20 12:00:00,12,1021.3,-2.3,71,7,7000,14.816,,,150,,,,,,,,,,2,wg-a,,,,AAXX 20124 07070 12/57 71508 10120 20070 30103 40213 58023 60006 70241 80002 91200=
07070,1998-02-20 15:00:00,14,1018.4,-2.8,72,9,8000,18.52,,,150,,,,,,,,,,,wg-a,,,,AAXX 20154 07070 12/58 /1510 10140 20090 30075 40184 56028 60006 80002 91500=
07070,1998-02-20 18:00:00,11,1017.1,-1.4,76,7,7000,3.704,,,190,-0.7,14.5,,,,,,,,,wg-a,,,,AAXX 20184 07070 12/57 /1902 10110 20070 30061 40171 56014 60006 80002 91800 333 10145 21007=
07070,1998-02-20 21:00:00,11,1016.6,-0.5,71,6,8000,22.224,,,180,,,,,,,,,,,wg-a,,,,AAXX 20214 07070 12/58 71812 10110 20060 30056 40166 55005 60006 83032 92100=
07070,1998-02-21 00:00:00,8,1016.8,0.1,81,5,8000,14.816,,,170,,,,,,,,,,,wg-a,,,,AAXX 21004 07070 12/58 /1708 10080 20050 30057 40168 52001 60006 80001 90000=
07070,1998-02-21 03:00:00,6,1016.9,-0,87,4,8000,11.112,,,190,,,,,,,,,,,wg-a,,,,AAXX 21034 07070 12/58 /1906 10060 20040 30057 40169 55000 60006 80001 90300=
07070,1998-02-21 06:00:00,4,1017.2,0.2,93,3,500,11.112,,,170,4.1,12.5,,,,,,,,,wg-a,,,,AAXX 21064 07070 02/00 21706 10040 20030 30059 40172 50002 60006 80001 90600 333 10125 20041 60004=
07070,1998-02-21 09:00:00,9,1017,0,81,6,500,18.52,,,170,,,,,,,,,,,wg-a,,,,AAXX 21094 07070 12/00 71710 10090 20060 30059 40170 50000 60006 80002 90900=
07070,1998-02-21 12:00:00,11,1015.2,,71,6,8000,18.52,,,180,,,,,,,,,,,wg-a,,,,AAXX 21124 07070 12758 81810 10110 20060 30042 40152 60006 8252/ 91200=
07070,1998-02-21 15:00:00,13,1014.7,-0.4,72,8,6000,35.188,,,250,,,,,,,,,,61,wg-a,,,,AAXX 21154 07070 02756 82519 10130 20080 30038 40147 55004 61000 76162 8557/ 91500 333 ////=
07070,1998-02-21 18:00:00,10,1016.6,1.8,93,9,6000,22.224,,,240,4.2,14.6,,,,,,,,61,wg-a,,,,AAXX 21184 07070 02456 82412 10100 20090 30056 40166 53018 61000 76162 8352/ 91800 333 10146 20042 6001=
07070,1998-02-21 21:00:00,9,1017.6,0.9,87,7,6000,18.52,,,230,,,,,,,,,,1,wg-a,,,,AAXX 21214 07070 02/56 82310 10090 20070 30065 40176 51009 61000 70162 8802/ 92100 333 ////=
07070,1998-02-22 00:00:00,9,1017.9,0.3,93,8,6000,14.816,,,220,,,,,,,,,,,wg-a,,,,AAXX 22004 07070 02/56 /2208 10090 20080 30068 40179 51003 61000 90000 333 ////=
07070,1998-02-22 03:00:00,8,1017.7,-0.2,93,7,6000,7.408,,,230,,,,0,,,,,,,wg-a,,,,AAXX 22034 07070 12556 /2304 10080 20070 30066 40177 58002 60007 83520 90300=
07070,1998-02-22 06:00:00,7,1017.6,-0.2,93,6,6000,14.816,,,200,7.1,10.1,,,,,1,,,,wg-a,,,,AAXX 22064 07070 02856 82008 10070 20060 30064 40176 56002 60006 8802/ 90600 333 10101 20071 60014=
07070,1998-02-22 09:00:00,7,1018.8,1.2,93,6,7000,11.112,,,240,,,,2,,,,,,61,wg-a,,,,AAXX 22094 07070 12457 82406 10070 20060 30076 40188 53012 60027 76162 8452/ 90900=
07070,1998-02-22 12:00:00,7,1021.6,2.8,87,5,25000,18.52,,,320,,,,1,,,,,,3,wg-a,,,,AAXX 22124 07070 02475 73210 10070 20050 30104 40216 53028 60036 70362 872// 91200 333 60017=
07070,1998-02-22 15:00:00,8,1022.7,1.1,81,5,15000,11.112,,,340,,,,,,,,,,25,wg-a,,,,AAXX 22154 07070 02565 63406 10080 20050 30115 40227 53011 61000 72586 83802 91500 333 ////=
07070,1998-02-22 18:00:00,6,1026.3,3.5,87,4,11000,7.408,,,310,5.6,8.8,,,,,,,,,wg-a,,,,AAXX 22184 07070 12/61 /3104 10060 20040 30150 40263 53035 60006 91800 333 10088 20056=
07070,1998-02-22 21:00:00,3,1029.6,3.1,93,2,10000,11.112,,,320,,,,,,,,,,1,wg-a,,,,AAXX 22214 07070 02560 /3206 10030 20020 30181 40296 53031 61000 70186 81500 92100 333 ////=
07070,1998-02-23 00:00:00,2,1031.4,1.8,100,2,8000,14.816,,,330,,,,,,,,,,3,wg-a,,,,AAXX 23004 07070 02558 /3308 10020 20020 30199 40314 51018 61000 70386 86500 90000 333 ////=
07070,1998-02-23 03:00:00,2,1032.6,1.1,93,1,6000,14.816,,,320,,,,,,,,,,,wg-a,,,,AAXX 23034 07070 12556 /3208 10020 20010 30210 40326 51011 60006 85500 90300=
07070,1998-02-23 06:00:00,1,1034,1.4,93,0,500,11.112,,,320,0.8,5.6,,,,,3,,,,wg-a,,,,AAXX 23064 07070 02500 23206 10010 20000 30224 40340 51014 60006 82500 90600 333 10056 20008 60034=
07070,1998-02-23 09:00:00,4,1035.7,1.8,93,3,3500,7.408,,,330,,,,,,,,,,10,wg-a,,,,AAXX 23094 07070 12/35 23304 10040 20030 30242 40357 51018 60006 71000 80001 90900=
07070,1998-02-23 12:00:00,9,1035.5,0,71,4,8000,11.112,,,340,,,,,,,,,,,wg-a,,,,AAXX 23124 07070 12458 23406 10090 20040 30242 40355 50000 60006 81101 91200=
07070,1998-02-23 15:00:00,10,1034.6,-0.8,62,3,15000,18.52,,,340,,,,,,,,,,,wg-a,,,,AAXX 23154 07070 12565 33410 10100 20030 30234 40346 56008 60006 81101 91500=
07070,1998-02-23 18:00:00,6,1035.6,0.8,87,4,15000,3.704,,,280,0.6,10.5,,,,,,,,,wg-a,,,,AAXX 23184 07070 12565 42802 10060 20040 30242 40356 53008 60006 82101 91800 333 10105 20006=
07070,1998-02-23 21:00:00,5,1036.4,0.8,93,4,10000,3.704,,,210,,,,,,,,,,,wg-a,,,,AAXX 23214 07070 12560 82102 10050 20040 30250 40364 51008 60006 875// 92100=
07070,1998-02-24 00:00:00,7,1036.4,0,87,5,8000,7.408,,,250,,,,,,,,,,60,wg-a,,,,AAXX 24004 07070 02458 82504 10070 20050 30250 40364 50000 61000 76061 885// 90000 333 6100=
07070,1998-02-24 03:00:00,7,1035.3,-1.1,93,6,4000,7.408,,,300,,,,0,,,,,,10,wg-a,,,,AAXX 24034 07070 12340 83004 10070 20060 30239 40353 58011 60007 71062 885// 90300=
07070,1998-02-24 06:00:00,7,1035.9,0.6,100,7,1000,3.704,,,230,3.6,7,,,,,,,,10,wg-a,,,,AAXX 24064 07070 02110 82302 10070 20070 30245 40359 53006 60006 71062 886// 90600 333 10070 20036 60004=
07070,1998-02-24 09:00:00,8,1037.1,1.3,100,8,600,7.408,,,290,,,,0,,,,,,45,wg-a,,,,AAXX 24094 07070 12106 92904 10080 20080 30258 40371 51013 60007 74554 897// 90900=
07070,1998-02-24 12:00:00,10,1037.3,0.2,93,9,2000,3.704,,,270,,,,,,,,,,,wg-a,,,,AAXX 24124 07070 12/20 /2702 10100 20090 30260 40373 50002 60006 91200=
07070,1998-02-24 15:00:00,12,1036.7,-0.5,76,8,4000,11.112,,,330,,,,,,,,,,10,wg-a,,,,AAXX 24154 07070 12540 73306 10120 20080 30255 40367 56005 60006 71022 878// 91500=
07070,1998-02-24 18:00:00,11,1037.4,0.7,82,8,4000,7.408,,,320,6.9,11.6,,,,,,,,10,wg-a,,,,AAXX 24184 07070 12640 73204 10110 20080 30262 40374 53007 60006 71022 875// 91800 333 10116 20069=
07070,1998-02-24 21:00:00,10,1038,0.5,87,8,4000,7.408,,,310,,,,,,,,,,10,wg-a,,,,AAXX 24214 07070 12540 /3104 10100 20080 30267 40380 51005 60006 71022 85500 92100=
07070,1998-02-25 00:00:00,9,1038.5,0.5,87,7,4000,14.816,,,20,,,,,,,,,,10,wg-a,,,,AAXX 25004 07070 12740 50208 10090 20070 30272 40385 52005 60006 71022 855/0 90000=
07070,1998-02-25 03:00:00,7,1038,-0.6,93,6,2000,11.112,,,310,,,,,,,,,,10,wg-a,,,,AAXX 25034 07070 12520 83106 10070 20060 30266 40380 58006 60006 71011 885// 90300=
07070,1998-02-25 06:00:00,7,1038.3,0.3,100,7,4000,11.112,,,10,6.6,10.4,,,,,,,,10,wg-a,,,,AAXX 25064 07070 02540 80106 10070 20070 30269 40383 53003 60006 71011 885// 90600 333 10104 20066 60004=
07070,1998-02-25 09:00:00,8,1038.8,0.6,93,7,2500,3.704,,,40,,,,,,,,,,10,wg-a,,,,AAXX 25094 07070 12525 80402 10080 20070 30275 40388 52006 60006 71022 885// 90900=
07070,1998-02-25 12:00:00,11,1038.3,-0.4,82,8,6000,14.816,,,60,,,,,,,,,,,wg-a,,,,AAXX 25124 07070 12456 80608 10110 20080 30271 40383 58004 60006 888// 91200=
07070,1998-02-25 18:00:00,10,1036.7,-0.1,87,8,6000,7.408,,,50,7.3,11.5,,,,,,,,,wg-a,,,,AAXX 25184 07070 12456 80504 10100 20080 30254 40367 55001 60006 885// 91800 333 10115 20073=
07070,1998-02-25 21:00:00,10,1036.4,-0.3,87,8,7000,3.704,,,50,,,,,,,,,,,wg-a,,,,AAXX 25214 07070 12557 80502 10100 20080 30251 40364 58003 60006 885// 92100=
07070,1998-02-26 00:00:00,8,1035.6,-0.8,93,7,500,3.704,,,70,,,,,,,,,,,wg-a,,,,AAXX 26004 07070 12400 /0702 10080 20070 30243 40356 58008 60006 81500 90000=
07070,1998-02-26 03:00:00,4,1034.9,-0.9,93,3,500,0,,,0,,,,,,,,,,44,wg-a,,,,AAXX 26034 07070 12/05 00000 10040 20030 30234 40349 56009 60006 74440 80000 90300=
07070,1998-02-26 06:00:00,4,1034.8,-0.1,100,4,1200,0,,,0,1.8,10.1,,,,,,,,10,wg-a,,,,AAXX 26064 07070 02512 80000 10040 20040 30233 40348 57001 60006 71041 885// 90600 333 10101 20018 60004=
07070,1998-02-26 09:00:00,8,1034.7,0.1,100,8,2000,0,,,0,,,,,,,,,,10,wg-a,,,,AAXX 26094 07070 12520 70000 10080 20080 30234 40347 50001 60006 71022 875// 90900=
07070,1998-02-26 12:00:00,10,1033.7,-0.9,87,8,4000,3.704,,,320,,,,,,,,,,10,wg-a,,,,AAXX 26124 07070 12440 83202 10100 20080 30225 40337 58009 60006 71022 885// 91200=
07070,1998-02-26 15:00:00,11,1032,-1.7,82,8,500,7.408,,,250,,,,,,,,,,,wg-a,,,,AAXX 26154 07070 12400 82504 10110 20080 30208 40320 56017 60006 885// 91500=
07070,1998-02-26 18:00:00,9,1032,-0,87,7,3000,11.112,,,300,4.3,10.8,,,,,,,,10,wg-a,,,,AAXX 26184 07070 12430 83006 10090 20070 30208 40320 55000 60006 71022 885// 91800 333 10108 20043=
07070,1998-02-26 21:00:00,8,1031.7,-0.4,93,7,3000,14.816,,,290,,,,,,,,,,10,wg-a,,,,AAXX 26214 07070 12430 82908 10080 20070 30204 40317 56004 60006 71022 886// 92100=
07070,1998-02-27 00:00:00,7,1030.7,-1,93,6,3000,14.816,,,290,,,,,,,,,,10,wg-a,,,,AAXX 27004 07070 12330 82908 10070 20060 30194 40307 58010 60006 71022 886// 90000=
07070,1998-02-27 03:00:00,7,1029.5,-1.2,93,6,3500,14.816,,,240,,,,,,,,,,10,wg-a,,,,AAXX 27034 07070 12435 82408 10070 20060 30182 40295 56012 60006 71022 886// 90300=
07070,1998-02-27 06:00:00,7,1027.1,-2.4,93,6,4000,14.816,,,230,6.6,9.1,,,,,,,,10,wg-a,,,,AAXX 27064 07070 02340 82308 10070 20060 30158 40271 56024 61000 71052 886// 90600 333 10091 20066 6100=
07070,1998-02-27 09:00:00,7,1027.2,0.1,93,6,3500,18.52,,,250,,,,,,,,,,10,wg-a,,,,AAXX 27094 07070 02435 82510 10070 20060 30159 40272 50001 61000 71055 886// 90900 333 ////=
07070,1998-02-27 12:00:00,8,1025.5,-1.6,87,6,500,22.224,,,240,,,,,,,,,,1,wg-a,,,,AAXX 27124 07070 02400 82412 10080 20060 30143 40255 58016 61000 70152 885// 91200 333 6100=
07070,1998-02-27 15:00:00,9,1022.4,-3,81,6,9000,25.928,,,240,,,,,,,,,,,wg-a,,,,AAXX 27154 07070 12559 72414 10090 20060 30113 40224 56030 60006 875// 91500=
07070,1998-02-27 18:00:00,9,1021,-1.4,76,5,8000,29.632,,,230,6.8,9.5,,,,,,,,,wg-a,,,,AAXX 27184 07070 12558 82316 10090 20050 30099 40210 56014 60006 875// 91800 333 10095 20068=
07070,1998-02-27 21:00:00,9,1019.7,-1.3,81,6,8000,29.632,,,240,,,,,,,,,,,wg-a,,,,AAXX 27214 07070 12558 82416 10090 20060 30086 40197 58013 60006 875// 92100=
07070,1998-02-28 00:00:00,9,1017.7,-2,81,6,7000,22.224,,,240,,,,,,,,,,,wg-a,,,,AAXX 28004 07070 12557 82412 10090 20060 30066 40177 57020 60006 8652/ 90000=
07070,1998-02-28 03:00:00,8,1015.6,-2.1,81,5,6000,31.484,,,250,,,,,,,,,,1,wg-a,,,,AAXX 28034 07070 02456 82517 10080 20050 30045 40156 58021 61000 70162 878// 90300 333 ////=
07070,1998-02-28 06:00:00,8,1013.6,-2,87,6,10000,29.632,,,250,7.9,8.9,,,,,,,,1,wg-a,,,,AAXX 28064 07070 02460 82516 10080 20060 30025 40136 56020 60006 70162 8582/ 90600 333 10089 20079 61000=
07070,1998-02-28 09:00:00,8,1014,0.4,87,6,6000,31.484,,,260,,,,,,,,,,61,wg-a,,,,AAXX 28094 07070 02456 82617 10080 20060 30029 40140 53004 61000 76162 885// 90900 333 ////=
07070,1998-02-28 12:00:00,8,1015.2,1.2,76,4,15000,29.632,,,270,,,,1,,,,,,21,wg-a,,,,AAXX 28124 07070 02565 72716 10080 20040 30041 40152 51012 60016 72162 878// 91200 333 60017=
07070,1998-02-28 15:00:00,8,1015.2,-0,57,0,20000,25.928,,,320,,,,,,,,,,3,wg-a,,,,AAXX 28154 07070 02570 73214 10080 20000 30041 40152 55000 61000 70386 81232 91500 333 ////=
07070,1998-02-28 18:00:00,6,1016.5,1.2,52,-3,16000,18.52,,,290,5.4,9.4,,,,,,,,2,wg-a,,,,AAXX 28184 07070 12566 72910 10060 21030 30053 40165 53012 60006 70286 8127/ 91800 333 10094 20054=
07070,1998-02-28 21:00:00,5,1016.9,0.3,65,-1,25000,11.112,,,270,,,,,,,,,,,wg-a,,,,AAXX 28214 07070 12675 82706 10050 21010 30056 40169 51003 60006 8657/ 92100=
07070,1998-03-01 00:00:00,3,1016.7,-0.2,81,0,25000,14.816,,,230,,,,,,,,,,25,wg-a,,,,AAXX 01004 07070 02675 82308 10030 20000 30054 40167 58002 61000 72522 878// 90000 333 ////=
07070,1998-03-01 03:00:00,3,1017.1,0.4,81,0,25000,18.52,,,260,,,,,,,,,,,wg-a,,,,AAXX 01034 07070 12/75 02610 10030 20000 30058 40171 53004 60006 80000 90300=
07070,1998-03-01 06:00:00,1,1018.3,1.1,86,-1,25000,18.52,,,250,0.5,6,,,,,1,,,,wg-a,,,,AAXX 01064 07070 02675 22510 10010 21010 30069 40183 51011 60006 81101 90600 333 10060 20005 60014=
07070,1998-03-01 09:00:00,4,1020,1.8,81,1,15000,18.52,,,250,,,,,,,,,,,wg-a,,,,AAXX 01094 07070 12/65 12510 10040 20010 30087 40200 52018 60006 80001 90900=
07070,1998-03-01 12:00:00,9,1019.1,-0.7,49,-1,15000,29.632,,,250,,,,,,,,,,,wg-a,,,,AAXX 01124 07070 12665 32516 10090 21010 30080 40191 58007 60006 82204 91200=
07070,1998-03-01 15:00:00,10,1018.2,-0.9,50,0,20000,29.632,,,240,,,,,,,,,,,wg-a,,,,AAXX 01154 07070 12670 72416 10100 20000 30071 40182 56009 60006 86231 91500=
07070,1998-03-01 18:00:00,8,1018.3,-0,71,3,15000,22.224,,,240,0.3,9.7,,,,,,,,,wg-a,,,,AAXX 01184 07070 12665 72412 10080 20030 30071 40183 55000 60006 8443/ 91800 333 10097 20003=
07070,1998-03-01 21:00:00,7,1019.1,0.8,76,3,15000,18.52,,,240,,,,,,,,,,1,wg-a,,,,AAXX 01214 07070 02665 /2410 10070 20030 30079 40191 52008 61000 70186 85800 92100 333 ////=
07070,1998-03-02 00:00:00,6,1019.6,0.5,81,3,12000,18.52,,,240,,,,,,,,,,2,wg-a,,,,AAXX 02004 07070 02762 22410 10060 20030 30084 40196 53005 61000 70286 82500 90000 333 ////=
07070,1998-03-02 03:00:00,6,1019.5,-0.1,87,4,12000,22.224,,,240,,,,,,,,,,,wg-a,,,,AAXX 02034 07070 12762 32412 10060 20040 30083 40195 58001 60006 82501 90300=
07070,1998-03-02 06:00:00,6,1020.1,0.5,87,4,15000,18.52,,,240,4.6,7.9,,,,,,,,,wg-a,,,,AAXX 02064 07070 02765 72410 10060 20040 30088 40201 53005 60006 878// 90600 333 10079 20046 61000=
07070,1998-03-02 09:00:00,7,1021.2,1.2,87,5,12000,25.928,,,250,,,,,,,,,,2,wg-a,,,,AAXX 02094 07070 02462 72514 10070 20050 30100 40212 51012 61000 70286 878// 90900 333 ////=
07070,1998-03-02 15:00:00,11,1020.3,-0.7,66,5,25000,25.928,,,250,,,,,,,,,,,wg-a,,,,AAXX 02154 07070 12675 72514 10110 20050 30093 40203 56007 60006 878// 91500=
07070,1998-03-02 18:00:00,10,1020.5,0.1,66,4,25000,18.52,,,220,5.6,12.4,,,,,,,,,wg-a,,,,AAXX 02184 07070 12775 62210 10100 20040 30094 40205 53001 60006 845/1 91800 333 10124 20056=
07070,1998-03-02 21:00:00,10,1020.2,-0.3,71,5,15000,14.816,,,220,,,,,,,,,,,wg-a,,,,AAXX 02214 07070 12765 62208 10100 20050 30091 40202 55003 60006 86500 92100=
07070,1998-03-03 00:00:00,9,1018.6,-1.6,76,5,15000,25.928,,,220,,,,,,,,,,,wg-a,,,,AAXX 03004 07070 12765 72214 10090 20050 30075 40186 58016 60006 875// 90000=
07070,1998-03-03 03:00:00,10,1016.2,-2.4,71,5,15000,22.224,,,220,,,,,,,,,,,wg-a,,,,AAXX 03034 07070 12765 72212 10100 20050 30051 40162 58024 60006 875// 90300=
07070,1998-03-03 06:00:00,10,1013.6,-2.5,66,4,25000,31.484,,,220,8.6,10.1,,,,,,,,,wg-a,,,,AAXX 03064 07070 02675 72217 10100 20040 30026 40136 56025 60006 8651/ 90600 333 10101 20086 61000=
07070,1998-03-03 09:00:00,11,1013,-0.6,66,5,20000,38.892,,,230,,,,,,,,,,3,wg-a,,,,AAXX 03094 07070 02570 72321 10110 20050 30020 40130 58006 61000 70362 8457/ 90900 333 ////=
07070,1998-03-03 12:00:00,14,1012.2,-0.7,63,7,15000,42.596,,70.376,230,,,,,,,,,,3,wg-a,,,,AAXX 03124 07070 02565 72323 10140 20070 30013 40122 56007 61000 70362 8457/ 91200 333 //// 91038=
07070,1998-03-03 15:00:00,16,1010.9,-1.2,55,7,10000,42.596,,64.82,240,,,,,,,,,,,wg-a,,,,AAXX 03154 07070 12660 72423 10160 20070 30001 40109 56012 60006 8253/ 91500 333 91035=
07070,1998-03-03 18:00:00,13,1011.3,0.4,82,10,8000,31.484,,,240,9.4,16.5,,,,,,,,60,wg-a,,,,AAXX 03184 07070 02658 82417 10130 20100 30005 40113 50004 61000 76062 8452/ 91800 333 10165 20094 6100=
07070,1998-03-03 21:00:00,15,1011.1,-0.2,63,8,10000,38.892,,62.968,240,,,,0,,,,,,1,wg-a,,,,AAXX 03214 07070 12/60 82421 10150 20080 30003 40111 58002 60007 70162 8802/ 92100 333 91034=
07070,1998-03-04 00:00:00,15,1010.2,-0.9,48,4,25000,29.632,,50.004,220,,,,,,,,,,3,wg-a,,,,AAXX 04004 07070 02/75 82216 10150 20040 39994 40102 58009 60006 70362 8807/ 90000 333 61000 91027=
07070,1998-03-04 03:00:00,17,1007.2,-2.9,39,3,10000,29.632,,55.56,210,,,,,,,,,,,wg-a,,,,AAXX 04034 07070 12/60 82116 10170 20030 39965 40072 58029 60006 8807/ 90300 333 91030=
07070,1998-03-04 06:00:00,17,1004.9,-2.3,34,1,25000,42.596,,68.524,230,13.4,17.9,,,,,,,,,wg-a,,,,AAXX 04064 07070 02675 72323 10170 20010 39942 40049 56023 60006 8157/ 90600 333 10179 20134 60004 91037=
07070,1998-03-04 09:00:00,14,1004.8,-0.1,63,7,11000,42.596,,59.264,230,,,,,,,,,,,wg-a,,,,AAXX 04094 07070 02/61 /2323 10140 20070 39941 40048 58001 61000 90900 333 //// 91032=
07070,1998-03-04 12:00:00,18,1003.1,-1.6,49,7,12000,50.004,,72.228,230,,,,,,,,,,3,wg-a,,,,AAXX 04124 07070 02762 72327 10180 20070 39925 40031 56016 61000 70362 875// 91200 333 6100 91039=
07070,1998-03-04 15:00:00,15,1001.8,-1.4,77,11,10000,64.82,,,250,,,,1,,,,,,60,wg-a,,,,AAXX 04154 07070 12560 82535 10150 20110 39911 40018 56014 60017 76062 888// 91500=
07070,1998-03-04 18:00:00,10,1005,3,87,8,7000,29.632,,,300,9.5,18.4,,,,,,,,61,wg-a,,,,AAXX 04184 07070 02557 83016 10100 20080 39941 40050 53030 61000 76186 888// 91800 333 10184 20095 6008=
07070,1998-03-04 21:00:00,8,1007.8,2.7,81,5,10000,22.224,,,280,,,,2,,,,,,21,wg-a,,,,AAXX 04214 07070 12460 72812 10080 20050 39968 40078 51027 60027 72162 8687/ 92100=
07070,1998-03-05 00:00:00,7,1008.7,0.8,81,4,15000,31.484,,,260,,,,,,,,,,1,wg-a,,,,AAXX 05004 07070 12/65 32617 10070 20040 39976 40087 51008 60026 70161 81071 90000=
07070,1998-03-05 03:00:00,7,1010.3,1.6,76,3,15000,46.3,,,260,,,,,,,,,,,wg-a,,,,AAXX 05034 07070 12565 32625 10070 20030 39992 40103 53016 60006 82501 90300=
07070,1998-03-05 06:00:00,6,1014.5,4.1,81,3,12000,35.188,,,260,5.3,9.5,,,,,,,,25,wg-a,,,,AAXX 05064 07070 02562 72619 10060 20030 30033 40145 53041 61000 72511 878// 90600 333 10095 20053 6011=
07070,1998-03-05 09:00:00,8,1019.5,5,71,3,25000,38.892,,,270,,,,,,,,,,,wg-a,,,,AAXX 05094 07070 12575 42721 10080 20030 30083 40195 51050 60006 84200 90900=
07070,1998-03-05 12:00:00,10,1022,2.6,50,0,25000,38.892,,,290,,,,,,,,,,,wg-a,,,,AAXX 05124 07070 12675 /2921 10100 20000 30109 40220 51026 60006 85200 91200=
07070,1998-03-05 15:00:00,11,1023.1,1.1,43,-1,35000,35.188,,,290,,,,,,,,,,,wg-a,,,,AAXX 05154 07070 12781 42919 10110 21010 30120 40231 53011 60006 84200 91500=
07070,1998-03-05 18:00:00,7,1024.7,1.4,57,-1,35000,11.112,,,240,5.5,11.5,,,,,,,,,wg-a,,,,AAXX 05184 07070 12/81 62406 10070 21010 30134 40247 51014 60006 82031 91800 333 10115 20055=
07070,1998-03-05 21:00:00,7,1025.1,0.4,66,1,25000,18.52,,,240,,,,,,,,,,,wg-a,,,,AAXX 05214 07070 12875 72410 10070 20010 30138 40251 53004 60006 8703/ 92100=
07070,1998-03-06 00:00:00,8,1024.1,-0.9,61,1,20000,22.224,,,250,,,,,,,,,,,wg-a,,,,AAXX 06004 07070 12/70 72512 10080 20010 30129 40241 56009 60006 83031 90000=
07070,1998-03-06 03:00:00,7,1023.2,-0.9,70,2,20000,18.52,,,240,,,,,,,,,,,wg-a,,,,AAXX 06034 07070 12/70 72410 10070 20020 30120 40232 58009 60006 84072 90300=
07070,1998-03-06 06:00:00,7,1021.8,-1.4,76,3,15000,18.52,,,230,4.9,8.2,,,,,,,,,wg-a,,,,AAXX 06064 07070 02665 72310 10070 20030 30106 40218 58014 60006 8257/ 90600 333 10082 20049 60004=
07070,1998-03-06 09:00:00,8,1021.6,-0.2,81,5,6000,25.928,,,230,,,,0,,,,,,61,wg-a,,,,AAXX 06094 07070 12556 82314 10080 20050 30104 40216 57002 60007 76162 8312/ 90900=
07070,1998-03-06 12:00:00,9,1018.9,-2.6,87,7,12000,35.188,,,240,,,,1,,,,,,21,wg-a,,,,AAXX 06124 07070 02462 82419 10090 20070 30078 40189 56026 60016 72162 8622/ 91200 333 60017=
07070,1998-03-06 15:00:00,10,1017.8,-1.1,87,8,10000,35.188,,,250,,,,0,,,,,,21,wg-a,,,,AAXX 06154 07070 12460 82519 10100 20080 30067 40178 56011 60007 72162 882// 91500=
07070,1998-03-06 18:00:00,11,1017.9,0.2,82,8,10000,29.632,,,250,7.2,10.7,,,,,,,,1,wg-a,,,,AAXX 06184 07070 12560 82516 10110 20080 30069 40179 52002 60006 70162 872// 91800 333 10107 20072=
07070,1998-03-06 21:00:00,11,1017.1,-0.8,82,8,10000,18.52,,,230,,,,,,,,,,3,wg-a,,,,AAXX 06214 07070 02660 82310 10110 20080 30061 40171 58008 61000 70362 8257/ 92100 333 ////=
07070,1998-03-07 00:00:00,11,1015.8,-1.3,76,7,15000,29.632,,,250,,,,,,,,,,3,wg-a,,,,AAXX 07004 07070 02565 82516 10110 20070 30048 40158 56013 61000 70362 875// 90000 333 ////=
07070,1998-03-07 03:00:00,9,1014.3,-1.5,87,7,10000,25.928,,,230,,,,,,,,,,,wg-a,,,,AAXX 07034 07070 12560 82314 10090 20070 30033 40143 58015 60006 8257/ 90300=
07070,1998-03-07 06:00:00,9,1012.2,-2.1,87,7,10000,31.484,,,230,8.9,11,,,,,,,,60,wg-a,,,,AAXX 07064 07070 02660 82317 10090 20070 30012 40122 56021 61000 76062 8557/ 90600 333 10110 20089 6001=
07070,1998-03-07 12:00:00,14,1010.6,-1.5,72,9,15000,38.892,,,240,,,,,,,,,,1,wg-a,,,,AAXX 07124 07070 12565 42421 10140 20090 39998 40106 58015 60006 70165 84800 91200=
07070,1998-03-07 15:00:00,14,1008.7,-1.9,63,7,8000,46.3,,68.524,270,,,,0,,,,,,3,wg-a,,,,AAXX 07154 07070 12458 62725 10140 20070 39979 40087 56019 60007 70386 86900 91500 333 91037=
07070,1998-03-07 18:00:00,10,1009.4,0.5,82,7,1500,29.632,,,260,9.3,14.7,,1,,,,,,1,wg-a,,,,AAXX 07184 07070 02615 32616 10100 20070 39984 40094 51005 60006 70186 83800 91800 333 10147 20093 60017=
07070,1998-03-07 21:00:00,9,1009.8,0.4,87,7,15000,22.224,,,250,,,,,,,,,,,wg-a,,,,AAXX 07214 07070 12665 72512 10090 20070 39988 40098 50004 60006 875// 92100=
07070,1998-03-08 00:00:00,9,1008.9,-0.9,81,6,12000,29.632,,,240,,,,,,,,,,61,wg-a,,,,AAXX 08004 07070 02562 82416 10090 20060 39979 40089 58009 61000 76161 875// 90000 333 6100=
07070,1998-03-08 03:00:00,7,1008.8,-0.2,93,6,12000,35.188,,,280,,,,4,,,,,,80,wg-a,,,,AAXX 08034 07070 12462 72819 10070 20060 39977 40088 58002 60047 78086 878// 90300=
07070,1998-03-08 06:00:00,7,1008.7,-0.1,93,6,10000,25.928,,,250,6.9,10.2,,,,,,,,80,wg-a,,,,AAXX 08064 07070 02460 62514 10070 20060 39976 40087 57001 61000 78086 86800 90600 333 10102 20069 6005=
07070,1998-03-08 09:00:00,10,1009,0.4,76,6,15000,31.484,,,270,,,,0,,,,,,1,wg-a,,,,AAXX 08094 07070 12465 72717 10100 20060 39980 40090 51004 60007 70186 872// 90900=
07070,1998-03-08 12:00:00,11,1007.9,-1,71,6,20000,22.224,,,280,,,,,,,,,,25,wg-a,,,,AAXX 08124 07070 02570 72812 10110 20060 39970 40079 58010 60016 72586 878// 91200 333 61000=
07070,1998-03-08 15:00:00,9,1007.4,-0.6,81,6,12000,18.52,,,280,,,,0,,,,,,25,wg-a,,,,AAXX 08154 07070 12562 /2810 10090 20060 39964 40074 56006 60007 72586 86800 91500=
07070,1998-03-08 18:00:00,8,1009.1,1.7,87,6,20000,14.816,,,340,7.3,10.8,,,,,,,,1,wg-a,,,,AAXX 08184 07070 02570 83408 10080 20060 39981 40091 53017 60006 70186 874// 91800 333 10108 20073 61000=
07070,1998-03-08 21:00:00,6,1012,2.8,87,4,8000,25.928,,,10,,,,,,,,,,3,wg-a,,,,AAXX 08214 07070 02458 80114 10060 20040 30009 40120 53028 61000 70362 888// 92100 333 ////=
07070,1998-03-09 03:00:00,0,1020,3.3,80,-3,15000,22.224,,,20,,,,,,,,,,,wg-a,,,,AAXX 09034 07070 12565 20212 10000 21030 30085 40200 53033 60006 81501 90300=
07070,1998-03-09 06:00:00,-2,1023.3,3.2,86,-4,12000,14.816,,,30,-1.6,7.8,,,,,1,,,,wg-a,,,,AAXX 09064 07070 02/62 70308 11020 21040 30117 40233 51032 60006 83031 90600 333 10078 21016 60014=
07070,1998-03-09 09:00:00,1,1026.8,3.6,64,-5,15000,3.704,,,30,,,,,,,,,,,wg-a,,,,AAXX 09094 07070 12/65 20302 10010 21050 30153 40268 53036 60006 81031 90900=
07070,1998-03-09 12:00:00,5,1028.4,1.7,56,-3,20000,25.928,,,60,,,,,,,,,,,wg-a,,,,AAXX 09124 07070 12670 20614 10050 21030 30170 40284 51017 60006 82201 91200=
07070,1998-03-09 18:00:00,4,1030.3,1.5,75,0,25000,14.816,,,60,-1.8,7.6,,,,,,,,,wg-a,,,,AAXX 09184 07070 12775 20608 10040 20000 30188 40303 51015 60006 82400 91800 333 10076 21018=
07070,1998-03-09 21:00:00,1,1032.9,2.5,86,-1,25000,0,,,0,,,,,,,,,,,wg-a,,,,AAXX 09214 07070 12/75 00000 10010 21010 30213 40329 51025 60006 80000 92100=
07070,1998-03-10 00:00:00,-2,1033.3,0.3,93,-3,15000,0,,,0,,,,,,,,,,,wg-a,,,,AAXX 10004 07070 12/65 00000 11020 21030 30216 40333 53003 60006 80000 90000=
07070,1998-03-10 03:00:00,-3,1033.7,0.3,93,-4,15000,0,,,0,,,,,,,,,,,wg-a,,,,AAXX 10034 07070 12/65 00000 11030 21040 30219 40337 51003 60006 80000 90300=
07070,1998-03-10 06:00:00,-3,1033.6,-0.1,93,-4,500,0,,,0,-3.5,3.7,,,,,,,,,wg-a,,,,AAXX 10064 07070 02/00 20000 11030 21040 30218 40336 55001 60006 80001 90600 333 10037 21035 60004=
07070,1998-03-10 09:00:00,3,1033.3,0,87,1,6000,14.816,,,180,,,,0,,,,,,,wg-a,,,,AAXX 10094 07070 12/56 41808 10030 20010 30218 40333 50000 60007 80001 90900=
07070,1998-03-10 12:00:00,7,1031.3,-1.8,53,-2,16000,22.224,,,190,,,,,,,,,,,wg-a,,,,AAXX 10124 07070 12566 /1912 10070 21020 30200 40313 58018 60006 81101 91200=
07070,1998-03-10 15:00:00,9,1028,-3.2,43,-3,16000,18.52,,,190,,,,,,,,,,,wg-a,,,,AAXX 10154 07070 12/66 71910 10090 21030 30168 40280 57032 60006 81031 91500=
07070,1998-03-10 18:00:00,5,1025.2,-2.9,65,-1,15000,11.112,,,170,-3.8,9.1,,,,,,,,,wg-a,,,,AAXX 10184 07070 12/65 71706 10050 21010 30139 40252 58029 60006 82032 91800 333 10091 21038=
07070,1998-03-10 21:00:00,5,1021.7,-3.5,56,-3,20000,22.224,,,180,,,,,,,,,,,wg-a,,,,AAXX 10214 07070 12/70 81812 10050 21030 30104 40217 56035 60006 8801/ 92100=
07070,1998-03-11 00:00:00,5,1018.4,-3.3,52,-4,20000,14.816,,,180,,,,,,,,,,,wg-a,,,,AAXX 11004 07070 12870 81808 10050 21040 30071 40184 58033 60006 8802/ 90000=
07070,1998-03-11 06:00:00,1,1011.3,-2.8,100,1,500,25.928,,,180,0.9,5.3,,,,,,,,22,wg-a,,,,AAXX 11064 07070 02300 81814 10010 20010 30000 40113 57028 61000 72276 877// 90600 333 10053 20009 6002=
07070,1998-03-11 09:00:00,2,1010.2,-1.1,100,2,6000,18.52,,,200,,,,,,,,,,23,wg-a,,,,AAXX 11094 07070 02356 82010 10020 20020 39989 40102 56011 61000 72376 877// 90900 333 ////=
07070,1998-03-11 12:00:00,4,1010.2,0.1,93,3,4000,7.408,,,210,,,,,,,,,,51,wg-a,,,,AAXX 11124 07070 02340 82104 10040 20030 39990 40102 52001 61000 75176 887// 91200 333 6100=
07070,1998-03-11 15:00:00,5,1010.6,0.4,100,5,3500,7.408,,,230,,,,,,,,,,10,wg-a,,,,AAXX 11154 07070 32/35 /2304 10050 20050 39994 40106 53004 710// 91500=
07070,1998-03-11 18:00:00,6,1012.1,1.5,100,6,3000,25.928,,,320,1.4,6,,,,,,,,51,wg-a,,,,AAXX 11184 07070 02230 83214 10060 20060 30009 40121 53015 61000 75165 877// 91800 333 10060 20014 6000=
07070,1998-03-11 21:00:00,4,1013.9,1.8,100,4,6000,38.892,,,330,,,,1,,,,,,51,wg-a,,,,AAXX 11214 07070 12356 83321 10040 20040 30027 40139 53018 60017 75166 887// 92100=
07070,1998-03-12 00:00:00,4,1016.2,2.2,93,3,8000,31.484,,,340,,,,0,,,,,,61,wg-a,,,,AAXX 12004 07070 02458 83417 10040 20030 30049 40162 53022 60016 76165 885// 90000 333 60007=
07070,1998-03-12 03:00:00,4,1017.8,1.6,87,2,8000,22.224,,,340,,,,1,,,,,,23,wg-a,,,,AAXX 12034 07070 12558 83412 10040 20020 30065 40178 51016 60017 72376 875// 90300=
07070,1998-03-12 06:00:00,3,1020.4,2.5,87,1,8000,22.224,,,330,2.8,5.9,,,,,3,,,3,wg-a,,,,AAXX 12064 07070 02358 53312 10030 20010 30090 40204 53025 60006 70376 84801 90600 333 10059 20028 60034=
07070,1998-03-12 09:00:00,4,1023,2.6,87,2,10000,22.224,,,340,,,,,,,,,,,wg-a,,,,AAXX 12094 07070 12460 /3412 10040 20020 30116 40230 53026 60006 85800 90900=
07070,1998-03-12 12:00:00,8,1023.8,1,66,2,15000,25.928,,,350,,,,,,,,,,,wg-a,,,,AAXX 12124 07070 12565 53514 10080 20020 30126 40238 51010 60006 85400 91200=
07070,1998-03-12 15:00:00,7,1024.2,0.3,76,3,15000,29.632,,,340,,,,0,,,,,,27,wg-a,,,,AAXX 12154 07070 12565 73416 10070 20030 30129 40242 53003 60007 72787 8592/ 91500=
07070,1998-03-12 18:00:00,3,1026,1.7,93,2,15000,18.52,,,320,2.5,7.6,,,,,,,,25,wg-a,,,,AAXX 12184 07070 02665 73210 10030 20020 30146 40260 53017 61000 72587 84962 91800 333 10076 20025 6000=
07070,1998-03-12 21:00:00,3,1028,1.9,87,1,20000,14.816,,,320,,,,,,,,,,,wg-a,,,,AAXX 12214 07070 12670 73208 10030 20010 30165 40280 52019 60006 875// 92100=
07070,1998-03-13 00:00:00,0,1028.6,0.5,100,0,10000,14.816,,,320,,,,,,,,,,,wg-a,,,,AAXX 13004 07070 12/60 03208 10000 20000 30170 40286 50005 60006 80000 90000=
07070,1998-03-13 03:00:00,-1,1028.4,-0.2,93,-2,10000,7.408,,,200,,,,,,,,,,,wg-a,,,,AAXX 13034 07070 12/60 02004 11010 21020 30168 40284 58002 60006 80000 90300=
07070,1998-03-13 06:00:00,-3,1029.1,0.6,100,-3,4500,3.704,,,200,-2.6,3.6,,,,,1,,,10,wg-a,,,,AAXX 13064 07070 02/45 /2002 11030 21030 30174 40291 53006 60006 71000 80001 90600 333 10036 21026 60014=
07070,1998-03-13 09:00:00,3,1029.4,0.5,87,1,500,7.408,,,240,,,,0,,,,,,,wg-a,,,,AAXX 13094 07070 12700 52404 10030 20010 30179 40294 53005 60007 82501 90900=
07070,1998-03-13 12:00:00,7,1029,-0.2,61,0,15000,14.816,,,270,,,,,,,,,,,wg-a,,,,AAXX 13124 07070 12565 72708 10070 20000 30177 40290 58002 60006 86802 91200=
07070,1998-03-13 15:00:00,8,1027.2,-1.7,61,1,15000,14.816,,,280,,,,,,,,,,,wg-a,,,,AAXX 13154 07070 12665 72808 10080 20010 30160 40272 56017 60006 875// 91500=
07070,1998-03-13 18:00:00,7,1027.8,0.5,70,2,8000,11.112,,,280,-2.6,8.7,,,,,,,,,wg-a,,,,AAXX 13184 07070 12558 82806 10070 20020 30165 40278 53005 60006 885// 91800 333 10087 21026=
07070,1998-03-13 21:00:00,6,1028.6,0.8,87,4,6000,11.112,,,280,,,,,,,,,,51,wg-a,,,,AAXX 13214 07070 02356 82806 10060 20040 30173 40286 51008 61000 75152 886// 92100 333 ////=
07070,1998-03-14 00:00:00,5,1029.1,0.4,100,5,800,7.408,,,250,,,,,,,,,,44,wg-a,,,,AAXX 14004 07070 02208 82504 10050 20050 30177 40291 50004 61000 74454 886// 90000 333 6100=
07070,1998-03-14 03:00:00,5,1028.7,-0.4,100,5,800,7.408,,,280,,,,,,,,,,44,wg-a,,,,AAXX 14034 07070 12208 82804 10050 20050 30173 40287 58004 60006 74444 886// 90300=
07070,1998-03-14 06:00:00,5,1030,1.3,100,5,500,3.704,,,310,5.2,6.9,,,,,,,,45,wg-a,,,,AAXX 14064 07070 02/05 93102 10050 20050 30186 40300 53013 60006 74544 89/// 90600 333 10069 20052 60004=
07070,1998-03-14 09:00:00,8,1030.5,0.6,93,7,3800,14.816,,,320,,,,,,,,,,10,wg-a,,,,AAXX 14094 07070 12338 73208 10080 20070 30192 40305 52006 60006 71042 878// 90900=
07070,1998-03-14 12:00:00,9,1031,0.6,87,7,6000,14.816,,,330,,,,,,,,,,21,wg-a,,,,AAXX 14124 07070 02456 73308 10090 20070 30198 40310 50006 61000 72164 875// 91200 333 6100=
07070,1998-03-14 15:00:00,10,1030.7,-0.3,82,7,10000,14.816,,,330,,,,,,,,,,,wg-a,,,,AAXX 14154 07070 12560 73308 10100 20070 30195 40307 55003 60006 878// 91500=
07070,1998-03-14 18:00:00,9,1031.5,0.8,81,6,10000,14.816,,,340,5.4,10,,,,,,,,,wg-a,,,,AAXX 14184 07070 12560 83408 10090 20060 30203 40315 53008 60006 888// 91800 333 10100 20054=
07070,1998-03-14 21:00:00,9,1032.7,1.1,81,6,8000,11.112,,,340,,,,,,,,,,,wg-a,,,,AAXX 14214 07070 12658 83406 10090 20060 30214 40327 52011 60006 885// 92100=
07070,1998-03-15 00:00:00,8,1032.4,-0.3,87,6,8000,11.112,,,330,,,,,,,,,,,wg-a,,,,AAXX 15004 07070 12658 83306 10080 20060 30211 40324 58003 60006 885// 90000=
07070,1998-03-15 03:00:00,7,1032,-0.4,87,5,8000,7.408,,,330,,,,,,,,,,,wg-a,,,,AAXX 15034 07070 12658 73304 10070 20050 30207 40320 58004 60006 875// 90300=
07070,1998-03-15 06:00:00,7,1031.9,-0.1,93,6,3000,7.408,,,300,6.6,9.2,,,,,,,,10,wg-a,,,,AAXX 15064 07070 02630 83004 10070 20060 30206 40319 55001 60006 71022 885// 90600 333 10092 20066 61000=
07070,1998-03-15 09:00:00,8,1032.6,0.7,87,6,3000,14.816,,,300,,,,,,,,,,10,wg-a,,,,AAXX 15094 07070 12530 83008 10080 20060 30213 40326 52007 60006 71022 885// 90900=
07070,1998-03-15 12:00:00,9,1032.6,0,81,6,4000,14.816,,,310,,,,,,,,,,10,wg-a,,,,AAXX 15124 07070 12440 83108 10090 20060 30213 40326 50000 60006 71022 885// 91200=
07070,1998-03-15 15:00:00,10,1031.6,-0.9,82,7,500,14.816,,,310,,,,,,,,,,,wg-a,,,,AAXX 15154 07070 12500 83108 10100 20070 30204 40316 58009 60006 888// 91500=
07070,1998-03-15 18:00:00,9,1031.6,-0.1,81,6,3500,14.816,,,330,6.7,9.8,,,,,,,,10,wg-a,,,,AAXX 15184 07070 12535 83308 10090 20060 30203 40316 57001 60006 71022 885// 91800 333 10098 20067=
07070,1998-03-15 21:00:00,7,1032.1,0.5,93,6,6000,11.112,,,310,,,,,,,,,,,wg-a,,,,AAXX 15214 07070 12656 73106 10070 20060 30208 40321 51005 60006 875// 92100=
07070,1998-03-16 00:00:00,6,1031.8,-0.4,93,5,3500,7.408,,,300,,,,,,,,,,10,wg-a,,,,AAXX 16004 07070 12535 /3004 10060 20050 30204 40318 58004 60006 71011 86500 90000=
07070,1998-03-16 06:00:00,7,1031.3,0,100,7,1500,7.408,,,310,5.9,8.6,,,,,,,,10,wg-a,,,,AAXX 16064 07070 02415 83104 10070 20070 30200 40313 50000 60006 71022 885// 90600 333 10086 20059 60004=
07070,1998-03-16 09:00:00,8,1032.2,0.9,100,8,1700,7.408,,,320,,,,,,,,,,10,wg-a,,,,AAXX 16094 07070 02217 83204 10080 20080 30209 40322 51009 61000 71052 886// 90900 333 ////=
07070,1998-03-16 12:00:00,10,1031.9,-0.2,87,8,3800,11.112,,,340,,,,,,,,,,10,wg-a,,,,AAXX 16124 07070 02438 83406 10100 20080 30207 40319 56002 61000 71052 888// 91200 333 6100=
07070,1998-03-16 15:00:00,11,1030.9,-1,76,7,6000,14.816,,,310,,,,,,,,,,,wg-a,,,,AAXX 16154 07070 12/56 /3108 10110 20070 30197 40309 56010 60006 91500=
07070,1998-03-16 18:00:00,10,1030.8,-0.1,87,8,500,7.408,,,300,7.2,11.2,,,,,,,,,wg-a,,,,AAXX 16184 07070 12500 83004 10100 20080 30196 40308 55001 60006 888// 91800 333 10112 20072=
07070,1998-03-17 00:00:00,8,1031.3,-0.3,76,4,6000,7.408,,,290,,,,,,,,,,,wg-a,,,,AAXX 17004 07070 12656 72904 10080 20040 30200 40313 56003 60006 875// 90000=
07070,1998-03-17 03:00:00,7,1030.8,-0.5,81,4,6000,11.112,,,300,,,,,,,,,,,wg-a,,,,AAXX 17034 07070 12556 73006 10070 20040 30195 40308 58005 60006 875// 90300=
07070,1998-03-17 06:00:00,7,1031.3,0.5,81,4,6000,7.408,,,300,7.1,9.7,,,,,,,,,wg-a,,,,AAXX 17064 07070 02556 73004 10070 20040 30200 40313 53005 60006 875// 90600 333 10097 20071 61000=
07070,1998-03-17 09:00:00,8,1032.2,0.9,81,5,500,7.408,,,290,,,,,,,,,,,wg-a,,,,AAXX 17094 07070 12500 82904 10080 20050 30209 40322 52009 60006 885// 90900=
07070,1998-03-17 12:00:00,9,1032.3,0.1,76,5,500,11.112,,,320,,,,,,,,,,,wg-a,,,,AAXX 17124 07070 12500 83206 10090 20050 30210 40323 53001 60006 888// 91200=
07070,1998-03-17 15:00:00,10,1032.4,0.2,76,6,500,11.112,,,320,,,,,,,,,,,wg-a,,,,AAXX 17154 07070 12500 83206 10100 20060 30212 40324 53002 60006 888// 91500=
07070,1998-03-17 18:00:00,9,1032.9,0.4,81,6,4000,3.704,,,300,7.1,9.8,,,,,,,,10,wg-a,,,,AAXX 17184 07070 12540 83002 10090 20060 30216 40329 53004 60006 71022 885// 91800 333 10098 20071=
07070,1998-03-17 21:00:00,8,1033.7,0.8,87,6,4000,0,,,0,,,,,,,,,,10,wg-a,,,,AAXX 17214 07070 12540 80000 10080 20060 30224 40337 52008 60006 71022 885// 92100=
07070,1998-03-18 00:00:00,8,1034.3,0.6,87,6,4000,7.408,,,240,,,,,,,,,,10,wg-a,,,,AAXX 18004 07070 12540 82404 10080 20060 30230 40343 51006 60006 71022 885// 90000=
07070,1998-03-18 03:00:00,8,1034.4,0.1,87,6,3000,3.704,,,280,,,,,,,,,,10,wg-a,,,,AAXX 18034 07070 12530 82802 10080 20060 30231 40344 52001 60006 71022 885// 90300=
07070,1998-03-18 06:00:00,7,1035.4,0.9,93,6,2500,3.704,,,230,7.2,8.9,,,,,,,,10,wg-a,,,,AAXX 18064 07070 02525 82302 10070 20060 30240 40354 53009 60006 71022 885// 90600 333 10089 20072 60004=
07070,1998-03-18 09:00:00,8,1036.3,1,93,7,2800,3.704,,,290,,,,,,,,,,10,wg-a,,,,AAXX 18094 07070 12528 82902 10080 20070 30250 40363 51010 60006 71022 885// 90900=
07070,1998-03-18 12:00:00,11,1036.7,0.5,71,6,6000,7.408,,,310,,,,,,,,,,,wg-a,,,,AAXX 18124 07070 12656 73104 10110 20060 30255 40367 50005 60006 875// 91200=
07070,1998-03-18 15:00:00,12,1036.2,-0.5,62,5,8000,7.408,,,340,,,,,,,,,,,wg-a,,,,AAXX 18154 07070 12658 73404 10120 20050 30250 40362 56005 60006 878// 91500=
07070,1998-03-18 18:00:00,11,1036.5,0.3,71,6,7000,11.112,,,340,7.2,12.9,,,,,,,,,wg-a,,,,AAXX 18184 07070 12657 73406 10110 20060 30253 40365 53003 60006 875// 91800 333 10129 20072=
07070,1998-03-18 21:00:00,9,1037.6,1,81,6,10000,14.816,,,350,,,,,,,,,,,wg-a,,,,AAXX 18214 07070 12660 73508 10090 20060 30263 40376 53010 60006 875// 92100=
07070,1998-03-19 00:00:00,8,1038.2,0.5,87,6,8000,7.408,,,10,,,,,,,,,,,wg-a,,,,AAXX 19004 07070 12658 80104 10080 20060 30268 40382 53005 60006 8352/ 90000=
07070,1998-03-19 03:00:00,6,1038.4,0.1,93,5,7000,11.112,,,350,,,,,,,,,,,wg-a,,,,AAXX 19034 07070 12757 73506 10060 20050 30269 40384 53001 60006 8657/ 90300=
07070,1998-03-19 06:00:00,3,1039.7,1.2,93,2,700,3.704,,,60,2.4,10.7,,,,,,,,41,wg-a,,,,AAXX 19064 07070 02707 30602 10030 20020 30281 40397 53012 60006 74141 81571 90600 333 10107 20024 60004=
07070,1998-03-19 09:00:00,8,1041,1.5,81,5,6000,14.816,,,50,,,,,,,,,,1,wg-a,,,,AAXX 19094 07070 12/56 /0508 10080 20050 30296 40410 51015 60006 70140 80001 90900=
07070,1998-03-19 12:00:00,11,1041,0.1,47,0,20000,14.816,,,50,,,,,,,,,,1,wg-a,,,,AAXX 19124 07070 12670 /0508 10110 20000 30297 40410 50001 60006 70140 81100 91200=
07070,1998-03-19 15:00:00,12,1039.5,-1.4,40,-1,20000,18.52,,,30,,,,,,,,,,,wg-a,,,,AAXX 19154 07070 12770 10310 10120 21010 30283 40395 56014 60006 81400 91500=
07070,1998-03-19 18:00:00,8,1039.8,0.1,61,1,16000,11.112,,,10,2.4,12.2,,,,,,,,,wg-a,,,,AAXX 19184 07070 12766 10106 10080 20010 30284 40398 53001 60006 81400 91800 333 10122 20024=
07070,1998-03-19 21:00:00,3,1039.9,-0.1,87,1,12000,0,,,0,,,,,,,,,,,wg-a,,,,AAXX 19214 07070 12/62 30000 10030 20010 30283 40399 55001 60006 80001 92100=
07070,1998-03-20 00:00:00,2,1039.9,-0.1,87,0,12000,0,,,0,,,,,,,,,,,wg-a,,,,AAXX 20004 07070 12/62 00000 10020 20000 30282 40399 55001 60006 80000 90000=
07070,1998-03-20 03:00:00,0,1039.1,-0.8,93,-1,12000,3.704,,,340,,,,,,,,,,,wg-a,,,,AAXX 20034 07070 12/62 23402 10000 21010 30274 40391 56008 60006 80001 90300=
07070,1998-03-20 06:00:00,0,1039.1,0,93,-1,10000,7.408,,,300,-1.1,7.9,,,,,,,,,wg-a,,,,AAXX 20064 07070 02/60 13004 10000 21010 30274 40391 50000 60006 80001 90600 333 10079 21011 60004=
07070,1998-03-20 09:00:00,5,1039,0.1,75,1,10000,3.704,,,260,,,,,,,,,,,wg-a,,,,AAXX 20094 07070 12760 72602 10050 20010 30275 40390 50001 60006 875// 90900=
07070,1998-03-20 12:00:00,9,1037.7,-1.1,61,2,12000,11.112,,,300,,,,,,,,,,,wg-a,,,,AAXX 20124 07070 12762 73006 10090 20020 30264 40377 58011 60006 875// 91200=
07070,1998-03-20 15:00:00,10,1035.5,-2.2,62,3,10000,18.52,,,330,,,,,,,,,,3,wg-a,,,,AAXX 20154 07070 02660 73310 10100 20030 30242 40355 56022 61000 70362 875// 91500 333 ////=
07070,1998-03-20 18:00:00,9,1034.5,-1,81,6,4000,14.816,,,310,-1,10.3,,,,,,,,10,wg-a,,,,AAXX 20184 07070 12640 73108 10090 20060 30232 40345 56010 60006 71062 875// 91800 333 10103 21010=
07070,1998-03-20 21:00:00,8,1034.5,0,87,6,4000,18.52,,,330,,,,,,,,,,10,wg-a,,,,AAXX 20214 07070 02440 83310 10080 20060 30232 40345 50000 61000 71062 885// 92100 333 ////=
07070,1998-03-21 00:00:00,8,1033.5,-1,87,6,4000,25.928,,,330,,,,,,,,,,10,wg-a,,,,AAXX 21004 07070 02440 83314 10080 20060 30222 40335 58010 61000 71062 885// 90000 333 ////=
07070,1998-03-21 03:00:00,8,1032.5,-1,87,6,4000,22.224,,,350,,,,,,,,,,10,wg-a,,,,AAXX 21034 07070 12340 83512 10080 20060 30212 40325 56010 60006 71022 886// 90300=
07070,1998-03-21 06:00:00,7,1032.3,-0.2,93,6,500,18.52,,,350,7.1,9.1,,,,,,,,,wg-a,,,,AAXX 21064 07070 02300 83510 10070 20060 30210 40323 55002 60006 885// 90600 333 10091 20071 61000=
07070,1998-03-21 09:00:00,9,1032.8,0.5,76,5,10000,22.224,,,20,,,,,,,,,,20,wg-a,,,,AAXX 21094 07070 02460 70212 10090 20050 30215 40328 51005 61000 72052 872// 90900 333 ////=
07070,1998-03-21 12:00:00,11,1032.4,-0.3,50,1,12000,22.224,,,30,,,,,,,,,,3,wg-a,,,,AAXX 21124 07070 02562 /0312 10110 20010 30212 40324 58003 61000 70351 81801 91200 333 ////=
07070,1998-03-21 15:00:00,11,1031.4,-1,47,0,15000,18.52,,,20,,,,,,,,,,,wg-a,,,,AAXX 21154 07070 12665 /0210 10110 20000 30202 40314 56010 60006 81100 91500=
07070,1998-03-21 18:00:00,8,1032.2,0.7,61,1,12000,14.816,,,20,7.1,11.4,,,,,,,,,wg-a,,,,AAXX 21184 07070 12662 /0208 10080 20010 30209 40322 53007 60006 81401 91800 333 10114 20071=
07070,1998-03-21 21:00:00,2,1033.2,0.8,87,0,12000,0,,,0,,,,,,,,,,,wg-a,,,,AAXX 21214 07070 12/62 00000 10020 20000 30217 40332 51008 60006 80000 92100=
07070,1998-03-22 00:00:00,1,1033.6,0.3,86,-1,8000,3.704,,,50,,,,,,,,,,,wg-a,,,,AAXX 22004 07070 12/58 00502 10010 21010 30220 40336 53003 60006 80000 90000=
07070,1998-03-22 03:00:00,-2,1033.2,-0.5,100,-2,8000,3.704,,,40,,,,,,,,,,,wg-a,,,,AAXX 22034 07070 12/58 00402 11020 21020 30215 40332 56005 60006 80000 90300=
07070,1998-03-22 06:00:00,-1,1033.7,0.5,100,-1,500,3.704,,,270,-2.6,8,,,,,,,,,wg-a,,,,AAXX 22064 07070 02700 72702 11010 21010 30220 40337 53005 60006 875// 90600 333 10080 21026 61000=
07070,1998-03-22 09:00:00,6,1034.4,1,75,2,8000,11.112,,,50,,,,,,,,,,,wg-a,,,,AAXX 22094 07070 12758 20506 10060 20020 30230 40344 53010 60006 82500 90900=
07070,1998-03-22 12:00:00,10,1033.2,-1,46,-1,15000,18.52,,,40,,,,,,,,,,,wg-a,,,,AAXX 22124 07070 12765 10410 10100 21010 30220 40332 58010 60006 81500 91200=
07070,1998-03-22 15:00:00,11,1031.8,-1.4,54,2,15000,22.224,,,20,,,,,,,,,,,wg-a,,,,AAXX 22154 07070 12765 30212 10110 20020 30206 40318 56014 60006 83100 91500=
07070,1998-03-22 18:00:00,9,1032.1,0.2,66,3,25000,18.52,,,30,-0.8,11.7,,,,,,,,,wg-a,,,,AAXX 22184 07070 12675 70310 10090 20030 30208 40321 53002 60006 875// 91800 333 10117 21008=
07070,1998-03-22 21:00:00,8,1031.8,-0.3,81,5,8000,11.112,,,10,,,,,,,,,,,wg-a,,,,AAXX 22214 07070 12558 80106 10080 20050 30205 40318 58003 60006 885// 92100=
07070,1998-03-23 00:00:00,7,1030.7,-1.1,81,4,10000,18.52,,,350,,,,,,,,,,,wg-a,,,,AAXX 23004 07070 12660 83510 10070 20040 30194 40307 58011 60006 885// 90000=
07070,1998-03-23 03:00:00,6,1029.3,-1.4,87,4,8000,18.52,,,340,,,,,,,,,,,wg-a,,,,AAXX 23034 07070 12758 83410 10060 20040 30180 40293 58014 60006 885// 90300=
07070,1998-03-23 06:00:00,6,1028.3,-1,87,4,4500,18.52,,,340,5.8,9.1,,,,,,,,10,wg-a,,,,AAXX 23064 07070 02345 83410 10060 20040 30170 40283 56010 60006 71022 885// 90600 333 10091 20058 60004=
07070,1998-03-23 09:00:00,7,1027.6,-0.7,87,5,6000,18.52,,,340,,,,,,,,,,,wg-a,,,,AAXX 23094 07070 12/56 /3410 10070 20050 30163 40276 58007 60006 90900=
07070,1998-03-23 12:00:00,9,1026.2,-1.3,76,5,11000,18.52,,,340,,,,,,,,,,,wg-a,,,,AAXX 23124 07070 02/61 /3410 10090 20050 30150 40262 58013 61000 91200 333 ////=
07070,1998-03-23 15:00:00,8,1024.9,-1.3,76,4,12000,22.224,,,360,,,,,,,,,,1,wg-a,,,,AAXX 23154 07070 02462 73612 10080 20040 30137 40249 57013 61000 70162 878// 91500 333 ////=
07070,1998-03-23 18:00:00,5,1026.8,1.7,70,0,12000,18.52,,,20,4.5,9.2,,0,,,,,,1,wg-a,,,,AAXX 23184 07070 02562 /0210 10050 20000 30154 40268 53017 60006 70162 85800 91800 333 10092 20045 60007=
07070,1998-03-23 21:00:00,1,1029.3,2.3,86,-1,12000,18.52,,,60,,,,,,,,,,,wg-a,,,,AAXX 23214 07070 12/62 00610 10010 21010 30177 40293 51023 60006 80000 92100=
07070,1998-03-24 00:00:00,-2,1029.8,0.4,93,-3,10000,14.816,,,30,,,,,,,,,,,wg-a,,,,AAXX 24004 07070 12/60 00308 11020 21030 30181 40298 51004 60006 80000 90000=
07070,1998-03-24 03:00:00,-2,1030.3,0.5,86,-4,10000,14.816,,,30,,,,,,,,,,,wg-a,,,,AAXX 24034 07070 12/60 00308 11020 21040 30186 40303 51005 60006 80000 90300=
07070,1998-03-24 06:00:00,-4,1031.6,1.2,93,-5,8000,3.704,,,40,-3.8,4.5,,,,,,,,,wg-a,,,,AAXX 24064 07070 02/58 30402 11040 21050 30198 40316 53012 60006 80001 90600 333 10045 21038 60004=
07070,1998-03-24 09:00:00,3,1032.4,1.1,65,-3,8000,22.224,,,90,,,,,,,,,,,wg-a,,,,AAXX 24094 07070 12/58 20912 10030 21030 30209 40324 53011 60006 80001 90900=
07070,1998-03-24 12:00:00,7,1032.1,-0.2,49,-3,10000,14.816,,,80,,,,,,,,,,,wg-a,,,,AAXX 24124 07070 12/60 40808 10070 21030 30207 40321 57002 60006 80001 91200=
07070,1998-03-24 15:00:00,9,1031.7,-0.3,40,-4,12000,7.408,,,60,,,,,,,,,,,wg-a,,,,AAXX 24154 07070 12/62 40604 10090 21040 30204 40317 58003 60006 80001 91500=
07070,1998-03-24 18:00:00,6,1032.2,0.4,56,-2,10000,3.704,,,70,-3.4,9.4,,,,,,,,,wg-a,,,,AAXX 24184 07070 12/60 20702 10060 21020 30208 40322 53004 60006 80001 91800 333 10094 21034=
07070,1998-03-24 21:00:00,0,1033.1,0.7,74,-4,10000,3.704,,,200,,,,,,,,,,,wg-a,,,,AAXX 24214 07070 12/60 42002 10000 21040 30215 40331 51007 60006 80001 92100=
07070,1998-03-25 00:00:00,-2,1033.6,0.3,80,-5,10000,0,,,0,,,,,,,,,,,wg-a,,,,AAXX 25004 07070 12/60 00000 11020 21050 30218 40336 51003 60006 80000 90000=
07070,1998-03-25 06:00:00,-4,1032.9,-0.2,86,-6,8000,0,,,0,-4.7,6.2,,,,,,,,,wg-a,,,,AAXX 25064 07070 02858 50000 11040 21060 30211 40329 57002 60006 84081 90600 333 10062 21047 60004=
07070,1998-03-25 09:00:00,6,1032.7,0.2,52,-3,8000,3.704,,,100,,,,,,,,,,,wg-a,,,,AAXX 25094 07070 12/58 /1002 10060 21030 30213 40327 51002 60006 80002 90900=
07070,1998-03-25 12:00:00,10,1030.8,-1.7,37,-4,15000,11.112,,,180,,,,,,,,,,,wg-a,,,,AAXX 25124 07070 12/65 71806 10100 21040 30196 40308 58017 60006 80002 91200=
07070,1998-03-25 15:00:00,10,1028.5,-2.3,34,-5,15000,11.112,,,170,,,,,,,,,,,wg-a,,,,AAXX 25154 07070 12/65 71706 10100 21050 30173 40285 58023 60006 81032 91500=
07070,1998-03-25 18:00:00,7,1027.3,-1.3,53,-2,15000,7.408,,,150,-4.1,10.4,,,,,,,,,wg-a,,,,AAXX 25184 07070 12/65 71504 10070 21020 30160 40273 56013 60006 8707/ 91800 333 10104 21041=
07070,1998-03-25 21:00:00,0,1026.7,-0.9,74,-4,12000,11.112,,,160,,,,,,,,,,,wg-a,,,,AAXX 25214 07070 12/62 71606 10000 21040 30151 40267 58009 60006 85072 92100=
07070,1998-03-26 00:00:00,3,1025.2,-1.4,52,-6,12000,14.816,,,170,,,,,,,,,,,wg-a,,,,AAXX 26004 07070 12/62 51708 10030 21060 30137 40252 58014 60006 81031 90000=
07070,1998-03-26 03:00:00,0,1023.8,-1.4,59,-7,10000,7.408,,,180,,,,,,,,,,,wg-a,,,,AAXX 26034 07070 12/60 51804 10000 21070 30123 40238 58014 60006 80001 90300=
07070,1998-03-26 06:00:00,-1,1023.3,-0.6,74,-5,12000,7.408,,,210,-1.3,6.4,,,,,,,,,wg-a,,,,AAXX 26064 07070 02/62 42104 11010 21050 30117 40233 57006 60006 82031 90600 333 10064 21013 60004=
07070,1998-03-26 09:00:00,7,1022.5,-0.4,53,-2,10000,11.112,,,190,,,,,,,,,,,wg-a,,,,AAXX 26094 07070 12/60 61906 10070 21020 30113 40225 58004 60006 85031 90900=
07070,1998-03-26 12:00:00,12,1021,-1.3,35,-3,12000,22.224,,,240,,,,,,,,,,,wg-a,,,,AAXX 26124 07070 12/62 72412 10120 21030 30100 40210 58013 60006 8703/ 91200=
07070,1998-03-26 15:00:00,11,1019.3,-1.7,54,2,10000,18.52,,,230,,,,,,,,,,61,wg-a,,,,AAXX 26154 07070 02/60 82310 10110 20020 30083 40193 56017 61000 76162 8807/ 91500 333 ////=
07070,1998-03-26 18:00:00,8,1019.4,-0.1,81,5,500,14.816,,,210,-0.8,12.6,,,,,,,,,wg-a,,,,AAXX 26184 07070 12/00 /2108 10080 20050 30082 40194 58001 60006 91800 333 10126 21008=
07070,1998-03-26 21:00:00,8,1019.4,0,81,5,500,22.224,,,230,,,,,,,,,,1,wg-a,,,,AAXX 26214 07070 02500 82312 10080 20050 30082 40194 50000 61000 70162 875// 92100 333 ////=
07070,1998-03-27 00:00:00,8,1019.1,-0.3,81,5,6000,18.52,,,230,,,,,,,,,,3,wg-a,,,,AAXX 27004 07070 02456 82310 10080 20050 30079 40191 57003 61000 70362 885// 90000 333 ////=
07070,1998-03-27 03:00:00,7,1018.4,-0.7,93,6,4500,18.52,,,230,,,,,,,,,,10,wg-a,,,,AAXX 27034 07070 12345 82310 10070 20060 30072 40184 56007 60006 71022 886// 90300=
07070,1998-03-27 06:00:00,7,1018.7,0.3,100,7,600,11.112,,,210,7.1,8,,,,,,,,50,wg-a,,,,AAXX 27064 07070 02306 82106 10070 20070 30075 40187 53003 61000 75054 885// 90600 333 10080 20071 6001=
07070,1998-03-27 09:00:00,8,1020.3,1.7,100,8,1000,14.816,,,230,,,,0,,,,,,10,wg-a,,,,AAXX 27094 07070 12210 82308 10080 20080 30092 40203 53017 60007 71065 885// 90900=
07070,1998-03-27 12:00:00,11,1020.4,0.2,87,9,4500,11.112,,,220,,,,1,,,,,,10,wg-a,,,,AAXX 27124 07070 02345 72206 10110 20090 30094 40204 51002 60016 71065 875// 91200 333 60017=
07070,1998-03-27 15:00:00,13,1020,-0.4,88,11,6000,7.408,,,270,,,,,,,,,,,wg-a,,,,AAXX 27154 07070 12456 72704 10130 20110 30090 40200 56004 60006 878// 91500=
07070,1998-03-27 18:00:00,12,1020.2,0.2,88,10,500,3.704,,,230,7.2,12.7,,,,,,,,,wg-a,,,,AAXX 27184 07070 12400 72302 10120 20100 30092 40202 53002 60006 875// 91800 333 10127 20072=
07070,1998-03-27 21:00:00,10,1020.4,0.1,100,10,3500,7.408,,,160,,,,,,,,,,10,wg-a,,,,AAXX 27214 07070 12435 71604 10100 20100 30093 40204 50001 60006 71022 875// 92100=
07070,1998-03-28 00:00:00,7,1019.4,-1.1,93,6,1500,0,,,0,,,,,,,,,,10,wg-a,,,,AAXX 28004 07070 12415 30000 10070 20060 30082 40194 58011 60006 71011 82570 90000=
07070,1998-03-28 03:00:00,5,1019.1,-0.4,93,4,4000,7.408,,,150,,,,,,,,,,10,wg-a,,,,AAXX 28034 07070 12/40 01504 10050 20040 30078 40191 55004 60006 71000 80000 90300=
07070,1998-03-28 06:00:00,5,1018.4,-0.7,93,4,3000,7.408,,,90,3.6,11.8,,,,,1,,,10,wg-a,,,,AAXX 28064 07070 02/30 /0904 10050 20040 30071 40184 55007 60006 71011 80001 90600 333 10118 20036 60014=
07070,1998-03-28 09:00:00,11,1017.8,-0.3,87,9,500,18.52,,,120,,,,,,,,,,,wg-a,,,,AAXX 28094 07070 12/00 71210 10110 20090 30068 40178 58003 60006 81032 90900=
07070,1998-03-28 12:00:00,16,1016.3,-1.3,72,11,7000,18.52,,,120,,,,,,,,,,,wg-a,,,,AAXX 28124 07070 12/57 71210 10160 20110 30055 40163 58013 60006 81038 91200=
07070,1998-03-28 15:00:00,18,1014.2,-2,64,11,10000,18.52,,,160,,,,,,,,,,,wg-a,,,,AAXX 28154 07070 12/60 71610 10180 20110 30035 40142 56020 60006 83031 91500=
07070,1998-03-28 18:00:00,15,1013.2,-1.1,77,11,10000,11.112,,,140,4.4,18.3,,,,,,,,,wg-a,,,,AAXX 28184 07070 12/60 71406 10150 20110 30024 40132 56011 60006 85032 91800 333 10183 20044=
07070,1998-03-28 21:00:00,13,1012.8,-0.5,77,9,10000,14.816,,,150,,,,,,,,,,,wg-a,,,,AAXX 28214 07070 12/60 71508 10130 20090 30019 40128 58005 60006 83032 92100=
07070,1998-03-29 00:00:00,11,1012.5,-0.4,82,8,10000,7.408,,,130,,,,,,,,,,,wg-a,,,,AAXX 29004 07070 12/60 71304 10110 20080 30015 40125 58004 60006 85032 90000=
07070,1998-03-29 03:00:00,9,1011.3,-1.2,93,8,10000,11.112,,,90,,,,,,,,,,,wg-a,,,,AAXX 29034 07070 12/60 70906 10090 20080 30003 40113 57012 60006 85032 90300=
07070,1998-03-29 06:00:00,10,1010.9,-0.4,76,6,8000,7.408,,,210,9,15,,,,,,,,,wg-a,,,,AAXX 29064 07070 02/58 /2104 10100 20060 39999 40109 55004 60006 90600 333 10150 20090 60004=
07070,1998-03-29 09:00:00,15,1010.8,0.1,67,9,7000,14.816,,,150,,,,,,,,,,,wg-a,,,,AAXX 29094 07070 12/57 51508 10150 20090 30000 40108 53001 60006 82032 90900=
07070,1998-03-29 12:00:00,19,1009.4,-1.2,52,9,8000,22.224,,,150,,,,,,,,,,,wg-a,,,,AAXX 29124 07070 12/58 71512 10190 20090 39988 40094 57012 60006 83031 91200=
07070,1998-03-29 15:00:00,20,1007.8,-1.6,53,10,12000,14.816,,,150,,,,,,,,,,,wg-a,,,,AAXX 29154 07070 12/62 71508 10200 20100 39972 40078 56016 60006 82032 91500=
07070,1998-03-29 18:00:00,14,1007.9,-0.1,77,10,12000,7.408,,,120,9.7,20.7,,,,,,,,,wg-a,,,,AAXX 29184 07070 12/62 71204 10140 20100 39971 40079 56001 60006 84072 91800 333 10207 20097=
07070,1998-03-29 21:00:00,14,1008.3,0.4,63,7,10000,7.408,,,160,,,,,,,,,,,wg-a,,,,AAXX 29214 07070 12/60 61604 10140 20070 39975 40083 51004 60006 80001 92100=
07070,1998-03-30 00:00:00,12,1009,0.6,71,7,10000,14.816,,,190,,,,,,,,,,,wg-a,,,,AAXX 30004 07070 12/60 71908 10120 20070 39981 40090 53006 60006 81032 90000=
07070,1998-03-30 15:00:00,20,1015,0.3,60,12,10000,14.816,,,260,,,,,,,,,,,wg-a,,,,AAXX 30154 07070 12660 72608 10200 20120 30043 40150 51003 60006 82202 91500=
07070,1998-03-30 18:00:00,17,1016.2,1.1,72,12,10000,11.112,,,260,8,19.7,,,,,,,,,wg-a,,,,AAXX 30184 07070 12660 72606 10170 20120 30054 40162 53011 60006 83402 91800 333 10197 20080=
07070,1998-03-30 21:00:00,13,1017.6,1.3,88,11,10000,3.704,,,260,,,,,,,,,,,wg-a,,,,AAXX 30214 07070 12/60 62602 10130 20110 30067 40176 51013 60006 81031 92100=
07070,1998-03-31 00:00:00,8,1018.4,0.6,93,7,8000,0,,,0,,,,,,,,,,,wg-a,,,,AAXX 31004 07070 12/58 30000 10080 20070 30073 40184 52006 60006 80001 90000=
07070,1998-03-31 03:00:00,8,1018,-0.4,100,8,6000,3.704,,,200,,,,,,,,,,,wg-a,,,,AAXX 31034 07070 12456 72002 10080 20080 30069 40180 58004 60006 875// 90300=
07070,1998-03-31 06:00:00,9,1017.9,-0.1,100,9,2400,7.408,,,170,7.4,16.9,,,,,,,,10,wg-a,,,,AAXX 31064 07070 02424 71704 10090 20090 30068 40179 55001 60006 71011 875// 90600 333 10169 20074 60004=
07070,1998-03-31 09:00:00,14,1017.7,0,88,12,3500,7.408,,,180,,,,,,,,,,10,wg-a,,,,AAXX 31094 07070 12/35 71804 10140 20120 30068 40177 50000 60006 71022 81032 90900=
07070,1998-03-31 12:00:00,18,1015.8,-1.7,68,12,8000,11.112,,,140,,,,,,,,,,,wg-a,,,,AAXX 31124 07070 12558 /1406 10180 20120 30051 40158 58017 60006 81101 91200=
07070,1998-03-31 18:00:00,15,1013.1,-0.8,77,11,10000,7.408,,,130,9.3,19.9,,,,,,,,,wg-a,,,,AAXX 31184 07070 12760 11304 10150 20110 30023 40131 56008 60006 81401 91800 333 10199 20093=
07070,1998-03-31 21:00:00,11,1012.8,-0.5,87,9,10000,14.816,,,110,,,,,,,,,,,wg-a,,,,AAXX 31214 07070 12/60 01108 10110 20090 30018 40128 58005 60006 80000 92100=
07070,1998-04-01 00:00:00,11,1012.2,-0.5,94,10,10000,11.112,,,170,,,,,,,,,,,wg-a,,,,AAXX 01004 07070 12/60 /1706 10110 20100 30013 40122 58005 60006 90000=
07070,1998-04-01 03:00:00,13,1011.7,-0.5,77,9,10000,14.816,,,210,,,,,,,,,,,wg-a,,,,AAXX 01034 07070 12/60 72108 10130 20090 30008 40117 57005 60006 85032 90300=
07070,1998-04-01 06:00:00,11,1012,0.3,94,10,15000,11.112,,,180,9.9,14.6,,,,,,,,21,wg-a,,,,AAXX 01064 07070 02765 71806 10110 20100 30011 40120 51003 61000 72162 8357/ 90600 333 10146 20099 6100=
07070,1998-04-01 09:00:00,14,1012.2,0.3,82,11,10000,11.112,,,200,,,,,,,,,,1,wg-a,,,,AAXX 01094 07070 02560 /2006 10140 20110 30014 40122 50003 61000 70162 8483/ 90900 333 ////=
07070,1998-04-01 12:00:00,15,1012.3,0.1,77,11,6000,18.52,,,230,,,,,,,,,,1,wg-a,,,,AAXX 01124 07070 02556 72310 10150 20110 30015 40123 50001 61000 70162 878// 91200 333 ////=
07070,1998-04-01 15:00:00,13,1012.2,-0.2,82,10,500,25.928,,,230,,,,,,,,,,,wg-a,,,,AAXX 01154 07070 12400 82314 10130 20100 30013 40122 57002 60006 872// 91500=
07070,1998-04-01 18:00:00,14,1011.7,-0.4,72,9,6000,3.704,,,240,11.3,15.5,,,,,,,,,wg-a,,,,AAXX 01184 07070 12556 72402 10140 20090 30009 40117 55004 60006 81402 91800 333 10155 20113=
07070,1998-04-01 21:00:00,10,1011.8,-0.1,82,7,10000,7.408,,,180,,,,,,,,,,,wg-a,,,,AAXX 01214 07070 12/60 71804 10100 20070 30008 40118 58001 60006 83031 92100=
07070,1998-04-02 00:00:00,11,1010.6,-1.1,87,9,10000,11.112,,,210,,,,1,,,,,,1,wg-a,,,,AAXX 02004 07070 02660 72106 10110 20090 39997 40106 58011 60016 70186 875// 90000 333 60017=
07070,1998-04-02 03:00:00,11,1008.9,-1.7,94,10,12000,14.816,,,230,,,,,,,,,,,wg-a,,,,AAXX 02034 07070 12762 52308 10110 20100 39980 40089 58017 60006 81531 90300=
07070,1998-04-02 06:00:00,11,1008.6,-0.3,94,10,500,11.112,,,220,9.1,14,,,,,1,,,,wg-a,,,,AAXX 02064 07070 02400 82206 10110 20100 39977 40086 56003 60006 877// 90600 333 10140 20091 60014=
07070,1998-04-02 09:00:00,13,1007,-1.5,88,11,7000,11.112,,,180,,,,,,,,,,,wg-a,,,,AAXX 02094 07070 12457 71806 10130 20110 39962 40070 58015 60006 872// 90900=
07070,1998-04-02 12:00:00,13,1004.6,-2.4,88,11,3000,14.816,,,200,,,,1,,,,,,63,wg-a,,,,AAXX 02124 07070 02430 82008 10130 20110 39938 40046 56024 60016 76362 888// 91200 333 60017=
07070,1998-04-02 15:00:00,13,1002.2,-2.4,82,10,16000,22.224,,,220,,,,1,,,,,,21,wg-a,,,,AAXX 02154 07070 12466 72212 10130 20100 39914 40022 58024 60017 72162 873// 91500=
07070,1998-04-02 18:00:00,12,1001.4,-0.8,76,8,20000,11.112,,,230,11.2,14.6,,,,,,,,25,wg-a,,,,AAXX 02184 07070 02470 72306 10120 20080 39906 40014 55008 61000 72586 879// 91800 333 10146 20112 6100=
07070,1998-04-02 21:00:00,11,1000.8,-0.6,87,9,15000,14.816,,,180,,,,,,,,,,,wg-a,,,,AAXX 02214 07070 12765 71808 10110 20090 39900 40008 58006 60006 835/2 92100=
07070,1998-04-03 00:00:00,11,999.3,-1.5,94,10,10000,22.224,,,180,,,,2,,,,,,61,wg-a,,,,AAXX 03004 07070 02760 81812 10110 20100 39885 49993 58015 60026 76162 875// 90000 333 60027=
07070,1998-04-03 03:00:00,11,996.6,-2.7,100,11,6000,18.52,,,190,,,,2,,,,,,50,wg-a,,,,AAXX 03034 07070 12456 81910 10110 20110 39858 49966 56027 60027 75065 885// 90300=
07070,1998-04-03 06:00:00,13,996.2,-0.3,88,11,10000,22.224,,,210,10.1,12.8,,,,,,,,60,wg-a,,,,AAXX 03064 07070 02560 82112 10130 20110 39855 49962 55003 61000 76065 8482/ 90600 333 10128 20101 6006=
07070,1998-04-03 09:00:00,12,996.5,0.3,94,11,6000,22.224,,,200,,,,1,,,,,,61,wg-a,,,,AAXX 03094 07070 12456 82012 10120 20110 39858 49965 50003 60017 76166 875// 90900=
07070,1998-04-03 12:00:00,12,997.5,0.9,82,9,12000,38.892,,55.56,230,,,,0,,,,,,61,wg-a,,,,AAXX 03124 07070 02462 82321 10120 20090 39867 49975 51009 60016 76166 8552/ 91200 333 60007 91030=
07070,1998-04-03 15:00:00,11,996.5,-1,87,9,12000,18.52,,,220,,,,1,,,,,,61,wg-a,,,,AAXX 03154 07070 12462 82210 10110 20090 39857 49965 58010 60017 76166 8152/ 91500=
07070,1998-04-03 18:00:00,10,995.2,-1.3,87,8,12000,18.52,,,210,10.2,12.8,,,,,,,,61,wg-a,,,,AAXX 03184 07070 02462 82110 10100 20080 39844 49952 56013 61000 76166 8352/ 91800 333 10128 20102 6001=
07070,1998-04-03 21:00:00,8,996.4,1.1,93,7,7000,25.928,,,200,,,,2,,,,,,63,wg-a,,,,AAXX 03214 07070 12457 82014 10080 20070 39855 49964 51011 60027 76366 8652/ 92100=
07070,1998-04-04 00:00:00,8,996.8,0.4,87,6,20000,18.52,,,200,,,,0,,,,,,21,wg-a,,,,AAXX 04004 07070 02470 82010 10080 20060 39859 49968 53004 60026 72162 8552/ 90000 333 60007=
07070,1998-04-04 03:00:00,8,996.1,-0.7,87,6,20000,22.224,,,200,,,,,,,,,,,wg-a,,,,AAXX 04034 07070 12470 82012 10080 20060 39852 49961 57007 60006 875// 90300=
07070,1998-04-04 06:00:00,8,996.7,0.6,81,5,15000,29.632,,,180,7.4,10.2,,,,,5,,,,wg-a,,,,AAXX 04064 07070 02465 71816 10080 20050 39858 49967 51006 60006 875// 90600 333 10102 20074 60054=
07070,1998-04-04 09:00:00,10,997.2,0.6,82,7,11000,31.484,,50.004,200,,,,,,,,,,,wg-a,,,,AAXX 04094 07070 12/61 /2017 10100 20070 39864 49972 51006 60006 90900 333 91027=
07070,1998-04-04 12:00:00,12,998.1,0.9,76,8,15000,31.484,,61.116,210,,,,,,,,,,,wg-a,,,,AAXX 04124 07070 12565 72117 10120 20080 39873 49981 53009 60006 878// 91200 333 91033=
07070,1998-04-04 15:00:00,14,998.2,0.2,67,8,20000,35.188,,57.412,220,,,,,,,,,,,wg-a,,,,AAXX 04154 07070 12670 /2219 10140 20080 39875 49982 51002 60006 86800 91500 333 91031=
07070,1998-04-04 18:00:00,10,1000.3,1.9,87,8,15000,29.632,,48.152,220,7.5,14.8,,,,,,,,60,wg-a,,,,AAXX 04184 07070 02565 82216 10100 20080 39894 40003 52019 61000 76086 878// 91800 333 10148 20075 6001 91026=
07070,1998-04-04 21:00:00,10,1001.3,1,82,7,20000,18.52,,,200,,,,0,,,,,,3,wg-a,,,,AAXX 04214 07070 12570 72010 10100 20070 39904 40013 51010 60007 70362 86802 92100=
07070,1998-04-05 00:00:00,9,1001.7,0.4,81,6,20000,25.928,,,210,,,,,,,,,,60,wg-a,,,,AAXX 05004 07070 02570 82114 10090 20060 39908 40017 53004 60006 76062 875// 90000 333 61000=
07070,1998-04-05 03:00:00,8,1002.1,0.3,87,6,20000,22.224,,,210,,,,,,,,,,3,wg-a,,,,AAXX 05034 07070 02570 72112 10080 20060 39911 40021 52003 61000 70362 875// 90300 333 ////=
07070,1998-04-05 06:00:00,7,1001.9,-0.2,93,6,10000,11.112,,,180,7,9.8,,,,,,,,61,wg-a,,,,AAXX 05064 07070 02460 71806 10070 20060 39909 40019 58002 61000 76186 878// 90600 333 10098 20070 6003=
07070,1998-04-05 09:00:00,8,1002.4,0.5,87,6,7000,25.928,,,220,,,,1,,,,,,61,wg-a,,,,AAXX 05094 07070 12457 82214 10080 20060 39914 40024 53005 60017 76162 878// 90900=
07070,1998-04-05 12:00:00,10,1003,0.7,87,8,20000,29.632,,,220,,,,1,,,,,,25,wg-a,,,,AAXX 05124 07070 02470 72216 10100 20080 39921 40030 53007 60026 72586 8627/ 91200 333 60017=
07070,1998-04-05 15:00:00,12,1003.2,0.3,76,8,25000,14.816,,,210,,,,0,,,,,,25,wg-a,,,,AAXX 05154 07070 12575 72108 10120 20080 39924 40032 50003 60007 72586 85902 91500=
07070,1998-04-05 18:00:00,10,1004.4,1.1,82,7,25000,22.224,,,220,7.1,12.5,,2,,,,,,1,wg-a,,,,AAXX 05184 07070 12675 12212 10100 20070 39935 40044 51011 60027 70187 81900 91800 333 10125 20071=
07070,1998-04-05 21:00:00,10,1005.6,1.2,82,7,15000,18.52,,,210,,,,,,,,,,,wg-a,,,,AAXX 05214 07070 12765 52110 10100 20070 39947 40056 51012 60006 85500 92100=
07070,1998-04-06 00:00:00,10,1006.1,0.5,82,7,8000,29.632,,,240,,,,,,,,,,60,wg-a,,,,AAXX 06004 07070 02658 82416 10100 20070 39952 40061 51005 61000 76061 885// 90000 333 6100=
07070,1998-04-06 03:00:00,9,1005.9,-0.3,81,6,8000,29.632,,,230,,,,,,,,,,2,wg-a,,,,AAXX 06034 07070 02558 /2316 10090 20060 39949 40059 57003 61000 70262 85800 90300 333 ////=
07070,1998-04-06 06:00:00,8,1006.9,1,87,6,11000,22.224,,,230,7.9,10.2,,,,,4,,,,wg-a,,,,AAXX 06064 07070 02/61 /2312 10080 20060 39959 40069 52010 60006 90600 333 10102 20079 60044=
07070,1998-04-06 09:00:00,10,1007.5,0.7,76,6,20000,29.632,,,230,,,,,,,,,,,wg-a,,,,AAXX 06094 07070 12570 72316 10100 20060 39966 40075 51007 60006 878// 90900=
07070,1998-04-06 12:00:00,12,1006,-1.5,82,9,20000,25.928,,,210,,,,1,,,,,,25,wg-a,,,,AAXX 06124 07070 02570 72114 10120 20090 39951 40060 58015 60016 72586 879// 91200 333 60017=
07070,1998-04-06 15:00:00,9,1005.2,-0.8,87,7,10000,14.816,,,270,,,,2,,,,,,1,wg-a,,,,AAXX 06154 07070 12560 72708 10090 20070 39943 40052 58008 60027 70186 86808 91500=
07070,1998-04-06 18:00:00,9,1004.5,-0.8,87,7,25000,14.816,,,210,8.3,12.2,,0,,,,,,1,wg-a,,,,AAXX 06184 07070 02475 72108 10090 20070 39935 40045 56008 60006 70186 8587/ 91800 333 10122 20083 60007=
07070,1998-04-06 21:00:00,6,1004.8,0.2,93,5,25000,7.408,,,200,,,,,,,,,,,wg-a,,,,AAXX 06214 07070 12475 32004 10060 20050 39937 40048 50002 60006 83870 92100=
07070,1998-04-07 00:00:00,6,1003.5,-1.2,100,6,25000,7.408,,,170,,,,,,,,,,,wg-a,,,,AAXX 07004 07070 12475 71704 10060 20060 39925 40035 58012 60006 8453/ 90000=
07070,1998-04-07 03:00:00,7,1001.2,-2.3,93,6,15000,14.816,,,160,,,,,,,,,,,wg-a,,,,AAXX 07034 07070 12565 81608 10070 20060 39902 40012 58023 60006 8557/ 90300=
07070,1998-04-07 06:00:00,6,998.5,-2.7,100,6,500,18.52,,,100,4.9,8.6,,,,,,,,61,wg-a,,,,AAXX 07064 07070 02500 81010 10060 20060 39875 49985 56027 61000 76162 8587/ 90600 333 10086 20049 6004=
07070,1998-04-07 12:00:00,8,991.6,-3.3,100,8,6000,14.816,,,180,,,,5,,,,,,60,wg-a,,,,AAXX 07124 07070 02456 81808 10080 20080 39808 49916 58033 60116 76066 885// 91200 333 60057=
07070,1998-04-07 15:00:00,6,998.6,6.8,87,4,6000,35.188,,,290,,,,7,,,,,,63,wg-a,,,,AAXX 07154 07070 12456 82919 10060 20040 39876 49986 53068 60077 76366 885// 91500=
07070,1998-04-07 18:00:00,8,1002,3.4,87,6,16000,18.52,,,260,3.6,8.5,,0,,,,,,1,wg-a,,,,AAXX 07184 07070 02466 72610 10080 20060 39910 40020 51034 60006 70165 86902 91800 333 10085 20036 60007=
07070,1998-04-07 21:00:00,6,1004,2,93,5,15000,14.816,,,240,,,,0,,,,,,3,wg-a,,,,AAXX 07214 07070 12565 72408 10060 20050 39930 40040 51020 60007 70386 878// 92100=
07070,1998-04-08 00:00:00,6,1005,0.9,93,5,15000,14.816,,,230,,,,,,,,,,3,wg-a,,,,AAXX 08004 07070 12565 /2308 10060 20050 39939 40050 51009 60016 70386 86800 90000=
07070,1998-04-08 03:00:00,4,1005,0,100,4,15000,11.112,,,230,,,,,,,,,,,wg-a,,,,AAXX 08034 07070 12/65 12306 10040 20040 39939 40050 50000 60006 81031 90300=
07070,1998-04-08 06:00:00,4,1005,-0,100,4,4000,11.112,,,230,2.3,7.9,,,,,19,,,10,wg-a,,,,AAXX 08064 07070 02840 72306 10040 20040 39939 40050 55000 60006 71011 86502 90600 333 10079 20023 60194=
07070,1998-04-08 09:00:00,8,1005.5,0.6,87,6,6000,18.52,,,260,,,,,,,,,,,wg-a,,,,AAXX 08094 07070 12456 72610 10080 20060 39945 40055 51006 60006 875// 90900=
07070,1998-04-08 12:00:00,9,1005.2,-0.3,81,6,15000,22.224,,,240,,,,,,,,,,,wg-a,,,,AAXX 08124 07070 12465 72412 10090 20060 39942 40052 58003 60006 872// 91200=
07070,1998-04-08 15:00:00,12,1002.7,-2.3,62,5,12000,22.224,,,240,,,,,,,,,,15,wg-a,,,,AAXX 08154 07070 12562 72412 10120 20050 39919 40027 56023 60006 71511 879// 91500=
07070,1998-04-08 18:00:00,9,1001.5,-1.3,87,7,7000,14.816,,,180,4.3,12.2,,1,,,,,,15,wg-a,,,,AAXX 08184 07070 02557 71808 10090 20070 39906 40015 56013 60006 71586 879// 91800 333 10122 20043 60017=
07070,1998-04-08 21:00:00,7,1001.1,-0.5,93,6,7000,11.112,,,180,,,,,,,,,,,wg-a,,,,AAXX 08214 07070 12757 /1806 10070 20060 39901 40011 58005 60006 85500 92100=
07070,1998-04-09 00:00:00,7,999.9,-1.2,93,6,8000,14.816,,,170,,,,,,,,,,,wg-a,,,,AAXX 09004 07070 12658 /1708 10070 20060 39889 49999 57012 60006 86500 90000=
07070,1998-04-09 03:00:00,6,998.4,-1.5,100,6,8000,14.816,,,180,,,,,,,,,,,wg-a,,,,AAXX 09034 07070 12458 71808 10060 20060 39874 49984 56015 60006 876// 90300=
07070,1998-04-09 09:00:00,9,997.1,-0.6,87,7,12000,22.224,,,170,,,,,,,,,,,wg-a,,,,AAXX 09094 07070 12462 71712 10090 20070 39862 49971 56006 60006 878// 90900=
07070,1998-04-09 12:00:00,11,995.7,-1.3,76,7,15000,22.224,,,170,,,,0,,,,,,2,wg-a,,,,AAXX 09124 07070 02465 71712 10110 20070 39849 49957 58013 60006 70286 878// 91200 333 60007=
07070,1998-04-09 15:00:00,10,995.4,-0.3,82,7,20000,18.52,,,180,,,,5,,,,,,25,wg-a,,,,AAXX 09154 07070 12470 71810 10100 20070 39846 49954 58003 60057 72598 85932 91500=
07070,1998-04-09 18:00:00,8,995.5,-0,93,7,25000,14.816,,,170,6.3,10.8,,,,,,,,1,wg-a,,,,AAXX 09184 07070 12575 71708 10080 20070 39846 49955 55000 60006 70198 84903 91800 333 10108 20063=
07070,1998-04-09 21:00:00,6,995.7,0.1,100,6,25000,11.112,,,170,,,,,,,,,,,wg-a,,,,AAXX 09214 07070 12575 71706 10060 20060 39847 49957 51001 60006 83803 92100=
07070,1998-04-10 00:00:00,6,995.1,-0.6,93,5,25000,14.816,,,170,,,,2,,,,,,1,wg-a,,,,AAXX 10004 07070 02575 71708 10060 20050 39841 49951 58006 60026 70162 8687/ 90000 333 60027=
07070,1998-04-10 03:00:00,6,994.5,-0.6,93,5,25000,11.112,,,180,,,,0,,,,,,21,wg-a,,,,AAXX 10034 07070 12775 81806 10060 20050 39835 49945 56006 60007 72122 8457/ 90300=
07070,1998-04-10 06:00:00,6,994.2,-0.3,93,5,12000,3.704,,,190,4.6,8.4,,,,,7,,,3,wg-a,,,,AAXX 10064 07070 02562 71902 10060 20050 39832 49942 55003 60006 70362 878// 90600 333 10084 20046 60074=
07070,1998-04-10 09:00:00,8,994.3,0.2,81,5,20000,11.112,,,200,,,,,,,,,,,wg-a,,,,AAXX 10094 07070 12470 72006 10080 20050 39834 49943 52002 60006 878// 90900=
07070,1998-04-10 12:00:00,9,993.8,-0.4,71,4,35000,11.112,,,200,,,,,,,,,,,wg-a,,,,AAXX 10124 07070 12581 72006 10090 20040 39830 49938 58004 60006 878// 91200=
07070,1998-04-10 15:00:00,11,993.2,-0.6,58,3,35000,11.112,,,230,,,,,,,,,,,wg-a,,,,AAXX 10154 07070 12681 /2306 10110 20030 39824 49932 58006 60006 86800 91500=
07070,1998-04-10 18:00:00,9,992.9,-0.3,81,6,12000,7.408,,,110,5.7,11.1,,,,,,,,,wg-a,,,,AAXX 10184 07070 12562 71104 10090 20060 39821 49929 55003 60006 879// 91800 333 10111 20057=
07070,1998-04-10 21:00:00,5,994.5,1.4,93,4,7000,7.408,,,200,,,,4,,,,,,25,wg-a,,,,AAXX 10214 07070 12557 82004 10050 20040 39835 49945 51014 60047 72586 888// 92100=
07070,1998-04-11 00:00:00,3,995,0.4,93,2,7000,11.112,,,170,,,,,,,,,,1,wg-a,,,,AAXX 11004 07070 12757 31706 10030 20020 39839 49950 51004 60046 70186 83500 90000=
07070,1998-04-11 03:00:00,5,995.4,0.5,93,4,8000,7.408,,,190,,,,,,,,,,,wg-a,,,,AAXX 11034 07070 12458 71904 10050 20040 39844 49954 52005 60006 875// 90300=
07070,1998-04-11 06:00:00,6,996.7,1.3,93,5,7000,18.52,,,220,2.5,8.8,,,,,,,,60,wg-a,,,,AAXX 11064 07070 02457 72210 10060 20050 39857 49967 53013 61000 76061 877// 90600 333 10088 20025 6004=
07070,1998-04-11 09:00:00,7,998.1,1.5,81,4,10000,29.632,,,240,,,,,,,,,,1,wg-a,,,,AAXX 11094 07070 02560 /2416 10070 20040 39872 49981 51015 61000 70162 86800 90900 333 ////=
07070,1998-04-11 12:00:00,9,999.1,1,66,3,15000,25.928,,,250,,,,,,,,,,3,wg-a,,,,AAXX 11124 07070 02665 72514 10090 20030 39882 49991 51010 61000 70362 872// 91200 333 ////=
07070,1998-04-11 18:00:00,10,998.8,-0,53,1,500,7.408,,,280,5.8,11.2,,,,,,,,,wg-a,,,,AAXX 11184 07070 12600 62804 10100 20010 39879 49988 55000 60006 84401 91800 333 10112 20058=
07070,1998-04-12 00:00:00,4,1000.7,0.4,100,4,15000,3.704,,,300,,,,,,,,,,,wg-a,,,,AAXX 12004 07070 12665 43002 10040 20040 39896 40007 51004 60006 82530 90000=
07070,1998-04-12 03:00:00,5,1000.9,0.2,100,5,3000,11.112,,,330,,,,,,,,,,10,wg-a,,,,AAXX 12034 07070 12230 83306 10050 20050 39898 40009 53002 60006 71011 886// 90300=
07070,1998-04-12 06:00:00,4,1002.1,1.2,93,3,4000,18.52,,,340,3.8,9.6,,,,,,,,10,wg-a,,,,AAXX 12064 07070 02340 83410 10040 20030 39910 40021 53012 61000 71065 885// 90600 333 10096 20038 6000=
07070,1998-04-12 09:00:00,4,1004.2,2.1,93,3,8000,18.52,,,350,,,,5,,,,,,61,wg-a,,,,AAXX 12094 07070 12458 83510 10040 20030 39931 40042 53021 60057 76176 887// 90900=
07070,1998-04-12 12:00:00,7,1005,0.9,76,3,12000,22.224,,,320,,,,0,,,,,,1,wg-a,,,,AAXX 12124 07070 02562 73212 10070 20030 39940 40050 51009 60056 70176 8727/ 91200 333 60007=
07070,1998-04-12 15:00:00,8,1005.3,0.3,71,3,11000,22.224,,,350,,,,,,,,,,,wg-a,,,,AAXX 12154 07070 12/61 /3512 10080 20030 39943 40053 53003 60006 91500=
07070,1998-04-12 18:00:00,5,1006.9,1.4,81,2,15000,25.928,,,350,3,9.1,,,,,,,,,wg-a,,,,AAXX 12184 07070 12665 73514 10050 20020 39957 40069 53014 60006 85202 91800 333 10091 20030=
07070,1998-04-12 21:00:00,3,1008,1.1,93,2,8000,3.704,,,10,,,,,,,,,,1,wg-a,,,,AAXX 12214 07070 02758 70102 10030 20020 39968 40080 51011 61000 70186 81572 92100 333 ////=
07070,1998-04-13 00:00:00,1,1008.1,0,93,0,15000,3.704,,,240,,,,,,,,,,1,wg-a,,,,AAXX 13004 07070 02/65 72402 10010 20000 39968 40081 50000 61000 70186 80002 90000 333 ////=
07070,1998-04-13 03:00:00,0,1008.1,-0.1,86,-2,15000,11.112,,,240,,,,,,,,,,,wg-a,,,,AAXX 13034 07070 12/65 72406 10000 21020 39967 40081 58001 60006 80002 90300=
07070,1998-04-13 06:00:00,-1,1008.6,0.5,93,-2,20000,3.704,,,230,-1.6,4.5,,,,,5,,,,wg-a,,,,AAXX 13064 07070 02/70 12302 11010 21020 39972 40086 53005 60006 80001 90600 333 10045 21016 60054=
07070,1998-04-13 09:00:00,6,1008.9,0.6,65,0,20000,14.816,,,290,,,,,,,,,,,wg-a,,,,AAXX 13094 07070 12570 /2908 10060 20000 39978 40089 51006 60006 81201 90900=
07070,1998-04-13 12:00:00,8,1008.4,-0.4,49,-2,25000,18.52,,42.596,300,,,,,,,,,,,wg-a,,,,AAXX 13124 07070 12675 /3010 10080 21020 39974 40084 58004 60006 85800 91200 333 91023=
07070,1998-04-13 15:00:00,6,1008,-0.5,70,1,15000,25.928,,,320,,,,,,,,,,15,wg-a,,,,AAXX 13154 07070 12565 73214 10060 20010 39969 40080 55005 60006 71511 879// 91500=
07070,1998-04-13 18:00:00,4,1008.2,0.1,87,2,10000,25.928,,,250,-0.8,9.4,,0,,,,,,15,wg-a,,,,AAXX 13184 07070 02560 72514 10040 20020 39970 40082 53001 60006 71587 86901 91800 333 10094 21008 60007=
07070,1998-04-13 21:00:00,2,1008.2,-0.1,87,0,10000,14.816,,,230,,,,,,,,,,,wg-a,,,,AAXX 13214 07070 12760 32308 10020 20000 39969 40082 58001 60006 815/2 92100=
07070,1998-04-14 00:00:00,1,1008,-0.2,93,0,10000,3.704,,,260,,,,,,,,,,,wg-a,,,,AAXX 14004 07070 12760 72602 10010 20000 39967 40080 56002 60006 875// 90000=
07070,1998-04-14 03:00:00,-1,1007,-1.1,93,-2,10000,7.408,,,210,,,,,,,,,,,wg-a,,,,AAXX 14034 07070 12760 32104 11010 21020 39956 40070 57011 60006 815/1 90300=
07070,1998-04-14 06:00:00,0,1007.2,0.3,100,0,10000,11.112,,,170,-1,3.7,,,,,,,,,wg-a,,,,AAXX 14064 07070 02660 71706 10000 20000 39959 40072 53003 60006 875// 90600 333 10037 21010 60004=
07070,1998-04-14 12:00:00,7,1006.4,-0.8,70,2,10000,29.632,,,250,,,,,,,,,,80,wg-a,,,,AAXX 14124 07070 02560 72516 10070 20020 39953 40064 58008 61000 78086 873// 91200 333 6100=
07070,1998-04-14 15:00:00,8,1005.1,-1.2,66,2,11000,11.112,,,230,,,,,,,,,,,wg-a,,,,AAXX 14154 07070 32/61 /2306 10080 20020 39941 40051 58012 91500=
07070,1998-04-14 18:00:00,7,1003.4,-1.7,57,-1,20000,11.112,,,190,0.4,8.9,,,,,,,,1,wg-a,,,,AAXX 14184 07070 12670 71906 10070 21010 39924 40034 57017 60006 70186 81201 91800 333 10089 20004=
07070,1998-04-14 21:00:00,6,1002.8,-0.7,70,1,25000,18.52,,,150,,,,,,,,,,,wg-a,,,,AAXX 14214 07070 12775 81510 10060 20010 39917 40028 58007 60006 8252/ 92100=
07070,1998-04-15 00:00:00,6,1000.9,-1.9,65,0,20000,18.52,,,160,,,,,,,,,,,wg-a,,,,AAXX 15004 07070 12770 81610 10060 20000 39898 40009 58019 60006 8452/ 90000=
07070,1998-04-15 03:00:00,5,997.9,-2.9,81,2,15000,14.816,,,160,,,,,,,,,,61,wg-a,,,,AAXX 15034 07070 02665 81608 10050 20020 39869 49979 57029 61000 76162 8652/ 90300 333 ////=
07070,1998-04-15 06:00:00,5,995.5,-2.4,93,4,4500,29.632,,,170,3.5,7,,,,,,,,63,wg-a,,,,AAXX 15064 07070 02545 81716 10050 20040 39845 49955 56024 61000 76362 888// 90600 333 10070 20035 6002=
07070,1998-04-15 09:00:00,7,994.2,-1.2,93,6,7000,25.928,,,190,,,,1,,,,,,61,wg-a,,,,AAXX 15094 07070 12457 81914 10070 20060 39833 49942 56012 60017 76166 888// 90900=
07070,1998-04-15 12:00:00,10,992.7,-1.4,82,7,15000,22.224,,42.596,210,,,,1,,,,,,21,wg-a,,,,AAXX 15124 07070 02565 72112 10100 20070 39819 49927 58014 60026 72162 878// 91200 333 60017 91023=
07070,1998-04-15 15:00:00,7,992.3,-0.5,100,7,500,11.112,,,250,,,,5,,,,,,63,wg-a,,,,AAXX 15154 07070 12400 82506 10070 20070 39814 49923 56005 60057 76362 888// 91500=
07070,1998-04-15 18:00:00,6,993.2,0.9,81,3,20000,22.224,,,230,5.1,10.5,,2,,,,,,1,wg-a,,,,AAXX 15184 07070 02570 72312 10060 20030 39823 49932 53009 60006 70162 8158/ 91800 333 10105 20051 60027=
07070,1998-04-15 21:00:00,4,994.6,1.3,81,1,15000,31.484,,,220,,,,,,,,,,,wg-a,,,,AAXX 15214 07070 12565 22217 10040 20010 39836 49946 50013 60006 82500 92100=
07070,1998-04-16 00:00:00,5,995.7,1.1,81,2,15000,38.892,,,240,,,,,,,,,,2,wg-a,,,,AAXX 16004 07070 02565 72421 10050 20020 39847 49957 53011 61000 70286 875// 90000 333 6100=
07070,1998-04-16 06:00:00,3,999.3,1.1,93,2,11000,22.224,,,240,3,6.2,,,,,10,,,,wg-a,,,,AAXX 16064 07070 02/61 /2412 10030 20020 39882 49993 53011 60006 90600 333 10062 20030 60104=
07070,1998-04-16 09:00:00,7,998.4,-0.8,76,3,11000,18.52,,,210,,,,,,,,,,,wg-a,,,,AAXX 16094 07070 12/61 /2110 10070 20030 39874 49984 58008 60006 90900=
07070,1998-04-16 12:00:00,10,996.1,-2.1,50,0,25000,22.224,,,210,,,,,,,,,,,wg-a,,,,AAXX 16124 07070 12675 72112 10100 20000 39853 49961 57021 60006 83101 91200=
07070,1998-04-16 15:00:00,10,992.9,-3.2,57,2,10000,29.632,,,170,,,,,,,,,,,wg-a,,,,AAXX 16154 07070 12/60 /1716 10100 20020 39821 49929 58032 60006 91500=
07070,1998-04-16 18:00:00,8,990.9,-2,71,3,20000,18.52,,,160,3.4,10.4,,,,,,,,61,wg-a,,,,AAXX 16184 07070 02770 81610 10080 20030 39801 49909 57020 61000 76162 8147/ 91800 333 10104 20034 6100=
07070,1998-04-16 21:00:00,6,989.8,-1.2,93,5,12000,22.224,,,150,,,,1,,,,,,61,wg-a,,,,AAXX 16214 07070 12562 81512 10060 20050 39789 49898 58012 60017 76166 875// 92100=
07070,1998-04-17 00:00:00,6,986.9,-2.9,87,4,20000,22.224,,,150,,,,0,,,,,,21,wg-a,,,,AAXX 17004 07070 02570 71512 10060 20040 39760 49869 56029 60016 72162 875// 90000 333 60007=
07070,1998-04-17 03:00:00,6,984.9,-1.9,93,5,20000,11.112,,,140,,,,,,,,,,,wg-a,,,,AAXX 17034 07070 12770 71406 10060 20050 39741 49849 56019 60006 875// 90300=
07070,1998-04-17 06:00:00,6,984.4,-0.5,93,5,10000,14.816,,,110,5.6,8.6,,,,,,,,60,wg-a,,,,AAXX 17064 07070 02560 71108 10060 20050 39736 49844 55005 61000 76062 875// 90600 333 10086 20056 6001=
07070,1998-04-17 09:00:00,6,985.3,0.9,100,6,4000,14.816,,,40,,,,2,,,,,,10,wg-a,,,,AAXX 17094 07070 12240 80408 10060 20060 39745 49853 53009 60027 71066 878// 90900=
07070,1998-04-17 12:00:00,8,986.9,1.6,93,7,6000,11.112,,,310,,,,,,,,,,,wg-a,,,,AAXX 17124 07070 12/56 /3106 10080 20070 39761 49869 51016 60036 91200=
07070,1998-04-17 15:00:00,7,989.1,2.1,93,6,6000,7.408,,,230,,,,,,,,,,,wg-a,,,,AAXX 17154 07070 32/56 /2304 10070 20060 39782 49891 51021 91500=
07070,1998-04-17 18:00:00,7,991,1.9,93,6,500,11.112,,,320,5.8,8.1,,,,,,,,61,wg-a,,,,AAXX 17184 07070 02200 83206 10070 20060 39801 49910 51019 61000 76166 877// 91800 333 10081 20058 6005=
07070,1998-04-18 00:00:00,7,994.7,1.4,93,6,500,25.928,,,330,,,,2,,,,,,61,wg-a,,,,AAXX 18004 07070 02300 83314 10070 20060 39838 49947 53014 60046 76165 877// 90000 333 60027=
07070,1998-04-18 09:00:00,5,1001.3,2.5,93,4,6000,29.632,,,310,,,,2,,,,,,61,wg-a,,,,AAXX 18094 07070 12456 83116 10050 20040 39902 40013 53025 60027 76166 885// 90900=
07070,1998-04-18 12:00:00,7,1003.1,1.9,81,4,10000,22.224,,,300,,,,1,,,,,,21,wg-a,,,,AAXX 18124 07070 02560 83012 10070 20040 39921 40031 51019 60026 72162 875// 91200 333 60017=
07070,1998-04-18 15:00:00,8,1004.4,1.3,76,4,12000,14.816,,,310,,,,,,,,,,,wg-a,,,,AAXX 18154 07070 12662 83108 10080 20040 39934 40044 53013 60006 878// 91500=
07070,1998-04-18 18:00:00,8,1005.7,1.3,71,3,10000,14.816,,,310,4.8,8.9,,,,,,,,,wg-a,,,,AAXX 18184 07070 12760 53108 10080 20030 39947 40057 52013 60006 835/1 91800 333 10089 20048=
07070,1998-04-18 21:00:00,5,1007.5,1.6,81,2,10000,11.112,,,230,,,,,,,,,,,wg-a,,,,AAXX 18214 07070 12760 62306 10050 20020 39963 40075 51016 60006 86500 92100=
07070,1998-04-19 00:00:00,4,1008.3,0.8,87,2,10000,3.704,,,190,,,,,,,,,,,wg-a,,,,AAXX 19004 07070 12760 71902 10040 20020 39971 40083 51008 60006 875// 90000=
07070,1998-04-19 03:00:00,2,1008.7,0.3,93,1,10000,7.408,,,210,,,,,,,,,,,wg-a,,,,AAXX 19034 07070 12660 /2104 10020 20010 39974 40087 53003 60006 85500 90300=
07070,1998-04-19 06:00:00,2,1009.9,1.2,93,1,10000,3.704,,,220,0.5,7.6,,,,,2,,,,wg-a,,,,AAXX 19064 07070 02660 /2202 10020 20010 39986 40099 53012 60006 81500 90600 333 10076 20005 60024=
07070,1998-04-19 09:00:00,9,1010.7,1.1,71,4,12000,11.112,,,260,,,,,,,,,,,wg-a,,,,AAXX 19094 07070 12562 /2606 10090 20040 39997 40107 52011 60006 85100 90900=
07070,1998-04-19 12:00:00,12,1010.8,0.2,67,6,25000,11.112,,,230,,,,,,,,,,,wg-a,,,,AAXX 19124 07070 12675 72306 10120 20060 39999 40108 50002 60006 878// 91200=
07070,1998-04-19 15:00:00,12,1010.9,0.1,62,5,25000,11.112,,,180,,,,,,,,,,,wg-a,,,,AAXX 19154 07070 12675 71806 10120 20050 30000 40109 51001 60006 85802 91500=
07070,1998-04-19 18:00:00,10,1010.9,-0.1,76,6,25000,14.816,,,160,1.8,13,,,,,,,,,wg-a,,,,AAXX 19184 07070 12675 /1608 10100 20060 39999 40109 58001 60006 81472 91800 333 10130 20018=
07070,1998-04-19 21:00:00,8,1011.8,0.8,87,6,15000,11.112,,,170,,,,,,,,,,61,wg-a,,,,AAXX 19214 07070 02665 71706 10080 20060 30007 40118 51008 61000 76162 8653/ 92100 333 ////=
07070,1998-04-20 00:00:00,8,1011.2,-0.6,100,8,10000,18.52,,,170,,,,1,,,,,,61,wg-a,,,,AAXX 20004 07070 02560 81710 10080 20080 30001 40112 58006 60016 76162 885// 90000 333 60017=
07070,1998-04-20 03:00:00,8,1010.4,-0.8,93,7,12000,18.52,,,180,,,,0,,,,,,61,wg-a,,,,AAXX 20034 07070 12562 81810 10080 20070 39993 40104 56008 60007 76162 885// 90300=
07070,1998-04-20 06:00:00,9,1010.4,0.1,87,7,15000,18.52,,,200,7.6,9.4,,,,,2,,,3,wg-a,,,,AAXX 20064 07070 02565 82010 10090 20070 39994 40104 53001 60006 70362 885// 90600 333 10094 20076 60024=
07070,1998-04-20 09:00:00,10,1011.3,0.9,93,9,8000,18.52,,,220,,,,1,,,,,,61,wg-a,,,,AAXX 20094 07070 12458 82210 10100 20090 30003 40113 53009 60017 76162 877// 90900=
07070,1998-04-20 12:00:00,11,1011.8,0.6,94,10,10000,18.52,,,210,,,,,,,,,,61,wg-a,,,,AAXX 20124 07070 02460 82110 10110 20100 30009 40118 51006 60016 76162 8587/ 91200 333 61000=
07070,1998-04-20 15:00:00,11,1012.5,0.7,94,10,500,14.816,,,220,,,,1,,,,,,80,wg-a,,,,AAXX 20154 07070 12400 82208 10110 20100 30016 40125 51007 60017 78086 878// 91500=
07070,1998-04-20 18:00:00,10,1013.9,1.3,93,9,20000,14.816,,,240,8.7,12.1,,0,,,,,,1,wg-a,,,,AAXX 20184 07070 02470 82408 10100 20090 30029 40139 51013 60006 70186 8687/ 91800 333 10121 20087 60007=
07070,1998-04-20 21:00:00,9,1015.9,1.9,93,8,15000,7.408,,,230,,,,,,,,,,,wg-a,,,,AAXX 20214 07070 12665 72304 10090 20080 30048 40159 51019 60006 8357/ 92100=
07070,1998-04-21 00:00:00,7,1016.8,0.8,93,6,15000,7.408,,,210,,,,,,,,,,,wg-a,,,,AAXX 21004 07070 12/65 72104 10070 20060 30056 40168 51008 60006 8707/ 90000=
07070,1998-04-21 03:00:00,7,1016.7,-0.1,93,6,10000,7.408,,,200,,,,,,,,,,,wg-a,,,,AAXX 21034 07070 12660 72004 10070 20060 30055 40167 55001 60006 875// 90300=
07070,1998-04-21 06:00:00,8,1017.9,1.3,100,8,7000,7.408,,,170,6.3,10.2,,,,,,,,60,wg-a,,,,AAXX 21064 07070 02657 81704 10080 20080 30068 40179 53013 61000 76062 8587/ 90600 333 10102 20063 6003=
07070,1998-04-21 09:00:00,12,1018.2,0.4,82,9,15000,3.704,,,200,,,,,,,,,,3,wg-a,,,,AAXX 21094 07070 02465 72002 10120 20090 30072 40182 53004 61000 70362 8187/ 90900 333 ////=
07070,1998-04-21 12:00:00,14,1017.5,-0.6,77,10,20000,18.52,,,150,,,,,,,,,,3,wg-a,,,,AAXX 21124 07070 02570 71510 10140 20100 30066 40175 58006 61000 70362 83870 91200 333 ////=
07070,1998-04-21 18:00:00,14,1016.4,-0.3,67,8,500,3.704,,,190,8.1,16.1,,,,,,,,,wg-a,,,,AAXX 21184 07070 12600 71902 10140 20080 30055 40164 55003 60006 82432 91800 333 10161 20081=
07070,1998-04-21 21:00:00,10,1016.8,0.2,82,7,25000,3.704,,,120,,,,,,,,,,,wg-a,,,,AAXX 21214 07070 12/75 51202 10100 20070 30057 40168 53002 60006 80002 92100=
07070,1998-04-22 00:00:00,7,1016.1,-0.8,93,6,25000,7.408,,,60,,,,,,,,,,,wg-a,,,,AAXX 22004 07070 12/75 10604 10070 20060 30049 40161 56008 60006 81030 90000=
07070,1998-04-22 03:00:00,7,1015,-1,93,6,25000,3.704,,,70,,,,,,,,,,,wg-a,,,,AAXX 22034 07070 12775 30702 10070 20060 30039 40150 57010 60006 83500 90300=
07070,1998-04-22 06:00:00,9,1015.1,0.1,93,8,15000,11.112,,,90,6.2,14.1,,,,,,,,,wg-a,,,,AAXX 22064 07070 02765 50906 10090 20080 30040 40151 53001 60006 82801 90600 333 10141 20062 61000=
07070,1998-04-22 09:00:00,17,1014.1,-0.6,72,12,20000,7.408,,,90,,,,,,,,,,,wg-a,,,,AAXX 22094 07070 12/70 30904 10170 20120 30034 40141 58006 60006 80001 90900=
07070,1998-04-22 12:00:00,21,1012.8,-1.2,56,12,500,25.928,,,120,,,,,,,,,,,wg-a,,,,AAXX 22124 07070 12600 /1214 10210 20120 30022 40128 58012 60006 81201 91200=
07070,1998-04-22 15:00:00,22,1010.9,-1.8,53,12,500,25.928,,,120,,,,,,,,,,,wg-a,,,,AAXX 22154 07070 12600 21214 10220 20120 30004 40109 56018 60006 82200 91500=
07070,1998-04-22 18:00:00,17,1011.1,-0,72,12,500,14.816,,,110,8.6,21.6,,,,,,,,,wg-a,,,,AAXX 22184 07070 12700 11108 10170 20120 30004 40111 55000 60006 81400 91800 333 10216 20086=
07070,1998-04-22 21:00:00,13,1011.7,0.4,72,8,20000,14.816,,,110,,,,,,,,,,,wg-a,,,,AAXX 22214 07070 12/70 01108 10130 20080 30008 40117 52004 60006 80000 92100=
07070,1998-04-23 00:00:00,12,1011.7,-0,76,8,20000,0,,,0,,,,,,,,,,,wg-a,,,,AAXX 23004 07070 12770 30000 10120 20080 30008 40117 55000 60006 82501 90000=
07070,1998-04-23 03:00:00,12,1011.4,-0.3,76,8,20000,0,,,0,,,,,,,,,,,wg-a,,,,AAXX 23034 07070 12770 60000 10120 20080 30005 40114 56003 60006 86500 90300=
07070,1998-04-23 06:00:00,10,1012,0.5,87,8,15000,0,,,0,8.9,17.1,,,,,,,,,wg-a,,,,AAXX 23064 07070 02765 70000 10100 20080 30010 40120 53005 60006 83831 90600 333 10171 20089 60004=
07070,1998-04-23 09:00:00,17,1012.9,1.2,77,13,10000,22.224,,,260,,,,,,,,,,,wg-a,,,,AAXX 23094 07070 12760 32612 10170 20130 30022 40129 52012 60006 81101 90900=
07070,1998-04-23 12:00:00,19,1013.1,0.2,60,11,12000,22.224,,,240,,,,,,,,,,,wg-a,,,,AAXX 23124 07070 12662 32412 10190 20110 30024 40131 51002 60006 83200 91200=
07070,1998-04-23 15:00:00,18,1013.1,-0,59,10,20000,25.928,,,230,,,,,,,,,,,wg-a,,,,AAXX 23154 07070 12670 52314 10180 20100 30024 40131 55000 60006 84401 91500=
07070,1998-04-23 18:00:00,16,1013.4,0.2,63,9,20000,22.224,,,240,9.8,19.3,,,,,,,,61,wg-a,,,,AAXX 23184 07070 02570 /2412 10160 20090 30026 40134 53002 61000 76161 85850 91800 333 10193 20098 6100=
07070,1998-04-23 21:00:00,13,1014.5,1,82,10,10000,22.224,,,230,,,,0,,,,,,21,wg-a,,,,AAXX 23214 07070 12560 /2312 10130 20100 30036 40145 51010 60007 72162 84570 92100=
07070,1998-04-24 00:00:00,11,1015.8,1.2,87,9,10000,25.928,,,280,,,,,,,,,,2,wg-a,,,,AAXX 24004 07070 12560 72814 10110 20090 30048 40158 53012 60006 70262 878// 90000=
07070,1998-04-24 03:00:00,8,1017,1.1,87,6,10000,14.816,,,240,,,,0,,,,,,,wg-a,,,,AAXX 24034 07070 12660 /2408 10080 20060 30059 40170 53011 60007 85500 90300=
07070,1998-04-24 06:00:00,10,1018.3,1.3,82,7,20000,22.224,,,260,8.1,16.3,,,,,,,,,wg-a,,,,AAXX 24064 07070 02670 72612 10100 20070 30072 40183 53013 60006 878// 90600 333 10163 20081 60004=
07070,1998-04-24 09:00:00,12,1019.9,1.7,76,8,12000,25.928,,,250,,,,,,,,,,,wg-a,,,,AAXX 24094 07070 12562 72514 10120 20080 30089 40199 51017 60006 85102 90900=
07070,1998-04-24 12:00:00,15,1020.1,0.3,63,8,20000,22.224,,,240,,,,,,,,,,,wg-a,,,,AAXX 24124 07070 12570 62412 10150 20080 30092 40201 52003 60006 84231 91200=
07070,1998-04-24 18:00:00,15,1019.6,-0.3,72,10,20000,18.52,,,220,10.1,15.7,,,,,,,,60,wg-a,,,,AAXX 24184 07070 02570 82210 10150 20100 30087 40196 55003 61000 76062 8347/ 91800 333 10157 20101 6100=
07070,1998-04-25 00:00:00,13,1018.6,-1.1,94,12,10000,11.112,,,210,,,,,,,,,,20,wg-a,,,,AAXX 25004 07070 02360 82106 10130 20120 30077 40186 58011 61000 72065 877// 90000 333 6100=
07070,1998-04-25 06:00:00,13,1017.1,-0.6,94,12,12000,18.52,,,220,13.1,14.6,,,,,,,,3,wg-a,,,,AAXX 25064 07070 02462 82210 10130 20120 30062 40171 58006 60006 70362 877// 90600 333 10146 20131 61000=
07070,1998-04-25 12:00:00,14,1014.9,-1.3,88,12,20000,18.52,,,210,,,,0,,,,,,21,wg-a,,,,AAXX 25124 07070 02470 82110 10140 20120 30041 40149 58013 60006 72162 877// 91200 333 60007=
07070,1998-04-25 18:00:00,15,1012.5,-1.7,82,12,20000,18.52,,,210,13.2,16,,0,,,,,,1,wg-a,,,,AAXX 25184 07070 02470 72110 10150 20120 30017 40125 58017 60006 70162 85872 91800 333 10160 20132 60007=
07070,1998-04-26 00:00:00,13,1009.9,-1.9,94,12,15000,11.112,,,210,,,,,,,,,,,wg-a,,,,AAXX 26004 07070 12465 82106 10130 20120 39991 40099 58019 60006 875// 90000=
07070,1998-04-26 06:00:00,10,1008.5,-1.2,93,9,4000,7.408,,,330,9.8,15.3,,,,,,,,63,wg-a,,,,AAXX 26064 07070 02240 83304 10100 20090 39975 40085 55012 61000 76362 885// 90600 333 10153 20098 6006=
07070,1998-04-26 12:00:00,12,1007,-0.7,94,11,10000,7.408,,,310,,,,0,,,,,,21,wg-a,,,,AAXX 26124 07070 02360 83104 10120 20110 39961 40070 58007 60046 72165 888// 91200 333 60007=
07070,1998-04-26 18:00:00,12,1006.1,-0.5,88,10,12000,7.408,,,190,9.6,13,,0,,,,,,1,wg-a,,,,AAXX 26184 07070 02862 81904 10120 20100 39952 40061 55005 60006 70162 8807/ 91800 333 10130 20096 60007=
07070,1998-04-27 00:00:00,9,1004.8,-0.9,100,9,10000,7.408,,,170,,,,0,,,,,,60,wg-a,,,,AAXX 27004 07070 02860 81704 10090 20090 39939 40048 58009 60016 76062 8807/ 90000 333 60007=
07070,1998-04-27 06:00:00,9,1002.7,-0.8,93,8,8000,7.408,,,220,8.2,11.4,,,,,,,,21,wg-a,,,,AAXX 27064 07070 02758 82204 10090 20080 39918 40027 56008 61000 72162 83572 90600 333 10114 20082 6005=
07070,1998-04-27 12:00:00,10,1003.1,0.6,93,9,6000,18.52,,,280,,,,1,,,,,,63,wg-a,,,,AAXX 27124 07070 02356 82810 10100 20090 39922 40031 53006 60016 76362 878// 91200 333 60017=
07070,1998-04-27 15:00:00,11,1003.7,0.6,87,9,500,7.408,,,340,,,,1,,,,,,61,wg-a,,,,AAXX 27154 07070 12400 83404 10110 20090 39928 40037 53006 60017 76162 878// 91500=
07070,1998-04-27 18:00:00,9,1004.7,1,93,8,8000,11.112,,,290,8.5,11.3,,,,,,,,61,wg-a,,,,AAXX 27184 07070 02458 82906 10090 20080 39938 40047 53010 61000 76162 878// 91800 333 10113 20085 6003=
07070,1998-04-27 21:00:00,9,1006.1,1.3,93,8,8000,3.704,,,230,,,,,,,,,,3,wg-a,,,,AAXX 27214 07070 02358 82302 10090 20080 39951 40061 53013 61000 70362 885// 92100 333 ////=
07070,1998-04-28 00:00:00,8,1006.2,0.1,93,7,8000,7.408,,,220,,,,0,,,,,,3,wg-a,,,,AAXX 28004 07070 02458 82204 10080 20070 39952 40062 50001 60016 70362 885// 90000 333 60007=
07070,1998-04-28 03:00:00,8,1006.2,0,93,7,8000,3.704,,,220,,,,,,,,,,,wg-a,,,,AAXX 28034 07070 12658 82202 10080 20070 39952 40062 50000 60006 885// 90300=
07070,1998-04-28 06:00:00,6,1007.1,0.8,100,6,500,3.704,,,90,4.4,9,,,,,4,,,1,wg-a,,,,AAXX 28064 07070 02600 20902 10060 20060 39960 40071 51008 60006 70141 81501 90600 333 10090 20044 60044=
07070,1998-04-28 09:00:00,10,1007.6,0.7,87,8,12000,3.704,,,180,,,,,,,,,,,wg-a,,,,AAXX 28094 07070 12462 71802 10100 20080 39967 40076 51007 60006 818// 90900=
07070,1998-04-28 12:00:00,8,1007.5,-0.2,87,6,7000,18.52,,,120,,,,5,,,,,,80,wg-a,,,,AAXX 28124 07070 02357 71210 10080 20060 39965 40075 58002 60056 78087 879// 91200 333 60057=
07070,1998-04-28 15:00:00,11,1007.1,-0.3,76,7,20000,7.408,,,330,,,,3,,,,,,29,wg-a,,,,AAXX 28154 07070 12470 43304 10110 20070 39962 40071 58003 60037 72998 84900 91500=
07070,1998-04-28 18:00:00,10,1007,-0.1,87,8,25000,7.408,,,160,6,13.4,,,,,,,,1,wg-a,,,,AAXX 28184 07070 02675 31604 10100 20080 39961 40070 58001 60006 70198 83900 91800 333 10134 20060 61000=
07070,1998-04-28 21:00:00,6,1007.3,0.1,93,5,20000,7.408,,,70,,,,,,,,,,,wg-a,,,,AAXX 28214 07070 12670 /0704 10060 20050 39962 40073 50001 60006 8140/ 92100=
07070,1998-04-29 00:00:00,5,1006.7,-0.6,93,4,20000,0,,,0,,,,,,,,,,,wg-a,,,,AAXX 29004 07070 12/70 00000 10050 20040 39956 40067 58006 60006 80000 90000=
07070,1998-04-29 03:00:00,3,1005.6,-1.2,100,3,20000,3.704,,,60,,,,,,,,,,,wg-a,,,,AAXX 29034 07070 12770 10602 10030 20030 39944 40056 56012 60006 81500 90300=
07070,1998-04-29 06:00:00,8,1004.5,-0.9,87,6,20000,11.112,,,130,2.8,10,,,,,9,,,,wg-a,,,,AAXX 29064 07070 02/70 51306 10080 20060 39935 40045 56009 60006 80001 90600 333 10100 20028 60094=
07070,1998-04-29 09:00:00,14,1004.1,-0.2,72,9,20000,18.52,,,160,,,,,,,,,,,wg-a,,,,AAXX 29094 07070 12570 /1610 10140 20090 39933 40041 58002 60006 82131 90900=
07070,1998-04-29 12:00:00,16,1003.1,-0.9,68,10,500,18.52,,,130,,,,,,,,,,,wg-a,,,,AAXX 29124 07070 12600 71310 10160 20100 39924 40031 58009 60006 83232 91200=
07070,1998-04-29 18:00:00,15,1002.6,-0.1,82,12,500,11.112,,,90,7.4,17.7,,,,,,,,,wg-a,,,,AAXX 29184 07070 12700 70906 10150 20120 39919 40026 55001 60006 83882 91800 333 10177 20074=
07070,1998-04-29 21:00:00,12,1003.3,0.6,88,10,20000,11.112,,,100,,,,,,,,,,3,wg-a,,,,AAXX 29214 07070 02770 71006 10120 20100 39925 40033 51006 61000 70362 8657/ 92100 333 ////=
07070,1998-04-30 00:00:00,9,1004.1,0.6,87,7,15000,3.704,,,10,,,,,,,,,,1,wg-a,,,,AAXX 30004 07070 02/65 20102 10090 20070 39931 40041 53006 61000 70161 81031 90000 333 ////=
07070,1998-04-30 03:00:00,7,1004.6,0.5,100,7,6000,0,,,0,,,,,,,,,,,wg-a,,,,AAXX 30034 07070 12/56 /0000 10070 20070 39936 40046 52005 60006 85031 90300=
07070,1998-04-30 06:00:00,9,1005.3,0.7,93,8,4000,3.704,,,100,7.1,14.7,,,,,,,,10,wg-a,,,,AAXX 30064 07070 02740 /1002 10090 20080 39943 40053 53007 60006 71011 86500 90600 333 10147 20071 61000=
07070,1998-04-30 09:00:00,15,1005.8,0.8,77,11,8000,14.816,,,60,,,,,,,,,,,wg-a,,,,AAXX 30094 07070 12758 30608 10150 20110 39951 40058 51008 60006 81501 90900=
07070,1998-04-30 12:00:00,18,1005.8,0.1,59,10,10000,18.52,,,50,,,,,,,,,,,wg-a,,,,AAXX 30124 07070 12660 /0510 10180 20100 39952 40058 51001 60006 82202 91200=
07070,1998-04-30 15:00:00,17,1006.3,0.4,68,11,8000,25.928,,,10,,,,,,,,,,,wg-a,,,,AAXX 30154 07070 12/58 70114 10170 20110 39956 40063 53004 60006 80002 91500=
07070,1998-04-30 18:00:00,15,1007.9,1.5,77,11,7000,18.52,,,350,9,19,,,,,,,,,wg-a,,,,AAXX 30184 07070 12/57 73510 10150 20110 39971 40079 53015 60006 80002 91800 333 10190 20090=
07070,1998-04-30 21:00:00,11,1009.7,1.7,87,9,500,22.224,,,350,,,,,,,,,,,wg-a,,,,AAXX 30214 07070 12/00 73512 10110 20090 39988 40097 53017 60006 80002 92100=
07070,1998-05-01 00:00:00,11,1010.6,0.9,94,10,4000,14.816,,,330,,,,,,,,,,10,wg-a,,,,AAXX 01004 07070 12440 73308 10110 20100 39997 40106 51009 60006 71022 876// 90000=
07070,1998-05-01 03:00:00,10,1010.8,0.1,93,9,4000,22.224,,,330,,,,,,,,,,10,wg-a,,,,AAXX 01034 07070 12340 73312 10100 20090 39998 40108 53001 60006 71022 876// 90300=
07070,1998-05-01 06:00:00,10,1011.3,0.5,100,10,1600,18.52,,,340,9.9,14.5,,,,,,,,10,wg-a,,,,AAXX 01064 07070 02216 83410 10100 20100 30003 40113 53005 60006 71022 886// 90600 333 10145 20099 60004=
07070,1998-05-01 09:00:00,12,1011.4,0.2,88,10,2500,14.816,,,340,,,,,,,,,,10,wg-a,,,,AAXX 01094 07070 12325 83408 10120 20100 30005 40114 52002 60006 71022 886// 90900=
07070,1998-05-01 12:00:00,12,1011.6,0.2,88,10,2800,22.224,,,340,,,,,,,,,,10,wg-a,,,,AAXX 01124 07070 12428 83412 10120 20100 30007 40116 53002 60006 71022 886// 91200=
07070,1998-05-01 15:00:00,11,1011,-0.6,94,10,2800,14.816,,,330,,,,,,,,,,10,wg-a,,,,AAXX 01154 07070 12428 83308 10110 20100 30001 40110 58006 60006 71022 886// 91500=
07070,1998-05-01 18:00:00,12,1010.9,-0.1,88,10,4500,11.112,,,330,10,12.4,,,,,,,,10,wg-a,,,,AAXX 01184 07070 12445 83306 10120 20100 30000 40109 55001 60006 71022 885// 91800 333 10124 20100=
07070,1998-05-01 21:00:00,11,1011.3,0.4,87,9,4500,18.52,,,340,,,,,,,,,,10,wg-a,,,,AAXX 01214 07070 12445 73410 10110 20090 30004 40113 53004 60006 71022 875// 92100=
07070,1998-05-02 00:00:00,10,1011.3,-0.1,93,9,4500,11.112,,,320,,,,,,,,,,10,wg-a,,,,AAXX 02004 07070 12345 73206 10100 20090 30003 40113 56001 60006 71022 877// 90000=
07070,1998-05-02 03:00:00,9,1010.7,-0.6,93,8,4000,14.816,,,300,,,,,,,,,,10,wg-a,,,,AAXX 02034 07070 12440 73008 10090 20080 39997 40107 58006 60006 71022 877// 90300=
07070,1998-05-02 06:00:00,9,1011.4,0.7,100,9,2500,14.816,,,320,8.7,12,,,,,,,,10,wg-a,,,,AAXX 02064 07070 02225 83208 10090 20090 30004 40114 53007 61000 71065 887// 90600 333 10120 20087 6000=
07070,1998-05-02 09:00:00,10,1012.2,0.8,93,9,2100,14.816,,,290,,,,2,,,,,,10,wg-a,,,,AAXX 02094 07070 12221 82908 10100 20090 30012 40122 51008 60027 71065 877// 90900=
07070,1998-05-02 12:00:00,11,1012.6,0.4,94,10,6000,14.816,,,320,,,,1,,,,,,1,wg-a,,,,AAXX 02124 07070 02356 83208 10110 20100 30016 40126 51004 60036 70165 877// 91200 333 60017=
07070,1998-05-02 15:00:00,11,1012.6,-0,94,10,2200,14.816,,,320,,,,,,,,,,10,wg-a,,,,AAXX 02154 07070 02222 83208 10110 20100 30016 40126 54000 61000 71052 886// 91500 333 ////=
07070,1998-05-02 18:00:00,11,1012.5,-0.1,94,10,2000,18.52,,,340,8.9,11.3,,,,,,,,10,wg-a,,,,AAXX 02184 07070 02220 83410 10110 20100 30015 40125 55001 61000 71052 886// 91800 333 10113 20089 6100=
07070,1998-05-02 21:00:00,9,1013.3,0.8,93,8,3500,18.52,,,330,,,,0,,,,,,10,wg-a,,,,AAXX 02214 07070 12235 83310 10090 20080 30023 40133 52008 60007 71065 886// 92100=
07070,1998-05-03 03:00:00,8,1012.7,-0.5,93,7,4000,18.52,,,360,,,,3,,,,,,10,wg-a,,,,AAXX 03034 07070 12340 83610 10080 20070 30016 40127 56005 60037 71066 885// 90300=
07070,1998-05-03 06:00:00,8,1012.9,0.2,93,7,4000,14.816,,,360,7.5,10.5,,,,,,,,10,wg-a,,,,AAXX 03064 07070 02440 83608 10080 20070 30018 40129 53002 61000 71062 885// 90600 333 10105 20075 6010=
07070,1998-05-03 09:00:00,9,1013.7,0.8,87,7,7000,18.52,,,20,,,,,,,,,,21,wg-a,,,,AAXX 03094 07070 02557 80210 10090 20070 30026 40137 53008 61000 72162 875// 90900 333 ////=
07070,1998-05-03 12:00:00,10,1014.1,0.5,82,7,15000,22.224,,,10,,,,,,,,,,2,wg-a,,,,AAXX 03124 07070 02565 80112 10100 20070 30031 40141 50005 61000 70262 878// 91200 333 ////=
07070,1998-05-03 15:00:00,13,1013.4,-0.6,72,8,15000,22.224,,,20,,,,,,,,,,,wg-a,,,,AAXX 03154 07070 12565 80212 10130 20080 30025 40134 58006 60006 878// 91500=
07070,1998-05-03 17:00:00,11,1013.9,0.4,76,7,15000,22.224,,,10,7.6,12.7,,,,,,,,,wg-a,,,,AAXX 03174 07070 32665 70112 10110 20070 30029 40139 53004 875// 91700 333 10127 20076=
07070,1998-05-03 18:00:00,11,1013.9,0.4,76,7,15000,22.224,,,10,7.6,12.7,,,,,,,,,wg-a,,,,AAXX 03184 07070 12665 80112 10110 20070 30029 40139 53004 60006 875// 91800 333 10127 20076=
07070,1998-05-03 21:00:00,9,1014.6,0.7,87,7,9000,22.224,,,360,,,,,,,,,,,wg-a,,,,AAXX 03214 07070 12559 83612 10090 20070 30036 40146 50007 60006 885// 92100=
07070,1998-05-04 00:00:00,8,1014.7,0,93,7,7000,22.224,,,350,,,,,,,,,,,wg-a,,,,AAXX 04004 07070 12457 /3512 10080 20070 30036 40147 50000 60006 86500 90000=
07070,1998-05-04 03:00:00,7,1014.5,-0.3,87,5,7000,25.928,,,350,,,,,,,,,,,wg-a,,,,AAXX 04034 07070 12457 73514 10070 20050 30033 40145 55003 60006 875// 90300=
07070,1998-05-04 06:00:00,6,1015.2,0.7,81,3,9000,18.52,,,20,5.8,11.1,,,,,,,,,wg-a,,,,AAXX 04064 07070 02559 70210 10060 20030 30040 40152 52007 60006 875// 90600 333 10111 20058 61000=
07070,1998-05-04 09:00:00,9,1015.1,0,71,4,12000,22.224,,,20,,,,,,,,,,,wg-a,,,,AAXX 04094 07070 12562 /0212 10090 20040 30040 40151 50000 60006 86500 90900=
07070,1998-05-04 12:00:00,12,1014.5,-0.4,62,5,15000,22.224,,,360,,,,,,,,,,,wg-a,,,,AAXX 04124 07070 12665 43612 10120 20050 30036 40145 58004 60006 84200 91200=
07070,1998-05-04 15:00:00,14,1013.7,-0.8,58,6,12000,25.928,,,350,,,,,,,,,,,wg-a,,,,AAXX 04154 07070 12662 23514 10140 20060 30028 40137 57008 60006 82100 91500=
07070,1998-05-04 18:00:00,11,1014,0.2,66,5,10000,18.52,,,350,6.1,13.6,,,,,,,,,wg-a,,,,AAXX 04184 07070 12/60 53510 10110 20050 30030 40140 51002 60006 80001 91800 333 10136 20061=
07070,1998-05-04 21:00:00,8,1015.3,1.2,81,5,10000,11.112,,,350,,,,,,,,,,,wg-a,,,,AAXX 04214 07070 12/60 53506 10080 20050 30042 40153 52012 60006 80001 92100=
07070,1998-05-05 00:00:00,5,1015.6,0.2,93,4,10000,3.704,,,280,,,,,,,,,,,wg-a,,,,AAXX 05004 07070 12/60 32802 10050 20040 30044 40156 50002 60006 80001 90000=
07070,1998-05-05 03:00:00,3,1015.1,-0.6,93,2,7000,7.408,,,290,,,,,,,,,,,wg-a,,,,AAXX 05034 07070 12/57 02904 10030 20020 30038 40151 57006 60006 80000 90300=
07070,1998-05-05 06:00:00,4,1014.7,-0.3,100,4,2000,7.408,,,220,1.3,11.1,,,,,,,,10,wg-a,,,,AAXX 05064 07070 02620 /2204 10040 20040 30035 40147 55003 60006 71011 86500 90600 333 10111 20013 60004=
07070,1998-05-05 09:00:00,9,1014.1,-0.5,81,6,500,11.112,,,260,,,,,,,,,,,wg-a,,,,AAXX 05094 07070 12600 72606 10090 20060 30030 40141 58005 60006 875// 90900=
07070,1998-05-05 12:00:00,15,1012.7,-1.1,67,9,10000,14.816,,,280,,,,,,,,,,,wg-a,,,,AAXX 05124 07070 12560 72808 10150 20090 30019 40127 58011 60006 878// 91200=
07070,1998-05-05 15:00:00,14,1011.6,-1.1,67,8,9000,14.816,,,270,,,,,,,,,,25,wg-a,,,,AAXX 05154 07070 02659 72708 10140 20080 30008 40116 56011 61000 72586 878// 91500 333 ////=
07070,1998-05-05 18:00:00,12,1011.2,-0.5,88,10,7000,11.112,,,260,4.4,15.5,,,,,,,,25,wg-a,,,,AAXX 05184 07070 02657 72606 10120 20100 30003 40112 56005 61000 72586 878// 91800 333 10155 20044 6100=
07070,1998-05-05 21:00:00,9,1011.5,0.2,93,8,12000,11.112,,,250,,,,,,,,,,1,wg-a,,,,AAXX 05214 07070 02862 72506 10090 20080 30005 40115 53002 61000 70186 8703/ 92100 333 ////=
07070,1998-05-06 00:00:00,9,1010.4,-1.1,87,7,12000,7.408,,,240,,,,,,,,,,3,wg-a,,,,AAXX 06004 07070 02662 72404 10090 20070 39994 40104 56011 61000 70386 8553/ 90000 333 ////=
07070,1998-05-06 03:00:00,9,1009.8,-0.6,81,6,12000,18.52,,,250,,,,,,,,,,,wg-a,,,,AAXX 06034 07070 12662 72510 10090 20060 39988 40098 56006 60006 8657/ 90300=
07070,1998-05-06 06:00:00,10,1010.5,0.7,87,8,10000,18.52,,,240,7.5,12,,,,,,,,60,wg-a,,,,AAXX 06064 07070 02560 82410 10100 20080 39995 40105 53007 61000 76062 8357/ 90600 333 10120 20075 6100=
07070,1998-05-06 09:00:00,12,1011.4,1,82,9,8000,25.928,,,240,,,,,,,,,,21,wg-a,,,,AAXX 06094 07070 02458 72414 10120 20090 30005 40114 51010 61000 72162 8553/ 90900 333 ////=
07070,1998-05-06 12:00:00,14,1011.6,0.3,67,8,10000,25.928,,,240,,,,,,,,,,3,wg-a,,,,AAXX 06124 07070 02660 82414 10140 20080 30008 40116 53003 61000 70362 872// 91200 333 ////=
07070,1998-05-06 15:00:00,14,1012.1,0.5,67,8,25000,29.632,,,250,,,,,,,,,,,wg-a,,,,AAXX 06154 07070 12675 82516 10140 20080 30013 40121 51005 60006 8687/ 91500=
07070,1998-05-06 18:00:00,13,1013.5,1.3,82,10,8000,22.224,,,250,9.6,15.3,,,,,,,,21,wg-a,,,,AAXX 06184 07070 02558 82512 10130 20100 30026 40135 53013 61000 72162 885// 91800 333 10153 20096 6100=
07070,1998-05-07 00:00:00,12,1015.7,0.7,88,10,10000,14.816,,,250,,,,,,,,,,2,wg-a,,,,AAXX 07004 07070 02560 72508 10120 20100 30048 40157 53007 61000 70262 875// 90000 333 ////=
07070,1998-05-07 03:00:00,12,1015.9,0.2,82,9,10000,18.52,,,230,,,,,,,,,,,wg-a,,,,AAXX 07034 07070 12660 72310 10120 20090 30050 40159 51002 60006 875// 90300=
07070,1998-05-07 06:00:00,12,1017.8,1.8,82,9,15000,14.816,,,220,11.5,12.8,,,,,,,,1,wg-a,,,,AAXX 07064 07070 02565 72208 10120 20090 30068 40178 53018 60006 70162 878// 90600 333 10128 20115 61000=
07070,1998-05-07 09:00:00,14,1019,1.3,67,8,25000,22.224,,,230,,,,,,,,,,,wg-a,,,,AAXX 07094 07070 12575 72312 10140 20080 30081 40190 51013 60006 878// 90900=
07070,1998-05-07 12:00:00,15,1019.2,0.2,63,8,16000,22.224,,,240,,,,,,,,,,,wg-a,,,,AAXX 07124 07070 12666 72412 10150 20080 30083 40192 51002 60006 875// 91200=
07070,1998-05-07 15:00:00,16,1019,-0.1,59,8,16000,25.928,,,250,,,,,,,,,,,wg-a,,,,AAXX 07154 07070 12666 72514 10160 20080 30082 40190 58001 60006 875// 91500=
07070,1998-05-07 18:00:00,16,1019.3,0.3,63,9,16000,11.112,,,240,11.8,17.3,,,,,,,,,wg-a,,,,AAXX 07184 07070 12666 /2406 10160 20090 30085 40193 53003 60006 81500 91800 333 10173 20118=
07070,1998-05-07 21:00:00,9,1020.8,1.2,87,7,15000,3.704,,,150,,,,,,,,,,,wg-a,,,,AAXX 07214 07070 12/65 01502 10090 20070 30097 40208 53012 60006 80000 92100=
07070,1998-05-08 00:00:00,7,1021.8,0.9,93,6,10000,0,,,0,,,,,,,,,,,wg-a,,,,AAXX 08004 07070 12/60 00000 10070 20060 30106 40218 52009 60006 80000 90000=
07070,1998-05-08 03:00:00,7,1021.8,-0,93,6,12000,3.704,,,280,,,,,,,,,,,wg-a,,,,AAXX 08034 07070 12/62 02802 10070 20060 30106 40218 55000 60006 80000 90300=
07070,1998-05-08 06:00:00,8,1022.6,0.8,100,8,6000,0,,,0,5.1,16.2,,,,,,,,,wg-a,,,,AAXX 08064 07070 02/56 /0000 10080 20080 30114 40226 53008 60006 80001 90600 333 10162 20051 60004=
07070,1998-05-08 09:00:00,18,1022.1,-0.1,73,13,12000,14.816,,,160,,,,0,,,,,,,wg-a,,,,AAXX 08094 07070 12/62 71608 10180 20130 30113 40221 55001 60007 80001 90900=
07070,1998-05-08 12:00:00,21,1021,-1,69,15,15000,18.52,,,160,,,,,,,,,,,wg-a,,,,AAXX 08124 07070 12/65 71610 10210 20150 30103 40210 57010 60006 80002 91200=
07070,1998-05-08 15:00:00,23,1019.8,-1.1,53,13,20000,18.52,,,150,,,,,,,,,,,wg-a,,,,AAXX 08154 07070 12/70 41510 10230 20130 30092 40198 58011 60006 80001 91500=
07070,1998-05-08 18:00:00,20,1019.7,-0.2,64,13,25000,7.408,,,170,7.8,23,,,,,,,,,wg-a,,,,AAXX 08184 07070 12/75 71704 10200 20130 30090 40197 55002 60006 80002 91800 333 10230 20078=
07070,1998-05-08 21:00:00,14,1020.5,0.6,82,11,25000,7.408,,,120,,,,,,,,,,,wg-a,,,,AAXX 08214 07070 12/75 51204 10140 20110 30096 40205 51006 60006 80002 92100=
07070,1998-05-09 00:00:00,14,1020.3,-0.2,82,11,25000,14.816,,,180,,,,,,,,,,,wg-a,,,,AAXX 09004 07070 12/75 71808 10140 20110 30094 40203 56002 60006 80002 90000=
07070,1998-05-09 03:00:00,11,1020.4,-0,87,9,25000,18.52,,,180,,,,,,,,,,,wg-a,,,,AAXX 09034 07070 12/75 71810 10110 20090 30094 40204 54000 60006 80002 90300=
07070,1998-05-09 06:00:00,13,1021.4,1,77,9,25000,14.816,,,190,11.1,19.6,,,,,,,,,wg-a,,,,AAXX 09064 07070 02/75 71908 10130 20090 30104 40214 52010 60006 80002 90600 333 10196 20111 60004=
07070,1998-05-09 09:00:00,18,1022.2,1,73,13,25000,11.112,,,180,,,,,,,,,,,wg-a,,,,AAXX 09094 07070 12/75 71806 10180 20130 30114 40222 51010 60006 80002 90900=
07070,1998-05-09 12:00:00,22,1022,0,60,14,20000,18.52,,,170,,,,,,,,,,,wg-a,,,,AAXX 09124 07070 12/70 11710 10220 20140 30114 40220 50000 60006 80002 91200=
07070,1998-05-09 15:00:00,24,1021,-1,54,14,20000,18.52,,,150,,,,,,,,,,,wg-a,,,,AAXX 09154 07070 12/70 21510 10240 20140 30104 40210 58010 60006 80002 91500=
07070,1998-05-09 18:00:00,21,1020.6,-0.4,73,16,20000,11.112,,,180,13,24.2,,,,,,,,,wg-a,,,,AAXX 09184 07070 12/70 31806 10210 20160 30100 40206 56004 60006 83031 91800 333 10242 20130=
07070,1998-05-10 00:00:00,13,1021.1,-0.3,94,12,20000,7.408,,,50,,,,,,,,,,,wg-a,,,,AAXX 10004 07070 12/70 20504 10130 20120 30101 40211 56003 60006 81031 90000=
07070,1998-05-10 03:00:00,11,1020.6,-0.5,94,10,15000,3.704,,,60,,,,,,,,,,,wg-a,,,,AAXX 10034 07070 12/65 10602 10110 20100 30096 40206 56005 60006 81030 90300=
07070,1998-05-10 06:00:00,13,1020.6,0.1,100,13,15000,7.408,,,60,9.4,21,,,,,,,,,wg-a,,,,AAXX 10064 07070 02/65 00604 10130 20130 30097 40206 52001 60006 80000 90600 333 10210 20094 60004=
07070,1998-05-10 09:00:00,22,1019.8,-0.5,73,17,15000,14.816,,,100,,,,,,,,,,,wg-a,,,,AAXX 10094 07070 12/65 01008 10220 20170 30092 40198 57005 60006 80000 90900=
07070,1998-05-10 12:00:00,26,1018,-1.7,48,14,20000,22.224,,,100,,,,,,,,,,,wg-a,,,,AAXX 10124 07070 12/70 01012 10260 20140 30075 40180 56017 60006 80000 91200=
07070,1998-05-10 15:00:00,26,1015.9,-2,51,15,20000,14.816,,,140,,,,,,,,,,,wg-a,,,,AAXX 10154 07070 12/70 01408 10260 20150 30055 40159 58020 60006 80000 91500=
07070,1998-05-10 18:00:00,23,1014.5,-1.5,73,18,20000,11.112,,,120,13.2,26.4,,,,,,,,,wg-a,,,,AAXX 10184 07070 12/70 21206 10230 20180 30040 40145 58015 60006 80001 91800 333 10264 20132=
07070,1998-05-10 21:00:00,17,1014.8,0.1,82,14,20000,3.704,,,130,,,,,,,,,,,wg-a,,,,AAXX 10214 07070 12/70 41302 10170 20140 30041 40148 53001 60006 80001 92100=
07070,1998-05-11 00:00:00,14,1014.5,-0.4,94,13,20000,3.704,,,100,,,,,,,,,,,wg-a,,,,AAXX 11004 07070 12/70 71002 10140 20130 30037 40145 58004 60006 80001 90000=
07070,1998-05-11 03:00:00,12,1014.1,-0.5,94,11,10000,0,,,0,,,,,,,,,,,wg-a,,,,AAXX 11034 07070 12/60 /0000 10120 20110 30032 40141 56005 60006 90300=
07070,1998-05-11 06:00:00,15,1014.2,0.2,94,14,10000,7.408,,,70,11.6,22.8,,,,,,,,,wg-a,,,,AAXX 11064 07070 02/60 20704 10150 20140 30034 40142 53002 60006 80001 90600 333 10228 20116 60004=
07070,1998-05-11 09:00:00,23,1014.1,0.2,61,15,14000,11.112,,,150,,,,,,,,,,,wg-a,,,,AAXX 11094 07070 12/64 11506 10230 20150 30036 40141 52002 60006 80001 90900=
07070,1998-05-11 12:00:00,26,1013.9,-0.1,61,18,16000,22.224,,,140,,,,,,,,,,,wg-a,,,,AAXX 11124 07070 12/66 11412 10260 20180 30035 40139 55001 60006 80001 91200=
07070,1998-05-11 15:00:00,26,1013.3,-0.6,58,17,16000,18.52,,,150,,,,,,,,,,,wg-a,,,,AAXX 11154 07070 12/66 11510 10260 20170 30029 40133 57006 60006 80001 91500=
07070,1998-05-11 18:00:00,24,1013.2,-0.2,57,15,18000,11.112,,,210,15.4,26.5,,,,,,,,,wg-a,,,,AAXX 11184 07070 12/68 12106 10240 20150 30027 40132 57002 60006 80001 91800 333 10265 20154=
07070,1998-05-11 21:00:00,17,1014.6,1.2,77,13,25000,0,,,0,,,,,,,,,,,wg-a,,,,AAXX 11214 07070 12/75 00000 10170 20130 30039 40146 52012 60006 80000 92100=
07070,1998-05-12 00:00:00,14,1015.3,0.5,88,12,25000,0,,,0,,,,,,,,,,,wg-a,,,,AAXX 12004 07070 12/75 00000 10140 20120 30044 40153 51005 60006 80000 90000=
07070,1998-05-12 03:00:00,11,1015.5,0.1,100,11,10000,3.704,,,60,,,,,,,,,,,wg-a,,,,AAXX 12034 07070 12/60 00602 10110 20110 30045 40155 50001 60006 80000 90300=
07070,1998-05-12 06:00:00,14,1016,0.7,100,14,8000,0,,,0,10.8,23.8,,,,,,,,,wg-a,,,,AAXX 12064 07070 02/58 00000 10140 20140 30052 40160 53007 60006 80000 90600 333 10238 20108 60004=
07070,1998-05-12 09:00:00,23,1016.5,0.8,78,19,9000,7.408,,,140,,,,,,,,,,,wg-a,,,,AAXX 12094 07070 12/59 /1404 10230 20190 30060 40165 51008 60006 90900=
07070,1998-05-12 12:00:00,27,1016.5,0.1,62,19,10000,11.112,,,70,,,,,,,,,,,wg-a,,,,AAXX 12124 07070 12/60 10706 10270 20190 30061 40165 53001 60006 80001 91200=
07070,1998-05-12 15:00:00,27,1016.4,-0.1,62,19,12000,11.112,,,160,,,,,,,,,,,wg-a,,,,AAXX 12154 07070 12662 21606 10270 20190 30060 40164 55001 60006 81101 91500=
07070,1998-05-12 18:00:00,25,1016.8,0.4,74,20,12000,7.408,,,140,14.5,28.1,,,,,,,,,wg-a,,,,AAXX 12184 07070 12662 21404 10250 20200 30064 40168 53004 60006 81201 91800 333 10281 20145=
07070,1998-05-12 21:00:00,19,1018.2,1.1,83,16,10000,0,,,0,,,,,,,,,,,wg-a,,,,AAXX 12214 07070 12760 30000 10190 20160 30075 40182 53011 60006 82131 92100=
07070,1998-05-13 00:00:00,15,1018.6,0.2,94,14,10000,3.704,,,10,,,,,,,,,,,wg-a,,,,AAXX 13004 07070 12/60 00102 10150 20140 30077 40186 52002 60006 80000 90000=
07070,1998-05-13 03:00:00,13,1018.6,0,100,13,7000,3.704,,,60,,,,,,,,,,,wg-a,,,,AAXX 13034 07070 12/57 00602 10130 20130 30077 40186 50000 60006 80000 90300=
07070,1998-05-13 06:00:00,16,1019,0.5,94,15,4000,11.112,,,40,12.7,25,,,,,,,,11,wg-a,,,,AAXX 13064 07070 02/40 /0406 10160 20150 30082 40190 52005 60006 71111 80001 90600 333 10250 20127 60004=
07070,1998-05-13 09:00:00,24,1019,0.3,69,18,8000,3.704,,,100,,,,,,,,,,,wg-a,,,,AAXX 13094 07070 12/58 31002 10240 20180 30085 40190 52003 60006 80001 90900=
07070,1998-05-13 12:00:00,29,1018.2,-0.6,48,17,10000,11.112,,,80,,,,,,,,,,,wg-a,,,,AAXX 13124 07070 12660 70806 10290 20170 30079 40182 56006 60006 81201 91200=
07070,1998-05-13 15:00:00,29,1017.1,-1.1,48,17,12000,14.816,,,70,,,,,,,,,,,wg-a,,,,AAXX 13154 07070 12762 /0708 10290 20170 30068 40171 58011 60006 81301 91500=
07070,1998-05-13 18:00:00,28,1016.7,-0.5,51,17,11000,3.704,,,60,16,29,,,,,,,,,wg-a,,,,AAXX 13184 07070 12/61 /0602 10280 20170 30063 40167 55005 60006 91800 333 10290 20160=
07070,1998-05-13 21:00:00,19,1017.8,0.8,83,16,12000,0,,,0,,,,,,,,,,,wg-a,,,,AAXX 13214 07070 12/62 70000 10190 20160 30071 40178 52008 60006 80001 92100=
07070,1998-05-14 00:00:00,16,1018,0.1,88,14,10000,3.704,,,50,,,,,,,,,,,wg-a,,,,AAXX 14004 07070 12/60 70502 10160 20140 30072 40180 53001 60006 80002 90000=
07070,1998-05-14 03:00:00,15,1018,-0.1,88,13,6000,0,,,0,,,,,,,,,,,wg-a,,,,AAXX 14034 07070 12/56 70000 10150 20130 30071 40180 55001 60006 80002 90300=
07070,1998-05-14 06:00:00,16,1018.5,0.6,94,15,4000,3.704,,,340,13.8,27.6,,,,,,,,10,wg-a,,,,AAXX 14064 07070 02/40 73402 10160 20150 30077 40185 53006 60006 71022 80002 90600 333 10276 20138 60004=
07070,1998-05-14 09:00:00,22,1018.5,0.2,78,18,500,18.52,,,80,,,,,,,,,,,wg-a,,,,AAXX 14094 07070 12/00 70810 10220 20180 30079 40185 51002 60006 80001 90900=
07070,1998-05-14 12:00:00,25,1018.2,-0.2,65,18,6000,11.112,,,60,,,,,,,,,,,wg-a,,,,AAXX 14124 07070 12556 30606 10250 20180 30077 40182 58002 60006 81101 91200=
07070,1998-05-14 15:00:00,27,1016.7,-1.4,54,17,9000,18.52,,,90,,,,,,,,,,,wg-a,,,,AAXX 14154 07070 12/59 /0910 10270 20170 30063 40167 56014 60006 91500=
07070,1998-05-14 18:00:00,23,1016.3,-0.5,83,20,9000,7.408,,,80,16.3,27.1,,,,,,,,,wg-a,,,,AAXX 14184 07070 12659 70804 10230 20200 30058 40163 58005 60006 81303 91800 333 10271 20163=
07070,1998-05-14 21:00:00,18,1018,1.5,88,16,8000,11.112,,,90,,,,,,,,,,,wg-a,,,,AAXX 14214 07070 12/58 /0906 10180 20160 30073 40180 53015 60006 80003 92100=
07070,1998-05-15 00:00:00,15,1018.6,0.4,94,14,10000,0,,,0,,,,,,,,,,,wg-a,,,,AAXX 15004 07070 12/60 00000 10150 20140 30077 40186 51004 60006 80000 90000=
07070,1998-05-15 03:00:00,11,1018.6,-0.1,100,11,15000,3.704,,,300,,,,,,,,,,,wg-a,,,,AAXX 15034 07070 12/65 13002 10110 20110 30076 40186 55001 60006 80001 90300=
07070,1998-05-15 06:00:00,13,1019.3,0.8,82,10,12000,3.704,,,70,9.6,23.1,,,,,,,,,wg-a,,,,AAXX 15064 07070 02/62 20702 10130 20100 30084 40193 53008 60006 80001 90600 333 10231 20096 60004=
07070,1998-05-15 09:00:00,19,1019.3,0.2,68,13,15000,14.816,,,70,,,,,,,,,,,wg-a,,,,AAXX 15094 07070 12/65 50708 10190 20130 30086 40193 51002 60006 80001 90900=
07070,1998-05-15 12:00:00,23,1018.2,-0.9,47,11,20000,18.52,,,90,,,,,,,,,,,wg-a,,,,AAXX 15124 07070 12/70 50910 10230 20110 30077 40182 56009 60006 80001 91200=
07070,1998-05-15 15:00:00,25,1016.9,-1.3,36,9,20000,14.816,,,60,,,,,,,,,,,wg-a,,,,AAXX 15154 07070 12/70 30608 10250 20090 30064 40169 58013 60006 80001 91500=
07070,1998-05-15 18:00:00,22,1016.3,-0.7,57,13,20000,7.408,,,70,12.9,24.7,,,,,,,,,wg-a,,,,AAXX 15184 07070 12/70 20704 10220 20130 30057 40163 56007 60006 80001 91800 333 10247 20129=
07070,1998-05-15 21:00:00,15,1017.6,1,82,12,20000,7.408,,,70,,,,,,,,,,,wg-a,,,,AAXX 15214 07070 12/70 20704 10150 20120 30067 40176 53010 60006 80001 92100=
07070,1998-05-16 03:00:00,9,1018.3,-0.1,93,8,15000,3.704,,,340,,,,,,,,,,,wg-a,,,,AAXX 16034 07070 12/65 23402 10090 20080 30072 40183 58001 60006 80001 90300=
07070,1998-05-16 06:00:00,11,1019.4,1.2,82,8,20000,3.704,,,360,8.1,22,,,,,,,,,wg-a,,,,AAXX 16064 07070 02/70 03602 10110 20080 30084 40194 52012 60006 80000 90600 333 10220 20081 60004=
07070,1998-05-16 09:00:00,19,1019.3,0.2,60,11,18000,14.816,,,90,,,,,,,,,,,wg-a,,,,AAXX 16094 07070 12568 /0908 10190 20110 30086 40193 50002 60006 81100 90900=
07070,1998-05-16 12:00:00,21,1018.7,-0.5,49,10,25000,18.52,,,70,,,,,,,,,,,wg-a,,,,AAXX 16124 07070 12675 /0710 10210 20100 30081 40187 58005 60006 81100 91200=
07070,1998-05-16 15:00:00,22,1017.7,-1,43,9,25000,18.52,,,50,,,,,,,,,,,wg-a,,,,AAXX 16154 07070 12775 30510 10220 20090 30071 40177 56010 60006 83400 91500=
07070,1998-05-16 18:00:00,22,1017.5,-0.2,50,11,25000,11.112,,,60,11.4,23,,,,,,,,,wg-a,,,,AAXX 16184 07070 12775 30606 10220 20110 30069 40175 55002 60006 83400 91800 333 10230 20114=
07070,1998-05-16 21:00:00,14,1019.5,1.7,82,11,20000,3.704,,,60,,,,,,,,,,,wg-a,,,,AAXX 16214 07070 12770 20602 10140 20110 30086 40195 51017 60006 82400 92100=
07070,1998-05-17 00:00:00,10,1020.2,0.5,87,8,20000,7.408,,,60,,,,,,,,,,,wg-a,,,,AAXX 17004 07070 12/70 00604 10100 20080 30091 40202 51005 60006 80000 90000=
07070,1998-05-17 03:00:00,7,1020.8,0.5,93,6,20000,7.408,,,50,,,,,,,,,,,wg-a,,,,AAXX 17034 07070 12/70 00504 10070 20060 30096 40208 51005 60006 80000 90300=
07070,1998-05-17 06:00:00,10,1022,1.3,87,8,15000,0,,,0,6.5,21.6,,,,,,,,,wg-a,,,,AAXX 17064 07070 02565 /0000 10100 20080 30109 40220 51013 60006 81500 90600 333 10216 20065 60004=
07070,1998-05-17 09:00:00,18,1022.4,0.7,56,9,15000,18.52,,,70,,,,,,,,,,,wg-a,,,,AAXX 17094 07070 12/65 00710 10180 20090 30116 40224 51007 60006 80000 90900=
07070,1998-05-17 12:00:00,21,1022.3,0,46,9,15000,18.52,,,80,,,,,,,,,,,wg-a,,,,AAXX 17124 07070 12765 10810 10210 20090 30116 40223 50000 60006 81100 91200=
07070,1998-05-17 15:00:00,22,1021.6,-0.6,43,9,15000,22.224,,,100,,,,,,,,,,,wg-a,,,,AAXX 17154 07070 12765 21012 10220 20090 30110 40216 58006 60006 82100 91500=
07070,1998-05-17 18:00:00,20,1021.6,-0.1,64,13,25000,11.112,,,110,10.2,22.2,,,,,,,,,wg-a,,,,AAXX 17184 07070 12775 21106 10200 20130 30109 40216 55001 60006 82500 91800 333 10222 20102=
07070,1998-05-17 21:00:00,13,1023.1,1.2,88,11,25000,3.704,,,20,,,,,,,,,,,wg-a,,,,AAXX 17214 07070 12775 10202 10130 20110 30121 40231 53012 60006 81500 92100=
07070,1998-05-18 00:00:00,11,1024.1,0.9,87,9,25000,0,,,0,,,,,,,,,,,wg-a,,,,AAXX 18004 07070 12/75 00000 10110 20090 30130 40241 51009 60006 80000 90000=
07070,1998-05-18 03:00:00,8,1024.6,0.4,93,7,10000,0,,,0,,,,,,,,,,,wg-a,,,,AAXX 18034 07070 12/60 /0000 10080 20070 30134 40246 51004 60006 90300=
07070,1998-05-18 06:00:00,12,1025.8,1.3,88,10,15000,3.704,,,50,6.8,19.5,,,,,,,,,wg-a,,,,AAXX 18064 07070 02/65 00502 10120 20100 30147 40258 53013 60006 80000 90600 333 10195 20068 60004=
07070,1998-05-18 09:00:00,19,1026.1,0.6,64,12,15000,11.112,,,60,,,,,,,,,,,wg-a,,,,AAXX 18094 07070 12/65 10606 10190 20120 30153 40261 51006 60006 80001 90900=
07070,1998-05-18 12:00:00,22,1025.3,-0.7,46,10,16000,14.816,,,50,,,,,,,,,,,wg-a,,,,AAXX 18124 07070 12766 20508 10220 20100 30146 40253 58007 60006 82100 91200=
07070,1998-05-18 15:00:00,23,1024.5,-0.8,38,8,20000,14.816,,,80,,,,,,,,,,,wg-a,,,,AAXX 18154 07070 12770 10808 10230 20080 30138 40245 58008 60006 81100 91500=
07070,1998-05-18 18:00:00,21,1024.2,-0.3,69,15,20000,7.408,,,120,11.8,22.7,,,,,,,,,wg-a,,,,AAXX 18184 07070 12770 11204 10210 20150 30135 40242 56003 60006 81400 91800 333 10227 20118=
07070,1998-05-18 21:00:00,15,1025.2,0.8,77,11,20000,0,,,0,,,,,,,,,,,wg-a,,,,AAXX 18214 07070 12770 20000 10150 20110 30143 40252 53008 60006 82500 92100=
07070,1998-05-19 00:00:00,11,1025.7,0.3,87,9,10000,0,,,0,,,,,,,,,,,wg-a,,,,AAXX 19004 07070 12/60 00000 10110 20090 30146 40257 51003 60006 80000 90000=
07070,1998-05-19 03:00:00,8,1025.8,-0,93,7,10000,0,,,0,,,,,,,,,,,wg-a,,,,AAXX 19034 07070 12/60 00000 10080 20070 30146 40258 55000 60006 80000 90300=
07070,1998-05-19 06:00:00,11,1026.3,0.6,100,11,6000,0,,,0,7,20.7,,,,,,,,,wg-a,,,,AAXX 19064 07070 02/56 00000 10110 20110 30152 40263 51006 60006 80000 90600 333 10207 20070 60004=
07070,1998-05-19 09:00:00,19,1025.8,-0.2,68,13,9000,7.408,,,40,,,,,,,,,,,wg-a,,,,AAXX 19094 07070 12/59 00404 10190 20130 30150 40258 58002 60006 80000 90900=
07070,1998-05-19 12:00:00,23,1024.4,-1.2,44,10,18000,14.816,,,90,,,,,,,,,,,wg-a,,,,AAXX 19124 07070 12668 /0908 10230 20100 30138 40244 58012 60006 81100 91200=
07070,1998-05-19 15:00:00,24,1022.8,-1.6,50,13,20000,3.704,,,50,,,,,,,,,,,wg-a,,,,AAXX 19154 07070 12770 40502 10240 20130 30122 40228 56016 60006 84400 91500=
07070,1998-05-19 18:00:00,23,1022,-0.8,50,12,14000,14.816,,,30,11.2,24.7,,,,,,,,,wg-a,,,,AAXX 19184 07070 12764 10308 10230 20120 30114 40220 56008 60006 81400 91800 333 10247 20112=
07070,1998-05-19 21:00:00,17,1022.6,0.4,68,11,15000,11.112,,,20,,,,,,,,,,,wg-a,,,,AAXX 19214 07070 12765 10206 10170 20110 30118 40226 51004 60006 81400 92100=
07070,1998-05-20 00:00:00,12,1022.9,0.1,88,10,15000,3.704,,,250,,,,,,,,,,,wg-a,,,,AAXX 20004 07070 12/65 02502 10120 20100 30119 40229 53001 60006 80000 90000=
07070,1998-05-20 06:00:00,11,1022.5,-0,94,10,500,7.408,,,330,7.9,22.5,,,,,,,,,wg-a,,,,AAXX 20064 07070 02800 /3304 10110 20100 30115 40225 55000 60006 82031 90600 333 10225 20079 60004=
07070,1998-05-20 09:00:00,19,1021.6,-0.6,60,11,11000,14.816,,,20,,,,,,,,,,,wg-a,,,,AAXX 20094 07070 12/61 30208 10190 20110 30109 40216 58006 60006 80001 90900=
07070,1998-05-20 12:00:00,22,1020.6,-0.9,46,10,11000,14.816,,31.484,10,,,,,,,,,,,wg-a,,,,AAXX 20124 07070 12761 20108 10220 20100 30100 40206 58009 60006 81201 91200 333 91017=
07070,1998-05-20 15:00:00,23,1019.8,-0.8,47,11,12000,18.52,,,20,,,,,,,,,,,wg-a,,,,AAXX 20154 07070 12762 30210 10230 20110 30092 40198 58008 60006 81201 91500=
07070,1998-05-20 18:00:00,21,1019,-0.8,56,12,12000,18.52,,,360,11.3,23.4,,,,,,,,,wg-a,,,,AAXX 20184 07070 12762 23610 10210 20120 30084 40190 56008 60006 81101 91800 333 10234 20113=
07070,1998-05-20 21:00:00,15,1020,0.7,82,12,500,14.816,,,350,,,,,,,,,,,wg-a,,,,AAXX 20214 07070 12/00 03508 10150 20120 30091 40200 53007 60006 80000 92100=
07070,1998-05-21 00:00:00,12,1020.1,-0,94,11,500,3.704,,,290,,,,,,,,,,,wg-a,,,,AAXX 21004 07070 12/00 02902 10120 20110 30091 40201 55000 60006 80000 90000=
07070,1998-05-21 03:00:00,11,1019.8,-0.3,94,10,3000,0,,,0,,,,,,,,,,10,wg-a,,,,AAXX 21034 07070 12/30 00000 10110 20100 30088 40198 55003 60006 71000 80000 90300=
07070,1998-05-21 06:00:00,12,1020,0.2,94,11,1500,3.704,,,350,9.3,21.2,,,,,,,,10,wg-a,,,,AAXX 21064 07070 02/15 73502 10120 20110 30090 40200 50002 60006 71011 81031 90600 333 10212 20093 60004=
07070,1998-05-21 09:00:00,18,1019.7,-0.1,59,10,3500,7.408,,,350,,,,,,,,,,10,wg-a,,,,AAXX 21094 07070 12/35 83504 10180 20100 30089 40197 57001 60006 71022 84077 90900=
07070,1998-05-21 12:00:00,20,1019,-0.6,56,11,0,14.816,,,320,,,,,,,,,,,wg-a,,,,AAXX 21124 07070 126// 83208 10200 20110 30083 40190 58006 60006 8727/ 91200=
07070,1998-05-21 15:00:00,18,1018.8,-0.2,73,13,7000,25.928,,,360,,,,,,,,,,3,wg-a,,,,AAXX 21154 07070 02657 83614 10180 20130 30081 40188 56002 61000 70386 872// 91500 333 ////=
07070,1998-05-21 18:00:00,15,1020.2,1.2,77,11,8000,22.224,,,20,11.8,20.7,,,,,,,,1,wg-a,,,,AAXX 21184 07070 12658 70212 10150 20110 30093 40202 51012 60006 70186 83471 91800 333 10207 20118=
07070,1998-05-21 21:00:00,12,1022.2,1.9,67,6,8000,18.52,,,10,,,,,,,,,,,wg-a,,,,AAXX 21214 07070 12658 70110 10120 20060 30112 40222 53019 60006 85571 92100=
07070,1998-05-22 00:00:00,8,1023.2,0.8,87,6,10000,14.816,,,340,,,,,,,,,,,wg-a,,,,AAXX 22004 07070 12/60 03408 10080 20060 30120 40232 51008 60006 80000 90000=
07070,1998-05-22 03:00:00,5,1023.5,0.2,93,4,8000,0,,,0,,,,,,,,,,,wg-a,,,,AAXX 22034 07070 12/58 /0000 10050 20040 30122 40235 53002 60006 80002 90300=
07070,1998-05-22 06:00:00,7,1024.6,1.2,100,7,7000,7.408,,,360,3.9,15.4,,,,,,,,,wg-a,,,,AAXX 22064 07070 02457 73604 10070 20070 30134 40246 53012 60006 828// 90600 333 10154 20039 61000=
07070,1998-05-22 09:00:00,11,1024.8,0.3,71,6,12000,11.112,,,10,,,,,,,,,,,wg-a,,,,AAXX 22094 07070 12562 70106 10110 20060 30137 40248 52003 60006 878// 90900=
07070,1998-05-22 12:00:00,13,1024.4,-0.3,54,4,12000,14.816,,,20,,,,,,,,,,,wg-a,,,,AAXX 22124 07070 12662 70208 10130 20040 30134 40244 58003 60006 878// 91200=
07070,1998-05-22 15:00:00,13,1024,-0.4,58,5,11000,18.52,,,30,,,,,,,,,,,wg-a,,,,AAXX 22154 07070 32/61 /0310 10130 20050 30130 40240 58004 91500=
07070,1998-05-22 18:00:00,13,1023.9,-0.1,58,5,10000,11.112,,,30,7.3,13.6,,,,,,,,,wg-a,,,,AAXX 22184 07070 12660 70306 10130 20050 30129 40239 58001 60006 878// 91800 333 10136 20073=
07070,1998-05-22 21:00:00,11,1024.3,0.3,76,7,15000,7.408,,,30,,,,,,,,,,,wg-a,,,,AAXX 22214 07070 12665 70304 10110 20070 30132 40243 51003 60006 875// 92100=
07070,1998-05-23 00:00:00,6,1024.3,-0.2,87,4,15000,7.408,,,350,,,,,,,,,,,wg-a,,,,AAXX 23004 07070 12665 /3504 10060 20040 30130 40243 58002 60006 81500 90000=
07070,1998-05-23 06:00:00,7,1023.7,0,87,5,7000,7.408,,,350,3.5,12.6,,,,,,,,,wg-a,,,,AAXX 23064 07070 02/57 03504 10070 20050 30124 40237 50000 60006 80000 90600 333 10126 20035 60004=
07070,1998-05-23 09:00:00,13,1023,-0.4,62,6,8000,11.112,,,30,,,,,,,,,,,wg-a,,,,AAXX 23094 07070 12558 /0306 10130 20060 30120 40230 58004 60006 85200 90900=
07070,1998-05-23 12:00:00,15,1021.6,-1.3,55,6,15000,14.816,,,340,,,,,,,,,,,wg-a,,,,AAXX 23124 07070 12665 /3408 10150 20060 30107 40216 58013 60006 85500 91200=
07070,1998-05-23 15:00:00,17,1019.6,-1.9,48,6,15000,14.816,,,10,,,,,,,,,,,wg-a,,,,AAXX 23154 07070 12665 /0108 10170 20060 30088 40196 57019 60006 85200 91500=
07070,1998-05-23 18:00:00,16,1018.8,-0.9,55,7,20000,18.52,,,350,6.5,17.6,,,,,,,,,wg-a,,,,AAXX 23184 07070 12670 /3510 10160 20070 30079 40188 57009 60006 86800 91800 333 10176 20065=
07070,1998-05-23 21:00:00,13,1018.6,-0.2,77,9,15000,3.704,,,30,,,,,,,,,,,wg-a,,,,AAXX 23214 07070 12665 70302 10130 20090 30077 40186 56002 60006 875// 92100=
07070,1998-05-24 00:00:00,12,1017.7,-1,94,11,8000,3.704,,,50,,,,,,,,,,60,wg-a,,,,AAXX 24004 07070 02658 80502 10120 20110 30067 40177 58010 61000 76062 885// 90000 333 6100=
07070,1998-05-24 06:00:00,11,1015.9,-0.6,100,11,1000,3.704,,,300,11,15.5,,,,,,,,10,wg-a,,,,AAXX 24064 07070 02510 83002 10110 20110 30049 40159 56006 61000 71062 885// 90600 333 10155 20110 6000=
07070,1998-05-24 09:00:00,13,1015.9,0.1,88,11,2200,7.408,,,320,,,,0,,,,,,10,wg-a,,,,AAXX 24094 07070 12422 83204 10130 20110 30050 40159 51001 60007 71062 885// 90900=
07070,1998-05-24 12:00:00,15,1015.2,-0.6,77,11,4000,3.704,,,310,,,,,,,,,,10,wg-a,,,,AAXX 24124 07070 02440 73102 10150 20110 30044 40152 58006 60006 71062 878// 91200 333 61000=
07070,1998-05-24 15:00:00,15,1014,-1.2,88,13,4000,11.112,,,310,,,,1,,,,,,10,wg-a,,,,AAXX 24154 07070 12540 73106 10150 20130 30032 40140 58012 60017 71086 878// 91500=
07070,1998-05-24 18:00:00,16,1013.5,-0.5,68,10,15000,14.816,,,340,11.3,16.6,,,,,,,,3,wg-a,,,,AAXX 24184 07070 12665 /3408 10160 20100 30027 40135 56005 60006 70386 86830 91800 333 10166 20113=
07070,1998-05-24 21:00:00,13,1014.2,0.6,88,11,15000,7.408,,,320,,,,,,,,,,,wg-a,,,,AAXX 24214 07070 12765 53204 10130 20110 30033 40142 53006 60006 85530 92100=
07070,1998-05-25 00:00:00,12,1013.5,-0.7,94,11,10000,3.704,,,310,,,,,,,,,,,wg-a,,,,AAXX 25004 07070 12660 73102 10120 20110 30026 40135 58007 60006 875// 90000=
07070,1998-05-25 03:00:00,12,1012.3,-1.2,94,11,7000,7.408,,,250,,,,,,,,,,,wg-a,,,,AAXX 25034 07070 12657 72504 10120 20110 30014 40123 58012 60006 875// 90300=
07070,1998-05-25 06:00:00,12,1012.1,-0.2,94,11,4500,11.112,,,260,11.3,15.6,,,,,1,,,10,wg-a,,,,AAXX 25064 07070 02545 72606 10120 20110 30012 40121 58002 60006 71022 8753/ 90600 333 10156 20113 60014=
07070,1998-05-25 09:00:00,17,1011.5,-0.4,72,12,6000,14.816,,,280,,,,,,,,,,,wg-a,,,,AAXX 25094 07070 12456 72808 10170 20120 30008 40115 57004 60006 8423/ 90900=
07070,1998-05-25 12:00:00,19,1010.4,-1,64,12,12000,18.52,,,260,,,,,,,,,,,wg-a,,,,AAXX 25124 07070 12562 72610 10190 20120 39998 40104 58010 60006 878// 91200=
07070,1998-05-25 15:00:00,20,1009.1,-1.3,53,10,12000,25.928,,,260,,,,,,,,,,,wg-a,,,,AAXX 25154 07070 12662 52614 10200 20100 39985 40091 56013 60006 81231 91500=
07070,1998-05-25 18:00:00,18,1008.2,-1,64,11,15000,14.816,,,330,12.3,20.1,,,,,,,,,wg-a,,,,AAXX 25184 07070 12665 43308 10180 20110 39975 40082 56010 60006 84200 91800 333 10201 20123=
07070,1998-05-25 21:00:00,15,1008.7,0.5,72,10,15000,14.816,,,340,,,,,,,,,,,wg-a,,,,AAXX 25214 07070 12665 83408 10150 20100 39980 40087 53005 60006 884// 92100=
07070,1998-05-26 00:00:00,14,1008.1,-0.7,82,11,15000,3.704,,,270,,,,0,,,,,,,wg-a,,,,AAXX 26004 07070 02665 82702 10140 20110 39973 40081 58007 60016 888// 90000 333 60007=
07070,1998-05-26 03:00:00,12,1007.4,-0.7,94,11,12000,0,,,0,,,,,,,,,,,wg-a,,,,AAXX 26034 07070 12662 70000 10120 20110 39966 40074 57007 60006 878// 90300=
07070,1998-05-26 06:00:00,13,1007.2,-0.2,88,11,10000,7.408,,,200,10.6,17.5,,,,,,,,,wg-a,,,,AAXX 26064 07070 02660 72004 10130 20110 39964 40072 55002 60006 875// 90600 333 10175 20106 60004=
07070,1998-05-26 09:00:00,15,1007.1,0,77,11,15000,11.112,,,240,,,,,,,,,,,wg-a,,,,AAXX 26094 07070 12465 72406 10150 20110 39964 40071 50000 60006 878// 90900=
07070,1998-05-26 12:00:00,16,1006.5,-0.6,77,12,8000,22.224,,,300,,,,,,,,,,80,wg-a,,,,AAXX 26124 07070 02658 73012 10160 20120 39958 40065 56006 61000 78086 878// 91200 333 6100=
07070,1998-05-26 15:00:00,18,1005.9,-0.5,64,11,15000,18.52,,,240,,,,0,,,,,,25,wg-a,,,,AAXX 26154 07070 12565 32410 10180 20110 39953 40059 58005 60007 72586 81901 91500=
07070,1998-05-26 18:00:00,14,1006.3,0.2,88,12,8000,14.816,,,230,12.5,19,,6,,,,,,,wg-a,,,,AAXX 26184 07070 02/58 /2308 10140 20120 39955 40063 53002 60006 91800 333 10190 20125 60067=
07070,1998-05-26 21:00:00,13,1007,0.7,94,12,10000,11.112,,,210,,,,,,,,,,3,wg-a,,,,AAXX 26214 07070 02560 72106 10130 20120 39962 40070 51007 61000 70386 878// 92100 333 ////=
07070,1998-05-27 00:00:00,12,1006.8,-0.3,94,11,15000,7.408,,,170,,,,,,,,,,1,wg-a,,,,AAXX 27004 07070 02565 61704 10120 20110 39959 40068 58003 61000 70186 86800 90000 333 ////=
07070,1998-05-27 03:00:00,10,1006.4,-0.4,100,10,6000,7.408,,,20,,,,,,,,,,,wg-a,,,,AAXX 27034 07070 12656 /0204 10100 20100 39955 40064 56004 60006 86400 90300=
07070,1998-05-27 06:00:00,12,1006.8,0.5,94,11,4500,11.112,,,210,9.8,13.7,,,,,6,,,10,wg-a,,,,AAXX 27064 07070 02345 72106 10120 20110 39960 40068 53005 60006 71011 86502 90600 333 10137 20098 60064=
07070,1998-05-27 09:00:00,15,1007.1,0.4,82,12,12000,14.816,,,220,,,,,,,,,,,wg-a,,,,AAXX 27094 07070 12462 72208 10150 20120 39964 40071 50004 60006 8628/ 90900=
07070,1998-05-27 12:00:00,18,1006.4,-0.6,68,12,20000,22.224,,,200,,,,1,,,,,,1,wg-a,,,,AAXX 27124 07070 02570 42012 10180 20120 39958 40064 58006 60016 70186 82932 91200 333 60017=
07070,1998-05-27 15:00:00,18,1006.1,-0.3,64,11,25000,18.52,,,280,,,,,,,,,,25,wg-a,,,,AAXX 27154 07070 02675 72810 10180 20110 39955 40061 55003 61000 72511 86232 91500 333 ////=
07070,1998-05-27 18:00:00,16,1006,-0.2,88,14,8000,7.408,,,90,12,19.2,,,,,,,,80,wg-a,,,,AAXX 27184 07070 02658 70904 10160 20140 39953 40060 55002 61000 78086 849// 91800 333 10192 20120 6100=
07070,1998-05-27 21:00:00,12,1006.8,0.6,88,10,500,11.112,,,40,,,,4,,,,,,81,wg-a,,,,AAXX 27214 07070 12500 80406 10120 20100 39959 40068 53006 60047 78198 888// 92100=
07070,1998-05-28 00:00:00,10,1006.9,0.1,100,10,10000,0,,,0,,,,,,,,,,1,wg-a,,,,AAXX 28004 07070 02760 50000 10100 20100 39960 40069 50001 60046 70198 85500 90000 333 61000=
07070,1998-05-28 03:00:00,11,1006.1,-0.8,100,11,7000,3.704,,,190,,,,0,,,,,,,wg-a,,,,AAXX 28034 07070 12757 71902 10110 20110 39952 40061 56008 60007 875// 90300=
07070,1998-05-28 06:00:00,12,1006.7,0.7,100,12,7000,7.408,,,90,9,16.4,,,,,5,,,,wg-a,,,,AAXX 28064 07070 02557 70904 10120 20120 39959 40067 51007 60006 82872 90600 333 10164 20090 60054=
07070,1998-05-28 09:00:00,16,1006.7,0.1,82,13,6000,3.704,,,40,,,,,,,,,,,wg-a,,,,AAXX 28094 07070 12456 70402 10160 20130 39960 40067 53001 60006 878// 90900=
07070,1998-05-28 12:00:00,16,1006,-0.7,88,14,7000,3.704,,,110,,,,1,,,,,,60,wg-a,,,,AAXX 28124 07070 02357 81102 10160 20140 39953 40060 58007 60016 76062 8587/ 91200 333 60017=
07070,1998-05-28 15:00:00,16,1006.2,0.2,82,13,12000,14.816,,,280,,,,1,,,,,,1,wg-a,,,,AAXX 28154 07070 12462 72808 10160 20130 39955 40062 53002 60017 70162 878// 91500=
07070,1998-05-28 18:00:00,16,1006.8,0.6,82,13,12000,0,,,0,11.9,16,,,,,,,,1,wg-a,,,,AAXX 28184 07070 12462 70000 10160 20130 39961 40068 51006 60006 70162 8387/ 91800 333 10160 20119=
07070,1998-05-28 21:00:00,14,1008.3,1.4,100,14,8000,3.704,,,70,,,,0,,,,,,61,wg-a,,,,AAXX 28214 07070 12458 80702 10140 20140 39975 40083 51014 60007 76162 8547/ 92100=
07070,1998-05-29 00:00:00,12,1008.9,0.5,100,12,12000,11.112,,,170,,,,,,,,,,1,wg-a,,,,AAXX 29004 07070 02762 71706 10120 20120 39980 40089 51005 60006 70162 835/2 90000 333 61000=
07070,1998-05-29 03:00:00,10,1009.9,0.9,93,9,3500,11.112,,,180,,,,0,,,,,,10,wg-a,,,,AAXX 29034 07070 12535 /1806 10100 20090 39989 40099 53009 60007 71011 81501 90300=
07070,1998-05-29 06:00:00,12,1011.5,1.7,100,12,500,3.704,,,250,8.8,15.8,,,,,2,,,,wg-a,,,,AAXX 29064 07070 02300 /2502 10120 20120 30006 40115 53017 60006 81101 90600 333 10158 20088 60024=
07070,1998-05-29 09:00:00,16,1013,1.6,63,9,18000,7.408,,,270,,,,,,,,,,,wg-a,,,,AAXX 29094 07070 12568 /2704 10160 20090 30022 40130 51016 60006 81102 90900=
07070,1998-05-29 12:00:00,19,1013.3,0.4,46,7,25000,7.408,,,270,,,,,,,,,,,wg-a,,,,AAXX 29124 07070 12675 32704 10190 20070 30026 40133 51004 60006 81202 91200=
07070,1998-05-29 15:00:00,21,1013.1,-0.1,43,8,25000,14.816,,,260,,,,,,,,,,,wg-a,,,,AAXX 29154 07070 12775 32608 10210 20080 30025 40131 55001 60006 83200 91500=
07070,1998-05-29 18:00:00,20,1013.4,0.3,46,8,25000,3.704,,,50,11.6,20.9,,,,,,,,,wg-a,,,,AAXX 29184 07070 12775 10502 10200 20080 30028 40134 52003 60006 81200 91800 333 10209 20116=
07070,1998-05-29 21:00:00,13,1014.3,0.6,88,11,25000,3.704,,,70,,,,,,,,,,,wg-a,,,,AAXX 29214 07070 12/75 10702 10130 20110 30034 40143 53006 60006 80001 92100=
07070,1998-05-30 00:00:00,10,1014.7,0.3,93,9,25000,3.704,,,80,,,,,,,,,,,wg-a,,,,AAXX 30004 07070 12/75 00802 10100 20090 30037 40147 50003 60006 80000 90000=
07070,1998-05-30 03:00:00,8,1014.1,-0.7,93,7,15000,7.408,,,60,,,,,,,,,,,wg-a,,,,AAXX 30034 07070 12/65 00604 10080 20070 30030 40141 58007 60006 80000 90300=
07070,1998-05-30 06:00:00,12,1013.9,-0,94,11,7000,11.112,,,80,7.7,19.9,,,,,,,,,wg-a,,,,AAXX 30064 07070 02/57 00806 10120 20110 30030 40139 54000 60006 80000 90600 333 10199 20077 60004=
07070,1998-05-30 09:00:00,19,1012.4,-1.2,73,14,10000,18.52,,,100,,,,,,,,,,,wg-a,,,,AAXX 30094 07070 12560 /1010 10190 20140 30018 40124 56012 60006 81100 90900=
07070,1998-05-30 12:00:00,22,1010.9,-1.4,60,14,12000,22.224,,,110,,,,,,,,,,,wg-a,,,,AAXX 30124 07070 12662 /1112 10220 20140 30004 40109 58014 60006 85200 91200=
07070,1998-05-30 15:00:00,23,1008.9,-2,53,13,15000,14.816,,,100,,,,,,,,,,,wg-a,,,,AAXX 30154 07070 12765 31008 10230 20130 39984 40089 56020 60006 83200 91500=
07070,1998-05-30 18:00:00,22,1008,-0.9,65,15,15000,11.112,,,130,12.1,23.9,,,,,,,,,wg-a,,,,AAXX 30184 07070 12765 61306 10220 20150 39975 40080 56009 60006 83831 91800 333 10239 20121=
07070,1998-05-30 21:00:00,15,1009.2,0.9,88,13,15000,14.816,,,170,,,,,,,,,,,wg-a,,,,AAXX 30214 07070 12865 51708 10150 20130 39984 40092 53009 60006 835/1 92100=
07070,1998-05-31 00:00:00,15,1010.8,1.6,94,14,10000,7.408,,,240,,,,1,,,,,,21,wg-a,,,,AAXX 31004 07070 02460 72404 10150 20140 30000 40108 51016 60016 72162 878// 90000 333 60017=
07070,1998-05-31 03:00:00,14,1011.7,0.9,94,13,12000,11.112,,,230,,,,,,,,,,,wg-a,,,,AAXX 31034 07070 12462 /2306 10140 20130 30009 40117 53009 60006 86801 90300=
07070,1998-05-31 06:00:00,14,1012.3,0.6,88,12,12000,14.816,,,240,13.8,21.6,,,,,1,,,,wg-a,,,,AAXX 31064 07070 02462 72408 10140 20120 30015 40123 53006 60006 86831 90600 333 10216 20138 60014=
07070,1998-05-31 09:00:00,16,1012.4,0.1,68,10,15000,7.408,,,240,,,,,,,,,,,wg-a,,,,AAXX 31094 07070 12565 72404 10160 20100 30016 40124 50001 60006 8687/ 90900=
07070,1998-05-31 12:00:00,15,1013,0.6,88,13,10000,14.816,,,270,,,,,,,,,,61,wg-a,,,,AAXX 31124 07070 02560 82708 10150 20130 30022 40130 52006 61000 76162 878// 91200 333 6100=
07070,1998-05-31 15:00:00,17,1012.4,-0.5,63,10,25000,7.408,,,270,,,,0,,,,,,1,wg-a,,,,AAXX 31154 07070 12575 72704 10170 20100 30017 40124 57005 60007 70162 83232 91500=
07070,1998-05-31 18:00:00,17,1012.2,-0.2,68,11,25000,3.704,,,230,14,17.1,,,,,,,,1,wg-a,,,,AAXX 31184 07070 12675 72302 10170 20110 30015 40122 55002 60006 70162 81832 91800 333 10171 20140=
07070,1998-05-31 21:00:00,12,1013.7,1.3,94,11,20000,11.112,,,180,,,,,,,,,,,wg-a,,,,AAXX 31214 07070 12770 71806 10120 20110 30028 40137 53013 60006 81432 92100=
07070,1998-06-01 00:00:00,11,1014.5,0.7,100,11,20000,3.704,,,170,,,,,,,,,,,wg-a,,,,AAXX 01004 07070 12/70 71702 10110 20110 30035 40145 53007 60006 84032 90000=
07070,1998-06-01 03:00:00,8,1014.4,-0.2,100,8,20000,7.408,,,190,,,,,,,,,,,wg-a,,,,AAXX 01034 07070 12/70 11904 10080 20080 30033 40144 55002 60006 81032 90300=
07070,1998-06-01 06:00:00,13,1014.8,0.6,94,12,12000,7.408,,,160,7.7,16.6,,,,,1,,,,wg-a,,,,AAXX 01064 07070 02/62 01604 10130 20120 30039 40148 53006 60006 80000 90600 333 10166 20077 60014=
07070,1998-06-01 09:00:00,18,1014.5,-0.1,59,10,12000,11.112,,,140,,,,,,,,,,,wg-a,,,,AAXX 01094 07070 12662 41406 10180 20100 30038 40145 58001 60006 84101 90900=
07070,1998-06-01 12:00:00,20,1013.4,-1,53,10,15000,14.816,,,150,,,,,,,,,,,wg-a,,,,AAXX 01124 07070 12665 51508 10200 20100 30028 40134 56010 60006 84201 91200=
07070,1998-06-01 15:00:00,21,1012,-1.4,56,12,15000,18.52,,,150,,,,,,,,,,,wg-a,,,,AAXX 01154 07070 12765 71510 10210 20120 30014 40120 58014 60006 82132 91500=
07070,1998-06-01 18:00:00,20,1010.6,-1.4,64,13,20000,14.816,,,130,12.9,21,,,,,,,,,wg-a,,,,AAXX 01184 07070 12770 71308 10200 20130 30000 40106 56014 60006 82532 91800 333 10210 20129=
07070,1998-06-01 21:00:00,16,1009.9,-0.8,72,11,25000,14.816,,,110,,,,,,,,,,,wg-a,,,,AAXX 01214 07070 12775 71108 10160 20110 39992 40099 57008 60006 8353/ 92100=
07070,1998-06-02 00:00:00,15,1009.1,-0.8,94,14,20000,11.112,,,150,,,,,,,,,,60,wg-a,,,,AAXX 02004 07070 02770 81506 10150 20140 39984 40091 58008 61000 76062 8552/ 90000 333 6100=
07070,1998-06-02 03:00:00,16,1008.6,-0.5,94,15,4500,0,,,0,,,,4,,,,,,61,wg-a,,,,AAXX 02034 07070 12345 80000 10160 20150 39979 40086 55005 60047 76162 875// 90300=
07070,1998-06-02 06:00:00,17,1008.3,-0.3,94,16,500,14.816,,,180,14.5,19.4,,,,,4,,,3,wg-a,,,,AAXX 02064 07070 02400 71808 10170 20160 39976 40083 56003 60006 70362 875// 90600 333 10194 20145 60044=
07070,1998-06-02 09:00:00,20,1008.6,0.4,78,16,16000,22.224,,,220,,,,,,,,,,,wg-a,,,,AAXX 02094 07070 12466 72212 10200 20160 39980 40086 51004 60006 872// 90900=
07070,1998-06-02 12:00:00,22,1008.8,0.3,69,16,20000,31.484,,,250,,,,,,,,,,,wg-a,,,,AAXX 02124 07070 12670 72517 10220 20160 39983 40088 52003 60006 83201 91200=
07070,1998-06-02 15:00:00,19,1009.7,0.8,78,15,12000,25.928,,,230,,,,,,,,,,25,wg-a,,,,AAXX 02154 07070 02562 72314 10190 20150 39991 40097 50008 61000 72586 879// 91500 333 ////=
07070,1998-06-02 18:00:00,20,1009.6,-0.1,68,14,25000,22.224,,,230,16.5,23.6,,,,,,,,3,wg-a,,,,AAXX 02184 07070 12575 72312 10200 20140 39990 40096 55001 60006 70386 8596/ 91800 333 10236 20165=
07070,1998-06-02 21:00:00,17,1011.1,1.4,88,15,20000,14.816,,,220,,,,0,,,,,,,wg-a,,,,AAXX 02214 07070 12570 72208 10170 20150 30004 40111 53014 60007 8487/ 92100=
07070,1998-06-03 00:00:00,14,1013.5,2.3,94,13,15000,11.112,,,250,,,,,,,,,,,wg-a,,,,AAXX 03004 07070 12765 52506 10140 20130 30027 40135 51023 60006 83570 90000=
07070,1998-06-03 03:00:00,10,1014.7,1,93,9,10000,7.408,,,130,,,,,,,,,,,wg-a,,,,AAXX 03034 07070 12760 21304 10100 20090 30037 40147 51010 60006 81570 90300=
07070,1998-06-03 06:00:00,14,1016,1.4,82,11,15000,11.112,,,250,9.4,19.9,,,,,,,,,wg-a,,,,AAXX 03064 07070 02/65 02506 10140 20110 30051 40160 51014 60006 80000 90600 333 10199 20094 60004=
07070,1998-06-03 09:00:00,17,1016.9,1,68,11,15000,18.52,,,220,,,,,,,,,,,wg-a,,,,AAXX 03094 07070 12565 32210 10170 20110 30061 40169 51010 60006 83200 90900=
07070,1998-06-03 12:00:00,20,1016.2,-0.5,56,11,20000,22.224,,,220,,,,,,,,,,,wg-a,,,,AAXX 03124 07070 12670 42212 10200 20110 30056 40162 57005 60006 84200 91200=
07070,1998-06-03 15:00:00,21,1015.6,-0.6,56,12,20000,25.928,,,230,,,,,,,,,,,wg-a,,,,AAXX 03154 07070 12670 52314 10210 20120 30050 40156 56006 60006 83201 91500=
07070,1998-06-03 18:00:00,21,1015.4,-0.2,53,11,25000,22.224,,,240,13.6,21.8,,,,,,,,,wg-a,,,,AAXX 03184 07070 12675 /2412 10210 20110 30048 40154 55002 60006 81100 91800 333 10218 20136=
07070,1998-06-03 21:00:00,15,1017,1.4,82,12,20000,7.408,,,220,,,,,,,,,,,wg-a,,,,AAXX 03214 07070 12870 22204 10150 20120 30062 40170 53014 60006 81501 92100=
07070,1998-06-04 00:00:00,13,1018.3,1.2,88,11,20000,3.704,,,340,,,,,,,,,,,wg-a,,,,AAXX 04004 07070 12770 43402 10130 20110 30074 40183 53012 60006 81531 90000=
07070,1998-06-04 03:00:00,10,1018.9,0.4,93,9,15000,0,,,0,,,,,,,,,,,wg-a,,,,AAXX 04034 07070 12/65 20000 10100 20090 30078 40189 51004 60006 81031 90300=
07070,1998-06-04 06:00:00,13,1019.9,1.1,94,12,15000,0,,,0,8.8,20.8,,,,,,,,,wg-a,,,,AAXX 04064 07070 02/65 60000 10130 20120 30089 40199 51011 60006 80001 90600 333 10208 20088 60004=
07070,1998-06-04 09:00:00,18,1020.5,0.8,68,12,15000,3.704,,,50,,,,,,,,,,,wg-a,,,,AAXX 04094 07070 12565 70502 10180 20120 30097 40205 51008 60006 81102 90900=
07070,1998-06-04 12:00:00,21,1019.7,-0.7,64,14,16000,3.704,,,50,,,,,,,,,,,wg-a,,,,AAXX 04124 07070 12666 70502 10210 20140 30090 40197 58007 60006 83202 91200=
07070,1998-06-04 15:00:00,22,1018.8,-0.8,53,12,20000,11.112,,,60,,,,,,,,,,,wg-a,,,,AAXX 04154 07070 12670 70606 10220 20120 30082 40188 57008 60006 82202 91500=
07070,1998-06-04 18:00:00,20,1018.1,-0.8,64,13,25000,11.112,,,40,12.7,21.8,,,,,,,,,wg-a,,,,AAXX 04184 07070 12/75 70406 10200 20130 30074 40181 56008 60006 80002 91800 333 10218 20127=
07070,1998-06-04 21:00:00,14,1018.5,0.2,88,12,10000,3.704,,,60,,,,,,,,,,,wg-a,,,,AAXX 04214 07070 12/60 40602 10140 20120 30076 40185 52002 60006 81032 92100=
07070,1998-06-05 00:00:00,12,1016.7,-1.8,94,11,10000,11.112,,,10,,,,,,,,,,,wg-a,,,,AAXX 05004 07070 12/60 40106 10120 20110 30058 40167 56018 60006 80002 90000=
07070,1998-06-05 06:00:00,13,1014.4,-1.2,100,13,10000,11.112,,,310,10.5,19.7,,,,,,,,25,wg-a,,,,AAXX 05064 07070 02760 73106 10130 20130 30035 40144 55012 61000 72586 85882 90600 333 10197 20105 6100=
07070,1998-06-05 09:00:00,19,1012.6,-1.5,83,16,8000,25.928,,,80,,,,0,,,,,,3,wg-a,,,,AAXX 05094 07070 12758 70814 10190 20160 30020 40126 58015 60007 70398 8452/ 90900=
07070,1998-06-05 12:00:00,25,1011.6,-0.8,69,19,10000,11.112,,,160,,,,,,,,,,1,wg-a,,,,AAXX 05124 07070 12/60 71606 10250 20190 30012 40116 58008 60006 70198 83032 91200=
07070,1998-06-05 15:00:00,28,1011,-0.5,55,18,10000,18.52,,,250,,,,,,,,,,,wg-a,,,,AAXX 05154 07070 12660 72510 10280 20180 30007 40110 56005 60006 81102 91500=
07070,1998-06-05 18:00:00,28,1010.7,-0.3,55,18,10000,11.112,,,300,13.3,28.5,,,,,,,,,wg-a,,,,AAXX 05184 07070 12760 73006 10280 20180 30004 40107 55003 60006 82102 91800 333 10285 20133=
07070,1998-06-05 21:00:00,21,1011.7,0.8,88,19,15000,3.704,,,360,,,,,,,,,,,wg-a,,,,AAXX 05214 07070 12/65 73602 10210 20190 30012 40117 51008 60006 81032 92100=
07070,1998-06-06 00:00:00,19,1011.6,-0.2,94,18,15000,3.704,,,300,,,,,,,,,,,wg-a,,,,AAXX 06004 07070 12/65 73002 10190 20180 30010 40116 55002 60006 8703/ 90000=
07070,1998-06-06 03:00:00,18,1009.7,-1.9,100,18,500,3.704,,,50,,,,1,,,,,,29,wg-a,,,,AAXX 06034 07070 12800 /0502 10180 20180 39991 40097 58019 60017 72996 83073 90300=
07070,1998-06-06 06:00:00,20,1010.1,0.5,100,20,10000,3.704,,,220,17.4,27.6,,0,,,1,,,3,wg-a,,,,AAXX 06064 07070 02860 72202 10200 20200 39996 40101 53005 60014 70396 86082 90600 333 10276 20174 60007=
07070,1998-06-06 09:00:00,23,1011,1,78,19,9000,18.52,,,60,,,,,,,,,,,wg-a,,,,AAXX 06094 07070 12659 70610 10230 20190 30006 40110 52010 60006 82202 90900=
07070,1998-06-06 12:00:00,28,1010.1,-0.8,51,17,12000,14.816,,,220,,,,,,,,,,,wg-a,,,,AAXX 06124 07070 12662 72208 10280 20170 39998 40101 58008 60006 82202 91200=
07070,1998-06-06 15:00:00,28,1009,-1.1,51,17,12000,22.224,,,240,,,,0,,,,,,1,wg-a,,,,AAXX 06154 07070 12662 72412 10280 20170 39987 40090 58011 60007 70198 82232 91500=
07070,1998-06-06 18:00:00,24,1009.2,0.1,74,19,12000,11.112,,,330,20.4,28.2,,,,,,,,3,wg-a,,,,AAXX 06184 07070 12662 73306 10240 20190 39988 40092 50001 60006 70398 8797/ 91800 333 10282 20204=
07070,1998-06-06 21:00:00,18,1011.1,1.6,94,17,8000,14.816,,,250,,,,6,,,,,,61,wg-a,,,,AAXX 06214 07070 12658 82508 10180 20170 30004 40111 50016 60067 76198 889// 92100=
07070,1998-06-07 00:00:00,17,1010.8,-0.3,100,17,8000,11.112,,,180,,,,0,,,,,,60,wg-a,,,,AAXX 07004 07070 02658 71806 10170 20170 30001 40108 58003 60076 76098 875// 90000 333 60007=
07070,1998-06-07 03:00:00,17,1010.1,-0.7,100,17,8000,7.408,,,200,,,,,,,,,,,wg-a,,,,AAXX 07034 07070 32/58 /2004 10170 20170 39994 40101 57007 90300=
07070,1998-06-07 06:00:00,17,1010.2,0.1,100,17,4000,7.408,,,210,16.9,24.2,,,,,,,,10,wg-a,,,,AAXX 07064 07070 02740 82104 10170 20170 39995 40102 53001 61000 71062 875// 90600 333 10242 20169 6008=
07070,1998-06-07 09:00:00,17,1011,0.8,94,16,7000,22.224,,,270,,,,5,,,,,,21,wg-a,,,,AAXX 07094 07070 12457 82712 10170 20160 30003 40110 53008 60057 72162 8687/ 90900=
07070,1998-06-07 10:00:00,18,1013.1,2,88,16,25000,35.188,,,290,,,,0,,,,,,25,wg-a,,,,AAXX 07104 07070 12475 72919 10180 20160 30004 40131 53020 60007 72586 875// 91000=
07070,1998-06-07 12:00:00,16,1013.1,2,82,13,25000,35.188,,,290,,,,0,,,,,,25,wg-a,,,,AAXX 07124 07070 02475 72919 10160 20130 30023 40131 53020 60066 72586 875// 91200 333 60007=
07070,1998-06-07 15:00:00,20,1013.2,0.3,60,12,25000,22.224,,,270,,,,,,,,,,,wg-a,,,,AAXX 07154 07070 12675 62712 10200 20120 30026 40132 50003 60006 84201 91500=
07070,1998-06-07 18:00:00,19,1014.3,1,56,10,25000,22.224,,,270,15.5,20,,,,,,,,,wg-a,,,,AAXX 07184 07070 12775 42712 10190 20100 30036 40143 53010 60006 84802 91800 333 10200 20155=
07070,1998-06-07 21:00:00,15,1016.3,1.9,88,13,25000,22.224,,,250,,,,0,,,,,,80,wg-a,,,,AAXX 07214 07070 12675 72512 10150 20130 30055 40163 53019 60007 78086 878// 92100=
07070,1998-06-08 00:00:00,13,1017.2,0.8,94,12,25000,14.816,,,250,,,,,,,,,,1,wg-a,,,,AAXX 08004 07070 02775 12508 10130 20120 30063 40172 52008 60016 70186 81500 90000 333 61000=
07070,1998-06-08 03:00:00,11,1018.3,1,94,10,25000,11.112,,,230,,,,,,,,,,,wg-a,,,,AAXX 08034 07070 12775 12306 10110 20100 30073 40183 51010 60006 81500 90300=
07070,1998-06-08 06:00:00,13,1019.8,1.6,88,11,25000,14.816,,,260,10.5,19.3,,,,,6,,,,wg-a,,,,AAXX 08064 07070 02475 32608 10130 20110 30089 40198 53016 60006 83800 90600 333 10193 20105 60064=
07070,1998-06-08 09:00:00,17,1020.7,1,63,10,16000,22.224,,,260,,,,,,,,,,,wg-a,,,,AAXX 08094 07070 12566 /2612 10170 20100 30099 40207 53010 60006 81100 90900=
07070,1998-06-08 12:00:00,20,1020,-0.6,53,10,25000,18.52,,,250,,,,,,,,,,,wg-a,,,,AAXX 08124 07070 12675 72510 10200 20100 30093 40200 58006 60006 82202 91200=
07070,1998-06-08 15:00:00,21,1018.7,-1.3,56,12,25000,25.928,,,250,,,,,,,,,,,wg-a,,,,AAXX 08154 07070 12675 62514 10210 20120 30080 40187 58013 60006 85802 91500=
07070,1998-06-08 18:00:00,19,1018.4,-0.3,56,10,25000,18.52,,,240,13.2,20.8,,,,,,,,,wg-a,,,,AAXX 08184 07070 12675 72410 10190 20100 30077 40184 55003 60006 81402 91800 333 10208 20132=
07070,1998-06-08 21:00:00,17,1017.9,-0.6,68,11,25000,14.816,,,190,,,,,,,,,,,wg-a,,,,AAXX 08214 07070 12775 71908 10170 20110 30071 40179 56006 60006 8253/ 92100=
07070,1998-06-09 03:00:00,15,1015.9,-1,88,13,8000,14.816,,,210,,,,0,,,,,,60,wg-a,,,,AAXX 09034 07070 12558 82108 10150 20130 30051 40159 56010 60007 76062 875// 90300=
07070,1998-06-09 06:00:00,15,1014.9,-1,94,14,10000,14.816,,,210,14.1,18.9,,,,,,,,61,wg-a,,,,AAXX 09064 07070 02460 82108 10150 20140 30041 40149 56010 61000 76162 875// 90600 333 10189 20141 6002=
07070,1998-06-09 09:00:00,18,1014.3,-0.5,83,15,15000,31.484,,,230,,,,,,,,,,21,wg-a,,,,AAXX 09094 07070 02465 72317 10180 20150 30036 40143 57005 61000 72162 8657/ 90900 333 ////=
07070,1998-06-09 12:00:00,22,1013,-1.1,73,17,15000,22.224,,,230,,,,,,,,,,3,wg-a,,,,AAXX 09124 07070 02565 72312 10220 20170 30025 40130 56011 61000 70362 85872 91200 333 ////=
07070,1998-06-09 15:00:00,24,1010.6,-2.3,65,17,15000,18.52,,,210,,,,,,,,,,,wg-a,,,,AAXX 09154 07070 12565 72110 10240 20170 30002 40106 57023 60006 8387/ 91500=
07070,1998-06-09 18:00:00,23,1008.9,-1.7,69,17,15000,14.816,,,210,14.8,24.9,,,,,,,,,wg-a,,,,AAXX 09184 07070 12665 72108 10230 20170 39985 40089 56017 60006 8583/ 91800 333 10249 20148=
07070,1998-06-09 21:00:00,20,1006.9,-2.1,83,17,15000,14.816,,,180,,,,,,,,,,,wg-a,,,,AAXX 09214 07070 12/65 61808 10200 20170 39964 40069 56021 60006 86080 92100=
07070,1998-06-10 00:00:00,19,1006.8,-0.2,88,17,10000,18.52,,,250,,,,0,,,,,,60,wg-a,,,,AAXX 10004 07070 02660 82510 10190 20170 39962 40068 55002 60016 76062 8557/ 90000 333 60007=
07070,1998-06-10 03:00:00,17,1006.2,-0.7,88,15,10000,11.112,,,250,,,,,,,,,,3,wg-a,,,,AAXX 10034 07070 02460 82506 10170 20150 39955 40062 55007 61000 70362 878// 90300 333 ////=
07070,1998-06-10 06:00:00,16,1006.6,0.4,88,14,4000,22.224,,,240,15.6,23.3,,,,,,,,80,wg-a,,,,AAXX 10064 07070 02440 82412 10160 20140 39959 40066 53004 61000 78086 882// 90600 333 10233 20156 6000=
07070,1998-06-10 09:00:00,18,1006.6,0.1,64,11,20000,31.484,,,270,,,,1,,,,,,1,wg-a,,,,AAXX 10094 07070 12570 32717 10180 20110 39960 40066 53001 60017 70186 81202 90900=
07070,1998-06-10 12:00:00,19,1007.2,0.6,60,11,25000,22.224,,,250,,,,,,,,,,25,wg-a,,,,AAXX 10124 07070 02675 /2512 10190 20110 39966 40072 50006 60016 72586 86800 91200 333 61000=
07070,1998-06-10 15:00:00,19,1006.4,-0.8,56,10,20000,31.484,,,250,,,,,,,,,,80,wg-a,,,,AAXX 10154 07070 02670 72517 10190 20100 39958 40064 56008 61000 78086 878// 91500 333 ////=
07070,1998-06-10 18:00:00,19,1005.7,-0.7,64,12,25000,18.52,,,210,14.5,20.5,,,,,,,,3,wg-a,,,,AAXX 10184 07070 02775 42110 10190 20120 39951 40057 57007 60006 70386 844/0 91800 333 10205 20145 61000=
07070,1998-06-10 21:00:00,15,1005.9,0.1,77,11,25000,14.816,,,250,,,,,,,,,,,wg-a,,,,AAXX 10214 07070 12775 42508 10150 20110 39952 40059 53001 60006 84500 92100=
07070,1998-06-11 00:00:00,14,1004.7,-1.2,88,12,15000,18.52,,,240,,,,0,,,,,,80,wg-a,,,,AAXX 11004 07070 02665 /2410 10140 20120 39940 40047 58012 60006 78086 86800 90000 333 60007=
07070,1998-06-11 03:00:00,12,1003.9,-0.9,94,11,12000,11.112,,,220,,,,1,,,,,,1,wg-a,,,,AAXX 11034 07070 12762 52206 10120 20110 39931 40039 56009 60017 70186 85500 90300=
07070,1998-06-11 06:00:00,13,1003.4,-0.5,94,12,10000,18.52,,,220,11.5,19,,,,,,,,80,wg-a,,,,AAXX 11064 07070 02460 72210 10130 20120 39926 40034 55005 61000 78086 87800 90600 333 10190 20115 6003=
07070,1998-06-11 09:00:00,15,1004.2,0.9,77,11,20000,29.632,,,250,,,,0,,,,,,1,wg-a,,,,AAXX 11094 07070 12470 /2516 10150 20110 39935 40042 51009 60007 70186 86800 90900=
07070,1998-06-11 12:00:00,15,1005.7,1.5,77,11,11000,31.484,,,290,,,,1,,,,,,,wg-a,,,,AAXX 11124 07070 02/61 /2917 10150 20110 39950 40057 51015 60016 91200 333 60017=
07070,1998-06-11 15:00:00,14,1007.3,1.5,72,9,15000,31.484,,,300,,,,0,,,,,,25,wg-a,,,,AAXX 11154 07070 12465 73017 10140 20090 39965 40073 53015 60007 72586 878// 91500=
07070,1998-06-11 18:00:00,13,1008.5,1.2,77,9,20000,22.224,,,290,12.5,16.6,,,,,,,,2,wg-a,,,,AAXX 11184 07070 12570 72912 10130 20090 39977 40085 52012 60006 70286 878// 91800 333 10166 20125=
07070,1998-06-11 21:00:00,12,1010,1.4,82,9,20000,14.816,,,260,,,,,,,,,,,wg-a,,,,AAXX 11214 07070 12670 72608 10120 20090 39991 40100 51014 60006 875// 92100=
07070,1998-06-12 00:00:00,12,1010.6,0.6,94,11,20000,14.816,,,300,,,,0,,,,,,61,wg-a,,,,AAXX 12004 07070 02470 83008 10120 20110 39997 40106 53006 60006 76162 885// 90000 333 60007=
07070,1998-06-12 03:00:00,10,1013.4,2.7,93,9,500,31.484,,,340,,,,3,,,,,,21,wg-a,,,,AAXX 12034 07070 12300 83417 10100 20090 30024 40134 52027 60037 72162 885// 90300=
07070,1998-06-12 09:00:00,13,1018.5,2.3,62,6,20000,29.632,,,340,,,,,,,,,,,wg-a,,,,AAXX 12094 07070 12570 /3416 10130 20060 30075 40185 52023 60006 86200 90900=
07070,1998-06-12 12:00:00,14,1019.5,1.1,58,6,25000,25.928,,,310,,,,,,,,,,,wg-a,,,,AAXX 12124 07070 12675 73114 10140 20060 30086 40195 51011 60006 872// 91200=
07070,1998-06-12 15:00:00,13,1020.5,0.9,72,8,25000,14.816,,,340,,,,3,,,,,,29,wg-a,,,,AAXX 12154 07070 12675 73408 10130 20080 30095 40205 51009 60037 72998 87900 91500=
07070,1998-06-12 18:00:00,14,1020.4,-0,63,7,25000,14.816,,,340,9.2,15.4,,,,,,,,1,wg-a,,,,AAXX 12184 07070 12675 33408 10140 20070 30095 40204 55000 60006 70198 83800 91800 333 10154 20092=
07070,1998-06-12 21:00:00,10,1021.6,1,82,7,15000,3.704,,,320,,,,,,,,,,,wg-a,,,,AAXX 12214 07070 12665 33202 10100 20070 30105 40216 52010 60006 83800 92100=
07070,1998-06-13 00:00:00,6,1021.7,0,93,5,10000,3.704,,,210,,,,,,,,,,,wg-a,,,,AAXX 13004 07070 12660 32102 10060 20050 30105 40217 50000 60006 83500 90000=
07070,1998-06-13 03:00:00,5,1020.5,-1.3,93,4,10000,0,,,0,,,,,,,,,,,wg-a,,,,AAXX 13034 07070 12660 30000 10050 20040 30092 40205 58013 60006 83500 90300=
07070,1998-06-13 06:00:00,9,1019.2,-1.1,93,8,8000,0,,,0,3.2,14.3,,,,,3,,,,wg-a,,,,AAXX 13064 07070 02758 30000 10090 20080 30081 40192 56011 60006 81530 90600 333 10143 20032 60034=
07070,1998-06-13 12:00:00,15,1016.2,-1.8,67,9,20000,14.816,,,200,,,,,,,,,,,wg-a,,,,AAXX 13124 07070 12670 72008 10150 20090 30054 40162 56018 60006 8683/ 91200=
07070,1998-06-13 15:00:00,17,1014.1,-2.1,63,10,25000,22.224,,,170,,,,,,,,,,,wg-a,,,,AAXX 13154 07070 12675 71712 10170 20100 30033 40141 56021 60006 878// 91500=
07070,1998-06-13 18:00:00,14,1012.6,-1.5,82,11,25000,11.112,,,150,9.1,17.1,,,,,,,,21,wg-a,,,,AAXX 13184 07070 02575 81506 10140 20110 30018 40126 56015 61000 72162 8387/ 91800 333 10171 20091 6100=
07070,1998-06-13 21:00:00,12,1011.7,-1,94,11,6000,11.112,,,170,,,,2,,,,,,63,wg-a,,,,AAXX 13214 07070 12656 81706 10120 20110 30008 40117 58010 60027 76362 8387/ 92100=
07070,1998-06-14 00:00:00,12,1010.1,-1.6,100,12,500,14.816,,,180,,,,1,,,,,,51,wg-a,,,,AAXX 14004 07070 02300 81808 10120 20120 39992 40101 56016 60036 75165 877// 90000 333 60017=
07070,1998-06-14 03:00:00,12,1009.8,-0.3,94,11,8000,11.112,,,230,,,,1,,,,,,1,wg-a,,,,AAXX 14034 07070 12458 82306 10120 20110 39989 40098 55003 60017 70165 8757/ 90300=
07070,1998-06-14 06:00:00,12,1010.5,0.7,94,11,12000,18.52,,,220,11.4,14.1,,,,,4,,,1,wg-a,,,,AAXX 14064 07070 02462 72210 10120 20110 39996 40105 51007 60006 70165 8687/ 90600 333 10141 20114 60044=
07070,1998-06-14 09:00:00,14,1010.7,0.3,94,13,15000,25.928,,,240,,,,2,,,,,,21,wg-a,,,,AAXX 14094 07070 12465 72414 10140 20130 39999 40107 51003 60027 72162 878// 90900=
07070,1998-06-14 12:00:00,17,1010.2,-0.4,72,12,25000,25.928,,,230,,,,0,,,,,,1,wg-a,,,,AAXX 14124 07070 02575 62314 10170 20120 39995 40102 56004 60026 70162 86800 91200 333 60007=
07070,1998-06-14 15:00:00,18,1009.8,-0.3,68,12,25000,25.928,,,230,,,,1,,,,,,1,wg-a,,,,AAXX 14154 07070 12675 52314 10180 20120 39992 40098 58003 60017 70186 85800 91500=
07070,1998-06-14 18:00:00,17,1009.7,-0.2,68,11,25000,18.52,,,230,12.5,18.4,,,,,,,,1,wg-a,,,,AAXX 14184 07070 12675 62310 10170 20110 39990 40097 58002 60006 70186 86870 91800 333 10184 20125=
07070,1998-06-15 00:00:00,13,1010.8,-0.1,94,12,20000,18.52,,,230,,,,,,,,,,,wg-a,,,,AAXX 15004 07070 12570 72310 10130 20120 30000 40108 58001 60006 8387/ 90000=
07070,1998-06-15 03:00:00,13,1011.1,0.2,94,12,15000,11.112,,,230,,,,,,,,,,61,wg-a,,,,AAXX 15034 07070 02465 72306 10130 20120 30002 40111 51002 61000 76162 878// 90300 333 ////=
07070,1998-06-15 06:00:00,13,1011.6,0.5,94,12,12000,18.52,,,220,12.6,17.3,,,,,4,,,1,wg-a,,,,AAXX 15064 07070 02462 72210 10130 20120 30007 40116 51005 60006 70162 8687/ 90600 333 10173 20126 60044=
07070,1998-06-15 09:00:00,14,1011.9,0.4,94,13,15000,18.52,,,240,,,,0,,,,,,61,wg-a,,,,AAXX 15094 07070 12465 72410 10140 20130 30011 40119 51004 60007 76162 8687/ 90900=
07070,1998-06-15 12:00:00,17,1011.8,0,72,12,15000,14.816,,,260,,,,,,,,,,1,wg-a,,,,AAXX 15124 07070 02565 72608 10170 20120 30011 40118 50000 60016 70162 878// 91200 333 61000=
07070,1998-06-15 15:00:00,18,1012.5,0.7,68,12,16000,22.224,,,310,,,,,,,,,,25,wg-a,,,,AAXX 15154 07070 02566 43112 10180 20120 30018 40125 53007 61000 72586 84900 91500 333 ////=
07070,1998-06-15 18:00:00,17,1013.4,0.9,72,12,14000,14.816,,,300,13,18.9,,,,,,,,1,wg-a,,,,AAXX 15184 07070 12564 /3008 10170 20120 30027 40134 53009 60006 70186 86900 91800 333 10189 20130=
07070,1998-06-15 21:00:00,13,1015.8,2.2,94,12,8000,3.704,,,260,,,,2,,,,,,25,wg-a,,,,AAXX 15214 07070 12458 72602 10130 20120 30049 40158 53022 60027 72586 878// 92100=
07070,1998-06-16 00:00:00,12,1016.6,0.7,94,11,8000,7.408,,,250,,,,0,,,,,,1,wg-a,,,,AAXX 16004 07070 02758 /2504 10120 20110 30056 40166 51007 60036 70186 86500 90000 333 60007=
07070,1998-06-16 03:00:00,11,1017,0.4,94,10,500,18.52,,,240,,,,,,,,,,,wg-a,,,,AAXX 16034 07070 12600 72410 10110 20100 30060 40170 51004 60006 875// 90300=
07070,1998-06-16 06:00:00,12,1017.9,0.9,94,11,4000,18.52,,,250,10.4,17.2,,,,,,,,10,wg-a,,,,AAXX 16064 07070 02440 72510 10120 20110 30069 40179 53009 61000 71086 878// 90600 333 10172 20104 6004=
07070,1998-06-16 09:00:00,13,1019.5,1.6,94,12,9000,18.52,,,250,,,,0,,,,,,25,wg-a,,,,AAXX 16094 07070 12359 72510 10130 20120 30085 40195 51016 60007 72586 877// 90900=
07070,1998-06-16 12:00:00,16,1019.8,0.5,82,13,15000,25.928,,,250,,,,,,,,,,3,wg-a,,,,AAXX 16124 07070 12465 72514 10160 20130 30090 40198 50005 60006 70386 878// 91200=
07070,1998-06-16 15:00:00,13,1021.1,1.1,94,12,10000,3.704,,,240,,,,2,,,,,,25,wg-a,,,,AAXX 16154 07070 12560 72402 10130 20120 30101 40211 53011 60027 72586 879// 91500=
07070,1998-06-16 18:00:00,13,1022.4,1.3,88,11,12000,11.112,,,270,11.8,17.2,,,,,,,,25,wg-a,,,,AAXX 16184 07070 02562 72706 10130 20110 30114 40224 52013 61000 72586 878// 91800 333 10172 20118 6001=
07070,1998-06-16 21:00:00,13,1024.2,1.8,94,12,15000,7.408,,,280,,,,,,,,,,1,wg-a,,,,AAXX 16214 07070 02665 72804 10130 20120 30132 40242 53018 61000 70186 874// 92100 333 ////=
07070,1998-06-17 00:00:00,9,1025.2,0.8,100,9,10000,11.112,,,250,,,,,,,,,,2,wg-a,,,,AAXX 17004 07070 02760 12506 10090 20090 30140 40252 52008 61000 70286 81500 90000 333 ////=
07070,1998-06-17 03:00:00,9,1025.6,0.4,93,8,10000,11.112,,,240,,,,,,,,,,11,wg-a,,,,AAXX 17034 07070 12760 /2406 10090 20080 30144 40256 52004 60006 71100 81500 90300=
07070,1998-06-17 06:00:00,11,1026.3,0.8,94,10,12000,7.408,,,250,7.9,13.4,,,,,3,,,,wg-a,,,,AAXX 17064 07070 02362 72504 10110 20100 30152 40263 51008 60006 876// 90600 333 10134 20079 60034=
07070,1998-06-17 09:00:00,14,1027,0.8,88,12,12000,11.112,,,250,,,,,,,,,,,wg-a,,,,AAXX 17094 07070 12462 /2506 10140 20120 30160 40270 50008 60006 86100 90900=
07070,1998-06-17 12:00:00,19,1026.6,-0.2,49,8,20000,14.816,,,270,,,,,,,,,,,wg-a,,,,AAXX 17124 07070 12670 72708 10190 20080 30158 40266 56002 60006 87202 91200=
07070,1998-06-17 15:00:00,19,1026.1,-0.5,52,9,20000,14.816,,,300,,,,,,,,,,,wg-a,,,,AAXX 17154 07070 12670 73008 10190 20090 30153 40261 56005 60006 87202 91500=
07070,1998-06-17 18:00:00,18,1025.6,-0.5,59,10,20000,11.112,,,310,11,19.7,,,,,,,,,wg-a,,,,AAXX 17184 07070 12770 73106 10180 20100 30148 40256 55005 60006 81872 91800 333 10197 20110=
07070,1998-06-17 21:00:00,15,1026.3,0.6,77,11,20000,7.408,,,300,,,,,,,,,,,wg-a,,,,AAXX 17214 07070 12/70 53004 10150 20110 30154 40263 53006 60006 85030 92100=
07070,1998-06-18 00:00:00,10,1026.4,-0.1,93,9,15000,0,,,0,,,,,,,,,,,wg-a,,,,AAXX 18004 07070 12/65 20000 10100 20090 30153 40264 58001 60006 82031 90000=
07070,1998-06-18 03:00:00,10,1025.8,-0.6,100,10,15000,0,,,0,,,,,,,,,,11,wg-a,,,,AAXX 18034 07070 12/65 /0000 10100 20100 30147 40258 58006 60006 71111 86030 90300=
07070,1998-06-18 06:00:00,13,1026,0.3,94,12,10000,3.704,,,170,9.4,18.2,,,,,,,,21,wg-a,,,,AAXX 18064 07070 02/60 71702 10130 20120 30150 40260 51003 61000 72161 8703/ 90600 333 10182 20094 6100=
07070,1998-06-18 09:00:00,18,1025.9,0.1,68,12,18000,7.408,,,240,,,,,,,,,,,wg-a,,,,AAXX 18094 07070 12568 72404 10180 20120 30151 40259 51001 60006 8383/ 90900=
07070,1998-06-18 12:00:00,20,1025.7,-0.2,60,12,18000,7.408,,,260,,,,,,,,,,1,wg-a,,,,AAXX 18124 07070 02668 72604 10200 20120 30149 40257 58002 61000 70162 8383/ 91200 333 6100=
07070,1998-06-18 15:00:00,22,1024.7,-0.9,50,11,25000,11.112,,,280,,,,,,,,,,,wg-a,,,,AAXX 18154 07070 12675 72806 10220 20110 30140 40247 58009 60006 81102 91500=
07070,1998-06-18 18:00:00,22,1023.8,-0.8,53,12,25000,7.408,,,260,12.9,23,,,,,,,,,wg-a,,,,AAXX 18184 07070 12675 52604 10220 20120 30132 40238 56008 60006 81432 91800 333 10230 20129=
07070,1998-06-18 21:00:00,16,1024.6,0.5,82,13,15000,0,,,0,,,,,,,,,,,wg-a,,,,AAXX 18214 07070 12765 40000 10160 20130 30137 40246 53005 60006 83582 92100=
07070,1998-06-19 00:00:00,15,1024.4,-0.2,94,14,10000,11.112,,,310,,,,,,,,,,,wg-a,,,,AAXX 19004 07070 12760 43106 10150 20140 30135 40244 55002 60006 84500 90000=
07070,1998-06-19 03:00:00,14,1024.5,0.1,94,13,10000,7.408,,,310,,,,,,,,,,,wg-a,,,,AAXX 19034 07070 12760 53104 10140 20130 30136 40245 53001 60006 85500 90300=
07070,1998-06-19 06:00:00,15,1024.6,0.1,88,13,10000,3.704,,,270,13.1,22.2,,,,,,,,,wg-a,,,,AAXX 19064 07070 02860 62702 10150 20130 30137 40246 52001 60006 86070 90600 333 10222 20131 61000=
07070,1998-06-19 09:00:00,21,1024.8,0.4,69,15,12000,3.704,,,50,,,,,,,,,,,wg-a,,,,AAXX 19094 07070 12/62 60502 10210 20150 30141 40248 51004 60006 80001 90900=
07070,1998-06-19 12:00:00,24,1024.2,-0.5,50,13,25000,3.704,,,80,,,,,,,,,,,wg-a,,,,AAXX 19124 07070 12675 30802 10240 20130 30136 40242 56005 60006 81101 91200=
07070,1998-06-19 15:00:00,25,1023.5,-0.6,54,15,25000,7.408,,,30,,,,,,,,,,,wg-a,,,,AAXX 19154 07070 12675 /0304 10250 20150 30130 40235 56006 60006 81101 91500=
07070,1998-06-19 18:00:00,24,1022.7,-0.9,65,17,25000,11.112,,,90,15.1,25.5,,,,,,,,,wg-a,,,,AAXX 19184 07070 12/75 70906 10240 20170 30121 40227 57009 60006 80001 91800 333 10255 20151=
07070,1998-06-19 21:00:00,17,1023,0.1,94,16,20000,3.704,,,110,,,,,,,,,,,wg-a,,,,AAXX 19214 07070 12/70 71102 10170 20160 30122 40230 53001 60006 80002 92100=
07070,1998-06-20 00:00:00,15,1023,-0.1,94,14,20000,3.704,,,60,,,,,,,,,,,wg-a,,,,AAXX 20004 07070 12/70 70602 10150 20140 30121 40230 58001 60006 80001 90000=
07070,1998-06-20 03:00:00,13,1022.8,-0.3,100,13,15000,3.704,,,100,,,,,,,,,,,wg-a,,,,AAXX 20034 07070 12/65 61002 10130 20130 30118 40228 57003 60006 80001 90300=
07070,1998-06-20 06:00:00,16,1022.6,0,100,16,12000,0,,,0,12.6,23.9,,,,,,,,,wg-a,,,,AAXX 20064 07070 02/62 70000 10160 20160 30118 40226 50000 60006 80001 90600 333 10239 20126 60004=
07070,1998-06-20 09:00:00,25,1022.3,0,65,18,12000,11.112,,,160,,,,,,,,,,,wg-a,,,,AAXX 20094 07070 12/62 71606 10250 20180 30118 40223 50000 60006 80001 90900=
07070,1998-06-20 12:00:00,28,1021.1,-1.1,51,17,15000,14.816,,,130,,,,,,,,,,,wg-a,,,,AAXX 20124 07070 12/65 71308 10280 20170 30107 40211 57011 60006 80001 91200=
07070,1998-06-20 15:00:00,29,1019.9,-1.1,48,17,20000,14.816,,,150,,,,,,,,,,,wg-a,,,,AAXX 20154 07070 12/70 71508 10290 20170 30096 40199 57011 60006 80001 91500=
07070,1998-06-20 18:00:00,28,1019.1,-0.9,66,21,20000,11.112,,,120,16.2,29.5,,,,,,,,,wg-a,,,,AAXX 20184 07070 12/70 71206 10280 20210 30087 40191 57009 60006 80001 91800 333 10295 20162=
07070,1998-06-20 21:00:00,20,1019.2,-0.2,88,18,20000,7.408,,,150,,,,,,,,,,,wg-a,,,,AAXX 20214 07070 12/70 51504 10200 20180 30085 40192 55002 60006 80001 92100=
07070,1998-06-21 00:00:00,19,1019,-0.2,88,17,20000,11.112,,,190,,,,,,,,,,,wg-a,,,,AAXX 21004 07070 12/70 51906 10190 20170 30083 40190 58002 60006 80001 90000=
07070,1998-06-21 03:00:00,17,1018.1,-1,88,15,20000,3.704,,,130,,,,,,,,,,,wg-a,,,,AAXX 21034 07070 12/70 51302 10170 20150 30073 40181 56010 60006 80001 90300=
07070,1998-06-21 06:00:00,20,1018.2,0.3,88,18,20000,7.408,,,160,16.3,27.5,,,,,,,,,wg-a,,,,AAXX 21064 07070 02/70 61604 10200 20180 30076 40182 53003 60006 80001 90600 333 10275 20163 60004=
07070,1998-06-21 09:00:00,28,1018.2,0.2,58,19,20000,11.112,,,180,,,,,,,,,,,wg-a,,,,AAXX 21094 07070 12/70 71806 10280 20190 30078 40182 52002 60006 80001 90900=
07070,1998-06-21 12:00:00,31,1017.4,-0.6,55,21,15000,14.816,,,230,,,,,,,,,,,wg-a,,,,AAXX 21124 07070 12665 72308 10310 20210 30072 40174 57006 60006 81201 91200=
07070,1998-06-21 15:00:00,29,1017.6,0.1,55,19,15000,22.224,,,240,,,,,,,,,,,wg-a,,,,AAXX 21154 07070 12765 72412 10290 20190 30073 40176 53001 60006 8357/ 91500=
07070,1998-06-21 18:00:00,28,1017.2,-0.5,62,20,15000,14.816,,,260,20.1,31.6,,,,,,,,,wg-a,,,,AAXX 21184 07070 12765 72608 10280 20200 30068 40172 55005 60006 82882 91800 333 10316 20201=
07070,1998-06-21 21:00:00,20,1020.3,2.8,78,16,9000,25.928,,,320,,,,,,,,,,25,wg-a,,,,AAXX 21214 07070 02559 73214 10200 20160 30096 40203 53028 61000 72586 8548/ 92100 333 ////=
07070,1998-06-22 00:00:00,15,1022.8,2.3,77,11,10000,11.112,,,300,,,,,,,,,,1,wg-a,,,,AAXX 22004 07070 02/60 03006 10150 20110 30119 40228 51023 61000 70186 80000 90000 333 ////=
07070,1998-06-22 03:00:00,13,1023.6,0.7,82,10,20000,7.408,,,260,,,,,,,,,,,wg-a,,,,AAXX 22034 07070 12/70 02604 10130 20100 30126 40236 52007 60006 80000 90300=
07070,1998-06-22 06:00:00,15,1025,1.5,82,12,25000,18.52,,,300,12.2,27.5,,,,,,,,,wg-a,,,,AAXX 22064 07070 02475 23010 10150 20120 30141 40250 53015 60006 81801 90600 333 10275 20122 61000=
07070,1998-06-22 09:00:00,18,1025.3,0.4,68,12,25000,7.408,,,320,,,,,,,,,,,wg-a,,,,AAXX 22094 07070 12575 73204 10180 20120 30145 40253 51004 60006 85201 90900=
07070,1998-06-22 12:00:00,21,1024.8,-0.4,53,11,25000,22.224,,,320,,,,,,,,,,,wg-a,,,,AAXX 22124 07070 12675 73212 10210 20110 30141 40248 56004 60006 86202 91200=
07070,1998-06-22 15:00:00,21,1024.3,-0.5,53,11,25000,14.816,,,310,,,,,,,,,,,wg-a,,,,AAXX 22154 07070 12775 73108 10210 20110 30136 40243 58005 60006 86802 91500=
07070,1998-06-22 18:00:00,20,1023.5,-0.8,60,12,25000,11.112,,,360,15,21.6,,,,,,,,,wg-a,,,,AAXX 22184 07070 12775 43606 10200 20120 30128 40235 56008 60006 82801 91800 333 10216 20150=
07070,1998-06-22 21:00:00,15,1024.5,0.8,82,12,25000,0,,,0,,,,,,,,,,,wg-a,,,,AAXX 22214 07070 12/75 30000 10150 20120 30136 40245 53008 60006 80001 92100=
07070,1998-06-23 00:00:00,11,1024.6,-0.1,94,10,25000,3.704,,,320,,,,,,,,,,,wg-a,,,,AAXX 23004 07070 12/75 03202 10110 20100 30135 40246 58001 60006 80000 90000=
07070,1998-06-23 03:00:00,9,1024.2,-0.5,100,9,8000,3.704,,,260,,,,,,,,,,,wg-a,,,,AAXX 23034 07070 12658 32602 10090 20090 30130 40242 56005 60006 82501 90300=
07070,1998-06-23 06:00:00,13,1024.1,0.1,94,12,10000,3.704,,,230,7.9,20.2,,,,,,,,,wg-a,,,,AAXX 23064 07070 02660 32302 10130 20120 30131 40241 53001 60006 81501 90600 333 10202 20079 60004=
07070,1998-06-23 09:00:00,19,1022.9,-0.9,64,12,18000,11.112,,,260,,,,,,,,,,,wg-a,,,,AAXX 23094 07070 12568 62606 10190 20120 30122 40229 58009 60006 81101 90900=
07070,1998-06-23 12:00:00,22,1021.7,-1.1,50,11,16000,22.224,,,290,,,,,,,,,,,wg-a,,,,AAXX 23124 07070 12666 72912 10220 20110 30111 40217 56011 60006 85201 91200=
07070,1998-06-23 15:00:00,23,1020.3,-1.4,47,11,16000,18.52,,,290,,,,,,,,,,,wg-a,,,,AAXX 23154 07070 12766 72910 10230 20110 30097 40203 56014 60006 82231 91500=
07070,1998-06-23 18:00:00,19,1020,-0.4,68,13,20000,18.52,,,360,13,23.3,,,,,,,,,wg-a,,,,AAXX 23184 07070 12670 83610 10190 20130 30093 40200 55004 60006 8553/ 91800 333 10233 20130=
07070,1998-06-23 21:00:00,16,1020.1,-0,88,14,15000,0,,,0,,,,,,,,,,,wg-a,,,,AAXX 23214 07070 12665 50000 10160 20140 30093 40201 54000 60006 83531 92100=
07070,1998-06-24 00:00:00,12,1019.2,-1.1,94,11,20000,3.704,,,120,,,,,,,,,,,wg-a,,,,AAXX 24004 07070 12/70 11202 10120 20110 30082 40192 58011 60006 80001 90000=
07070,1998-06-24 03:00:00,12,1018.3,-0.9,94,11,10000,3.704,,,220,,,,,,,,,,,wg-a,,,,AAXX 24034 07070 12760 22202 10120 20110 30073 40183 56009 60006 82501 90300=
07070,1998-06-24 06:00:00,16,1017.8,-0.3,88,14,8000,7.408,,,170,10.7,19,,,,,,,,,wg-a,,,,AAXX 24064 07070 02/58 /1704 10160 20140 30070 40178 57003 60006 84031 90600 333 10190 20107 60004=
07070,1998-06-24 09:00:00,21,1017,-0.6,64,14,15000,3.704,,,60,,,,,,,,,,,wg-a,,,,AAXX 24094 07070 12665 /0602 10210 20140 30064 40170 58006 60006 84132 90900=
07070,1998-06-24 12:00:00,24,1015.2,-1.7,61,16,25000,7.408,,,90,,,,,,,,,,,wg-a,,,,AAXX 24124 07070 12675 /0904 10240 20160 30047 40152 58017 60006 81131 91200=
07070,1998-06-24 15:00:00,26,1013.4,-1.7,58,17,25000,11.112,,,110,,,,,,,,,,,wg-a,,,,AAXX 24154 07070 12775 51106 10260 20170 30030 40134 57017 60006 825/1 91500=
07070,1998-06-24 18:00:00,25,1012.1,-1.3,57,16,25000,14.816,,,150,16,26.4,,,,,,,,,wg-a,,,,AAXX 24184 07070 12775 21508 10250 20160 30017 40121 57013 60006 81501 91800 333 10264 20160=
07070,1998-06-24 21:00:00,18,1012.1,-0.3,88,16,25000,3.704,,,140,,,,,,,,,,,wg-a,,,,AAXX 24214 07070 12775 11402 10180 20160 30014 40121 56003 60006 81501 92100=
07070,1998-06-25 00:00:00,18,1010.9,-1.1,88,16,25000,14.816,,,160,,,,,,,,,,,wg-a,,,,AAXX 25004 07070 12/75 01608 10180 20160 30003 40109 58011 60006 80000 90000=
07070,1998-06-25 03:00:00,18,1010.1,-0.9,83,15,20000,3.704,,,220,,,,,,,,,,,wg-a,,,,AAXX 25034 07070 12/70 72202 10180 20150 39994 40101 56009 60006 85072 90300=
07070,1998-06-25 06:00:00,20,1010.5,0.5,78,16,15000,14.816,,,240,16.7,24.7,,,,,,,,,wg-a,,,,AAXX 25064 07070 02565 72408 10200 20160 39999 40105 53005 60006 8657/ 90600 333 10247 20167 60004=
07070,1998-06-25 09:00:00,17,1012.9,2.3,82,14,20000,3.704,,,270,,,,,,,,,,21,wg-a,,,,AAXX 25094 07070 02570 72702 10170 20140 30022 40129 51023 61000 72162 8687/ 90900 333 ////=
07070,1998-06-25 12:00:00,18,1014.2,1.3,77,14,20000,14.816,,,270,,,,,,,,,,3,wg-a,,,,AAXX 25124 07070 02570 72708 10180 20140 30035 40142 51013 61000 70362 872// 91200 333 ////=
07070,1998-06-25 15:00:00,21,1014.3,0.2,53,11,20000,18.52,,,270,,,,,,,,,,1,wg-a,,,,AAXX 25154 07070 02670 /2710 10210 20110 30037 40143 53002 61000 70162 81202 91500 333 ////=
07070,1998-06-25 18:00:00,20,1014.1,-0.2,56,11,20000,11.112,,,250,16.8,22,,,,,,,,1,wg-a,,,,AAXX 25184 07070 12570 72506 10200 20110 30035 40141 55002 60006 70161 82802 91800 333 10220 20168=
07070,1998-06-25 21:00:00,15,1015.1,0.8,82,12,11000,3.704,,,60,,,,,,,,,,,wg-a,,,,AAXX 25214 07070 12/61 /0602 10150 20120 30043 40151 53008 60006 92100=
07070,1998-06-26 00:00:00,11,1015.4,0.1,87,9,10000,0,,,0,,,,,,,,,,,wg-a,,,,AAXX 26004 07070 12760 20000 10110 20090 30044 40154 50001 60006 82500 90000=
07070,1998-06-26 03:00:00,13,1014.8,-0.5,88,11,10000,0,,,0,,,,,,,,,,,wg-a,,,,AAXX 26034 07070 12760 70000 10130 20110 30039 40148 57005 60006 855/2 90300=
07070,1998-06-26 06:00:00,15,1014.6,-0.1,88,13,15000,11.112,,,180,10.7,20.3,,,,,,,,,wg-a,,,,AAXX 26064 07070 02665 71806 10150 20130 30038 40146 58001 60006 85872 90600 333 10203 20107 61000=
07070,1998-06-26 09:00:00,20,1014.6,0.2,56,11,16000,14.816,,,260,,,,,,,,,,,wg-a,,,,AAXX 26094 07070 12566 72608 10200 20110 30040 40146 50002 60006 8123/ 90900=
07070,1998-06-26 12:00:00,23,1014.3,-0.2,38,8,25000,22.224,,,250,,,,,,,,,,,wg-a,,,,AAXX 26124 07070 12775 62512 10230 20080 30038 40143 58002 60006 84201 91200=
07070,1998-06-26 15:00:00,23,1014,-0.3,44,10,25000,22.224,,,260,,,,,,,,,,,wg-a,,,,AAXX 26154 07070 12775 72612 10230 20100 30035 40140 56003 60006 82231 91500=
07070,1998-06-26 18:00:00,22,1014.1,-0,46,10,25000,14.816,,,250,14.8,23.7,,,,,,,,,wg-a,,,,AAXX 26184 07070 12775 72508 10220 20100 30035 40141 55000 60006 844/2 91800 333 10237 20148=
07070,1998-06-26 21:00:00,17,1014.5,0.3,68,11,20000,7.408,,,260,,,,,,,,,,,wg-a,,,,AAXX 26214 07070 12870 72604 10170 20110 30038 40145 52003 60006 84071 92100=
07070,1998-06-27 00:00:00,13,1014.1,-0.6,82,10,20000,11.112,,,180,,,,,,,,,,,wg-a,,,,AAXX 27004 07070 12/70 61806 10130 20100 30032 40141 58006 60006 83031 90000=
07070,1998-06-27 03:00:00,13,1013.3,-0.8,88,11,20000,11.112,,,180,,,,,,,,,,,wg-a,,,,AAXX 27034 07070 12/70 71806 10130 20110 30024 40133 58008 60006 85072 90300=
07070,1998-06-27 06:00:00,16,1013,-0.1,77,12,20000,11.112,,,220,12.2,21.8,,,,,,,,,wg-a,,,,AAXX 27064 07070 02/70 72206 10160 20120 30023 40130 55001 60006 82032 90600 333 10218 20122 60004=
07070,1998-06-27 09:00:00,20,1012.7,-0.2,60,12,35000,18.52,,,240,,,,,,,,,,,wg-a,,,,AAXX 27094 07070 12681 72410 10200 20120 30021 40127 58002 60006 81132 90900=
07070,1998-06-27 12:00:00,22,1011.9,-0.7,50,11,35000,25.928,,,230,,,,,,,,,,,wg-a,,,,AAXX 27124 07070 12681 72314 10220 20110 30014 40119 57007 60006 8383/ 91200=
07070,1998-06-27 15:00:00,22,1011.6,-0.3,53,12,35000,18.52,,,260,,,,,,,,,,,wg-a,,,,AAXX 27154 07070 12781 82610 10220 20120 30011 40116 56003 60006 8587/ 91500=
07070,1998-06-27 18:00:00,19,1011.2,-0.5,73,14,20000,18.52,,,310,16.4,22.8,,,,,,,,60,wg-a,,,,AAXX 27184 07070 02770 83110 10190 20140 30006 40112 55005 61000 76062 8657/ 91800 333 10228 20164 6100=
07070,1998-06-27 21:00:00,15,1013.1,1.7,94,14,8000,22.224,,,250,,,,2,,,,,,21,wg-a,,,,AAXX 27214 07070 12458 72512 10150 20140 30023 40131 53017 60027 72162 878// 92100=
07070,1998-06-28 00:00:00,14,1014.8,1.7,94,13,15000,7.408,,,260,,,,,,,,,,1,wg-a,,,,AAXX 28004 07070 12765 72604 10140 20130 30040 40148 53017 60026 70162 875// 90000=
07070,1998-06-28 03:00:00,13,1016.1,1.2,94,12,15000,14.816,,,240,,,,,,,,,,,wg-a,,,,AAXX 28034 07070 12765 52408 10130 20120 30052 40161 53012 60006 825/1 90300=
07070,1998-06-28 06:00:00,14,1017.6,1.5,82,11,12000,22.224,,,260,11.8,18.8,,,,,2,,,,wg-a,,,,AAXX 28064 07070 02762 12612 10140 20110 30067 40176 52015 60006 81501 90600 333 10188 20118 60024=
07070,1998-06-28 09:00:00,17,1018.8,1.3,63,10,20000,25.928,,,270,,,,,,,,,,,wg-a,,,,AAXX 28094 07070 12570 /2714 10170 20100 30080 40188 51013 60006 86200 90900=
07070,1998-06-28 12:00:00,19,1019.3,0.6,60,11,20000,18.52,,,260,,,,,,,,,,,wg-a,,,,AAXX 28124 07070 12670 72610 10190 20110 30086 40193 52006 60006 878// 91200=
07070,1998-06-28 18:00:00,19,1019.5,0.2,60,11,25000,14.816,,,290,13.5,20.8,,,,,,,,,wg-a,,,,AAXX 28184 07070 12775 72908 10190 20110 30088 40195 53002 60006 878// 91800 333 10208 20135=
07070,1998-06-28 21:00:00,16,1020.4,0.8,77,12,20000,11.112,,,260,,,,,,,,,,,wg-a,,,,AAXX 28214 07070 12770 72606 10160 20120 30096 40204 53008 60006 875// 92100=
07070,1998-06-29 00:00:00,15,1020.6,0.1,82,12,20000,3.704,,,230,,,,,,,,,,,wg-a,,,,AAXX 29004 07070 12770 72302 10150 20120 30097 40206 52001 60006 875// 90000=
07070,1998-06-29 06:00:00,15,1021,0.7,88,13,20000,11.112,,,250,14.1,19,,,,,,,,,wg-a,,,,AAXX 29064 07070 02670 72506 10150 20130 30101 40210 53007 60006 878// 90600 333 10190 20141 60004=
07070,1998-06-29 09:00:00,19,1020.6,-0.2,64,12,25000,11.112,,,260,,,,,,,,,,,wg-a,,,,AAXX 29094 07070 12575 72606 10190 20120 30099 40206 58002 60006 878// 90900=
07070,1998-06-29 12:00:00,21,1019.9,-0.7,53,11,25000,14.816,,,280,,,,,,,,,,,wg-a,,,,AAXX 29124 07070 12675 72808 10210 20110 30092 40199 57007 60006 84202 91200=
07070,1998-06-29 15:00:00,21,1018.6,-1.2,56,12,25000,14.816,,,300,,,,,,,,,,,wg-a,,,,AAXX 29154 07070 12675 /3008 10210 20120 30080 40186 58012 60006 82209 91500=
07070,1998-06-29 18:00:00,20,1018.2,-0.5,60,12,25000,14.816,,,340,15.4,21.9,,,,,,,,,wg-a,,,,AAXX 29184 07070 12675 73408 10200 20120 30075 40182 58005 60006 81232 91800 333 10219 20154=
07070,1998-06-29 21:00:00,15,1018.8,0.4,82,12,15000,7.408,,,10,,,,,,,,,,,wg-a,,,,AAXX 29214 07070 12665 30104 10150 20120 30079 40188 53004 60006 81532 92100=
07070,1998-06-30 00:00:00,11,1018,-0.9,100,11,12000,3.704,,,290,,,,,,,,,,,wg-a,,,,AAXX 30004 07070 12/62 12902 10110 20110 30070 40180 58009 60006 80001 90000=
07070,1998-06-30 03:00:00,9,1017.1,-1,100,9,10000,3.704,,,200,,,,,,,,,,,wg-a,,,,AAXX 30034 07070 12660 62002 10090 20090 30060 40171 57010 60006 83501 90300=
07070,1998-06-30 06:00:00,13,1015.7,-1.2,94,12,12000,7.408,,,230,8.5,19.7,,,,,,,,,wg-a,,,,AAXX 30064 07070 02662 72304 10130 20120 30048 40157 58012 60006 8157/ 90600 333 10197 20085 60004=
07070,1998-06-30 09:00:00,18,1014.8,-0.7,64,11,15000,18.52,,,260,,,,,,,,,,,wg-a,,,,AAXX 30094 07070 12565 72610 10180 20110 30041 40148 58007 60006 82172 90900=
07070,1998-06-30 12:00:00,17,1014.3,-0.5,82,14,8000,18.52,,,230,,,,0,,,,,,61,wg-a,,,,AAXX 30124 07070 02558 82310 10170 20140 30036 40143 58005 60016 76162 8317/ 91200 333 60007=
07070,1998-06-30 15:00:00,18,1014,-0.3,77,14,12000,25.928,,,250,,,,0,,,,,,21,wg-a,,,,AAXX 30154 07070 12462 82514 10180 20140 30033 40140 58003 60007 72162 872// 91500=
07070,1998-06-30 18:00:00,18,1013.4,-0.6,83,15,20000,18.52,,,250,12.5,18.7,,,,,,,,1,wg-a,,,,AAXX 30184 07070 02470 72510 10180 20150 30027 40134 56006 60006 70162 878// 91800 333 10187 20125 61000=
07070,1998-06-30 21:00:00,16,1013.5,0.1,94,15,15000,11.112,,,250,,,,1,,,,,,21,wg-a,,,,AAXX 30214 07070 12565 72506 10160 20150 30028 40135 53001 60017 72162 878// 92100=
07070,1998-07-01 00:00:00,16,1013.4,-0.1,100,16,15000,7.408,,,270,,,,,,,,,,61,wg-a,,,,AAXX 01004 07070 02565 82704 10160 20160 30027 40134 55001 60016 76162 888// 90000 333 61000=
07070,1998-07-01 03:00:00,15,1013.1,-0.4,94,14,10000,11.112,,,310,,,,0,,,,,,1,wg-a,,,,AAXX 01034 07070 12460 73106 10150 20140 30023 40131 55004 60007 70162 875// 90300=
07070,1998-07-01 06:00:00,13,1013.4,0.2,100,13,200,11.112,,,20,12.7,18,,,,,2,,,45,wg-a,,,,AAXX 01064 07070 02/02 90206 10130 20130 30025 40134 50002 60006 74564 89/// 90600 333 10180 20127 60024=
07070,1998-07-01 09:00:00,16,1013.4,0.1,88,14,7000,11.112,,,40,,,,,,,,,,3,wg-a,,,,AAXX 01094 07070 12357 70406 10160 20140 30026 40134 50001 60006 70342 8723/ 90900=
07070,1998-07-01 12:00:00,21,1012.8,-0.4,60,13,10000,14.816,,,10,,,,,,,,,,3,wg-a,,,,AAXX 01124 07070 12660 70108 10210 20130 30022 40128 56004 60006 70342 8583/ 91200=
07070,1998-07-01 15:00:00,20,1011.8,-1,56,11,15000,18.52,,,30,,,,,,,,,,,wg-a,,,,AAXX 01154 07070 12665 70310 10200 20110 30012 40118 58010 60006 8227/ 91500=
07070,1998-07-01 18:00:00,19,1011.2,-0.6,68,13,12000,11.112,,,20,12.6,21.4,,,,,,,,,wg-a,,,,AAXX 01184 07070 12/62 70206 10190 20130 30006 40112 56006 60006 8707/ 91800 333 10214 20126=
07070,1998-07-01 21:00:00,16,1012.2,0.9,82,13,10000,11.112,,,20,,,,,,,,,,,wg-a,,,,AAXX 01214 07070 12760 70206 10160 20130 30015 40122 53009 60006 82572 92100=
07070,1998-07-02 00:00:00,13,1012.7,0.3,88,11,12000,11.112,,,30,,,,,,,,,,,wg-a,,,,AAXX 02004 07070 12762 70306 10130 20110 30018 40127 53003 60006 83571 90000=
07070,1998-07-02 03:00:00,12,1013.1,0.4,94,11,6000,14.816,,,20,,,,,,,,,,,wg-a,,,,AAXX 02034 07070 12/56 70208 10120 20110 30022 40131 52004 60006 82031 90300=
07070,1998-07-02 06:00:00,13,1013.9,0.8,94,12,4000,11.112,,,20,10.6,18.7,,,,,,,,10,wg-a,,,,AAXX 02064 07070 02/40 70206 10130 20120 30030 40139 51008 60006 71022 81032 90600 333 10187 20106 60004=
07070,1998-07-02 09:00:00,18,1014.2,0.5,68,12,18000,22.224,,,60,,,,,,,,,,,wg-a,,,,AAXX 02094 07070 12/68 70612 10180 20120 30035 40142 50005 60006 80002 90900=
07070,1998-07-02 12:00:00,20,1014.2,0.1,60,12,25000,18.52,,,40,,,,,,,,,,,wg-a,,,,AAXX 02124 07070 12675 70410 10200 20120 30036 40142 52001 60006 81172 91200=
07070,1998-07-02 15:00:00,19,1014.2,0,73,14,15000,14.816,,,40,,,,,,,,,,,wg-a,,,,AAXX 02154 07070 12665 80408 10190 20140 30036 40142 50000 60006 8387/ 91500=
07070,1998-07-02 18:00:00,20,1014.1,-0.1,68,14,15000,18.52,,,40,13.2,20.7,,,,,,,,,wg-a,,,,AAXX 02184 07070 12665 50410 10200 20140 30035 40141 55001 60006 81132 91800 333 10207 20132=
07070,1998-07-03 00:00:00,11,1015.9,0.1,94,10,12000,11.112,,,330,,,,,,,,,,,wg-a,,,,AAXX 03004 07070 12/62 33306 10110 20100 30049 40159 53001 60006 81031 90000=
07070,1998-07-03 03:00:00,10,1016.2,0.3,100,10,500,11.112,,,330,,,,,,,,,,,wg-a,,,,AAXX 03034 07070 12/00 /3306 10100 20100 30052 40162 53003 60006 81031 90300=
07070,1998-07-03 06:00:00,13,1016.6,0.5,94,12,2800,14.816,,,350,9.8,19.7,,,,,,,,10,wg-a,,,,AAXX 03064 07070 02/28 /3508 10130 20120 30057 40166 50005 60006 71000 80002 90600 333 10197 20098 60004=
07070,1998-07-03 09:00:00,18,1017.2,0.8,73,13,6000,14.816,,,10,,,,,,,,,,,wg-a,,,,AAXX 03094 07070 12556 40108 10180 20130 30065 40172 51008 60006 84200 90900=
07070,1998-07-03 12:00:00,20,1018.1,0.9,56,11,10000,22.224,,,360,,,,,,,,,,,wg-a,,,,AAXX 03124 07070 12660 33612 10200 20110 30074 40181 51009 60006 83200 91200=
07070,1998-07-03 15:00:00,19,1019.3,1.2,60,11,10000,25.928,,,340,,,,,,,,,,,wg-a,,,,AAXX 03154 07070 12560 73414 10190 20110 30086 40193 52012 60006 878// 91500=
07070,1998-07-03 18:00:00,17,1020.5,1.1,68,11,15000,22.224,,,360,12.9,21.1,,,,,,,,,wg-a,,,,AAXX 03184 07070 12665 73612 10170 20110 30097 40205 53011 60006 875// 91800 333 10211 20129=
07070,1998-07-04 00:00:00,11,1023.5,0.7,94,10,15000,7.408,,,310,,,,,,,,,,,wg-a,,,,AAXX 04004 07070 12665 23104 10110 20100 30124 40235 51007 60006 82500 90000=
07070,1998-07-04 03:00:00,8,1023.9,0.3,100,8,8000,3.704,,,260,,,,,,,,,,,wg-a,,,,AAXX 04034 07070 12/58 02602 10080 20080 30127 40239 53003 60006 80000 90300=
07070,1998-07-04 06:00:00,12,1024.5,0.8,88,10,6000,3.704,,,250,7.7,17.2,,,,,,,,,wg-a,,,,AAXX 04064 07070 02/56 /2502 10120 20100 30135 40245 51008 60006 81030 90600 333 10172 20077 60004=
07070,1998-07-04 09:00:00,17,1024.6,0.3,63,10,12000,11.112,,,240,,,,,,,,,,,wg-a,,,,AAXX 04094 07070 12562 72406 10170 20100 30138 40246 53003 60006 878// 90900=
07070,1998-07-04 12:00:00,20,1024,-0.5,56,11,12000,14.816,,,290,,,,,,,,,,,wg-a,,,,AAXX 04124 07070 12662 /2908 10200 20110 30133 40240 58005 60006 85200 91200=
07070,1998-07-04 15:00:00,22,1022.9,-1,53,12,10000,14.816,,,310,,,,,,,,,,,wg-a,,,,AAXX 04154 07070 12660 63108 10220 20120 30123 40229 58010 60006 83230 91500=
07070,1998-07-04 18:00:00,21,1022,-1,60,13,10000,7.408,,,360,11.8,22.8,,,,,,,,,wg-a,,,,AAXX 04184 07070 12760 63604 10210 20130 30113 40220 56010 60006 82231 91800 333 10228 20118=
07070,1998-07-04 21:00:00,16,1023.1,0.9,82,13,10000,14.816,,,330,,,,,,,,,,,wg-a,,,,AAXX 04214 07070 12/60 23308 10160 20130 30122 40231 53009 60006 81031 92100=
07070,1998-07-05 00:00:00,12,1022.8,-0.4,94,11,10000,11.112,,,300,,,,,,,,,,,wg-a,,,,AAXX 05004 07070 12/60 03006 10120 20110 30118 40228 57004 60006 80000 90000=
07070,1998-07-05 03:00:00,12,1021.7,-1.1,94,11,500,11.112,,,260,,,,,,,,,,,wg-a,,,,AAXX 05034 07070 12500 72606 10120 20110 30107 40217 57011 60006 875// 90300=
07070,1998-07-05 06:00:00,13,1020.9,-0.7,94,12,500,11.112,,,250,11.7,21.2,,,,,,,,,wg-a,,,,AAXX 05064 07070 02500 72506 10130 20120 30100 40209 56007 60006 83531 90600 333 10212 20117 60004=
07070,1998-07-05 09:00:00,16,1021.1,0.2,82,13,6000,14.816,,,260,,,,,,,,,,,wg-a,,,,AAXX 05094 07070 12456 82608 10160 20130 30102 40211 53002 60006 8482/ 90900=
07070,1998-07-05 12:00:00,18,1020.3,-0.7,68,12,8000,22.224,,,270,,,,,,,,,,,wg-a,,,,AAXX 05124 07070 12558 82712 10180 20120 30095 40203 57007 60006 874// 91200=
07070,1998-07-05 15:00:00,17,1019.9,-0.4,77,13,12000,22.224,,,290,,,,,,,,,,,wg-a,,,,AAXX 05154 07070 12562 82912 10170 20130 30091 40199 55004 60006 8552/ 91500=
07070,1998-07-05 18:00:00,18,1018.4,-1.4,73,13,8000,14.816,,,250,13.3,18.6,,,,,,,,,wg-a,,,,AAXX 05184 07070 12558 /2508 10180 20130 30077 40184 58014 60006 81570 91800 333 10186 20133=
07070,1998-07-05 21:00:00,16,1018.2,-0.3,82,13,10000,14.816,,,250,,,,,,,,,,,wg-a,,,,AAXX 05214 07070 12660 72508 10160 20130 30074 40182 56003 60006 875// 92100=
07070,1998-07-06 00:00:00,16,1017.4,-0.8,82,13,10000,14.816,,,250,,,,,,,,,,,wg-a,,,,AAXX 06004 07070 12660 72508 10160 20130 30066 40174 58008 60006 875// 90000=
07070,1998-07-06 03:00:00,15,1015.8,-1.6,82,12,10000,7.408,,,260,,,,,,,,,,,wg-a,,,,AAXX 06034 07070 12660 72604 10150 20120 30050 40158 57016 60006 875// 90300=
07070,1998-07-06 06:00:00,16,1015.1,-0.7,82,13,12000,11.112,,,250,15.2,18.1,,,,,,,,,wg-a,,,,AAXX 06064 07070 02562 82506 10160 20130 30043 40151 56007 60006 885// 90600 333 10181 20152 60004=
07070,1998-07-06 12:00:00,18,1014.1,-0.7,77,14,10000,11.112,,,290,,,,,,,,,,,wg-a,,,,AAXX 06124 07070 12560 82906 10180 20140 30034 40141 56007 60006 885// 91200=
07070,1998-07-06 15:00:00,18,1013.4,-0.7,77,14,9000,11.112,,,320,,,,,,,,,,,wg-a,,,,AAXX 06154 07070 12459 83206 10180 20140 30027 40134 57007 60006 885// 91500=
07070,1998-07-06 18:00:00,17,1012.2,-1.2,82,14,9000,11.112,,,330,15.9,18.6,,,,,,,,,wg-a,,,,AAXX 06184 07070 12559 83306 10170 20140 30015 40122 56012 60006 885// 91800 333 10186 20159=
07070,1998-07-06 21:00:00,16,1011.8,-0.4,88,14,6000,3.704,,,350,,,,,,,,,,,wg-a,,,,AAXX 06214 07070 12556 73502 10160 20140 30011 40118 57004 60006 875// 92100=
07070,1998-07-07 00:00:00,16,1010.9,-0.9,94,15,6000,3.704,,,300,,,,,,,,,,,wg-a,,,,AAXX 07004 07070 12356 83002 10160 20150 30002 40109 58009 60006 886// 90000=
07070,1998-07-07 03:00:00,15,1009.8,-1.1,100,15,500,7.408,,,320,,,,,,,,,,,wg-a,,,,AAXX 07034 07070 12200 83204 10150 20150 39991 40098 58011 60006 886// 90300=
07070,1998-07-07 06:00:00,12,1010.5,0.5,100,12,1500,29.632,,,30,12.3,17,,,,,,,,10,wg-a,,,,AAXX 07064 07070 02115 80316 10120 20120 39996 40105 53005 61000 71065 877// 90600 333 10170 20123 6001=
07070,1998-07-07 12:00:00,17,1012.3,0.8,68,11,10000,18.52,,,350,,,,0,,,,,,21,wg-a,,,,AAXX 07124 07070 02560 73510 10170 20110 30016 40123 50008 60016 72165 8583/ 91200 333 60007=
07070,1998-07-07 15:00:00,18,1012.3,-0,59,10,20000,18.52,,,350,,,,,,,,,,,wg-a,,,,AAXX 07154 07070 12670 73510 10180 20100 30016 40123 55000 60006 878// 91500=
07070,1998-07-07 18:00:00,17,1012.9,0.6,63,10,20000,14.816,,,360,11.8,18.8,,,,,,,,,wg-a,,,,AAXX 07184 07070 12670 /3608 10170 20100 30022 40129 53006 60006 86800 91800 333 10188 20118=
07070,1998-07-07 21:00:00,11,1015.2,2,82,8,15000,7.408,,,300,,,,,,,,,,,wg-a,,,,AAXX 07214 07070 12/65 33004 10110 20080 30042 40152 53020 60006 81031 92100=
07070,1998-07-08 00:00:00,11,1015.5,0.3,87,9,0,11.112,,,250,,,,,,,,,,,wg-a,,,,AAXX 08004 07070 12/// /2506 10110 20090 30045 40155 50003 60006 90000=
07070,1998-07-08 03:00:00,11,1015.3,-0.2,94,10,10000,14.816,,,250,,,,1,,,,,,21,wg-a,,,,AAXX 08034 07070 12460 82508 10110 20100 30043 40153 58002 60017 72162 875// 90300=
07070,1998-07-08 06:00:00,13,1016,0.8,94,12,6000,14.816,,,300,10.2,16.8,,,,,1,,,3,wg-a,,,,AAXX 08064 07070 02356 73008 10130 20120 30051 40160 51008 60006 70361 83831 90600 333 10168 20102 60014=
07070,1998-07-08 09:00:00,16,1016.3,0.4,63,9,25000,14.816,,,350,,,,,,,,,,,wg-a,,,,AAXX 08094 07070 12575 73508 10160 20090 30055 40163 51004 60006 81101 90900=
07070,1998-07-08 12:00:00,19,1016.3,0.1,46,7,500,14.816,,,330,,,,,,,,,,,wg-a,,,,AAXX 08124 07070 12600 73308 10190 20070 30056 40163 50001 60006 83231 91200=
07070,1998-07-08 15:00:00,20,1015.9,-0.4,46,8,25000,14.816,,,320,,,,,,,,,,,wg-a,,,,AAXX 08154 07070 12775 73208 10200 20080 30052 40159 56004 60006 874// 91500=
07070,1998-07-08 18:00:00,20,1015.3,-0.5,56,11,15000,11.112,,,290,13.1,20.9,,,,,,,,,wg-a,,,,AAXX 08184 07070 12665 72906 10200 20110 30047 40153 56005 60006 874// 91800 333 10209 20131=
07070,1998-07-08 21:00:00,14,1016.9,1.3,77,10,10000,7.408,,,300,,,,,,,,,,,wg-a,,,,AAXX 08214 07070 12/60 53004 10140 20100 30060 40169 53013 60006 83031 92100=
07070,1998-07-09 00:00:00,13,1016.6,-0.3,82,10,10000,7.408,,,250,,,,,,,,,,,wg-a,,,,AAXX 09004 07070 12/60 52504 10130 20100 30057 40166 58003 60006 85080 90000=
07070,1998-07-09 03:00:00,13,1015.6,-1,82,10,10000,11.112,,,240,,,,,,,,,,,wg-a,,,,AAXX 09034 07070 12/60 82406 10130 20100 30047 40156 56010 60006 8807/ 90300=
07070,1998-07-09 06:00:00,14,1015.3,-0.3,88,12,11000,14.816,,,260,12.1,19.9,,,,,,,,,wg-a,,,,AAXX 09064 07070 02/61 /2608 10140 20120 30044 40153 58003 60006 90600 333 10199 20121 60004=
07070,1998-07-09 09:00:00,15,1015.7,0.5,82,12,8000,14.816,,,250,,,,,,,,,,1,wg-a,,,,AAXX 09094 07070 02458 82508 10150 20120 30049 40157 52005 61000 70162 875// 90900 333 ////=
07070,1998-07-09 12:00:00,18,1015.6,-0,68,12,12000,25.928,,,260,,,,,,,,,,3,wg-a,,,,AAXX 09124 07070 02562 82614 10180 20120 30049 40156 55000 61000 70362 888// 91200 333 6100=
07070,1998-07-09 15:00:00,18,1015.6,-0,73,13,16000,22.224,,,280,,,,,,,,,,3,wg-a,,,,AAXX 09154 07070 02566 72812 10180 20130 30049 40156 55000 61000 70362 872// 91500 333 ////=
07070,1998-07-09 18:00:00,17,1015.4,-0.2,82,14,16000,22.224,,,260,14.1,17.9,,,,,,,,3,wg-a,,,,AAXX 09184 07070 12466 82612 10170 20140 30047 40154 56002 60006 70362 885// 91800 333 10179 20141=
07070,1998-07-09 21:00:00,16,1015.7,0.2,88,14,16000,18.52,,,240,,,,,,,,,,,wg-a,,,,AAXX 09214 07070 12466 72410 10160 20140 30049 40157 53002 60006 875// 92100=
07070,1998-07-10 00:00:00,16,1015.7,0,88,14,10000,14.816,,,240,,,,,,,,,,,wg-a,,,,AAXX 10004 07070 12460 72408 10160 20140 30049 40157 50000 60006 875// 90000=
07070,1998-07-10 03:00:00,16,1014.7,-1,94,15,500,11.112,,,220,,,,0,,,,,,,wg-a,,,,AAXX 10034 07070 12200 82206 10160 20150 30039 40147 56010 60007 887// 90300=
07070,1998-07-10 06:00:00,16,1014.7,-0,88,14,25000,18.52,,,260,15,17.2,,,,,,,,1,wg-a,,,,AAXX 10064 07070 02475 72610 10160 20140 30039 40147 55000 60006 70165 8553/ 90600 333 10172 20150 60004=
07070,1998-07-10 12:00:00,19,1014.5,-0.2,68,13,25000,22.224,,,280,,,,,,,,,,21,wg-a,,,,AAXX 10124 07070 02575 72812 10190 20130 30038 40145 56002 61000 72162 8687/ 91200 333 6100=
07070,1998-07-10 15:00:00,19,1014.5,0,78,15,25000,18.52,,,280,,,,,,,,,,,wg-a,,,,AAXX 10154 07070 12575 72810 10190 20150 30038 40145 50000 60006 8587/ 91500=
07070,1998-07-10 18:00:00,19,1013.8,-0.6,73,14,25000,14.816,,,260,15.5,21.1,,,,,,,,,wg-a,,,,AAXX 10184 07070 12575 72608 10190 20140 30032 40138 56006 60006 8387/ 91800 333 10211 20155=
07070,1998-07-10 21:00:00,17,1014.3,0.4,77,13,25000,11.112,,,240,,,,,,,,,,,wg-a,,,,AAXX 10214 07070 12775 72406 10170 20130 30036 40143 53004 60006 8653/ 92100=
07070,1998-07-11 00:00:00,16,1013.7,-0.6,88,14,25000,25.928,,,260,,,,,,,,,,,wg-a,,,,AAXX 11004 07070 12575 82614 10160 20140 30030 40137 57006 60006 885// 90000=
07070,1998-07-11 03:00:00,15,1012.9,-0.9,94,14,8000,22.224,,,240,,,,0,,,,,,1,wg-a,,,,AAXX 11034 07070 12558 72412 10150 20140 30021 40129 58009 60007 70152 875// 90300=
07070,1998-07-11 06:00:00,16,1013.7,0.8,88,14,15000,22.224,,,270,14.8,19.3,,,,,,,,3,wg-a,,,,AAXX 11064 07070 02465 72712 10160 20140 30029 40137 53008 60006 70352 878// 90600 333 10193 20148 60004=
07070,1998-07-11 09:00:00,18,1014.8,1.2,77,14,20000,22.224,,,270,,,,,,,,,,,wg-a,,,,AAXX 11094 07070 12570 82712 10180 20140 30041 40148 51012 60006 8687/ 90900=
07070,1998-07-11 12:00:00,21,1014.6,-0.1,56,12,20000,29.632,,,260,,,,,,,,,,,wg-a,,,,AAXX 11124 07070 12570 72616 10210 20120 30040 40146 58001 60006 84232 91200=
07070,1998-07-11 15:00:00,22,1014.3,-0.2,46,10,20000,25.928,,,280,,,,,,,,,,,wg-a,,,,AAXX 11154 07070 12670 72814 10220 20100 30038 40143 58002 60006 84131 91500=
07070,1998-07-11 18:00:00,18,1014.7,0.2,77,14,15000,7.408,,,320,15.8,22.7,,,,,,,,61,wg-a,,,,AAXX 11184 07070 02765 83204 10180 20140 30040 40147 50002 61000 76162 8157/ 91800 333 10227 20158 6000=
07070,1998-07-11 21:00:00,15,1013.5,-1.3,94,14,12000,7.408,,,150,,,,1,,,,,,61,wg-a,,,,AAXX 11214 07070 12662 81504 10150 20140 30027 40135 58013 60017 76166 8177/ 92100=
07070,1998-07-12 00:00:00,17,1011.2,-2.2,82,14,10000,11.112,,,250,,,,0,,,,,,2,wg-a,,,,AAXX 12004 07070 02660 82506 10170 20140 30005 40112 56022 60016 70262 8177/ 90000 333 60007=
07070,1998-07-12 03:00:00,17,1011,-0.2,82,14,10000,18.52,,,240,,,,,,,,,,,wg-a,,,,AAXX 12034 07070 12560 82410 10170 20140 30003 40110 57002 60006 887// 90300=
07070,1998-07-12 06:00:00,16,1011.1,0.1,94,15,20000,22.224,,,240,14.9,17.7,,,,,,,,21,wg-a,,,,AAXX 12064 07070 02470 82412 10160 20150 30004 40111 53001 61000 72162 8567/ 90600 333 10177 20149 6002=
07070,1998-07-12 09:00:00,19,1011.3,0.3,83,16,20000,31.484,,,240,,,,,,,,,,,wg-a,,,,AAXX 12094 07070 12470 72417 10190 20160 30007 40113 50003 60006 875// 90900=
07070,1998-07-12 12:00:00,22,1011.1,-0.1,69,16,25000,29.632,,,240,,,,,,,,,,,wg-a,,,,AAXX 12124 07070 12575 72416 10220 20160 30006 40111 58001 60006 86830 91200=
07070,1998-07-12 15:00:00,25,1009.3,-1.7,57,16,25000,31.484,,,230,,,,,,,,,,,wg-a,,,,AAXX 12154 07070 12675 32317 10250 20160 39989 40093 56017 60006 83201 91500=
07070,1998-07-12 18:00:00,26,1007.5,-1.7,45,13,500,29.632,,50.004,240,16.1,26.4,,,,,,,,,wg-a,,,,AAXX 12184 07070 12/00 22416 10260 20130 39972 40075 58017 60006 82030 91800 333 10264 20161 91027=
07070,1998-07-12 21:00:00,22,1007.9,0.2,60,14,25000,25.928,,,240,,,,,,,,,,,wg-a,,,,AAXX 12214 07070 12/75 42414 10220 20140 39974 40079 53002 60006 82031 92100=
07070,1998-07-13 00:00:00,20,1008.4,0.4,68,14,25000,25.928,,,250,,,,,,,,,,,wg-a,,,,AAXX 13004 07070 12675 72514 10200 20140 39978 40084 53004 60006 82531 90000=
07070,1998-07-13 06:00:00,16,1008.2,0.6,94,15,3000,18.52,,,220,16.1,25.8,,,,,,,,63,wg-a,,,,AAXX 13064 07070 02430 82210 10160 20150 39975 40082 52006 61000 76362 8557/ 90600 333 10258 20161 6003=
07070,1998-07-13 09:00:00,14,1009.1,0.8,94,13,7000,18.52,,,320,,,,5,,,,,,61,wg-a,,,,AAXX 13094 07070 12457 83210 10140 20130 39983 40091 53008 60057 76166 875// 90900=
07070,1998-07-13 12:00:00,15,1009.2,0.1,94,14,10000,11.112,,,310,,,,5,,,,,,60,wg-a,,,,AAXX 13124 07070 02460 83106 10150 20140 39984 40092 51001 60106 76066 8557/ 91200 333 60057=
07070,1998-07-13 15:00:00,18,1009.3,0.3,77,14,15000,14.816,,,260,,,,1,,,,,,1,wg-a,,,,AAXX 13154 07070 12465 /2608 10180 20140 39987 40093 51003 60017 70162 85870 91500=
07070,1998-07-13 18:00:00,19,1010.8,1.5,52,9,500,29.632,,,300,13.8,20,,,,,,,,1,wg-a,,,,AAXX 13184 07070 12600 53016 10190 20090 30002 40108 53015 60006 70162 85200 91800 333 10200 20138=
07070,1998-07-13 21:00:00,14,1013.4,2.4,72,9,25000,18.52,,,290,,,,,,,,,,,wg-a,,,,AAXX 13214 07070 12/75 12910 10140 20090 30026 40134 53024 60006 80001 92100=
07070,1998-07-14 00:00:00,11,1014.4,0.8,82,8,25000,14.816,,,230,,,,,,,,,,,wg-a,,,,AAXX 14004 07070 12/75 22308 10110 20080 30034 40144 51008 60006 80001 90000=
07070,1998-07-14 03:00:00,10,1014.1,-0.3,93,9,25000,14.816,,,250,,,,,,,,,,,wg-a,,,,AAXX 14034 07070 12/75 02508 10100 20090 30031 40141 55003 60006 80000 90300=
07070,1998-07-14 06:00:00,12,1014.8,0.8,94,11,15000,18.52,,,250,9.7,18.9,,,,,11,,,,wg-a,,,,AAXX 14064 07070 02465 /2510 10120 20110 30039 40148 51008 60006 81700 90600 333 10189 20097 60114=
07070,1998-07-14 09:00:00,16,1015.6,0.9,72,11,15000,22.224,,,260,,,,,,,,,,,wg-a,,,,AAXX 14094 07070 12565 72612 10160 20110 30048 40156 51009 60006 872// 90900=
07070,1998-07-14 12:00:00,20,1014.9,-0.5,53,10,20000,25.928,,,260,,,,,,,,,,,wg-a,,,,AAXX 14124 07070 12670 /2614 10200 20100 30043 40149 58005 60006 85800 91200=
07070,1998-07-14 15:00:00,21,1014.6,-0.3,46,9,20000,25.928,,,260,,,,,,,,,,,wg-a,,,,AAXX 14154 07070 12670 52614 10210 20090 30040 40146 58003 60006 85800 91500=
07070,1998-07-14 18:00:00,20,1014.6,-0,49,9,20000,22.224,,,320,12.5,21,,,,,,,,,wg-a,,,,AAXX 14184 07070 12770 23212 10200 20090 30040 40146 55000 60006 82801 91800 333 10210 20125=
07070,1998-07-14 21:00:00,13,1016.2,1.3,77,9,10000,7.408,,,320,,,,,,,,,,,wg-a,,,,AAXX 14214 07070 12/60 33204 10130 20090 30053 40162 52013 60006 81031 92100=
07070,1998-07-15 00:00:00,11,1016.7,0.4,82,8,10000,7.408,,,240,,,,,,,,,,,wg-a,,,,AAXX 15004 07070 12/60 32404 10110 20080 30057 40167 50004 60006 81031 90000=
07070,1998-07-15 03:00:00,10,1016.5,-0.3,87,8,10000,14.816,,,220,,,,,,,,,,,wg-a,,,,AAXX 15034 07070 12/60 32208 10100 20080 30054 40165 56003 60006 81031 90300=
07070,1998-07-15 06:00:00,12,1016.4,0.1,88,10,20000,18.52,,,230,7.8,19.8,,,,,,,,,wg-a,,,,AAXX 15064 07070 02770 62310 10120 20100 30055 40164 52001 60006 85531 90600 333 10198 20078 60004=
07070,1998-07-15 09:00:00,16,1016.6,0.3,72,11,12000,22.224,,,260,,,,,,,,,,,wg-a,,,,AAXX 15094 07070 12562 /2612 10160 20110 30058 40166 50003 60006 83202 90900=
07070,1998-07-15 12:00:00,19,1016.7,0.2,56,10,18000,25.928,,,240,,,,,,,,,,,wg-a,,,,AAXX 15124 07070 12668 72414 10190 20100 30060 40167 53002 60006 878// 91200=
07070,1998-07-15 15:00:00,18,1016.8,0.1,59,10,16000,25.928,,,260,,,,,,,,,,,wg-a,,,,AAXX 15154 07070 12666 72614 10180 20100 30061 40168 53001 60006 8383/ 91500=
07070,1998-07-15 18:00:00,18,1016.7,-0.1,64,11,20000,14.816,,,270,12.2,19.9,,,,,,,,,wg-a,,,,AAXX 15184 07070 12670 72708 10180 20110 30060 40167 58001 60006 8383/ 91800 333 10199 20122=
07070,1998-07-15 21:00:00,16,1017.1,0.3,82,13,15000,0,,,0,,,,,,,,,,,wg-a,,,,AAXX 15214 07070 12665 70000 10160 20130 30063 40171 51003 60006 878// 92100=
07070,1998-07-16 00:00:00,14,1016,-1.2,94,13,15000,11.112,,,160,,,,,,,,,,,wg-a,,,,AAXX 16004 07070 12665 71606 10140 20130 30051 40160 58012 60006 875// 90000=
07070,1998-07-16 03:00:00,14,1014.4,-1.5,88,12,10000,11.112,,,230,,,,0,,,,,,63,wg-a,,,,AAXX 16034 07070 12660 82306 10140 20120 30036 40144 56015 60007 76362 885// 90300=
07070,1998-07-16 06:00:00,13,1013.4,-1.1,100,13,4500,3.704,,,170,12.9,18.2,,,,,,,,63,wg-a,,,,AAXX 16064 07070 02845 81702 10130 20130 30025 40134 56011 61000 76362 8652/ 90600 333 10182 20129 6002=
07070,1998-07-16 09:00:00,14,1012.9,-0.4,94,13,8000,14.816,,,230,,,,3,,,,,,61,wg-a,,,,AAXX 16094 07070 12458 82308 10140 20130 30021 40129 58004 60037 76166 875// 90900=
07070,1998-07-16 12:00:00,15,1012.9,0,94,14,4500,14.816,,,230,,,,1,,,,,,51,wg-a,,,,AAXX 16124 07070 02445 82308 10150 20140 30021 40129 50000 60046 75166 877// 91200 333 60017=
07070,1998-07-16 15:00:00,17,1012.4,-0.4,94,16,6000,7.408,,,260,,,,0,,,,,,21,wg-a,,,,AAXX 16154 07070 12456 82604 10170 20160 30017 40124 56004 60007 72165 887// 91500=
07070,1998-07-16 18:00:00,16,1012.9,0.5,100,16,500,7.408,,,70,13,17.9,,,,,,,,21,wg-a,,,,AAXX 16184 07070 02200 80704 10160 20160 30022 40129 53005 61000 72165 885// 91800 333 10179 20130 6003=
07070,1998-07-16 21:00:00,16,1013.8,0.8,94,15,10000,3.704,,,130,,,,,,,,,,,wg-a,,,,AAXX 16214 07070 12360 71302 10160 20150 30030 40138 53008 60006 875// 92100=
07070,1998-07-17 00:00:00,15,1013.9,0.1,100,15,10000,7.408,,,150,,,,,,,,,,,wg-a,,,,AAXX 17004 07070 12360 81504 10150 20150 30031 40139 50001 60006 875// 90000=
07070,1998-07-17 03:00:00,15,1013.2,-0.7,100,15,3500,0,,,0,,,,4,,,,,,10,wg-a,,,,AAXX 17034 07070 12235 80000 10150 20150 30024 40132 58007 60047 71062 885// 90300=
07070,1998-07-17 06:00:00,15,1014.2,1,100,15,6000,14.816,,,270,14.9,16.1,,,,,,,,20,wg-a,,,,AAXX 17064 07070 02356 72708 10150 20150 30034 40142 53010 61000 72065 877// 90600 333 10161 20149 6014=
07070,1998-07-17 09:00:00,17,1014.4,0.3,82,14,20000,18.52,,,240,,,,,,,,,,,wg-a,,,,AAXX 17094 07070 12470 72410 10170 20140 30037 40144 50003 60006 878// 90900=
07070,1998-07-17 12:00:00,19,1014,-0.4,73,14,20000,31.484,,,220,,,,,,,,,,,wg-a,,,,AAXX 17124 07070 12570 72217 10190 20140 30033 40140 58004 60006 875// 91200=
07070,1998-07-17 15:00:00,19,1013.8,-0.1,78,15,20000,29.632,,,230,,,,0,,,,,,,wg-a,,,,AAXX 17154 07070 12570 72316 10190 20150 30032 40138 58001 60007 872// 91500=
07070,1998-07-17 18:00:00,20,1013,-0.8,78,16,500,18.52,,,230,15.3,20.5,,,,,,,,3,wg-a,,,,AAXX 17184 07070 02400 72310 10200 20160 30024 40130 55008 60006 70386 8683/ 91800 333 10205 20153 61000=
07070,1998-07-17 21:00:00,17,1014.9,1.8,82,14,20000,14.816,,,300,,,,0,,,,,,1,wg-a,,,,AAXX 17214 07070 12770 23008 10170 20140 30042 40149 53018 60007 70186 82500 92100=
07070,1998-07-18 00:00:00,13,1015.2,0.1,94,12,25000,11.112,,,230,,,,,,,,,,1,wg-a,,,,AAXX 18004 07070 12/75 02306 10130 20120 30043 40152 53001 60016 70186 80000 90000=
07070,1998-07-18 06:00:00,14,1015.2,0.3,94,13,25000,0,,,0,10.9,19.9,,,,,1,,,,wg-a,,,,AAXX 18064 07070 02675 70000 10140 20130 30044 40152 53003 60006 875// 90600 333 10199 20109 60014=
07070,1998-07-18 09:00:00,18,1015.4,0.3,68,12,20000,14.816,,,270,,,,,,,,,,,wg-a,,,,AAXX 18094 07070 12570 72708 10180 20120 30047 40154 50003 60006 85802 90900=
07070,1998-07-18 12:00:00,20,1015.2,-0.1,56,11,25000,18.52,,,240,,,,,,,,,,,wg-a,,,,AAXX 18124 07070 12675 72410 10200 20110 30046 40152 58001 60006 85232 91200=
07070,1998-07-18 15:00:00,21,1014.9,-0.3,53,11,25000,22.224,,,270,,,,,,,,,,,wg-a,,,,AAXX 18154 07070 12675 72712 10210 20110 30043 40149 58003 60006 878// 91500=
07070,1998-07-18 18:00:00,20,1015.2,0.3,60,12,20000,11.112,,,280,14.1,21.4,,,,,,,,,wg-a,,,,AAXX 18184 07070 12770 72806 10200 20120 30046 40152 52003 60006 8553/ 91800 333 10214 20141=
07070,1998-07-18 21:00:00,15,1016.5,1.1,82,12,20000,7.408,,,20,,,,,,,,,,,wg-a,,,,AAXX 18214 07070 12/70 70204 10150 20120 30057 40165 53011 60006 82031 92100=
07070,1998-07-19 00:00:00,12,1016.9,0.2,100,12,20000,0,,,0,,,,,,,,,,,wg-a,,,,AAXX 19004 07070 12/70 70000 10120 20120 30059 40169 50002 60006 80002 90000=
07070,1998-07-19 03:00:00,10,1016.6,-0.3,100,10,4500,0,,,0,,,,,,,,,,10,wg-a,,,,AAXX 19034 07070 12/45 /0000 10100 20100 30056 40166 55003 60006 71022 80001 90300=
07070,1998-07-19 06:00:00,13,1017,0.5,100,13,4000,0,,,0,9.1,20.5,,,,,,,,10,wg-a,,,,AAXX 19064 07070 02/40 70000 10130 20130 30061 40170 51005 60006 71022 81031 90600 333 10205 20091 60004=
07070,1998-07-19 09:00:00,20,1016.3,-0.4,68,14,15000,7.408,,,130,,,,,,,,,,,wg-a,,,,AAXX 19094 07070 12565 41304 10200 20140 30057 40163 58004 60006 81131 90900=
07070,1998-07-19 12:00:00,24,1015.1,-1.1,50,13,25000,11.112,,,150,,,,,,,,,,,wg-a,,,,AAXX 19124 07070 12775 21506 10240 20130 30046 40151 58011 60006 81101 91200=
07070,1998-07-19 15:00:00,26,1013.3,-1.7,48,14,25000,11.112,,,150,,,,,,,,,,,wg-a,,,,AAXX 19154 07070 12/75 61506 10260 20140 30029 40133 57017 60006 80002 91500=
07070,1998-07-19 18:00:00,27,1012,-1.2,51,16,25000,11.112,,,100,12.9,27.4,,,,,,,,,wg-a,,,,AAXX 19184 07070 12/75 61006 10270 20160 30017 40120 56012 60006 80001 91800 333 10274 20129=
07070,1998-07-19 21:00:00,18,1012.2,-0.2,88,16,20000,11.112,,,100,,,,,,,,,,,wg-a,,,,AAXX 19214 07070 12/70 71006 10180 20160 30015 40122 57002 60006 81032 92100=
07070,1998-07-20 00:00:00,17,1011.1,-1.1,88,15,15000,3.704,,,60,,,,,,,,,,,wg-a,,,,AAXX 20004 07070 12/65 50602 10170 20150 30004 40111 56011 60006 81032 90000=
07070,1998-07-20 03:00:00,18,1009.9,-1.1,88,16,15000,11.112,,,180,,,,,,,,,,,wg-a,,,,AAXX 20034 07070 12765 21806 10180 20160 39993 40099 56011 60006 81501 90300=
07070,1998-07-20 06:00:00,22,1010.6,0.8,73,17,15000,7.408,,,170,16.4,26.7,,,,,,,,,wg-a,,,,AAXX 20064 07070 02/65 21704 10220 20170 30001 40106 53008 60006 80001 90600 333 10267 20164 60004=
07070,1998-07-20 09:00:00,28,1011.1,0.7,58,19,15000,18.52,,,180,,,,,,,,,,,wg-a,,,,AAXX 20094 07070 12/65 11810 10280 20190 30008 40111 53007 60006 81080 90900=
07070,1998-07-20 12:00:00,31,1009.4,-1.6,49,19,15000,11.112,,,170,,,,,,,,,,,wg-a,,,,AAXX 20124 07070 12765 71706 10310 20190 39992 40094 58016 60006 8128/ 91200=
07070,1998-07-20 15:00:00,32,1007.8,-1.5,43,18,16000,14.816,,,180,,,,,,,,,,,wg-a,,,,AAXX 20154 07070 12766 61808 10320 20180 39977 40078 56015 60006 81280 91500=
07070,1998-07-20 18:00:00,30,1005.4,-2.5,52,19,15000,22.224,,,130,22.3,33,,,,,,,,25,wg-a,,,,AAXX 20184 07070 02765 71312 10300 20190 39952 40054 58025 61000 72586 82280 91800 333 10330 20223 6100=
07070,1998-07-20 21:00:00,26,1004.1,-1.4,51,15,15000,18.52,,,160,,,,,,,,,,,wg-a,,,,AAXX 20214 07070 12/65 11610 10260 20150 39938 40041 56014 60006 81080 92100=
07070,1998-07-21 00:00:00,24,1004.1,-0.1,54,14,15000,14.816,,,190,,,,,,,,,,,wg-a,,,,AAXX 21004 07070 12/65 11908 10240 20140 39937 40041 55001 60006 81080 90000=
07070,1998-07-21 03:00:00,21,1008.2,4,73,16,15000,11.112,,,220,,,,,,,,,,,wg-a,,,,AAXX 21034 07070 12/65 42206 10210 20160 39977 40082 51040 60006 84080 90300=
07070,1998-07-21 06:00:00,19,1010.7,2.4,88,17,8000,18.52,,,210,18.8,29.9,,,,,,,,61,wg-a,,,,AAXX 21064 07070 02458 82110 10190 20170 30001 40107 53024 61000 76161 8487/ 90600 333 10299 20188 6000=
07070,1998-07-21 09:00:00,20,1012.3,1.6,83,17,4000,29.632,,,220,,,,0,,,,,,61,wg-a,,,,AAXX 21094 07070 12440 82216 10200 20170 30017 40123 53016 60007 76162 8587/ 90900=
07070,1998-07-21 12:00:00,20,1013.5,1.2,83,17,15000,22.224,,,200,,,,0,,,,,,3,wg-a,,,,AAXX 21124 07070 02465 82012 10200 20170 30029 40135 53012 60016 70362 8587/ 91200 333 60007=
07070,1998-07-21 15:00:00,20,1014.4,0.9,78,16,2000,7.408,,,80,,,,1,,,,,,29,wg-a,,,,AAXX 21154 07070 12520 60804 10200 20160 30038 40144 53009 60017 72998 86900 91500=
07070,1998-07-21 18:00:00,22,1014.7,0.3,73,17,25000,7.408,,,170,17.4,22.9,,,,,,,,1,wg-a,,,,AAXX 21184 07070 12675 51704 10220 20170 30041 40147 53003 60006 70198 85200 91800 333 10229 20174=
07070,1998-07-21 21:00:00,16,1017.4,2.5,88,14,15000,18.52,,,300,,,,1,,,,,,25,wg-a,,,,AAXX 21214 07070 12565 63010 10160 20140 30066 40174 53025 60017 72586 86900 92100=
07070,1998-07-22 00:00:00,13,1019,1.5,94,12,25000,7.408,,,200,,,,,,,,,,2,wg-a,,,,AAXX 22004 07070 12/75 02004 10130 20120 30081 40190 53015 60016 70286 80000 90000=
07070,1998-07-22 03:00:00,11,1019.4,0.3,94,10,25000,0,,,0,,,,,,,,,,,wg-a,,,,AAXX 22034 07070 12/75 00000 10110 20100 30084 40194 51003 60006 80000 90300=
07070,1998-07-22 06:00:00,14,1019.6,0.3,94,13,12000,7.408,,,180,10.4,21.5,,,,,2,,,,wg-a,,,,AAXX 22064 07070 02/62 11804 10140 20130 30087 40196 53003 60006 80001 90600 333 10215 20104 60024=
07070,1998-07-22 09:00:00,21,1019.7,0.3,56,12,25000,14.816,,,190,,,,,,,,,,,wg-a,,,,AAXX 22094 07070 12675 21908 10210 20120 30090 40197 51003 60006 81101 90900=
07070,1998-07-22 12:00:00,24,1018.4,-1.1,44,11,25000,14.816,,,180,,,,,,,,,,,wg-a,,,,AAXX 22124 07070 12775 51808 10240 20110 30079 40184 58011 60006 84101 91200=
07070,1998-07-22 15:00:00,25,1017,-1.4,44,12,25000,18.52,,48.152,230,,,,,,,,,,,wg-a,,,,AAXX 22154 07070 12775 62310 10250 20120 30065 40170 56014 60006 81101 91500 333 91026=
07070,1998-07-22 18:00:00,25,1016,-1,44,12,25000,11.112,,,190,13.8,25.6,,,,,,,,,wg-a,,,,AAXX 22184 07070 12/75 71906 10250 20120 30055 40160 56010 60006 80002 91800 333 10256 20138=
07070,1998-07-22 21:00:00,19,1016.3,0.1,68,13,25000,7.408,,,210,,,,,,,,,,,wg-a,,,,AAXX 22214 07070 12/75 62104 10190 20130 30056 40163 53001 60006 83012 92100=
07070,1998-07-23 00:00:00,18,1016,-0.3,88,16,10000,7.408,,,270,,,,1,,,,,,61,wg-a,,,,AAXX 23004 07070 02760 82704 10180 20160 30053 40160 56003 60016 76161 885// 90000 333 60017=
07070,1998-07-23 03:00:00,16,1014.8,-1.2,100,16,10000,11.112,,,150,,,,1,,,,,,1,wg-a,,,,AAXX 23034 07070 12760 71506 10160 20160 30041 40148 58012 60017 70161 875// 90300=
07070,1998-07-23 06:00:00,17,1014.4,-0.4,94,16,15000,11.112,,,180,16,24.6,,,,,2,,,2,wg-a,,,,AAXX 23064 07070 02665 71806 10170 20160 30037 40144 55004 60006 70261 84832 90600 333 10246 20160 60024=
07070,1998-07-23 09:00:00,18,1016.2,1.8,94,17,6000,14.816,,,240,,,,1,,,,,,61,wg-a,,,,AAXX 23094 07070 12556 82408 10180 20170 30055 40162 51018 60017 76162 8457/ 90900=
07070,1998-07-23 12:00:00,22,1016.5,0.4,60,14,16000,25.928,,,260,,,,,,,,,,1,wg-a,,,,AAXX 23124 07070 02566 72614 10220 20140 30059 40165 53004 60016 70162 83232 91200 333 61000=
07070,1998-07-23 15:00:00,21,1017.4,0.9,64,14,15000,22.224,,,250,,,,,,,,,,1,wg-a,,,,AAXX 23154 07070 02665 72512 10210 20140 30068 40174 51009 61000 70162 81272 91500 333 ////=
07070,1998-07-23 18:00:00,21,1017.6,0.2,69,15,25000,18.52,,,250,16.9,22.3,,,,,,,,3,wg-a,,,,AAXX 23184 07070 12575 72510 10210 20150 30070 40176 53002 60006 70362 878// 91800 333 10223 20169=
07070,1998-07-23 21:00:00,18,1018.9,1.2,88,16,25000,7.408,,,240,,,,,,,,,,,wg-a,,,,AAXX 23214 07070 12775 32404 10180 20160 30082 40189 51012 60006 83500 92100=
07070,1998-07-24 00:00:00,16,1019.6,0.6,94,15,25000,11.112,,,250,,,,,,,,,,,wg-a,,,,AAXX 24004 07070 12575 /2506 10160 20150 30088 40196 53006 60006 81100 90000=
07070,1998-07-24 03:00:00,14,1020.3,0.6,94,13,25000,3.704,,,300,,,,,,,,,,,wg-a,,,,AAXX 24034 07070 12675 23002 10140 20130 30094 40203 53006 60006 82500 90300=
07070,1998-07-24 06:00:00,15,1021,0.7,94,14,15000,7.408,,,310,12.5,20.8,,,,,1,,,,wg-a,,,,AAXX 24064 07070 02465 43104 10150 20140 30101 40210 53007 60006 83801 90600 333 10208 20125 60014=
07070,1998-07-24 09:00:00,17,1021.6,0.7,88,15,15000,7.408,,,10,,,,,,,,,,,wg-a,,,,AAXX 24094 07070 12365 70104 10170 20150 30108 40216 51007 60006 85801 90900=
07070,1998-07-24 12:00:00,22,1020.8,-0.6,53,12,20000,7.408,,,360,,,,,,,,,,,wg-a,,,,AAXX 24124 07070 12670 /3604 10220 20120 30102 40208 58006 60006 85201 91200=
07070,1998-07-24 15:00:00,24,1020.3,-0.5,44,11,20000,18.52,,,340,,,,,,,,,,,wg-a,,,,AAXX 24154 07070 12770 63410 10240 20110 30097 40203 58005 60006 85201 91500=
07070,1998-07-24 18:00:00,22,1020.5,0.2,46,10,25000,18.52,,,360,14.8,23.8,,,,,,,,,wg-a,,,,AAXX 24184 07070 12/75 73610 10220 20100 30099 40205 53002 60006 85072 91800 333 10238 20148=
07070,1998-07-24 21:00:00,16,1021.9,1.1,77,12,15000,14.816,,,350,,,,,,,,,,,wg-a,,,,AAXX 24214 07070 12/65 53508 10160 20120 30110 40219 53011 60006 84032 92100=
07070,1998-07-25 00:00:00,13,1022.5,0.5,88,11,15000,7.408,,,310,,,,,,,,,,,wg-a,,,,AAXX 25004 07070 12/65 03104 10130 20110 30115 40225 50005 60006 80000 90000=
07070,1998-07-25 03:00:00,11,1022.6,-0,94,10,10000,11.112,,,320,,,,,,,,,,,wg-a,,,,AAXX 25034 07070 12/60 13206 10110 20100 30115 40226 55000 60006 81030 90300=
07070,1998-07-25 06:00:00,13,1022.9,0.4,94,12,6000,11.112,,,360,10.4,21.7,,,,,,,,,wg-a,,,,AAXX 25064 07070 02/56 /3606 10130 20120 30119 40229 53004 60006 81030 90600 333 10217 20104 60004=
07070,1998-07-25 09:00:00,19,1023.1,0.4,64,12,10000,14.816,,,20,,,,,,,,,,,wg-a,,,,AAXX 25094 07070 12560 /0208 10190 20120 30123 40231 51004 60006 81100 90900=
07070,1998-07-25 12:00:00,22,1022.2,-0.7,43,9,25000,14.816,,,40,,,,,,,,,,,wg-a,,,,AAXX 25124 07070 12675 40408 10220 20090 30116 40222 58007 60006 83101 91200=
07070,1998-07-25 15:00:00,23,1021.1,-1.1,41,9,25000,14.816,,,40,,,,,,,,,,,wg-a,,,,AAXX 25154 07070 12775 70408 10230 20090 30105 40211 57011 60006 83101 91500=
07070,1998-07-25 18:00:00,21,1020.4,-0.8,49,10,20000,11.112,,,30,12.6,23.1,,,,,,,,,wg-a,,,,AAXX 25184 07070 12770 70306 10210 20100 30097 40204 56008 60006 814/2 91800 333 10231 20126=
07070,1998-07-25 21:00:00,14,1020.5,-0.1,77,10,20000,3.704,,,70,,,,,,,,,,,wg-a,,,,AAXX 25214 07070 12/70 30702 10140 20100 30096 40205 57001 60006 80002 92100=
07070,1998-07-26 00:00:00,12,1020.1,-0.5,88,10,15000,3.704,,,20,,,,,,,,,,,wg-a,,,,AAXX 26004 07070 12/65 50202 10120 20100 30091 40201 58005 60006 81032 90000=
07070,1998-07-26 03:00:00,9,1018.9,-1.3,93,8,15000,0,,,0,,,,,,,,,,,wg-a,,,,AAXX 26034 07070 12/65 20000 10090 20080 30078 40189 57013 60006 82031 90300=
07070,1998-07-26 06:00:00,11,1018.1,-0.7,100,11,7000,0,,,0,8,20.7,,,,,,,,,wg-a,,,,AAXX 26064 07070 02/57 /0000 10110 20110 30071 40181 57007 60006 81031 90600 333 10207 20080 60004=
07070,1998-07-26 09:00:00,20,1016.4,-1.4,56,11,15000,7.408,,,100,,,,,,,,,,,wg-a,,,,AAXX 26094 07070 12/65 71004 10200 20110 30057 40164 58014 60006 80002 90900=
07070,1998-07-26 12:00:00,24,1014.8,-1.4,44,11,15000,7.408,,,290,,,,,,,,,,,wg-a,,,,AAXX 26124 07070 12665 72904 10240 20110 30043 40148 58014 60006 81108 91200=
07070,1998-07-26 15:00:00,25,1013.5,-1.2,39,10,15000,11.112,,,360,,,,,,,,,,,wg-a,,,,AAXX 26154 07070 12765 73606 10250 20100 30031 40135 56012 60006 8727/ 91500=
07070,1998-07-26 18:00:00,23,1012.7,-0.9,47,11,12000,7.408,,,350,11.3,25.1,,,,,,,,,wg-a,,,,AAXX 26184 07070 12/62 73504 10230 20110 30022 40127 57009 60006 8707/ 91800 333 10251 20113=
07070,1998-07-26 21:00:00,19,1013.4,0.6,68,13,12000,3.704,,,310,,,,,,,,,,,wg-a,,,,AAXX 26214 07070 12/62 53102 10190 20130 30028 40134 51006 60006 85030 92100=
07070,1998-07-27 00:00:00,13,1013.2,-0.5,88,11,12000,0,,,0,,,,,,,,,,,wg-a,,,,AAXX 27004 07070 12/62 00000 10130 20110 30023 40132 58005 60006 80000 90000=
07070,1998-07-27 03:00:00,10,1012.5,-0.8,93,9,8000,7.408,,,180,,,,,,,,,,,wg-a,,,,AAXX 27034 07070 12/58 /1804 10100 20090 30015 40125 58008 60006 81030 90300=
07070,1998-07-27 06:00:00,13,1012.2,-0.1,94,12,500,3.704,,,250,9.4,22.8,,,,,,,,,wg-a,,,,AAXX 27064 07070 02700 32502 10130 20120 30014 40122 55001 60006 82501 90600 333 10228 20094 60004=
07070,1998-07-27 09:00:00,23,1011.9,0,47,11,12000,7.408,,,160,,,,,,,,,,,wg-a,,,,AAXX 27094 07070 12/62 61604 10230 20110 30014 40119 50000 60006 84082 90900=
07070,1998-07-27 12:00:00,22,1012.2,0.3,53,12,10000,18.52,,,250,,,,,,,,,,63,wg-a,,,,AAXX 27124 07070 02660 72510 10220 20120 30017 40122 53003 61000 76361 83882 91200 333 6100=
07070,1998-07-27 15:00:00,24,1012.1,-0.1,47,12,15000,11.112,,,300,,,,,,,,,,3,wg-a,,,,AAXX 27154 07070 02665 /3006 10240 20120 30016 40121 58001 61000 70362 83872 91500 333 ////=
07070,1998-07-27 18:00:00,20,1012.3,0.1,68,14,20000,11.112,,,20,13.6,24.2,,,,,,,,21,wg-a,,,,AAXX 27184 07070 02770 70206 10200 20140 30017 40123 50001 61000 72162 8757/ 91800 333 10242 20136 6100=
07070,1998-07-27 21:00:00,18,1013.7,1.3,77,14,15000,3.704,,,290,,,,,,,,,,,wg-a,,,,AAXX 27214 07070 12765 72902 10180 20140 30030 40137 51013 60006 8557/ 92100=
07070,1998-07-28 00:00:00,17,1014.3,0.6,94,16,8000,7.408,,,280,,,,1,,,,,,25,wg-a,,,,AAXX 28004 07070 02558 82804 10170 20160 30036 40143 51006 60016 72586 888// 90000 333 60017=
07070,1998-07-28 03:00:00,14,1014.3,-0.1,94,13,7000,14.816,,,260,,,,0,,,,,,1,wg-a,,,,AAXX 28034 07070 12757 /2608 10140 20130 30035 40143 58001 60007 70186 82501 90300=
07070,1998-07-28 06:00:00,14,1014.5,0.2,94,13,6000,14.816,,,260,13.2,19.9,,,,,1,,,3,wg-a,,,,AAXX 28064 07070 02356 72608 10140 20130 30037 40145 52002 60006 70386 84772 90600 333 10199 20132 60014=
07070,1998-07-28 09:00:00,16,1014.7,0.2,82,13,15000,14.816,,,270,,,,,,,,,,,wg-a,,,,AAXX 28094 07070 12465 72708 10160 20130 30039 40147 53002 60006 87772 90900=
07070,1998-07-28 12:00:00,19,1013.8,-0.8,60,11,15000,22.224,,,260,,,,,,,,,,,wg-a,,,,AAXX 28124 07070 12565 72612 10190 20110 30031 40138 56008 60006 8527/ 91200=
07070,1998-07-28 15:00:00,20,1012.7,-1,60,12,20000,22.224,,,240,,,,,,,,,,1,wg-a,,,,AAXX 28154 07070 02570 82412 10200 20120 30021 40127 58010 61000 70162 85272 91500 333 ////=
07070,1998-07-28 18:00:00,17,1012.9,0.1,82,14,20000,18.52,,,240,14.2,19.7,,,,,,,,21,wg-a,,,,AAXX 28184 07070 02670 82410 10170 20140 30022 40129 53001 61000 72162 85872 91800 333 10197 20142 6000=
07070,1998-07-28 21:00:00,15,1012.5,-0.5,100,15,6000,7.408,,,200,,,,,,,,,,51,wg-a,,,,AAXX 28214 07070 02456 82004 10150 20150 30017 40125 58005 61000 75152 885// 92100 333 ////=
07070,1998-07-29 00:00:00,15,1011.7,-0.8,100,15,8000,7.408,,,180,,,,0,,,,,,3,wg-a,,,,AAXX 29004 07070 02358 81804 10150 20150 30009 40117 56008 60006 70352 886// 90000 333 60007=
07070,1998-07-29 03:00:00,17,1010.7,-0.9,94,16,6000,11.112,,,240,,,,,,,,,,1,wg-a,,,,AAXX 29034 07070 02356 82406 10170 20160 30000 40107 56009 61000 70152 886// 90300 333 ////=
07070,1998-07-29 06:00:00,17,1010.4,-0.3,94,16,10000,18.52,,,260,15.2,17.2,,,,,,,,1,wg-a,,,,AAXX 29064 07070 02460 82610 10170 20160 39997 40104 55003 60006 70152 886// 90600 333 10172 20152 60004=
07070,1998-07-29 09:00:00,18,1011.3,0.9,83,15,12000,25.928,,,270,,,,,,,,,,20,wg-a,,,,AAXX 29094 07070 02462 82714 10180 20150 30006 40113 51009 61000 72052 885// 90900 333 ////=
07070,1998-07-29 12:00:00,19,1011,-0.2,68,13,15000,29.632,,,260,,,,,,,,,,1,wg-a,,,,AAXX 29124 07070 02565 72616 10190 20130 30004 40110 57002 61000 70152 878// 91200 333 ////=
07070,1998-07-29 15:00:00,20,1009.9,-1.1,60,12,12000,29.632,,,260,,,,,,,,,,,wg-a,,,,AAXX 29154 07070 12662 82616 10200 20120 39993 40099 56011 60006 888// 91500=
07070,1998-07-29 18:00:00,18,1009.4,-0.5,83,15,12000,22.224,,,230,16.8,21.2,,0,,,,,,1,wg-a,,,,AAXX 29184 07070 02662 82312 10180 20150 39988 40094 58005 60006 70162 888// 91800 333 10212 20168 60007=
07070,1998-07-29 21:00:00,18,1009.6,0.2,88,16,10000,18.52,,,230,,,,,,,,,,,wg-a,,,,AAXX 29214 07070 12460 82310 10180 20160 39990 40096 52002 60006 8587/ 92100=
07070,1998-07-30 00:00:00,17,1009.9,0.2,88,15,10000,18.52,,,260,,,,,,,,,,,wg-a,,,,AAXX 30004 07070 12460 32610 10170 20150 39992 40099 53002 60006 83700 90000=
07070,1998-07-30 03:00:00,16,1009.9,0,88,14,10000,18.52,,,250,,,,,,,,,,,wg-a,,,,AAXX 30034 07070 12460 72510 10160 20140 39992 40099 50000 60006 838// 90300=
07070,1998-07-30 06:00:00,15,1010.3,0.4,88,13,20000,18.52,,,260,14.4,17.7,,,,,,,,,wg-a,,,,AAXX 30064 07070 02570 22610 10150 20130 39996 40103 53004 60006 81230 90600 333 10177 20144 60004=
07070,1998-07-30 09:00:00,18,1010.5,0.2,59,10,25000,25.928,,,260,,,,,,,,,,,wg-a,,,,AAXX 30094 07070 12575 72614 10180 20100 39998 40105 50002 60006 878// 90900=
07070,1998-07-30 12:00:00,21,1010.6,0.2,49,10,25000,29.632,,,270,,,,,,,,,,,wg-a,,,,AAXX 30124 07070 12675 52716 10210 20100 30000 40106 50002 60006 85800 91200=
07070,1998-07-30 15:00:00,22,1010.6,0.1,41,8,25000,29.632,,,250,,,,,,,,,,,wg-a,,,,AAXX 30154 07070 12775 32516 10220 20080 30001 40106 52001 60006 83200 91500=
07070,1998-07-30 18:00:00,22,1010.7,0.1,46,10,25000,18.52,,,280,15.4,22.6,,,,,,,,,wg-a,,,,AAXX 30184 07070 12775 42810 10220 20100 30002 40107 53001 60006 848/0 91800 333 10226 20154=
07070,1998-07-30 21:00:00,17,1012.7,1.8,63,10,25000,14.816,,,280,,,,,,,,,,,wg-a,,,,AAXX 30214 07070 12775 22808 10170 20100 30020 40127 53018 60006 82501 92100=
07070,1998-07-31 00:00:00,13,1013.7,0.8,82,10,25000,14.816,,,230,,,,,,,,,,,wg-a,,,,AAXX 31004 07070 12/75 02308 10130 20100 30028 40137 53008 60006 80000 90000=
07070,1998-07-31 03:00:00,12,1014.1,0.4,82,9,25000,14.816,,,230,,,,,,,,,,,wg-a,,,,AAXX 31034 07070 12/75 02308 10120 20090 30032 40141 53004 60006 80000 90300=
07070,1998-07-31 06:00:00,13,1014.9,0.8,88,11,15000,18.52,,,250,10.8,21.8,,,,,,,,,wg-a,,,,AAXX 31064 07070 02/65 02510 10130 20110 30040 40149 52008 60006 80000 90600 333 10218 20108 60004=
07070,1998-07-31 09:00:00,18,1015.7,1,68,12,16000,14.816,,,250,,,,,,,,,,,wg-a,,,,AAXX 31094 07070 12566 62508 10180 20120 30050 40157 51010 60006 84202 90900=
07070,1998-07-31 12:00:00,21,1016,0.4,53,11,18000,11.112,,,270,,,,,,,,,,,wg-a,,,,AAXX 31124 07070 12668 52706 10210 20110 30054 40160 51004 60006 84201 91200=
07070,1998-07-31 15:00:00,23,1015.7,-0.2,47,11,25000,14.816,,,280,,,,,,,,,,,wg-a,,,,AAXX 31154 07070 12775 32808 10230 20110 30052 40157 58002 60006 83200 91500=
07070,1998-07-31 18:00:00,20,1016.2,0.4,60,12,25000,7.408,,,350,12.9,23.7,,,,,,,,,wg-a,,,,AAXX 31184 07070 12775 63504 10200 20120 30056 40162 53004 60006 85801 91800 333 10237 20129=
07070,1998-07-31 21:00:00,15,1017.6,1.2,82,12,15000,0,,,0,,,,,,,,,,,wg-a,,,,AAXX 31214 07070 12765 50000 10150 20120 30068 40176 52012 60006 85500 92100=
07070,1998-08-01 00:00:00,12,1017.7,-0.1,88,10,15000,0,,,0,,,,,,,,,,,wg-a,,,,AAXX 01004 07070 12765 30000 10120 20100 30067 40177 58001 60006 82501 90000=
07070,1998-08-01 03:00:00,10,1017.1,-0.6,93,9,8000,3.704,,,130,,,,,,,,,,,wg-a,,,,AAXX 01034 07070 12758 /1302 10100 20090 30061 40171 56006 60006 83501 90300=
07070,1998-08-01 06:00:00,12,1017.1,0.1,100,12,500,3.704,,,320,9.4,20.4,,,,,,,,,wg-a,,,,AAXX 01064 07070 02700 73202 10120 20120 30062 40171 53001 60006 82502 90600 333 10204 20094 60004=
07070,1998-08-01 09:00:00,18,1016.3,-0.6,77,14,12000,11.112,,,50,,,,,,,,,,,wg-a,,,,AAXX 01094 07070 12/62 80506 10180 20140 30056 40163 56006 60006 8807/ 90900=
07070,1998-08-01 12:00:00,21,1016,-0.2,56,12,15000,7.408,,,40,,,,,,,,,,,wg-a,,,,AAXX 01124 07070 12665 80404 10210 20120 30054 40160 58002 60006 8127/ 91200=
07070,1998-08-01 15:00:00,22,1015.5,-0.5,53,12,15000,11.112,,,20,,,,,,,,,,,wg-a,,,,AAXX 01154 07070 12665 80206 10220 20120 30049 40155 56005 60006 8227/ 91500=
07070,1998-08-01 18:00:00,19,1016.1,0.5,68,13,12000,11.112,,,10,12.2,21.9,,,,,,,,25,wg-a,,,,AAXX 01184 07070 02162 70106 10190 20130 30054 40161 53005 61000 72586 8327/ 91800 333 10219 20122 6100=
07070,1998-08-01 21:00:00,17,1017.7,1.5,82,14,10000,7.408,,,240,,,,,,,,,,25,wg-a,,,,AAXX 01214 07070 02660 72404 10170 20140 30069 40177 53015 61000 72586 8397/ 92100 333 ////=
07070,1998-08-02 00:00:00,14,1018.2,0.4,94,13,12000,0,,,0,,,,0,,,,,,1,wg-a,,,,AAXX 02004 07070 02662 /0000 10140 20130 30073 40182 50004 60006 70186 82230 90000 333 60007=
07070,1998-08-02 03:00:00,13,1018,-0.2,94,12,12000,0,,,0,,,,,,,,,,,wg-a,,,,AAXX 02034 07070 12662 70000 10130 20120 30071 40180 55002 60006 8243/ 90300=
07070,1998-08-02 06:00:00,13,1019,1,100,13,6000,7.408,,,250,11.7,19.8,,,,,,,,,wg-a,,,,AAXX 02064 07070 02/56 62504 10130 20130 30081 40190 51010 60006 84031 90600 333 10198 20117 60004=
07070,1998-08-02 09:00:00,17,1019.8,0.9,88,15,8000,7.408,,,340,,,,,,,,,,,wg-a,,,,AAXX 02094 07070 12458 73404 10170 20150 30090 40198 51009 60006 83831 90900=
07070,1998-08-02 12:00:00,20,1019.7,-0,68,14,12000,7.408,,,350,,,,,,,,,,,wg-a,,,,AAXX 02124 07070 12562 73504 10200 20140 30090 40197 55000 60006 82272 91200=
07070,1998-08-02 15:00:00,18,1020,0.2,68,12,6000,18.52,,,70,,,,,,,,,,80,wg-a,,,,AAXX 02154 07070 02556 70710 10180 20120 30092 40200 53002 61000 78098 879// 91500 333 ////=
07070,1998-08-02 18:00:00,17,1020.8,0.8,94,16,6000,7.408,,,150,13.1,21.2,,,,,,,,25,wg-a,,,,AAXX 02184 07070 02756 71504 10170 20160 30100 40208 53008 61000 72598 8683/ 91800 333 10212 20131 6001=
07070,1998-08-02 21:00:00,13,1022.4,1.4,100,13,8000,3.704,,,20,,,,,,,,,,,wg-a,,,,AAXX 02214 07070 12658 20202 10130 20130 30114 40224 53014 60006 81430 92100=
07070,1998-08-03 00:00:00,11,1022.7,0.3,100,11,1500,0,,,0,,,,,,,,,,40,wg-a,,,,AAXX 03004 07070 12/15 00000 10110 20110 30117 40227 53003 60006 74011 80000 90000=
07070,1998-08-03 03:00:00,9,1023,0.2,100,9,700,3.704,,,130,,,,,,,,,,44,wg-a,,,,AAXX 03034 07070 32/07 01302 10090 20090 30119 40230 53002 74440 80000 90300=
07070,1998-08-03 06:00:00,11,1023.9,0.9,100,11,500,0,,,0,8.9,16.6,,,,,1,,,42,wg-a,,,,AAXX 03064 07070 02/05 00000 10110 20110 30128 40239 51009 60006 74240 80000 90600 333 10166 20089 60014=
07070,1998-08-03 09:00:00,16,1024.6,0.9,94,15,3200,3.704,,,310,,,,,,,,,,10,wg-a,,,,AAXX 03094 07070 12232 73102 10160 20150 30137 40246 51009 60006 71041 876// 90900=
07070,1998-08-03 12:00:00,22,1023.6,-0.7,53,12,10000,11.112,,,240,,,,,,,,,,1,wg-a,,,,AAXX 03124 07070 12560 /2406 10220 20120 30130 40236 58007 60006 70141 81200 91200=
07070,1998-08-03 15:00:00,24,1022.8,-0.8,47,12,16000,18.52,,,290,,,,,,,,,,,wg-a,,,,AAXX 03154 07070 12666 /2910 10240 20120 30122 40228 56008 60006 81202 91500=
07070,1998-08-03 18:00:00,24,1022.1,-0.7,47,12,12000,14.816,,,250,11,24.4,,,,,,,,,wg-a,,,,AAXX 03184 07070 12762 62508 10240 20120 30115 40221 55007 60006 824/1 91800 333 10244 20110=
07070,1998-08-03 21:00:00,17,1022.7,0.4,77,13,12000,11.112,,,180,,,,,,,,,,,wg-a,,,,AAXX 03214 07070 12/62 61806 10170 20130 30119 40227 52004 60006 85031 92100=
07070,1998-08-04 00:00:00,16,1022.4,-0.4,77,12,12000,7.408,,,230,,,,,,,,,,,wg-a,,,,AAXX 04004 07070 12762 42304 10160 20120 30115 40224 58004 60006 82531 90000=
07070,1998-08-04 03:00:00,14,1022.1,-0.3,82,11,12000,7.408,,,200,,,,,,,,,,,wg-a,,,,AAXX 04034 07070 12/62 32004 10140 20110 30112 40221 56003 60006 83021 90300=
07070,1998-08-04 06:00:00,16,1022.8,0.7,88,14,8000,11.112,,,240,13.9,23.9,,,,,,,,21,wg-a,,,,AAXX 04064 07070 02558 82406 10160 20140 30119 40228 52007 61000 72165 875// 90600 333 10239 20139 6100=
07070,1998-08-04 09:00:00,18,1023.7,1,94,17,8000,14.816,,,250,,,,0,,,,,,3,wg-a,,,,AAXX 04094 07070 12358 82508 10180 20170 30129 40237 53010 60007 70365 887// 90900=
07070,1998-08-04 12:00:00,20,1024.8,1.2,83,17,6000,14.816,,,270,,,,,,,,,,61,wg-a,,,,AAXX 04124 07070 02456 82708 10200 20170 30141 40248 51012 60016 76165 875// 91200 333 61000=
07070,1998-08-04 18:00:00,22,1026,0.8,53,12,25000,22.224,,,350,16,23.7,,,,,,,,2,wg-a,,,,AAXX 04184 07070 12675 /3512 10220 20120 30153 40260 53008 60006 70261 81400 91800 333 10237 20160=
07070,1998-08-04 21:00:00,16,1029,2.8,72,11,20000,11.112,,,10,,,,,,,,,,,wg-a,,,,AAXX 04214 07070 12/70 00106 10160 20110 30181 40290 51028 60006 80000 92100=
07070,1998-08-05 00:00:00,10,1029.9,0.6,93,9,20000,0,,,0,,,,,,,,,,,wg-a,,,,AAXX 05004 07070 12/70 00000 10100 20090 30187 40299 51006 60006 80000 90000=
07070,1998-08-05 03:00:00,8,1030,0,100,8,20000,3.704,,,200,,,,,,,,,,,wg-a,,,,AAXX 05034 07070 12/70 02002 10080 20080 30187 40300 50000 60006 80000 90300=
07070,1998-08-05 06:00:00,11,1030.4,0.6,100,11,12000,3.704,,,240,7.7,21.8,,,,,1,,,,wg-a,,,,AAXX 05064 07070 02/62 02402 10110 20110 30193 40304 53006 60006 80000 90600 333 10218 20077 60014=
07070,1998-08-05 09:00:00,19,1031,0.9,68,13,12000,7.408,,,220,,,,,,,,,,,wg-a,,,,AAXX 05094 07070 12562 /2204 10190 20130 30202 40310 51009 60006 81101 90900=
07070,1998-08-05 12:00:00,24,1030,-0.9,47,12,15000,7.408,,,340,,,,,,,,,,,wg-a,,,,AAXX 05124 07070 12765 23404 10240 20120 30193 40300 56009 60006 82101 91200=
07070,1998-08-05 15:00:00,25,1028.8,-1.1,44,12,20000,14.816,,,10,,,,,,,,,,,wg-a,,,,AAXX 05154 07070 12770 10108 10250 20120 30182 40288 58011 60006 81101 91500=
07070,1998-08-05 18:00:00,25,1028,-0.8,44,12,15000,11.112,,,360,11.1,25.8,,,,,,,,,wg-a,,,,AAXX 05184 07070 12765 23606 10250 20120 30174 40280 56008 60006 82401 91800 333 10258 20111=
07070,1998-08-05 21:00:00,18,1028.8,0.5,73,13,15000,0,,,0,,,,,,,,,,,wg-a,,,,AAXX 05214 07070 12765 20000 10180 20130 30179 40288 51005 60006 82401 92100=
07070,1998-08-06 00:00:00,14,1028.5,-0.4,88,12,15000,3.704,,,330,,,,,,,,,,,wg-a,,,,AAXX 06004 07070 12765 13302 10140 20120 30175 40285 57004 60006 81400 90000=
07070,1998-08-06 03:00:00,12,1028.2,-0.4,94,11,20000,3.704,,,230,,,,,,,,,,,wg-a,,,,AAXX 06034 07070 12870 12302 10120 20110 30171 40282 57004 60006 81500 90300=
07070,1998-08-06 06:00:00,13,1028.1,-0,94,12,15000,3.704,,,220,10.7,24.8,,,,,,,,,wg-a,,,,AAXX 06064 07070 02865 12202 10130 20120 30171 40281 55000 60006 81500 90600 333 10248 20107 60004=
07070,1998-08-06 09:00:00,22,1027.3,-0.5,57,13,15000,3.704,,,360,,,,,,,,,,,wg-a,,,,AAXX 06094 07070 12665 /3602 10220 20130 30166 40273 56005 60006 81101 90900=
07070,1998-08-06 12:00:00,26,1026,-1.1,42,12,20000,11.112,,,310,,,,,,,,,,,wg-a,,,,AAXX 06124 07070 12770 13106 10260 20120 30155 40260 58011 60006 81100 91200=
07070,1998-08-06 15:00:00,27,1024.5,-1.5,32,9,20000,11.112,,,300,,,,,,,,,,,wg-a,,,,AAXX 06154 07070 12770 13006 10270 20090 30140 40245 58015 60006 81500 91500=
07070,1998-08-06 18:00:00,26,1023.9,-0.6,34,9,25000,11.112,,,340,13.1,27.4,,,,,,,,,wg-a,,,,AAXX 06184 07070 12/75 33406 10260 20090 30134 40239 56006 60006 80001 91800 333 10274 20131=
07070,1998-08-06 21:00:00,16,1024.7,0.4,68,10,20000,7.408,,,210,,,,,,,,,,,wg-a,,,,AAXX 06214 07070 12/70 12104 10160 20100 30138 40247 53004 60006 80002 92100=
07070,1998-08-07 00:00:00,13,1024.3,-0.5,77,9,20000,3.704,,,280,,,,,,,,,,,wg-a,,,,AAXX 07004 07070 12/70 02802 10130 20090 30133 40243 58005 60006 80000 90000=
07070,1998-08-07 03:00:00,10,1024.2,-0.2,93,9,20000,3.704,,,180,,,,,,,,,,,wg-a,,,,AAXX 07034 07070 12/70 01802 10100 20090 30131 40242 58002 60006 80000 90300=
07070,1998-08-07 06:00:00,12,1024.5,0.4,94,11,7000,0,,,0,8.7,26.1,,,,,,,,,wg-a,,,,AAXX 07064 07070 02/57 20000 10120 20110 30135 40245 53004 60006 80001 90600 333 10261 20087 60004=
07070,1998-08-07 09:00:00,23,1023.9,-0.2,38,8,25000,3.704,,,160,,,,,,,,,,,wg-a,,,,AAXX 07094 07070 12/75 51602 10230 20080 30133 40239 58002 60006 80001 90900=
07070,1998-08-07 12:00:00,28,1022.8,-0.9,32,10,25000,7.408,,,330,,,,,,,,,,,wg-a,,,,AAXX 07124 07070 12/75 13304 10280 20100 30124 40228 58009 60006 80001 91200=
07070,1998-08-07 15:00:00,30,1021.4,-1.4,31,11,25000,7.408,,,20,,,,,,,,,,,wg-a,,,,AAXX 07154 07070 12/75 10204 10300 20110 30110 40214 57014 60006 80001 91500=
07070,1998-08-07 18:00:00,30,1020.6,-0.7,35,13,25000,11.112,,,30,12.3,30.6,,,,,,,,,wg-a,,,,AAXX 07184 07070 12/75 10306 10300 20130 30103 40206 56007 60006 80001 91800 333 10306 20123=
07070,1998-08-07 21:00:00,20,1021.2,0.2,73,15,500,3.704,,,80,,,,,,,,,,,wg-a,,,,AAXX 07214 07070 12/00 10802 10200 20150 30105 40212 50002 60006 80001 92100=
07070,1998-08-08 00:00:00,16,1020.9,-0.4,82,13,500,0,,,0,,,,,,,,,,,wg-a,,,,AAXX 08004 07070 12/00 10000 10160 20130 30101 40209 58004 60006 80001 90000=
07070,1998-08-08 03:00:00,14,1020.1,-0.9,94,13,25000,3.704,,,50,,,,,,,,,,,wg-a,,,,AAXX 08034 07070 12/75 00502 10140 20130 30092 40201 58009 60006 80000 90300=
07070,1998-08-08 09:00:00,27,1018.6,-0.5,51,16,10000,3.704,,,70,,,,,,,,,,,wg-a,,,,AAXX 08094 07070 12/60 /0702 10270 20160 30082 40186 58005 60006 90900=
07070,1998-08-08 12:00:00,32,1017.1,-1.3,34,14,15000,11.112,,,90,,,,,,,,,,,wg-a,,,,AAXX 08124 07070 12/65 00906 10320 20140 30069 40171 58013 60006 80000 91200=
07070,1998-08-08 15:00:00,34,1015.2,-1.8,28,13,15000,7.408,,,100,,,,,,,,,,,wg-a,,,,AAXX 08154 07070 12/65 01004 10340 20130 30051 40152 58018 60006 80000 91500=
07070,1998-08-08 18:00:00,32,1014.4,-0.9,38,16,20000,11.112,,,40,15.6,34.7,,,,,,,,,wg-a,,,,AAXX 08184 07070 12/70 00406 10320 20160 30042 40144 56009 60006 80000 91800 333 10347 20156=
07070,1998-08-08 21:00:00,22,1015.5,0.8,73,17,15000,3.704,,,40,,,,,,,,,,,wg-a,,,,AAXX 08214 07070 12/65 00402 10220 20170 30050 40155 53008 60006 80000 92100=
07070,1998-08-09 00:00:00,19,1016.1,0.4,83,16,20000,0,,,0,,,,,,,,,,,wg-a,,,,AAXX 09004 07070 12/70 00000 10190 20160 30054 40161 52004 60006 80000 90000=
07070,1998-08-09 03:00:00,16,1016.1,-0.1,88,14,20000,3.704,,,170,,,,,,,,,,,wg-a,,,,AAXX 09034 07070 12/70 01702 10160 20140 30053 40161 58001 60006 80000 90300=
07070,1998-08-09 06:00:00,18,1016.5,0.5,83,15,12000,7.408,,,20,14.2,31.7,,,,,,,,,wg-a,,,,AAXX 09064 07070 02/62 20204 10180 20150 30058 40165 53005 60006 80001 90600 333 10317 20142 60004=
07070,1998-08-09 09:00:00,27,1016.3,0.1,54,17,12000,22.224,,,90,,,,,,,,,,,wg-a,,,,AAXX 09094 07070 12/62 10912 10270 20170 30059 40163 50001 60006 80001 90900=
07070,1998-08-09 12:00:00,32,1015.8,-0.3,41,17,12000,14.816,,,100,,,,,,,,,,,wg-a,,,,AAXX 09124 07070 12/62 11008 10320 20170 30056 40158 58003 60006 80001 91200=
07070,1998-08-09 15:00:00,34,1014.3,-1.4,34,16,12000,18.52,,,70,,,,,,,,,,,wg-a,,,,AAXX 09154 07070 12/62 00710 10340 20160 30042 40143 58014 60006 80000 91500=
07070,1998-08-09 18:00:00,31,1013.7,-0.7,46,18,15000,18.52,,,60,17.8,34.1,,,,,,,,,wg-a,,,,AAXX 09184 07070 12/65 00610 10310 20180 30035 40137 56007 60006 80000 91800 333 10341 20178=
07070,1998-08-09 21:00:00,23,1015.3,1.3,73,18,15000,3.704,,,360,,,,,,,,,,,wg-a,,,,AAXX 09214 07070 12/65 03602 10230 20180 30048 40153 51013 60006 80000 92100=
07070,1998-08-10 00:00:00,19,1015.4,0,88,17,15000,0,,,0,,,,,,,,,,,wg-a,,,,AAXX 10004 07070 12/65 00000 10190 20170 30048 40154 50000 60006 80000 90000=
07070,1998-08-10 03:00:00,17,1015.3,-0.2,94,16,15000,7.408,,,50,,,,,,,,,,,wg-a,,,,AAXX 10034 07070 12/65 00504 10170 20160 30046 40153 57002 60006 80000 90300=
07070,1998-08-10 06:00:00,18,1015.6,0.3,88,16,15000,3.704,,,80,16.3,31.2,,,,,,,,,wg-a,,,,AAXX 10064 07070 02/65 10802 10180 20160 30049 40156 52003 60006 80001 90600 333 10312 20163 60004=
07070,1998-08-10 09:00:00,28,1015.4,0.2,51,17,10000,11.112,,,140,,,,,,,,,,,wg-a,,,,AAXX 10094 07070 12/60 01406 10280 20170 30051 40154 53002 60006 80000 90900=
07070,1998-08-10 12:00:00,34,1014.8,-0.4,39,18,8000,7.408,,,340,,,,,,,,,,,wg-a,,,,AAXX 10124 07070 12/58 03404 10340 20180 30047 40148 58004 60006 80000 91200=
07070,1998-08-10 15:00:00,36,1014.3,-0.5,31,16,10000,11.112,,,290,,,,,,,,,,,wg-a,,,,AAXX 10154 07070 12760 12906 10360 20160 30042 40143 58005 60006 81100 91500=
07070,1998-08-10 18:00:00,34,1014.6,0.3,30,14,15000,7.408,,,330,18.5,36,,,,,,,,,wg-a,,,,AAXX 10184 07070 12/65 33304 10340 20140 30045 40146 53003 60006 80001 91800 333 10360 20185=
07070,1998-08-10 21:00:00,24,1016.1,1.1,57,15,10000,3.704,,,260,,,,,,,,,,,wg-a,,,,AAXX 10214 07070 12/60 02602 10240 20150 30056 40161 52011 60006 80000 92100=
07070,1998-08-11 00:00:00,20,1017,0.7,68,14,25000,3.704,,,220,,,,,,,,,,,wg-a,,,,AAXX 11004 07070 12/75 02202 10200 20140 30063 40170 51007 60006 80000 90000=
07070,1998-08-11 03:00:00,15,1017.1,-0,88,13,25000,3.704,,,230,,,,,,,,,,,wg-a,,,,AAXX 11034 07070 12/75 02302 10150 20130 30063 40171 54000 60006 80000 90300=
07070,1998-08-11 06:00:00,16,1017.7,0.6,94,15,10000,3.704,,,150,14.1,34,,,,,,,,,wg-a,,,,AAXX 11064 07070 02/60 11502 10160 20150 30069 40177 52006 60006 80001 90600 333 10340 20141 60004=
07070,1998-08-11 09:00:00,28,1017.2,-0,58,19,8000,3.704,,,80,,,,,,,,,,,wg-a,,,,AAXX 11094 07070 12/58 /0802 10280 20190 30069 40172 54000 60006 80001 90900=
07070,1998-08-11 12:00:00,36,1016,-1,31,16,12000,7.408,,31.484,200,,,,,,,,,,,wg-a,,,,AAXX 11124 07070 12/62 12004 10360 20160 30059 40160 58010 60006 80001 91200 333 91017=
07070,1998-08-11 18:00:00,33,1014.2,-0.5,44,19,15000,11.112,,,360,16.2,37.3,,,,,,,,,wg-a,,,,AAXX 11184 07070 12/65 43606 10330 20190 30041 40142 55005 60006 80001 91800 333 10373 20162=
07070,1998-08-11 21:00:00,26,1015,0.5,65,19,15000,7.408,,,290,,,,,,,,,,,wg-a,,,,AAXX 11214 07070 12/65 22904 10260 20190 30046 40150 53005 60006 80001 92100=
07070,1998-08-12 00:00:00,22,1014.7,-0.4,83,19,15000,11.112,,,270,,,,,,,,,,,wg-a,,,,AAXX 12004 07070 12/65 32706 10220 20190 30042 40147 56004 60006 80001 90000=
07070,1998-08-12 03:00:00,20,1015,0.2,88,18,8000,11.112,,,270,,,,,,,,,,,wg-a,,,,AAXX 12034 07070 12/58 42706 10200 20180 30044 40150 53002 60006 80001 90300=
07070,1998-08-12 06:00:00,19,1015.8,0.7,83,16,500,11.112,,,260,18.7,33.1,,,,,,,,21,wg-a,,,,AAXX 12064 07070 02800 72606 10190 20160 30051 40158 53007 61000 72161 85081 90600 333 10331 20187 6100=
07070,1998-08-12 09:00:00,22,1016.2,0.5,69,16,8000,7.408,,,260,,,,,,,,,,25,wg-a,,,,AAXX 12094 07070 02/58 72604 10220 20160 30056 40162 53005 61000 72586 8709/ 90900 333 ////=
07070,1998-08-12 12:00:00,26,1016,0,48,14,8000,14.816,,,290,,,,,,,,,,2,wg-a,,,,AAXX 12124 07070 02/58 72908 10260 20140 30056 40160 50000 61000 70286 85091 91200 333 ////=
07070,1998-08-12 18:00:00,24,1015.5,0.7,54,14,25000,22.224,,,330,19.1,27.5,,,,,,,,3,wg-a,,,,AAXX 12184 07070 12/75 73312 10240 20140 30050 40155 53007 60006 70386 8708/ 91800 333 10275 20191=
07070,1998-08-12 21:00:00,19,1017.2,1.5,56,10,20000,22.224,,,330,,,,,,,,,,,wg-a,,,,AAXX 12214 07070 12/70 43312 10190 20100 30065 40172 51015 60006 84031 92100=
07070,1998-08-13 00:00:00,15,1018.6,1.3,82,12,20000,7.408,,,300,,,,,,,,,,,wg-a,,,,AAXX 13004 07070 12/70 73004 10150 20120 30078 40186 50013 60006 84031 90000=
07070,1998-08-13 03:00:00,12,1018.4,-0.4,100,12,20000,11.112,,,250,,,,,,,,,,,wg-a,,,,AAXX 13034 07070 12/70 22506 10120 20120 30074 40184 56004 60006 81031 90300=
07070,1998-08-13 06:00:00,14,1018.4,0.1,88,12,12000,7.408,,,300,11.8,24.3,,,,,,,,,wg-a,,,,AAXX 13064 07070 02362 83004 10140 20120 30075 40184 53001 60006 886// 90600 333 10243 20118 61000=
07070,1998-08-13 09:00:00,17,1019.1,0.8,82,14,8000,11.112,,,20,,,,,,,,,,,wg-a,,,,AAXX 13094 07070 12458 /0206 10170 20140 30083 40191 51008 60006 81100 90900=
07070,1998-08-13 12:00:00,22,1018.5,-0.4,41,8,25000,18.52,,,310,,,,,,,,,,,wg-a,,,,AAXX 13124 07070 12675 73110 10220 20080 30079 40185 57004 60006 82201 91200=
07070,1998-08-13 15:00:00,23,1018.1,-0.4,33,6,25000,18.52,,,330,,,,,,,,,,,wg-a,,,,AAXX 13154 07070 12675 73310 10230 20060 30075 40181 56004 60006 81402 91500=
07070,1998-08-13 18:00:00,21,1017.1,-1,43,8,25000,14.816,,,340,13.7,22.8,,,,,,,,,wg-a,,,,AAXX 13184 07070 12675 73408 10210 20080 30065 40171 56010 60006 81402 91800 333 10228 20137=
07070,1998-08-13 21:00:00,16,1018,0.7,63,9,25000,14.816,,,330,,,,,,,,,,,wg-a,,,,AAXX 13214 07070 12/75 53308 10160 20090 30072 40180 53007 60006 80002 92100=
07070,1998-08-14 00:00:00,12,1018.8,0.6,76,8,25000,0,,,0,,,,,,,,,,,wg-a,,,,AAXX 14004 07070 12/75 10000 10120 20080 30078 40188 50006 60006 80002 90000=
07070,1998-08-14 03:00:00,10,1018.1,-0.8,87,8,25000,3.704,,,260,,,,,,,,,,,wg-a,,,,AAXX 14034 07070 12/75 02602 10100 20080 30070 40181 56008 60006 80000 90300=
07070,1998-08-14 06:00:00,12,1017.8,-0.2,88,10,10000,3.704,,,230,8.8,21.4,,,,,,,,,wg-a,,,,AAXX 14064 07070 02/60 /2302 10120 20100 30068 40178 56002 60006 90600 333 10214 20088 60004=
07070,1998-08-14 09:00:00,20,1017.1,-0.4,56,11,25000,3.704,,,120,,,,,,,,,,,wg-a,,,,AAXX 14094 07070 12/75 71202 10200 20110 30064 40171 56004 60006 81031 90900=
07070,1998-08-14 12:00:00,23,1015.8,-1.1,47,11,25000,7.408,,,90,,,,,,,,,,,wg-a,,,,AAXX 14124 07070 12775 60904 10230 20110 30053 40158 58011 60006 81101 91200=
07070,1998-08-14 15:00:00,25,1014.1,-1.6,44,12,20000,7.408,,,320,,,,,,,,,,,wg-a,,,,AAXX 14154 07070 12/70 43204 10250 20120 30037 40141 58016 60006 81031 91500=
07070,1998-08-15 03:00:00,12,1013.9,-0.1,88,10,20000,3.704,,,80,,,,,,,,,,,wg-a,,,,AAXX 15034 07070 12/70 10802 10120 20100 30030 40139 58001 60006 80001 90300=
07070,1998-08-15 06:00:00,14,1014.5,0.6,88,12,12000,0,,,0,11.4,24.2,,,,,,,,,wg-a,,,,AAXX 15064 07070 02/62 10000 10140 20120 30036 40145 53006 60006 80001 90600 333 10242 20114 60004=
07070,1998-08-15 09:00:00,24,1015,0.9,47,12,12000,7.408,,,280,,,,,,,,,,,wg-a,,,,AAXX 15094 07070 12/62 02804 10240 20120 30045 40150 51009 60006 80000 90900=
07070,1998-08-15 12:00:00,28,1014.8,0,40,13,15000,7.408,,,290,,,,,,,,,,,wg-a,,,,AAXX 15124 07070 12765 22904 10280 20130 30045 40148 50000 60006 81101 91200=
07070,1998-08-15 15:00:00,29,1014.8,-0,35,12,15000,22.224,,,300,,,,,,,,,,,wg-a,,,,AAXX 15154 07070 12765 23012 10290 20120 30045 40148 55000 60006 82100 91500=
07070,1998-08-15 18:00:00,27,1015.8,0.9,45,14,15000,14.816,,,340,13.7,29.8,,,,,,,,,wg-a,,,,AAXX 15184 07070 12/65 53408 10270 20140 30054 40158 53009 60006 81031 91800 333 10298 20137=
07070,1998-08-16 15:00:00,27,1019.7,-1.2,45,14,15000,14.816,,,330,,,,,,,,,,,wg-a,,,,AAXX 16154 07070 12/65 63308 10270 20140 30093 40197 57012 60006 80001 91500=
07070,1998-08-16 21:00:00,16,1020.3,0.8,72,11,25000,0,,,0,,,,,,,,,,,wg-a,,,,AAXX 16214 07070 12/75 20000 10160 20110 30095 40203 51008 60006 80001 92100=
07070,1998-08-17 00:00:00,11,1019.9,-0.6,87,9,25000,0,,,0,,,,,,,,,,,wg-a,,,,AAXX 17004 07070 12/75 00000 10110 20090 30089 40199 58006 60006 80000 90000=
07070,1998-08-17 03:00:00,9,1019.5,-0.5,93,8,25000,0,,,0,,,,,,,,,,,wg-a,,,,AAXX 17034 07070 12/75 00000 10090 20080 30084 40195 56005 60006 80000 90300=
07070,1998-08-17 06:00:00,11,1019.7,0.3,100,11,15000,0,,,0,8.2,25.1,,,,,,,,,wg-a,,,,AAXX 17064 07070 02/65 10000 10110 20110 30087 40197 53003 60006 80001 90600 333 10251 20082 60004=
07070,1998-08-17 09:00:00,20,1019.4,-0,56,11,15000,3.704,,,350,,,,,,,,,,,wg-a,,,,AAXX 17094 07070 12/65 13502 10200 20110 30087 40194 54000 60006 80001 90900=
07070,1998-08-17 12:00:00,27,1017.8,-1.3,39,12,15000,11.112,,,310,,,,,,,,,,,wg-a,,,,AAXX 17124 07070 12765 23106 10270 20120 30074 40178 58013 60006 81101 91200=
07070,1998-08-17 15:00:00,29,1016.1,-1.6,35,12,15000,14.816,,,290,,,,,,,,,,,wg-a,,,,AAXX 17154 07070 12765 22908 10290 20120 30058 40161 56016 60006 81101 91500=
07070,1998-08-17 18:00:00,26,1015.5,-0.7,28,6,15000,11.112,,,330,11.3,29.1,,,,,,,,,wg-a,,,,AAXX 17184 07070 12/65 13306 10260 20060 30051 40155 56007 60006 80001 91800 333 10291 20113=
07070,1998-08-17 21:00:00,18,1017.6,1.8,68,12,20000,18.52,,,350,,,,,,,,,,,wg-a,,,,AAXX 17214 07070 12/70 13510 10180 20120 30069 40176 53018 60006 80002 92100=
07070,1998-08-18 00:00:00,13,1018.2,0.4,88,11,20000,3.704,,,280,,,,,,,,,,,wg-a,,,,AAXX 18004 07070 12/70 12802 10130 20110 30073 40182 50004 60006 80001 90000=
07070,1998-08-18 03:00:00,11,1018.1,-0.2,94,10,20000,3.704,,,300,,,,,,,,,,,wg-a,,,,AAXX 18034 07070 12/70 33002 10110 20100 30071 40181 56002 60006 81031 90300=
07070,1998-08-18 06:00:00,14,1018.4,0.4,100,14,7000,7.408,,,340,10.2,26.4,,,,,,,,,wg-a,,,,AAXX 18064 07070 02357 73404 10140 20140 30075 40184 53004 60006 876// 90600 333 10264 20102 60004=
07070,1998-08-18 09:00:00,16,1018.7,0.4,94,15,7000,11.112,,,310,,,,,,,,,,,wg-a,,,,AAXX 18094 07070 12357 83106 10160 20150 30079 40187 51004 60006 886// 90900=
07070,1998-08-18 12:00:00,20,1018.6,0,78,16,12000,11.112,,,270,,,,,,,,,,,wg-a,,,,AAXX 18124 07070 12462 72706 10200 20160 30079 40186 50000 60006 875// 91200=
07070,1998-08-18 15:00:00,25,1016.8,-1.6,54,15,12000,11.112,,,340,,,,,,,,,,,wg-a,,,,AAXX 18154 07070 12662 23406 10250 20150 30063 40168 57016 60006 82200 91500=
07070,1998-08-18 18:00:00,23,1017.3,0.4,61,15,12000,11.112,,,360,14.3,25.8,,,,,,,,,wg-a,,,,AAXX 18184 07070 12762 33606 10230 20150 30067 40173 53004 60006 83500 91800 333 10258 20143=
07070,1998-08-18 21:00:00,20,1018.8,1.4,73,15,10000,14.816,,,360,,,,,,,,,,,wg-a,,,,AAXX 18214 07070 12760 73608 10200 20150 30081 40188 51014 60006 875// 92100=
07070,1998-08-19 00:00:00,16,1020,1.1,82,13,10000,7.408,,,330,,,,,,,,,,,wg-a,,,,AAXX 19004 07070 12760 33304 10160 20130 30092 40200 53011 60006 835/0 90000=
07070,1998-08-19 03:00:00,15,1020.3,0.2,88,13,10000,11.112,,,330,,,,,,,,,,,wg-a,,,,AAXX 19034 07070 12760 33306 10150 20130 30094 40203 52002 60006 83500 90300=
07070,1998-08-19 06:00:00,14,1020.7,0.4,88,12,4000,3.704,,,340,12.9,22.5,,,,,,,,10,wg-a,,,,AAXX 19064 07070 02740 /3402 10140 20120 30098 40207 53004 60006 71000 81500 90600 333 10225 20129 60004=
07070,1998-08-19 09:00:00,19,1021,0.5,73,14,7000,14.816,,,350,,,,,,,,,,,wg-a,,,,AAXX 19094 07070 12/57 03508 10190 20140 30103 40210 51005 60006 80000 90900=
07070,1998-08-19 12:00:00,23,1020.3,-0.6,50,12,10000,11.112,,,330,,,,,,,,,,,wg-a,,,,AAXX 19124 07070 12660 33306 10230 20120 30097 40203 58006 60006 83201 91200=
07070,1998-08-19 15:00:00,25,1019.1,-1.1,44,12,15000,11.112,,,340,,,,,,,,,,,wg-a,,,,AAXX 19154 07070 12765 43406 10250 20120 30086 40191 58011 60006 81101 91500=
07070,1998-08-19 18:00:00,23,1018.5,-0.7,41,9,15000,11.112,,,330,13.7,24.6,,,,,,,,,wg-a,,,,AAXX 19184 07070 12/65 23306 10230 20090 30079 40185 56007 60006 80001 91800 333 10246 20137=
07070,1998-08-19 21:00:00,16,1019.7,0.9,68,10,15000,3.704,,,310,,,,,,,,,,,wg-a,,,,AAXX 19214 07070 12/65 03102 10160 20100 30088 40197 53009 60006 80000 92100=
07070,1998-08-20 00:00:00,12,1019.2,-0.6,82,9,15000,7.408,,,250,,,,,,,,,,,wg-a,,,,AAXX 20004 07070 12/65 02504 10120 20090 30082 40192 58006 60006 80000 90000=
07070,1998-08-20 03:00:00,9,1018.6,-0.7,93,8,15000,0,,,0,,,,,,,,,,,wg-a,,,,AAXX 20034 07070 12/65 00000 10090 20080 30075 40186 58007 60006 80000 90300=
07070,1998-08-20 06:00:00,10,1018.7,0.2,93,9,6000,0,,,0,8,22.7,,,,,,,,,wg-a,,,,AAXX 20064 07070 02/56 30000 10100 20090 30077 40187 53002 60006 80001 90600 333 10227 20080 60004=
07070,1998-08-20 09:00:00,20,1018.3,-0.1,60,12,10000,0,,,0,,,,,,,,,,,wg-a,,,,AAXX 20094 07070 12/60 30000 10200 20120 30076 40183 58001 60006 83081 90900=
07070,1998-08-20 12:00:00,25,1017,-1.1,41,11,15000,14.816,,,290,,,,,,,,,,,wg-a,,,,AAXX 20124 07070 12765 22908 10250 20110 30065 40170 58011 60006 82100 91200=
07070,1998-08-20 15:00:00,26,1015.2,-1.7,39,11,15000,25.928,,,270,,,,,,,,,,,wg-a,,,,AAXX 20154 07070 12765 32714 10260 20110 30048 40152 58017 60006 83100 91500=
07070,1998-08-20 18:00:00,24,1014.3,-1,44,11,15000,18.52,,,290,10.2,26.5,,,,,,,,,wg-a,,,,AAXX 20184 07070 12765 52910 10240 20110 30038 40143 56010 60006 83481 91800 333 10265 20102=
07070,1998-08-20 21:00:00,19,1015.2,0.7,60,11,15000,14.816,,,300,,,,,,,,,,,wg-a,,,,AAXX 20214 07070 12/65 73008 10190 20110 30045 40152 51007 60006 83032 92100=
07070,1998-08-21 00:00:00,17,1013.6,-1.6,72,12,15000,14.816,,,270,,,,,,,,,,,wg-a,,,,AAXX 21004 07070 12/65 82708 10170 20120 30029 40136 58016 60006 8707/ 90000=
07070,1998-08-21 03:00:00,17,1011.6,-2,63,10,15000,22.224,,,240,,,,,,,,,,,wg-a,,,,AAXX 21034 07070 12765 82412 10170 20100 30009 40116 56020 60006 8257/ 90300=
07070,1998-08-21 06:00:00,14,1010.2,-1.5,88,12,7000,35.188,,48.152,230,13.3,23.5,,,,,,,,60,wg-a,,,,AAXX 21064 07070 02557 82319 10140 20120 39994 40102 58015 61000 76062 8487/ 90600 333 10235 20133 6003 91026=
07070,1998-08-21 09:00:00,15,1009.1,-1.1,88,13,10000,31.484,,,240,,,,1,,,,,,51,wg-a,,,,AAXX 21094 07070 12360 82417 10150 20130 39983 40091 56011 60017 75166 875// 90900=
07070,1998-08-21 12:00:00,17,1008.2,-0.8,88,15,10000,31.484,,,240,,,,,,,,,,60,wg-a,,,,AAXX 21124 07070 02360 82417 10170 20150 39975 40082 56008 60016 76066 875// 91200 333 61000=
07070,1998-08-21 15:00:00,20,1007.9,-0.1,83,17,10000,31.484,,,270,,,,0,,,,,,21,wg-a,,,,AAXX 21154 07070 12460 72717 10200 20170 39974 40079 55001 60007 72165 875// 91500=
07070,1998-08-21 18:00:00,18,1008.4,0.4,83,15,20000,25.928,,,270,13.4,19.9,,,,,,,,1,wg-a,,,,AAXX 21184 07070 12570 /2714 10180 20150 39978 40084 53004 60006 70165 85800 91800 333 10199 20134=
07070,1998-08-21 21:00:00,17,1010,1.5,82,14,20000,25.928,,,260,,,,,,,,,,,wg-a,,,,AAXX 21214 07070 12570 52614 10170 20140 39993 40100 51015 60006 85880 92100=
07070,1998-08-22 00:00:00,16,1011.2,1.2,82,13,10000,22.224,,,260,,,,,,,,,,,wg-a,,,,AAXX 22004 07070 12560 72612 10160 20130 30005 40112 51012 60006 878// 90000=
07070,1998-08-22 03:00:00,15,1012.5,1.2,82,12,10000,22.224,,,270,,,,,,,,,,,wg-a,,,,AAXX 22034 07070 12660 /2712 10150 20120 30017 40125 51012 60006 85570 90300=
07070,1998-08-22 06:00:00,14,1013,0.5,88,12,15000,18.52,,,240,13.3,18.5,,,,,1,,,,wg-a,,,,AAXX 22064 07070 02665 72410 10140 20120 30022 40130 53005 60006 878// 90600 333 10185 20133 60014=
07070,1998-08-22 12:00:00,17,1012.2,-1.1,72,12,20000,18.52,,,250,,,,,,,,,,,wg-a,,,,AAXX 22124 07070 12470 82510 10170 20120 30015 40122 58011 60006 8487/ 91200=
07070,1998-08-22 15:00:00,15,1010.7,-1.5,94,14,500,25.928,,,260,,,,2,,,,,,61,wg-a,,,,AAXX 22154 07070 12400 82614 10150 20140 30000 40107 56015 60027 76162 84770 91500=
07070,1998-08-22 18:00:00,14,1011,0.2,94,13,20000,14.816,,,260,14.3,17,,1,,,,,,1,wg-a,,,,AAXX 22184 07070 02570 /2608 10140 20130 30002 40110 53002 60006 70165 81232 91800 333 10170 20143 60017=
07070,1998-08-22 21:00:00,14,1014,2.9,94,13,15000,14.816,,,270,,,,,,,,,,,wg-a,,,,AAXX 22214 07070 12665 /2708 10140 20130 30031 40140 52029 60006 83502 92100=
07070,1998-08-23 00:00:00,12,1016,2,94,11,15000,11.112,,,260,,,,,,,,,,,wg-a,,,,AAXX 23004 07070 12/65 12606 10120 20110 30051 40160 51020 60006 80001 90000=
07070,1998-08-23 03:00:00,10,1017.2,1.1,93,9,8000,11.112,,,210,,,,,,,,,,,wg-a,,,,AAXX 23034 07070 12/58 /2106 10100 20090 30062 40172 51011 60006 80001 90300=
07070,1998-08-23 06:00:00,11,1018.1,0.9,100,11,200,7.408,,,240,9.2,14.4,,,,,3,,,43,wg-a,,,,AAXX 23064 07070 02/02 92404 10110 20110 30071 40181 53009 60006 74341 89/// 90600 333 10144 20092 60034=
07070,1998-08-23 09:00:00,14,1018.7,0.7,100,14,7000,14.816,,,260,,,,,,,,,,1,wg-a,,,,AAXX 23094 07070 12457 /2608 10140 20140 30078 40187 51007 60006 70142 85502 90900=
07070,1998-08-23 12:00:00,18,1017.6,-0.9,68,12,12000,22.224,,,230,,,,,,,,,,3,wg-a,,,,AAXX 23124 07070 12562 /2312 10180 20120 30069 40176 57009 60006 70342 84202 91200=
07070,1998-08-23 15:00:00,20,1015.6,-2,56,11,25000,25.928,,,250,,,,,,,,,,,wg-a,,,,AAXX 23154 07070 12675 72514 10200 20110 30049 40156 56020 60006 8327/ 91500=
07070,1998-08-23 18:00:00,20,1013.2,-2.3,60,12,25000,14.816,,,230,11,20.7,,,,,,,,,wg-a,,,,AAXX 23184 07070 12675 72308 10200 20120 30026 40132 56023 60006 875// 91800 333 10207 20110=
07070,1998-08-23 21:00:00,20,1011.5,-1.7,60,12,15000,18.52,,,240,,,,,,,,,,,wg-a,,,,AAXX 23214 07070 12665 72410 10200 20120 30009 40115 56017 60006 875// 92100=
07070,1998-08-24 00:00:00,18,1007.8,-3.7,83,15,15000,29.632,,,240,,,,0,,,,,,61,wg-a,,,,AAXX 24004 07070 02765 82416 10180 20150 39972 40078 56037 60006 76162 8557/ 90000 333 60007=
07070,1998-08-24 03:00:00,16,1007.8,-0.1,88,14,15000,25.928,,,270,,,,6,,,,,,21,wg-a,,,,AAXX 24034 07070 12465 82714 10160 20140 39971 40078 55001 60067 72162 8657/ 90300=
07070,1998-08-24 06:00:00,15,1009.4,1.6,94,14,20000,25.928,,,270,14.8,20,,,,,6,,,1,wg-a,,,,AAXX 24064 07070 02470 72714 10150 20140 39987 40094 52016 60006 70162 878// 90600 333 10200 20148 60064=
07070,1998-08-24 09:00:00,16,1011.6,2.2,77,12,15000,29.632,,,300,,,,,,,,,,1,wg-a,,,,AAXX 24094 07070 02565 /3016 10160 20120 30009 40116 53022 61000 70162 83802 90900 333 ////=
07070,1998-08-24 12:00:00,20,1012.7,1.2,53,10,20000,31.484,,,280,,,,,,,,,,1,wg-a,,,,AAXX 24124 07070 02570 32817 10200 20100 30021 40127 51012 61000 70186 83802 91200 333 6100=
07070,1998-08-24 15:00:00,18,1015.1,2.3,73,13,20000,25.928,,,360,,,,,,,,,,80,wg-a,,,,AAXX 24154 07070 02670 73614 10180 20130 30044 40151 53023 61000 78086 878// 91500 333 ////=
07070,1998-08-24 18:00:00,17,1017.3,2.1,72,12,25000,11.112,,,340,15.2,21.1,,,,,,,,1,wg-a,,,,AAXX 24184 07070 02675 73406 10170 20120 30065 40173 51021 60006 70186 875// 91800 333 10211 20152 61000=
07070,1998-08-24 21:00:00,15,1019.6,2.2,82,12,10000,7.408,,,300,,,,,,,,,,,wg-a,,,,AAXX 24214 07070 12560 73004 10150 20120 30087 40196 51022 60006 875// 92100=
07070,1998-08-25 00:00:00,12,1021.3,1.6,94,11,10000,11.112,,,360,,,,,,,,,,,wg-a,,,,AAXX 25004 07070 12760 13606 10120 20110 30103 40213 51016 60006 81500 90000=
07070,1998-08-25 03:00:00,9,1021.7,0.3,93,8,600,0,,,0,,,,,,,,,,41,wg-a,,,,AAXX 25034 07070 12/06 00000 10090 20080 30106 40217 53003 60006 74140 80000 90300=
07070,1998-08-25 06:00:00,9,1022,0.3,100,9,2500,0,,,0,6.2,16.5,,,,,,,,28,wg-a,,,,AAXX 25064 07070 02725 /0000 10090 20090 30109 40220 53003 60006 72840 81500 90600 333 10165 20062 61000=
07070,1998-08-25 09:00:00,17,1022.1,0.4,55,8,20000,11.112,,,170,,,,,,,,,,,wg-a,,,,AAXX 25094 07070 12570 41706 10170 20080 30113 40221 51004 60006 81232 90900=
07070,1998-08-25 12:00:00,20,1021.7,-0.3,53,10,25000,3.704,,,270,,,,,,,,,,,wg-a,,,,AAXX 25124 07070 12675 72702 10200 20100 30110 40217 58003 60006 878// 91200=
07070,1998-08-25 15:00:00,21,1020.1,-1.5,49,10,25000,7.408,,,280,,,,,,,,,,,wg-a,,,,AAXX 25154 07070 12775 62804 10210 20100 30095 40201 58015 60006 86800 91500=
07070,1998-08-25 18:00:00,20,1019.1,-1.1,56,11,25000,3.704,,,270,8.9,21.5,,,,,,,,,wg-a,,,,AAXX 25184 07070 12775 52702 10200 20110 30084 40191 56011 60006 85830 91800 333 10215 20089=
07070,1998-08-25 21:00:00,14,1019.2,-0.1,82,11,20000,0,,,0,,,,,,,,,,,wg-a,,,,AAXX 25214 07070 12/70 00000 10140 20110 30083 40192 56001 60006 80000 92100=
07070,1998-08-26 00:00:00,12,1018.6,-0.7,88,10,20000,3.704,,,220,,,,,,,,,,,wg-a,,,,AAXX 26004 07070 12770 12202 10120 20100 30076 40186 58007 60006 81500 90000=
07070,1998-08-26 03:00:00,11,1017.2,-1.4,87,9,15000,3.704,,,230,,,,,,,,,,,wg-a,,,,AAXX 26034 07070 12/65 02302 10110 20090 30062 40172 56014 60006 80000 90300=
07070,1998-08-26 06:00:00,10,1016.4,-0.8,100,10,500,3.704,,,200,8.1,20.4,,,,,,,,,wg-a,,,,AAXX 26064 07070 02700 22002 10100 20100 30054 40164 56008 60006 82500 90600 333 10204 20081 60004=
07070,1998-08-26 09:00:00,19,1015.6,-0.5,64,12,15000,14.816,,,260,,,,,,,,,,,wg-a,,,,AAXX 26094 07070 12665 52608 10190 20120 30049 40156 58005 60006 82531 90900=
07070,1998-08-26 12:00:00,20,1015.2,-0.3,68,14,15000,29.632,,,270,,,,,,,,,,3,wg-a,,,,AAXX 26124 07070 02565 72716 10200 20140 30046 40152 56003 61000 70365 872// 91200 333 6100=
07070,1998-08-26 15:00:00,21,1014.6,-0.6,60,13,20000,29.632,,,270,,,,,,,,,,,wg-a,,,,AAXX 26154 07070 12670 72716 10210 20130 30040 40146 55006 60006 878// 91500=
07070,1998-08-26 18:00:00,19,1014.8,0.1,73,14,20000,22.224,,,290,10.1,21.9,,,,,,,,,wg-a,,,,AAXX 26184 07070 12570 72912 10190 20140 30041 40148 53001 60006 878// 91800 333 10219 20101=
07070,1998-08-26 21:00:00,15,1017.6,2.6,82,12,10000,25.928,,,10,,,,,,,,,,1,wg-a,,,,AAXX 26214 07070 02560 70114 10150 20120 30067 40176 52026 61000 70186 875// 92100 333 ////=
07070,1998-08-27 00:00:00,12,1019.1,1.4,88,10,10000,7.408,,,340,,,,,,,,,,2,wg-a,,,,AAXX 27004 07070 02760 73404 10120 20100 30081 40191 51014 61000 70286 875// 90000 333 ////=
07070,1998-08-27 03:00:00,10,1019.1,-0.1,93,9,7000,7.408,,,330,,,,,,,,,,,wg-a,,,,AAXX 27034 07070 12557 /3304 10100 20090 30080 40191 58001 60006 81500 90300=
07070,1998-08-27 06:00:00,11,1020.1,1,94,10,500,7.408,,,330,9.6,19.1,,,,,,,,,wg-a,,,,AAXX 27064 07070 02700 33304 10110 20100 30090 40201 52010 60006 83500 90600 333 10191 20096 61000=
07070,1998-08-27 12:00:00,15,1020.9,0.4,63,8,15000,22.224,,,340,,,,,,,,,,,wg-a,,,,AAXX 27124 07070 12565 73412 10150 20080 30100 40209 51004 60006 878// 91200=
07070,1998-08-27 15:00:00,16,1021.1,0.2,51,6,15000,29.632,,,340,,,,,,,,,,1,wg-a,,,,AAXX 27154 07070 02665 73416 10160 20060 30102 40211 53002 61000 70186 878// 91500 333 ////=
07070,1998-08-27 18:00:00,15,1021,-0.1,55,6,20000,22.224,,,330,10.5,16.7,,,,,,,,3,wg-a,,,,AAXX 27184 07070 12670 53312 10150 20060 30101 40210 55001 60006 70386 85800 91800 333 10167 20105=
07070,1998-08-27 21:00:00,9,1022.6,1.4,81,6,20000,7.408,,,340,,,,,,,,,,,wg-a,,,,AAXX 27214 07070 12/70 03404 10090 20060 30115 40226 51014 60006 80000 92100=
07070,1998-08-28 00:00:00,7,1022.9,0.2,93,6,20000,3.704,,,270,,,,,,,,,,,wg-a,,,,AAXX 28004 07070 12/70 02702 10070 20060 30117 40229 51002 60006 80000 90000=
07070,1998-08-28 03:00:00,6,1022.6,-0.4,93,5,12000,3.704,,,300,,,,,,,,,,,wg-a,,,,AAXX 28034 07070 12562 /3002 10060 20050 30113 40226 55004 60006 86500 90300=
07070,1998-08-28 06:00:00,8,1022.6,0.1,93,7,10000,0,,,0,5.2,15,,,,,,,,,wg-a,,,,AAXX 28064 07070 02560 20000 10080 20070 30114 40226 53001 60006 82500 90600 333 10150 20052 60004=
07070,1998-08-28 09:00:00,15,1022.7,0.4,55,6,25000,22.224,,,10,,,,,,,,,,,wg-a,,,,AAXX 28094 07070 12575 /0112 10150 20060 30118 40227 52004 60006 85200 90900=
07070,1998-08-28 12:00:00,17,1022.2,-0.5,48,6,25000,18.52,,,340,,,,,,,,,,,wg-a,,,,AAXX 28124 07070 12675 73410 10170 20060 30113 40222 58005 60006 878// 91200=
07070,1998-08-28 15:00:00,17,1021.8,-0.3,42,4,25000,22.224,,,350,,,,,,,,,,,wg-a,,,,AAXX 28154 07070 12775 73512 10170 20040 30110 40218 56003 60006 878// 91500=
07070,1998-08-28 18:00:00,15,1022.1,0.2,59,7,25000,18.52,,,350,7.9,18.2,,,,,,,,,wg-a,,,,AAXX 28184 07070 12775 73510 10150 20070 30112 40221 53002 60006 875// 91800 333 10182 20079=
07070,1998-08-28 21:00:00,13,1023.1,0.9,72,8,25000,7.408,,,360,,,,,,,,,,,wg-a,,,,AAXX 28214 07070 12775 73604 10130 20080 30121 40231 51009 60006 875// 92100=
07070,1998-08-29 00:00:00,11,1022.8,-0.3,82,8,15000,11.112,,,320,,,,,,,,,,,wg-a,,,,AAXX 29004 07070 12765 73206 10110 20080 30118 40228 58003 60006 875// 90000=
07070,1998-08-29 03:00:00,11,1022.6,-0.3,82,8,15000,11.112,,,330,,,,,,,,,,,wg-a,,,,AAXX 29034 07070 12765 73306 10110 20080 30115 40226 55003 60006 875// 90300=
07070,1998-08-29 06:00:00,11,1022.7,0.1,87,9,15000,7.408,,,260,10.5,15.4,,,,,,,,,wg-a,,,,AAXX 29064 07070 02565 72604 10110 20090 30116 40227 53001 60006 878// 90600 333 10154 20105 60004=
07070,1998-08-29 09:00:00,15,1023.1,0.6,72,10,15000,3.704,,,30,,,,,,,,,,,wg-a,,,,AAXX 29094 07070 12565 /0302 10150 20100 30122 40231 53006 60006 86800 90900=
07070,1998-08-29 12:00:00,18,1021.8,-1.2,52,8,25000,7.408,,,30,,,,,,,,,,,wg-a,,,,AAXX 29124 07070 12675 60304 10180 20080 30110 40218 58012 60006 86800 91200=
07070,1998-08-29 15:00:00,19,1020.8,-1,46,7,25000,11.112,,,10,,,,,,,,,,,wg-a,,,,AAXX 29154 07070 12675 /0106 10190 20070 30100 40208 58010 60006 86800 91500=
07070,1998-08-29 18:00:00,17,1020.7,-0.1,55,8,25000,7.408,,,50,11.1,19.2,,,,,,,,,wg-a,,,,AAXX 29184 07070 12675 /0504 10170 20080 30099 40207 55001 60006 85801 91800 333 10192 20111=
07070,1998-08-29 21:00:00,13,1021.2,0.3,77,9,20000,0,,,0,,,,,,,,,,,wg-a,,,,AAXX 29214 07070 12870 50000 10130 20090 30102 40212 50003 60006 85500 92100=
07070,1998-08-30 00:00:00,12,1020.6,-0.6,88,10,15000,0,,,0,,,,,,,,,,,wg-a,,,,AAXX 30004 07070 12765 50000 10120 20100 30096 40206 58006 60006 85500 90000=
07070,1998-08-30 03:00:00,12,1020.4,-0.2,88,10,15000,0,,,0,,,,,,,,,,,wg-a,,,,AAXX 30034 07070 12765 70000 10120 20100 30094 40204 55002 60006 875// 90300=
07070,1998-08-30 06:00:00,13,1020.3,-0.1,88,11,8000,7.408,,,150,11.8,16.8,,,,,,,,,wg-a,,,,AAXX 30064 07070 02658 81504 10130 20110 30093 40203 56001 60006 885// 90600 333 10168 20118 60004=
07070,1998-08-30 09:00:00,16,1020.7,0.5,72,11,8000,7.408,,,220,,,,,,,,,,,wg-a,,,,AAXX 30094 07070 12658 82204 10160 20110 30098 40207 51005 60006 888// 90900=
07070,1998-08-30 12:00:00,18,1020.1,-0.5,56,9,11000,14.816,,,330,,,,,,,,,,,wg-a,,,,AAXX 30124 07070 12/61 /3308 10180 20090 30093 40201 58005 60006 91200=
07070,1998-08-30 15:00:00,20,1019,-1,60,12,11000,11.112,,,360,,,,,,,,,,,wg-a,,,,AAXX 30154 07070 12/61 /3606 10200 20120 30083 40190 57010 60006 91500=
07070,1998-08-30 18:00:00,19,1018.7,-0.3,68,13,20000,7.408,,,340,12.6,20.2,,,,,,,,,wg-a,,,,AAXX 30184 07070 12770 83404 10190 20130 30080 40187 56003 60006 888// 91800 333 10202 20126=
07070,1998-08-30 21:00:00,14,1018.7,-0.2,82,11,10000,0,,,0,,,,,,,,,,,wg-a,,,,AAXX 30214 07070 12760 40000 10140 20110 30078 40187 56002 60006 84500 92100=
07070,1998-08-31 00:00:00,12,1018.6,-0.2,94,11,8000,3.704,,,320,,,,,,,,,,,wg-a,,,,AAXX 31004 07070 12558 33202 10120 20110 30076 40186 58002 60006 83500 90000=
07070,1998-08-31 03:00:00,8,1017.9,-0.8,100,8,300,3.704,,,170,,,,,,,,,,44,wg-a,,,,AAXX 31034 07070 12/03 01702 10080 20080 30068 40179 56008 60006 74440 80000 90300=
07070,1998-08-31 06:00:00,10,1017.7,-0.2,93,9,100,3.704,,,20,7.8,18.5,,,,,,,,44,wg-a,,,,AAXX 31064 07070 02/01 00202 10100 20090 30066 40177 56002 60006 74440 80000 90600 333 10185 20078 60004=
07070,1998-08-31 09:00:00,14,1017.9,0.4,100,14,3000,3.704,,,60,,,,,,,,,,10,wg-a,,,,AAXX 31094 07070 12230 /0602 10140 20140 30070 40179 51004 60006 71041 876// 90900=
07070,1998-08-31 12:00:00,21,1016.1,-1.5,56,12,12000,11.112,,,70,,,,,,,,,,1,wg-a,,,,AAXX 31124 07070 12662 /0706 10210 20120 30055 40161 58015 60006 70141 85200 91200=
07070,1998-08-31 15:00:00,22,1014.8,-1.2,53,12,20000,18.52,,,70,,,,,,,,,,,wg-a,,,,AAXX 31154 07070 12770 40710 10220 20120 30043 40148 56012 60006 82101 91500=
07070,1998-08-31 18:00:00,19,1014.5,-0.5,60,11,20000,14.816,,,70,9.7,22.6,,,,,,,,,wg-a,,,,AAXX 31184 07070 12/70 40708 10190 20110 30038 40145 56005 60006 80001 91800 333 10226 20097=
07070,1998-08-31 21:00:00,14,1014.9,0.2,82,11,20000,7.408,,,70,,,,,,,,,,,wg-a,,,,AAXX 31214 07070 12/70 50704 10140 20110 30040 40149 52002 60006 80001 92100=
07070,1998-09-01 00:00:00,15,1014.3,-0.5,77,11,15000,7.408,,,90,,,,,,,,,,,wg-a,,,,AAXX 01004 07070 12/65 50904 10150 20110 30035 40143 56005 60006 80001 90000=
07070,1998-09-01 03:00:00,15,1013.7,-0.6,77,11,15000,11.112,,,40,,,,,,,,,,,wg-a,,,,AAXX 01034 07070 12/65 50406 10150 20110 30029 40137 56006 60006 80001 90300=
07070,1998-09-01 06:00:00,15,1013,-0.7,72,10,15000,14.816,,,100,13.1,18.7,,,,,,,,,wg-a,,,,AAXX 01064 07070 02665 71008 10150 20100 30022 40130 55007 60006 85772 90600 333 10187 20131 60004=
07070,1998-09-01 09:00:00,19,1013.1,0.2,64,12,15000,18.52,,,110,,,,,,,,,,,wg-a,,,,AAXX 01094 07070 12/65 81110 10190 20120 30024 40131 51002 60006 8708/ 90900=
07070,1998-09-01 12:00:00,18,1013.3,0.2,83,15,15000,14.816,,,110,,,,0,,,,,,21,wg-a,,,,AAXX 01124 07070 02665 71108 10180 20150 30026 40133 50002 60016 72162 8657/ 91200 333 60007=
07070,1998-09-01 15:00:00,25,1012.5,-0.5,57,16,15000,18.52,,,150,,,,,,,,,,,wg-a,,,,AAXX 01154 07070 12/65 21510 10250 20160 30021 40125 58005 60006 80001 91500=
07070,1998-09-01 18:00:00,22,1012.5,-0.1,69,16,12000,11.112,,,140,14.8,25.5,,,,,,,,,wg-a,,,,AAXX 01184 07070 12/62 61406 10220 20160 30020 40125 56001 60006 83081 91800 333 10255 20148=
07070,1998-09-01 21:00:00,20,1013.3,0.7,83,17,10000,14.816,,,170,,,,,,,,,,21,wg-a,,,,AAXX 01214 07070 02/60 71708 10200 20170 30027 40133 51007 61000 72162 8707/ 92100 333 ////=
07070,1998-09-02 00:00:00,20,1013.3,0,83,17,10000,7.408,,,190,,,,,,,,,,3,wg-a,,,,AAXX 02004 07070 02760 81904 10200 20170 30027 40133 50000 61000 70362 8357/ 90000 333 ////=
07070,1998-09-02 03:00:00,18,1013.9,0.5,94,17,10000,7.408,,,350,,,,1,,,,,,1,wg-a,,,,AAXX 02034 07070 12760 83504 10180 20170 30032 40139 53005 60017 70186 8457/ 90300=
07070,1998-09-02 06:00:00,17,1013.1,-0.8,100,17,3800,0,,,0,16.7,22,,,,,,,,10,wg-a,,,,AAXX 02064 07070 02738 70000 10170 20170 30024 40131 56008 61000 71086 8459/ 90600 333 10220 20167 6003=
07070,1998-09-02 09:00:00,18,1014.1,1,94,17,1500,0,,,0,,,,6,,,,,,10,wg-a,,,,AAXX 02094 07070 12215 70000 10180 20170 30034 40141 53010 60067 71098 8497/ 90900=
07070,1998-09-02 12:00:00,20,1013.3,-0.7,94,19,500,11.112,,,160,,,,1,,,,,,10,wg-a,,,,AAXX 02124 07070 02200 /1606 10200 20190 30027 40133 58007 60086 71098 8487/ 91200 333 60017=
07070,1998-09-02 15:00:00,22,1011.8,-1.4,88,20,7000,18.52,,,150,,,,,,,,,,,wg-a,,,,AAXX 02154 07070 12/57 /1510 10220 20200 30013 40118 56014 60006 91500=
07070,1998-09-02 18:00:00,22,1011.1,-0.7,83,19,15000,11.112,,,150,17,23.1,,,,,,,,,wg-a,,,,AAXX 02184 07070 12565 71506 10220 20190 30006 40111 55007 60006 83182 91800 333 10231 20170=
07070,1998-09-02 21:00:00,21,1009.9,-1.2,83,18,8000,25.928,,,170,,,,,,,,,,,wg-a,,,,AAXX 02214 07070 12758 71714 10210 20180 39994 40099 57012 60006 8558/ 92100=
07070,1998-09-03 00:00:00,20,1009.3,-0.7,88,18,10000,22.224,,,170,,,,,,,,,,,wg-a,,,,AAXX 03004 07070 12/60 71712 10200 20180 39987 40093 57007 60006 87070 90000=
07070,1998-09-03 03:00:00,20,1008.9,-0.4,88,18,8000,18.52,,,240,,,,,,,,,,,wg-a,,,,AAXX 03034 07070 12658 72410 10200 20180 39983 40089 56004 60006 8557/ 90300=
07070,1998-09-03 06:00:00,19,1009,0.1,88,17,8000,11.112,,,160,18.4,21.5,,,,,,,,25,wg-a,,,,AAXX 03064 07070 02558 81606 10190 20170 39984 40090 50001 61000 72586 878// 90600 333 10215 20184 6008=
07070,1998-09-03 09:00:00,19,1009.7,0.7,78,15,15000,25.928,,,210,,,,0,,,,,,3,wg-a,,,,AAXX 03094 07070 12465 82114 10190 20150 39991 40097 53007 60007 70386 875// 90900=
07070,1998-09-03 12:00:00,16,1010.4,0.6,94,15,4500,29.632,,,240,,,,,,,,,,10,wg-a,,,,AAXX 03124 07070 02345 82416 10160 20150 39997 40104 53006 60016 71086 877// 91200 333 61000=
07070,1998-09-03 15:00:00,16,1012.7,2.2,88,14,7000,31.484,,,260,,,,1,,,,,,51,wg-a,,,,AAXX 03154 07070 12457 82617 10160 20140 30019 40127 51022 60017 75165 878// 91500=
07070,1998-09-03 18:00:00,16,1014.5,1.8,88,14,4500,14.816,,,250,15.4,19.3,,,,,,,,10,wg-a,,,,AAXX 03184 07070 02445 72508 10160 20140 30037 40145 51018 61000 71065 8187/ 91800 333 10193 20154 6001=
07070,1998-09-04 00:00:00,12,1015.2,-0.3,94,11,4000,3.704,,,170,,,,,,,,,,10,wg-a,,,,AAXX 04004 07070 12/40 01702 10120 20110 30043 40152 58003 60006 71011 80000 90000=
07070,1998-09-04 03:00:00,10,1014.1,-1.2,93,9,100,0,,,0,,,,,,,,,,44,wg-a,,,,AAXX 04034 07070 12/01 00000 10100 20090 30031 40141 57012 60006 74440 80000 90300=
07070,1998-09-04 06:00:00,8,1013.8,-0.4,100,8,100,0,,,0,7.7,15.7,,,,,2,,,44,wg-a,,,,AAXX 04064 07070 02/01 20000 10080 20080 30027 40138 56004 60006 74440 80001 90600 333 10157 20077 60024=
07070,1998-09-04 09:00:00,15,1012.8,-0.7,100,15,2500,11.112,,,100,,,,,,,,,,10,wg-a,,,,AAXX 04094 07070 12125 71006 10150 20150 30020 40128 58007 60006 71041 84601 90900=
07070,1998-09-04 12:00:00,19,1010.3,-2.3,78,15,8000,11.112,,,140,,,,,,,,,,3,wg-a,,,,AAXX 04124 07070 12458 71406 10190 20150 39997 40103 58023 60006 70341 8117/ 91200=
07070,1998-09-04 15:00:00,20,1007.8,-2.4,68,14,15000,11.112,,,150,,,,,,,,,,,wg-a,,,,AAXX 04154 07070 12665 71506 10200 20140 39973 40078 57024 60006 8227/ 91500=
07070,1998-09-04 18:00:00,18,1005.2,-2.7,88,16,8000,18.52,,,100,8.2,21,,,,,,,,,wg-a,,,,AAXX 04184 07070 12/58 71010 10180 20160 39946 40052 57027 60006 8707/ 91800 333 10210 20082=
07070,1998-09-04 21:00:00,18,1003.7,-1.5,83,15,12000,22.224,,,170,,,,,,,,,,61,wg-a,,,,AAXX 04214 07070 02562 81712 10180 20150 39931 40037 58015 61000 76162 875// 92100 333 ////=
07070,1998-09-05 00:00:00,15,1004.4,0.6,94,14,11000,11.112,,,230,,,,,,,,,,,wg-a,,,,AAXX 05004 07070 12/61 /2306 10150 20140 39937 40044 53006 60046 90000=
07070,1998-09-05 03:00:00,15,1005.3,0.9,94,14,15000,18.52,,,230,,,,,,,,,,,wg-a,,,,AAXX 05034 07070 12465 42310 10150 20140 39946 40053 53009 60006 83570 90300=
07070,1998-09-05 06:00:00,15,1006.3,1,88,13,10000,18.52,,,250,14.9,18.3,,,,,4,,,,wg-a,,,,AAXX 05064 07070 02460 72510 10150 20130 39956 40063 53010 60006 872// 90600 333 10183 20149 60044=
07070,1998-09-05 09:00:00,17,1007.4,1.2,82,14,15000,25.928,,,240,,,,,,,,,,,wg-a,,,,AAXX 05094 07070 12465 72414 10170 20140 39968 40074 51012 60006 872// 90900=
07070,1998-09-05 12:00:00,17,1007.1,-0.3,88,15,10000,25.928,,,240,,,,1,,,,,,80,wg-a,,,,AAXX 05124 07070 02560 72414 10170 20150 39965 40071 57003 60016 78086 872// 91200 333 60017=
07070,1998-09-05 15:00:00,17,1008.6,1.4,77,13,8000,35.188,,59.264,270,,,,,,,,,,81,wg-a,,,,AAXX 05154 07070 02558 72719 10170 20130 39979 40086 53014 61000 78186 85903 91500 333 //// 91032=
07070,1998-09-05 18:00:00,17,1008.9,0.3,88,15,12000,14.816,,,230,15,20.5,,1,,,,,,1,wg-a,,,,AAXX 05184 07070 02562 72308 10170 20150 39982 40089 53003 60006 70186 87903 91800 333 10205 20150 60017=
07070,1998-09-05 21:00:00,15,1010.5,1.6,94,14,20000,18.52,,,250,,,,2,,,,,,1,wg-a,,,,AAXX 05214 07070 12770 22510 10150 20140 39998 40105 51016 60027 70186 82500 92100=
07070,1998-09-06 00:00:00,15,1011,0.4,88,13,20000,22.224,,,240,,,,,,,,,,3,wg-a,,,,AAXX 06004 07070 12570 72412 10150 20130 30002 40110 52004 60026 70386 875// 90000=
07070,1998-09-06 03:00:00,14,1011.2,0.2,88,12,20000,22.224,,,240,,,,,,,,,,,wg-a,,,,AAXX 06034 07070 12770 72412 10140 20120 30004 40112 53002 60006 875// 90300=
07070,1998-09-06 06:00:00,14,1011.7,0.5,88,12,12000,14.816,,,230,13.5,16.8,,,,,4,,,,wg-a,,,,AAXX 06064 07070 02762 62308 10140 20120 30009 40117 53005 60006 85501 90600 333 10168 20135 60044=
07070,1998-09-06 09:00:00,17,1012,0.4,82,14,20000,18.52,,,250,,,,,,,,,,,wg-a,,,,AAXX 06094 07070 12470 42510 10170 20140 30013 40120 50004 60006 84200 90900=
07070,1998-09-06 12:00:00,20,1011.2,-0.7,60,12,20000,14.816,,,240,,,,,,,,,,,wg-a,,,,AAXX 06124 07070 12570 /2408 10200 20120 30006 40112 56007 60006 85200 91200=
07070,1998-09-06 15:00:00,21,1010.2,-1,56,12,20000,18.52,,,240,,,,,,,,,,,wg-a,,,,AAXX 06154 07070 12670 72410 10210 20120 39996 40102 58010 60006 86204 91500=
07070,1998-09-06 18:00:00,19,1009.4,-0.8,68,13,20000,7.408,,,220,13.9,21.5,,,,,,,,,wg-a,,,,AAXX 06184 07070 12/70 72204 10190 20130 39988 40094 56008 60006 85052 91800 333 10215 20139=
07070,1998-09-06 21:00:00,15,1009.4,-0.2,88,13,20000,11.112,,,170,,,,,,,,,,,wg-a,,,,AAXX 06214 07070 12/70 61706 10150 20130 39986 40094 58002 60006 82039 92100=
07070,1998-09-07 00:00:00,16,1007.8,-1.5,82,13,20000,11.112,,,180,,,,,,,,,,,wg-a,,,,AAXX 07004 07070 12/70 71806 10160 20130 39971 40078 57015 60006 8703/ 90000=
07070,1998-09-07 03:00:00,16,1006.2,-1.6,82,13,20000,11.112,,,170,,,,,,,,,,,wg-a,,,,AAXX 07034 07070 12/70 71706 10160 20130 39955 40062 56016 60006 86072 90300=
07070,1998-09-07 06:00:00,15,1006.6,0.4,94,14,7000,3.704,,,170,14.5,18.6,,,,,,,,61,wg-a,,,,AAXX 07064 07070 02757 81702 10150 20140 39959 40066 53004 61000 76162 8557/ 90600 333 10186 20145 6001=
07070,1998-09-07 09:00:00,17,1007.1,0.5,88,15,15000,11.112,,,190,,,,2,,,,,,21,wg-a,,,,AAXX 07094 07070 12665 81906 10170 20150 39964 40071 53005 60027 72162 8687/ 90900=
07070,1998-09-07 12:00:00,17,1007,-0.1,94,16,7000,14.816,,,180,,,,1,,,,,,61,wg-a,,,,AAXX 07124 07070 02557 81808 10170 20160 39963 40070 58001 60036 76162 8687/ 91200 333 60017=
07070,1998-09-07 15:00:00,18,1006.4,-0.5,94,17,20000,18.52,,,170,,,,1,,,,,,1,wg-a,,,,AAXX 07154 07070 12670 71710 10180 20170 39958 40064 55005 60017 70162 8582/ 91500=
07070,1998-09-07 18:00:00,17,1005.8,-0.6,94,16,20000,18.52,,,160,14.7,19.5,,,,,,,,1,wg-a,,,,AAXX 07184 07070 12670 51610 10170 20160 39952 40058 58006 60006 70162 83872 91800 333 10195 20147=
07070,1998-09-07 21:00:00,16,1007.7,1.8,94,15,15000,18.52,,,170,,,,,,,,,,,wg-a,,,,AAXX 07214 07070 12665 51710 10160 20150 39970 40077 51018 60006 84830 92100=
07070,1998-09-08 00:00:00,14,1007.7,-0.1,94,13,25000,11.112,,,190,,,,,,,,,,,wg-a,,,,AAXX 08004 07070 12675 /1906 10140 20130 39969 40077 57001 60006 81500 90000=
07070,1998-09-08 03:00:00,13,1007.9,0.2,94,12,25000,7.408,,,210,,,,,,,,,,,wg-a,,,,AAXX 08034 07070 12/75 22104 10130 20120 39971 40079 52002 60006 80001 90300=
07070,1998-09-08 06:00:00,14,1008.9,1,94,13,8000,14.816,,,200,11.8,17.2,,,,,4,,,,wg-a,,,,AAXX 08064 07070 02558 72008 10140 20130 39981 40089 51010 60006 8558/ 90600 333 10172 20118 60044=
07070,1998-09-08 09:00:00,18,1009.6,0.8,77,14,12000,18.52,,,220,,,,,,,,,,1,wg-a,,,,AAXX 08094 07070 02462 72210 10180 20140 39989 40096 51008 61000 70162 878// 90900 333 ////=
07070,1998-09-08 12:00:00,19,1009.1,-0.4,73,14,12000,22.224,,,220,,,,,,,,,,1,wg-a,,,,AAXX 08124 07070 02562 72212 10190 20140 39985 40091 58004 61000 70162 878// 91200 333 ////=
07070,1998-09-08 15:00:00,17,1008.6,-0.5,94,16,10000,22.224,,,210,,,,1,,,,,,21,wg-a,,,,AAXX 08154 07070 12460 82112 10170 20160 39980 40086 57005 60017 72165 877// 91500=
07070,1998-09-08 18:00:00,18,1008.4,-0.2,88,16,12000,18.52,,,200,14.1,19.3,,,,,,,,1,wg-a,,,,AAXX 08184 07070 02462 72010 10180 20160 39978 40084 58002 60006 70165 877// 91800 333 10193 20141 61000=
07070,1998-09-08 21:00:00,18,1009.2,0.8,88,16,12000,18.52,,,220,,,,,,,,,,,wg-a,,,,AAXX 08214 07070 12462 42210 10180 20160 39986 40092 50008 60006 84700 92100=
07070,1998-09-09 00:00:00,18,1008.9,-0.3,88,16,12000,18.52,,,220,,,,,,,,,,,wg-a,,,,AAXX 09004 07070 12662 /2210 10180 20160 39983 40089 58003 60006 86500 90000=
07070,1998-09-09 03:00:00,18,1007.6,-1.3,94,17,500,18.52,,,190,,,,,,,,,,,wg-a,,,,AAXX 09034 07070 12300 71910 10180 20170 39970 40076 57013 60006 877// 90300=
07070,1998-09-09 06:00:00,18,1007.2,-0.4,88,16,12000,25.928,,,220,17.5,18.6,,,,,1,,,1,wg-a,,,,AAXX 09064 07070 02462 72214 10180 20160 39966 40072 56004 60006 70152 878// 90600 333 10186 20175 60014=
07070,1998-09-09 09:00:00,19,1006.9,-0.3,83,16,15000,18.52,,,210,,,,,,,,,,,wg-a,,,,AAXX 09094 07070 12465 72110 10190 20160 39963 40069 58003 60006 878// 90900=
07070,1998-09-09 12:00:00,21,1006.2,-0.6,73,16,12000,31.484,,,220,,,,,,,,,,,wg-a,,,,AAXX 09124 07070 12562 72217 10210 20160 39957 40062 58006 60006 878// 91200=
07070,1998-09-09 15:00:00,20,1005.7,-0.5,83,17,4000,42.596,,59.264,230,,,,1,,,,,,80,wg-a,,,,AAXX 09154 07070 12440 72323 10200 20170 39952 40057 55005 60017 78086 872// 91500 333 91032=
07070,1998-09-09 18:00:00,21,1004.4,-1.3,73,16,20000,22.224,,,220,18.4,22.3,,,,,,,,1,wg-a,,,,AAXX 09184 07070 02670 22212 10210 20160 39939 40044 55013 60006 70186 82800 91800 333 10223 20184 61000=
07070,1998-09-09 21:00:00,20,1006.1,1.7,68,14,15000,25.928,,,240,,,,,,,,,,,wg-a,,,,AAXX 09214 07070 12/65 02414 10200 20140 39956 40061 51017 60006 80000 92100=
07070,1998-09-10 00:00:00,18,1006.6,0.4,77,14,15000,22.224,,,220,,,,,,,,,,,wg-a,,,,AAXX 10004 07070 12/65 02212 10180 20140 39960 40066 51004 60006 80000 90000=
07070,1998-09-10 03:00:00,17,1006.5,-0.2,82,14,15000,18.52,,,220,,,,,,,,,,,wg-a,,,,AAXX 10034 07070 12/65 32210 10170 20140 39958 40065 58002 60006 83030 90300=
07070,1998-09-10 06:00:00,17,1007.1,0.7,88,15,9000,18.52,,,220,16.6,20.9,,,,,1,,,,wg-a,,,,AAXX 10064 07070 02559 /2210 10170 20150 39965 40071 53007 60006 85872 90600 333 10209 20166 60014=
07070,1998-09-10 09:00:00,20,1007.6,0.6,73,15,20000,35.188,,,240,,,,,,,,,,,wg-a,,,,AAXX 10094 07070 12570 /2419 10200 20150 39971 40076 53006 60006 85209 90900=
07070,1998-09-10 12:00:00,21,1007.3,-0.3,60,13,20000,31.484,,,240,,,,,,,,,,,wg-a,,,,AAXX 10124 07070 12670 /2417 10210 20130 39968 40073 58003 60006 85240 91200=
07070,1998-09-10 15:00:00,22,1005.8,-1.5,57,13,20000,31.484,,,240,,,,,,,,,,,wg-a,,,,AAXX 10154 07070 12770 72417 10220 20130 39953 40058 58015 60006 8623/ 91500=
07070,1998-09-10 18:00:00,19,1006.6,0.7,73,14,20000,18.52,,,240,17.3,23.2,,0,,,,,,1,wg-a,,,,AAXX 10184 07070 02570 22410 10190 20140 39960 40066 51007 60006 70186 82400 91800 333 10232 20173 60007=
07070,1998-09-10 21:00:00,17,1007.9,1.2,82,14,20000,11.112,,,230,,,,,,,,,,,wg-a,,,,AAXX 10214 07070 12770 72306 10170 20140 39972 40079 51012 60006 875// 92100=
07070,1998-09-11 00:00:00,16,1008.4,0.5,88,14,20000,18.52,,,230,,,,,,,,,,,wg-a,,,,AAXX 11004 07070 12770 72310 10160 20140 39977 40084 51005 60006 875// 90000=
07070,1998-09-11 03:00:00,15,1007.3,-1.1,88,13,20000,18.52,,,240,,,,,,,,,,3,wg-a,,,,AAXX 11034 07070 02570 72410 10150 20130 39966 40073 57011 61000 70386 878// 90300 333 ////=
07070,1998-09-11 06:00:00,14,1006.9,-0.5,88,12,20000,14.816,,,220,14,19,,,,,,,,1,wg-a,,,,AAXX 11064 07070 02470 72208 10140 20120 39961 40069 57005 60006 70186 878// 90600 333 10190 20140 60004=
07070,1998-09-11 09:00:00,17,1006,-0.8,72,12,20000,18.52,,,220,,,,,,,,,,,wg-a,,,,AAXX 11094 07070 12470 52210 10170 20120 39953 40060 58008 60006 83232 90900=
07070,1998-09-11 12:00:00,18,1004.2,-1.7,59,10,20000,18.52,,,230,,,,,,,,,,,wg-a,,,,AAXX 11124 07070 12570 52310 10180 20100 39936 40042 58017 60006 84202 91200=
07070,1998-09-11 15:00:00,18,1001.8,-2.4,59,10,25000,18.52,,,200,,,,,,,,,,,wg-a,,,,AAXX 11154 07070 12675 72010 10180 20100 39912 40018 58024 60006 82202 91500=
07070,1998-09-11 18:00:00,13,1000.8,-1.1,88,11,25000,3.704,,,170,13.4,18.5,,,,,,,,60,wg-a,,,,AAXX 11184 07070 02675 71702 10130 20110 39901 40008 56011 61000 76062 878// 91800 333 10185 20134 6100=
07070,1998-09-11 21:00:00,12,1000,-0.9,94,11,6000,0,,,0,,,,1,,,,,,51,wg-a,,,,AAXX 11214 07070 12456 80000 10120 20110 39892 40000 57009 60017 75166 875// 92100=
07070,1998-09-12 00:00:00,12,998.9,-1.1,94,11,6000,3.704,,,350,,,,6,,,,,,61,wg-a,,,,AAXX 12004 07070 02256 83502 10120 20110 39881 49989 58011 60076 76166 8687/ 90000 333 60067=
07070,1998-09-12 03:00:00,12,998.1,-0.8,94,11,8000,14.816,,,320,,,,7,,,,,,60,wg-a,,,,AAXX 12034 07070 12258 83208 10120 20110 39873 49981 56008 60077 76066 878// 90300=
07070,1998-09-12 06:00:00,12,999.3,1.2,94,11,6000,18.52,,,300,11.3,13.4,,,,,,,,21,wg-a,,,,AAXX 12064 07070 02456 83010 10120 20110 39885 49993 53012 61000 72162 8687/ 90600 333 10134 20113 6015=
07070,1998-09-12 09:00:00,13,1000.2,1,82,10,10000,25.928,,,300,,,,,,,,,,,wg-a,,,,AAXX 12094 07070 12460 73014 10130 20100 39895 40002 51010 60006 8483/ 90900=
07070,1998-09-12 12:00:00,15,999.7,-0.5,67,9,20000,22.224,,,270,,,,0,,,,,,1,wg-a,,,,AAXX 12124 07070 02570 72712 10150 20090 39890 49997 58005 60006 70186 8583/ 91200 333 60007=
07070,1998-09-12 15:00:00,16,997.7,-1.9,59,8,15000,25.928,,,250,,,,0,,,,,,1,wg-a,,,,AAXX 12154 07070 12565 72514 10160 20080 39871 49977 57019 60007 70186 878// 91500=
07070,1998-09-12 18:00:00,11,997.1,-0.8,87,9,15000,18.52,,,240,11,16.7,,,,,,,,21,wg-a,,,,AAXX 12184 07070 02565 72410 10110 20090 39863 49971 57008 61000 72186 8587/ 91800 333 10167 20110 6001=
07070,1998-09-12 21:00:00,9,997.6,0.4,93,8,25000,18.52,,,270,,,,2,,,,,,1,wg-a,,,,AAXX 12214 07070 12775 22710 10090 20080 39867 49976 52004 60027 70161 81530 92100=
07070,1998-09-13 00:00:00,8,997.2,-0.4,93,7,25000,18.52,,,250,,,,,,,,,,3,wg-a,,,,AAXX 13004 07070 12/75 32510 10080 20070 39863 49972 58004 60026 70361 83030 90000=
07070,1998-09-13 03:00:00,8,996.4,-0.8,87,6,25000,22.224,,,240,,,,0,,,,,,,wg-a,,,,AAXX 13034 07070 12/75 32412 10080 20060 39855 49964 58008 60007 81031 90300=
07070,1998-09-13 06:00:00,8,995.7,-0.7,93,7,12000,18.52,,,250,7.3,11.1,,,,,,,,60,wg-a,,,,AAXX 13064 07070 02462 82510 10080 20070 39848 49957 56007 61000 76061 8687/ 90600 333 10111 20073 6004=
07070,1998-09-13 09:00:00,8,995.2,-0.5,100,8,4500,14.816,,,210,,,,1,,,,,,51,wg-a,,,,AAXX 13094 07070 12445 82108 10080 20080 39843 49952 56005 60017 75165 878// 90900=
07070,1998-09-13 12:00:00,12,995.5,0.5,82,9,20000,18.52,,,270,,,,0,,,,,,1,wg-a,,,,AAXX 13124 07070 02470 72710 10120 20090 39848 49955 53005 60016 70165 878// 91200 333 60007=
07070,1998-09-13 15:00:00,13,997,1.5,67,7,20000,29.632,,,310,,,,,,,,,,,wg-a,,,,AAXX 13154 07070 12570 73116 10130 20070 39863 49970 53015 60006 86802 91500=
07070,1998-09-13 18:00:00,10,999.3,2.2,93,9,20000,22.224,,,270,8.1,14,,1,,,,,,2,wg-a,,,,AAXX 13184 07070 02570 72712 10100 20090 39885 49993 51022 60006 70286 84802 91800 333 10140 20081 60017=
07070,1998-09-13 21:00:00,10,1000.2,0.8,87,8,15000,25.928,,,250,,,,,,,,,,,wg-a,,,,AAXX 13214 07070 12665 62514 10100 20080 39893 40002 51008 60006 84502 92100=
07070,1998-09-14 00:00:00,10,999.7,-0.5,87,8,11000,29.632,,,270,,,,,,,,,,,wg-a,,,,AAXX 14004 07070 12/61 /2716 10100 20080 39888 49997 58005 60006 90000=
07070,1998-09-14 03:00:00,9,999.7,0,81,6,15000,25.928,,,260,,,,,,,,,,,wg-a,,,,AAXX 14034 07070 12765 62614 10090 20060 39888 49997 50000 60006 86500 90300=
07070,1998-09-14 06:00:00,9,1000.5,0.8,87,7,15000,31.484,,,260,8.5,10.4,,,,,2,,,,wg-a,,,,AAXX 14064 07070 02465 72617 10090 20070 39896 40005 53008 60006 875// 90600 333 10104 20085 60024=
07070,1998-09-14 09:00:00,13,1001.3,0.9,72,8,20000,31.484,,,270,,,,,,,,,,,wg-a,,,,AAXX 14094 07070 12470 /2717 10130 20080 39905 40013 53009 60006 82172 90900=
07070,1998-09-14 12:00:00,16,1002,0.8,59,8,25000,35.188,,,280,,,,,,,,,,,wg-a,,,,AAXX 14124 07070 12575 72819 10160 20080 39913 40020 51008 60006 85271 91200=
07070,1998-09-14 15:00:00,16,1002.5,0.6,55,7,25000,35.188,,,290,,,,,,,,,,3,wg-a,,,,AAXX 14154 07070 02675 72919 10160 20070 39919 40025 51006 61000 70386 86801 91500 333 ////=
07070,1998-09-14 18:00:00,14,1004,1.3,63,7,25000,22.224,,,280,9.3,16.6,,,,,,,,1,wg-a,,,,AAXX 14184 07070 12775 72812 10140 20070 39932 40040 52013 60006 70186 838/1 91800 333 10166 20093=
07070,1998-09-14 21:00:00,13,1005.6,1.6,77,9,15000,29.632,,,260,,,,,,,,,,,wg-a,,,,AAXX 14214 07070 12765 62616 10130 20090 39948 40056 51016 60006 855/1 92100=
07070,1998-09-15 00:00:00,12,1006.6,1,88,10,10000,29.632,,,270,,,,,,,,,,,wg-a,,,,AAXX 15004 07070 12/60 /2716 10120 20100 39958 40066 53010 60006 90000=
07070,1998-09-15 06:00:00,12,1009.4,1.7,88,10,20000,22.224,,,250,11.5,13.8,,,,,,,,,wg-a,,,,AAXX 15064 07070 02570 52512 10120 20100 39985 40094 53017 60006 83831 90600 333 10138 20115 61000=
07070,1998-09-15 09:00:00,15,1010.8,1.5,72,10,20000,31.484,,,260,,,,,,,,,,,wg-a,,,,AAXX 15094 07070 12470 72617 10150 20100 30000 40108 53015 60006 83204 90900=
07070,1998-09-15 12:00:00,15,1010.9,0.1,72,10,12000,22.224,,,240,,,,,,,,,,61,wg-a,,,,AAXX 15124 07070 02562 82412 10150 20100 30001 40109 50001 61000 76162 8387/ 91200 333 6100=
07070,1998-09-15 18:00:00,14,1008.3,-1.2,94,13,10000,18.52,,,230,11.5,16.2,,,,,,,,2,wg-a,,,,AAXX 15184 07070 02360 82310 10140 20130 39975 40083 56012 60006 70265 877// 91800 333 10162 20115 61000=
07070,1998-09-16 00:00:00,15,1008.9,0.2,88,13,15000,29.632,,,260,,,,,,,,,,21,wg-a,,,,AAXX 16004 07070 02465 72616 10150 20130 39982 40089 53002 61000 72162 875// 90000 333 6100=
07070,1998-09-16 06:00:00,13,1009.2,0.3,82,10,20000,25.928,,,250,12.5,15.4,,,,,1,,,,wg-a,,,,AAXX 16064 07070 12470 72514 10130 20100 39984 40092 53003 60014 83802 90600 333 10154 20125=
07070,1998-09-16 12:00:00,16,1011.3,0.5,63,9,20000,25.928,,,270,,,,,,,,,,1,wg-a,,,,AAXX 16124 07070 12570 72714 10160 20090 30005 40113 51005 60016 70165 86802 91200=
07070,1998-09-16 18:00:00,15,1010.3,-0.1,67,9,20000,18.52,,,250,12.8,17.5,,,,,,,,,wg-a,,,,AAXX 16184 07070 12670 72510 10150 20090 39995 40103 58001 60006 878// 91800 333 10175 20128=
07070,1998-09-17 00:00:00,13,1010.8,0.1,82,10,20000,25.928,,,260,,,,,,,,,,,wg-a,,,,AAXX 17004 07070 12570 52614 10130 20100 39999 40108 53001 60006 83801 90000=
07070,1998-09-17 03:00:00,13,1011.6,0.8,72,8,20000,25.928,,,280,,,,,,,,,,,wg-a,,,,AAXX 17034 07070 12770 72814 10130 20080 30007 40116 53008 60006 875// 90300=
07070,1998-09-17 06:00:00,10,1013.2,1.5,87,8,20000,22.224,,,280,10.1,14.8,,,,,,,,,wg-a,,,,AAXX 17064 07070 02770 12812 10100 20080 30022 40132 53015 60006 81500 90600 333 10148 20101 60004=
07070,1998-09-17 09:00:00,14,1014.9,1.8,72,9,20000,22.224,,,290,,,,,,,,,,,wg-a,,,,AAXX 17094 07070 12670 32912 10140 20090 30040 40149 51018 60006 82101 90900=
07070,1998-09-17 12:00:00,16,1016,1.2,59,8,20000,25.928,,,310,,,,,,,,,,,wg-a,,,,AAXX 17124 07070 12670 73114 10160 20080 30052 40160 53012 60006 874// 91200=
07070,1998-09-17 15:00:00,17,1016.9,0.9,59,9,500,18.52,,,330,,,,,,,,,,,wg-a,,,,AAXX 17154 07070 12600 73310 10170 20090 30061 40169 52009 60006 878// 91500=
07070,1998-09-17 18:00:00,15,1018.5,1.5,72,10,10000,11.112,,,320,10.3,16.8,,,,,,,,,wg-a,,,,AAXX 17184 07070 12/60 /3206 10150 20100 30076 40185 53015 60006 91800 333 10168 20103=
07070,1998-09-17 21:00:00,13,1020.5,1.9,82,10,20000,7.408,,,300,,,,,,,,,,,wg-a,,,,AAXX 17214 07070 12770 73004 10130 20100 30095 40205 51019 60006 875// 92100=
07070,1998-09-18 00:00:00,12,1021.4,0.9,88,10,15000,3.704,,,230,,,,,,,,,,,wg-a,,,,AAXX 18004 07070 12765 72302 10120 20100 30104 40214 51009 60006 875// 90000=
07070,1998-09-18 03:00:00,9,1022.3,0.7,93,8,15000,0,,,0,,,,,,,,,,,wg-a,,,,AAXX 18034 07070 12765 60000 10090 20080 30111 40223 51007 60006 86500 90300=
07070,1998-09-18 06:00:00,8,1023.5,1.2,93,7,3500,3.704,,,160,7.6,14.7,,,,,,,,10,wg-a,,,,AAXX 18064 07070 02735 51602 10080 20070 30123 40235 53012 60006 71042 83531 90600 333 10147 20076 60004=
07070,1998-09-18 09:00:00,16,1025.2,2,59,8,12000,7.408,,,170,,,,,,,,,,,wg-a,,,,AAXX 18094 07070 12762 61704 10160 20080 30143 40252 51020 60006 825/1 90900=
07070,1998-09-18 12:00:00,19,1025.4,0.3,49,8,20000,7.408,,,120,,,,,,,,,,,wg-a,,,,AAXX 18124 07070 12770 61204 10190 20080 30146 40254 50003 60006 83101 91200=
07070,1998-09-18 15:00:00,19,1025.5,0.1,46,7,12000,7.408,,,120,,,,,,,,,,,wg-a,,,,AAXX 18154 07070 12762 31204 10190 20070 30147 40255 53001 60006 81101 91500=
07070,1998-09-18 18:00:00,13,1026.8,1.1,82,10,12000,14.816,,,140,7.3,19.2,,,,,,,,,wg-a,,,,AAXX 18184 07070 12/62 21408 10130 20100 30158 40268 52011 60006 80001 91800 333 10192 20073=
07070,1998-09-18 21:00:00,11,1028.2,1.3,82,8,12000,3.704,,,200,,,,,,,,,,,wg-a,,,,AAXX 18214 07070 12/62 02002 10110 20080 30171 40282 51013 60006 80000 92100=
07070,1998-09-19 00:00:00,9,1029.2,0.9,87,7,12000,0,,,0,,,,,,,,,,,wg-a,,,,AAXX 19004 07070 12/62 00000 10090 20070 30180 40292 51009 60006 80000 90000=
07070,1998-09-19 03:00:00,6,1030,0.7,93,5,8000,0,,,0,,,,,,,,,,,wg-a,,,,AAXX 19034 07070 12/58 00000 10060 20050 30187 40300 53007 60006 80000 90300=
07070,1998-09-19 06:00:00,8,1030.7,0.7,100,8,7000,3.704,,,120,6.1,13.3,,,,,,,,,wg-a,,,,AAXX 19064 07070 02657 /1202 10080 20080 30194 40307 53007 60006 86500 90600 333 10133 20061 60004=
07070,1998-09-19 09:00:00,14,1031.6,1.2,77,10,9000,3.704,,,20,,,,,,,,,,,wg-a,,,,AAXX 19094 07070 12659 70202 10140 20100 30206 40316 53012 60006 87500 90900=
07070,1998-09-19 12:00:00,20,1030.9,-0.5,53,10,15000,7.408,,,70,,,,,,,,,,,wg-a,,,,AAXX 19124 07070 12/65 50704 10200 20100 30201 40309 58005 60006 80001 91200=
07070,1998-09-19 15:00:00,21,1030.2,-0.7,53,11,20000,7.408,,,70,,,,,,,,,,,wg-a,,,,AAXX 19154 07070 12/70 40704 10210 20110 30194 40302 58007 60006 81031 91500=
07070,1998-09-19 18:00:00,18,1030.4,0.1,68,12,20000,7.408,,,20,8.1,20.7,,,,,,,,,wg-a,,,,AAXX 19184 07070 12/70 20204 10180 20120 30195 40304 50001 60006 81031 91800 333 10207 20081=
07070,1998-09-19 21:00:00,12,1031.3,0.7,94,11,15000,0,,,0,,,,,,,,,,,wg-a,,,,AAXX 19214 07070 12/65 10000 10120 20110 30202 40313 51007 60006 80001 92100=
07070,1998-09-20 00:00:00,10,1031.2,-0.2,93,9,8000,0,,,0,,,,,,,,,,,wg-a,,,,AAXX 20004 07070 12/58 00000 10100 20090 30200 40312 55002 60006 80000 90000=
07070,1998-09-20 03:00:00,8,1031.6,0.3,100,8,600,0,,,0,,,,,,,,,,42,wg-a,,,,AAXX 20034 07070 12/06 00000 10080 20080 30203 40316 51003 60006 74240 80000 90300=
07070,1998-09-20 06:00:00,10,1031.9,0.4,93,9,2500,0,,,0,8.2,17.7,,,,,,,,10,wg-a,,,,AAXX 20064 07070 02625 20000 10100 20090 30207 40319 53004 60006 71040 81530 90600 333 10177 20082 60004=
07070,1998-09-20 09:00:00,16,1032.4,0.7,88,14,8000,14.816,,,80,,,,,,,,,,,wg-a,,,,AAXX 20094 07070 12458 40808 10160 20140 30214 40324 51007 60006 84500 90900=
07070,1998-09-20 12:00:00,21,1031.3,-0.9,60,13,15000,25.928,,,70,,,,,,,,,,,wg-a,,,,AAXX 20124 07070 12565 /0714 10210 20130 30205 40313 58009 60006 85100 91200=
07070,1998-09-20 15:00:00,21,1030.2,-1,53,11,20000,25.928,,,80,,,,,,,,,,,wg-a,,,,AAXX 20154 07070 12670 /0814 10210 20110 30195 40302 56010 60006 81100 91500=
07070,1998-09-20 18:00:00,17,1030.5,0.1,68,11,25000,14.816,,,80,9.7,21.7,,,,,,,,,wg-a,,,,AAXX 20184 07070 12/75 10808 10170 20110 30196 40305 53001 60006 80001 91800 333 10217 20097=
07070,1998-09-20 21:00:00,11,1031.4,0.6,87,9,25000,14.816,,,100,,,,,,,,,,,wg-a,,,,AAXX 20214 07070 12/75 01008 10110 20090 30202 40314 50006 60006 80000 92100=
07070,1998-09-21 00:00:00,9,1031.5,0.1,93,8,20000,11.112,,,90,,,,,,,,,,,wg-a,,,,AAXX 21004 07070 12/70 00906 10090 20080 30203 40315 50001 60006 80000 90000=
07070,1998-09-21 03:00:00,8,1031.2,-0.4,93,7,20000,3.704,,,30,,,,,,,,,,,wg-a,,,,AAXX 21034 07070 12/70 00302 10080 20070 30199 40312 58004 60006 80000 90300=
07070,1998-09-21 06:00:00,7,1031.6,0.4,93,6,8000,3.704,,,30,6.1,16.8,,,,,,,,,wg-a,,,,AAXX 21064 07070 02/58 /0302 10070 20060 30203 40316 53004 60006 80001 90600 333 10168 20061 60004=
07070,1998-09-21 09:00:00,16,1030.8,-0.5,72,11,9000,25.928,,,80,,,,,,,,,,,wg-a,,,,AAXX 21094 07070 12/59 20814 10160 20110 30198 40308 58005 60006 80001 90900=
07070,1998-09-21 12:00:00,21,1028.8,-1.8,46,9,20000,31.484,,,100,,,,,,,,,,,wg-a,,,,AAXX 21124 07070 12670 21017 10210 20090 30180 40288 57018 60006 81102 91200=
07070,1998-09-21 15:00:00,21,1026.9,-1.8,46,9,20000,29.632,,,80,,,,,,,,,,,wg-a,,,,AAXX 21154 07070 12770 50816 10210 20090 30162 40269 56018 60006 81102 91500=
07070,1998-09-21 18:00:00,15,1027.3,0.1,72,10,20000,14.816,,,60,6.9,21.6,,,,,,,,,wg-a,,,,AAXX 21184 07070 12770 10608 10150 20100 30163 40273 53001 60006 811/2 91800 333 10216 20069=
07070,1998-09-21 21:00:00,12,1027.2,-0.2,82,9,20000,7.408,,,70,,,,,,,,,,,wg-a,,,,AAXX 21214 07070 12/70 10704 10120 20090 30161 40272 58002 60006 80002 92100=
07070,1998-09-22 00:00:00,9,1026.3,-1,87,7,15000,7.408,,,50,,,,,,,,,,,wg-a,,,,AAXX 22004 07070 12/65 10504 10090 20070 30151 40263 56010 60006 80001 90000=
07070,1998-09-22 03:00:00,8,1025.3,-1,93,7,15000,11.112,,,60,,,,,,,,,,,wg-a,,,,AAXX 22034 07070 12/65 00606 10080 20070 30141 40253 58010 60006 80000 90300=
07070,1998-09-22 06:00:00,8,1025.1,-0.2,93,7,10000,3.704,,,80,7,15.3,,,,,,,,,wg-a,,,,AAXX 22064 07070 02/60 10802 10080 20070 30139 40251 55002 60006 80001 90600 333 10153 20070 60004=
07070,1998-09-22 09:00:00,16,1024,-0.8,72,11,20000,25.928,,,80,,,,,,,,,,,wg-a,,,,AAXX 22094 07070 12/70 00814 10160 20110 30131 40240 58008 60006 80000 90900=
07070,1998-09-22 12:00:00,19,1022,-1.8,56,10,20000,29.632,,,90,,,,,,,,,,,wg-a,,,,AAXX 22124 07070 12670 /0916 10190 20100 30113 40220 58018 60006 81100 91200=
07070,1998-09-22 15:00:00,20,1020.6,-1.4,46,8,20000,31.484,,,80,,,,,,,,,,,wg-a,,,,AAXX 22154 07070 12770 40817 10200 20080 30099 40206 56014 60006 84800 91500=
07070,1998-09-22 18:00:00,14,1020.7,-0.1,67,8,20000,18.52,,,100,8,20.5,,,,,,,,,wg-a,,,,AAXX 22184 07070 12770 11010 10140 20080 30098 40207 55001 60006 81400 91800 333 10205 20080=
07070,1998-09-22 21:00:00,9,1021.3,0.4,87,7,12000,18.52,,,80,,,,,,,,,,,wg-a,,,,AAXX 22214 07070 12/62 00810 10090 20070 30102 40213 51004 60006 80000 92100=
07070,1998-09-23 00:00:00,8,1021.2,-0.2,87,6,12000,7.408,,,80,,,,,,,,,,,wg-a,,,,AAXX 23004 07070 12/62 00804 10080 20060 30100 40212 58002 60006 80000 90000=
07070,1998-09-23 03:00:00,7,1020.8,-0.4,93,6,12000,0,,,0,,,,,,,,,,,wg-a,,,,AAXX 23034 07070 12/62 00000 10070 20060 30096 40208 58004 60006 80000 90300=
07070,1998-09-23 06:00:00,6,1021.6,0.7,93,5,500,3.704,,,60,5.9,13.5,,,,,,,,,wg-a,,,,AAXX 23064 07070 02/00 00602 10060 20050 30103 40216 53007 60006 80000 90600 333 10135 20059 60004=
07070,1998-09-23 09:00:00,15,1021.3,0.1,77,11,12000,18.52,,,100,,,,,,,,,,,wg-a,,,,AAXX 23094 07070 12/62 01010 10150 20110 30104 40213 50001 60006 80000 90900=
07070,1998-09-23 12:00:00,21,1020.2,-0.9,53,11,15000,14.816,,,110,,,,,,,,,,,wg-a,,,,AAXX 23124 07070 12/65 01108 10210 20110 30095 40202 58009 60006 80000 91200=
07070,1998-09-23 15:00:00,23,1018.5,-1.6,53,13,20000,14.816,,,100,,,,,,,,,,,wg-a,,,,AAXX 23154 07070 12/70 11008 10230 20130 30079 40185 58016 60006 80001 91500=
07070,1998-09-23 18:00:00,15,1018.6,-0.1,82,12,20000,14.816,,,90,6,23,,,,,,,,,wg-a,,,,AAXX 23184 07070 12/70 10908 10150 20120 30078 40186 55001 60006 80001 91800 333 10230 20060=
07070,1998-09-23 21:00:00,11,1019.2,0.4,87,9,15000,14.816,,,100,,,,,,,,,,,wg-a,,,,AAXX 23214 07070 12/65 11008 10110 20090 30082 40192 51004 60006 80001 92100=
07070,1998-09-24 00:00:00,10,1018.5,-0.7,93,9,15000,7.408,,,60,,,,,,,,,,,wg-a,,,,AAXX 24004 07070 12/65 10604 10100 20090 30075 40185 56007 60006 80001 90000=
07070,1998-09-24 03:00:00,8,1017.9,-0.7,93,7,8000,11.112,,,80,,,,,,,,,,,wg-a,,,,AAXX 24034 07070 12/58 /0806 10080 20070 30068 40179 56007 60006 80001 90300=
07070,1998-09-24 06:00:00,9,1017.5,-0.4,93,8,3000,11.112,,,80,7.8,15.3,,,,,,,,10,wg-a,,,,AAXX 24064 07070 02/30 /0806 10090 20080 30064 40175 56004 60006 71000 80001 90600 333 10153 20078 60004=
07070,1998-09-24 09:00:00,17,1017.4,0.2,72,12,6000,14.816,,,160,,,,,,,,,,,wg-a,,,,AAXX 24094 07070 12/56 31608 10170 20120 30066 40174 51002 60006 80001 90900=
07070,1998-09-24 12:00:00,22,1016.2,-1,53,12,10000,18.52,,,190,,,,,,,,,,,wg-a,,,,AAXX 24124 07070 12660 31910 10220 20120 30056 40162 56010 60006 81131 91200=
07070,1998-09-24 15:00:00,22,1015,-1.2,53,12,20000,14.816,,,200,,,,,,,,,,,wg-a,,,,AAXX 24154 07070 12770 72008 10220 20120 30044 40150 56012 60006 81154 91500=
07070,1998-09-24 18:00:00,19,1014.9,-0.2,60,11,15000,14.816,,,150,8.5,23.7,,,,,,,,,wg-a,,,,AAXX 24184 07070 12765 71508 10190 20110 30042 40149 55002 60006 8255/ 91800 333 10237 20085=
07070,1998-09-24 21:00:00,17,1014.7,-0.3,68,11,15000,18.52,,,150,,,,,,,,,,,wg-a,,,,AAXX 24214 07070 12/65 71510 10170 20110 30039 40147 58003 60006 83032 92100=
07070,1998-09-25 00:00:00,14,1014.8,0,82,11,15000,7.408,,,190,,,,,,,,,,,wg-a,,,,AAXX 25004 07070 12/65 41904 10140 20110 30039 40148 50000 60006 83031 90000=
07070,1998-09-25 03:00:00,14,1013.8,-0.9,88,12,15000,11.112,,,190,,,,,,,,,,,wg-a,,,,AAXX 25034 07070 12/65 71906 10140 20120 30030 40138 57009 60006 84031 90300=
07070,1998-09-25 06:00:00,14,1013.3,-0.5,82,11,9000,3.704,,,20,13.2,19.4,,,,,,,,,wg-a,,,,AAXX 25064 07070 02/59 20202 10140 20110 30025 40133 55005 60006 81031 90600 333 10194 20132 60004=
07070,1998-09-25 09:00:00,19,1012.3,-0.8,68,13,9000,18.52,,,170,,,,,,,,,,,wg-a,,,,AAXX 25094 07070 12/59 /1710 10190 20130 30017 40123 58008 60006 81030 90900=
07070,1998-09-25 12:00:00,24,1010.2,-1.9,44,11,12000,25.928,,,170,,,,,,,,,,,wg-a,,,,AAXX 25124 07070 12662 21714 10240 20110 39998 40102 58019 60006 81101 91200=
07070,1998-09-25 15:00:00,24,1008.4,-1.8,47,12,15000,29.632,,,160,,,,,,,,,,,wg-a,,,,AAXX 25154 07070 12665 71616 10240 20120 39980 40084 56018 60006 82202 91500=
07070,1998-09-25 18:00:00,17,1008.1,-0.6,72,12,10000,11.112,,,150,13.2,24.8,,,,,,,,,wg-a,,,,AAXX 25184 07070 12760 71506 10170 20120 39974 40081 56006 60006 81232 91800 333 10248 20132=
07070,1998-09-25 21:00:00,18,1007.7,-0.3,73,13,10000,18.52,,,160,,,,,,,,,,,wg-a,,,,AAXX 25214 07070 12/60 71610 10180 20130 39971 40077 58003 60006 8707/ 92100=
07070,1998-09-26 00:00:00,14,1007.1,-0.8,88,12,20000,7.408,,,150,,,,0,,,,,,1,wg-a,,,,AAXX 26004 07070 02/70 31504 10140 20120 39963 40071 58008 60016 70161 83030 90000 333 60007=
07070,1998-09-26 03:00:00,15,1005.3,-1.7,88,13,20000,18.52,,,160,,,,,,,,,,,wg-a,,,,AAXX 26034 07070 12/70 01610 10150 20130 39946 40053 58017 60006 80000 90300=
07070,1998-09-26 06:00:00,15,1003.9,-1.4,94,14,6000,22.224,,,160,13.4,18.5,,,,,,,,,wg-a,,,,AAXX 26064 07070 02/56 71612 10150 20140 39932 40039 57014 60006 80002 90600 333 10185 20134 60004=
07070,1998-09-26 09:00:00,19,1002.9,-0.8,78,15,8000,25.928,,,160,,,,,,,,,,,wg-a,,,,AAXX 26094 07070 12/58 71614 10190 20150 39924 40029 58008 60006 82032 90900=
07070,1998-09-26 12:00:00,20,1001.3,-1.6,68,14,12000,25.928,,,180,,,,,,,,,,21,wg-a,,,,AAXX 26124 07070 02662 81814 10200 20140 39908 40013 58016 61000 72162 8557/ 91200 333 6100=
07070,1998-09-26 15:00:00,16,1000.6,-0.8,100,16,4000,18.52,,,180,,,,6,,,,,,63,wg-a,,,,AAXX 26154 07070 12340 81810 10160 20160 39900 40006 56008 60067 76362 875// 91500=
07070,1998-09-26 18:00:00,15,1001,0.3,94,14,10000,18.52,,,160,14.6,21,,6,,,,,,1,wg-a,,,,AAXX 26184 07070 02460 71610 10150 20140 39903 40010 50003 60006 70162 82872 91800 333 10210 20146 60067=
07070,1998-09-26 21:00:00,12,1001.4,0.3,100,12,10000,11.112,,,160,,,,0,,,,,,,wg-a,,,,AAXX 26214 07070 12460 71606 10120 20120 39906 40014 52003 60007 875// 92100=
07070,1998-09-27 00:00:00,14,1000.5,-0.8,94,13,6000,14.816,,,180,,,,,,,,,,,wg-a,,,,AAXX 27004 07070 12756 41808 10140 20130 39898 40005 57008 60006 84500 90000=
07070,1998-09-27 03:00:00,13,1000.2,-0.3,94,12,25000,14.816,,,190,,,,,,,,,,,wg-a,,,,AAXX 27034 07070 12/75 01908 10130 20120 39895 40002 58003 60006 80000 90300=
07070,1998-09-27 06:00:00,12,999.8,-0.5,94,11,25000,11.112,,,170,11.9,14.6,,,,,12,,,,wg-a,,,,AAXX 27064 07070 02475 71706 10120 20110 39890 49998 56005 60006 82871 90600 333 10146 20119 60124=
07070,1998-09-27 09:00:00,16,998.6,-1,82,13,25000,29.632,,,150,,,,0,,,,,,1,wg-a,,,,AAXX 27094 07070 12775 71516 10160 20130 39880 49986 57010 60007 70162 86531 90900=
07070,1998-09-27 12:00:00,17,998.2,-0.4,82,14,20000,31.484,,,170,,,,,,,,,,21,wg-a,,,,AAXX 27124 07070 02570 71717 10170 20140 39876 49982 57004 60006 72162 8681/ 91200 333 61000=
07070,1998-09-27 15:00:00,17,997.2,-1,77,13,12000,25.928,,,180,,,,,,,,,,60,wg-a,,,,AAXX 27154 07070 02562 71814 10170 20130 39866 49972 57010 61000 76062 8687/ 91500 333 ////=
07070,1998-09-27 18:00:00,14,996.3,-0.9,100,14,4500,25.928,,,150,12.2,18.5,,,,,,,,51,wg-a,,,,AAXX 27184 07070 02345 81514 10140 20140 39857 49963 58009 61000 75165 886// 91800 333 10185 20122 6003=
07070,1998-09-27 21:00:00,14,999.9,3.5,100,14,7000,22.224,,,290,,,,2,,,,,,51,wg-a,,,,AAXX 27214 07070 12257 82912 10140 20140 39892 49999 52035 60027 75166 886// 92100=
07070,1998-09-28 00:00:00,14,1001.9,2,94,13,6000,29.632,,,260,,,,5,,,,,,61,wg-a,,,,AAXX 28004 07070 02356 82616 10140 20130 39912 40019 53020 60076 76165 886// 90000 333 60057=
07070,1998-09-28 03:00:00,13,1002.8,0.8,94,12,10000,11.112,,,250,,,,1,,,,,,1,wg-a,,,,AAXX 28034 07070 12460 72506 10130 20120 39920 40028 51008 60017 70162 876// 90300=
07070,1998-09-28 06:00:00,13,1003.8,1,94,12,6000,7.408,,,220,12.9,14.6,,,,,11,,,3,wg-a,,,,AAXX 28064 07070 02456 72204 10130 20120 39930 40038 53010 60006 70362 876// 90600 333 10146 20129 60114=
07070,1998-09-28 09:00:00,15,1005,1.3,88,13,10000,7.408,,,250,,,,,,,,,,,wg-a,,,,AAXX 28094 07070 12360 72504 10150 20130 39943 40050 51013 60006 876// 90900=
07070,1998-09-28 12:00:00,17,1005.2,0.3,82,14,15000,3.704,,,270,,,,,,,,,,,wg-a,,,,AAXX 28124 07070 12465 72702 10170 20140 39946 40052 51003 60006 878// 91200=
07070,1998-09-28 15:00:00,18,1005.1,-0.1,77,14,20000,7.408,,,300,,,,,,,,,,,wg-a,,,,AAXX 28154 07070 12470 53004 10180 20140 39945 40051 58001 60006 84830 91500=
07070,1998-09-28 18:00:00,15,1006.5,1.3,88,13,20000,0,,,0,13,18.2,,,,,,,,,wg-a,,,,AAXX 28184 07070 12570 /0000 10150 20130 39958 40065 53013 60006 86800 91800 333 10182 20130=
07070,1998-09-28 21:00:00,15,1007.7,1.2,94,14,12000,7.408,,,220,,,,,,,,,,,wg-a,,,,AAXX 28214 07070 12462 /2204 10150 20140 39970 40077 53012 60006 86800 92100=
07070,1998-09-29 00:00:00,15,1008.6,0.8,94,14,6000,7.408,,,270,,,,,,,,,,,wg-a,,,,AAXX 29004 07070 12356 72704 10150 20140 39978 40086 52008 60006 878// 90000=
07070,1998-09-29 03:00:00,13,1008.6,-0,94,12,4000,7.408,,,210,,,,,,,,,,10,wg-a,,,,AAXX 29034 07070 12340 72104 10130 20120 39978 40086 55000 60006 71022 878// 90300=
07070,1998-09-29 06:00:00,14,1008.6,-0,94,13,1800,7.408,,,230,13,15.2,,,,,,,,10,wg-a,,,,AAXX 29064 07070 02318 72304 10140 20130 39978 40086 55000 60006 71022 878// 90600 333 10152 20130 60004=
07070,1998-09-29 09:00:00,15,1008.8,0.3,94,14,4500,7.408,,,190,,,,,,,,,,10,wg-a,,,,AAXX 29094 07070 12445 71904 10150 20140 39981 40088 51003 60006 71022 875// 90900=
07070,1998-09-29 12:00:00,18,1007.3,-1.4,83,15,8000,3.704,,,120,,,,,,,,,,,wg-a,,,,AAXX 29124 07070 12458 71202 10180 20150 39967 40073 58014 60006 878// 91200=
07070,1998-09-29 15:00:00,19,1006,-1.3,68,13,12000,14.816,,,230,,,,,,,,,,,wg-a,,,,AAXX 29154 07070 12562 /2308 10190 20130 39954 40060 56013 60006 84202 91500=
07070,1998-09-29 18:00:00,15,1005.6,-0.5,88,13,15000,7.408,,,120,13.7,19.3,,,,,,,,,wg-a,,,,AAXX 29184 07070 12/65 81204 10150 20130 39949 40056 56005 60006 86037 91800 333 10193 20137=
07070,1998-09-29 21:00:00,15,1004.3,-1.3,88,13,10000,14.816,,,130,,,,,,,,,,,wg-a,,,,AAXX 29214 07070 12/60 61308 10150 20130 39936 40043 58013 60006 83031 92100=
07070,1998-09-30 00:00:00,14,1002.1,-2.2,94,13,8000,11.112,,,90,,,,,,,,,,,wg-a,,,,AAXX 30004 07070 12/58 80906 10140 20130 39914 40021 58022 60006 8707/ 90000=
07070,1998-09-30 03:00:00,15,1000.5,-1.6,94,14,8000,18.52,,,150,,,,2,,,,,,63,wg-a,,,,AAXX 30034 07070 12558 81510 10150 20140 39898 40005 58016 60027 76362 8357/ 90300=
07070,1998-09-30 06:00:00,15,1000.5,-0,94,14,10000,18.52,,,220,13.7,15.4,,,,,,,,21,wg-a,,,,AAXX 30064 07070 02360 72210 10150 20140 39898 40005 55000 61000 72162 8557/ 90600 333 10154 20137 6005=
07070,1998-09-30 09:00:00,16,1002,1.6,82,13,15000,25.928,,,220,,,,,,,,,,,wg-a,,,,AAXX 30094 07070 12465 /2214 10160 20130 39914 40020 52016 60006 86500 90900=
07070,1998-09-30 12:00:00,19,1002.4,0.5,68,13,11000,22.224,,,220,,,,,,,,,,,wg-a,,,,AAXX 30124 07070 12/61 /2212 10190 20130 39919 40024 51005 60006 91200=
07070,1998-09-30 15:00:00,19,1002,-0.4,64,12,20000,22.224,,,190,,,,,,,,,,,wg-a,,,,AAXX 30154 07070 12670 21912 10190 20120 39915 40020 58004 60006 82800 91500=
07070,1998-09-30 18:00:00,15,1003.2,1,82,12,6000,29.632,,,190,13.9,19.6,,,,,,,,80,wg-a,,,,AAXX 30184 07070 02656 /1916 10150 20120 39925 40032 53010 61000 78086 85200 91800 333 10196 20139 6001=
07070,1998-09-30 21:00:00,12,1004,0.7,88,10,20000,14.816,,,180,,,,0,,,,,,1,wg-a,,,,AAXX 30214 07070 12670 /1808 10120 20100 39932 40040 51007 60007 70186 81400 92100=
07070,1998-10-01 00:00:00,10,1004.5,0.4,93,9,20000,14.816,,,160,,,,,,,,,,1,wg-a,,,,AAXX 01004 07070 12/70 01608 10100 20090 39936 40045 51004 60006 70186 80000 90000=
07070,1998-10-01 03:00:00,10,1004.8,0.3,93,9,20000,14.816,,,180,,,,,,,,,,,wg-a,,,,AAXX 01034 07070 12/70 11808 10100 20090 39939 40048 51003 60006 81031 90300=
07070,1998-10-01 06:00:00,10,1005.4,0.6,93,9,15000,14.816,,,170,9.5,14.4,,,,,1,,,,wg-a,,,,AAXX 01064 07070 02465 31708 10100 20090 39945 40054 53006 60006 81131 90600 333 10144 20095 60014=
07070,1998-10-01 09:00:00,14,1006,0.7,82,11,12000,14.816,,,160,,,,,,,,,,,wg-a,,,,AAXX 01094 07070 12462 31608 10140 20110 39952 40060 51007 60006 81101 90900=
07070,1998-10-01 12:00:00,17,1005.2,-0.7,68,11,15000,18.52,,,150,,,,,,,,,,,wg-a,,,,AAXX 01124 07070 12565 61510 10170 20110 39945 40052 58007 60006 83202 91200=
07070,1998-10-01 18:00:00,13,1005.2,0.3,82,10,12000,14.816,,,110,9.7,18.4,,,,,,,,,wg-a,,,,AAXX 01184 07070 12762 41108 10130 20100 39944 40052 53003 60006 83402 91800 333 10184 20097=
07070,1998-10-01 21:00:00,12,1005.9,0.6,88,10,12000,14.816,,,90,,,,,,,,,,,wg-a,,,,AAXX 01214 07070 12762 60908 10120 20100 39950 40059 51006 60006 85432 92100=
07070,1998-10-02 00:00:00,12,1005.9,-0,88,10,12000,7.408,,,60,,,,,,,,,,,wg-a,,,,AAXX 02004 07070 12662 /0604 10120 20100 39950 40059 55000 60006 86532 90000=
07070,1998-10-02 06:00:00,8,1006.9,0.7,100,8,8000,7.408,,,60,7.9,12.8,,,,,,,,,wg-a,,,,AAXX 02064 07070 02758 /0604 10080 20080 39959 40069 53007 60006 86500 90600 333 10128 20079 60004=
07070,1998-10-02 09:00:00,11,1008,1.2,94,10,2400,14.816,,,70,,,,,,,,,,10,wg-a,,,,AAXX 02094 07070 12224 70708 10110 20100 39971 40080 52012 60006 71011 876// 90900=
07070,1998-10-02 12:00:00,13,1008.1,0.2,88,11,8000,11.112,,,30,,,,,,,,,,,wg-a,,,,AAXX 02124 07070 12458 70306 10130 20110 39973 40081 50002 60006 876// 91200=
07070,1998-10-02 15:00:00,13,1008,-0.1,88,11,7000,11.112,,,340,,,,,,,,,,,wg-a,,,,AAXX 02154 07070 12457 83406 10130 20110 39972 40080 55001 60006 886// 91500=
07070,1998-10-02 18:00:00,10,1009.5,1.4,93,9,2500,14.816,,,340,8.3,13.7,,,,,,,,10,wg-a,,,,AAXX 02184 07070 12425 83408 10100 20090 39986 40095 53014 60006 71022 886// 91800 333 10137 20083=
07070,1998-10-02 21:00:00,9,1010.8,1.2,87,7,3000,18.52,,,360,,,,,,,,,,10,wg-a,,,,AAXX 02214 07070 12430 83610 10090 20070 39998 40108 51012 60006 71022 886// 92100=
07070,1998-10-03 00:00:00,7,1011.2,0.3,93,6,4000,18.52,,,350,,,,,,,,,,10,wg-a,,,,AAXX 03004 07070 12340 83510 10070 20060 30001 40112 51003 60006 71022 886// 90000=
07070,1998-10-03 03:00:00,6,1011.6,0.4,93,5,4000,14.816,,,350,,,,,,,,,,10,wg-a,,,,AAXX 03034 07070 12340 83508 10060 20050 30005 40116 53004 60006 71022 886// 90300=
07070,1998-10-03 06:00:00,6,1012.1,0.4,93,5,4000,11.112,,,330,5.6,10.4,,,,,,,,10,wg-a,,,,AAXX 03064 07070 02240 83306 10060 20050 30009 40121 53004 60006 71022 887// 90600 333 10104 20056 60004=
07070,1998-10-03 09:00:00,6,1012.6,0.5,87,4,3800,14.816,,,320,,,,,,,,,,10,wg-a,,,,AAXX 03094 07070 12338 83208 10060 20040 30014 40126 51005 60006 71022 886// 90900=
07070,1998-10-03 12:00:00,7,1012.2,-0.3,81,4,6000,11.112,,,300,,,,,,,,,,,wg-a,,,,AAXX 03124 07070 12456 73006 10070 20040 30011 40122 57003 60006 878// 91200=
07070,1998-10-03 15:00:00,9,1011.6,-0.6,71,4,8000,7.408,,,340,,,,,,,,,,,wg-a,,,,AAXX 03154 07070 12558 73404 10090 20040 30005 40116 56006 60006 878// 91500=
07070,1998-10-03 18:00:00,8,1011.5,-0.1,81,5,7000,3.704,,,320,5.5,8.8,,,,,,,,,wg-a,,,,AAXX 03184 07070 12557 73202 10080 20050 30004 40115 55001 60006 875// 91800 333 10088 20055=
07070,1998-10-03 21:00:00,7,1011.2,-0.3,87,5,7000,7.408,,,250,,,,,,,,,,60,wg-a,,,,AAXX 03214 07070 02557 72504 10070 20050 30001 40112 58003 61000 76062 875// 92100 333 ////=
07070,1998-10-04 00:00:00,7,1009.5,-1.7,93,6,6000,3.704,,,200,,,,0,,,,,,21,wg-a,,,,AAXX 04004 07070 02556 82002 10070 20060 39984 40095 56017 60016 72162 875// 90000 333 60007=
07070,1998-10-04 03:00:00,7,1007.8,-1.7,93,6,4000,7.408,,,70,,,,,,,,,,10,wg-a,,,,AAXX 04034 07070 12240 80704 10070 20060 39967 40078 58017 60006 71022 886// 90300=
07070,1998-10-04 06:00:00,7,1006.5,-1.2,93,6,1800,7.408,,,160,6.5,7.8,,,,,,,,10,wg-a,,,,AAXX 04064 07070 02318 81604 10070 20060 39955 40065 56012 61000 71062 886// 90600 333 10078 20065 6000=
07070,1998-10-04 09:00:00,8,1006.2,-0.3,93,7,3000,11.112,,,170,,,,,,,,,,10,wg-a,,,,AAXX 04094 07070 02430 81706 10080 20070 39952 40062 56003 61000 71065 8557/ 90900 333 ////=
07070,1998-10-04 12:00:00,9,1005.6,-0.5,81,6,6000,11.112,,,170,,,,,,,,,,60,wg-a,,,,AAXX 04124 07070 02656 81706 10090 20060 39947 40056 57005 61000 76065 8557/ 91200 333 6100=
07070,1998-10-04 15:00:00,10,1004.9,-0.7,76,6,9000,3.704,,,80,,,,,,,,,,1,wg-a,,,,AAXX 04154 07070 02559 80802 10100 20060 39940 40049 56007 61000 70162 8687/ 91500 333 ////=
07070,1998-10-04 18:00:00,9,1005.2,0.2,87,7,8000,7.408,,,90,7,10.5,,,,,,,,2,wg-a,,,,AAXX 04184 07070 12758 80904 10090 20070 39942 40052 53002 60006 70262 875// 91800 333 10105 20070=
07070,1998-10-04 21:00:00,8,1005.9,0.7,93,7,6000,7.408,,,360,,,,,,,,,,,wg-a,,,,AAXX 04214 07070 12656 83604 10080 20070 39949 40059 53007 60006 885// 92100=
07070,1998-10-05 00:00:00,8,1006,0.1,93,7,2500,7.408,,,320,,,,,,,,,,10,wg-a,,,,AAXX 05004 07070 12725 83204 10080 20070 39950 40060 53001 60006 71022 885// 90000=
07070,1998-10-05 03:00:00,7,1006.1,0.1,100,7,2000,7.408,,,340,,,,,,,,,,10,wg-a,,,,AAXX 05034 07070 12620 83404 10070 20070 39951 40061 50001 60006 71022 885// 90300=
07070,1998-10-05 06:00:00,7,1006.9,0.7,93,6,1500,7.408,,,330,6.9,8.8,,,,,,,,10,wg-a,,,,AAXX 05064 07070 02715 73304 10070 20060 39958 40069 53007 60006 71022 875// 90600 333 10088 20069 61000=
07070,1998-10-05 09:00:00,9,1008.2,1.4,87,7,3000,0,,,0,,,,,,,,,,10,wg-a,,,,AAXX 05094 07070 12330 70000 10090 20070 39972 40082 51014 60006 71022 8553/ 90900=
07070,1998-10-05 12:00:00,12,1008.6,0.5,76,8,6000,7.408,,,10,,,,,,,,,,,wg-a,,,,AAXX 05124 07070 12456 70104 10120 20080 39977 40086 50005 60006 848// 91200=
07070,1998-10-05 15:00:00,12,1009.1,0.5,71,7,7000,11.112,,,20,,,,,,,,,,,wg-a,,,,AAXX 05154 07070 12557 /0206 10120 20070 39982 40091 52005 60006 82230 91500=
07070,1998-10-05 18:00:00,8,1010.3,1.1,93,7,6000,7.408,,,340,6.8,12.4,,,,,,,,,wg-a,,,,AAXX 05184 07070 12756 23404 10080 20070 39993 40103 53011 60006 82500 91800 333 10124 20068=
07070,1998-10-05 21:00:00,5,1011.4,0.9,93,4,800,3.704,,,100,,,,,,,,,,41,wg-a,,,,AAXX 05214 07070 12/08 41002 10050 20040 30002 40114 51009 60006 74141 80001 92100=
07070,1998-10-06 00:00:00,3,1011.6,0.1,100,3,700,7.408,,,30,,,,,,,,,,41,wg-a,,,,AAXX 06004 07070 12/07 /0304 10030 20030 30003 40116 50001 60006 74141 80001 90000=
07070,1998-10-06 03:00:00,3,1011.6,0,100,3,1500,0,,,0,,,,0,,,,,,10,wg-a,,,,AAXX 06034 07070 12515 70000 10030 20030 30003 40116 50000 60007 71042 86501 90300=
07070,1998-10-06 06:00:00,5,1010.8,-0.7,100,5,2200,3.704,,,360,1.3,8.2,,,,,,,,10,wg-a,,,,AAXX 06064 07070 02422 73602 10050 20050 39996 40108 58007 60006 71042 875// 90600 333 10082 20013 60004=
07070,1998-10-06 09:00:00,10,1011.4,0.8,93,9,4000,14.816,,,40,,,,,,,,,,10,wg-a,,,,AAXX 06094 07070 12540 70408 10100 20090 30004 40114 51008 60006 71022 875// 90900=
07070,1998-10-06 12:00:00,12,1011.1,-0.2,76,8,7000,14.816,,,60,,,,,,,,,,,wg-a,,,,AAXX 06124 07070 12457 70608 10120 20080 30002 40111 58002 60006 875// 91200=
07070,1998-10-06 15:00:00,11,1011.6,0.5,82,8,7000,18.52,,,50,,,,,,,,,,21,wg-a,,,,AAXX 06154 07070 02557 70510 10110 20080 30007 40116 53005 61000 72162 875// 91500 333 ////=
07070,1998-10-06 18:00:00,10,1012.7,1,82,7,7000,11.112,,,20,5,11.8,,,,,,,,1,wg-a,,,,AAXX 06184 07070 12557 70206 10100 20070 30017 40127 53010 60006 70162 875// 91800 333 10118 20050=
07070,1998-10-06 21:00:00,9,1013.6,0.9,87,7,7000,7.408,,,360,,,,,,,,,,,wg-a,,,,AAXX 06214 07070 12557 83604 10090 20070 30026 40136 51009 60006 8357/ 92100=
07070,1998-10-07 00:00:00,8,1013.9,0.2,93,7,3500,11.112,,,330,,,,,,,,,,51,wg-a,,,,AAXX 07004 07070 02335 83306 10080 20070 30028 40139 53002 61000 75165 876// 90000 333 6100=
07070,1998-10-07 03:00:00,7,1014.2,0.3,100,7,3000,7.408,,,320,,,,,,,,,,10,wg-a,,,,AAXX 07034 07070 02230 83204 10070 20070 30031 40142 53003 61000 71052 877// 90300 333 ////=
07070,1998-10-07 06:00:00,7,1015.1,0.9,93,6,1700,11.112,,,310,6.9,10,,,,,,,,10,wg-a,,,,AAXX 07064 07070 02317 83106 10070 20060 30040 40151 53009 60006 71052 876// 90600 333 10100 20069 61000=
07070,1998-10-07 09:00:00,7,1016.6,1.5,93,6,2200,11.112,,,310,,,,,,,,,,10,wg-a,,,,AAXX 07094 07070 12322 83106 10070 20060 30055 40166 51015 60006 71022 876// 90900=
07070,1998-10-07 12:00:00,9,1017,0.4,81,6,7000,7.408,,,330,,,,,,,,,,,wg-a,,,,AAXX 07124 07070 12457 83304 10090 20060 30059 40170 53004 60006 878// 91200=
07070,1998-10-07 15:00:00,10,1016.6,-0.3,82,7,9000,11.112,,,290,,,,,,,,,,,wg-a,,,,AAXX 07154 07070 12559 82906 10100 20070 30056 40166 55003 60006 878// 91500=
07070,1998-10-07 18:00:00,10,1017.2,0.5,87,8,4000,7.408,,,200,6.9,10.6,,0,,,,,,20,wg-a,,,,AAXX 07184 07070 12440 82004 10100 20080 30061 40172 53005 60007 72052 875// 91800 333 10106 20069=
07070,1998-10-07 21:00:00,9,1017.1,-0.1,93,8,6000,14.816,,,330,,,,,,,,,,,wg-a,,,,AAXX 07214 07070 12356 83308 10090 20080 30060 40171 55001 60006 885// 92100=
07070,1998-10-08 00:00:00,8,1017.1,0,93,7,4000,11.112,,,340,,,,,,,,,,10,wg-a,,,,AAXX 08004 07070 02240 83406 10080 20070 30060 40171 50000 61000 71052 885// 90000 333 6100=
07070,1998-10-08 03:00:00,8,1016.8,-0.3,93,7,2500,11.112,,,330,,,,0,,,,,,10,wg-a,,,,AAXX 08034 07070 12425 83306 10080 20070 30057 40168 56003 60007 71052 885// 90300=
07070,1998-10-08 06:00:00,8,1017,0.2,93,7,1200,11.112,,,310,7.8,9.5,,,,,,,,10,wg-a,,,,AAXX 08064 07070 02312 83106 10080 20070 30059 40170 51002 61000 71065 885// 90600 333 10095 20078 6001=
07070,1998-10-08 09:00:00,8,1017.6,0.6,100,8,2000,11.112,,,280,,,,1,,,,,,10,wg-a,,,,AAXX 08094 07070 12320 82806 10080 20080 30065 40176 53006 60017 71065 887// 90900=
07070,1998-10-08 15:00:00,10,1015.6,-0.4,93,9,6000,14.816,,,150,,,,2,,,,,,21,wg-a,,,,AAXX 08154 07070 12456 81508 10100 20090 30046 40156 55004 60027 72162 8687/ 91500=
07070,1998-10-08 18:00:00,9,1017.9,2.2,100,9,2000,18.52,,,120,7.8,10.6,,,,,,,,60,wg-a,,,,AAXX 08184 07070 02220 81210 10090 20090 30068 40179 53022 61000 76062 877// 91800 333 10106 20078 6001=
07070,1998-10-08 21:00:00,8,1021,3,93,7,500,18.52,,,70,,,,,,,,,,1,wg-a,,,,AAXX 08214 07070 02300 70710 10080 20070 30098 40210 53030 61000 70162 875// 92100 333 ////=
07070,1998-10-09 00:00:00,6,1021.7,0.7,100,6,4000,14.816,,,90,,,,,,,,,,10,wg-a,,,,AAXX 09004 07070 02540 60908 10060 20060 30105 40217 51007 61000 71062 86500 90000 333 ////=
07070,1998-10-09 03:00:00,7,1022.5,0.8,100,7,3000,7.408,,,10,,,,,,,,,,10,wg-a,,,,AAXX 09034 07070 12330 70104 10070 20070 30113 40225 53008 60006 71022 875// 90300=
07070,1998-10-09 06:00:00,7,1023.1,0.6,100,7,1200,3.704,,,120,5.6,9.2,,,,,6,,,10,wg-a,,,,AAXX 09064 07070 02112 71202 10070 20070 30119 40231 50006 60006 71022 876// 90600 333 10092 20056 60064=
07070,1998-10-09 09:00:00,7,1023.4,0.3,100,7,300,3.704,,,320,,,,,,,,,,45,wg-a,,,,AAXX 09094 07070 12/03 93202 10070 20070 30122 40234 53003 60006 74542 89/// 90900=
07070,1998-10-09 12:00:00,9,1021.5,-1.8,100,9,4000,3.704,,,250,,,,,,,,,,10,wg-a,,,,AAXX 09124 07070 12340 82502 10090 20090 30104 40215 58018 60006 71042 886// 91200=
07070,1998-10-09 15:00:00,11,1019.5,-1.9,87,9,500,7.408,,,260,,,,,,,,,,,wg-a,,,,AAXX 09154 07070 12400 82604 10110 20090 30085 40195 56019 60006 888// 91500=
07070,1998-10-09 18:00:00,11,1018.5,-1,82,8,6000,14.816,,,230,6.7,11.3,,,,,,,,,wg-a,,,,AAXX 09184 07070 12556 72308 10110 20080 30075 40185 56010 60006 875// 91800 333 10113 20067=
07070,1998-10-09 21:00:00,10,1017.3,-1.2,87,8,8000,14.816,,,260,,,,,,,,,,,wg-a,,,,AAXX 09214 07070 12458 72608 10100 20080 30063 40173 58012 60006 875// 92100=
07070,1998-10-10 00:00:00,10,1015,-2.3,87,8,10000,18.52,,,230,,,,,,,,,,,wg-a,,,,AAXX 10004 07070 12460 62310 10100 20080 30040 40150 56023 60006 84530 90000=
07070,1998-10-10 03:00:00,10,1013,-2,87,8,10000,22.224,,,220,,,,,,,,,,,wg-a,,,,AAXX 10034 07070 12560 /2212 10100 20080 30020 40130 58020 60006 83530 90300=
07070,1998-10-10 06:00:00,10,1011.4,-1.6,93,9,7000,22.224,,,220,9.3,10.8,,,,,,,,61,wg-a,,,,AAXX 10064 07070 02457 72212 10100 20090 30004 40114 58016 61000 76165 875// 90600 333 10108 20093 6001=
07070,1998-10-10 09:00:00,11,1011.3,-0,94,10,6000,29.632,,,230,,,,2,,,,,,60,wg-a,,,,AAXX 10094 07070 12356 82316 10110 20100 30004 40113 55000 60027 76065 885// 90900=
07070,1998-10-10 12:00:00,12,1011.7,0.4,94,11,4000,22.224,,,240,,,,0,,,,,,51,wg-a,,,,AAXX 10124 07070 02340 82412 10120 20110 30008 40117 52004 60036 75165 886// 91200 333 60007=
07070,1998-10-10 15:00:00,14,1011.7,0.1,88,12,20000,18.52,,,240,,,,,,,,,,1,wg-a,,,,AAXX 10154 07070 02470 72410 10140 20120 30009 40117 50001 61000 70152 878// 91500 333 ////=
07070,1998-10-10 18:00:00,12,1013.6,1.8,94,11,12000,7.408,,,250,10.2,13.8,,,,,,,,25,wg-a,,,,AAXX 10184 07070 02562 72504 10120 20110 30027 40136 53018 61000 72586 878// 91800 333 10138 20102 6001=
07070,1998-10-10 21:00:00,12,1015,1.4,94,11,12000,14.816,,,250,,,,,,,,,,,wg-a,,,,AAXX 10214 07070 12562 72508 10120 20110 30041 40150 51014 60006 878// 92100=
07070,1998-10-11 00:00:00,9,1015.3,0.1,93,8,12000,7.408,,,220,,,,,,,,,,,wg-a,,,,AAXX 11004 07070 12562 32204 10090 20080 30042 40153 53001 60006 83500 90000=
07070,1998-10-11 03:00:00,10,1015.3,0.1,100,10,12000,14.816,,,230,,,,0,,,,,,,wg-a,,,,AAXX 11034 07070 12562 72308 10100 20100 30043 40153 51001 60007 87500 90300=
07070,1998-10-11 06:00:00,11,1014.9,-0.4,94,10,9000,18.52,,,230,8.3,12.3,,,,,4,,,,wg-a,,,,AAXX 11064 07070 02559 72310 10110 20100 30039 40149 55004 60006 82532 90600 333 10123 20083 60044=
07070,1998-10-11 09:00:00,12,1014.1,-0.7,88,10,12000,18.52,,,220,,,,,,,,,,,wg-a,,,,AAXX 11094 07070 12462 82210 10120 20100 30032 40141 58007 60006 8282/ 90900=
07070,1998-10-11 12:00:00,11,1012.8,-1.4,94,10,2000,18.52,,,220,,,,4,,,,,,51,wg-a,,,,AAXX 11124 07070 02320 82210 10110 20100 30018 40128 58014 60046 75165 8686/ 91200 333 60047=
07070,1998-10-11 15:00:00,12,1011.4,-1.3,94,11,3500,29.632,,,240,,,,1,,,,,,51,wg-a,,,,AAXX 11154 07070 12335 82416 10120 20110 30005 40114 56013 60017 75165 876// 91500=
07070,1998-10-11 18:00:00,13,1011.9,0.5,94,12,10000,14.816,,,250,10.4,12.7,,,,,,,,2,wg-a,,,,AAXX 11184 07070 02360 72508 10130 20120 30010 40119 53005 60006 70265 876// 91800 333 10127 20104 61000=
07070,1998-10-11 21:00:00,11,1012,0.1,100,11,12000,14.816,,,250,,,,,,,,,,,wg-a,,,,AAXX 11214 07070 12462 /2508 10110 20110 30011 40120 50001 60006 81500 92100=
07070,1998-10-12 00:00:00,11,1011.6,-0.4,94,10,12000,11.112,,,260,,,,,,,,,,,wg-a,,,,AAXX 12004 07070 12462 72606 10110 20100 30007 40116 58004 60006 875// 90000=
07070,1998-10-12 03:00:00,11,1011.4,-0.2,94,10,12000,25.928,,,270,,,,,,,,,,,wg-a,,,,AAXX 12034 07070 12762 72714 10110 20100 30005 40114 58002 60006 875// 90300=
07070,1998-10-12 06:00:00,10,1011.5,0,87,8,12000,22.224,,,250,10,12.6,,,,,5,,,,wg-a,,,,AAXX 12064 07070 02562 72512 10100 20080 30005 40115 50000 60006 878// 90600 333 10126 20100 60054=
07070,1998-10-12 09:00:00,12,1013.9,2.5,82,9,15000,25.928,,,280,,,,,,,,,,1,wg-a,,,,AAXX 12094 07070 02465 32814 10120 20090 30030 40139 51025 61000 70161 83800 90900 333 ////=
07070,1998-10-12 12:00:00,14,1015.2,1.3,58,6,15000,31.484,,,290,,,,,,,,,,1,wg-a,,,,AAXX 12124 07070 02665 /2917 10140 20060 30043 40152 51013 61000 70161 85200 91200 333 ////=
07070,1998-10-12 15:00:00,13,1017.2,2,67,7,15000,22.224,,,320,,,,,,,,,,,wg-a,,,,AAXX 12154 07070 12665 73212 10130 20070 30063 40172 53020 60006 872// 91500=
07070,1998-10-12 18:00:00,10,1019.4,2,82,7,15000,18.52,,,280,9.9,14.8,,,,,,,,,wg-a,,,,AAXX 12184 07070 12765 22810 10100 20070 30083 40194 53020 60006 82500 91800 333 10148 20099=
07070,1998-10-12 21:00:00,9,1021.2,1.8,87,7,15000,7.408,,,250,,,,,,,,,,,wg-a,,,,AAXX 12214 07070 12/65 02504 10090 20070 30101 40212 53018 60006 80000 92100=
07070,1998-10-13 00:00:00,7,1021.8,0.5,93,6,20000,11.112,,,220,,,,,,,,,,,wg-a,,,,AAXX 13004 07070 12770 32206 10070 20060 30106 40218 51005 60006 815/1 90000=
07070,1998-10-13 03:00:00,7,1022,0.2,93,6,20000,7.408,,,230,,,,,,,,,,,wg-a,,,,AAXX 13034 07070 12770 72304 10070 20060 30108 40220 52002 60006 825/2 90300=
07070,1998-10-13 06:00:00,7,1022.5,0.5,93,6,8000,11.112,,,220,5.2,10.4,,,,,,,,,wg-a,,,,AAXX 13064 07070 02658 72206 10070 20060 30113 40225 53005 60006 83532 90600 333 10104 20052 61000=
07070,1998-10-13 09:00:00,11,1023.2,0.8,76,7,12000,18.52,,,240,,,,,,,,,,,wg-a,,,,AAXX 13094 07070 12662 72410 10110 20070 30121 40232 52008 60006 875// 90900=
07070,1998-10-13 12:00:00,14,1022.5,-0.6,67,8,15000,25.928,,,230,,,,,,,,,,,wg-a,,,,AAXX 13124 07070 12565 72314 10140 20080 30115 40225 58006 60006 8587/ 91200=
07070,1998-10-13 18:00:00,11,1021.3,-0.4,94,10,4000,14.816,,,210,6.4,14.1,,,,,,,,51,wg-a,,,,AAXX 13184 07070 02440 82108 10110 20100 30103 40213 56004 61000 75165 877// 91800 333 10141 20064 6000=
07070,1998-10-13 21:00:00,12,1020.4,-0.9,94,11,8000,25.928,,,230,,,,0,,,,,,21,wg-a,,,,AAXX 13214 07070 12358 82314 10120 20110 30094 40204 57009 60007 72165 877// 92100=
07070,1998-10-14 00:00:00,13,1019.2,-1.1,94,12,6000,18.52,,,230,,,,,,,,,,51,wg-a,,,,AAXX 14004 07070 02356 82310 10130 20120 30083 40192 58011 60016 75165 877// 90000 333 61000=
07070,1998-10-14 03:00:00,13,1018.7,-0.5,100,13,6000,22.224,,,240,,,,1,,,,,,3,wg-a,,,,AAXX 14034 07070 12256 82412 10130 20130 30078 40187 58005 60017 70365 877// 90300=
07070,1998-10-14 06:00:00,14,1019.3,0.6,94,13,2000,22.224,,,250,11,14.1,,,,,,,,50,wg-a,,,,AAXX 14064 07070 02220 82512 10140 20130 30084 40193 53006 61000 75065 887// 90600 333 10141 20110 6001=
07070,1998-10-14 09:00:00,15,1020.4,1.1,94,14,10000,18.52,,,250,,,,,,,,,,1,wg-a,,,,AAXX 14094 07070 02460 72510 10150 20140 30095 40204 53011 61000 70152 877// 90900 333 ////=
07070,1998-10-14 12:00:00,18,1019.9,-0.3,77,14,15000,29.632,,,250,,,,,,,,,,3,wg-a,,,,AAXX 14124 07070 02465 72516 10180 20140 30092 40199 58003 61000 70352 8587/ 91200 333 6100=
07070,1998-10-14 15:00:00,17,1020,-0,82,14,15000,29.632,,,240,,,,,,,,,,,wg-a,,,,AAXX 14154 07070 12465 72416 10170 20140 30092 40200 55000 60006 878// 91500=
07070,1998-10-14 18:00:00,16,1021.1,1.1,88,14,7000,18.52,,,230,14,18.1,,,,,,,,60,wg-a,,,,AAXX 14184 07070 02457 82310 10160 20140 30103 40211 53011 61000 76062 878// 91800 333 10181 20140 6000=
07070,1998-10-14 21:00:00,15,1021.9,0.7,94,14,7000,18.52,,,250,,,,0,,,,,,60,wg-a,,,,AAXX 14214 07070 12357 82510 10150 20140 30110 40219 53007 60007 76066 877// 92100=
07070,1998-10-15 00:00:00,15,1022,0.1,94,14,4000,18.52,,,240,,,,0,,,,,,51,wg-a,,,,AAXX 15004 07070 02440 82410 10150 20140 30111 40220 50001 60016 75166 877// 90000 333 60007=
07070,1998-10-15 03:00:00,15,1021.3,-0.7,94,14,4000,11.112,,,250,,,,0,,,,,,60,wg-a,,,,AAXX 15034 07070 12340 82506 10150 20140 30104 40213 58007 60007 76066 877// 90300=
07070,1998-10-15 06:00:00,14,1021.8,0.5,94,13,4000,7.408,,,280,13.7,16.2,,,,,1,,,10,wg-a,,,,AAXX 15064 07070 02340 /2804 10140 20130 30109 40218 51005 60006 71065 86500 90600 333 10162 20137 60014=
07070,1998-10-15 09:00:00,14,1023.3,1.5,94,13,8000,18.52,,,310,,,,,,,,,,,wg-a,,,,AAXX 15094 07070 12458 73110 10140 20130 30124 40233 51015 60006 84101 90900=
07070,1998-10-15 12:00:00,16,1022.8,-0.5,68,10,12000,7.408,,,280,,,,,,,,,,,wg-a,,,,AAXX 15124 07070 12562 62804 10160 20100 30119 40228 58005 60006 84801 91200=
07070,1998-10-15 15:00:00,16,1022.1,-0.7,63,9,15000,11.112,,,300,,,,,,,,,,,wg-a,,,,AAXX 15154 07070 12665 73006 10160 20090 30112 40221 58007 60006 84831 91500=
07070,1998-10-15 18:00:00,12,1023.2,1,88,10,12000,7.408,,,360,12,16.9,,,,,,,,,wg-a,,,,AAXX 15184 07070 12562 73604 10120 20100 30122 40232 53010 60006 86502 91800 333 10169 20120=
07070,1998-10-15 21:00:00,11,1023.7,0.4,87,9,15000,0,,,0,,,,,,,,,,,wg-a,,,,AAXX 15214 07070 12665 60000 10110 20090 30126 40237 52004 60006 84502 92100=
07070,1998-10-16 00:00:00,9,1023.2,-0.6,93,8,15000,0,,,0,,,,,,,,,,,wg-a,,,,AAXX 16004 07070 12665 /0000 10090 20080 30120 40232 58006 60006 85502 90000=
07070,1998-10-16 03:00:00,10,1021.8,-1.3,87,8,15000,3.704,,,30,,,,,,,,,,,wg-a,,,,AAXX 16034 07070 12565 70302 10100 20080 30107 40218 58013 60006 875// 90300=
07070,1998-10-16 06:00:00,11,1020.5,-1.2,94,10,6000,11.112,,,150,8.7,12.4,,,,,,,,,wg-a,,,,AAXX 16064 07070 02556 81506 10110 20100 30095 40205 58012 60006 885// 90600 333 10124 20087 60004=
07070,1998-10-16 09:00:00,13,1019.8,-0.7,94,12,3000,11.112,,,160,,,,0,,,,,,51,wg-a,,,,AAXX 16094 07070 12230 81606 10130 20120 30088 40198 58007 60007 75165 885// 90900=
07070,1998-10-16 12:00:00,17,1017.5,-2.1,82,14,12000,18.52,,,220,,,,,,,,,,1,wg-a,,,,AAXX 16124 07070 02462 72210 10170 20140 30067 40175 58021 60006 70165 878// 91200 333 61000=
07070,1998-10-16 15:00:00,17,1014.8,-2.6,77,13,25000,22.224,,,220,,,,,,,,,,,wg-a,,,,AAXX 16154 07070 12575 72212 10170 20130 30041 40148 56026 60006 878// 91500=
07070,1998-10-16 18:00:00,16,1013.5,-1.4,88,14,20000,7.408,,,200,11.3,17.3,,,,,,,,,wg-a,,,,AAXX 16184 07070 12570 72004 10160 20140 30027 40135 56014 60006 878// 91800 333 10173 20113=
07070,1998-10-16 21:00:00,14,1012.3,-1.2,94,13,15000,11.112,,,180,,,,,,,,,,,wg-a,,,,AAXX 16214 07070 12565 /1806 10140 20130 30015 40123 57012 60006 86600 92100=
07070,1998-10-17 00:00:00,12,1010.1,-2.3,100,12,15000,22.224,,,170,,,,,,,,,,,wg-a,,,,AAXX 17004 07070 12/65 01712 10120 20120 39992 40101 56023 60006 80000 90000=
07070,1998-10-17 03:00:00,13,1007.9,-2.1,100,13,7000,18.52,,,210,,,,,,,,,,,wg-a,,,,AAXX 17034 07070 12457 42110 10130 20130 39971 40079 58021 60006 84600 90300=
07070,1998-10-17 06:00:00,15,1006.7,-1.1,82,12,7000,25.928,,,220,11.3,15.6,,,,,,,,,wg-a,,,,AAXX 17064 07070 02557 82214 10150 20120 39960 40067 56011 60006 886// 90600 333 10156 20113 60004=
07070,1998-10-17 12:00:00,16,1005.6,-0.8,88,14,7000,31.484,,59.264,220,,,,,,,,,,60,wg-a,,,,AAXX 17124 07070 02457 82217 10160 20140 39949 40056 57008 61000 76062 885// 91200 333 6100 91032=
07070,1998-10-17 15:00:00,13,1007.3,1.6,94,12,20000,25.928,,,280,,,,6,,,,,,21,wg-a,,,,AAXX 17154 07070 12470 82814 10130 20120 39965 40073 53016 60067 72162 8687/ 91500=
07070,1998-10-17 18:00:00,11,1010.4,3,87,9,20000,18.52,,,260,11.4,16.9,,,,,,,,1,wg-a,,,,AAXX 17184 07070 12770 22610 10110 20090 39995 40104 53030 60006 70161 825/0 91800 333 10169 20114=
07070,1998-10-17 21:00:00,10,1012.6,2.1,82,7,10000,18.52,,,230,,,,,,,,,,,wg-a,,,,AAXX 17214 07070 12/60 /2310 10100 20070 30016 40126 53021 60006 92100=
07070,1998-10-18 00:00:00,9,1014.6,1.9,87,7,15000,18.52,,,240,,,,,,,,,,,wg-a,,,,AAXX 18004 07070 12/65 02410 10090 20070 30035 40146 51019 60006 80000 90000=
07070,1998-10-18 03:00:00,8,1016.7,2.1,93,7,15000,14.816,,,260,,,,,,,,,,,wg-a,,,,AAXX 18034 07070 12665 32608 10080 20070 30056 40167 51021 60006 83500 90300=
07070,1998-10-18 06:00:00,8,1018.9,2.2,93,7,10000,11.112,,,250,7.3,11.3,,,,,6,,,,wg-a,,,,AAXX 18064 07070 02460 82506 10080 20070 30078 40189 51022 60006 886// 90600 333 10113 20073 60064=
07070,1998-10-18 09:00:00,9,1020.7,1.8,93,8,10000,11.112,,,290,,,,0,,,,,,1,wg-a,,,,AAXX 18094 07070 12460 82906 10090 20080 30096 40207 51018 60007 70162 878// 90900=
07070,1998-10-18 12:00:00,11,1020.6,0,82,8,15000,14.816,,,360,,,,,,,,,,1,wg-a,,,,AAXX 18124 07070 12465 63608 10110 20080 30096 40206 50000 60006 70162 86800 91200=
07070,1998-10-18 15:00:00,11,1019.9,-0.7,76,7,20000,11.112,,,350,,,,,,,,,,,wg-a,,,,AAXX 18154 07070 12570 /3506 10110 20070 30089 40199 56007 60006 86800 91500=
07070,1998-10-18 18:00:00,8,1020.1,-0,87,6,20000,3.704,,,20,8,11.6,,,,,,,,,wg-a,,,,AAXX 18184 07070 12770 60202 10080 20060 30089 40201 55000 60006 86500 91800 333 10116 20080=
07070,1998-10-18 21:00:00,5,1020.1,-0.1,93,4,10000,3.704,,,280,,,,,,,,,,,wg-a,,,,AAXX 18214 07070 12/60 02802 10050 20040 30088 40201 58001 60006 80000 92100=
07070,1998-10-19 00:00:00,2,1019.4,-0.8,93,1,500,0,,,0,,,,,,,,,,44,wg-a,,,,AAXX 19004 07070 12/05 00000 10020 20010 30080 40194 58008 60006 74441 80000 90000=
07070,1998-10-19 03:00:00,1,1018.4,-1,100,1,3000,0,,,0,,,,0,,,,,,10,wg-a,,,,AAXX 19034 07070 12730 40000 10010 20010 30070 40184 58010 60007 71040 84500 90300=
07070,1998-10-19 06:00:00,1,1018,-0.4,100,1,200,0,,,0,0.7,8,,,,,1,,,45,wg-a,,,,AAXX 19064 07070 02/02 90000 10010 20010 30066 40180 57004 60006 74541 89/// 90600 333 10080 20007 60014=
07070,1998-10-19 09:00:00,7,1018.8,1,100,7,3000,3.704,,,200,,,,,,,,,,10,wg-a,,,,AAXX 19094 07070 12630 /2002 10070 20070 30076 40188 51010 60006 71041 81500 90900=
07070,1998-10-19 12:00:00,14,1017.9,-0.6,63,7,15000,18.52,,,290,,,,,,,,,,3,wg-a,,,,AAXX 19124 07070 12565 32910 10140 20070 30070 40179 58006 60006 70341 83800 91200=
07070,1998-10-19 15:00:00,13,1018.2,0.2,67,7,1500,14.816,,,260,,,,,,,,,,25,wg-a,,,,AAXX 19154 07070 02615 22608 10130 20070 30072 40182 53002 61000 72586 82800 91500 333 ////=
07070,1998-10-19 18:00:00,8,1019.9,1.5,81,5,15000,3.704,,,260,0.9,14,,,,,,,,1,wg-a,,,,AAXX 19184 07070 12765 12602 10080 20050 30087 40199 53015 60006 70186 81501 91800 333 10140 20009=
07070,1998-10-19 21:00:00,7,1021.1,1.2,87,5,12000,11.112,,,250,,,,,,,,,,,wg-a,,,,AAXX 19214 07070 12662 /2506 10070 20050 30099 40211 51012 60006 81501 92100=
07070,1998-10-20 00:00:00,6,1021.6,0.4,93,5,15000,14.816,,,240,,,,,,,,,,,wg-a,,,,AAXX 20004 07070 12765 62408 10060 20050 30103 40216 51004 60006 86500 90000=
07070,1998-10-20 03:00:00,7,1021.4,-0.1,93,6,15000,11.112,,,260,,,,,,,,,,,wg-a,,,,AAXX 20034 07070 12765 32606 10070 20060 30102 40214 55001 60006 83500 90300=
07070,1998-10-20 06:00:00,6,1022.3,0.8,93,5,8000,11.112,,,250,5.2,8,,,,,,,,,wg-a,,,,AAXX 20064 07070 02758 /2506 10060 20050 30110 40223 50008 60006 81500 90600 333 10080 20052 61000=
07070,1998-10-20 09:00:00,10,1023.7,1.6,82,7,8000,14.816,,,260,,,,0,,,,,,,wg-a,,,,AAXX 20094 07070 12758 /2608 10100 20070 30126 40237 53016 60007 86500 90900=
07070,1998-10-20 12:00:00,13,1023.7,0.1,67,7,20000,18.52,,,260,,,,,,,,,,,wg-a,,,,AAXX 20124 07070 12570 72610 10130 20070 30127 40237 53001 60006 878// 91200=
07070,1998-10-20 15:00:00,13,1023.5,-0.2,72,8,20000,7.408,,,250,,,,,,,,,,,wg-a,,,,AAXX 20154 07070 12670 72504 10130 20080 30125 40235 57002 60006 878// 91500=
07070,1998-10-20 18:00:00,11,1023.6,-0,76,7,20000,14.816,,,200,5.4,12.9,,,,,,,,,wg-a,,,,AAXX 20184 07070 12770 72008 10110 20070 30125 40236 55000 60006 875// 91800 333 10129 20054=
07070,1998-10-20 21:00:00,9,1023.7,0,81,6,10000,11.112,,,220,,,,,,,,,,,wg-a,,,,AAXX 20214 07070 12/60 /2206 10090 20060 30125 40237 50000 60006 92100=
07070,1998-10-21 00:00:00,7,1022.7,-1,87,5,12000,18.52,,,170,,,,,,,,,,,wg-a,,,,AAXX 21004 07070 12/62 71710 10070 20050 30115 40227 58010 60006 80004 90000=
07070,1998-10-21 03:00:00,8,1020.7,-2,87,6,12000,22.224,,,160,,,,,,,,,,,wg-a,,,,AAXX 21034 07070 12/62 71612 10080 20060 30095 40207 56020 60006 8703/ 90300=
07070,1998-10-21 06:00:00,7,1019.6,-1.1,87,5,18000,22.224,,,150,6.5,10.9,,,,,,,,,wg-a,,,,AAXX 21064 07070 02768 71512 10070 20050 30084 40196 58011 60006 8253/ 90600 333 10109 20065 60004=
07070,1998-10-21 09:00:00,9,1019.8,0.3,81,6,20000,29.632,,,170,,,,,,,,,,,wg-a,,,,AAXX 21094 07070 12770 71716 10090 20060 30087 40198 50003 60006 81532 90900=
07070,1998-10-21 12:00:00,14,1019.2,-0.4,67,8,20000,31.484,,,230,,,,,,,,,,,wg-a,,,,AAXX 21124 07070 12670 72317 10140 20080 30083 40192 58004 60006 82532 91200=
07070,1998-10-21 15:00:00,15,1018.2,-1,67,9,20000,22.224,,,200,,,,,,,,,,,wg-a,,,,AAXX 21154 07070 12770 72012 10150 20090 30073 40182 56010 60006 8353/ 91500=
07070,1998-10-21 18:00:00,14,1020,1.8,67,8,18000,14.816,,,220,6.6,15.1,,,,,,,,21,wg-a,,,,AAXX 21184 07070 02568 72208 10140 20080 30091 40200 53018 61000 72162 8557/ 91800 333 10151 20066 6100=
07070,1998-10-21 21:00:00,14,1020.6,0.6,67,8,20000,29.632,,,230,,,,,,,,,,,wg-a,,,,AAXX 21214 07070 12570 62316 10140 20080 30097 40206 53006 60006 83531 92100=
07070,1998-10-22 00:00:00,15,1020.7,0.1,72,10,20000,29.632,,48.152,220,,,,,,,,,,,wg-a,,,,AAXX 22004 07070 12570 72216 10150 20100 30098 40207 50001 60006 8553/ 90000 333 91026=
07070,1998-10-22 03:00:00,14,1021.4,0.7,77,10,20000,18.52,,,220,,,,,,,,,,,wg-a,,,,AAXX 22034 07070 12470 72210 10140 20100 30105 40214 51007 60006 875// 90300=
07070,1998-10-22 06:00:00,14,1021.8,0.4,77,10,15000,18.52,,,220,13.7,14.8,,,,,,,,,wg-a,,,,AAXX 22064 07070 02565 72210 10140 20100 30109 40218 53004 60006 875// 90600 333 10148 20137 61000=
07070,1998-10-22 09:00:00,13,1023.4,1.5,88,11,7000,22.224,,,230,,,,0,,,,,,3,wg-a,,,,AAXX 22094 07070 12457 72312 10130 20110 30124 40234 53015 60007 70362 878// 90900=
07070,1998-10-22 12:00:00,15,1023.6,0.3,82,12,15000,18.52,,,220,,,,,,,,,,1,wg-a,,,,AAXX 22124 07070 02565 72210 10150 20120 30127 40236 52003 60016 70162 878// 91200 333 61000=
07070,1998-10-22 15:00:00,17,1022.1,-1.4,68,11,12000,18.52,,,210,,,,,,,,,,,wg-a,,,,AAXX 22154 07070 12662 /2110 10170 20110 30113 40221 58014 60006 85500 91500=
07070,1998-10-22 18:00:00,16,1023.1,0.9,72,11,12000,14.816,,,200,13,17.1,,,,,,,,,wg-a,,,,AAXX 22184 07070 12762 72008 10160 20110 30122 40231 52009 60006 875// 91800 333 10171 20130=
07070,1998-10-22 21:00:00,16,1022.3,-0.8,72,11,12000,14.816,,,190,,,,,,,,,,,wg-a,,,,AAXX 22214 07070 12662 71908 10160 20110 30114 40223 58008 60006 8553/ 92100=
07070,1998-10-23 00:00:00,12,1020.8,-1.6,88,10,12000,18.52,,,170,,,,,,,,,,,wg-a,,,,AAXX 23004 07070 12662 /1710 10120 20100 30098 40208 58016 60006 86500 90000=
07070,1998-10-23 03:00:00,15,1018.6,-2.1,77,11,8000,22.224,,,210,,,,,,,,,,,wg-a,,,,AAXX 23034 07070 12558 72112 10150 20110 30077 40186 58021 60006 875// 90300=
07070,1998-10-23 06:00:00,15,1017.3,-1.3,82,12,10000,22.224,,,210,11.8,15.7,,,,,,,,,wg-a,,,,AAXX 23064 07070 02560 72112 10150 20120 30064 40173 58013 60006 8357/ 90600 333 10157 20118 60004=
07070,1998-10-23 09:00:00,17,1017,-0.2,68,11,11000,29.632,,,220,,,,,,,,,,,wg-a,,,,AAXX 23094 07070 12/61 /2216 10170 20110 30062 40170 56002 60006 90900=
07070,1998-10-23 10:00:00,12,1020.8,3.4,88,10,12000,18.52,,51.856,170,,,,,,,,,,,wg-a,,,,AAXX 23104 07070 12662 /1710 10120 20100 30098 40208 52034 60006 91000 333 91028=
07070,1998-10-23 12:00:00,18,1015.1,-1.8,64,11,15000,31.484,,50.004,220,,,,,,,,,,,wg-a,,,,AAXX 23124 07070 12665 82217 10180 20110 30044 40151 58018 60006 82572 91200 333 91027=
07070,1998-10-23 15:00:00,15,1014.7,-0.5,94,14,7000,22.224,,,230,,,,2,,,,,,60,wg-a,,,,AAXX 23154 07070 12457 82312 10150 20140 30039 40147 58005 60027 76062 877// 91500=
07070,1998-10-23 18:00:00,15,1014.1,-0.6,88,13,7000,11.112,,,240,14.5,17.7,,1,,,,,,29,wg-a,,,,AAXX 23184 07070 02557 82406 10150 20130 30033 40141 56006 60006 72998 8597/ 91800 333 10177 20145 60017=
07070,1998-10-23 21:00:00,14,1014.4,0.3,94,13,8000,18.52,,,260,,,,0,,,,,,80,wg-a,,,,AAXX 23214 07070 12558 82610 10140 20130 30036 40144 53003 60007 78086 8587/ 92100=
07070,1998-10-24 00:00:00,12,1015.9,1.3,82,9,25000,25.928,,,270,,,,,,,,,,3,wg-a,,,,AAXX 24004 07070 02475 /2714 10120 20090 30049 40159 53013 60006 70386 81100 90000 333 61000=
07070,1998-10-24 03:00:00,11,1016.8,0.9,82,8,15000,25.928,,,260,,,,0,,,,,,,wg-a,,,,AAXX 24034 07070 12565 /2614 10110 20080 30058 40168 53009 60007 86500 90300=
07070,1998-10-24 06:00:00,10,1017.6,0.8,87,8,15000,22.224,,,250,10,14.7,,,,,3,,,,wg-a,,,,AAXX 24064 07070 02465 /2512 10100 20080 30066 40176 51008 60006 85802 90600 333 10147 20100 60034=
07070,1998-10-24 09:00:00,10,1017.1,-0.5,87,8,15000,18.52,,,220,,,,,,,,,,,wg-a,,,,AAXX 24094 07070 12/65 72210 10100 20080 30061 40171 58005 60006 8707/ 90900=
07070,1998-10-24 12:00:00,11,1012,-5,82,8,10000,25.928,,,190,,,,,,,,,,,wg-a,,,,AAXX 24124 07070 12660 81914 10110 20080 30011 40120 58050 60006 8457/ 91200=
07070,1998-10-24 15:00:00,12,1004.4,-7.5,94,11,4000,25.928,,44.448,190,,,,5,,,,,,61,wg-a,,,,AAXX 24154 07070 12440 81914 10120 20110 39936 40044 58075 60057 76162 875// 91500 333 91024=
07070,1998-10-24 18:00:00,13,995.7,-8.6,94,12,4000,31.484,,,200,9.6,12.9,,,,,,,,61,wg-a,,,,AAXX 24184 07070 02440 82017 10130 20120 39850 49957 56086 61000 76162 875// 91800 333 10129 20096 6004=
07070,1998-10-24 21:00:00,14,991.3,-4.3,94,13,8000,22.224,,,240,,,,11,,,,,,61,wg-a,,,,AAXX 24214 07070 12758 82412 10140 20130 39807 49913 57043 60117 76166 875// 92100=
07070,1998-10-25 00:00:00,13,992,0.7,77,9,25000,42.596,,,260,,,,0,,,,,,1,wg-a,,,,AAXX 25004 07070 02575 42623 10130 20090 39814 49920 50007 60126 70165 82570 90000 333 60007=
07070,1998-10-25 03:00:00,13,993.5,1.4,72,8,25000,42.596,,66.672,260,,,,,,,,,,,wg-a,,,,AAXX 25034 07070 12675 42623 10130 20080 39828 49935 52014 60006 84500 90300 333 91036=
07070,1998-10-25 06:00:00,12,997.6,4,76,8,15000,38.892,,,270,11.6,15.3,,,,,,,,60,wg-a,,,,AAXX 25064 07070 02665 82721 10120 20080 39868 49976 52040 61000 76061 875// 90600 333 10153 20116 6020=
07070,1998-10-25 09:00:00,13,1001.3,3.7,67,7,15000,35.188,,,270,,,,,,,,,,1,wg-a,,,,AAXX 25094 07070 02665 32719 10130 20070 39905 40013 51037 61000 70161 83500 90900 333 ////=
07070,1998-10-25 12:00:00,15,1002.3,1.1,63,8,15000,35.188,,,260,,,,,,,,,,3,wg-a,,,,AAXX 25124 07070 02665 /2619 10150 20080 39916 40023 51011 61000 70361 85230 91200 333 ////=
07070,1998-10-25 15:00:00,11,1002.6,0.2,82,8,6000,25.928,,,240,,,,3,,,,,,80,wg-a,,,,AAXX 25154 07070 12556 /2414 10110 20080 39918 40026 53002 60037 78098 84930 91500=
07070,1998-10-25 18:00:00,9,1005.7,2.9,87,7,20000,18.52,,,250,9,14.8,,1,,,,,,1,wg-a,,,,AAXX 25184 07070 02570 52510 10090 20070 39947 40057 53029 60006 70198 83830 91800 333 10148 20090 60017=
07070,1998-10-25 21:00:00,9,1008,2.3,81,6,15000,22.224,,,260,,,,,,,,,,21,wg-a,,,,AAXX 25214 07070 02765 32612 10090 20060 39970 40080 52023 61000 72161 83500 92100 333 ////=
07070,1998-10-26 00:00:00,8,1009.8,1.7,87,6,10000,18.52,,,250,,,,,,,,,,2,wg-a,,,,AAXX 26004 07070 02760 32510 10080 20060 39987 40098 53017 61000 70261 83500 90000 333 ////=
07070,1998-10-26 03:00:00,7,1010.6,0.8,87,5,10000,22.224,,,250,,,,,,,,,,,wg-a,,,,AAXX 26034 07070 12760 32512 10070 20050 39995 40106 50008 60006 83500 90300=
07070,1998-10-26 06:00:00,6,1011.7,1,93,5,15000,11.112,,,220,5.5,9.3,,,,,4,,,,wg-a,,,,AAXX 26064 07070 02/65 32206 10060 20050 30005 40117 53010 60006 80002 90600 333 10093 20055 60044=
07070,1998-10-26 09:00:00,9,1011.8,0.3,87,7,15000,22.224,,,230,,,,,,,,,,,wg-a,,,,AAXX 26094 07070 12465 72312 10090 20070 30008 40118 51003 60006 81132 90900=
07070,1998-10-26 12:00:00,9,1010.6,-1.2,93,8,6000,29.632,,,240,,,,0,,,,,,61,wg-a,,,,AAXX 26124 07070 02456 82416 10090 20080 39996 40106 56012 60006 76186 875// 91200 333 60007=
07070,1998-10-26 15:00:00,11,1011.4,0.9,82,8,15000,18.52,,,290,,,,,,,,,,3,wg-a,,,,AAXX 26154 07070 02565 72910 10110 20080 30005 40114 53009 61000 70362 8687/ 91500 333 ////=
07070,1998-10-26 18:00:00,10,1014.4,2.9,76,6,25000,22.224,,,260,5.5,11.6,,,,,,,,1,wg-a,,,,AAXX 26184 07070 02575 42612 10100 20060 30034 40144 53029 60006 70186 84800 91800 333 10116 20055 61000=
07070,1998-10-27 00:00:00,6,1018.8,1.3,93,5,15000,18.52,,,240,,,,,,,,,,,wg-a,,,,AAXX 27004 07070 12/65 12410 10060 20050 30076 40188 51013 60006 80001 90000=
07070,1998-10-27 03:00:00,8,1018.6,-0.2,87,6,10000,18.52,,,220,,,,,,,,,,,wg-a,,,,AAXX 27034 07070 12760 72210 10080 20060 30074 40186 58002 60006 8353/ 90300=
07070,1998-10-27 06:00:00,9,1017.5,-1,93,8,8000,29.632,,,240,6.1,9.7,,,,,2,,,,wg-a,,,,AAXX 27064 07070 02/58 /2416 10090 20080 30064 40175 56010 60006 90600 333 10097 20061 60024=
07070,1998-10-27 09:00:00,11,1017.7,0.3,87,9,12000,31.484,,,240,,,,,,,,,,,wg-a,,,,AAXX 27094 07070 12462 /2417 10110 20090 30067 40177 51003 60006 86800 90900=
07070,1998-10-27 12:00:00,14,1016.5,-1.1,72,9,12000,42.596,,61.116,250,,,,,,,,,,,wg-a,,,,AAXX 27124 07070 12562 72523 10140 20090 30056 40165 57011 60006 87802 91200 333 91033=
07070,1998-10-27 15:00:00,14,1014.5,-2,72,9,15000,35.188,,,230,,,,,,,,,,,wg-a,,,,AAXX 27154 07070 12565 72319 10140 20090 30036 40145 58020 60006 86802 91500=
07070,1998-10-27 18:00:00,14,1013.8,-0.6,72,9,11000,38.892,,59.264,240,9.2,14.3,,,,,,,,,wg-a,,,,AAXX 27184 07070 12/61 /2421 10140 20090 30030 40138 58006 60006 91800 333 10143 20092 91032=
07070,1998-10-27 21:00:00,14,1012.7,-1.1,77,10,10000,42.596,,,240,,,,,,,,,,,wg-a,,,,AAXX 27214 07070 12560 72423 10140 20100 30019 40127 55011 60006 875// 92100=
07070,1998-10-28 00:00:00,14,1010.1,-2.6,77,10,10000,46.3,,,240,,,,,,,,,,,wg-a,,,,AAXX 28004 07070 12560 82425 10140 20100 39993 40101 56026 60006 885// 90000=
07070,1998-10-28 03:00:00,13,1007.2,-2.9,88,11,10000,42.596,,68.524,230,,,,,,,,,,,wg-a,,,,AAXX 28034 07070 12460 82323 10130 20110 39964 40072 58029 60006 885// 90300 333 91037=
07070,1998-10-28 06:00:00,15,1006.8,-0.3,88,13,10000,38.892,,,240,12.9,14.6,,,,,,,,,wg-a,,,,AAXX 28064 07070 02460 82421 10150 20130 39961 40068 55003 60006 885// 90600 333 10146 20129 60004=
07070,1998-10-28 09:00:00,16,1006.1,-0.7,94,15,4500,35.188,,,240,,,,0,,,,,,58,wg-a,,,,AAXX 28094 07070 12445 82419 10160 20150 39954 40061 58007 60007 75865 878// 90900=
07070,1998-10-28 12:00:00,18,1005.2,-0.8,83,15,12000,50.004,,,240,,,,,,,,,,3,wg-a,,,,AAXX 28124 07070 02462 72427 10180 20150 39946 40052 58008 60016 70365 875// 91200 333 61000=
07070,1998-10-28 18:00:00,15,1008.5,1.8,88,13,20000,31.484,,,260,14.5,17.9,,0,,,,,,1,wg-a,,,,AAXX 28184 07070 02570 72617 10150 20130 39978 40085 51018 60006 70162 875// 91800 333 10179 20145 60007=
07070,1998-10-28 21:00:00,11,1009.4,0.7,94,10,7000,22.224,,,280,,,,4,,,,,,61,wg-a,,,,AAXX 28214 07070 12457 82812 10110 20100 39985 40094 51007 60047 76162 875// 92100=
07070,1998-10-29 00:00:00,11,1007.7,-1.7,94,10,6000,25.928,,,250,,,,7,,,,,,61,wg-a,,,,AAXX 29004 07070 02356 82514 10110 20100 39968 40077 56017 60116 76162 875// 90000 333 60077=
07070,1998-10-29 06:00:00,11,1007.2,0.2,82,8,15000,31.484,,,290,10.6,15,,,,,,,,21,wg-a,,,,AAXX 29064 07070 02465 82917 10110 20080 39963 40072 50002 61000 72162 875// 90600 333 10150 20106 6019=
07070,1998-10-29 09:00:00,11,1011.2,3.9,76,7,2000,35.188,,,280,,,,,,,,,,80,wg-a,,,,AAXX 29094 07070 02420 72819 10110 20070 30002 40112 51039 61000 78086 872// 90900 333 ////=
07070,1998-10-29 12:00:00,12,1015,3.8,62,5,20000,35.188,,,290,,,,0,,,,,,1,wg-a,,,,AAXX 29124 07070 02570 42919 10120 20050 30040 40150 51038 60006 70186 84200 91200 333 60007=
07070,1998-10-29 18:00:00,9,1021.3,2.8,71,4,20000,25.928,,,260,9.1,13.1,,,,,,,,1,wg-a,,,,AAXX 29184 07070 12/70 42614 10090 20040 30102 40213 51028 60006 70186 80002 91800 333 10131 20091=
07070,1998-10-29 21:00:00,9,1021.4,0,71,4,15000,22.224,,,250,,,,,,,,,,,wg-a,,,,AAXX 29214 07070 12665 32512 10090 20040 30102 40214 50000 60006 82532 92100=
07070,1998-10-30 00:00:00,6,1020.5,-0.9,93,5,15000,11.112,,,210,,,,1,,,,,,21,wg-a,,,,AAXX 30004 07070 02565 52106 10060 20050 30093 40205 58009 60016 72161 84532 90000 333 60017=
07070,1998-10-30 03:00:00,8,1018.6,-1.8,87,6,10000,25.928,,,250,,,,,,,,,,,wg-a,,,,AAXX 30034 07070 12560 32514 10080 20060 30075 40186 58018 60006 82502 90300=
07070,1998-10-30 06:00:00,8,1016.2,-2.4,87,6,8000,29.632,,,250,6.2,9.3,,,,,,,,63,wg-a,,,,AAXX 30064 07070 02558 82516 10080 20060 30051 40162 56024 61000 76361 878// 90600 333 10093 20062 6003=
07070,1998-10-30 12:00:00,10,1015.2,-1.1,82,7,2500,29.632,,,270,,,,1,,,,,,80,wg-a,,,,AAXX 30124 07070 02425 72716 10100 20070 30042 40152 58011 60036 78086 872// 91200 333 60017=
07070,1998-10-30 15:00:00,9,1016.5,1.2,87,7,15000,22.224,,,310,,,,3,,,,,,80,wg-a,,,,AAXX 30154 07070 12465 63112 10090 20070 30054 40165 52012 60037 78086 85830 91500=
07070,1998-10-30 18:00:00,7,1019.1,2.5,87,5,15000,7.408,,,300,6.5,10.6,,,,,,,,1,wg-a,,,,AAXX 30184 07070 02/65 03004 10070 20050 30079 40191 53025 60006 70186 80000 91800 333 10106 20065 61000=
07070,1998-10-30 21:00:00,4,1020.4,1.2,100,4,15000,11.112,,,230,,,,,,,,,,,wg-a,,,,AAXX 30214 07070 12765 22306 10040 20040 30091 40204 51012 60006 81501 92100=
07070,1998-10-31 00:00:00,6,1019.7,-0.7,93,5,10000,14.816,,,220,,,,,,,,,,,wg-a,,,,AAXX 31004 07070 12660 72208 10060 20050 30084 40197 58007 60006 86502 90000=
07070,1998-10-31 03:00:00,6,1017.9,-1.7,93,5,10000,14.816,,,240,,,,,,,,,,,wg-a,,,,AAXX 31034 07070 12760 72408 10060 20050 30067 40179 58017 60006 875// 90300=
07070,1998-10-31 06:00:00,7,1016.5,-1.4,93,6,6000,18.52,,,230,4,6.9,,,,,6,,,,wg-a,,,,AAXX 31064 07070 02756 82310 10070 20060 30053 40165 58014 60006 875// 90600 333 10069 20040 60064=
07070,1998-10-31 09:00:00,9,1015.2,-1.2,87,7,8000,18.52,,,230,,,,,,,,,,,wg-a,,,,AAXX 31094 07070 12458 82310 10090 20070 30041 40152 58012 60006 8787/ 90900=
07070,1998-10-31 12:00:00,11,1012.2,-2.9,87,9,10000,25.928,,,240,,,,0,,,,,,21,wg-a,,,,AAXX 31124 07070 02460 72414 10110 20090 30012 40122 58029 60006 72162 8587/ 91200 333 60007=
07070,1998-10-31 18:00:00,10,1003.7,-5.1,93,9,6000,22.224,,44.448,220,6.9,11.2,,,,,,,,63,wg-a,,,,AAXX 31184 07070 02456 82212 10100 20090 39928 40037 56051 61000 76362 877// 91800 333 10112 20069 6004 91024=
07070,1998-10-31 21:00:00,11,998.9,-4.7,94,10,7000,42.596,,,240,,,,8,,,,,,61,wg-a,,,,AAXX 31214 07070 12457 82423 10110 20100 39881 49989 56047 60087 76166 8757/ 92100=
07070,1998-11-01 00:00:00,12,994.4,-4.4,88,10,10000,42.596,,,240,,,,1,,,,,,61,wg-a,,,,AAXX 01004 07070 02460 82423 10120 20100 39837 49944 58044 60096 76166 8757/ 90000 333 60017=
07070,1998-11-01 03:00:00,13,990.7,-3.6,94,12,10000,46.3,,68.524,250,,,,2,,,,,,61,wg-a,,,,AAXX 01034 07070 12460 82525 10130 20120 39801 49907 56036 60027 76166 8757/ 90300 333 91037=
07070,1998-11-01 06:00:00,10,998.6,7.7,87,8,15000,29.632,,,320,,,,,,,16,,,1,wg-a,,,,AAXX 01064 07070 02465 73216 10100 20080 39878 49986 51077 60006 70162 875// 90600 333 10131 20099 60164=
07070,1998-11-01 09:00:00,9,1004.5,5.8,93,8,15000,22.224,,,320,,,,,,,,,,21,wg-a,,,,AAXX 01094 07070 02465 63212 10090 20080 39936 40045 51058 61000 72162 8/800 90900 333 ////=
07070,1998-11-01 12:00:00,10,1007.2,2.7,66,4,15000,25.928,,,320,,,,,,,,,,1,wg-a,,,,AAXX 01124 07070 02565 53214 10100 20040 39963 40072 51027 61000 70162 8/800 91200 333 ////=
07070,1998-11-01 15:00:00,10,1009.2,1.9,57,2,20000,22.224,,,300,,,,,,,,,,,wg-a,,,,AAXX 01154 07070 12670 33012 10100 20020 39982 40092 52019 60006 82201 91500=
07070,1998-11-02 00:00:00,5,1012.2,-0.2,87,3,15000,14.816,,,230,,,,,,,,,,,wg-a,,,,AAXX 02004 07070 12665 72308 10050 20030 30010 40122 58002 60006 85502 90000=
07070,1998-11-02 03:00:00,4,1011.1,-1.1,93,3,12000,11.112,,,200,,,,,,,,,,,wg-a,,,,AAXX 02034 07070 12762 72006 10040 20030 39999 40111 58011 60006 865/2 90300=
07070,1998-11-02 06:00:00,5,1010.6,-0.5,87,3,15000,11.112,,,220,,,,,,,,,,,wg-a,,,,AAXX 02064 07070 02765 72206 10050 20030 39994 40106 58005 60006 84522 90600 333 10058 20028 61000=
07070,1998-11-02 09:00:00,8,1009.9,-0.6,76,4,20000,11.112,,,200,,,,,,,,,,,wg-a,,,,AAXX 02094 07070 12770 62006 10080 20040 39988 40099 58006 60006 855/2 90900=
07070,1998-11-02 12:00:00,10,1006.4,-3.3,71,5,20000,22.224,,,180,,,,,,,,,,,wg-a,,,,AAXX 02124 07070 12570 71812 10100 20050 39955 40064 58033 60006 81802 91200=
07070,1998-11-02 15:00:00,9,1002.9,-3.5,76,5,20000,25.928,,,180,,,,,,,,,,,wg-a,,,,AAXX 02154 07070 12570 71814 10090 20050 39920 40029 57035 60006 85802 91500=
07070,1998-11-02 18:00:00,8,999.3,-3.6,87,6,10000,25.928,,,180,4.9,10.9,,,,,,,,60,wg-a,,,,AAXX 02184 07070 02660 71814 10080 20060 39884 49993 56036 61000 76062 875// 91800 333 10109 20049 6000=
07070,1998-11-02 21:00:00,10,995.6,-3.6,93,9,7000,22.224,,,190,,,,0,,,,,,21,wg-a,,,,AAXX 02214 07070 12457 81912 10100 20090 39848 49956 56036 60007 72162 887// 92100=
07070,1998-11-03 00:00:00,10,995.2,-0.4,87,8,8000,22.224,,,250,,,,0,,,,,,1,wg-a,,,,AAXX 03004 07070 02458 82512 10100 20080 39844 49952 55004 60016 70162 876// 90000 333 60007=
07070,1998-11-03 03:00:00,9,995.6,0.4,87,7,8000,31.484,,,240,,,,,,,,,,,wg-a,,,,AAXX 03034 07070 12458 82417 10090 20070 39848 49956 50004 60006 876// 90300=
07070,1998-11-03 06:00:00,9,996.3,0.6,81,6,10000,35.188,,,240,8.2,12.1,,,,,1,,,,wg-a,,,,AAXX 03064 07070 02660 /2419 10090 20060 39854 49963 53006 60006 82201 90600 333 10121 20082 60014=
07070,1998-11-03 09:00:00,10,997.8,1.6,71,5,15000,35.188,,,250,,,,,,,,,,,wg-a,,,,AAXX 03094 07070 12565 32519 10100 20050 39870 49978 51016 60006 81102 90900=
07070,1998-11-03 12:00:00,12,997.7,-0.1,58,4,25000,42.596,,,240,,,,,,,,,,,wg-a,,,,AAXX 03124 07070 12675 /2423 10120 20040 39869 49977 57001 60006 82272 91200=
07070,1998-11-03 15:00:00,12,996.9,-0.8,58,4,25000,29.632,,,240,,,,,,,,,,,wg-a,,,,AAXX 03154 07070 12675 /2416 10120 20040 39861 49969 56008 60006 85200 91500=
07070,1998-11-03 18:00:00,9,997.8,0.8,76,5,25000,18.52,,,220,8.7,12.3,,,,,,,,,wg-a,,,,AAXX 03184 07070 12/75 02210 10090 20050 39869 49978 53008 60006 80000 91800 333 10123 20087=
07070,1998-11-03 21:00:00,9,998.5,0.7,76,5,20000,25.928,,,230,,,,,,,,,,,wg-a,,,,AAXX 03214 07070 12/70 02314 10090 20050 39876 49985 53007 60006 80000 92100=
07070,1998-11-04 00:00:00,7,998.8,0.2,87,5,15000,18.52,,,220,,,,,,,,,,,wg-a,,,,AAXX 04004 07070 12/65 02210 10070 20050 39878 49988 53002 60006 80000 90000=
07070,1998-11-04 03:00:00,6,998.8,-0,93,5,12000,14.816,,,230,,,,,,,,,,,wg-a,,,,AAXX 04034 07070 12/62 02308 10060 20050 39878 49988 54000 60006 80000 90300=
07070,1998-11-04 06:00:00,6,999,0.2,87,4,12000,18.52,,,240,5.7,9.4,,,,,,,,,wg-a,,,,AAXX 04064 07070 02/62 22410 10060 20040 39880 49990 53002 60006 82030 90600 333 10094 20057 60004=
07070,1998-11-04 12:00:00,7,1003.4,1.9,93,6,8000,18.52,,,270,,,,0,,,,,,51,wg-a,,,,AAXX 04124 07070 02358 82710 10070 20060 39924 40034 51019 60016 75165 875// 91200 333 60007=
07070,1998-11-04 18:00:00,4,1008.3,2.9,81,1,20000,7.408,,,290,4.3,9.3,,,,,,,,1,wg-a,,,,AAXX 04184 07070 12670 /2904 10040 20010 39971 40083 53029 60006 70186 81500 91800 333 10093 20043=
07070,1998-11-04 21:00:00,3,1010.7,2.3,87,1,10000,14.816,,,240,,,,,,,,,,,wg-a,,,,AAXX 04214 07070 12/60 32408 10030 20010 39994 40107 52023 60006 80001 92100=
07070,1998-11-05 00:00:00,2,1012.5,1.8,87,0,10000,14.816,,,220,,,,,,,,,,,wg-a,,,,AAXX 05004 07070 12/60 32208 10020 20000 30012 40125 51018 60006 83031 90000=
07070,1998-11-05 03:00:00,3,1014.4,1.9,87,1,10000,11.112,,,250,,,,,,,,,,,wg-a,,,,AAXX 05034 07070 12660 52506 10030 20010 30031 40144 52019 60006 85500 90300=
07070,1998-11-05 06:00:00,2,1017.3,2.8,87,0,10000,14.816,,,260,0.6,4.3,,,,,,,,,wg-a,,,,AAXX 05064 07070 02560 52608 10020 20000 30059 40173 53028 60006 85501 90600 333 10043 20006 60004=
07070,1998-11-05 09:00:00,4,1019.8,2.6,87,2,10000,14.816,,,240,,,,,,,,,,,wg-a,,,,AAXX 05094 07070 12/60 02408 10040 20020 30085 40198 51026 60006 80000 90900=
07070,1998-11-05 12:00:00,9,1020.5,0.9,66,3,20000,25.928,,,250,,,,,,,,,,,wg-a,,,,AAXX 05124 07070 12670 /2514 10090 20030 30094 40205 51009 60006 81100 91200=
07070,1998-11-05 15:00:00,9,1020.5,-0,66,3,25000,25.928,,,230,,,,,,,,,,,wg-a,,,,AAXX 05154 07070 12675 42314 10090 20030 30094 40205 55000 60006 82801 91500=
07070,1998-11-05 18:00:00,7,1021.4,0.8,70,2,25000,25.928,,,220,0.9,9.7,,,,,,,,,wg-a,,,,AAXX 05184 07070 12775 22214 10070 20020 30102 40214 53008 60006 82500 91800 333 10097 20009=
07070,1998-11-05 21:00:00,7,1021.9,0.5,76,3,20000,25.928,,,230,,,,,,,,,,,wg-a,,,,AAXX 05214 07070 12670 /2314 10070 20030 30107 40219 51005 60006 86500 92100=
07070,1998-11-06 00:00:00,7,1021.7,-0.2,76,3,20000,29.632,,,230,,,,,,,,,,,wg-a,,,,AAXX 06004 07070 12770 62316 10070 20030 30105 40217 58002 60006 86500 90000=
07070,1998-11-06 03:00:00,7,1022.1,0.4,81,4,15000,22.224,,,230,,,,,,,,,,,wg-a,,,,AAXX 06034 07070 12665 72312 10070 20040 30109 40221 53004 60006 875// 90300=
07070,1998-11-06 06:00:00,7,1023.2,1.1,87,5,15000,25.928,,,240,6.6,7.4,,,,,,,,61,wg-a,,,,AAXX 06064 07070 02765 72414 10070 20050 30120 40232 53011 61000 76162 875// 90600 333 10074 20066 6100=
07070,1998-11-06 09:00:00,8,1025.1,1.9,93,7,12000,18.52,,,250,,,,0,,,,,,60,wg-a,,,,AAXX 06094 07070 12462 72510 10080 20070 30139 40251 51019 60007 76062 875// 90900=
07070,1998-11-06 12:00:00,11,1025.6,0.6,82,8,15000,22.224,,,250,,,,,,,,,,21,wg-a,,,,AAXX 06124 07070 02465 /2512 10110 20080 30145 40256 51006 60006 72162 86800 91200 333 61000=
07070,1998-11-06 15:00:00,11,1026.5,0.9,82,8,15000,22.224,,,250,,,,,,,,,,,wg-a,,,,AAXX 06154 07070 12465 72512 10110 20080 30154 40265 53009 60006 878// 91500=
07070,1998-11-06 18:00:00,9,1028.3,1.7,87,7,8000,7.408,,,260,6.7,11.4,,1,,,,,,1,wg-a,,,,AAXX 06184 07070 02558 /2604 10090 20070 30171 40283 53017 60006 70162 85500 91800 333 10114 20067 60017=
07070,1998-11-06 21:00:00,6,1029.6,1.2,100,6,10000,3.704,,,210,,,,,,,,,,,wg-a,,,,AAXX 06214 07070 12860 72102 10060 20060 30183 40296 53012 60006 875// 92100=
07070,1998-11-07 00:00:00,6,1029.9,0.2,93,5,7000,11.112,,,210,,,,,,,,,,,wg-a,,,,AAXX 07004 07070 12857 /2106 10060 20050 30185 40299 50002 60006 81500 90000=
07070,1998-11-07 03:00:00,1,1029.8,-0.3,100,1,1500,0,,,0,,,,,,,,,,10,wg-a,,,,AAXX 07034 07070 12/15 00000 10010 20010 30182 40298 58003 60006 71000 80000 90300=
07070,1998-11-07 06:00:00,1,1030.6,0.8,93,0,100,0,,,0,0.5,9.1,,,,,1,,,44,wg-a,,,,AAXX 07064 07070 02/01 00000 10010 20000 30190 40306 51008 60006 74441 80000 90600 333 10091 20005 60014=
07070,1998-11-07 09:00:00,3,1031.5,1,100,3,200,3.704,,,110,,,,,,,,,,45,wg-a,,,,AAXX 07094 07070 12/02 91102 10030 20030 30200 40315 51010 60006 74544 89/// 90900=
07070,1998-11-07 12:00:00,6,1030.2,-1.2,100,6,3000,14.816,,,150,,,,,,,,,,10,wg-a,,,,AAXX 07124 07070 12230 81508 10060 20060 30188 40302 58012 60006 71041 886// 91200=
07070,1998-11-07 15:00:00,6,1028.6,-1.5,100,6,1200,18.52,,,160,,,,,,,,,,10,wg-a,,,,AAXX 07154 07070 12012 81610 10060 20060 30173 40286 56015 60006 71022 886// 91500=
07070,1998-11-07 18:00:00,6,1028.2,-0.4,100,6,4000,11.112,,,160,0.8,6.4,,,,,,,,10,wg-a,,,,AAXX 07184 07070 12240 81606 10060 20060 30169 40282 58004 60006 71022 886// 91800 333 10064 20008=
07070,1998-11-07 21:00:00,4,1027.5,-0.8,93,3,4500,7.408,,,130,,,,,,,,,,10,wg-a,,,,AAXX 07214 07070 12245 31304 10040 20030 30161 40275 56008 60006 71011 83600 92100=
07070,1998-11-08 00:00:00,3,1025.7,-1.8,93,2,2500,18.52,,,160,,,,,,,,,,10,wg-a,,,,AAXX 08004 07070 12225 21610 10030 20020 30143 40257 58018 60006 71041 82600 90000=
07070,1998-11-08 06:00:00,2,1024.1,-0.5,93,1,3500,11.112,,,140,1.5,6.4,,,,,,,,10,wg-a,,,,AAXX 08064 07070 02235 71406 10020 20010 30126 40241 56005 60006 71011 84672 90600 333 10064 20015 60004=
07070,1998-11-08 09:00:00,5,1023.7,-0.2,93,4,7000,25.928,,,160,,,,,,,,,,,wg-a,,,,AAXX 08094 07070 12857 71614 10050 20040 30124 40237 56002 60006 82032 90900=
07070,1998-11-08 12:00:00,10,1022.6,-0.9,71,5,20000,11.112,,,180,,,,,,,,,,,wg-a,,,,AAXX 08124 07070 12670 71806 10100 20050 30115 40226 58009 60006 8557/ 91200=
07070,1998-11-08 15:00:00,11,1021,-1.6,82,8,8000,25.928,,,200,,,,0,,,,,,61,wg-a,,,,AAXX 08154 07070 12658 82014 10110 20080 30099 40210 57016 60007 76162 8657/ 91500=
07070,1998-11-08 18:00:00,12,1020.8,-0.1,82,9,10000,25.928,,,230,1.6,12.1,,,,,,,,60,wg-a,,,,AAXX 08184 07070 02560 82314 10120 20090 30098 40208 55001 61000 76062 875// 91800 333 10121 20016 6001=
07070,1998-11-08 21:00:00,13,1020.5,-0.3,82,10,15000,25.928,,,240,,,,1,,,,,,21,wg-a,,,,AAXX 08214 07070 12565 82414 10130 20100 30095 40205 55003 60017 72162 875// 92100=
07070,1998-11-09 00:00:00,14,1020.6,0.2,77,10,20000,29.632,,,230,,,,,,,,,,1,wg-a,,,,AAXX 09004 07070 12570 82316 10140 20100 30097 40206 51002 60016 70162 875// 90000=
07070,1998-11-09 03:00:00,14,1019.8,-0.8,77,10,20000,22.224,,,230,,,,,,,,,,,wg-a,,,,AAXX 09034 07070 12670 82312 10140 20100 30089 40198 58008 60006 875// 90300=
07070,1998-11-09 06:00:00,13,1019.3,-0.5,77,9,25000,14.816,,,210,11.1,13.9,,,,,2,,,,wg-a,,,,AAXX 09064 07070 02675 82108 10130 20090 30084 40193 56005 60006 875// 90600 333 10139 20111 60024=
07070,1998-11-09 09:00:00,14,1020,0.7,72,9,20000,25.928,,,230,,,,,,,,,,60,wg-a,,,,AAXX 09094 07070 02770 72314 10140 20090 30091 40200 53007 61000 76062 8457/ 90900 333 ////=
07070,1998-11-09 12:00:00,15,1019,-1,77,11,20000,22.224,,,230,,,,,,,,,,3,wg-a,,,,AAXX 09124 07070 02670 72312 10150 20110 30081 40190 56010 61000 70362 8487/ 91200 333 6100=
07070,1998-11-09 15:00:00,15,1018.2,-0.8,82,12,12000,18.52,,,230,,,,,,,,,,21,wg-a,,,,AAXX 09154 07070 02462 72310 10150 20120 30073 40182 55008 61000 72162 875// 91500 333 ////=
07070,1998-11-09 18:00:00,13,1018.7,0.5,100,13,7000,14.816,,,240,13.2,15.3,,,,,,,,21,wg-a,,,,AAXX 09184 07070 02357 72408 10130 20130 30078 40187 51005 61000 72165 875// 91800 333 10153 20132 6001=
07070,1998-11-09 21:00:00,12,1018.6,-0.2,100,12,6000,3.704,,,220,,,,1,,,,,,50,wg-a,,,,AAXX 09214 07070 12356 82202 10120 20120 30076 40186 58002 60017 75065 875// 92100=
07070,1998-11-10 00:00:00,12,1018,-0.6,100,12,7000,11.112,,,240,,,,0,,,,,,1,wg-a,,,,AAXX 10004 07070 02557 82406 10120 20120 30070 40180 55006 60016 70165 875// 90000 333 60007=
07070,1998-11-10 03:00:00,11,1016.6,-1.4,100,11,8000,11.112,,,230,,,,,,,,,,,wg-a,,,,AAXX 10034 07070 12758 72306 10110 20110 30056 40166 58014 60006 8457/ 90300=
07070,1998-11-10 06:00:00,11,1015.5,-1.1,94,10,8000,11.112,,,230,10.6,13.3,,,,,1,,,,wg-a,,,,AAXX 10064 07070 02758 72306 10110 20100 30045 40155 55011 60006 8257/ 90600 333 10133 20106 60014=
07070,1998-11-10 09:00:00,12,1016,0.5,94,11,7000,25.928,,,240,,,,,,,,,,,wg-a,,,,AAXX 10094 07070 12457 72414 10120 20110 30050 40160 50005 60006 8557/ 90900=
07070,1998-11-10 12:00:00,13,1016.2,0.3,77,9,25000,29.632,,,290,,,,0,,,,,,1,wg-a,,,,AAXX 10124 07070 02575 /2916 10130 20090 30053 40162 53003 60016 70165 86800 91200 333 60007=
07070,1998-11-10 15:00:00,11,1018.3,2,66,5,500,25.928,,,330,,,,,,,,,,,wg-a,,,,AAXX 10154 07070 12500 53314 10110 20050 30073 40183 53020 60006 8/800 91500=
07070,1998-11-10 18:00:00,7,1021.6,3.1,87,5,25000,18.52,,,310,7.4,12.8,,,,,,,,25,wg-a,,,,AAXX 10184 07070 02575 /3110 10070 20050 30104 40216 53031 61000 72586 81400 91800 333 10128 20074 6100=
07070,1998-11-10 21:00:00,6,1023.6,1.9,87,4,15000,14.816,,,300,,,,,,,,,,,wg-a,,,,AAXX 10214 07070 12/65 03008 10060 20040 30123 40236 51019 60006 80000 92100=
07070,1998-11-11 00:00:00,4,1025.4,1.7,93,3,12000,7.408,,,250,,,,,,,,,,,wg-a,,,,AAXX 11004 07070 12/62 02504 10040 20030 30140 40254 51017 60006 80000 90000=
07070,1998-11-11 03:00:00,3,1026.5,1.1,93,2,12000,11.112,,,260,,,,,,,,,,,wg-a,,,,AAXX 11034 07070 12/62 02606 10030 20020 30151 40265 51011 60006 80000 90300=
07070,1998-11-11 06:00:00,2,1027.4,0.8,93,1,7000,7.408,,,230,2,7.4,,,,,1,,,,wg-a,,,,AAXX 11064 07070 02/57 02304 10020 20010 30159 40274 51008 60006 80000 90600 333 10074 20020 60014=
07070,1998-11-11 09:00:00,5,1028,0.7,87,3,7000,11.112,,,230,,,,,,,,,,,wg-a,,,,AAXX 11094 07070 12/57 32306 10050 20030 30166 40280 50007 60006 80002 90900=
07070,1998-11-11 12:00:00,9,1027.1,-0.7,76,5,10000,11.112,,,310,,,,,,,,,,,wg-a,,,,AAXX 11124 07070 12460 53106 10090 20050 30159 40271 58007 60006 82102 91200=
07070,1998-11-11 15:00:00,10,1024.9,-2.1,62,3,15000,3.704,,,300,,,,,,,,,,,wg-a,,,,AAXX 11154 07070 12465 53002 10100 20030 30138 40249 56021 60006 83202 91500=
07070,1998-11-11 18:00:00,3,1023.5,-1.7,87,1,11000,11.112,,,170,1.4,10.9,,,,,,,,,wg-a,,,,AAXX 11184 07070 12/61 /1706 10030 20010 30121 40235 56017 60006 91800 333 10109 20014=
07070,1998-11-11 21:00:00,2,1021,-2.5,93,1,15000,14.816,,,180,,,,,,,,,,,wg-a,,,,AAXX 11214 07070 12/65 71808 10020 20010 30096 40210 56025 60006 81032 92100=
07070,1998-11-12 00:00:00,3,1018.4,-2.6,93,2,15000,7.408,,,200,,,,,,,,,,,wg-a,,,,AAXX 12004 07070 12765 72004 10030 20020 30070 40184 56026 60006 8157/ 90000=
07070,1998-11-12 03:00:00,3,1014.6,-3.7,93,2,15000,14.816,,,170,,,,,,,,,,,wg-a,,,,AAXX 12034 07070 12/65 71708 10030 20020 30033 40146 56037 60006 82072 90300=
07070,1998-11-12 12:00:00,6,1011.5,-0.6,75,2,10000,18.52,,,230,,,,,,,,,,,wg-a,,,,AAXX 12124 07070 12560 72310 10060 20020 30003 40115 58006 60006 8287/ 91200=
07070,1998-11-12 15:00:00,5,1011.4,-0.1,93,4,7000,11.112,,,190,,,,1,,,,,,21,wg-a,,,,AAXX 12154 07070 12357 81906 10050 20040 30002 40114 55001 60017 72162 877// 91500=
07070,1998-11-12 18:00:00,5,1011.7,0.3,100,5,6000,11.112,,,190,2,5.7,,,,,,,,1,wg-a,,,,AAXX 12184 07070 12356 81906 10050 20050 30005 40117 52003 60006 70162 876// 91800 333 10057 20020=
07070,1998-11-12 21:00:00,7,1011.8,0.2,93,6,500,18.52,,,220,,,,,,,,,,1,wg-a,,,,AAXX 12214 07070 02400 82210 10070 20060 30007 40118 51002 61000 70165 885// 92100 333 ////=
07070,1998-11-13 00:00:00,7,1012,0.2,87,5,8000,22.224,,,240,,,,,,,,,,1,wg-a,,,,AAXX 13004 07070 02458 42412 10070 20050 30009 40120 53002 61000 70165 84500 90000 333 ////=
07070,1998-11-13 06:00:00,5,1011.1,-0.4,93,4,8000,22.224,,,220,5.2,7.2,,,,,1,,,,wg-a,,,,AAXX 13064 07070 02758 72212 10050 20040 39999 40111 57004 60006 875// 90600 333 10072 20052 60014=
07070,1998-11-13 09:00:00,6,1010.3,-0.7,87,4,8000,11.112,,,210,,,,,,,,,,,wg-a,,,,AAXX 13094 07070 12758 82106 10060 20040 39992 40103 58007 60006 8452/ 90900=
07070,1998-11-13 12:00:00,8,1008.8,-1.5,81,5,11000,18.52,,,210,,,,,,,,,,,wg-a,,,,AAXX 13124 07070 12/61 /2110 10080 20050 39977 40088 58015 60006 91200=
07070,1998-11-13 15:00:00,8,1007.6,-1.1,81,5,15000,11.112,,,230,,,,,,,,,,21,wg-a,,,,AAXX 13154 07070 02565 72306 10080 20050 39966 40076 58011 61000 72162 8387/ 91500 333 ////=
07070,1998-11-13 18:00:00,6,1007.4,-0.3,93,5,15000,7.408,,,150,5,8,,,,,,,,21,wg-a,,,,AAXX 13184 07070 02565 81504 10060 20050 39963 40074 56003 61000 72162 8487/ 91800 333 10080 20050 6100=
07070,1998-11-13 21:00:00,6,1005.7,-1.7,93,5,15000,11.112,,,160,,,,,,,,,,,wg-a,,,,AAXX 13214 07070 12665 81606 10060 20050 39946 40057 57017 60006 8552/ 92100=
07070,1998-11-14 00:00:00,6,1003.4,-2.3,93,5,10000,18.52,,,170,,,,,,,,,,60,wg-a,,,,AAXX 14004 07070 02660 81710 10060 20050 39923 40034 56023 61000 76062 8552/ 90000 333 6100=
07070,1998-11-14 03:00:00,5,1001.1,-2.3,93,4,10000,11.112,,,160,,,,1,,,,,,1,wg-a,,,,AAXX 14034 07070 12660 81606 10050 20040 39900 40011 58023 60017 70162 8252/ 90300=
07070,1998-11-14 06:00:00,5,998.5,-2.5,93,4,8000,14.816,,,180,4.9,6.2,,,,,,,,61,wg-a,,,,AAXX 14064 07070 02558 81808 10050 20040 39875 49985 56025 61000 76162 8582/ 90600 333 10062 20049 6003=
07070,1998-11-14 09:00:00,7,998.6,0.1,87,5,35000,29.632,,,260,,,,2,,,,,,21,wg-a,,,,AAXX 14094 07070 12481 32616 10070 20050 39876 49986 53001 60027 72161 82130 90900=
07070,1998-11-14 12:00:00,8,999.3,0.8,76,4,25000,38.892,,,260,,,,,,,,,,3,wg-a,,,,AAXX 14124 07070 12475 /2621 10080 20040 39884 49993 51008 60026 70361 86300 91200=
07070,1998-11-14 15:00:00,7,999.9,0.5,81,4,7000,31.484,,,280,,,,,,,,,,80,wg-a,,,,AAXX 14154 07070 02457 72817 10070 20040 39889 49999 53005 61000 78086 872// 91500 333 ////=
07070,1998-11-14 18:00:00,5,1004.3,4.3,93,4,500,14.816,,,300,4.8,8.8,,,,,,,,51,wg-a,,,,AAXX 14184 07070 02300 83008 10050 20040 39932 40043 53043 61000 75186 887// 91800 333 10088 20048 6001=
07070,1998-11-14 21:00:00,6,1007.2,2.9,87,4,10000,22.224,,,290,,,,0,,,,,,1,wg-a,,,,AAXX 14214 07070 12660 32912 10060 20040 39961 40072 53029 60007 70165 83500 92100=
07070,1998-11-15 00:00:00,5,1008.4,1.1,93,4,10000,11.112,,,220,,,,1,,,,,,21,wg-a,,,,AAXX 15004 07070 02560 72206 10050 20040 39972 40084 51011 60016 72165 875// 90000 333 60017=
07070,1998-11-15 01:00:00,6,1008.9,0.5,87,4,11000,22.224,,,250,4.6,6,,,,,3,,,,wg-a,,,,AAXX 15014 07070 12/61 72512 10060 20040 39978 40089 52005 60034 90100 333 10060 20046=
07070,1998-11-15 03:00:00,5,1008.5,0.1,87,3,10000,18.52,,,230,,,,,,,,,,,wg-a,,,,AAXX 15034 07070 12660 22310 10050 20030 39973 40085 50001 60006 82500 90300=
07070,1998-11-15 06:00:00,6,1008.9,0.5,87,4,10000,22.224,,,250,4.6,6,,,,,3,,,,wg-a,,,,AAXX 15064 07070 02460 82512 10060 20040 39978 40089 52005 60006 877// 90600 333 10060 20046 60034=
07070,1998-11-15 09:00:00,7,1010.4,1.5,87,5,8000,25.928,,,270,,,,,,,,,,51,wg-a,,,,AAXX 15094 07070 02458 82714 10070 20050 39993 40104 53015 61000 75165 877// 90900 333 ////=
07070,1998-11-15 12:00:00,7,1013.4,3,81,4,25000,25.928,,,330,,,,0,,,,,,1,wg-a,,,,AAXX 15124 07070 02475 /3314 10070 20040 30023 40134 51030 60006 70165 86800 91200 333 60007=
07070,1998-11-15 15:00:00,8,1015.7,2.3,76,4,25000,22.224,,,310,,,,,,,,,,,wg-a,,,,AAXX 15154 07070 12575 43112 10080 20040 30046 40157 53023 60006 84800 91500=
07070,1998-11-15 21:00:00,6,1018.7,1,93,5,20000,14.816,,,280,,,,,,,,,,,wg-a,,,,AAXX 15214 07070 12570 82808 10060 20050 30075 40187 51010 60006 888// 92100=
07070,1998-11-16 00:00:00,6,1019.1,0.4,93,5,15000,22.224,,,280,,,,,,,,,,,wg-a,,,,AAXX 16004 07070 12465 82812 10060 20050 30079 40191 52004 60006 886// 90000=
07070,1998-11-16 03:00:00,6,1019.2,0.1,87,4,15000,22.224,,,300,,,,,,,,,,,wg-a,,,,AAXX 16034 07070 12465 73012 10060 20040 30080 40192 53001 60006 875// 90300=
07070,1998-11-16 06:00:00,5,1020.3,1,87,3,15000,14.816,,,300,4.5,6.6,,,,,,,,,wg-a,,,,AAXX 16064 07070 02465 83008 10050 20030 30090 40203 53010 60006 885// 90600 333 10066 20045 60004=
07070,1998-11-16 09:00:00,4,1022.1,1.8,93,3,12000,22.224,,,320,,,,,,,,,,21,wg-a,,,,AAXX 16094 07070 02462 83212 10040 20030 30108 40221 53018 61000 72162 886// 90900 333 ////=
07070,1998-11-16 12:00:00,6,1023.5,1.4,87,4,12000,25.928,,,310,,,,,,,,,,1,wg-a,,,,AAXX 16124 07070 02462 73114 10060 20040 30122 40235 51014 61000 70162 872// 91200 333 ////=
07070,1998-11-16 15:00:00,6,1025,1.5,75,2,20000,22.224,,,340,,,,,,,,,,,wg-a,,,,AAXX 16154 07070 12470 73412 10060 20020 30137 40250 53015 60006 878// 91500=
07070,1998-11-16 18:00:00,2,1027.6,2.4,87,0,10000,14.816,,,350,2.2,6.3,,,,,,,,,wg-a,,,,AAXX 16184 07070 12/60 03508 10020 20000 30161 40276 53024 60006 80000 91800 333 10063 20022=
07070,1998-11-17 00:00:00,-1,1030.5,1,93,-2,3000,3.704,,,230,,,,,,,,,,10,wg-a,,,,AAXX 17004 07070 12/30 02302 11010 21020 30188 40305 52010 60006 71000 80000 90000=
07070,1998-11-17 03:00:00,-1,1030.8,0.3,93,-2,3000,3.704,,,100,,,,,,,,,,10,wg-a,,,,AAXX 17034 07070 12530 71002 11010 21020 30191 40308 50003 60006 71011 875// 90300=
07070,1998-11-17 06:00:00,-3,1031.1,0.2,93,-4,3000,0,,,0,-3.1,2.2,,,,,,,,10,wg-a,,,,AAXX 17064 07070 02630 /0000 11030 21040 30193 40311 53002 60006 71011 81501 90600 333 10022 21031 61000=
07070,1998-11-17 09:00:00,-3,1032.1,1.1,100,-3,400,0,,,0,,,,,,,,,,48,wg-a,,,,AAXX 17094 07070 12004 40000 11030 21030 30204 40321 53011 60006 74841 84600 90900=
07070,1998-11-17 12:00:00,1,1031.5,-0.5,93,0,300,3.704,,,30,,,,,,,,,,43,wg-a,,,,AAXX 17124 07070 12/03 90302 10010 20000 30199 40315 58005 60006 74341 89/// 91200=
07070,1998-11-17 15:00:00,3,1030.4,-1,87,1,500,7.408,,,40,,,,,,,,,,1,wg-a,,,,AAXX 17154 07070 12400 /0404 10030 20010 30189 40304 58010 60006 70141 81101 91500=
07070,1998-11-17 18:00:00,-1,1030.6,-0,93,-2,4500,0,,,0,-4.1,3.1,,,,,,,,10,wg-a,,,,AAXX 17184 07070 12/45 /0000 11010 21020 30189 40306 55000 60006 71041 80001 91800 333 10031 21041=
07070,1998-11-17 21:00:00,-3,1030.5,-0.1,100,-3,3200,3.704,,,290,,,,,,,,,,10,wg-a,,,,AAXX 17214 07070 12032 22902 11030 21030 30188 40305 58001 60006 71040 82601 92100=
07070,1998-11-18 00:00:00,-4,1030.2,-0.4,93,-5,2500,0,,,0,,,,,,,,,,10,wg-a,,,,AAXX 18004 07070 12/25 00000 11040 21050 30184 40302 57004 60006 71040 80000 90000=
07070,1998-11-18 03:00:00,-6,1029.4,-0.9,100,-6,600,0,,,0,,,,,,,,,,45,wg-a,,,,AAXX 18034 07070 12/06 90000 11060 21060 30175 40294 56009 60006 74541 89/// 90300=
07070,1998-11-18 06:00:00,-5,1029.3,-0,100,-5,100,0,,,0,-6,-1.3,,,,,,,,45,wg-a,,,,AAXX 18064 07070 02/01 90000 11050 21050 30175 40293 55000 60006 74541 89/// 90600 333 11013 21060 60004=
07070,1998-11-18 09:00:00,-3,1029.5,0.3,100,-3,2000,0,,,0,,,,,,,,,,,wg-a,,,,AAXX 18094 07070 12/20 /0000 11030 21030 30178 40295 50003 60006 90900=
07070,1998-11-18 12:00:00,1,1028.6,-0.7,93,0,500,3.704,,,20,,,,0,,,,,,2,wg-a,,,,AAXX 18124 07070 02/00 /0202 10010 20000 30171 40286 58007 60006 70241 80001 91200 333 60007=
07070,1998-11-18 15:00:00,3,1028.2,-0.4,81,0,6000,3.704,,,340,,,,,,,,,,,wg-a,,,,AAXX 18154 07070 12/56 03402 10030 20000 30167 40282 57004 60006 80000 91500=
07070,1998-11-18 18:00:00,-1,1028.4,0.1,93,-2,4000,3.704,,,260,-5.8,3.3,,,,,,,,10,wg-a,,,,AAXX 18184 07070 12/40 02602 11010 21020 30168 40284 53001 60006 71000 80000 91800 333 10033 21058=
07070,1998-11-18 21:00:00,-2,1028.3,-0.2,93,-3,2500,3.704,,,220,,,,,,,,,,10,wg-a,,,,AAXX 18214 07070 12/25 /2202 11020 21030 30166 40283 58002 60006 71000 80001 92100=
07070,1998-11-19 00:00:00,-3,1027.6,-0.7,100,-3,4000,7.408,,,220,,,,,,,,,,10,wg-a,,,,AAXX 19004 07070 12840 32204 11030 21030 30159 40276 56007 60006 71011 83030 90000=
07070,1998-11-19 03:00:00,-1,1026.3,-1.2,93,-2,6000,11.112,,,240,,,,,,,,,,,wg-a,,,,AAXX 19034 07070 12756 72406 11010 21020 30147 40263 56012 60006 875// 90300=
07070,1998-11-19 06:00:00,0,1025.9,-0.3,93,-1,6000,14.816,,,250,-2.8,0.4,,,,,,,,61,wg-a,,1,,AAXX 19064 07070 02456 82508 10000 21010 30144 40259 58003 61000 76176 875// 90600 333 10004 21028 4/001 6001=
07070,1998-11-19 09:00:00,1,1026.2,0.3,93,0,3500,18.52,,,260,,,,1,,,,,,10,wg-a,,,,AAXX 19094 07070 12435 82610 10010 20000 30147 40262 51003 60017 71076 875// 90900=
07070,1998-11-19 12:00:00,3,1026.4,0.2,93,2,4000,11.112,,,290,,,,,,,,,,10,wg-a,,,,AAXX 19124 07070 02340 82906 10030 20020 30149 40264 51002 60016 71076 876// 91200 333 61000=
07070,1998-11-19 15:00:00,3,1026.9,0.5,93,2,6000,3.704,,,210,,,,,,,,,,,wg-a,,,,AAXX 19154 07070 12456 /2102 10030 20020 30154 40269 51005 60006 86501 91500=
07070,1998-11-19 18:00:00,-1,1028.4,1.4,93,-2,3500,7.408,,,140,-0.8,3.1,,0,,,,,,10,wg-a,,,,AAXX 19184 07070 02435 /1404 11010 21020 30168 40284 53014 60006 71011 86600 91800 333 10031 21008 60007=
07070,1998-11-19 21:00:00,-1,1030.2,1.7,100,-1,1000,3.704,,,70,,,,,,,,,,10,wg-a,,,,AAXX 19214 07070 12410 70702 11010 21010 30185 40302 53017 60006 71011 876// 92100=
07070,1998-11-20 00:00:00,-4,1030.7,0.4,100,-4,400,7.408,,,80,,,,,,,,,,,wg-a,,,,AAXX 20004 07070 12/04 /0804 11040 21040 30189 40307 51004 60006 90000=
07070,1998-11-20 03:00:00,-4,1032,1.3,93,-5,100,0,,,0,,,,,,,,,,49,wg-a,,,,AAXX 20034 07070 12/01 90000 11040 21050 30202 40320 52013 60006 74944 89/// 90300=
07070,1998-11-20 04:00:00,-4,1030.7,,100,-4,500,7.408,,,80,,,,,,,,,,,wg-a,,,,AAXX 20044 07070 12/00 /0804 11040 21040 30189 40307 60006 90400=
07070,1998-11-20 06:00:00,-5,1033.5,1.4,100,-5,800,0,,,0,-5.3,-0.4,,,,,1,,,48,wg-a,,,,AAXX 20064 07070 02108 80000 11050 21050 30216 40335 53014 60006 74844 887// 90600 333 11004 21053 60014=
07070,1998-11-20 09:00:00,-3,1035.4,2,100,-3,3200,7.408,,,90,,,,,,,,,,10,wg-a,,,,AAXX 20094 07070 12/32 /0904 11030 21030 30236 40354 53020 60006 71041 80000 90900=
07070,1998-11-20 12:00:00,0,1035.9,0.6,86,-2,7000,14.816,,,100,,,,,,,,,,3,wg-a,,,,AAXX 20124 07070 12457 /1008 10000 21020 30242 40359 51006 60006 70341 81100 91200=
07070,1998-11-20 18:00:00,-3,1037.3,0.9,86,-5,12000,3.704,,,50,-4.8,1,,,,,,,,,wg-a,,,,AAXX 20184 07070 12/62 00502 11030 21050 30255 40373 53009 60006 80000 91800 333 10010 21048=
07070,1998-11-20 21:00:00,-4,1038.4,1,86,-6,10000,3.704,,,50,,,,,,,,,,,wg-a,,,,AAXX 20214 07070 12/60 00502 11040 21060 30265 40384 51010 60006 80000 92100=
07070,1998-11-21 00:00:00,-6,1038.9,0.4,93,-7,8000,0,,,0,,,,,,,,,,,wg-a,,,,AAXX 21004 07070 12/58 00000 11060 21070 30269 40389 51004 60006 80000 90000=
07070,1998-11-21 06:00:00,-8,1039.2,0.2,92,-9,500,3.704,,,40,-8.2,-3,,,,,,,,,wg-a,,,,AAXX 21064 07070 02/00 00402 11080 21090 30271 40392 53002 60006 80000 90600 333 11030 21082 60004=
07070,1998-11-21 09:00:00,-4,1039.5,0.5,86,-6,4500,7.408,,,60,,,,,,,,,,10,wg-a,,,,AAXX 21094 07070 12/45 00604 11040 21060 30276 40395 51005 60006 71000 80000 90900=
07070,1998-11-21 12:00:00,0,1038.1,-1.2,80,-3,8000,14.816,,,100,,,,,,,,,,,wg-a,,,,AAXX 21124 07070 12/58 01008 10000 21030 30264 40381 58012 60006 80000 91200=
07070,1998-11-21 15:00:00,1,1036.6,-1.5,69,-4,12000,18.52,,,110,,,,,,,,,,,wg-a,,,,AAXX 21154 07070 12/62 11110 10010 21040 30249 40366 56015 60006 80001 91500=
07070,1998-11-21 18:00:00,-3,1036.2,-0.5,86,-5,15000,7.408,,,60,-8.8,1.3,,,,,,,,,wg-a,,,,AAXX 21184 07070 12/65 10604 11030 21050 30244 40362 56005 60006 80001 91800 333 10013 21088=
07070,1998-11-21 21:00:00,-6,1034.7,-1.6,93,-7,15000,11.112,,,100,,,,,,,,,,,wg-a,,,,AAXX 21214 07070 12/65 11006 11060 21070 30228 40347 56016 60006 80001 92100=
07070,1998-11-22 00:00:00,-7,1033.4,-1.4,86,-9,12000,7.408,,,90,,,,,,,,,,,wg-a,,,,AAXX 22004 07070 12/62 00904 11070 21090 30214 40334 58014 60006 80000 90000=
07070,1998-11-22 03:00:00,-3,1,-0.5,86,-5,15000,3.704,,,100,-8.8,1.3,,,,,,,,,wg-a,,,,AAXX 22034 07070 32/65 11002 11030 21050 56005 80001 90300 333 10013 21088=
07070,1998-11-22 06:00:00,-9,1030.8,-0.8,92,-10,9000,3.704,,,30,-8.7,-3.2,,,,,,,,,wg-a,,,,AAXX 22064 07070 02/59 20302 11090 21100 30188 40308 58008 60006 80001 90600 333 11032 21087 60004=
07070,1998-11-22 09:00:00,-6,1030.2,-0.5,86,-8,6000,11.112,,,90,,,,,,,,,,,wg-a,,,,AAXX 22094 07070 12/56 20906 11060 21080 30183 40302 58005 60006 80001 90900=
07070,1998-11-22 12:00:00,-3,1028.1,-1.9,74,-7,7000,14.816,,,110,,,,,,,,,,,wg-a,,,,AAXX 22124 07070 12/57 /1108 11030 21070 30164 40281 58019 60006 80001 91200=
07070,1998-11-22 15:00:00,-2,1026.5,-1.6,69,-7,7000,18.52,,,100,,,,,,,,,,,wg-a,,,,AAXX 22154 07070 12/57 01010 11020 21070 30148 40265 56016 60006 80000 91500=
07070,1998-11-22 18:00:00,-7,1026.4,-0.3,93,-8,8000,11.112,,,110,-9.2,-1.7,,,,,,,,,wg-a,,,,AAXX 22184 07070 12/58 01106 11070 21080 30145 40264 56003 60006 80000 91800 333 11017 21092=
07070,1998-11-23 00:00:00,-9,1025.1,-1.1,92,-10,7000,7.408,,,60,,,,,,,,,,,wg-a,,,,AAXX 23004 07070 12/57 00604 11090 21100 30131 40251 58011 60006 80000 90000=
07070,1998-11-23 03:00:00,-10,1024.7,-0.4,92,-11,7000,3.704,,,90,,,,,,,,,,,wg-a,,,,AAXX 23034 07070 12/57 00902 11100 21110 30127 40247 58004 60006 80000 90300=
07070,1998-11-23 06:00:00,-10,1024.5,-0.2,92,-11,500,11.112,,,90,-10.4,-6.5,,,,,,,,,wg-a,,,,AAXX 23064 07070 02/00 00906 11100 21110 30125 40245 56002 60006 80000 90600 333 11065 21104 60004=
07070,1998-11-23 09:00:00,-7,1025.4,1,86,-9,2800,7.408,,,100,,,,,,,,,,10,wg-a,,,,AAXX 23094 07070 12/28 /1004 11070 21090 30135 40254 52010 60006 71000 80001 90900=
07070,1998-11-23 12:00:00,-3,1024.5,-0.7,74,-7,3700,3.704,,,360,,,,,,,,,,10,wg-a,,,,AAXX 23124 07070 12/37 03602 11030 21070 30128 40245 58007 60006 71000 80000 91200=
07070,1998-11-23 15:00:00,-2,1023.6,-0.8,74,-6,4000,3.704,,,30,,,,,,,,,,10,wg-a,,,,AAXX 23154 07070 12/40 00302 11020 21060 30120 40236 56008 60006 71000 80000 91500=
07070,1998-11-23 18:00:00,-6,1024.8,1,93,-7,500,3.704,,,320,-11.1,-1.2,,,,,,,,,wg-a,,,,AAXX 23184 07070 12/00 03202 11060 21070 30130 40248 51010 60006 80000 91800 333 11012 21111=
07070,1998-11-23 21:00:00,-9,1025,0.1,92,-10,500,3.704,,,290,,,,,,,,,,,wg-a,,,,AAXX 23214 07070 12/00 02902 11090 21100 30131 40250 53001 60006 80000 92100=
07070,1998-11-24 00:00:00,-10,1025,-0.1,92,-11,2000,3.704,,,200,,,,,,,,,,10,wg-a,,,,AAXX 24004 07070 12/20 02002 11100 21110 30130 40250 58001 60006 71000 80000 90000=
07070,1998-11-24 03:00:00,-11,1024.1,-0.9,92,-12,1500,0,,,0,,,,,,,,,,10,wg-a,,,,AAXX 24034 07070 12/15 00000 11110 21120 30121 40241 58009 60006 71000 80000 90300=
07070,1998-11-24 06:00:00,-12,1025.5,1.3,92,-13,400,3.704,,,130,-11.5,-5.8,,,,,,,,49,wg-a,,,,AAXX 24064 07070 02/04 91302 11120 21130 30134 40255 51013 60006 74941 89/// 90600 333 11058 21115 60004=
07070,1998-11-24 09:00:00,-7,1024.8,-0.5,93,-8,1100,3.704,,,100,,,,,,,,,,10,wg-a,,,,AAXX 24094 07070 12/11 /1002 11070 21080 30129 40248 56005 60006 71041 81031 90900=
07070,1998-11-24 12:00:00,-3,1024,-0.6,86,-5,1800,0,,,0,,,,,,,,,,10,wg-a,,,,AAXX 24124 07070 12/18 70000 11030 21050 30123 40240 58006 60006 71041 82034 91200=
07070,1998-11-24 15:00:00,-2,1023.1,-0.8,86,-4,1800,11.112,,,160,,,,,,,,,,10,wg-a,,,,AAXX 24154 07070 12/18 71606 11020 21040 30115 40231 56008 60006 71022 86052 91500=
07070,1998-11-24 18:00:00,-3,1023.5,0.4,93,-4,2000,14.816,,,170,-11.5,-1.6,,,,,,,,10,wg-a,,,,AAXX 24184 07070 12/20 71708 11030 21040 30119 40235 53004 60006 71022 86032 91800 333 11016 21115=
07070,1998-11-24 21:00:00,-2,1022.5,-1,86,-4,3500,11.112,,,170,,,,,,,,,,10,wg-a,,,,AAXX 24214 07070 02735 81706 11020 21040 30109 40225 56010 61000 71072 8552/ 92100 333 ////=
07070,1998-11-25 00:00:00,-2,1021.5,-1,93,-3,3000,7.408,,,160,,,,,,,,,,10,wg-a,,,,AAXX 25004 07070 02730 81604 11020 21030 30099 40215 56010 61000 71072 8357/ 90000 333 ////=
07070,1998-11-25 03:00:00,-1,1019.3,-2.1,86,-3,4000,11.112,,,140,,,,,,,,,,10,wg-a,,,,AAXX 25034 07070 12640 71406 11010 21030 30078 40193 56021 60006 71022 8257/ 90300=
07070,1998-11-25 06:00:00,0,1017.4,-1.9,80,-3,500,22.224,,,140,-2.5,-0.3,,,,,,,,66,wg-a,,,,AAXX 25064 07070 02500 81412 10000 21030 30059 40174 56019 61000 76662 875// 90600 333 11003 21025 6100=
07070,1998-11-25 09:00:00,0,1016.9,-0.5,86,-2,4000,14.816,,,90,,,,,,,,,,10,wg-a,,,,AAXX 25094 07070 02640 80908 10000 21020 30054 40169 57005 61000 71062 875// 90900 333 ////=
07070,1998-11-25 12:00:00,1,1015.5,-1.3,86,-1,4000,11.112,,,100,,,,1,,,,,,10,wg-a,,,,AAXX 25124 07070 02640 81006 10010 21010 30041 40155 56013 60016 71062 8657/ 91200 333 60017=
07070,1998-11-25 15:00:00,1,1015.6,0.1,93,0,2500,7.408,,,130,,,,0,,,,,,10,wg-a,,,,AAXX 25154 07070 12425 81304 10010 20000 30042 40156 53001 60007 71062 8657/ 91500=
07070,1998-11-25 18:00:00,0,1017.6,1.9,100,0,1200,3.704,,,150,-0.4,1.6,,1,,,,,,10,wg-a,,,,AAXX 25184 07070 02412 81502 10000 20000 30061 40176 51019 60006 71076 875// 91800 333 10016 21004 60017=
07070,1998-11-25 21:00:00,0,1019,1.4,100,0,700,3.704,,,100,,,,,,,,,,44,wg-a,,,,AAXX 25214 07070 02107 81002 10000 20000 30075 40190 51014 61000 74465 875// 92100 333 ////=
07070,1998-11-26 00:00:00,0,1020.3,1.3,100,0,500,3.704,,,100,,,,,,,,,,49,wg-a,,,,AAXX 26004 07070 02/05 91002 10000 20000 30088 40203 53013 61000 74976 89/// 90000 333 ////=
07070,1998-11-26 03:00:00,0,1021.2,0.9,100,0,100,3.704,,,350,,,,,,,,,,49,wg-a,,,,AAXX 26034 07070 12/01 93502 10000 20000 30097 40212 52009 60006 74944 89/// 90300=
07070,1998-11-26 06:00:00,0,1022.5,1.3,100,0,800,0,,,0,-0.1,0.4,,,,,2,,,49,wg-a,,,,AAXX 26064 07070 02/08 90000 10000 20000 30110 40225 52013 60006 74944 89/// 90600 333 10004 21001 60024=
07070,1998-11-26 09:00:00,0,1023.6,1.1,100,0,900,7.408,,,220,,,,0,,,,,,42,wg-a,,,,AAXX 26094 07070 12309 82204 10000 20000 30121 40236 51011 60007 74244 886// 90900=
07070,1998-11-26 12:00:00,3,1023.4,-0.1,93,2,4000,11.112,,,200,,,,,,,,,,10,wg-a,,,,AAXX 26124 07070 12240 82006 10030 20020 30120 40234 58001 60006 71042 886// 91200=
07070,1998-11-26 15:00:00,2,1022.2,-1.2,100,2,3500,11.112,,,210,,,,,,,,,,10,wg-a,,,,AAXX 26154 07070 12235 82106 10020 20020 30108 40222 58012 60006 71022 886// 91500=
07070,1998-11-26 18:00:00,3,1020.7,-1.5,100,3,500,14.816,,,210,-0.1,3.1,,,,,,,,10,wg-a,,,,AAXX 26184 07070 02200 82108 10030 20030 30093 40207 58015 61000 71062 886// 91800 333 10031 21001 6100=
07070,1998-11-26 21:00:00,5,1018.5,-2.1,93,4,500,25.928,,,230,,,,,,,,,,61,wg-a,,,,AAXX 26214 07070 02300 82314 10050 20040 30072 40185 56021 61000 76165 8/57/ 92100 333 ////=
07070,1998-11-27 00:00:00,6,1017.3,-1.1,100,6,500,14.816,,,270,,,,1,,,,,,21,wg-a,,,,AAXX 27004 07070 02500 82708 10060 20060 30061 40173 56011 60016 72165 885// 90000 333 60017=
07070,1998-11-27 03:00:00,6,1017.8,0.5,100,6,500,14.816,,,300,,,,,,,,,,21,wg-a,,,,AAXX 27034 07070 02400 83008 10060 20060 30066 40178 52005 61000 72122 885// 90300 333 ////=
07070,1998-11-27 06:00:00,4,1018.4,0.5,93,3,4000,7.408,,,250,3.1,6.4,,,,,1,,,10,wg-a,,,,AAXX 27064 07070 02640 22504 10040 20030 30071 40184 53005 60006 71011 82500 90600 333 10064 20031 60014=
07070,1998-11-27 09:00:00,5,1019.6,1.2,93,4,2200,7.408,,,280,,,,,,,,,,10,wg-a,,,,AAXX 27094 07070 12422 72804 10050 20040 30083 40196 51012 60006 71011 8653/ 90900=
07070,1998-11-27 12:00:00,7,1020.2,0.7,93,6,4500,14.816,,,310,,,,,,,,,,10,wg-a,,,,AAXX 27124 07070 12445 73108 10070 20060 30090 40202 51007 60006 71011 878// 91200=
07070,1998-11-27 15:00:00,6,1020.7,0.5,87,4,500,7.408,,,360,,,,,,,,,,,wg-a,,,,AAXX 27154 07070 12400 /3604 10060 20040 30095 40207 53005 60006 85800 91500=
07070,1998-11-27 18:00:00,2,1021.8,0.9,93,1,2500,3.704,,,260,1.7,7.9,,,,,,,,10,wg-a,,,,AAXX 27184 07070 12/25 22602 10020 20010 30104 40218 51009 60006 71011 80001 91800 333 10079 20017=
07070,1998-11-27 21:00:00,-2,1022.4,0.4,100,-2,600,0,,,0,,,,,,,,,,41,wg-a,,,,AAXX 27214 07070 12/06 /0000 11020 21020 30108 40224 50004 60006 74140 80001 92100=
07070,1998-11-28 00:00:00,-1,1023,0.6,93,-2,200,3.704,,,40,,,,,,,,,,49,wg-a,,,,AAXX 28004 07070 12/02 90402 11010 21020 30114 40230 51006 60006 74941 89/// 90000=
07070,1998-11-28 03:00:00,-1,1022.3,-0.7,100,-1,500,0,,,0,,,,,,,,,,43,wg-a,,,,AAXX 28034 07070 12/05 90000 11010 21010 30107 40223 55007 60006 74344 89/// 90300=
07070,1998-11-28 06:00:00,0,1022.1,-0.1,100,0,400,11.112,,,150,-1.8,1.8,,,,,,,,45,wg-a,,,,AAXX 28064 07070 02/04 91506 10000 20000 30106 40221 55001 60006 74544 89/// 90600 333 10018 21018 60004=
07070,1998-11-28 12:00:00,1,1019.7,-1.7,100,1,2000,14.816,,,170,,,,,,,,,,10,wg-a,,,,AAXX 28124 07070 12220 /1708 10010 20010 30082 40197 58017 60006 71042 86800 91200=
07070,1998-11-28 15:00:00,2,1017.2,-2.4,93,1,3500,14.816,,,160,,,,,,,,,,10,wg-a,,,,AAXX 28154 07070 12435 71608 10020 20010 30058 40172 56024 60006 71022 878// 91500=
07070,1998-11-28 18:00:00,3,1015.2,-1.9,100,3,4000,18.52,,,170,-0.3,3.1,,,,,,,,10,wg-a,,,,AAXX 28184 07070 02440 81710 10030 20030 30039 40152 56019 61000 71065 878// 91800 333 10031 21003 6100=
07070,1998-11-28 21:00:00,3,1013.8,-1.4,93,2,4000,22.224,,,160,,,,0,,,,,,10,wg-a,,,,AAXX 28214 07070 12340 81612 10030 20020 30025 40138 56014 60007 71065 886// 92100=
07070,1998-11-29 00:00:00,2,1012.9,-0.9,100,2,500,11.112,,,160,,,,0,,,,,,51,wg-a,,,,AAXX 29004 07070 02200 81606 10020 20020 30016 40129 56009 60016 75165 886// 90000 333 60007=
07070,1998-11-29 03:00:00,2,1012.1,-0.8,100,2,4000,7.408,,,90,,,,1,,,,,,10,wg-a,,,,AAXX 29034 07070 12240 80904 10020 20020 30008 40121 56008 60017 71065 886// 90300=
07070,1998-11-29 06:00:00,2,1012.8,0.7,93,1,1500,7.408,,,10,1.6,3.8,,,,,,,,10,wg-a,,,,AAXX 29064 07070 02015 80104 10020 20010 30015 40128 51007 61000 71065 886// 90600 333 10038 20016 6003=
07070,1998-11-29 09:00:00,2,1013.6,0.8,100,2,2000,3.704,,,210,,,,0,,,,,,10,wg-a,,,,AAXX 29094 07070 12320 82102 10020 20020 30023 40136 51008 60007 71055 886// 90900=
07070,1998-11-29 12:00:00,6,1013.9,0.4,100,6,4000,29.632,,,330,,,,1,,,,,,10,wg-a,,,,AAXX 29124 07070 02340 83316 10060 20060 30027 40139 51004 60016 71065 885// 91200 333 60017=
07070,1998-11-29 15:00:00,6,1014.4,0.5,93,5,6000,25.928,,,320,,,,1,,,,,,51,wg-a,,,,AAXX 29154 07070 12456 83214 10060 20050 30032 40144 51005 60017 75166 885// 91500=
07070,1998-11-29 18:00:00,6,1015.4,1,100,6,6000,29.632,,,330,1.5,6.6,,,,,,,,51,wg-a,,,,AAXX 29184 07070 02356 83316 10060 20060 30042 40154 53010 61000 75166 886// 91800 333 10066 20015 6001=
07070,1998-11-29 21:00:00,3,1018.3,2.7,93,2,3000,14.816,,,60,,,,0,,,,,,10,wg-a,,,,AAXX 29214 07070 12130 80608 10030 20020 30069 40183 53027 60007 71065 886// 92100=
07070,1998-11-30 00:00:00,2,1019.5,1.2,100,2,4000,7.408,,,70,,,,,,,,,,10,wg-a,,,,AAXX 30004 07070 02440 80704 10020 20020 30081 40195 51012 60016 71065 885// 90000 333 61000=
07070,1998-11-30 03:00:00,2,1020.5,1,93,1,500,3.704,,,40,,,,,,,,,,,wg-a,,,,AAXX 30034 07070 12/00 /0402 10020 20010 30091 40205 52010 60006 90300=
07070,1998-11-30 06:00:00,2,1021.7,1.2,100,2,4500,7.408,,,350,1.6,6.3,,,,,,,,10,wg-a,,,,AAXX 30064 07070 02345 83504 10020 20020 30103 40217 53012 61000 71065 886// 90600 333 10063 20016 6003=
07070,1998-11-30 09:00:00,2,1024.6,2.8,93,1,3500,11.112,,,40,,,,,,,,,,10,wg-a,,,,AAXX 30094 07070 02535 80406 10020 20010 30131 40246 51028 61000 71052 885// 90900 333 ////=
07070,1998-11-30 12:00:00,2,1025.9,1.3,87,0,7000,14.816,,,30,,,,,,,,,,20,wg-a,,,,AAXX 30124 07070 02457 80308 10020 20000 30144 40259 51013 61000 72076 885// 91200 333 6100=
07070,1998-11-30 15:00:00,2,1026.1,0.2,93,1,4000,18.52,,,10,,,,,,,,,,10,wg-a,,,,AAXX 30154 07070 12240 80110 10020 20010 30146 40261 52002 60006 71022 885// 91500=
07070,1998-11-30 18:00:00,1,1027.9,1.8,86,-1,4000,22.224,,,30,0.9,2.1,,,,,,,,10,wg-a,,,,AAXX 30184 07070 02240 80312 10010 21010 30164 40279 53018 61000 71052 885// 91800 333 10021 20009 6100=
07070,1998-11-30 21:00:00,1,1029.2,1.2,86,-1,6000,18.52,,,40,,,,,,,,,,,wg-a,,,,AAXX 30214 07070 12656 80410 10010 21010 30176 40292 52012 60006 885// 92100=
07070,1998-12-01 00:00:00,2,1029.9,0.8,80,-1,7000,18.52,,,50,,,,,,,,,,,wg-a,,,,AAXX 01004 07070 12557 80510 10020 21010 30184 40299 51008 60006 885// 90000=
07070,1998-12-01 03:00:00,2,1030.6,0.7,87,0,8000,14.816,,,50,,,,,,,,,,,wg-a,,,,AAXX 01034 07070 12558 80508 10020 20000 30191 40306 52007 60006 885// 90300=
07070,1998-12-01 06:00:00,2,1031.1,0.4,87,0,7000,14.816,,,40,0.7,2.1,,,,,,,,,wg-a,,,,AAXX 01064 07070 02557 80408 10020 20000 30195 40311 53004 60006 885// 90600 333 10021 20007 61000=
07070,1998-12-01 12:00:00,2,1031.8,-0.4,80,-1,8000,22.224,,,50,,,,,,,,,,,wg-a,,,,AAXX 01124 07070 12558 70512 10020 21010 30203 40318 58004 60006 875// 91200=
07070,1998-12-01 15:00:00,2,1030.7,-1.1,80,-1,8000,18.52,,,70,,,,,,,,,,,wg-a,,,,AAXX 01154 07070 12558 70710 10020 21010 30192 40307 56011 60006 875// 91500=
07070,1998-12-01 18:00:00,1,1030.3,-0.5,86,-1,6000,11.112,,,60,0.9,2.4,,,,,,,,,wg-a,,,,AAXX 01184 07070 12456 70606 10010 21010 30187 40303 58005 60006 875// 91800 333 10024 20009=
07070,1998-12-01 21:00:00,0,1030.7,0.4,86,-2,500,14.816,,,40,,,,,,,,,,,wg-a,,,,AAXX 01214 07070 12400 80408 10000 21020 30191 40307 53004 60006 885// 92100=
07070,1998-12-02 00:00:00,0,1029.9,-0.8,74,-4,8000,18.52,,,70,,,,,,,,,,,wg-a,,,,AAXX 02004 07070 12558 80710 10000 21040 30183 40299 56008 60006 885// 90000=
07070,1998-12-02 03:00:00,-1,1028.9,-1,80,-4,8000,22.224,,,90,,,,,,,,,,,wg-a,,,,AAXX 02034 07070 12458 80912 11010 21040 30173 40289 56010 60006 885// 90300=
07070,1998-12-02 06:00:00,-2,1028.6,-0.4,86,-4,500,18.52,,,60,-1.5,0.9,,,,,,,,,wg-a,,,,AAXX 02064 07070 02400 80610 11020 21040 30169 40286 56004 60006 885// 90600 333 10009 21015 60004=
07070,1998-12-02 09:00:00,-2,1028.8,0.2,80,-5,3500,22.224,,,100,,,,,,,,,,10,wg-a,,,,AAXX 02094 07070 02435 71012 11020 21050 30171 40288 50002 61000 71072 875// 90900 333 ////=
07070,1998-12-02 12:00:00,-2,1027.7,-1.1,86,-4,3500,18.52,,,60,,,,,,,,,,10,wg-a,,,,AAXX 02124 07070 02435 70610 11020 21040 30160 40277 58011 61000 71072 875// 91200 333 6100=
07070,1998-12-02 15:00:00,-1,1026.1,-1.5,80,-4,6000,22.224,,,90,,,,,,,,,,,wg-a,,,,AAXX 02154 07070 12456 70912 11010 21040 30145 40261 56015 60006 875// 91500=
07070,1998-12-02 18:00:00,-1,1025.9,-0.2,80,-4,7000,14.816,,,80,-2.3,-1.3,,,,,,,,,wg-a,,,,AAXX 02184 07070 12557 80808 11010 21040 30143 40259 55002 60006 885// 91800 333 11013 21023=
07070,1998-12-02 21:00:00,-1,1025.5,-0.4,80,-4,500,14.816,,,80,,,,,,,,,,,wg-a,,,,AAXX 02214 07070 12500 80808 11010 21040 30139 40255 56004 60006 885// 92100=
07070,1998-12-03 00:00:00,-2,1024.6,-0.9,93,-3,500,3.704,,,60,,,,,,,,,,,wg-a,,,,AAXX 03004 07070 12500 70602 11020 21030 30130 40246 58009 60006 875// 90000=
07070,1998-12-03 03:00:00,-1,1023.6,-1,86,-3,500,7.408,,,50,,,,,,,,,,,wg-a,,,,AAXX 03034 07070 12500 70504 11010 21030 30120 40236 58010 60006 875// 90300=
07070,1998-12-03 06:00:00,-1,1022.5,-1.1,86,-3,500,3.704,,,60,-1.5,-1.3,,,,,,,,,wg-a,,,,AAXX 03064 07070 02400 70602 11010 21030 30109 40225 56011 60006 875// 90600 333 11013 21015 61000=
07070,1998-12-03 09:00:00,-1,1022.2,-0.3,93,-2,3000,0,,,0,,,,,,,,,,10,wg-a,,,,AAXX 03094 07070 12530 70000 11010 21020 30106 40222 58003 60006 71022 875// 90900=
07070,1998-12-03 12:00:00,0,1020.5,-1.6,80,-3,3900,3.704,,,80,,,,,,,,,,10,wg-a,,,,AAXX 03124 07070 12539 80802 10000 21030 30090 40205 58016 60006 71022 885// 91200=
07070,1998-12-03 15:00:00,0,1018.8,-1.7,86,-2,3200,3.704,,,30,,,,,,,,,,10,wg-a,,,,AAXX 03154 07070 12532 70302 10000 21020 30073 40188 56017 60006 71022 875// 91500=
07070,1998-12-03 18:00:00,-1,1017.8,-1,93,-2,4500,7.408,,,20,-1.4,,,,,,,,,10,wg-a,,,,AAXX 03184 07070 12645 70204 11010 21020 30063 40178 57010 60006 71022 875// 91800 333 21014=
07070,1998-12-03 21:00:00,-1,1016.7,-1.1,93,-2,4500,3.704,,,270,,,,,,,,,,10,wg-a,,,,AAXX 03214 07070 12645 82702 11010 21020 30052 40167 58011 60006 71022 875// 92100=
07070,1998-12-04 00:00:00,-1,1014.9,-1.8,86,-3,4000,7.408,,,260,,,,,,,,,,10,wg-a,,,,AAXX 04004 07070 12540 82604 11010 21030 30034 40149 58018 60006 71022 875// 90000=
07070,1998-12-04 03:00:00,-1,1012.8,-2.1,86,-3,500,11.112,,,320,,,,,,,,,,,wg-a,,,,AAXX 04034 07070 12400 73206 11010 21030 30013 40128 57021 60006 875// 90300=
07070,1998-12-04 06:00:00,-2,1012.1,-0.7,86,-4,6000,7.408,,,310,-1.6,-0.5,,,,,,,,,wg-a,,,,AAXX 04064 07070 02556 73104 11020 21040 30006 40121 56007 60006 875// 90600 333 11005 21016 60004=
07070,1998-12-04 12:00:00,0,1010.3,-1.1,100,0,2000,14.816,,,270,,,,,,,,,,10,wg-a,,,,AAXX 04124 07070 02220 82708 10000 20000 39989 40103 58011 61000 71076 877// 91200 333 6100=
07070,1998-12-04 15:00:00,2,1009.9,-0.3,93,1,2500,11.112,,,300,,,,,,,,,,10,wg-a,,,,AAXX 04154 07070 02225 73006 10020 20010 39986 40099 55003 61000 71074 877// 91500 333 ////=
07070,1998-12-04 18:00:00,2,1011,1.1,93,1,2500,18.52,,,300,-1.6,2,,,,,,,,10,wg-a,,,,AAXX 04184 07070 02325 73010 10020 20010 39997 40110 52011 60006 71076 875// 91800 333 10020 21016 61000=
07070,1998-12-04 21:00:00,2,1012.2,1.2,93,1,3500,22.224,,,300,,,,,,,,,,10,wg-a,,,,AAXX 04214 07070 12435 53012 10020 20010 30009 40122 51012 60006 71022 82530 92100=
07070,1998-12-05 00:00:00,2,1012.9,0.7,93,1,4000,22.224,,,290,,,,0,,,,,,10,wg-a,,,,AAXX 05004 07070 02340 72912 10020 20010 30016 40129 51007 60016 71086 8523/ 90000 333 60007=
07070,1998-12-05 03:00:00,2,1012.9,-0.1,80,-1,6000,25.928,,,300,,,,,,,,,,,wg-a,,,,AAXX 05034 07070 12456 73014 10020 21010 30015 40129 57001 60006 878// 90300=
07070,1998-12-05 06:00:00,1,1013.1,0.2,86,-1,10000,22.224,,,290,0.8,2.4,,,,,,,,,wg-a,,,,AAXX 05064 07070 02760 72912 10010 21010 30017 40131 53002 60006 84831 90600 333 10024 20008 60004=
07070,1998-12-05 09:00:00,1,1014.5,1.4,86,-1,8000,18.52,,,290,,,,,,,,,,,wg-a,,,,AAXX 05094 07070 12758 /2910 10010 21010 30031 40145 51014 60006 81530 90900=
07070,1998-12-05 12:00:00,2,1014.5,0.1,80,-1,15000,29.632,,,280,,,,,,,,,,,wg-a,,,,AAXX 05124 07070 12565 72816 10020 21010 30032 40145 50001 60006 875// 91200=
07070,1998-12-05 15:00:00,3,1014.1,-0.4,75,-1,15000,29.632,,,260,,,,,,,,,,,wg-a,,,,AAXX 05154 07070 12765 72616 10030 21010 30028 40141 56004 60006 875// 91500=
07070,1998-12-05 18:00:00,3,1013.8,-0.3,81,0,15000,25.928,,,260,0.1,2.9,,,,,,,,21,wg-a,,,,AAXX 05184 07070 02565 72614 10030 20000 30025 40138 58003 61000 72162 875// 91800 333 10029 20001 6100=
07070,1998-12-05 21:00:00,1,1015.3,1.4,93,0,500,14.816,,,310,,,,2,,,,,,23,wg-a,,,,AAXX 05214 07070 12400 83108 10010 20000 30039 40153 51014 60027 72376 885// 92100=
07070,1998-12-06 00:00:00,1,1016.8,1.5,86,-1,10000,14.816,,,290,,,,,,,,,,1,wg-a,,,,AAXX 06004 07070 12460 /2908 10010 21010 30054 40168 53015 60026 70176 86500 90000=
07070,1998-12-06 03:00:00,-1,1018.1,1.2,93,-2,10000,18.52,,,300,,,,,,,,,,,wg-a,,,,AAXX 06034 07070 12460 33010 11010 21020 30066 40181 53012 60006 83500 90300=
07070,1998-12-06 06:00:00,0,1019.8,1.7,86,-2,10000,14.816,,,300,-0.6,2.9,,,,,2,,,,wg-a,,,,AAXX 06064 07070 02460 73008 10000 21020 30083 40198 53017 60006 87500 90600 333 10029 21006 60024=
07070,1998-12-06 09:00:00,1,1021.9,2.1,86,-1,500,14.816,,,290,,,,,,,,,,,wg-a,,,,AAXX 06094 07070 12400 52908 10010 21010 30104 40219 51021 60006 82630 90900=
07070,1998-12-06 12:00:00,2,1023.4,1.5,87,0,8000,18.52,,,280,,,,,,,,,,,wg-a,,,,AAXX 06124 07070 12558 42810 10020 20000 30119 40234 51015 60006 84500 91200=
07070,1998-12-06 15:00:00,2,1024.6,1.3,87,0,6000,22.224,,,290,,,,,,,,,,,wg-a,,,,AAXX 06154 07070 12456 52912 10020 20000 30132 40246 51013 60006 85800 91500=
07070,1998-12-06 18:00:00,0,1026.2,1.4,93,-1,10000,14.816,,,300,-0.3,2.6,,,,,,,,,wg-a,,,,AAXX 06184 07070 12/60 03008 10000 21010 30146 40262 51014 60006 80000 91800 333 10026 21003=
07070,1998-12-06 21:00:00,0,1027.3,1.1,93,-1,7000,11.112,,,250,,,,,,,,,,,wg-a,,,,AAXX 06214 07070 12557 /2506 10000 21010 30157 40273 53011 60006 85500 92100=
07070,1998-12-07 00:00:00,-1,1027.8,0.5,93,-2,6000,11.112,,,250,,,,,,,,,,,wg-a,,,,AAXX 07004 07070 12656 32506 11010 21020 30162 40278 51005 60006 81501 90000=
07070,1998-12-07 03:00:00,-1,1028.4,0.5,93,-2,6000,14.816,,,250,,,,,,,,,,,wg-a,,,,AAXX 07034 07070 12756 /2508 11010 21020 30167 40284 51005 60006 81500 90300=
07070,1998-12-07 06:00:00,-3,1028.9,0.5,100,-3,7000,14.816,,,240,-2.6,0.5,,,,,,,,,wg-a,,,,AAXX 07064 07070 02/57 /2408 11030 21030 30172 40289 52005 60006 81032 90600 333 10005 21026 60004=
07070,1998-12-07 09:00:00,-1,1029.7,0.9,93,-2,500,11.112,,,240,,,,,,,,,,,wg-a,,,,AAXX 07094 07070 12/00 /2406 11010 21020 30181 40297 51009 60006 81032 90900=
07070,1998-12-07 12:00:00,3,1030,0.4,81,0,7000,11.112,,,260,,,,,,,,,,,wg-a,,,,AAXX 07124 07070 12/57 /2606 10030 20000 30185 40300 51004 60006 80001 91200=
07070,1998-12-07 15:00:00,3,1030.5,0.5,75,-1,8000,11.112,,,280,,,,,,,,,,,wg-a,,,,AAXX 07154 07070 12/58 /2806 10030 21010 30190 40305 53005 60006 80001 91500=
07070,1998-12-07 18:00:00,-1,1031.5,0.8,93,-2,6000,3.704,,,270,-2.8,3.1,,,,,,,,,wg-a,,,,AAXX 07184 07070 12/56 /2702 11010 21020 30198 40315 51008 60006 80001 91800 333 10031 21028=
07070,1998-12-07 21:00:00,-4,1032.5,0.9,100,-4,7000,7.408,,,190,,,,,,,,,,,wg-a,,,,AAXX 07214 07070 12/57 /1904 11040 21040 30207 40325 51009 60006 80001 92100=
07070,1998-12-08 00:00:00,-5,1032.7,0.2,100,-5,6000,0,,,0,,,,,,,,,,,wg-a,,,,AAXX 08004 07070 12756 20000 11050 21050 30209 40327 52002 60006 82501 90000=
07070,1998-12-08 03:00:00,-2,1032.7,0.1,100,-2,1800,11.112,,,180,,,,,,,,,,10,wg-a,,,,AAXX 08034 07070 12218 71806 11020 21020 30210 40327 52001 60006 71011 876// 90300=
07070,1998-12-08 06:00:00,-1,1032.1,-0.6,100,-1,700,14.816,,,170,-5.2,-0.8,,,,,,,,48,wg-a,,,,AAXX 08064 07070 02007 81708 11010 21010 30204 40321 58006 60006 74841 886// 90600 333 11008 21052 60004=
07070,1998-12-08 09:00:00,0,1032,-0,100,0,3000,14.816,,,170,,,,,,,,,,10,wg-a,,,,AAXX 08094 07070 12330 81708 10000 20000 30204 40320 55000 60006 71042 886// 90900=
07070,1998-12-08 12:00:00,1,1030.8,-1.2,93,0,4000,14.816,,,160,,,,,,,,,,10,wg-a,,,,AAXX 08124 07070 02340 81608 10010 20000 30192 40308 58012 61000 71054 886// 91200 333 6100=
07070,1998-12-08 18:00:00,1,1029.8,-0.2,100,1,2400,11.112,,,160,-0.8,1.5,,,,,,,,10,wg-a,,,,AAXX 08184 07070 02424 71606 10010 20010 30182 40298 58002 61000 71062 8777/ 91800 333 10015 21008 6100=
07070,1998-12-08 21:00:00,2,1028.9,-0.8,93,1,6000,18.52,,,180,,,,,,,,,,,wg-a,,,,AAXX 08214 07070 32/56 /1810 10020 20010 30174 40289 58008 92100=
07070,1998-12-09 00:00:00,2,1027.7,-1.2,100,2,6000,18.52,,,200,,,,0,,,,,,61,wg-a,,,,AAXX 09004 07070 02456 82010 10020 20020 30162 40277 56012 60016 76166 8277/ 90000 333 60007=
07070,1998-12-09 03:00:00,2,1026.5,-1.2,100,2,6000,18.52,,,180,,,,0,,,,,,61,wg-a,,,,AAXX 09034 07070 12456 81810 10020 20020 30150 40265 56012 60007 76166 877// 90300=
07070,1998-12-09 06:00:00,2,1025.7,-0.8,93,1,6000,14.816,,,190,1.2,2.2,,,,,1,,,60,wg-a,,,,AAXX 09064 07070 02556 81908 10020 20010 30142 40257 55008 60014 76066 8477/ 90600 333 10022 20012 61000=
07070,1998-12-09 09:00:00,2,1025.4,-0.3,100,2,3500,22.224,,,170,,,,1,,,,,,10,wg-a,,,,AAXX 09094 07070 12735 81712 10020 20020 30139 40254 57003 60017 71066 8552/ 90900=
07070,1998-12-09 12:00:00,4,1023.9,-1.4,93,3,500,22.224,,,170,,,,1,,,,,,60,wg-a,,,,AAXX 09124 07070 02300 81712 10040 20030 30125 40239 58014 60026 76062 8652/ 91200 333 60017=
07070,1998-12-09 18:00:00,3,1023.6,0.4,100,3,4500,18.52,,,180,1.9,3.6,,,,,,,,10,wg-a,,,,AAXX 09184 07070 02445 81810 10030 20030 30122 40236 50004 61000 71066 885// 91800 333 10036 20019 6001=
07070,1998-12-09 21:00:00,4,1023.5,-0.1,93,3,6000,14.816,,,180,,,,1,,,,,,50,wg-a,,,,AAXX 09214 07070 12356 81808 10040 20030 30121 40235 57001 60017 75065 877// 92100=
07070,1998-12-10 00:00:00,4,1022.8,-0.7,100,4,500,11.112,,,170,,,,,,,,,,51,wg-a,,,,AAXX 10004 07070 02200 81706 10040 20040 30114 40228 58007 60026 75165 886// 90000 333 61000=
07070,1998-12-10 03:00:00,4,1022.4,-0.3,100,4,500,7.408,,,190,,,,0,,,,,,51,wg-a,,,,AAXX 10034 07070 12100 81904 10040 20040 30111 40224 56003 60007 75166 877// 90300=
07070,1998-12-10 06:00:00,6,1021.9,-0.5,93,5,500,14.816,,,240,3.4,5.7,,,,,,,,50,wg-a,,,,AAXX 10064 07070 02200 82408 10060 20050 30106 40219 56005 61000 75065 877// 90600 333 10057 20034 6002=
07070,1998-12-10 09:00:00,6,1022.4,0.5,100,6,2500,14.816,,,250,,,,,,,,,,10,wg-a,,,,AAXX 10094 07070 02225 82508 10060 20060 30111 40224 50005 61000 71052 886// 90900 333 ////=
07070,1998-12-10 12:00:00,8,1020.8,-1.5,93,7,7000,7.408,,,250,,,,,,,,,,1,wg-a,,,,AAXX 10124 07070 02257 72504 10080 20070 30096 40208 58015 61000 70152 876// 91200 333 ////=
07070,1998-12-10 15:00:00,8,1019,-1.7,93,7,7000,11.112,,,160,,,,,,,,,,,wg-a,,,,AAXX 10154 07070 12357 71606 10080 20070 30079 40190 56017 60006 876// 91500=
07070,1998-12-10 18:00:00,7,1018.1,-1,93,6,6000,14.816,,,190,5.7,8.1,,,,,,,,,wg-a,,,,AAXX 10184 07070 12256 81908 10070 20060 30069 40181 56010 60006 886// 91800 333 10081 20057=
07070,1998-12-10 21:00:00,6,1016,-2.1,100,6,6000,18.52,,,170,,,,,,,,,,,wg-a,,,,AAXX 10214 07070 12356 81710 10060 20060 30048 40160 58021 60006 8457/ 92100=
07070,1998-12-11 00:00:00,6,1013.7,-2.3,93,5,6000,14.816,,,190,,,,1,,,,,,61,wg-a,,,,AAXX 11004 07070 02356 81908 10060 20050 30025 40137 56023 60016 76162 875// 90000 333 60017=
07070,1998-12-11 03:00:00,6,1013.7,-0,93,5,4500,0,,,0,,,,2,,,,,,10,wg-a,,,,AAXX 11034 07070 12245 80000 10060 20050 30025 40137 55000 60027 71062 886// 90300=
07070,1998-12-11 06:00:00,7,1015,1.4,100,7,3000,11.112,,,300,5.6,7.6,,,,,,,,10,wg-a,,,,AAXX 11064 07070 02130 83006 10070 20070 30039 40150 53014 61000 71065 885// 90600 333 10076 20056 6004=
07070,1998-12-11 09:00:00,8,1017.9,2.9,93,7,7000,14.816,,,290,,,,,,,,,,,wg-a,,,,AAXX 11094 07070 32/57 /2908 10080 20070 30068 40179 51029 90900=
07070,1998-12-11 12:00:00,9,1019.1,1.2,87,7,8000,18.52,,,290,,,,,,,,,,3,wg-a,,,,AAXX 11124 07070 12458 72910 10090 20070 30080 40191 51012 60006 70365 878// 91200=
07070,1998-12-11 15:00:00,10,1020.2,1.1,87,8,10000,11.112,,,250,,,,,,,,,,,wg-a,,,,AAXX 11154 07070 12460 72506 10100 20080 30091 40202 53011 60006 878// 91500=
07070,1998-12-11 18:00:00,7,1022,1.7,93,6,9000,11.112,,,230,6.8,9.9,,,,,,,,,wg-a,,,,AAXX 11184 07070 12559 72306 10070 20060 30108 40220 53017 60006 84501 91800 333 10099 20068=
07070,1998-12-11 21:00:00,7,1022.7,0.7,93,6,6000,7.408,,,210,,,,,,,,,,,wg-a,,,,AAXX 11214 07070 12656 22104 10070 20060 30115 40227 53007 60006 82500 92100=
07070,1998-12-12 00:00:00,7,1022.3,-0.4,93,6,8000,11.112,,,210,,,,,,,,,,,wg-a,,,,AAXX 12004 07070 12658 82106 10070 20060 30111 40223 58004 60006 84570 90000=
07070,1998-12-12 03:00:00,7,1022.3,0,93,6,8000,14.816,,,170,,,,,,,,,,,wg-a,,,,AAXX 12034 07070 32/58 /1708 10070 20060 30111 40223 50000 90300=
07070,1998-12-12 06:00:00,8,1020.7,-1.6,93,7,6000,18.52,,,200,6.1,7.8,,,,,,,,61,wg-a,,,,AAXX 12064 07070 02456 82010 10080 20070 30095 40207 56016 61000 76162 875// 90600 333 10078 20061 6001=
07070,1998-12-12 09:00:00,9,1020.4,-0.2,93,8,2500,18.52,,,210,,,,1,,,,,,63,wg-a,,,,AAXX 12094 07070 12425 82110 10090 20080 30093 40204 55002 60017 76366 875// 90900=
07070,1998-12-12 12:00:00,10,1019.6,-0.8,93,9,500,14.816,,,210,,,,2,,,,,,60,wg-a,,,,AAXX 12124 07070 02300 82108 10100 20090 30085 40196 58008 60036 76062 877// 91200 333 60027=
07070,1998-12-12 15:00:00,12,1019.7,0.2,100,12,8000,18.52,,,240,,,,,,,,,,21,wg-a,,,,AAXX 12154 07070 02258 82410 10120 20120 30087 40197 53002 61000 72162 877// 91500 333 ////=
07070,1998-12-12 18:00:00,13,1019.8,0.2,94,12,8000,18.52,,,220,7.8,13.2,,,,,,,,,wg-a,,,,AAXX 12184 07070 12/58 /2210 10130 20120 30089 40198 50002 60006 91800 333 10132 20078=
07070,1998-12-12 21:00:00,15,1019,-0.8,88,13,8000,35.188,,51.856,240,,,,,,,,,,,wg-a,,,,AAXX 12214 07070 12458 72419 10150 20130 30081 40190 56008 60006 875// 92100 333 91028=
07070,1998-12-13 00:00:00,14,1019.7,0.7,88,12,25000,31.484,,,250,,,,0,,,,,,21,wg-a,,,,AAXX 13004 07070 02375 72517 10140 20120 30088 40197 53007 60006 72165 875// 90000 333 60007=
07070,1998-12-13 03:00:00,12,1023.3,3.5,82,9,25000,22.224,,,270,,,,,,,,,,,wg-a,,,,AAXX 13034 07070 12575 42712 10120 20090 30123 40233 51035 60006 84500 90300=
07070,1998-12-13 06:00:00,10,1027.7,4.2,82,7,25000,22.224,,,260,10.2,14.6,,,,,5,,,,wg-a,,,,AAXX 13064 07070 02575 42612 10100 20070 30165 40277 53042 60006 84500 90600 333 10146 20102 60054=
07070,1998-12-13 09:00:00,10,1030.9,3.2,82,7,25000,29.632,,,260,,,,,,,,,,,wg-a,,,,AAXX 13094 07070 12575 72616 10100 20070 30197 40309 53032 60006 8477/ 90900=
07070,1998-12-13 12:00:00,11,1032.5,1.6,76,7,25000,29.632,,,280,,,,,,,,,,,wg-a,,,,AAXX 13124 07070 12575 /2816 10110 20070 30213 40325 51016 60006 83170 91200=
07070,1998-12-13 15:00:00,10,1033.4,0.9,76,6,25000,14.816,,,260,,,,,,,,,,,wg-a,,,,AAXX 13154 07070 12/75 72608 10100 20060 30222 40334 51009 60006 84032 91500=
07070,1998-12-13 18:00:00,7,1034.2,0.6,87,5,20000,7.408,,,220,6.9,10.7,,,,,,,,,wg-a,,,,AAXX 13184 07070 12/70 72204 10070 20050 30228 40342 50006 60006 83032 91800 333 10107 20069=
07070,1998-12-13 21:00:00,7,1034,-0.1,93,6,15000,11.112,,,210,,,,,,,,,,,wg-a,,,,AAXX 13214 07070 12465 72106 10070 20060 30227 40340 58001 60006 81732 92100=
07070,1998-12-14 00:00:00,8,1033,-1,93,7,15000,14.816,,,230,,,,,,,,,,,wg-a,,,,AAXX 14004 07070 12/65 72308 10080 20070 30217 40330 57010 60006 82032 90000=
07070,1998-12-14 06:00:00,8,1031.8,-0.8,93,7,10000,7.408,,,210,5.2,7.9,,,,,,,,,wg-a,,,,AAXX 14064 07070 02260 82104 10080 20070 30205 40318 57008 60006 886// 90600 333 10079 20052 60004=
07070,1998-12-14 09:00:00,10,1032.3,0.6,93,9,9000,7.408,,,220,,,,,,,,,,,wg-a,,,,AAXX 14094 07070 12259 82204 10100 20090 30211 40323 53006 60006 886// 90900=
07070,1998-12-14 12:00:00,11,1031.9,-0.4,87,9,8000,18.52,,,230,,,,,,,,,,,wg-a,,,,AAXX 14124 07070 12258 82310 10110 20090 30207 40319 58004 60006 886// 91200=
07070,1998-12-14 15:00:00,11,1031.1,-0.7,94,10,500,22.224,,,240,,,,,,,,,,,wg-a,,,,AAXX 14154 07070 12300 82412 10110 20100 30200 40311 56007 60006 886// 91500=
07070,1998-12-14 18:00:00,11,1031.7,0.5,94,10,6000,14.816,,,240,7.9,11.2,,,,,,,,,wg-a,,,,AAXX 14184 07070 12256 82408 10110 20100 30205 40317 53005 60006 886// 91800 333 10112 20079=
07070,1998-12-15 00:00:00,10,1031.2,-0.6,93,9,8000,14.816,,,230,,,,,,,,,,20,wg-a,,,,AAXX 15004 07070 02258 82308 10100 20090 30200 40312 56006 61000 72052 886// 90000 333 ////=
07070,1998-12-15 06:00:00,8,1030.3,-0.1,93,7,8000,3.704,,,220,8.3,10.8,,,,,,,,,wg-a,,,,AAXX 15064 07070 02258 82202 10080 20070 30190 40303 55001 60006 886// 90600 333 10108 20083 61000=
07070,1998-12-15 09:00:00,7,1030.1,-0.2,100,7,1800,11.112,,,170,,,,,,,,,,10,wg-a,,,,AAXX 15094 07070 12118 81706 10070 20070 30188 40301 58002 60006 71022 886// 90900=
07070,1998-12-15 12:00:00,7,1029.3,-0.8,100,7,500,11.112,,,250,,,,,,,,,,,wg-a,,,,AAXX 15124 07070 12200 82506 10070 20070 30180 40293 58008 60006 886// 91200=
07070,1998-12-15 15:00:00,7,1028.4,-0.9,100,7,4000,11.112,,,220,,,,,,,,,,10,wg-a,,,,AAXX 15154 07070 12240 82206 10070 20070 30171 40284 56009 60006 71022 886// 91500=
07070,1998-12-15 18:00:00,7,1028.8,0.4,100,7,1800,7.408,,,220,7,8.3,,,,,,,,50,wg-a,,,,AAXX 15184 07070 02118 82204 10070 20070 30175 40288 53004 61000 75052 886// 91800 333 10083 20070 6100=
07070,1998-12-15 21:00:00,8,1028.8,-0,100,8,4000,11.112,,,210,,,,,,,,,,10,wg-a,,,,AAXX 15214 07070 02240 72106 10080 20080 30175 40288 54000 61000 71052 877// 92100 333 ////=
07070,1998-12-16 00:00:00,10,1030.4,1.7,93,9,6000,14.816,,,260,,,,0,,,,,,20,wg-a,,,,AAXX 16004 07070 02456 82608 10100 20090 30192 40304 53017 60006 72052 875// 90000 333 60007=
07070,1998-12-16 03:00:00,8,1032.3,1.8,93,7,500,11.112,,,280,,,,,,,,,,,wg-a,,,,AAXX 16034 07070 32/00 /2806 10080 20070 30210 40323 53018 90300=
07070,1998-12-16 06:00:00,6,1034,1.6,100,6,400,7.408,,,210,5.7,9.7,,,,,,,,44,wg-a,,,,AAXX 16064 07070 02/04 02104 10060 20060 30226 40340 51016 60006 74441 80000 90600 333 10097 20057 60004=
07070,1998-12-16 09:00:00,5,1035.4,1.3,100,5,300,3.704,,,130,,,,,,,,,,42,wg-a,,,,AAXX 16094 07070 02403 71302 10050 20050 30239 40354 51013 61000 74244 83531 90900 333 ////=
07070,1998-12-16 12:00:00,8,1035.1,-0.1,100,8,2500,7.408,,,340,,,,,,,,,,10,wg-a,,,,AAXX 16124 07070 02225 53404 10080 20080 30238 40351 58001 61000 71041 83601 91200 333 6100=
07070,1998-12-16 15:00:00,8,1034.4,-0.7,100,8,1800,7.408,,,90,,,,,,,,,,10,wg-a,,,,AAXX 16154 07070 02218 70904 10080 20080 30231 40344 55007 61000 71022 86601 91500 333 ////=
07070,1998-12-16 18:00:00,7,1034.5,0,100,7,2000,14.816,,,130,4.3,8.5,,,,,,,,10,wg-a,,,,AAXX 16184 07070 02220 81308 10070 20070 30231 40345 50000 60006 71042 886// 91800 333 10085 20043 61000=
07070,1998-12-16 21:00:00,7,1034.3,-0.2,93,6,4000,11.112,,,170,,,,,,,,,,10,wg-a,,,,AAXX 16214 07070 12340 81706 10070 20060 30229 40343 58002 60006 71022 886// 92100=
07070,1998-12-17 00:00:00,5,1033,-1.3,100,5,4000,14.816,,,150,,,,,,,,,,10,wg-a,,,,AAXX 17004 07070 12240 81508 10050 20050 30216 40330 58013 60006 71022 886// 90000=
07070,1998-12-17 03:00:00,3,1031.2,-1.9,100,3,800,7.408,,,160,,,,,,,,,,45,wg-a,,,,AAXX 17034 07070 12/08 91604 10030 20030 30197 40312 56019 60006 74542 89/// 90300=
07070,1998-12-17 06:00:00,1,1030.4,-0.9,100,1,300,7.408,,,110,1.1,7,,,,,,,,45,wg-a,,,,AAXX 17064 07070 02/03 91104 10010 20010 30188 40304 56009 60006 74542 89/// 90600 333 10070 20011 60004=
07070,1998-12-17 12:00:00,7,1027.2,-2.2,76,3,10000,11.112,,,90,,,,0,,,,,,2,wg-a,,,,AAXX 17124 07070 02/60 20906 10070 20030 30159 40272 58022 60006 70241 80001 91200 333 60007=
07070,1998-12-17 18:00:00,5,1024.3,-0.8,81,2,20000,11.112,,,190,0.5,9.1,,,,,,,,,wg-a,,,,AAXX 17184 07070 12/70 01906 10050 20020 30130 40243 56008 60006 80000 91800 333 10091 20005=
07070,1998-12-17 21:00:00,3,1023.8,-0.6,87,1,15000,3.704,,,70,,,,,,,,,,,wg-a,,,,AAXX 17214 07070 32/65 00702 10030 20010 30124 40238 55006 80000 92100=
07070,1998-12-18 00:00:00,3,1023.4,-0.4,93,2,15000,11.112,,,260,,,,,,,,,,,wg-a,,,,AAXX 18004 07070 12/65 02606 10030 20020 30120 40234 57004 60006 80000 90000=
07070,1998-12-18 06:00:00,5,1024.1,0.3,93,4,6000,7.408,,,230,1.8,4.7,,,,,,,,50,wg-a,,,,AAXX 18064 07070 02256 72304 10050 20040 30128 40241 52003 61000 75051 876// 90600 333 10047 20018 6000=
07070,1998-12-18 09:00:00,5,1023.4,-0.7,93,4,3500,18.52,,,190,,,,,,,,,,10,wg-a,,,,AAXX 18094 07070 02435 71910 10050 20040 30121 40234 56007 61000 71052 876// 90900 333 ////=
07070,1998-12-18 12:00:00,7,1021.6,-1.7,93,6,4000,22.224,,,150,,,,,,,,,,61,wg-a,,,,AAXX 18124 07070 02340 81512 10070 20060 30104 40216 58017 61000 76165 876// 91200 333 6100=
07070,1998-12-18 15:00:00,8,1019.6,-2,93,7,2500,14.816,,,220,,,,2,,,,,,61,wg-a,,,,AAXX 18154 07070 12325 82208 10080 20070 30084 40196 56020 60027 76166 886// 91500=
07070,1998-12-18 18:00:00,8,1018.1,-1.4,100,8,6000,18.52,,,210,4.6,8.5,,,,,,,,20,wg-a,,,,AAXX 18184 07070 02256 82110 10080 20080 30070 40181 56014 61000 72065 886// 91800 333 10085 20046 6000=
07070,1998-12-18 21:00:00,9,1016.2,-1.9,93,8,10000,14.816,,,220,,,,,,,,,,,wg-a,,,,AAXX 18214 07070 12360 82208 10090 20080 30051 40162 57019 60006 885// 92100=
07070,1998-12-19 00:00:00,9,1013.5,-2.6,87,7,10000,25.928,,,230,,,,,,,,,,,wg-a,,,,AAXX 19004 07070 12460 /2314 10090 20070 30025 40135 58026 60006 86500 90000=
07070,1998-12-19 03:00:00,8,1012.3,-1.3,87,6,10000,25.928,,,250,,,,2,,,,,,21,wg-a,,,,AAXX 19034 07070 12460 72514 10080 20060 30012 40123 56013 60027 72162 875// 90300=
07070,1998-12-19 06:00:00,8,1011.9,-0.4,87,6,11000,42.596,,62.968,270,7.3,9.5,,,,,5,,,,wg-a,,,,AAXX 19064 07070 02/61 /2723 10080 20060 30008 40119 55004 60006 90600 333 10095 20073 60054 91034=
07070,1998-12-19 09:00:00,7,1016.3,4.3,87,5,15000,25.928,,,290,,,,,,,,,,25,wg-a,,,,AAXX 19094 07070 02465 /2914 10070 20050 30051 40163 51043 61000 72586 86800 90900 333 ////=
07070,1998-12-19 12:00:00,9,1017.1,0.9,66,3,25000,35.188,,,270,,,,,,,,,,1,wg-a,,,,AAXX 19124 07070 02575 /2719 10090 20030 30060 40171 51009 61000 70186 85200 91200 333 ////=
07070,1998-12-19 15:00:00,7,1016.8,-0.4,81,4,25000,22.224,,,260,,,,,,,,,,,wg-a,,,,AAXX 19154 07070 12675 72612 10070 20040 30056 40168 58004 60006 82802 91500=
07070,1998-12-19 18:00:00,6,1016.4,-0.4,81,3,25000,22.224,,,250,6,8.9,,,,,,,,,wg-a,,,,AAXX 19184 07070 12675 32512 10060 20030 30052 40164 58004 60006 83500 91800 333 10089 20060=
07070,1998-12-19 21:00:00,5,1015,-1.4,87,3,25000,14.816,,,240,,,,,,,,,,,wg-a,,,,AAXX 19214 07070 12675 32408 10050 20030 30038 40150 58014 60006 83500 92100=
07070,1998-12-20 00:00:00,5,1012.7,-2.3,93,4,10000,7.408,,,240,,,,,,,,,,,wg-a,,,,AAXX 20004 07070 12560 72404 10050 20040 30015 40127 58023 60006 875// 90000=
07070,1998-12-20 03:00:00,4,1010.2,-2.5,93,3,10000,3.704,,,100,,,,0,,,,,,,wg-a,,,,AAXX 20034 07070 12460 71002 10040 20030 39990 40102 57025 60007 875// 90300=
07070,1998-12-20 06:00:00,4,1007.7,-2.5,93,3,8000,11.112,,,140,3.6,6,,,,,1,,,,wg-a,,,,AAXX 20064 07070 02/58 /1406 10040 20030 39965 40077 56025 60006 90600 333 10060 20036 60014=
07070,1998-12-20 09:00:00,4,1008.1,0.4,93,3,500,14.816,,,70,,,,0,,,,,,51,wg-a,,,,AAXX 20094 07070 12300 70708 10040 20030 39969 40081 53004 60007 75165 875// 90900=
07070,1998-12-20 12:00:00,5,1008.6,0.6,93,4,8000,22.224,,,50,,,,,,,,,,1,wg-a,,,,AAXX 20124 07070 02458 50512 10050 20040 39975 40086 51006 60016 70165 84801 91200 333 61000=
07070,1998-12-20 15:00:00,5,1010.6,1.9,75,1,25000,25.928,,,30,,,,,,,,,,,wg-a,,,,AAXX 20154 07070 12575 /0314 10050 20010 39994 40106 53019 60006 83201 91500=
07070,1998-12-20 18:00:00,2,1014.1,3.3,80,-1,25000,22.224,,,360,1.7,6.2,,,,,,,,,wg-a,,,,AAXX 20184 07070 12/75 33612 10020 21010 30027 40141 53033 60006 80001 91800 333 10062 20017=
07070,1998-12-20 21:00:00,1,1016.6,2.5,86,-1,25000,14.816,,,350,,,,,,,,,,,wg-a,,,,AAXX 20214 07070 12/75 03508 10010 21010 30052 40166 53025 60006 80000 92100=
07070,1998-12-21 00:00:00,0,1018.1,1.4,93,-1,0,14.816,,,340,,,,,,,,,,,wg-a,,,,AAXX 21004 07070 12/// /3408 10000 21010 30066 40181 51014 60006 90000=
07070,1998-12-21 06:00:00,1,1020.8,1.3,93,0,7000,14.816,,,320,-0.5,1.8,,,,,,,,51,wg-a,,,,AAXX 21064 07070 02357 83208 10010 20000 30093 40208 53013 61000 75176 887// 90600 333 10018 21005 6000=
07070,1998-12-21 09:00:00,1,1023,2.2,100,1,6000,18.52,,,320,,,,,,,,,,3,wg-a,,,,AAXX 21094 07070 02356 73210 10010 20010 30115 40230 53022 61000 70376 835// 90900 333 ////=
07070,1998-12-21 12:00:00,3,1024.1,1.2,87,1,11000,18.52,,,320,,,,,,,,,,,wg-a,,,,AAXX 21124 07070 02/61 /3210 10030 20010 30127 40241 51012 61000 91200 333 ////=
07070,1998-12-21 15:00:00,2,1024.9,0.7,87,0,20000,11.112,,,320,,,,,,,,,,,wg-a,,,,AAXX 21154 07070 12470 63206 10020 20000 30134 40249 53007 60006 83831 91500=
07070,1998-12-21 18:00:00,1,1026.6,1.7,86,-1,20000,11.112,,,310,0.8,3.3,,,,,,,,,wg-a,,,,AAXX 21184 07070 12470 73106 10010 21010 30151 40266 51017 60006 86532 91800 333 10033 20008=
07070,1998-12-21 21:00:00,0,1027.7,1,93,-1,20000,11.112,,,240,,,,,,,,,,,wg-a,,,,AAXX 21214 07070 12570 72406 10000 21010 30161 40277 53010 60006 8257/ 92100=
07070,1998-12-22 00:00:00,0,1027.5,-0.2,86,-2,15000,7.408,,,230,,,,,,,,,,,wg-a,,,,AAXX 22004 07070 12/65 72304 10000 21020 30159 40275 55002 60006 85031 90000=
07070,1998-12-22 03:00:00,1,1027.3,-0.2,80,-2,15000,14.816,,,230,,,,,,,,,,,wg-a,,,,AAXX 22034 07070 12665 72308 10010 21020 30157 40273 58002 60006 875// 90300=
07070,1998-12-22 06:00:00,0,1027,-0.3,93,-1,12000,3.704,,,210,-0.5,1,,,,,,,,,wg-a,,,,AAXX 22064 07070 02762 72102 10000 21010 30154 40270 55003 60006 875// 90600 333 10010 21005 61000=
07070,1998-12-22 09:00:00,2,1027.6,0.7,87,0,8000,14.816,,,240,,,,,,,,,,,wg-a,,,,AAXX 22094 07070 12558 72408 10020 20000 30161 40276 51007 60006 875// 90900=
07070,1998-12-22 12:00:00,3,1027.4,-0.2,87,1,6000,11.112,,,220,,,,0,,,,,,61,wg-a,,,,AAXX 22124 07070 02556 72206 10030 20010 30159 40274 58002 60016 76176 875// 91200 333 60007=
07070,1998-12-22 15:00:00,4,1027.1,-0.2,87,2,6000,7.408,,,210,,,,0,,,,,,60,wg-a,,,,AAXX 22154 07070 12556 72104 10040 20020 30157 40271 55002 60007 76062 875// 91500=
07070,1998-12-22 18:00:00,3,1027.5,0.3,93,2,500,7.408,,,200,0.4,4.3,,,,,,,,21,wg-a,,,,AAXX 22184 07070 02400 72004 10030 20020 30160 40275 50003 61000 72162 875// 91800 333 10043 20004 6000=
07070,1998-12-22 21:00:00,3,1027.4,-0.1,87,1,10000,14.816,,,190,,,,0,,,,,,21,wg-a,,,,AAXX 22214 07070 12460 71908 10030 20010 30159 40274 55001 60007 72162 875// 92100=
07070,1998-12-23 00:00:00,2,1027.4,0,87,0,10000,3.704,,,170,,,,,,,,,,1,wg-a,,,,AAXX 23004 07070 12760 61702 10020 20000 30159 40274 50000 60006 70162 82530 90000=
07070,1998-12-23 03:00:00,1,1026.4,-1,93,0,10000,11.112,,,150,,,,,,,,,,,wg-a,,,,AAXX 23034 07070 12/60 /1506 10010 20000 30149 40264 58010 60006 90300=
07070,1998-12-23 06:00:00,-1,1025.7,-0.8,100,-1,10000,0,,,0,-0.6,3,,,,,1,,,,wg-a,,,,AAXX 23064 07070 02/60 00000 11010 21010 30141 40257 56008 60006 80000 90600 333 10030 21006 60014=
07070,1998-12-23 09:00:00,0,1025.2,-0.5,93,-1,500,7.408,,,70,,,,,,,,,,,wg-a,,,,AAXX 23094 07070 12/00 40704 10000 21010 30136 40252 56005 60006 81031 90900=
07070,1998-12-23 12:00:00,4,1022.6,-2.4,81,1,10000,11.112,,,180,,,,,,,,,,,wg-a,,,,AAXX 23124 07070 12/60 61806 10040 20010 30112 40226 58024 60006 80001 91200=
07070,1998-12-23 15:00:00,3,1020.4,-2.2,87,1,12000,7.408,,,140,,,,,,,,,,,wg-a,,,,AAXX 23154 07070 12/62 71404 10030 20010 30090 40204 57022 60006 82032 91500=
07070,1998-12-23 18:00:00,1,1019,-1.4,86,-1,10000,14.816,,,150,-1.5,4.1,,,,,,,,,wg-a,,,,AAXX 23184 07070 12/60 71508 10010 21010 30076 40190 58014 60006 81032 91800 333 10041 21015=
07070,1998-12-24 00:00:00,0,1018,-0.7,86,-2,10000,7.408,,,200,,,,,,,,,,0,wg-a,,,,AAXX 24004 07070 32/60 72004 10000 21020 30065 40180 58007 700// 80002 90000=
07070,1998-12-24 03:00:00,2,1018,0.1,87,0,10000,11.112,,,220,,,,,,,,,,0,wg-a,,,,AAXX 24034 07070 32/60 72206 10020 20000 30066 40180 50001 700// 80002 90300=
07070,1998-12-24 06:00:00,1,1019.1,1.1,100,1,500,18.52,,,240,-0.4,1.6,,1,,,,,,,wg-a,,,,AAXX 24064 07070 12/00 /2410 10010 20010 30077 40191 53011 60017 90600 333 10016 21004=
07070,1998-12-24 12:00:00,5,1023.5,1.5,87,3,7000,14.816,,,300,,,,,,,,,,1,wg-a,,,,AAXX 24124 07070 32457 53008 10050 20030 30122 40235 51015 70162 85800 91200=
07070,1998-12-24 15:00:00,5,1024.8,1.3,87,3,10000,14.816,,,240,,,,,,,,,,0,wg-a,,,,AAXX 24154 07070 32560 /2408 10050 20030 30135 40248 53013 700// 81250 91500=
07070,1998-12-24 18:00:00,2,1026.4,1.4,87,0,10000,7.408,,,210,1.4,5.9,,,,,,,,0,wg-a,,,,AAXX 24184 07070 32560 32104 10020 20000 30149 40264 51014 700// 81231 91800 333 10059 20014=
07070,1998-12-24 21:00:00,3,1027.1,0.7,93,2,7000,14.816,,,210,,,,,,,,,,0,wg-a,,,,AAXX 24214 07070 32757 72108 10030 20020 30156 40271 51007 700// 8253/ 92100=
07070,1998-12-25 00:00:00,4,1026.6,-0.4,87,2,7000,14.816,,,210,,,,,,,,,,60,wg-a,,,,AAXX 25004 07070 02457 82108 10040 20020 30152 40266 58004 61000 76061 8567/ 90000 333 ////=
07070,1998-12-25 03:00:00,4,1025.8,-0.8,87,2,7000,18.52,,,190,,,,,,,,,,50,wg-a,,,,AAXX 25034 07070 02457 81910 10040 20020 30144 40258 58008 61000 75065 8652/ 90300 333 ////=
07070,1998-12-25 06:00:00,5,1025.4,-0.4,93,4,500,18.52,,,210,0.7,4.6,,0,,,,,,51,wg-a,,,,AAXX 25064 07070 02300 82110 10050 20040 30140 40254 55004 60004 75165 886// 90600 333 10046 20007 60007=
07070,1998-12-25 09:00:00,5,1026.1,0.8,100,5,500,14.816,,,210,,,,,,,,,,53,wg-a,,,,AAXX 25094 07070 02300 82108 10050 20050 30148 40261 53008 61000 75352 887// 90900 333 ////=
07070,1998-12-25 12:00:00,7,1025.2,-0.9,93,6,15000,18.52,,,200,,,,,,,,,,20,wg-a,,,,AAXX 25124 07070 02365 82010 10070 20060 30139 40252 58009 61000 72052 877// 91200 333 ////=
07070,1998-12-25 15:00:00,7,1024.2,-0.9,93,6,15000,14.816,,,200,,,,,,,,,,0,wg-a,,,,AAXX 25154 07070 32365 82008 10070 20060 30130 40242 56009 700// 877// 91500=
07070,1998-12-25 18:00:00,8,1022.6,-1.6,87,6,10000,22.224,,,210,4.6,7.5,,,,,,,,0,wg-a,,,,AAXX 25184 07070 32460 82112 10080 20060 30114 40226 58016 700// 877// 91800 333 10075 20046=
07070,1998-12-26 00:00:00,9,1020.1,-0.2,87,7,15000,35.188,,53.708,220,,,,0,,,,,,20,wg-a,,,,AAXX 26004 07070 02465 82219 10090 20070 30090 40201 56002 60016 72065 886// 90000 333 60007 91029=
07070,1998-12-26 03:00:00,9,1021,0.9,87,7,15000,22.224,,,230,,,,,,,,,,,wg-a,,,,AAXX 26034 07070 12465 72312 10090 20070 30099 40210 53009 60006 86602 90300=
07070,1998-12-26 06:00:00,8,1021.5,0.4,87,6,15000,18.52,,,220,7.4,9.2,,,,,,,,,wg-a,,,,AAXX 26064 07070 02465 82210 10080 20060 30103 40215 52004 60006 875// 90600 333 10092 20074 60004=
07070,1998-12-26 09:00:00,8,1021.6,0.1,93,7,8000,22.224,,,220,,,,,,,,,,,wg-a,,,,AAXX 26094 07070 12358 72212 10080 20070 30104 40216 51001 60006 8522/ 90900=
07070,1998-12-26 12:00:00,7,1019.2,-2.4,93,6,8000,18.52,,,220,,,,0,,,,,,21,wg-a,,,,AAXX 26124 07070 02358 82210 10070 20060 30080 40192 58024 60006 72162 876// 91200 333 60007=
07070,1998-12-26 15:00:00,8,1015.3,-3.8,87,6,10000,22.224,,,210,,,,0,,,,,,61,wg-a,,,,AAXX 26154 07070 12460 82112 10080 20060 30042 40153 58038 60007 76162 878// 91500=
07070,1998-12-26 18:00:00,9,1011.9,-3.3,93,8,10000,35.188,,57.412,210,7.1,9.1,,,,,,,,61,wg-a,,,,AAXX 26184 07070 02460 82119 10090 20080 30009 40119 58033 61000 76162 888// 91800 333 10091 20071 6001 91031=
07070,1998-12-26 21:00:00,8,1010.6,-1.4,81,5,15000,31.484,,,210,,,,0,,,,,,21,wg-a,,,,AAXX 26214 07070 12565 72117 10080 20050 39995 40106 56014 60007 72162 875// 92100=
07070,1998-12-27 00:00:00,10,1010,-0.5,82,7,15000,38.892,,59.264,220,,,,,,,,,,3,wg-a,,,,AAXX 27004 07070 12465 82221 10100 20070 39990 40100 55005 60006 70362 885// 90000 333 91032=
07070,1998-12-27 03:00:00,9,1010.1,0.1,93,8,10000,22.224,,,230,,,,0,,,,,,,wg-a,,,,AAXX 27034 07070 12360 82312 10090 20080 39991 40101 53001 60007 887// 90300=
07070,1998-12-27 06:00:00,8,1010.1,0,100,8,2500,11.112,,,280,8.1,9.8,,,,,,,,63,wg-a,,,,AAXX 27064 07070 02125 82806 10080 20080 39991 40101 50000 61000 76362 887// 90600 333 10098 20081 6008=
07070,1998-12-27 09:00:00,10,1007.8,-2.2,93,9,10000,35.188,,53.708,220,,,,3,,,,,,21,wg-a,,,,AAXX 27094 07070 12460 82219 10100 20090 39969 40078 56022 60037 72162 882// 90900 333 91029=
07070,1998-12-27 12:00:00,11,1006.1,-1.7,76,7,20000,35.188,,59.264,210,,,,,,,,,,1,wg-a,,,,AAXX 27124 07070 02570 72119 10110 20070 39952 40061 58017 60036 70162 8653/ 91200 333 61000 91032=
07070,1998-12-27 15:00:00,13,1005.4,-0.6,62,6,20000,38.892,,57.412,230,,,,,,,,,,1,wg-a,,,,AAXX 27154 07070 02670 72321 10130 20060 39946 40054 55006 61000 70162 875// 91500 333 //// 91031=
07070,1998-12-27 18:00:00,12,1007,1.6,67,6,20000,35.188,,55.56,220,7.8,12.6,,,,,,,,3,wg-a,,,,AAXX 27184 07070 12570 72219 10120 20060 39962 40070 51016 60006 70362 875// 91800 333 10126 20078 91030=
07070,1998-12-27 21:00:00,12,1007.1,-0,67,6,20000,25.928,,,220,,,,,,,,,,21,wg-a,,,,AAXX 27214 07070 02570 82214 10120 20060 39962 40071 55000 61000 72162 875// 92100 333 ////=
07070,1998-12-28 00:00:00,12,1008.3,1.2,67,6,25000,22.224,,,220,,,,,,,,,,1,wg-a,,,,AAXX 28004 07070 02575 82212 10120 20060 39974 40083 53012 61000 70162 8452/ 90000 333 ////=
07070,1998-12-28 03:00:00,9,1009.2,0.8,76,5,25000,14.816,,,170,,,,,,,,,,,wg-a,,,,AAXX 28034 07070 12575 81708 10090 20050 39982 40092 52008 60006 875// 90300=
07070,1998-12-28 06:00:00,9,1008.9,-0.3,76,5,25000,22.224,,,180,8.4,12.7,,,,,3,,,,wg-a,,,,AAXX 28064 07070 02575 81812 10090 20050 39979 40089 55003 60006 8552/ 90600 333 10127 20084 60034=
07070,1998-12-28 09:00:00,9,1010.9,2,76,5,15000,25.928,,,240,,,,,,,,,,,wg-a,,,,AAXX 28094 07070 12565 82414 10090 20050 39999 40109 53020 60006 875// 90900=
07070,1998-12-28 12:00:00,8,1012.5,1.5,87,6,10000,14.816,,,220,,,,0,,,,,,60,wg-a,,,,AAXX 28124 07070 02460 82208 10080 20060 30014 40125 51015 60016 76062 8787/ 91200 333 60007=
07070,1998-12-28 18:00:00,6,1015.6,1.6,87,4,15000,14.816,,,200,6.1,9.5,,,,,,,,2,wg-a,,,,AAXX 28184 07070 02465 72008 10060 20040 30044 40156 52016 60006 70262 8287/ 91800 333 10095 20061 61000=
07070,1998-12-28 21:00:00,3,1017.6,1.9,93,2,500,14.816,,,140,,,,,,,,,,,wg-a,,,,AAXX 28214 07070 12/00 01408 10030 20020 30063 40176 51019 60006 80000 92100=
07070,1998-12-29 00:00:00,2,1018.7,1,93,1,500,11.112,,,200,,,,,,,,,,,wg-a,,,,AAXX 29004 07070 12400 22006 10020 20010 30073 40187 50010 60006 82800 90000=
07070,1998-12-29 03:00:00,2,1018,-0.7,93,1,8000,11.112,,,150,,,,,,,,,,,wg-a,,,,AAXX 29034 07070 12658 /1506 10020 20010 30066 40180 58007 60006 81500 90300=
07070,1998-12-29 06:00:00,1,1016.9,-1.1,100,1,8000,7.408,,,110,1,6.2,,,,,1,,,11,wg-a,,,,AAXX 29064 07070 02/58 01104 10010 20010 30055 40169 56011 60006 71111 80000 90600 333 10062 20010 60014=
07070,1998-12-29 09:00:00,1,1016.3,-0.6,100,1,15000,14.816,,,110,,,,,,,,,,,wg-a,,,,AAXX 29094 07070 12765 61108 10010 20010 30049 40163 56006 60006 815/1 90900=
07070,1998-12-29 12:00:00,8,1013.3,-2.7,87,6,10000,18.52,,,140,,,,,,,,,,,wg-a,,,,AAXX 29124 07070 12/60 61410 10080 20060 30022 40133 58027 60006 85031 91200=
07070,1998-12-29 15:00:00,9,1010.8,-2.4,87,7,12000,25.928,,,150,,,,,,,,,,,wg-a,,,,AAXX 29154 07070 12/62 61514 10090 20070 39998 40108 56024 60006 82031 91500=
07070,1998-12-29 18:00:00,7,1010.5,-0.4,87,5,12000,22.224,,,150,-0.1,9.8,,,,,,,,,wg-a,,,,AAXX 29184 07070 12/62 51512 10070 20050 39994 40105 58004 60006 81031 91800 333 10098 21001=
07070,1998-12-29 21:00:00,7,1010.2,-0.3,81,4,12000,29.632,,,150,,,,,,,,,,0,wg-a,,,,AAXX 29214 07070 32/62 21516 10070 20040 39991 40102 56003 700// 80001 92100=
07070,1998-12-30 00:00:00,5,1010.5,0.2,87,3,15000,18.52,,,170,,,,,,,,,,0,wg-a,,,,AAXX 30004 07070 32/65 21710 10050 20030 39993 40105 51002 700// 80001 90000=
07070,1998-12-30 09:00:00,7,1011.6,1.2,76,3,15000,22.224,,,180,,,,,,,,,,0,wg-a,,,,AAXX 30094 07070 32/65 31812 10070 20030 30005 40116 52012 700// 82031 90900=
07070,1998-12-30 12:00:00,11,1011.6,0.1,71,6,15000,22.224,,,180,,,,,,,,,,0,wg-a,,,,AAXX 30124 07070 32/65 51812 10110 20060 30006 40116 50001 700// 82031 91200=
07070,1998-12-30 15:00:00,10,1011.4,-0.2,76,6,15000,18.52,,,150,,,,,,,,,,0,wg-a,,,,AAXX 30154 07070 32/65 51510 10100 20060 30004 40114 55002 700// 82031 91500=
07070,1998-12-30 18:00:00,9,1011.3,-0.1,76,5,15000,25.928,,,160,5,11.4,,,,,,,,0,wg-a,,,,AAXX 30184 07070 32/65 51614 10090 20050 30003 40113 58001 700// 82031 91800 333 10114 20050=
07070,1998-12-30 21:00:00,8,1011,-0.4,76,4,15000,22.224,,,170,,,,,,,,,,0,wg-a,,,,AAXX 30214 07070 32765 51712 10080 20040 39999 40110 58004 700// 83531 92100=
07070,1998-12-31 00:00:00,7,1010.8,-0.2,81,4,15000,14.816,,,170,,,,,,,,,,0,wg-a,,,,AAXX 31004 07070 32665 71708 10070 20040 39997 40108 58002 700// 875// 90000=
07070,1998-12-31 03:00:00,8,1009.6,-1.2,81,5,10000,25.928,,,160,,,,,,,,,,0,wg-a,,,,AAXX 31034 07070 32660 71614 10080 20050 39985 40096 56012 700// 875// 90300=
07070,1998-12-31 06:00:00,7,1008.9,-0.7,87,5,10000,18.52,,,160,7,8.6,,,,,,,,0,wg-a,,,,AAXX 31064 07070 12760 71610 10070 20050 39978 40089 57007 60004 700// 875// 90600 333 10086 20070=
07070,1998-12-31 12:00:00,9,1007.4,-1.3,71,4,25000,35.188,,,160,,,,,,,,,,1,wg-a,,,,AAXX 31124 07070 02/75 81619 10090 20040 39964 40074 58013 61000 70162 8707/ 91200 333 ////=
07070,1998-12-31 18:00:00,8,1006.3,0.2,66,2,25000,31.484,,,160,7.1,9.7,,,,,,,,0,wg-a,,,,AAXX 31184 07070 32775 61617 10080 20020 39953 40063 51002 700// 86500 91800 333 10097 20071=
07070,1998-12-31 21:00:00,8,1006.5,0.2,66,2,20000,22.224,,,150,,,,,,,,,,0,wg-a,,,,AAXX 31214 07070 32770 71512 10080 20020 39955 40065 53002 700// 82537 92100=
