station_id,dh_utc,temperature,pression,pression_variation_3h,humidite,point_de_rosee,visibilite,vent_moyen,vent_rafales,vent_rafales_10min,vent_direction,temperature_min,temperature_max,pluie_1h,pluie_3h,pluie_6h,pluie_12h,pluie_24h,ensoleillement,temperature_sol,temps_omm,source,radiations,neige_au_sol,nebulosite,raw_msg
07070,2012-01-01 00:00:00,11.8,1015.3,-0.5,92,10.5,20000,16.668,25.928,,230,,,0.2,0.4,0.6,,,,,0,og-post,,,,AAXX 01004 07070 04470 82309 10118 20105 30044 40153 58005 69961 700// 333 69947 90710 91114 555 69925=
07070,2012-01-01 01:00:00,11.8,1015.3,-0.5,92,10.5,20000,12.964,22.224,,230,,,0,,,,,,,0,og-post,,,,AAXX 01014 07070 24370 82307 10118 20105 30044 40153 58005 700// 333 60005 90710 91112=
07070,2012-01-01 02:00:00,11.8,1015.5,-0.4,93,10.7,13000,16.668,25.928,,240,,,,,,,,,,52,og-post,,,,AAXX 01024 07070 24463 82409 10118 20107 30046 40155 55004 752// 333 69905 90710 91114=
07070,2012-01-01 03:00:00,11.9,1015.3,0,92,10.6,20000,16.668,27.78,,250,,,0.2,0.2,,,,,,0,og-post,,,,AAXX 01034 07070 24470 82509 10119 20106 30044 40153 50000 700// 333 69927 90710 91115 555 69925=
07070,2012-01-01 04:00:00,11.8,1015.5,0.2,93,10.7,20000,16.668,27.78,,230,,,,,,,,,,0,og-post,,,,AAXX 01044 07070 24470 82309 10118 20107 30046 40155 52002 700// 333 69905 90710 91115=
07070,2012-01-01 05:00:00,12.2,1015.1,-0.4,91,10.8,20000,18.52,33.336,,240,,,0,,,,,,,0,og-post,,,,AAXX 01054 07070 24470 82410 10122 20108 30042 40151 58004 700// 333 60005 90710 91118=
07070,2012-01-01 06:00:00,12.1,1015.1,-0.2,89,10.3,20000,18.52,33.336,,240,11.2,12.3,0,,,0.8,1.6,0,11,0,og-post,,,,AAXX 01064 07070 04470 72410 10121 20103 30042 40151 58002 69982 700// 333 10123 20112 31011 55000 69907 70016 90710 91118 555 60005=
07070,2012-01-01 07:00:00,12.1,1015.1,-0.4,89,10.3,20000,20.372,35.188,,240,,,0,,,,,,,0,og-post,,,,AAXX 01074 07070 24770 72411 10121 20103 30042 40151 56004 700// 333 60005 90710 91119=
07070,2012-01-01 08:00:00,12.5,1015.4,0.3,88,10.6,20000,20.372,37.04,,240,,,0,,,,,,,0,og-post,,,,AAXX 01084 07070 24470 82411 10125 20106 30045 40154 53003 700// 333 60005 90710 91120=
07070,2012-01-01 09:00:00,12.2,1015.5,0.4,92,10.9,20000,14.816,35.188,,220,,,0,0,,,,,,0,og-post,,,,AAXX 01094 07070 24370 82208 10122 20109 30046 40155 53004 700// 333 60007 90710 91119 555 60005=
07070,2012-01-01 10:00:00,12.5,1015.6,0.5,91,11.1,20000,18.52,31.484,,220,,,0,,,,,,,0,og-post,,,,AAXX 01104 07070 24470 82210 10125 20111 30047 40156 51005 700// 333 60005 90710 91117=
07070,2012-01-01 11:00:00,13,1014.7,-0.7,88,11.1,20000,24.076,42.596,,230,,,,,,,,,,0,og-post,,,,AAXX 01114 07070 24470 82313 10130 20111 30038 40147 58007 700// 333 69905 90710 91123=
07070,2012-01-01 12:00:00,12.7,1014.2,-1.3,89,10.9,18000,20.372,40.744,,220,,,0,,,,,,,0,og-post,,,,AAXX 01124 07070 04468 82211 10127 20109 30033 40142 58013 69901 700// 333 69907 90710 91122 555 60005=
07070,2012-01-01 13:00:00,12.8,1013.4,-2.2,90,11.2,20000,16.668,31.484,,220,,,0,,,,,,,0,og-post,,,,AAXX 01134 07070 24470 82209 10128 20112 30025 40134 56022 700// 333 60005 90710 91117=
07070,2012-01-01 14:00:00,13.5,1012.7,-2,86,11.2,20000,27.78,42.596,,230,,,0,,,,,,,0,og-post,,,,AAXX 01144 07070 24470 82315 10135 20112 30018 40127 58020 700// 333 60005 90710 91123=
07070,2012-01-01 15:00:00,13.4,1012.4,-1.8,85,10.9,20000,25.928,46.3,,220,,,0,0,,,,,,0,og-post,,,,AAXX 01154 07070 24470 82214 10134 20109 30015 40124 56018 700// 333 60007 90710 91125 555 60005=
07070,2012-01-01 16:00:00,13.3,1012.1,-1.3,86,11,20000,24.076,40.744,,210,,,0,,,,,,,0,og-post,,,,AAXX 01164 07070 24470 82113 10133 20110 30012 40121 56013 700// 333 60005 90710 91122=
07070,2012-01-01 17:00:00,12.9,1011.6,-1.1,90,11.3,20000,24.076,42.596,,200,,,0,,,,,,,0,og-post,,,,AAXX 01174 07070 24470 82013 10129 20113 30007 40116 58011 700// 333 60005 90710 91123=
07070,2012-01-01 18:00:00,13.4,1010.8,-1.5,84,10.7,20000,27.78,50.004,,210,12,13.5,0,0,,,,,,0,og-post,,,,AAXX 01184 07070 04470 82115 10134 20107 30000 40108 58015 69902 700// 333 10135 20120 60007 90710 91127 555 60005=
07070,2012-01-01 19:00:00,13.4,1010.3,-1.7,84,10.7,18000,25.928,50.004,,220,,,,,,,,,,58,og-post,,,,AAXX 01194 07070 24568 82214 10134 20107 39995 40103 57017 758// 333 69905 90710 91127=
07070,2012-01-01 20:00:00,13.5,1010,-1.5,82,10.5,20000,29.632,53.708,51.856,220,,,,,,,,,,0,og-post,,,,AAXX 01204 07070 24570 82216 10135 20105 39992 40100 56015 700// 333 69905 91028 90710 91129=
07070,2012-01-01 21:00:00,13.7,1009.3,-1.5,79,10.1,20000,37.04,68.524,62.968,220,,,0,,,,,,,0,og-post,,,,AAXX 01214 07070 24570 82220 10137 20101 39985 40093 58015 700// 333 69907 91034 90710 91137 555 60005=
07070,2012-01-01 22:00:00,13.5,1008.9,-1.4,79,9.9,20000,33.336,68.524,53.708,220,,,0,,,,,,,0,og-post,,,,AAXX 01224 07070 24570 82218 10135 20099 39981 40089 58014 700// 333 60005 91029 90710 91137=
07070,2012-01-01 23:00:00,12.3,1008.9,-1.2,87,10.2,19000,33.336,64.82,53.708,230,,,,,,,,,,61,og-post,,,,AAXX 01234 07070 24469 82318 10123 20102 39980 40089 56012 761// 333 69905 91029 90710 91135=
07070,2012-01-02 00:00:00,11.9,1008.7,-0.7,89,10.1,19000,25.928,51.856,,230,,,1,1,1,,,,,61,og-post,,,,AAXX 02004 07070 04469 82314 10119 20101 39978 40087 56007 60011 761// 333 60017 90710 91128 555 60015=
07070,2012-01-02 01:00:00,10.5,1008.8,-0.2,88,8.6,5000,27.78,46.3,,260,,,3,,,,,,,63,og-post,,,,AAXX 02014 07070 24450 82615 10105 20086 39979 40088 55002 763// 333 60035 90710 91125=
07070,2012-01-02 02:00:00,9.4,1008.7,-0.3,92,8.2,10000,11.112,29.632,,270,,,1,,,,,,,61,og-post,,,,AAXX 02024 07070 24460 82706 10094 20082 39977 40087 57003 761// 333 60015 90710 91116=
07070,2012-01-02 03:00:00,9.5,1008.1,-0.7,93,8.4,14000,11.112,22.224,,270,,,1,5,,,,,,61,og-post,,,,AAXX 02034 07070 24464 82706 10095 20084 39971 40081 58007 761// 333 60057 90710 91112 555 60015=
07070,2012-01-02 04:00:00,9.6,1006.9,-1.9,94,8.7,19000,7.408,22.224,,190,,,0.6,,,,,,,61,og-post,,,,AAXX 02044 07070 24469 81904 10096 20087 39960 40069 58019 761// 333 69965 90710 91112=
07070,2012-01-02 05:00:00,9,1007.5,-1.2,92,7.8,14000,20.372,42.596,,280,,,2,,,,,,,61,og-post,,,,AAXX 02054 07070 24464 82811 10090 20078 39965 40075 55012 761// 333 60025 90710 91123=
07070,2012-01-02 06:00:00,8.8,1007.9,-0.2,92,7.6,17000,20.372,31.484,,270,8.8,13.8,0.8,3,,9,9.1,0,8,61,og-post,,,,AAXX 02064 07070 04467 82711 10088 20076 39969 40079 55002 60092 761// 333 10138 20088 32008 55000 60037 70091 90710 91117 555 69985=
07070,2012-01-02 07:00:00,8.4,1009,2,91,7,20000,16.668,29.632,,270,,,0.2,,,,,,,0,og-post,,,,AAXX 02074 07070 24470 82709 10084 20070 39980 40090 53020 700// 333 69925 90710 91116=
07070,2012-01-02 08:00:00,8.3,1010.2,2.7,89,6.6,20000,18.52,31.484,,270,,,,,,,,,,0,og-post,,,,AAXX 02084 07070 24870 82710 10083 20066 39992 40102 53027 700// 333 69905 90710 91117=
07070,2012-01-02 09:00:00,8.5,1011.7,3.8,89,6.8,20000,18.52,29.632,,260,,,0,0.2,,,,,,0,og-post,,,,AAXX 02094 07070 24670 82610 10085 20068 30007 40117 53038 700// 333 69927 90710 91116 555 60005=
07070,2012-01-02 10:00:00,8.7,1012.4,3.4,85,6.3,20000,22.224,33.336,,260,,,0,,,,,,,0,og-post,,,,AAXX 02104 07070 24570 72612 10087 20063 30014 40124 51034 700// 333 60005 90710 91118=
07070,2012-01-02 11:00:00,8.8,1012.8,2.6,82,5.9,20000,22.224,35.188,,260,,,0,,,,,,,0,og-post,,,,AAXX 02114 07070 24470 82612 10088 20059 30018 40128 51026 700// 333 60005 90710 91119=
07070,2012-01-02 12:00:00,8.9,1013.3,1.5,79,5.5,20000,27.78,44.448,,270,,,0,0,0.2,,,,,0,og-post,,,,AAXX 02124 07070 04570 72715 10089 20055 30022 40133 51015 69921 700// 333 60007 90710 91124 555 60005=
07070,2012-01-02 13:00:00,9.2,1013.6,1.2,75,5,20000,22.224,38.892,,270,,,0,,,,,,,0,og-post,,,,AAXX 02134 07070 24570 72712 10092 20050 30026 40136 52012 700// 333 60005 90710 91121=
07070,2012-01-02 14:00:00,9.9,1014.3,1.5,70,4.7,20000,20.372,38.892,,270,,,0,,,,,,,0,og-post,,,,AAXX 02144 07070 24570 72711 10099 20047 30033 40143 53015 700// 333 60005 90710 91121=
07070,2012-01-02 15:00:00,8.8,1015.1,1.8,72,4,20000,12.964,37.04,,250,,,0,0,,,,,,0,og-post,,,,AAXX 02154 07070 24570 62507 10088 20040 30040 40151 53018 700// 333 60007 90710 91120 555 60005=
07070,2012-01-02 16:00:00,5.5,1016.9,3.1,89,3.8,6000,22.224,50.004,,320,,,0.8,,,,,,,61,og-post,,,,AAXX 02164 07070 24556 83212 10055 20038 30057 40169 53031 761// 333 69985 90710 91127=
07070,2012-01-02 17:00:00,5.1,1017.9,3.3,89,3.4,20000,12.964,33.336,,240,,,0.4,,,,,,,0,og-post,,,,AAXX 02174 07070 24570 72407 10051 20034 30066 40179 53033 700// 333 69945 90710 91118=
07070,2012-01-02 18:00:00,4.2,1018.9,3.6,90,2.7,20000,11.112,14.816,,240,4.1,10,0,1,,1,,,,0,og-post,,,,AAXX 02184 07070 04670 /2406 10042 20027 30076 40189 51036 60012 700// 333 10100 20041 60017 90710 91108 555 60005=
07070,2012-01-02 19:00:00,4.3,1019.8,2.8,92,3.1,20000,11.112,16.668,,220,,,0,,,,,,,0,og-post,,,,AAXX 02194 07070 24870 /2206 10043 20031 30085 40198 52028 700// 333 60005 90710 91109=
07070,2012-01-02 20:00:00,4.7,1020.4,2.5,89,3,20000,14.816,20.372,,230,,,0,,,,,,,0,og-post,,,,AAXX 02204 07070 24970 /2308 10047 20030 30091 40204 51025 700// 333 60005 90710 91111=
07070,2012-01-02 21:00:00,4.1,1021.1,2.2,89,2.4,20000,14.816,24.076,,230,,,0,0,,,,,,0,og-post,,,,AAXX 02214 07070 24970 /2308 10041 20024 30098 40211 51022 700// 333 60007 90710 91113 555 60005=
07070,2012-01-02 22:00:00,4.1,1021.9,2.1,87,2.1,20000,14.816,22.224,,230,,,0,,,,,,,0,og-post,,,,AAXX 02224 07070 24970 /2308 10041 20021 30106 40219 53021 700// 333 60005 90710 91112=
07070,2012-01-02 23:00:00,3.6,1022.1,1.6,87,1.6,20000,11.112,22.224,,220,,,0,,,,,,,0,og-post,,,,AAXX 02234 07070 24970 /2206 10036 20016 30107 40221 51016 700// 333 60005 90710 91112=
07070,2012-01-03 00:00:00,3.5,1022,0.8,88,1.7,20000,12.964,18.52,,220,,,0,0,,,,,,0,og-post,,,,AAXX 03004 07070 04970 /2207 10035 20017 30106 40220 50008 60001 700// 333 60007 90710 91110 555 60005=
07070,2012-01-03 01:00:00,3.7,1021.9,-0.1,86,1.6,20000,12.964,24.076,,220,,,0,,,,,,,0,og-post,,,,AAXX 03014 07070 24970 /2207 10037 20016 30105 40219 58001 700// 333 60005 90710 91113=
07070,2012-01-03 02:00:00,4.1,1021.8,-0.2,87,2.1,20000,14.816,20.372,,200,,,0,,,,,,,0,og-post,,,,AAXX 03024 07070 24970 /2008 10041 20021 30105 40218 56002 700// 333 60005 90710 91111=
07070,2012-01-03 03:00:00,3.8,1021.7,-0.3,87,1.8,20000,16.668,25.928,,210,,,0,0,,,,,,0,og-post,,,,AAXX 03034 07070 24970 /2109 10038 20018 30103 40217 58003 700// 333 60007 90710 91114 555 60005=
07070,2012-01-03 04:00:00,4.6,1021,-0.8,87,2.6,20000,22.224,35.188,,210,,,0,,,,,,,0,og-post,,,,AAXX 03044 07070 24970 72112 10046 20026 30097 40210 58008 700// 333 60005 90710 91119=
07070,2012-01-03 05:00:00,5.3,1020.5,-1.3,86,3.1,20000,24.076,38.892,,200,,,0,,,,,,,0,og-post,,,,AAXX 03054 07070 24970 82013 10053 20031 30092 40205 58013 700// 333 60005 90710 91121=
07070,2012-01-03 06:00:00,5.6,1019.6,-2,86,3.4,20000,27.78,44.448,,200,3.1,5.7,0,0,,,1.4,1.4,2,0,og-post,,,,AAXX 03064 07070 04470 82015 10056 20034 30083 40196 58020 60002 700// 333 10057 20031 31002 55014 60007 70014 90710 91124 555 60005=
07070,2012-01-03 07:00:00,6.5,1018.5,-2.4,85,4.2,20000,29.632,48.152,,210,,,,,,,,,,0,og-post,,,,AAXX 03074 07070 24470 82116 10065 20042 30073 40185 58024 700// 333 69905 90710 91126=
07070,2012-01-03 08:00:00,7.4,1017.5,-2.9,83,4.7,20000,37.04,57.412,57.412,210,,,,,,,,,,0,og-post,,,,AAXX 03084 07070 24570 82120 10074 20047 30063 40175 57029 700// 333 69905 91031 90710 91131=
07070,2012-01-03 09:00:00,8.3,1017,-2.4,80,5,20000,38.892,64.82,62.968,210,,,0,,,,,,,0,og-post,,,,AAXX 03094 07070 24570 82121 10083 20050 30059 40170 56024 700// 333 69907 91034 90710 91135 555 60005=
07070,2012-01-03 10:00:00,8.7,1016.5,-1.9,82,5.8,20000,35.188,66.672,59.264,210,,,0,,,,,,,0,og-post,,,,AAXX 03104 07070 24470 82119 10087 20058 30054 40165 56019 700// 333 60005 91032 90710 91136=
07070,2012-01-03 11:00:00,8.2,1015.4,-2,88,6.3,18000,33.336,61.116,53.708,210,,,0,,,,,,,0,og-post,,,,AAXX 03114 07070 24468 82118 10082 20063 30043 40154 58020 700// 333 60005 91029 90710 91133=
07070,2012-01-03 12:00:00,9.3,1013.6,-3.3,85,6.9,20000,33.336,55.56,55.56,210,,,0,0,,,,,,0,og-post,,,,AAXX 03124 07070 04470 82118 10093 20069 30026 40136 58033 69901 700// 333 60007 91030 90710 91130 555 60005=
07070,2012-01-03 13:00:00,10.6,1012.5,-3.9,81,7.5,20000,38.892,61.116,57.412,220,,,0,,,,,,,0,og-post,,,,AAXX 03134 07070 24470 82221 10106 20075 30015 40125 57039 700// 333 60005 91031 90710 91133=
07070,2012-01-03 14:00:00,11.5,1011.4,-3.8,78,7.8,20000,44.448,79.636,77.784,230,,,0,,,,,,,0,og-post,,,,AAXX 03144 07070 24570 82324 10115 20078 30005 40114 56038 700// 333 60005 91042 90710 91143=
07070,2012-01-03 15:00:00,11.5,1010.8,-2.7,80,8.2,20000,42.596,75.932,72.228,230,,,0,0,,,,,,0,og-post,,,,AAXX 03154 07070 24570 82323 10115 20082 39999 40108 56027 700// 333 60007 91039 90710 91141 555 60005=
07070,2012-01-03 16:00:00,11.3,1010.4,-2,85,8.9,20000,40.744,77.784,64.82,230,,,,,,,,,,50,og-post,,,,AAXX 03164 07070 24470 82322 10113 20089 39995 40104 56020 750// 333 69905 91035 90710 91142=
07070,2012-01-03 17:00:00,11.2,1010.2,-1.2,88,9.3,18000,40.744,75.932,59.264,230,,,0.2,,,,,,,60,og-post,,,,AAXX 03174 07070 24468 82322 10112 20093 39993 40102 56012 760// 333 69925 91032 90710 91141=
07070,2012-01-03 18:00:00,11.7,1010.4,-0.4,88,9.8,20000,40.744,66.672,61.116,240,5.6,11.7,,0.2,,0.2,,,,0,og-post,,,,AAXX 03184 07070 04470 82422 10117 20098 39995 40104 55004 69922 700// 333 10117 20056 69927 91033 90710 91136 555 69905=
07070,2012-01-03 19:00:00,11.6,1011.5,1.1,90,10,6000,37.04,70.376,55.56,250,,,1,,,,,,,63,og-post,,,,AAXX 03194 07070 24456 82520 10116 20100 30006 40115 53011 763// 333 60015 91030 90710 91138=
07070,2012-01-03 20:00:00,10.4,1013,2.7,85,8,20000,18.52,55.56,,310,,,2,,,,,,,0,og-post,,,,AAXX 03204 07070 24570 83110 10104 20080 30020 40130 53027 700// 333 60025 90710 91130=
07070,2012-01-03 21:00:00,9.5,1013.3,2.8,78,5.9,20000,18.52,35.188,,270,,,0,3,,,,,,0,og-post,,,,AAXX 03214 07070 24970 82710 10095 20059 30023 40133 51028 700// 333 60037 90710 91119 555 60005=
07070,2012-01-03 22:00:00,9.2,1013.2,1.6,77,5.4,20000,20.372,29.632,,260,,,0,,,,,,,0,og-post,,,,AAXX 03224 07070 24970 82611 10092 20054 30022 40132 51016 700// 333 60005 90710 91116=
07070,2012-01-03 23:00:00,8.9,1013.4,0.3,78,5.3,20000,18.52,29.632,,260,,,0,,,,,,,0,og-post,,,,AAXX 03234 07070 24670 82610 10089 20053 30023 40134 51003 700// 333 60005 90710 91116=
07070,2012-01-04 00:00:00,8.6,1013.3,-0.1,79,5.2,20000,20.372,31.484,,260,,,0,0,3,,,,,0,og-post,,,,AAXX 04004 07070 04970 82611 10086 20052 30022 40133 54001 60031 700// 333 60007 90710 91117 555 60005=
07070,2012-01-04 01:00:00,8,1013.9,0.6,83,5.3,11000,22.224,35.188,,270,,,0.2,,,,,,,62,og-post,,,,AAXX 04014 07070 24561 82712 10080 20053 30028 40139 53006 762// 333 69925 90710 91119=
07070,2012-01-04 02:00:00,7.7,1014.5,1.1,79,4.3,20000,20.372,35.188,,270,,,,,,,,,,0,og-post,,,,AAXX 04024 07070 24970 82711 10077 20043 30034 40145 53011 700// 333 69905 90710 91119=
07070,2012-01-04 03:00:00,6.5,1015.4,2,79,3.1,20000,31.484,61.116,,280,,,,0.2,,,,,,0,og-post,,,,AAXX 04034 07070 24770 62817 10065 20031 30042 40154 53020 700// 333 69927 90710 91133 555 69905=
07070,2012-01-04 04:00:00,6.8,1016.4,2.4,78,3.2,20000,25.928,40.744,,270,,,0,,,,,,,0,og-post,,,,AAXX 04044 07070 24970 72714 10068 20032 30052 40164 53024 700// 333 60005 90710 91122=
07070,2012-01-04 05:00:00,5.5,1017.3,2.7,86,3.3,20000,27.78,51.856,,280,,,0.6,,,,,,,0,og-post,,,,AAXX 04054 07070 24570 /2815 10055 20033 30061 40173 53027 700// 333 69965 90710 91128=
07070,2012-01-04 06:00:00,5.6,1019.4,3.9,79,2.2,20000,27.78,44.448,,280,5.5,12.2,0,0.6,,4,4.4,0.1,4,0,og-post,,,,AAXX 04064 07070 04770 /2815 10056 20022 30081 40194 53039 60042 700// 333 10122 20055 3/004 55001 69967 70044 90710 91124 555 60005=
07070,2012-01-04 07:00:00,5.2,1020.9,4.4,77,1.5,20000,22.224,40.744,,270,,,0,,,,,,,0,og-post,,,,AAXX 04074 07070 24970 /2712 10052 20015 30096 40209 53044 700// 333 60005 90710 91122=
07070,2012-01-04 08:00:00,5.1,1022.3,4.9,77,1.4,20000,18.52,35.188,,260,,,0,,,,,,,0,og-post,,,,AAXX 04084 07070 24670 /2610 10051 20014 30110 40223 51049 700// 333 60005 90710 91119=
07070,2012-01-04 09:00:00,5.7,1023.3,3.9,75,1.6,20000,20.372,29.632,,260,,,0,0,,,,,,0,og-post,,,,AAXX 04094 07070 24970 /2611 10057 20016 30120 40233 51039 700// 333 60007 90710 91116 555 60005=
07070,2012-01-04 10:00:00,7,1024.3,3.4,70,1.9,19000,22.224,37.04,,260,,,0,,,,,,,0,og-post,,,,AAXX 04104 07070 24969 /2612 10070 20019 30130 40243 51034 700// 333 60005 90710 91120=
07070,2012-01-04 11:00:00,7.8,1024.5,2.3,67,2,19000,24.076,37.04,,260,,,0,,,,,,,0,og-post,,,,AAXX 04114 07070 24969 /2613 10078 20020 30133 40245 51023 700// 333 60005 90710 91120=
07070,2012-01-04 12:00:00,8.6,1024.3,1.1,65,2.4,19000,24.076,44.448,,270,,,0,0,,,,,,0,og-post,,,,AAXX 04124 07070 04969 /2713 10086 20024 30131 40243 50011 60001 700// 333 60007 90710 91124 555 60005=
07070,2012-01-04 13:00:00,8.7,1023.5,-0.7,65,2.5,20000,22.224,38.892,,250,,,0,,,,,,,0,og-post,,,,AAXX 04134 07070 24670 /2512 10087 20025 30123 40235 58007 700// 333 60005 90710 91121=
07070,2012-01-04 14:00:00,8.7,1023.1,-1.4,66,2.7,19000,27.78,42.596,,250,,,0,,,,,,,0,og-post,,,,AAXX 04144 07070 24669 /2515 10087 20027 30119 40231 58014 700// 333 60005 90710 91123=
07070,2012-01-04 15:00:00,8.5,1023.3,-1,70,3.3,20000,24.076,38.892,,250,,,0,0,,,,,,0,og-post,,,,AAXX 04154 07070 24570 72513 10085 20033 30121 40233 55010 700// 333 60007 90710 91121 555 60005=
07070,2012-01-04 16:00:00,8.1,1022.8,-0.7,71,3.2,20000,24.076,37.04,,250,,,0,,,,,,,0,og-post,,,,AAXX 04164 07070 24770 82513 10081 20032 30116 40228 58007 700// 333 60005 90710 91120=
07070,2012-01-04 17:00:00,7.7,1021.8,-1.3,74,3.4,20000,24.076,42.596,,250,,,,,,,,,,0,og-post,,,,AAXX 04174 07070 24570 82513 10077 20034 30106 40218 58013 700// 333 69905 90710 91123=
07070,2012-01-04 18:00:00,7.7,1022,-1.3,76,3.7,20000,24.076,40.744,,240,5,9,0,,,,,,,0,og-post,,,,AAXX 04184 07070 04570 82413 10077 20037 30108 40220 55013 69902 700// 333 10090 20050 69907 90710 91122 555 60005=
07070,2012-01-04 19:00:00,7.8,1021.1,-1.7,77,4,20000,24.076,42.596,,240,,,0,,,,,,,0,og-post,,,,AAXX 04194 07070 24570 82413 10078 20040 30099 40211 56017 700// 333 60005 90710 91123=
07070,2012-01-04 20:00:00,7.8,1019.2,-2.6,77,4,20000,37.04,57.412,,240,,,0,,,,,,,0,og-post,,,,AAXX 04204 07070 24670 82420 10078 20040 30080 40192 58026 700// 333 60005 90710 91131=
07070,2012-01-04 21:00:00,7.8,1017.9,-4,76,3.8,20000,37.04,61.116,55.56,240,,,0,0,,,,,,0,og-post,,,,AAXX 04214 07070 24570 82420 10078 20038 30068 40179 58040 700// 333 60007 91030 90710 91133 555 60005=
07070,2012-01-04 22:00:00,8,1016.1,-4.9,74,3.6,20000,33.336,57.412,57.412,230,,,0,,,,,,,0,og-post,,,,AAXX 04224 07070 24570 82318 10080 20036 30050 40161 56049 700// 333 60005 91031 90710 91131=
07070,2012-01-04 23:00:00,8.3,1014.4,-4.7,75,4.1,20000,40.744,66.672,66.672,240,,,0,,,,,,,0,og-post,,,,AAXX 04234 07070 24570 82422 10083 20041 30033 40144 58047 700// 333 60005 91036 90710 91136=
07070,2012-01-05 00:00:00,7.8,1012.7,-5.2,83,5.1,20000,38.892,62.968,,240,,,,,,,,,,61,og-post,,,,AAXX 05004 07070 04570 82421 10078 20051 30016 40127 56052 69901 761// 333 69907 90710 91134 555 69905=
07070,2012-01-05 01:00:00,7.6,1011,-5.1,87,5.6,17000,33.336,57.412,53.708,240,,,,,,,,,,0,og-post,,,,AAXX 05014 07070 24467 82418 10076 20056 39999 40110 57051 700// 333 69905 91029 90710 91131=
07070,2012-01-05 02:00:00,7.9,1009.4,-4.9,87,5.9,19000,38.892,68.524,59.264,240,,,,,,,,,,0,og-post,,,,AAXX 05024 07070 24469 82421 10079 20059 39984 40094 56049 700// 333 69905 91032 90710 91137=
07070,2012-01-05 03:00:00,8.1,1008.4,-4.2,88,6.2,20000,35.188,64.82,61.116,250,,,0,,,,,,,0,og-post,,,,AAXX 05034 07070 24470 82519 10081 20062 39974 40084 56042 700// 333 69907 91033 90710 91135 555 60005=
07070,2012-01-05 04:00:00,8.3,1006.4,-4.5,89,6.6,19000,40.744,72.228,59.264,260,,,,,,,,,,51,og-post,,,,AAXX 05044 07070 24469 82622 10083 20066 39954 40064 58045 751// 333 69905 91032 90710 91139=
07070,2012-01-05 05:00:00,8.7,1005.4,-4,87,6.7,20000,35.188,62.968,55.56,260,,,,,,,,,,0,og-post,,,,AAXX 05054 07070 24470 82619 10087 20067 39944 40054 57040 700// 333 69905 91030 90710 91134=
07070,2012-01-05 06:00:00,8.2,1004.5,-3.9,93,7.1,4800,37.04,62.968,57.412,250,7.5,8.8,0.8,0.8,,0.8,0.8,5.3,7,61,og-post,,,,AAXX 05064 07070 04448 82520 10082 20071 39935 40045 56039 69982 761// 333 10088 20075 32007 55053 69987 70008 91031 90710 91134 555 69985=
07070,2012-01-05 07:00:00,8.5,1003.5,-2.9,93,7.4,3800,37.04,57.412,57.412,260,,,0.6,,,,,,,61,og-post,,,,AAXX 05074 07070 24438 82620 10085 20074 39925 40035 57029 761// 333 69965 91031 90710 91131=
07070,2012-01-05 08:00:00,8.6,1003,-2.3,94,7.7,2800,38.892,62.968,,260,,,2,,,,,,,63,og-post,,,,AAXX 05084 07070 24328 82621 10086 20077 39921 40030 56023 763// 333 60025 90710 91134=
07070,2012-01-05 09:00:00,9,1001.9,-2.5,94,8.1,4400,38.892,59.264,,260,,,2,4,,,,,,61,og-post,,,,AAXX 05094 07070 24444 82621 10090 20081 39910 40019 58025 761// 333 60047 90710 91132 555 60025=
07070,2012-01-05 10:00:00,9.6,1001.1,-2.3,93,8.5,9000,37.04,61.116,,260,,,2,,,,,,,60,og-post,,,,AAXX 05104 07070 24459 82620 10096 20085 39902 40011 58023 760// 333 60025 90710 91133=
07070,2012-01-05 11:00:00,10.7,1000.2,-2.7,86,8.5,20000,38.892,62.968,59.264,270,,,0.4,,,,,,,0,og-post,,,,AAXX 05114 07070 24570 82721 10107 20085 39894 40002 56027 700// 333 69945 91032 90710 91134=
07070,2012-01-05 12:00:00,11.7,998.9,-2.9,76,7.6,20000,42.596,88.896,66.672,280,,,0.2,2,6,,,,,0,og-post,,,,AAXX 05124 07070 04570 72823 10117 20076 39881 49989 58029 60061 700// 333 60027 91036 90710 91148 555 69925=
07070,2012-01-05 13:00:00,8.2,1000.5,-0.6,79,4.8,20000,37.04,83.34,61.116,310,,,1,,,,,,,0,og-post,,,,AAXX 05134 07070 24670 73120 10082 20048 39896 40005 55006 700// 333 60015 91033 90710 91145=
07070,2012-01-05 14:00:00,8.4,1001.1,0.8,73,3.8,11000,42.596,79.636,66.672,330,,,,,,,,,,0,og-post,,,,AAXX 05144 07070 24561 /3323 10084 20038 39902 40011 53008 700// 333 69905 91036 90710 91143=
07070,2012-01-05 15:00:00,9.4,1002.2,3.2,64,2.9,20000,40.744,70.376,70.376,310,,,0,1,,,,,,0,og-post,,,,AAXX 05154 07070 24670 /3122 10094 20029 39913 40022 51032 700// 333 60017 91038 90710 91138 555 60005=
07070,2012-01-05 16:00:00,8.9,1003.1,2.6,66,2.9,19000,46.3,88.896,74.08,300,,,0.2,,,,,,,0,og-post,,,,AAXX 05164 07070 24669 83025 10089 20029 39922 40031 53026 700// 333 69925 91040 90710 91148=
07070,2012-01-05 17:00:00,6.4,1005.7,4.4,81,3.4,,57.412,101.86,101.86,320,,,0.6,,,,,,,,og-post,,,,AAXX 05174 07070 26/// /3231 10064 20034 39946 40057 53044 333 69965 91055 90710 91155=
07070,2012-01-05 18:00:00,7.7,1006.6,4.3,70,2.6,20000,33.336,68.524,55.56,310,6.3,11.7,0,0.8,,8,,,,0,og-post,,,,AAXX 05184 07070 04770 83118 10077 20026 39956 40066 53043 60082 700// 333 10117 20063 69987 91030 90710 91137 555 60005=
07070,2012-01-05 19:00:00,6.2,1008.9,5.6,82,3.4,20000,31.484,79.636,55.56,330,,,0.4,,,,,,,0,og-post,,,,AAXX 05194 07070 24570 83317 10062 20034 39978 40089 51056 700// 333 69945 91030 90710 91143=
07070,2012-01-05 20:00:00,6.2,1010.2,4.5,63,-0.3,20000,40.744,66.672,61.116,330,,,,,,,,,,0,og-post,,,,AAXX 05204 07070 24670 /3322 10062 21003 39991 40102 53045 700// 333 69905 91033 90710 91136=
07070,2012-01-05 21:00:00,5.7,1011.7,4.9,65,-0.4,20000,33.336,66.672,,320,,,0,0.4,,,,,,0,og-post,,,,AAXX 05214 07070 24970 /3218 10057 21004 30005 40117 51049 700// 333 69947 90710 91136 555 60005=
07070,2012-01-05 22:00:00,5.8,1012.9,3.9,67,0.1,20000,27.78,62.968,,320,,,,,,,,,,61,og-post,,,,AAXX 05224 07070 24770 63215 10058 20001 30017 40129 51039 761// 333 69905 90710 91134=
07070,2012-01-05 23:00:00,4.3,1013.6,3.3,79,1,20000,24.076,55.56,,300,,,,,,,,,,0,og-post,,,,AAXX 05234 07070 24670 /3013 10043 20010 30024 40136 51033 700// 333 69905 90710 91130=
07070,2012-01-06 00:00:00,5.1,1014.6,2.9,72,0.5,20000,29.632,40.744,,310,,,0,,0.4,,,,,0,og-post,,,,AAXX 06004 07070 04770 /3116 10051 20005 30034 40146 51029 69941 700// 333 69907 90710 91122 555 60005=
07070,2012-01-06 01:00:00,5.4,1015.6,2.7,69,0.2,20000,27.78,42.596,,310,,,0,,,,,,,0,og-post,,,,AAXX 06014 07070 24770 /3115 10054 20002 30044 40156 53027 700// 333 60005 90710 91123=
07070,2012-01-06 02:00:00,5.1,1016.4,2.8,71,0.3,20000,31.484,46.3,,310,,,0,,,,,,,0,og-post,,,,AAXX 06024 07070 24670 /3117 10051 20003 30052 40164 51028 700// 333 60005 90710 91125=
07070,2012-01-06 03:00:00,5,1017.1,2.4,71,0.2,20000,29.632,53.708,,310,,,0,0,,,,,,0,og-post,,,,AAXX 06034 07070 24670 /3116 10050 20002 30058 40171 51024 700// 333 60007 90710 91129 555 60005=
07070,2012-01-06 04:00:00,4.8,1018.2,2.5,73,0.4,20000,25.928,40.744,,320,,,0,,,,,,,0,og-post,,,,AAXX 06044 07070 24670 /3214 10048 20004 30069 40182 53025 700// 333 60005 90710 91122=
07070,2012-01-06 05:00:00,4.5,1019.6,3.1,75,0.4,20000,20.372,40.744,,320,,,0,,,,,,,0,og-post,,,,AAXX 06054 07070 24670 /3211 10045 20004 30083 40196 53031 700// 333 60005 90710 91122=
07070,2012-01-06 06:00:00,5,1020.2,3.1,75,0.9,20000,29.632,44.448,,330,4.1,8.1,0,0,,0.4,8.3,1.1,3,0,og-post,,,,AAXX 06064 07070 04670 63316 10050 20009 30089 40202 51031 69942 700// 333 10081 20041 30003 55011 60007 70083 90710 91124 555 60005=
07070,2012-01-06 07:00:00,4.8,1021.4,3.2,76,0.9,20000,29.632,51.856,,330,,,0,,,,,,,0,og-post,,,,AAXX 06074 07070 24670 /3316 10048 20009 30101 40214 51032 700// 333 60005 90710 91128=
07070,2012-01-06 08:00:00,4.2,1022.6,2.9,78,0.7,20000,18.52,40.744,,310,,,0,,,,,,,0,og-post,,,,AAXX 06084 07070 24/70 /3110 10042 20007 30112 40226 53029 700// 333 60005 90710 91122=
07070,2012-01-06 09:00:00,5.1,1023.6,3.4,76,1.2,20000,24.076,35.188,,320,,,0,0,,,,,,0,og-post,,,,AAXX 06094 07070 24970 /3213 10051 20012 30123 40236 51034 700// 333 60007 90710 91119 555 60005=
07070,2012-01-06 10:00:00,6.2,1024.5,3.1,72,1.5,20000,27.78,40.744,,320,,,0,,,,,,,0,og-post,,,,AAXX 06104 07070 24970 /3215 10062 20015 30132 40245 51031 700// 333 60005 90710 91122=
07070,2012-01-06 11:00:00,7,1025,2.5,69,1.7,20000,24.076,44.448,,320,,,0,,,,,,,0,og-post,,,,AAXX 06114 07070 24970 /3213 10070 20017 30137 40250 51025 700// 333 60005 90710 91124=
07070,2012-01-06 12:00:00,7.1,1025.2,1.6,66,1.2,20000,25.928,40.744,,330,,,0,0,,,,,,0,og-post,,,,AAXX 06124 07070 04970 /3314 10071 20012 30139 40252 51016 60001 700// 333 60007 90710 91122 555 60005=
07070,2012-01-06 13:00:00,7.4,1025.8,1.3,66,1.5,20000,22.224,44.448,,310,,,0,,,,,,,0,og-post,,,,AAXX 06134 07070 24570 /3112 10074 20015 30145 40258 53013 700// 333 60005 90710 91124=
07070,2012-01-06 14:00:00,7.2,1026.3,1.3,65,1.1,20000,24.076,40.744,,310,,,0,,,,,,,0,og-post,,,,AAXX 06144 07070 24570 /3113 10072 20011 30150 40263 53013 700// 333 60005 90710 91122=
07070,2012-01-06 15:00:00,6.4,1027.3,2.1,71,1.5,20000,14.816,31.484,,320,,,0,0,,,,,,0,og-post,,,,AAXX 06154 07070 24570 83208 10064 20015 30160 40273 53021 700// 333 60007 90710 91117 555 60005=
07070,2012-01-06 16:00:00,6,1027.3,1.5,73,1.5,20000,12.964,18.52,,290,,,0,,,,,,,0,og-post,,,,AAXX 06164 07070 24570 82907 10060 20015 30160 40273 51015 700// 333 60005 90710 91110=
07070,2012-01-06 17:00:00,4.7,1027.8,1.4,75,0.6,20000,9.26,18.52,,270,,,0,,,,,,,0,og-post,,,,AAXX 06174 07070 24670 /2705 10047 20006 30164 40278 51014 700// 333 60005 90710 91110=
07070,2012-01-06 18:00:00,3.3,1028,0.6,82,0.5,20000,11.112,12.964,,220,3.3,7.6,0,0,,,,,,0,og-post,,,,AAXX 06184 07070 04970 /2206 10033 20005 30166 40280 53006 60002 700// 333 10076 20033 60007 90710 91107 555 60005=
07070,2012-01-06 19:00:00,2.6,1028.5,1,84,0.2,20000,11.112,16.668,,230,,,0,,,,,,,0,og-post,,,,AAXX 06194 07070 24970 /2306 10026 20002 30170 40285 52010 700// 333 60005 90710 91109=
07070,2012-01-06 20:00:00,2.3,1028.4,0.5,86,0.2,20000,12.964,16.668,,230,,,0,,,,,,,0,og-post,,,,AAXX 06204 07070 24970 /2307 10023 20002 30169 40284 50005 700// 333 60005 90710 91109=
07070,2012-01-06 21:00:00,1.9,1027.9,-0.2,83,-0.7,20000,12.964,18.52,,220,,,0,0,,,,,,0,og-post,,,,AAXX 06214 07070 24570 /2207 10019 21007 30164 40279 58002 700// 333 60007 90710 91110 555 60005=
07070,2012-01-06 22:00:00,0.8,1027.8,-0.8,90,-0.7,18000,11.112,16.668,,210,,,0,,,,,,,0,og-post,,,,AAXX 06224 07070 24968 62106 10008 21007 30162 40278 57008 700// 333 60005 90710 91109=
07070,2012-01-06 23:00:00,3,1027,-1.3,87,1,20000,18.52,24.076,,220,,,0,,,,,,,0,og-post,,,,AAXX 06234 07070 24970 82210 10030 20010 30156 40270 58013 700// 333 60005 90710 91113=
07070,2012-01-07 00:00:00,4,1026.2,-1.6,82,1.2,20000,18.52,25.928,,240,,,0,0,,,,,,0,og-post,,,,AAXX 07004 07070 04670 72410 10040 20012 30148 40262 58016 60001 700// 333 60007 90710 91114 555 60005=
07070,2012-01-07 01:00:00,4.6,1025.3,-2.3,81,1.6,20000,16.668,24.076,,230,,,0,,,,,,,0,og-post,,,,AAXX 07014 07070 24770 82309 10046 20016 30139 40253 58023 700// 333 60005 90710 91113=
07070,2012-01-07 02:00:00,5.3,1024.4,-2.5,82,2.5,20000,14.816,25.928,,230,,,,,,,,,,60,og-post,,,,AAXX 07024 07070 24470 82308 10053 20025 30131 40244 57025 760// 333 69905 90710 91114=
07070,2012-01-07 03:00:00,4.8,1023.5,-2.6,93,3.8,15000,18.52,33.336,,240,,,0.2,0.2,,,,,,0,og-post,,,,AAXX 07034 07070 24465 82410 10048 20038 30122 40235 57026 700// 333 69927 90710 91118 555 69925=
07070,2012-01-07 04:00:00,5.4,1022.8,-2.4,93,4.4,9000,18.52,33.336,,240,,,0.2,,,,,,,0,og-post,,,,AAXX 07044 07070 24359 82410 10054 20044 30115 40228 56024 700// 333 69925 90710 91118=
07070,2012-01-07 05:00:00,6,1022.3,-2.1,93,5,18000,20.372,38.892,,240,,,0,,,,,,,0,og-post,,,,AAXX 07054 07070 24368 82411 10060 20050 30110 40223 56021 700// 333 60005 90710 91121=
07070,2012-01-07 06:00:00,6.4,1021.4,-2,94,5.5,9000,18.52,31.484,,240,0.6,6.5,,0.2,,0.4,0.4,6.1,-1,0,og-post,,,,AAXX 07064 07070 04359 82410 10064 20055 30102 40214 57020 69942 700// 333 10065 20006 31101 55061 69927 70004 90710 91117 555 69905=
07070,2012-01-07 07:00:00,7.1,1021.4,-1.3,94,6.2,17000,16.668,29.632,,240,,,,,,,,,,0,og-post,,,,AAXX 07074 07070 24367 82409 10071 20062 30102 40214 56013 700// 333 69905 90710 91116=
07070,2012-01-07 08:00:00,8.1,1021.4,-0.8,92,6.9,9000,27.78,44.448,,260,,,0.2,,,,,,,60,og-post,,,,AAXX 07084 07070 24359 82615 10081 20069 30102 40214 56008 760// 333 69925 90710 91124=
07070,2012-01-07 09:00:00,8.4,1021.7,0.3,93,7.3,8000,27.78,42.596,,260,,,,0.2,,,,,,58,og-post,,,,AAXX 07094 07070 24358 82615 10084 20073 30105 40217 53003 758// 333 69927 90710 91123 555 69905=
07070,2012-01-07 10:00:00,8.9,1022,0.7,93,7.8,11000,20.372,38.892,,270,,,,,,,,,,58,og-post,,,,AAXX 07104 07070 24361 82711 10089 20078 30109 40220 53007 758// 333 69905 90710 91121=
07070,2012-01-07 11:00:00,9.8,1021.7,0.4,92,8.6,20000,24.076,40.744,,280,,,0.4,,,,,,,0,og-post,,,,AAXX 07114 07070 24470 72813 10098 20086 30106 40217 50004 700// 333 69945 90710 91122=
07070,2012-01-07 12:00:00,10.4,1021.5,-0.1,88,8.5,20000,24.076,38.892,,280,,,0,0.4,0.6,,,,,0,og-post,,,,AAXX 07124 07070 04470 82813 10104 20085 30104 40215 58001 69961 700// 333 69947 90710 91121 555 60005=
07070,2012-01-07 13:00:00,10.5,1021.5,-0.5,84,7.9,20000,22.224,44.448,,290,,,0,,,,,,,0,og-post,,,,AAXX 07134 07070 24470 82912 10105 20079 30104 40215 56005 700// 333 60005 90710 91124=
07070,2012-01-07 14:00:00,10.5,1021.5,-0.2,78,6.8,20000,20.372,38.892,,290,,,0,,,,,,,0,og-post,,,,AAXX 07144 07070 24570 82911 10105 20068 30104 40215 56002 700// 333 60005 90710 91121=
07070,2012-01-07 15:00:00,9.1,1022.4,0.9,71,4.1,20000,20.372,48.152,,340,,,0,0,,,,,,0,og-post,,,,AAXX 07154 07070 24570 83411 10091 20041 30113 40224 53009 700// 333 60007 90710 91126 555 60005=
07070,2012-01-07 16:00:00,8.7,1023.1,1.5,74,4.3,20000,16.668,31.484,,330,,,0,,,,,,,0,og-post,,,,AAXX 07164 07070 24670 83309 10087 20043 30119 40231 53015 700// 333 60005 90710 91117=
07070,2012-01-07 17:00:00,8.4,1023.8,2.2,77,4.6,20000,16.668,25.928,,320,,,0,,,,,,,0,og-post,,,,AAXX 07174 07070 24670 83209 10084 20046 30126 40238 51022 700// 333 60005 90710 91114=
07070,2012-01-07 18:00:00,7.9,1024.1,1.6,68,2.4,20000,16.668,31.484,,310,6.5,11.3,0,0,,0.6,,,,0,og-post,,,,AAXX 07184 07070 04670 83109 10079 20024 30129 40241 51016 69962 700// 333 10113 20065 60007 90710 91117 555 60005=
07070,2012-01-07 19:00:00,6.6,1024.5,1.3,73,2.1,20000,14.816,22.224,,290,,,0,,,,,,,0,og-post,,,,AAXX 07194 07070 24670 /2908 10066 20021 30132 40245 51013 700// 333 60005 90710 91112=
07070,2012-01-07 20:00:00,6.2,1025.1,1.2,74,1.9,20000,14.816,24.076,,280,,,0,,,,,,,0,og-post,,,,AAXX 07204 07070 24970 /2808 10062 20019 30138 40251 53012 700// 333 60005 90710 91113=
07070,2012-01-07 21:00:00,5.8,1025.4,1.2,77,2.1,20000,11.112,16.668,,280,,,0,0,,,,,,0,og-post,,,,AAXX 07214 07070 24670 62806 10058 20021 30141 40254 52012 700// 333 60007 90710 91109 555 60005=
07070,2012-01-07 22:00:00,5.7,1025.4,0.9,80,2.5,20000,9.26,18.52,,260,,,0,,,,,,,0,og-post,,,,AAXX 07224 07070 24670 82605 10057 20025 30141 40254 51009 700// 333 60005 90710 91110=
07070,2012-01-07 23:00:00,6.5,1025,0.1,76,2.6,20000,11.112,24.076,,260,,,0,,,,,,,0,og-post,,,,AAXX 07234 07070 24670 82606 10065 20026 30137 40250 50001 700// 333 60005 90710 91113=
07070,2012-01-08 00:00:00,6.7,1024.7,-0.7,81,3.7,20000,16.668,22.224,,270,,,0,0,,,,,,0,og-post,,,,AAXX 08004 07070 04670 82709 10067 20037 30134 40247 58007 60001 700// 333 60007 90710 91112 555 60005=
07070,2012-01-08 01:00:00,6.9,1024.4,-1,84,4.4,18000,18.52,29.632,,270,,,0,,,,,,,0,og-post,,,,AAXX 08014 07070 24668 82710 10069 20044 30131 40244 56010 700// 333 60005 90710 91116=
07070,2012-01-08 02:00:00,6.9,1024.5,-0.5,85,4.6,18000,18.52,25.928,,270,,,0,,,,,,,0,og-post,,,,AAXX 08024 07070 24668 82710 10069 20046 30132 40245 55005 700// 333 60005 90710 91114=
07070,2012-01-08 03:00:00,6.9,1024.4,-0.3,86,4.7,16000,18.52,29.632,,270,,,0,0,,,,,,0,og-post,,,,AAXX 08034 07070 24566 82710 10069 20047 30131 40244 56003 700// 333 60007 90710 91116 555 60005=
07070,2012-01-08 04:00:00,6.8,1024.4,0,86,4.6,18000,16.668,24.076,,270,,,0,,,,,,,0,og-post,,,,AAXX 08044 07070 24768 82709 10068 20046 30131 40244 50000 700// 333 60005 90710 91113=
07070,2012-01-08 05:00:00,6.8,1024.2,-0.3,85,4.5,19000,16.668,24.076,,280,,,0,,,,,,,0,og-post,,,,AAXX 08054 07070 24669 82809 10068 20045 30129 40242 58003 700// 333 60005 90710 91113=
07070,2012-01-08 06:00:00,6.7,1024.3,-0.1,84,4.2,20000,16.668,25.928,,280,5.4,7.8,0,0,,,0.6,0.5,4,0,og-post,,,,AAXX 08064 07070 04670 82809 10067 20042 30130 40243 55001 60002 700// 333 10078 20054 30004 55005 60007 70006 90710 91114 555 60005=
07070,2012-01-08 07:00:00,6.6,1024.8,0.4,83,3.9,16000,14.816,24.076,,290,,,,,,,,,,0,og-post,,,,AAXX 08074 07070 24566 82908 10066 20039 30135 40248 53004 700// 333 69905 90710 91113=
07070,2012-01-08 08:00:00,6.1,1025.1,0.9,84,3.6,20000,14.816,29.632,,280,,,,,,,,,,0,og-post,,,,AAXX 08084 07070 24570 82808 10061 20036 30138 40251 53009 700// 333 69905 90710 91116=
07070,2012-01-08 09:00:00,7,1025.8,1.5,81,4,20000,16.668,29.632,,300,,,0,,,,,,,0,og-post,,,,AAXX 08094 07070 24570 83009 10070 20040 30145 40258 53015 700// 333 69907 90710 91116 555 60005=
07070,2012-01-08 10:00:00,7.6,1026.2,1.5,78,4,20000,18.52,27.78,,300,,,,,,,,,,0,og-post,,,,AAXX 08104 07070 24670 83010 10076 20040 30150 40262 53015 700// 333 69905 90710 91115=
07070,2012-01-08 11:00:00,7.6,1026.3,1.3,82,4.7,20000,18.52,27.78,,300,,,,,,,,,,0,og-post,,,,AAXX 08114 07070 24570 83010 10076 20047 30151 40263 51013 700// 333 69905 90710 91115=
07070,2012-01-08 12:00:00,7.9,1026.1,0.4,80,4.7,20000,14.816,25.928,,290,,,,,,,,,,0,og-post,,,,AAXX 08124 07070 04570 82908 10079 20047 30149 40261 50004 69901 700// 333 69907 90710 91114 555 69905=
07070,2012-01-08 13:00:00,8.5,1025.9,-0.3,76,4.5,20000,14.816,27.78,,290,,,,,,,,,,0,og-post,,,,AAXX 08134 07070 24570 82908 10085 20045 30147 40259 58003 700// 333 69905 90710 91115=
07070,2012-01-08 14:00:00,8.5,1026.4,0.1,75,4.3,20000,16.668,29.632,,320,,,0,,,,,,,0,og-post,,,,AAXX 08144 07070 24570 83209 10085 20043 30152 40264 53001 700// 333 60005 90710 91116=
07070,2012-01-08 15:00:00,8,1026.7,0.6,78,4.4,20000,14.816,25.928,,290,,,0,,,,,,,0,og-post,,,,AAXX 08154 07070 24570 82908 10080 20044 30155 40267 53006 700// 333 69907 90710 91114 555 60005=
07070,2012-01-08 16:00:00,7.5,1027.3,1.3,83,4.8,20000,12.964,22.224,,280,,,0,,,,,,,0,og-post,,,,AAXX 08164 07070 24570 82807 10075 20048 30160 40273 52013 700// 333 60005 90710 91112=
07070,2012-01-08 17:00:00,7.3,1028,1.5,83,4.6,20000,12.964,18.52,,290,,,0,,,,,,,0,og-post,,,,AAXX 08174 07070 24570 82907 10073 20046 30167 40280 53015 700// 333 60005 90710 91110=
07070,2012-01-08 18:00:00,7,1028.3,1.5,84,4.5,20000,9.26,14.816,,290,6.1,8.7,0,0,,,,,,0,og-post,,,,AAXX 08184 07070 04770 82905 10070 20045 30170 40283 51015 69902 700// 333 10087 20061 60007 90710 91108 555 60005=
07070,2012-01-08 19:00:00,6.8,1028.9,1.6,84,4.3,20000,7.408,12.964,,280,,,0,,,,,,,0,og-post,,,,AAXX 08194 07070 24770 82804 10068 20043 30176 40289 51016 700// 333 60005 90710 91107=
07070,2012-01-08 20:00:00,6.4,1029.1,1.1,83,3.7,20000,11.112,16.668,,300,,,0,,,,,,,0,og-post,,,,AAXX 08204 07070 24770 73006 10064 20037 30178 40291 51011 700// 333 60005 90710 91109=
07070,2012-01-08 21:00:00,5.2,1029.6,1.2,87,3.2,20000,5.556,11.112,,300,,,0,0,,,,,,0,og-post,,,,AAXX 08214 07070 24770 /3003 10052 20032 30182 40296 51012 700// 333 60007 90710 91106 555 60005=
07070,2012-01-08 22:00:00,4.1,1029.8,0.8,93,3.1,20000,7.408,7.408,,240,,,0,,,,,,,0,og-post,,,,AAXX 08224 07070 24970 /2404 10041 20031 30184 40298 52008 700// 333 60005 90710 91104=
07070,2012-01-08 23:00:00,4.5,1030,0.8,91,3.2,19000,7.408,11.112,,270,,,0,,,,,,,0,og-post,,,,AAXX 08234 07070 24869 /2704 10045 20032 30186 40300 51008 700// 333 60005 90710 91106=
07070,2012-01-09 00:00:00,4.3,1030.1,0.5,92,3.1,19000,11.112,12.964,,270,,,0,0,,,,,,0,og-post,,,,AAXX 09004 07070 04669 /2706 10043 20031 30187 40301 52005 60001 700// 333 60007 90710 91107 555 60005=
07070,2012-01-09 01:00:00,5.6,1030,0.2,90,4.1,20000,11.112,12.964,,280,,,0,,,,,,,0,og-post,,,,AAXX 09014 07070 24670 82806 10056 20041 30186 40300 50002 700// 333 60005 90710 91107=
07070,2012-01-09 02:00:00,5.4,1030.3,0.3,88,3.6,20000,9.26,14.816,,260,,,0,,,,,,,0,og-post,,,,AAXX 09024 07070 24770 82605 10054 20036 30189 40303 53003 700// 333 60005 90710 91108=
07070,2012-01-09 03:00:00,5.1,1030.3,0.2,89,3.4,20000,9.26,12.964,,250,,,0,0,,,,,,0,og-post,,,,AAXX 09034 07070 24670 82505 10051 20034 30189 40303 53002 700// 333 60007 90710 91107 555 60005=
07070,2012-01-09 04:00:00,5.1,1030.3,0.3,90,3.6,20000,5.556,11.112,,260,,,0,,,,,,,0,og-post,,,,AAXX 09044 07070 24570 82603 10051 20036 30189 40303 51003 700// 333 60005 90710 91106=
07070,2012-01-09 05:00:00,5.9,1030.3,-0,84,3.4,20000,9.26,14.816,,250,,,0,,,,,,,0,og-post,,,,AAXX 09054 07070 24570 82505 10059 20034 30189 40303 54000 700// 333 60005 90710 91108=
07070,2012-01-09 06:00:00,6.1,1030.4,0.1,84,3.6,19000,11.112,14.816,,250,3.4,7.1,,,,,0,0,0,50,og-post,,,,AAXX 09064 07070 04569 82506 10061 20036 30190 40304 53001 69902 750// 333 10071 20034 31000 55000 69907 79999 90710 91108 555 69905=
07070,2012-01-09 07:00:00,6.5,1030.5,0.3,87,4.5,20000,9.26,14.816,,250,,,,,,,,,,0,og-post,,,,AAXX 09074 07070 24470 82505 10065 20045 30192 40305 53003 700// 333 69905 90710 91108=
07070,2012-01-09 08:00:00,6.9,1030.8,0.6,87,4.9,19000,14.816,20.372,,260,,,0,,,,,,,0,og-post,,,,AAXX 09084 07070 24469 82608 10069 20049 30195 40308 53006 700// 333 60005 90710 91111=
07070,2012-01-09 09:00:00,7.5,1031.2,0.9,89,5.8,15000,14.816,22.224,,250,,,0,,,,,,,0,og-post,,,,AAXX 09094 07070 24465 82508 10075 20058 30199 40312 53009 700// 333 69907 90710 91112 555 60005=
07070,2012-01-09 10:00:00,8.3,1031.7,1.2,88,6.4,12000,12.964,24.076,,260,,,0,,,,,,,0,og-post,,,,AAXX 09104 07070 24462 82607 10083 20064 30204 40317 53012 700// 333 60005 90710 91113=
07070,2012-01-09 11:00:00,9.5,1031.5,0.8,83,6.8,20000,12.964,20.372,,280,,,0,,,,,,,0,og-post,,,,AAXX 09114 07070 24870 82807 10095 20068 30203 40315 50008 700// 333 60005 90710 91111=
07070,2012-01-09 12:00:00,10.1,1031.2,0.1,80,6.8,19000,16.668,25.928,,270,,,0,0,,,,,,0,og-post,,,,AAXX 09124 07070 04769 82709 10101 20068 30200 40312 50001 69901 700// 333 60007 90710 91114 555 60005=
07070,2012-01-09 13:00:00,10.9,1030.8,-0.8,75,6.6,20000,16.668,24.076,,260,,,0,,,,,,,0,og-post,,,,AAXX 09134 07070 24770 82609 10109 20066 30196 40308 58008 700// 333 60005 90710 91113=
07070,2012-01-09 14:00:00,10.7,1030.8,-0.7,75,6.4,20000,16.668,37.04,,270,,,0.2,,,,,,,0,og-post,,,,AAXX 09144 07070 24770 82709 10107 20064 30196 40308 56007 700// 333 69925 90710 91120=
07070,2012-01-09 15:00:00,10.1,1031.2,-0,81,7,20000,16.668,27.78,,270,,,,0.2,,,,,,0,og-post,,,,AAXX 09154 07070 24570 82709 10101 20070 30200 40312 55000 700// 333 69927 90710 91115 555 69905=
07070,2012-01-09 16:00:00,9.1,1031.3,0.5,86,6.9,18000,22.224,35.188,,260,,,1,,,,,,,0,og-post,,,,AAXX 09164 07070 24568 82612 10091 20069 30201 40313 53005 700// 333 60015 90710 91119=
07070,2012-01-09 17:00:00,8.8,1031.9,1,89,7.1,18000,14.816,35.188,,240,,,,,,,,,,0,og-post,,,,AAXX 09174 07070 24668 82408 10088 20071 30206 40319 53010 700// 333 69905 90710 91119=
07070,2012-01-09 18:00:00,9.2,1032.2,1,85,6.8,20000,18.52,25.928,,260,6.1,11,0,1,,1,,,,0,og-post,,,,AAXX 09184 07070 04570 82610 10092 20068 30210 40322 53010 60012 700// 333 10110 20061 60017 90710 91114 555 60005=
07070,2012-01-09 19:00:00,9.3,1032.5,1.2,84,6.7,20000,16.668,25.928,,250,,,0,,,,,,,0,og-post,,,,AAXX 09194 07070 24570 82509 10093 20067 30213 40325 51012 700// 333 60005 90710 91114=
07070,2012-01-09 20:00:00,9.4,1032.9,1.1,84,6.8,20000,16.668,24.076,,270,,,0,,,,,,,0,og-post,,,,AAXX 09204 07070 24570 82709 10094 20068 30217 40329 52011 700// 333 60005 90710 91113=
07070,2012-01-09 21:00:00,9.2,1033.2,0.9,87,7.1,20000,14.816,22.224,,280,,,0,0,,,,,,0,og-post,,,,AAXX 09214 07070 24570 82808 10092 20071 30219 40332 51009 700// 333 60007 90710 91112 555 60005=
07070,2012-01-09 22:00:00,9.1,1033.4,0.8,88,7.2,20000,12.964,20.372,,280,,,0,,,,,,,0,og-post,,,,AAXX 09224 07070 24570 82807 10091 20072 30221 40334 51008 700// 333 60005 90710 91111=
07070,2012-01-09 23:00:00,9.2,1033.5,0.5,89,7.5,20000,12.964,18.52,,290,,,0,,,,,,,0,og-post,,,,AAXX 09234 07070 24470 82907 10092 20075 30222 40335 52005 700// 333 60005 90710 91110=
07070,2012-01-10 00:00:00,9,1033.6,0.4,90,7.4,11000,12.964,20.372,,290,,,,,,,,,,0,og-post,,,,AAXX 10004 07070 04461 82907 10090 20074 30223 40336 51004 69901 700// 333 69907 90710 91111 555 69905=
07070,2012-01-10 01:00:00,8.7,1033.8,0.4,92,7.5,13000,9.26,18.52,,290,,,0.2,,,,,,,0,og-post,,,,AAXX 10014 07070 24463 82905 10087 20075 30225 40338 53004 700// 333 69925 90710 91110=
07070,2012-01-10 02:00:00,8.7,1034.2,0.7,93,7.6,6000,11.112,16.668,,290,,,,,,,,,,58,og-post,,,,AAXX 10024 07070 24356 82906 10087 20076 30229 40342 53007 758// 333 69905 90710 91109=
07070,2012-01-10 03:00:00,8.5,1034.4,0.8,94,7.6,4700,9.26,14.816,,280,,,,0.2,,,,,,10,og-post,,,,AAXX 10034 07070 24347 82805 10085 20076 30231 40344 52008 710// 333 69927 90710 91108 555 69905=
07070,2012-01-10 04:00:00,8.3,1034.3,0.5,95,7.5,4800,7.408,11.112,,240,,,0.2,,,,,,,10,og-post,,,,AAXX 10044 07070 24348 82404 10083 20075 30230 40343 50005 710// 333 69925 90710 91106=
07070,2012-01-10 05:00:00,8.4,1034.5,0.3,95,7.6,8000,7.408,12.964,,280,,,,,,,,,,0,og-post,,,,AAXX 10054 07070 24458 82804 10084 20076 30232 40345 52003 700// 333 69905 90710 91107=
07070,2012-01-10 06:00:00,8.5,1034.9,0.5,95,7.7,8000,7.408,11.112,,290,8.3,9.4,,0.2,,0.4,1.6,0.7,8,0,og-post,,,,AAXX 10064 07070 04358 82904 10085 20077 30236 40349 53005 69942 700// 333 10094 20083 31008 55007 69927 70016 90710 91106 555 69905=
07070,2012-01-10 07:00:00,8.5,1034.9,0.6,94,7.6,9000,5.556,11.112,,290,,,0,,,,,,,0,og-post,,,,AAXX 10074 07070 24459 82903 10085 20076 30236 40349 51006 700// 333 60005 90710 91106=
07070,2012-01-10 08:00:00,8,1035.2,0.7,93,6.9,10000,5.556,12.964,,250,,,0,,,,,,,0,og-post,,,,AAXX 10084 07070 24360 72503 10080 20069 30239 40352 51007 700// 333 60005 90710 91107=
07070,2012-01-10 09:00:00,8,1035.9,1,94,7.1,10000,1.852,5.556,,240,,,0,0,,,,,,0,og-post,,,,AAXX 10094 07070 24360 72401 10080 20071 30246 40359 53010 700// 333 60007 90710 91103 555 60005=
07070,2012-01-10 10:00:00,9.6,1036.2,1.3,89,7.9,11000,3.704,5.556,,280,,,0,,,,,,,0,og-post,,,,AAXX 10104 07070 24661 /2802 10096 20079 30249 40362 52013 700// 333 60005 90710 91103=
07070,2012-01-10 11:00:00,9.9,1036,0.8,83,7.1,20000,5.556,11.112,,300,,,0,,,,,,,0,og-post,,,,AAXX 10114 07070 24970 /3003 10099 20071 30247 40360 50008 700// 333 60005 90710 91106=
07070,2012-01-10 12:00:00,11.8,1035.2,-0.6,66,5.6,20000,5.556,11.112,,290,,,0,0,,,,,,0,og-post,,,,AAXX 10124 07070 04670 /2903 10118 20056 30240 40352 58006 60001 700// 333 60007 90710 91106 555 60005=
07070,2012-01-10 13:00:00,11.6,1035,-1.1,62,4.6,20000,7.408,12.964,,300,,,0,,,,,,,0,og-post,,,,AAXX 10134 07070 24670 63004 10116 20046 30238 40350 57011 700// 333 60005 90710 91107=
07070,2012-01-10 14:00:00,10.9,1035,-0.9,72,6,20000,7.408,16.668,,270,,,0,,,,,,,0,og-post,,,,AAXX 10144 07070 24670 82704 10109 20060 30238 40350 56009 700// 333 60005 90710 91109=
07070,2012-01-10 15:00:00,10.4,1035.2,-0,78,6.7,20000,7.408,12.964,,260,,,0,0,,,,,,0,og-post,,,,AAXX 10154 07070 24670 82604 10104 20067 30240 40352 55000 700// 333 60007 90710 91107 555 60005=
07070,2012-01-10 16:00:00,9.7,1035.5,0.4,85,7.3,20000,5.556,9.26,,310,,,,,,,,,,61,og-post,,,,AAXX 10164 07070 24470 83103 10097 20073 30242 40355 53004 761// 333 69905 90710 91105=
07070,2012-01-10 17:00:00,9.3,1035.7,0.6,87,7.2,20000,5.556,9.26,,270,,,0,,,,,,,0,og-post,,,,AAXX 10174 07070 24470 82703 10093 20072 30244 40357 52006 700// 333 60005 90710 91105=
07070,2012-01-10 18:00:00,9.2,1035.7,0.4,88,7.3,20000,5.556,7.408,,260,7.7,12.3,0,,,,,,,0,og-post,,,,AAXX 10184 07070 04670 82603 10092 20073 30244 40357 51004 69902 700// 333 10123 20077 69907 90710 91104 555 60005=
07070,2012-01-10 19:00:00,9,1035.8,0.3,88,7.1,20000,5.556,5.556,,240,,,0,,,,,,,0,og-post,,,,AAXX 10194 07070 24670 82403 10090 20071 30245 40358 51003 700// 333 60005 90710 91103=
07070,2012-01-10 20:00:00,8.9,1035.8,0.1,88,7,20000,3.704,7.408,,250,,,0,,,,,,,0,og-post,,,,AAXX 10204 07070 24570 82502 10089 20070 30245 40358 52001 700// 333 60005 90710 91104=
07070,2012-01-10 21:00:00,8.1,1035.7,0,91,6.7,19000,3.704,5.556,,300,,,0,0,,,,,,0,og-post,,,,AAXX 10214 07070 24469 83002 10081 20067 30244 40357 50000 700// 333 60007 90710 91103 555 60005=
07070,2012-01-10 22:00:00,8.3,1035.6,-0.2,90,6.8,20000,5.556,7.408,,280,,,0,,,,,,,0,og-post,,,,AAXX 10224 07070 24670 82803 10083 20068 30243 40356 58002 700// 333 60005 90710 91104=
07070,2012-01-10 23:00:00,8,1035.5,-0.3,91,6.6,20000,3.704,7.408,,250,,,0,,,,,,,0,og-post,,,,AAXX 10234 07070 24670 82502 10080 20066 30242 40355 57003 700// 333 60005 90710 91104=
07070,2012-01-11 00:00:00,7.8,1035.4,-0.3,90,6.3,20000,,5.556,,,,,0,0,,,,,,0,og-post,,,,AAXX 11004 07070 04670 80000 10078 20063 30241 40354 57003 60001 700// 333 60007 90710 91103 555 60005=
07070,2012-01-11 01:00:00,8.1,1035.6,-0,90,6.6,20000,3.704,7.408,,240,,,0,,,,,,,0,og-post,,,,AAXX 11014 07070 24670 82402 10081 20066 30243 40356 55000 700// 333 60005 90710 91104=
07070,2012-01-11 02:00:00,7.5,1035.6,0.1,92,6.3,19000,,5.556,,,,,0,,,,,,,0,og-post,,,,AAXX 11024 07070 24669 80000 10075 20063 30243 40356 53001 700// 333 60005 90710 91103=
07070,2012-01-11 03:00:00,7.4,1035.6,0.1,93,6.3,15000,3.704,3.704,,200,,,0,0,,,,,,0,og-post,,,,AAXX 11034 07070 24665 82002 10074 20063 30242 40356 51001 700// 333 60007 90710 91102 555 60005=
07070,2012-01-11 04:00:00,7.4,1035.2,-0.4,94,6.5,14000,3.704,7.408,,210,,,0,,,,,,,0,og-post,,,,AAXX 11044 07070 24664 82102 10074 20065 30239 40352 58004 700// 333 60005 90710 91104=
07070,2012-01-11 05:00:00,7.3,1035.3,-0.4,93,6.2,11000,5.556,7.408,,210,,,0,,,,,,,0,og-post,,,,AAXX 11054 07070 24661 82103 10073 20062 30239 40353 56004 700// 333 60005 90710 91104=
07070,2012-01-11 06:00:00,7.6,1035.2,-0.3,92,6.4,15000,9.26,12.964,,240,7.2,9.2,0,0,,,0,2.9,7,0,og-post,,,,AAXX 11064 07070 04665 82405 10076 20064 30239 40352 56003 60002 700// 333 10092 20072 30007 55029 60007 79999 90710 91107 555 60005=
07070,2012-01-11 07:00:00,7.6,1035.5,0.3,91,6.2,17000,5.556,9.26,,240,,,0,,,,,,,0,og-post,,,,AAXX 11074 07070 24667 82403 10076 20062 30242 40355 53003 700// 333 60005 90710 91105=
07070,2012-01-11 08:00:00,7.6,1035.9,0.7,90,6.1,17000,5.556,7.408,,230,,,0,,,,,,,0,og-post,,,,AAXX 11084 07070 24667 82303 10076 20061 30246 40359 53007 700// 333 60005 90710 91104=
07070,2012-01-11 09:00:00,8.1,1036.6,1.4,88,6.2,19000,7.408,11.112,,260,,,0,0,,,,,,0,og-post,,,,AAXX 11094 07070 24669 82604 10081 20062 30253 40366 53014 700// 333 60007 90710 91106 555 60005=
07070,2012-01-11 10:00:00,8.9,1036.7,1.2,85,6.5,17000,7.408,12.964,,250,,,0,,,,,,,0,og-post,,,,AAXX 11104 07070 24667 82504 10089 20065 30254 40367 51012 700// 333 60005 90710 91107=
07070,2012-01-11 11:00:00,9.4,1036.6,0.7,82,6.5,19000,7.408,14.816,,250,,,0,,,,,,,0,og-post,,,,AAXX 11114 07070 24669 82504 10094 20065 30253 40366 50007 700// 333 60005 90710 91108=
07070,2012-01-11 12:00:00,10.4,1036,-0.5,74,6,20000,7.408,9.26,,310,,,0,0,,,,,,0,og-post,,,,AAXX 11124 07070 04670 83104 10104 20060 30248 40360 58005 60001 700// 333 60007 90710 91105 555 60005=
07070,2012-01-11 13:00:00,11.3,1035.5,-1.1,60,3.8,20000,11.112,27.78,,300,,,0,,,,,,,0,og-post,,,,AAXX 11134 07070 24670 73006 10113 20038 30243 40355 58011 700// 333 60005 90710 91115=
07070,2012-01-11 14:00:00,10.3,1035.2,-1.3,68,4.6,20000,9.26,18.52,,300,,,0,,,,,,,0,og-post,,,,AAXX 11144 07070 24670 83005 10103 20046 30240 40352 56013 700// 333 60005 90710 91110=
07070,2012-01-11 15:00:00,9.7,1035.4,-0.7,71,4.7,20000,3.704,11.112,,270,,,0,0,,,,,,0,og-post,,,,AAXX 11154 07070 24670 /2702 10097 20047 30241 40354 55007 700// 333 60007 90710 91106 555 60005=
07070,2012-01-11 16:00:00,9.3,1035.2,-0.4,72,4.5,20000,7.408,9.26,,250,,,0,,,,,,,0,og-post,,,,AAXX 11164 07070 24570 82504 10093 20045 30239 40352 56004 700// 333 60005 90710 91105=
07070,2012-01-11 17:00:00,8.1,1035.5,0.2,75,3.9,20000,5.556,12.964,,240,,,0,,,,,,,0,og-post,,,,AAXX 11174 07070 24570 /2403 10081 20039 30242 40355 53002 700// 333 60005 90710 91107=
07070,2012-01-11 18:00:00,7.4,1035.6,0.1,80,4.2,20000,5.556,7.408,,240,7,11.4,0,0,,,,,,0,og-post,,,,AAXX 11184 07070 04570 /2403 10074 20042 30242 40356 53001 60002 700// 333 10114 20070 60007 90710 91104 555 60005=
07070,2012-01-11 19:00:00,5.9,1035.6,0.3,88,4.1,19000,3.704,5.556,,180,,,0,,,,,,,0,og-post,,,,AAXX 11194 07070 24569 81802 10059 20041 30242 40356 51003 700// 333 60005 90710 91103=
07070,2012-01-11 20:00:00,6.6,1035.5,-0.1,86,4.4,14000,3.704,5.556,,210,,,0,,,,,,,0,og-post,,,,AAXX 11204 07070 24564 82102 10066 20044 30241 40355 58001 700// 333 60005 90710 91103=
07070,2012-01-11 21:00:00,6.7,1035.2,-0.4,86,4.5,18000,9.26,11.112,,220,,,0,0,,,,,,0,og-post,,,,AAXX 11214 07070 24568 82205 10067 20045 30238 40352 58004 700// 333 60007 90710 91106 555 60005=
07070,2012-01-11 22:00:00,7,1034.9,-0.7,83,4.3,15000,7.408,12.964,,210,,,0,,,,,,,0,og-post,,,,AAXX 11224 07070 24565 82104 10070 20043 30235 40349 58007 700// 333 60005 90710 91107=
07070,2012-01-11 23:00:00,6.2,1034.5,-1,86,4,19000,5.556,9.26,,220,,,0,,,,,,,0,og-post,,,,AAXX 11234 07070 24569 72203 10062 20040 30231 40345 58010 700// 333 60005 90710 91105=
07070,2012-01-12 00:00:00,5.6,1034,-1.2,87,3.6,18000,5.556,9.26,,180,,,0,0,,,,,,0,og-post,,,,AAXX 12004 07070 04568 81803 10056 20036 30226 40340 58012 60001 700// 333 60007 90710 91105 555 60005=
07070,2012-01-12 01:00:00,5.3,1033.4,-1.5,88,3.5,19000,3.704,9.26,,200,,,0,,,,,,,0,og-post,,,,AAXX 12014 07070 24569 82002 10053 20035 30220 40334 58015 700// 333 60005 90710 91105=
07070,2012-01-12 02:00:00,3.6,1033.4,-1.2,91,2.3,18000,7.408,11.112,,200,,,0,,,,,,,0,og-post,,,,AAXX 12024 07070 24568 82004 10036 20023 30219 40334 56012 700// 333 60005 90710 91106=
07070,2012-01-12 03:00:00,2.9,1033,-1.1,93,1.9,15000,3.704,9.26,,210,,,0,0,,,,,,0,og-post,,,,AAXX 12034 07070 24565 72102 10029 20019 30215 40330 56011 700// 333 60007 90710 91105 555 60005=
07070,2012-01-12 04:00:00,2.7,1032.3,-1.2,93,1.7,13000,11.112,14.816,,200,,,0,,,,,,,0,og-post,,,,AAXX 12044 07070 24563 /2006 10027 20017 30208 40323 58012 700// 333 60005 90710 91108=
07070,2012-01-12 05:00:00,2.9,1031.8,-1.6,94,2,12000,7.408,12.964,,200,,,0,,,,,,,0,og-post,,,,AAXX 12054 07070 24562 82004 10029 20020 30203 40318 58016 700// 333 60005 90710 91107=
07070,2012-01-12 06:00:00,2.4,1031.4,-1.6,94,1.5,13000,3.704,14.816,,200,2.1,7.4,0,0,,,0,0.4,1,0,og-post,,,,AAXX 12064 07070 04563 82002 10024 20015 30199 40314 56016 60002 700// 333 10074 20021 30001 55004 60007 70000 90710 91108 555 60005=
07070,2012-01-12 07:00:00,3.6,1031.1,-1.2,93,2.6,12000,7.408,14.816,,200,,,0,,,,,,,0,og-post,,,,AAXX 12074 07070 24562 82004 10036 20026 30196 40311 56012 700// 333 60005 90710 91108=
07070,2012-01-12 08:00:00,3.9,1031,-0.8,92,2.7,13000,11.112,14.816,,210,,,0,,,,,,,0,og-post,,,,AAXX 12084 07070 24563 82106 10039 20027 30195 40310 56008 700// 333 60005 90710 91108=
07070,2012-01-12 09:00:00,4.9,1030.9,-0.4,90,3.4,10000,12.964,16.668,,200,,,0,0,,,,,,0,og-post,,,,AAXX 12094 07070 24560 82007 10049 20034 30195 40309 56004 700// 333 60007 90710 91109 555 60005=
07070,2012-01-12 10:00:00,6.9,1030.6,-0.3,86,4.7,15000,12.964,22.224,,210,,,,,,,,,,0,og-post,,,,AAXX 12104 07070 24665 72107 10069 20047 30193 40306 58003 700// 333 69905 90710 91112=
07070,2012-01-12 11:00:00,8.4,1030.8,-0,74,4,20000,16.668,25.928,,250,,,0,,,,,,,0,og-post,,,,AAXX 12114 07070 24670 62509 10084 20040 30195 40308 55000 700// 333 60005 90710 91114=
07070,2012-01-12 12:00:00,9.6,1029.3,-1.4,70,4.4,20000,20.372,29.632,,240,,,0,,,,,,,0,og-post,,,,AAXX 12124 07070 04670 /2411 10096 20044 30181 40293 58014 69901 700// 333 69907 90710 91116 555 60005=
07070,2012-01-12 13:00:00,9.4,1028.6,-1.9,68,3.8,20000,22.224,35.188,,260,,,0,,,,,,,0,og-post,,,,AAXX 12134 07070 24970 /2612 10094 20038 30174 40286 58019 700// 333 60005 90710 91119=
07070,2012-01-12 14:00:00,9.9,1028,-2.7,68,4.3,20000,22.224,35.188,,260,,,0,,,,,,,0,og-post,,,,AAXX 12144 07070 24670 /2612 10099 20043 30168 40280 56027 700// 333 60005 90710 91119=
07070,2012-01-12 15:00:00,9.5,1028,-1.3,71,4.5,20000,20.372,38.892,,270,,,0,0,,,,,,0,og-post,,,,AAXX 12154 07070 24570 82711 10095 20045 30168 40280 56013 700// 333 60007 90710 91121 555 60005=
07070,2012-01-12 16:00:00,9.1,1027.7,-0.9,76,5.1,20000,22.224,40.744,,270,,,0,,,,,,,0,og-post,,,,AAXX 12164 07070 24570 82712 10091 20051 30165 40277 56009 700// 333 60005 90710 91122=
07070,2012-01-12 17:00:00,9.2,1027.9,-0.1,77,5.4,20000,20.372,33.336,,260,,,0,,,,,,,0,og-post,,,,AAXX 12174 07070 24470 82611 10092 20054 30167 40279 55001 700// 333 60005 90710 91118=
07070,2012-01-12 18:00:00,7.3,1028.2,0.1,85,4.9,7000,22.224,31.484,,250,2.4,10.4,0,0,,,,,,0,og-post,,,,AAXX 12184 07070 04457 82512 10073 20049 30169 40282 53001 69902 700// 333 10104 20024 60007 90710 91117 555 60005=
07070,2012-01-12 19:00:00,6.5,1028.3,0.5,92,5.3,5000,22.224,35.188,,250,,,,,,,,,,0,og-post,,,,AAXX 12194 07070 24450 82512 10065 20053 30170 40283 51005 700// 333 69905 90710 91119=
07070,2012-01-12 20:00:00,6.4,1028.6,0.6,92,5.2,6000,20.372,31.484,,240,,,,,,,,,,0,og-post,,,,AAXX 12204 07070 24456 82411 10064 20052 30173 40286 53006 700// 333 69905 90710 91117=
07070,2012-01-12 21:00:00,6.5,1028.7,0.5,93,5.4,4100,20.372,29.632,,250,,,0.6,0.6,,,,,,60,og-post,,,,AAXX 12214 07070 24441 82511 10065 20054 30174 40287 52005 760// 333 69967 90710 91116 555 69965=
07070,2012-01-12 22:00:00,6.9,1029,0.7,93,5.8,4300,11.112,25.928,,250,,,0.2,,,,,,,10,og-post,,,,AAXX 12224 07070 24443 82506 10069 20058 30177 40290 52007 710// 333 69925 90710 91114=
07070,2012-01-12 23:00:00,6.7,1029.4,0.8,94,5.8,3500,9.26,14.816,,270,,,0,,,,,,,10,og-post,,,,AAXX 12234 07070 24435 72705 10067 20058 30181 40294 53008 710// 333 60005 90710 91108=
07070,2012-01-13 00:00:00,6,1029.3,0.6,94,5.1,2900,5.556,11.112,,300,,,0,0.2,0.8,,,,,10,og-post,,,,AAXX 13004 07070 04529 /3003 10060 20051 30180 40293 50006 69981 710// 333 69927 90710 91106 555 60005=
07070,2012-01-13 01:00:00,5.2,1029.7,0.6,95,4.5,3200,7.408,11.112,,300,,,0,,,,,,,10,og-post,,,,AAXX 13014 07070 24732 /3004 10052 20045 30183 40297 51006 710// 333 60005 90710 91106=
07070,2012-01-13 02:00:00,4.5,1030,0.5,95,3.8,4400,5.556,12.964,,290,,,0,,,,,,,10,og-post,,,,AAXX 13024 07070 24944 /2903 10045 20038 30186 40300 53005 710// 333 60005 90710 91107=
07070,2012-01-13 03:00:00,3.1,1030.3,0.8,95,2.4,2700,9.26,16.668,,300,,,0,0,,,,,,10,og-post,,,,AAXX 13034 07070 24927 /3005 10031 20024 30188 40303 51008 710// 333 60007 90710 91109 555 60005=
07070,2012-01-13 04:00:00,2.7,1030.2,0.4,96,2.1,800,5.556,9.26,,310,,,0,,,,,,,45,og-post,,,,AAXX 13044 07070 24908 /3103 10027 20021 30187 40302 51004 745// 333 60005 90710 91105=
07070,2012-01-13 05:00:00,1.7,1030.4,0.3,97,1.3,200,,5.556,,,,,0,,,,,,,45,og-post,,,,AAXX 13054 07070 24902 /0000 10017 20013 30189 40304 52003 745// 333 60005 90710 91103=
07070,2012-01-13 06:00:00,-0.2,1030.6,0.2,96,-0.8,200,3.704,5.556,,210,-0.2,7.3,0,0,,0.8,0.8,2.2,-3,49,og-post,,,,AAXX 13064 07070 04902 /2102 11002 21008 30190 40306 53002 69982 749// 333 10073 21002 3/103 55022 60007 70008 90710 91103 555 60005=
07070,2012-01-13 07:00:00,-0.1,1030.7,0.4,97,-0.5,600,,5.556,,,,,0,,,,,,,49,og-post,,,,AAXX 13074 07070 24506 70000 11001 21005 30191 40307 52004 749// 333 60005 90710 91103=
07070,2012-01-13 08:00:00,1.4,1031,0.5,97,1,2700,5.556,7.408,,230,,,0,,,,,,,10,og-post,,,,AAXX 13084 07070 24527 82303 10014 20010 30194 40310 53005 710// 333 60005 90710 91104=
07070,2012-01-13 09:00:00,2.2,1031.3,0.8,97,1.8,3500,1.852,5.556,,220,,,0,0,,,,,,10,og-post,,,,AAXX 13094 07070 24635 /2201 10022 20018 30198 40313 53008 710// 333 60007 90710 91103 555 60005=
07070,2012-01-13 10:00:00,4.8,1031.4,0.9,96,4.2,10000,5.556,9.26,,290,,,0,,,,,,,0,og-post,,,,AAXX 13104 07070 24360 /2903 10048 20042 30200 40314 52009 700// 333 60005 90710 91105=
07070,2012-01-13 11:00:00,5.5,1031.6,0.8,92,4.3,12000,14.816,22.224,,10,,,0,,,,,,,0,og-post,,,,AAXX 13114 07070 24462 60108 10055 20043 30202 40316 51008 700// 333 60005 90710 91112=
07070,2012-01-13 12:00:00,5.5,1031.4,0.2,88,3.7,13000,12.964,18.52,,350,,,0,0,,,,,,0,og-post,,,,AAXX 13124 07070 04363 63507 10055 20037 30200 40314 50002 60001 700// 333 60007 90710 91110 555 60005=
07070,2012-01-13 13:00:00,6,1030.9,-0.5,85,3.7,17000,11.112,20.372,,360,,,0,,,,,,,0,og-post,,,,AAXX 13134 07070 24467 73606 10060 20037 30195 40309 58005 700// 333 60005 90710 91111=
07070,2012-01-13 14:00:00,6.3,1030.7,-0.9,81,3.3,18000,12.964,20.372,,350,,,0,,,,,,,0,og-post,,,,AAXX 13144 07070 24468 /3507 10063 20033 30193 40307 57009 700// 333 60005 90710 91111=
07070,2012-01-13 15:00:00,6.5,1030.5,-0.8,79,3.1,19000,12.964,22.224,,350,,,0,0,,,,,,0,og-post,,,,AAXX 13154 07070 24769 /3507 10065 20031 30192 40305 56008 700// 333 60007 90710 91112 555 60005=
07070,2012-01-13 16:00:00,5,1031,0.1,83,2.4,20000,11.112,25.928,,20,,,0,,,,,,,0,og-post,,,,AAXX 13164 07070 24770 70206 10050 20024 30196 40310 53001 700// 333 60005 90710 91114=
07070,2012-01-13 17:00:00,2.4,1031.6,0.8,90,0.9,15000,5.556,12.964,,360,,,0,,,,,,,0,og-post,,,,AAXX 13174 07070 24965 /3603 10024 20009 30201 40316 53008 700// 333 60005 90710 91107=
07070,2012-01-13 18:00:00,0.6,1031.9,1.1,92,-0.6,7000,1.852,7.408,,50,-0.3,6.5,0,0,,,,,,0,og-post,,,,AAXX 13184 07070 04757 /0501 10006 21006 30203 40319 51011 60002 700// 333 10065 21003 60007 90710 91104 555 60005=
07070,2012-01-13 19:00:00,0.8,1032.1,0.9,95,0.1,5000,3.704,7.408,,250,,,0,,,,,,,10,og-post,,,,AAXX 13194 07070 24750 82502 10008 20001 30205 40321 51009 710// 333 60005 90710 91104=
07070,2012-01-13 20:00:00,0.1,1032.1,0.4,95,-0.6,6000,1.852,5.556,,300,,,0,,,,,,,0,og-post,,,,AAXX 13204 07070 24956 /3001 10001 21006 30205 40321 51004 700// 333 60005 90710 91103=
07070,2012-01-13 21:00:00,-0.4,1032.2,0.2,96,-1,4000,5.556,7.408,,200,,,0,0,,,,,,10,og-post,,,,AAXX 13214 07070 24940 /2003 11004 21010 30205 40322 51002 710// 333 60007 90710 91104 555 60005=
07070,2012-01-13 22:00:00,-0.7,1032.2,-0,96,-1.3,1500,,5.556,,,,,0,,,,,,,10,og-post,,,,AAXX 13224 07070 24915 /0000 11007 21013 30205 40322 54000 710// 333 60005 90710 91103=
07070,2012-01-13 23:00:00,-0.2,1032.1,-0,96,-0.8,10000,7.408,9.26,,300,,,0,,,,,,,0,og-post,,,,AAXX 13234 07070 24960 /3004 11002 21008 30205 40321 54000 700// 333 60005 90710 91105=
07070,2012-01-14 00:00:00,-0.4,1031.8,-0.3,97,-0.8,10000,5.556,9.26,,310,,,0,0,,,,,,0,og-post,,,,AAXX 14004 07070 04960 /3103 11004 21008 30202 40318 58003 60001 700// 333 60007 90710 91105 555 60005=
07070,2012-01-14 01:00:00,-1.4,1031.4,-0.8,96,-2,600,5.556,5.556,,330,,,0,,,,,,,49,og-post,,,,AAXX 14014 07070 24906 /3303 11014 21020 30197 40314 58008 749// 333 60005 90710 91103=
07070,2012-01-14 02:00:00,-1.9,1031.7,-0.5,97,-2.3,4000,,5.556,,,,,0,,,,,,,10,og-post,,,,AAXX 14024 07070 24940 /0000 11019 21023 30200 40317 55005 710// 333 60005 90710 91103=
07070,2012-01-14 03:00:00,-2.4,1031.6,-0.3,97,-2.8,200,,3.704,,,,,0,0,,,,,,49,og-post,,,,AAXX 14034 07070 24902 /0000 11024 21028 30199 40316 56003 749// 333 60007 90710 91102 555 60005=
07070,2012-01-14 04:00:00,-3,1031.2,-0.3,97,-3.4,200,,3.704,,,,,0,,,,,,,49,og-post,,,,AAXX 14044 07070 24902 /0000 11030 21034 30194 40312 58003 749// 333 60005 90710 91102=
07070,2012-01-14 05:00:00,-3.7,1031.1,-0.7,97,-4.1,100,,3.704,,,,,0,,,,,,,49,og-post,,,,AAXX 14054 07070 24601 /0000 11037 21041 30193 40311 57007 749// 333 60005 90710 91102=
07070,2012-01-14 06:00:00,-3.4,1030.8,-0.9,97,-3.8,500,3.704,5.556,,200,-4.1,1,0,0,,,0,4.1,-7,49,og-post,,,,AAXX 14064 07070 04/00 92002 11034 21038 30190 40308 56009 60002 749// 333 10010 21041 34107 55041 60007 70000 90710 91103 555 60005=
07070,2012-01-14 07:00:00,-3.7,1030.6,-0.6,97,-4.1,200,,7.408,,,,,0,,,,,,,49,og-post,,,,AAXX 14074 07070 24/02 90000 11037 21041 30188 40306 58006 749// 333 60005 90710 91104=
07070,2012-01-14 08:00:00,-4.4,1030.9,-0.2,96,-4.9,1400,,3.704,,,,,0,,,,,,,10,og-post,,,,AAXX 14084 07070 24714 /0000 11044 21049 30191 40309 55002 710// 333 60005 90710 91102=
07070,2012-01-14 09:00:00,-2,1030.7,-0,97,-2.4,300,5.556,5.556,,50,,,0,0,,,,,,49,og-post,,,,AAXX 14094 07070 24003 80503 11020 21024 30190 40307 55000 749// 333 60007 90710 91103 555 60005=
07070,2012-01-14 10:00:00,-0.9,1030.8,0.3,97,-1.3,1600,3.704,9.26,,50,,,0,,,,,,,10,og-post,,,,AAXX 14104 07070 24616 80502 11009 21013 30191 40308 51003 710// 333 60005 90710 91105=
07070,2012-01-14 11:00:00,-0.2,1030.4,-0.3,97,-0.6,1600,3.704,5.556,,200,,,0,,,,,,,10,og-post,,,,AAXX 14114 07070 24016 82002 11002 21006 30188 40304 58003 710// 333 60005 90710 91103=
07070,2012-01-14 12:00:00,1.8,1029.7,-0.8,96,1.2,9000,3.704,7.408,,300,,,0,0,,,,,,0,og-post,,,,AAXX 14124 07070 04159 /3002 10018 20012 30182 40297 58008 60001 700// 333 60007 90710 91104 555 60005=
07070,2012-01-14 13:00:00,3.5,1028.8,-1.7,87,1.5,11000,5.556,9.26,,40,,,0,,,,,,,0,og-post,,,,AAXX 14134 07070 24961 /0403 10035 20015 30174 40288 58017 700// 333 60005 90710 91105=
07070,2012-01-14 14:00:00,3.9,1028.4,-1.8,82,1.1,12000,5.556,11.112,,20,,,0,,,,,,,0,og-post,,,,AAXX 14144 07070 24962 /0203 10039 20011 30170 40284 56018 700// 333 60005 90710 91106=
07070,2012-01-14 15:00:00,4.7,1028.4,-1.2,78,1.2,15000,7.408,9.26,,40,,,0,0,,,,,,0,og-post,,,,AAXX 14154 07070 24665 70404 10047 20012 30170 40284 56012 700// 333 60007 90710 91105 555 60005=
07070,2012-01-14 16:00:00,2.5,1028.4,-0.5,78,-0.9,19000,7.408,14.816,,50,,,0,,,,,,,0,og-post,,,,AAXX 14164 07070 24969 /0504 10025 21009 30169 40284 56005 700// 333 60005 90710 91108=
07070,2012-01-14 17:00:00,0.9,1028.2,-0.4,84,-1.5,19000,9.26,11.112,,40,,,0,,,,,,,0,og-post,,,,AAXX 14174 07070 24969 /0405 10009 21015 30166 40282 58004 700// 333 60005 90710 91106=
07070,2012-01-14 18:00:00,-0.1,1028.3,-0.3,86,-2.2,19000,5.556,11.112,,50,-4.7,4.9,0,0,,,,,,0,og-post,,,,AAXX 14184 07070 04969 /0503 11001 21022 30167 40283 55003 60002 700// 333 10049 21047 60007 90710 91106 555 60005=
07070,2012-01-14 19:00:00,-0.8,1028,-0.5,87,-2.7,19000,5.556,9.26,,70,,,0,,,,,,,0,og-post,,,,AAXX 14194 07070 24969 /0703 11008 21027 30164 40280 57005 700// 333 60005 90710 91105=
07070,2012-01-14 20:00:00,-0.8,1027.9,-0.3,86,-2.8,17000,3.704,7.408,,80,,,0,,,,,,,0,og-post,,,,AAXX 14204 07070 24967 /0802 11008 21028 30163 40279 58003 700// 333 60005 90710 91104=
07070,2012-01-14 21:00:00,-1.9,1027.7,-0.7,91,-3.2,15000,5.556,5.556,,70,,,0,0,,,,,,0,og-post,,,,AAXX 14214 07070 24965 /0703 11019 21032 30160 40277 57007 700// 333 60007 90710 91103 555 60005=
07070,2012-01-14 22:00:00,-1.8,1027.4,-0.7,92,-2.9,16000,3.704,5.556,,100,,,0,,,,,,,0,og-post,,,,AAXX 14224 07070 24966 /1002 11018 21029 30157 40274 58007 700// 333 60005 90710 91103=
07070,2012-01-14 23:00:00,-2.3,1027.2,-0.8,91,-3.6,14000,5.556,7.408,,80,,,0,,,,,,,0,og-post,,,,AAXX 14234 07070 24964 /0803 11023 21036 30155 40272 56008 700// 333 60005 90710 91104=
07070,2012-01-15 00:00:00,-2.6,1026.9,-0.8,92,-3.7,16000,11.112,12.964,,90,,,0,0,,,,,,0,og-post,,,,AAXX 15004 07070 04966 /0906 11026 21037 30152 40269 57008 60001 700// 333 60007 90710 91107 555 60005=
07070,2012-01-15 01:00:00,-4,1026.7,-0.8,92,-5.1,16000,7.408,12.964,,80,,,0,,,,,,,0,og-post,,,,AAXX 15014 07070 24966 /0804 11040 21051 30149 40267 58008 700// 333 60005 90710 91107=
07070,2012-01-15 02:00:00,-2.9,1026.5,-0.7,92,-4,16000,9.26,12.964,,60,,,0,,,,,,,0,og-post,,,,AAXX 15024 07070 24966 /0605 11029 21040 30148 40265 56007 700// 333 60005 90710 91107=
07070,2012-01-15 03:00:00,-2.9,1026.1,-0.8,93,-3.9,15000,11.112,12.964,,90,,,0,0,,,,,,0,og-post,,,,AAXX 15034 07070 24965 /0906 11029 21039 30144 40261 57008 700// 333 60007 90710 91107 555 60005=
07070,2012-01-15 04:00:00,-2.9,1025.9,-0.7,93,-3.9,14000,11.112,14.816,,90,,,0,,,,,,,0,og-post,,,,AAXX 15044 07070 24964 /0906 11029 21039 30142 40259 57007 700// 333 60005 90710 91108=
07070,2012-01-15 05:00:00,-3.5,1025.7,-0.8,93,-4.5,13000,9.26,14.816,,90,,,0,,,,,,,0,og-post,,,,AAXX 15054 07070 24963 /0905 11035 21045 30140 40257 56008 700// 333 60005 90710 91108=
07070,2012-01-15 06:00:00,-3.8,1025.6,-0.5,93,-4.8,11000,11.112,12.964,,90,-4.1,-0.1,0,0,,,0,4.3,-7,0,og-post,,,,AAXX 15064 07070 04961 /0906 11038 21048 30139 40256 56005 60002 700// 333 11001 21041 34107 55043 60007 70000 90710 91107 555 60005=
07070,2012-01-15 07:00:00,-4.5,1025.8,-0.2,93,-5.5,10000,9.26,12.964,,80,,,0,,,,,,,0,og-post,,,,AAXX 15074 07070 24960 /0805 11045 21055 30140 40258 55002 700// 333 60005 90710 91107=
07070,2012-01-15 08:00:00,-4.7,1025.9,0.1,93,-5.7,9000,5.556,9.26,,100,,,0,,,,,,,0,og-post,,,,AAXX 15084 07070 24959 /1003 11047 21057 30141 40259 53001 700// 333 60005 90710 91105=
07070,2012-01-15 09:00:00,-1.4,1025.6,0.1,92,-2.5,9000,3.704,7.408,,60,,,0,0,,,,,,0,og-post,,,,AAXX 15094 07070 24959 /0602 11014 21025 30140 40256 50001 700// 333 60007 90710 91104 555 60005=
07070,2012-01-15 10:00:00,0.8,1025.6,0.1,88,-1,9000,11.112,12.964,,80,,,0,,,,,,,0,og-post,,,,AAXX 15104 07070 24959 /0806 10008 21010 30141 40256 52001 700// 333 60005 90710 91107=
07070,2012-01-15 11:00:00,2.2,1025.2,-0.4,85,-0.1,10000,11.112,16.668,,80,,,0,,,,,,,0,og-post,,,,AAXX 15114 07070 24960 /0806 10022 21001 30137 40252 58004 700// 333 60005 90710 91109=
07070,2012-01-15 12:00:00,3.5,1024.3,-1.1,78,0,12000,14.816,20.372,,80,,,0,0,,,,,,0,og-post,,,,AAXX 15124 07070 04962 /0808 10035 20000 30129 40243 58011 60001 700// 333 60007 90710 91111 555 60005=
07070,2012-01-15 13:00:00,4,1023.7,-1.8,75,0,16000,16.668,25.928,,80,,,0,,,,,,,0,og-post,,,,AAXX 15134 07070 24966 /0809 10040 20000 30123 40237 58018 700// 333 60005 90710 91114=
07070,2012-01-15 14:00:00,4.3,1023.4,-1.7,74,0.1,19000,12.964,25.928,,90,,,0,,,,,,,0,og-post,,,,AAXX 15144 07070 24969 /0907 10043 20001 30120 40234 56017 700// 333 60005 90710 91114=
07070,2012-01-15 15:00:00,3.8,1023.4,-0.9,74,-0.4,20000,12.964,20.372,,80,,,0,0,,,,,,0,og-post,,,,AAXX 15154 07070 24970 /0807 10038 21004 30120 40234 56009 700// 333 60007 90710 91111 555 60005=
07070,2012-01-15 16:00:00,1.7,1023.6,-0.2,80,-1.4,20000,12.964,14.816,,80,,,0,,,,,,,0,og-post,,,,AAXX 15164 07070 24970 /0807 10017 21014 30121 40236 55002 700// 333 60005 90710 91108=
07070,2012-01-15 17:00:00,-0.1,1023.7,0.2,88,-1.8,19000,9.26,16.668,,70,,,0,,,,,,,0,og-post,,,,AAXX 15174 07070 24969 /0705 11001 21018 30122 40237 53002 700// 333 60005 90710 91109=
07070,2012-01-15 18:00:00,-0.6,1023.6,0,89,-2.2,15000,11.112,12.964,,70,-5,4.4,0,0,,,,,,0,og-post,,,,AAXX 15184 07070 04965 /0706 11006 21022 30120 40236 50000 60002 700// 333 10044 21050 60007 90710 91107 555 60005=
07070,2012-01-15 19:00:00,-0.4,1023.7,-0,90,-1.8,16000,7.408,14.816,,80,,,0,,,,,,,0,og-post,,,,AAXX 15194 07070 24966 /0804 11004 21018 30121 40237 54000 700// 333 60005 90710 91108=
07070,2012-01-15 20:00:00,-0.6,1023.9,0.1,87,-2.5,16000,5.556,16.668,,80,,,0,,,,,,,0,og-post,,,,AAXX 15204 07070 24966 /0803 11006 21025 30123 40239 53001 700// 333 60005 90710 91109=
07070,2012-01-15 21:00:00,-1.3,1023.9,0.3,90,-2.7,13000,5.556,7.408,,60,,,0,0,,,,,,0,og-post,,,,AAXX 15214 07070 24963 /0603 11013 21027 30123 40239 51003 700// 333 60007 90710 91104 555 60005=
07070,2012-01-15 22:00:00,-1.6,1023.6,-0.1,89,-3.2,15000,7.408,12.964,,40,,,0,,,,,,,0,og-post,,,,AAXX 15224 07070 24965 /0404 11016 21032 30120 40236 58001 700// 333 60005 90710 91107=
07070,2012-01-15 23:00:00,-1.9,1023.7,-0.2,90,-3.3,18000,1.852,7.408,,60,,,0,,,,,,,0,og-post,,,,AAXX 15234 07070 24968 /0601 11019 21033 30121 40237 55002 700// 333 60005 90710 91104=
07070,2012-01-16 00:00:00,-1.7,1023.5,-0.4,87,-3.6,20000,7.408,11.112,,100,,,0,0,,,,,,0,og-post,,,,AAXX 16004 07070 04970 /1004 11017 21036 30119 40235 56004 60001 700// 333 60007 90710 91106 555 60005=
07070,2012-01-16 01:00:00,-1.2,1023.5,-0.1,80,-4.2,20000,5.556,18.52,,100,,,0,,,,,,,0,og-post,,,,AAXX 16014 07070 24970 /1003 11012 21042 30119 40235 58001 700// 333 60005 90710 91110=
07070,2012-01-16 02:00:00,-2.7,1023.6,-0.2,88,-4.4,20000,,5.556,,,,,0,,,,,,,0,og-post,,,,AAXX 16024 07070 24970 /0000 11027 21044 30119 40236 56002 700// 333 60005 90710 91103=
07070,2012-01-16 03:00:00,-3.1,1023.3,-0.3,86,-5.1,20000,5.556,11.112,,110,,,0,0,,,,,,0,og-post,,,,AAXX 16034 07070 24970 /1103 11031 21051 30116 40233 58003 700// 333 60007 90710 91106 555 60005=
07070,2012-01-16 04:00:00,-3.1,1023.7,0.1,87,-5,20000,7.408,11.112,,100,,,0,,,,,,,0,og-post,,,,AAXX 16044 07070 24970 /1004 11031 21050 30120 40237 53001 700// 333 60005 90710 91106=
07070,2012-01-16 05:00:00,-4,1023.9,0.3,89,-5.5,20000,7.408,9.26,,100,,,0,,,,,,,0,og-post,,,,AAXX 16054 07070 24970 /1004 11040 21055 30122 40239 53003 700// 333 60005 90710 91105=
07070,2012-01-16 06:00:00,-3.6,1024.2,0.9,90,-5,20000,7.408,11.112,,110,-4.3,0.1,0,0,,,0,7.5,-9,0,og-post,,,,AAXX 16064 07070 04970 /1104 11036 21050 30125 40242 51009 60002 700// 333 10001 21043 34109 55075 60007 70000 90710 91106 555 60005=
07070,2012-01-16 07:00:00,-2.1,1024.6,1,86,-4.1,20000,11.112,16.668,,100,,,0,,,,,,,0,og-post,,,,AAXX 16074 07070 24970 /1006 11021 21041 30130 40246 53010 700// 333 60005 90710 91109=
07070,2012-01-16 08:00:00,-2,1025,1.2,82,-4.7,20000,3.704,18.52,,90,,,0,,,,,,,0,og-post,,,,AAXX 16084 07070 24970 /0902 11020 21047 30134 40250 53012 700// 333 60005 90710 91110=
07070,2012-01-16 09:00:00,-0.3,1025.2,1.1,79,-3.5,20000,9.26,14.816,,100,,,0,0,,,,,,0,og-post,,,,AAXX 16094 07070 24970 /1005 11003 21035 30136 40252 51011 700// 333 60007 90710 91108 555 60005=
07070,2012-01-16 10:00:00,0.8,1025.8,1.3,77,-2.8,20000,12.964,20.372,,90,,,0,,,,,,,0,og-post,,,,AAXX 16104 07070 24970 /0907 10008 21028 30143 40258 53013 700// 333 60005 90710 91111=
07070,2012-01-16 11:00:00,1.8,1025.8,0.9,70,-3.1,20000,22.224,29.632,,90,,,0,,,,,,,0,og-post,,,,AAXX 16114 07070 24970 /0912 10018 21031 30143 40258 51009 700// 333 60005 90710 91116=
07070,2012-01-16 12:00:00,3,1025.7,0.7,61,-3.8,20000,14.816,27.78,,90,,,0,0,,,,,,0,og-post,,,,AAXX 16124 07070 04970 /0908 10030 21038 30143 40257 51007 60001 700// 333 60007 90710 91115 555 60005=
07070,2012-01-16 13:00:00,3.9,1025.3,-0.4,57,-3.9,20000,16.668,22.224,,80,,,0,,,,,,,0,og-post,,,,AAXX 16134 07070 24970 /0809 10039 21039 30139 40253 58004 700// 333 60005 90710 91112=
07070,2012-01-16 14:00:00,4.3,1025.3,-0.4,56,-3.7,20000,14.816,24.076,,70,,,0,,,,,,,0,og-post,,,,AAXX 16144 07070 24970 /0708 10043 21037 30139 40253 57004 700// 333 60005 90710 91113=
07070,2012-01-16 15:00:00,3.6,1025.4,-0.3,61,-3.2,20000,11.112,20.372,,80,,,0,0,,,,,,0,og-post,,,,AAXX 16154 07070 24970 /0806 10036 21032 30140 40254 55003 700// 333 60007 90710 91111 555 60005=
07070,2012-01-16 16:00:00,1.2,1025.8,0.4,71,-3.5,20000,7.408,14.816,,60,,,0,,,,,,,0,og-post,,,,AAXX 16164 07070 24970 /0604 10012 21035 30143 40258 53004 700// 333 60005 90710 91108=
07070,2012-01-16 17:00:00,-0.6,1026.5,1,81,-3.5,20000,7.408,12.964,,70,,,0,,,,,,,0,og-post,,,,AAXX 16174 07070 24970 /0704 11006 21035 30149 40265 53010 700// 333 60005 90710 91107=
07070,2012-01-16 18:00:00,-1.2,1027,1.4,87,-3.1,20000,11.112,12.964,,100,-3.8,4.3,0,0,,,,,,0,og-post,,,,AAXX 16184 07070 04970 /1006 11012 21031 30154 40270 53014 60002 700// 333 10043 21038 60007 90710 91107 555 60005=
07070,2012-01-16 19:00:00,-1.2,1027.5,1.6,80,-4.2,20000,7.408,16.668,,90,,,0,,,,,,,0,og-post,,,,AAXX 16194 07070 24970 /0904 11012 21042 30159 40275 51016 700// 333 60005 90710 91109=
07070,2012-01-16 20:00:00,-1.7,1027.9,1.3,83,-4.2,20000,,7.408,,,,,0,,,,,,,0,og-post,,,,AAXX 16204 07070 24970 /0000 11017 21042 30162 40279 51013 700// 333 60005 90710 91104=
07070,2012-01-16 21:00:00,-1.7,1028.5,1.4,82,-4.4,20000,1.852,5.556,,170,,,0,0,,,,,,0,og-post,,,,AAXX 16214 07070 24970 /1701 11017 21044 30168 40285 53014 700// 333 60007 90710 91103 555 60005=
07070,2012-01-16 22:00:00,-1.6,1028.8,1.2,81,-4.4,20000,,5.556,,,,,0,,,,,,,0,og-post,,,,AAXX 16224 07070 24970 /0000 11016 21044 30171 40288 52012 700// 333 60005 90710 91103=
07070,2012-01-16 23:00:00,-1.6,1028.7,0.8,79,-4.8,20000,5.556,9.26,,110,,,0,,,,,,,0,og-post,,,,AAXX 16234 07070 24970 /1103 11016 21048 30170 40287 50008 700// 333 60005 90710 91105=
07070,2012-01-17 00:00:00,-2,1029,0.5,80,-5,20000,5.556,14.816,,100,,,0,0,,,,,,0,og-post,,,,AAXX 17004 07070 04970 /1003 11020 21050 30173 40290 52005 60001 700// 333 60007 90710 91108 555 60005=
07070,2012-01-17 01:00:00,-2.7,1029.3,0.5,80,-5.7,20000,5.556,9.26,,340,,,0,,,,,,,0,og-post,,,,AAXX 17014 07070 24970 /3403 11027 21057 30176 40293 53005 700// 333 60005 90710 91105=
07070,2012-01-17 02:00:00,-4.3,1029.8,1,84,-6.6,20000,3.704,7.408,,40,,,0,,,,,,,0,og-post,,,,AAXX 17024 07070 24970 /0402 11043 21066 30180 40298 53010 700// 333 60005 90710 91104=
07070,2012-01-17 03:00:00,-5.1,1029.6,0.5,87,-6.9,18000,3.704,5.556,,100,,,0,0,,,,,,0,og-post,,,,AAXX 17034 07070 24968 /1002 11051 21069 30178 40296 50005 700// 333 60007 90710 91103 555 60005=
07070,2012-01-17 04:00:00,-4.9,1029.5,0.1,89,-6.4,19000,3.704,5.556,,80,,,0,,,,,,,0,og-post,,,,AAXX 17044 07070 24969 /0802 11049 21064 30177 40295 51001 700// 333 60005 90710 91103=
07070,2012-01-17 05:00:00,-4.5,1029.6,-0.2,90,-5.9,17000,11.112,16.668,,90,,,0,,,,,,,0,og-post,,,,AAXX 17054 07070 24967 /0906 11045 21059 30178 40296 55002 700// 333 60005 90710 91109=
07070,2012-01-17 06:00:00,-5.6,1030,0.3,88,-7.3,17000,3.704,16.668,,80,-5.8,-0.2,0,0,,,0,7.7,-9,0,og-post,,,,AAXX 17064 07070 04967 /0802 11056 21073 30181 40300 53003 60002 700// 333 11002 21058 34109 55077 60007 70000 90710 91109 555 60005=
07070,2012-01-17 07:00:00,-3.8,1030.5,1,88,-5.5,17000,3.704,5.556,,230,,,0,,,,,,,0,og-post,,,,AAXX 17074 07070 24967 /2302 11038 21055 30187 40305 53010 700// 333 60005 90710 91103=
07070,2012-01-17 08:00:00,-4.9,1031.1,1.5,87,-6.7,14000,,9.26,,,,,0,,,,,,,0,og-post,,,,AAXX 17084 07070 24964 /0000 11049 21067 30193 40311 53015 700// 333 60005 90710 91105=
07070,2012-01-17 09:00:00,-2.6,1031.6,1.8,85,-4.8,13000,5.556,7.408,,70,,,0,0,,,,,,0,og-post,,,,AAXX 17094 07070 24963 /0703 11026 21048 30199 40316 52018 700// 333 60007 90710 91104 555 60005=
07070,2012-01-17 10:00:00,0.4,1032,1.7,78,-3,14000,3.704,9.26,,100,,,0,,,,,,,0,og-post,,,,AAXX 17104 07070 24964 /1002 10004 21030 30204 40320 52017 700// 333 60005 90710 91105=
07070,2012-01-17 11:00:00,1.8,1031.9,1,68,-3.5,16000,5.556,11.112,,110,,,0,,,,,,,0,og-post,,,,AAXX 17114 07070 24966 /1103 10018 21035 30203 40319 50010 700// 333 60005 90710 91106=
07070,2012-01-17 12:00:00,2.4,1031.5,0.1,68,-2.9,16000,7.408,9.26,,150,,,0,0,,,,,,0,og-post,,,,AAXX 17124 07070 04966 /1504 10024 21029 30200 40315 50001 60001 700// 333 60007 90710 91105 555 60005=
07070,2012-01-17 13:00:00,3.8,1031.1,-0.8,62,-2.8,17000,3.704,9.26,,90,,,0,,,,,,,0,og-post,,,,AAXX 17134 07070 24967 /0902 10038 21028 30196 40311 58008 700// 333 60005 90710 91105=
07070,2012-01-17 14:00:00,3.6,1030.6,-1.2,67,-2,17000,11.112,12.964,,80,,,0,,,,,,,0,og-post,,,,AAXX 17144 07070 24967 /0806 10036 21020 30191 40306 58012 700// 333 60005 90710 91107=
07070,2012-01-17 15:00:00,2.6,1030.5,-1,75,-1.4,15000,12.964,18.52,,100,,,0,0,,,,,,0,og-post,,,,AAXX 17154 07070 24965 /1007 10026 21014 30190 40305 56010 700// 333 60007 90710 91110 555 60005=
07070,2012-01-17 16:00:00,0.4,1030.8,-0.4,82,-2.3,13000,5.556,14.816,,120,,,0,,,,,,,0,og-post,,,,AAXX 17164 07070 24963 /1203 10004 21023 30192 40308 55004 700// 333 60005 90710 91108=
07070,2012-01-17 17:00:00,-0.5,1031.5,0.7,82,-3.2,11000,,9.26,,,,,0,,,,,,,0,og-post,,,,AAXX 17174 07070 24961 /0000 11005 21032 30198 40315 53007 700// 333 60005 90710 91105=
07070,2012-01-17 18:00:00,-0.8,1031.8,1.1,87,-2.7,8000,5.556,11.112,,240,-5.6,4.3,0,0,,,,,,0,og-post,,,,AAXX 17184 07070 04958 /2403 11008 21027 30201 40318 53011 60002 700// 333 10043 21056 60007 90710 91106 555 60005=
07070,2012-01-17 19:00:00,-1.4,1031.7,0.8,86,-3.4,8000,9.26,14.816,,180,,,0,,,,,,,0,og-post,,,,AAXX 17194 07070 24958 /1805 11014 21034 30200 40317 50008 700// 333 60005 90710 91108=
07070,2012-01-17 20:00:00,-1.6,1031.7,0.2,85,-3.8,9000,1.852,11.112,,160,,,0,,,,,,,0,og-post,,,,AAXX 17204 07070 24959 /1601 11016 21038 30200 40317 51002 700// 333 60005 90710 91106=
07070,2012-01-17 21:00:00,-2.9,1031.9,-0,87,-4.8,8000,5.556,7.408,,190,,,0,0,,,,,,0,og-post,,,,AAXX 17214 07070 24958 /1903 11029 21048 30201 40319 55000 700// 333 60007 90710 91104 555 60005=
07070,2012-01-17 22:00:00,-2.7,1032.2,0.4,86,-4.7,7000,,9.26,,,,,0,,,,,,,0,og-post,,,,AAXX 17224 07070 24957 /0000 11027 21047 30204 40322 53004 700// 333 60005 90710 91105=
07070,2012-01-17 23:00:00,-3.4,1032.4,0.6,88,-5.1,7000,1.852,5.556,,300,,,0,,,,,,,0,og-post,,,,AAXX 17234 07070 24957 /3001 11034 21051 30206 40324 53006 700// 333 60005 90710 91103=
07070,2012-01-18 00:00:00,-3.9,1032.5,0.6,91,-5.2,7000,3.704,5.556,,130,,,0,0,,,,,,0,og-post,,,,AAXX 18004 07070 04957 /1302 11039 21052 30207 40325 51006 60001 700// 333 60007 90710 91103 555 60005=
07070,2012-01-18 01:00:00,-3.1,1031.9,-0.3,92,-4.2,9000,5.556,7.408,,200,,,0,,,,,,,0,og-post,,,,AAXX 18014 07070 24959 /2003 11031 21042 30201 40319 58003 700// 333 60005 90710 91104=
07070,2012-01-18 02:00:00,-5,1032.4,-0.1,91,-6.2,5000,,7.408,,,,,0,,,,,,,0,og-post,,,,AAXX 18024 07070 24950 /0000 11050 21062 30205 40324 55001 700// 333 60005 90710 91104=
07070,2012-01-18 03:00:00,-4.7,1032.2,-0.3,92,-5.8,5000,,3.704,,,,,0,0,,,,,,0,og-post,,,,AAXX 18034 07070 24950 /0000 11047 21058 30204 40322 56003 700// 333 60007 90710 91102 555 60005=
07070,2012-01-18 04:00:00,-4.5,1031.9,0,94,-5.3,5000,5.556,5.556,,200,,,0,,,,,,,0,og-post,,,,AAXX 18044 07070 24950 /2003 11045 21053 30201 40319 50000 700// 333 60005 90710 91103=
07070,2012-01-18 05:00:00,-5.7,1032,-0.4,92,-6.8,6000,,5.556,,,,,0,,,,,,,0,og-post,,,,AAXX 18054 07070 24956 /0000 11057 21068 30201 40320 56004 700// 333 60005 90710 91103=
07070,2012-01-18 06:00:00,-5.5,1032.3,-0,93,-6.5,4600,3.704,3.704,,260,-5.9,-0.7,0,0,,,0,7.6,-9,10,og-post,,,,AAXX 18064 07070 04946 /2602 11055 21065 30204 40323 55000 60002 710// 333 11007 21059 30109 55076 60007 70000 90710 91102 555 60005=
07070,2012-01-18 07:00:00,-2.3,1032.9,1.1,95,-3,3900,1.852,5.556,,180,,,0,,,,,,,10,og-post,,,,AAXX 18074 07070 24339 81801 11023 21030 30212 40329 53011 710// 333 60005 90710 91103=
07070,2012-01-18 08:00:00,0.4,1032.7,1,94,-0.5,3500,7.408,12.964,,220,,,0,,,,,,,10,og-post,,,,AAXX 18084 07070 24435 82204 10004 21005 30211 40327 50010 710// 333 60005 90710 91107=
07070,2012-01-18 09:00:00,1,1032.5,0.5,93,0,4200,11.112,14.816,,170,,,0,0,,,,,,10,og-post,,,,AAXX 18094 07070 24442 81706 10010 20000 30209 40325 50005 710// 333 60007 90710 91108 555 60005=
07070,2012-01-18 10:00:00,0.9,1032.7,-0.1,92,-0.3,4000,12.964,22.224,,170,,,0,,,,,,,10,og-post,,,,AAXX 18104 07070 24440 81707 10009 21003 30211 40327 55001 710// 333 60005 90710 91112=
07070,2012-01-18 11:00:00,2,1032.4,-0.3,91,0.7,4300,7.408,16.668,,200,,,0,,,,,,,10,og-post,,,,AAXX 18114 07070 24543 82004 10020 20007 30208 40324 58003 710// 333 60005 90710 91109=
07070,2012-01-18 12:00:00,3.9,1031.6,-0.8,84,1.4,8000,12.964,24.076,,210,,,0,0,,,,,,0,og-post,,,,AAXX 18124 07070 04458 82107 10039 20014 30201 40316 58008 60001 700// 333 60007 90710 91113 555 60005=
07070,2012-01-18 13:00:00,3.7,1031.7,-0.9,82,0.9,8000,24.076,38.892,,230,,,0,,,,,,,0,og-post,,,,AAXX 18134 07070 24458 82313 10037 20009 30202 40317 55009 700// 333 60005 90710 91121=
07070,2012-01-18 14:00:00,3.6,1031.2,-1.1,83,1,7000,18.52,37.04,,230,,,0,,,,,,,0,og-post,,,,AAXX 18144 07070 24457 82310 10036 20010 30197 40312 56011 700// 333 60005 90710 91120=
07070,2012-01-18 15:00:00,3.6,1030.3,-1.3,84,1.1,7000,16.668,27.78,,210,,,0,0,,,,,,0,og-post,,,,AAXX 18154 07070 24457 82109 10036 20011 30188 40303 58013 700// 333 60007 90710 91115 555 60005=
07070,2012-01-18 16:00:00,3.7,1030.3,-1.4,84,1.2,7000,16.668,27.78,,210,,,0,,,,,,,0,og-post,,,,AAXX 18164 07070 24457 82109 10037 20012 30188 40303 56014 700// 333 60005 90710 91115=
07070,2012-01-18 17:00:00,3.2,1030,-1.2,92,2,1700,16.668,27.78,,210,,,0.4,,,,,,,61,og-post,,,,AAXX 18174 07070 24417 82109 10032 20020 30185 40300 56012 761// 333 69945 90710 91115=
07070,2012-01-18 18:00:00,3.4,1029.9,-0.4,93,2.4,2900,11.112,24.076,,210,-5.6,4.2,0.4,0.8,,0.8,,,,10,og-post,,,,AAXX 18184 07070 04329 82106 10034 20024 30184 40299 58004 69982 710// 333 10042 21056 69987 90710 91113 555 69945=
07070,2012-01-18 19:00:00,3.9,1029.5,-0.7,93,2.9,4500,14.816,24.076,,220,,,0.4,,,,,,,10,og-post,,,,AAXX 18194 07070 24345 82208 10039 20029 30181 40295 57007 710// 333 69945 90710 91113=
07070,2012-01-18 20:00:00,4.4,1029.5,-0.4,92,3.2,5000,22.224,35.188,,230,,,,,,,,,,0,og-post,,,,AAXX 18204 07070 24350 82312 10044 20032 30181 40295 56004 700// 333 69905 90710 91119=
07070,2012-01-18 21:00:00,4.8,1028.9,-0.9,93,3.8,8000,22.224,33.336,,230,,,0.2,0.6,,,,,,0,og-post,,,,AAXX 18214 07070 24358 82312 10048 20038 30175 40289 58009 700// 333 69967 90710 91118 555 69925=
07070,2012-01-18 22:00:00,5.1,1028.4,-1.1,92,3.9,10000,22.224,35.188,,230,,,0,,,,,,,0,og-post,,,,AAXX 18224 07070 24360 82312 10051 20039 30170 40284 58011 700// 333 60005 90710 91119=
07070,2012-01-18 23:00:00,5.5,1028.2,-1.3,94,4.6,7000,14.816,35.188,,240,,,,,,,,,,0,og-post,,,,AAXX 18234 07070 24257 82408 10055 20046 30168 40282 56013 700// 333 69905 90710 91119=
07070,2012-01-19 00:00:00,5.8,1027.6,-1.2,95,5.1,5000,16.668,27.78,,230,,,0.2,0.2,0.8,,,,,51,og-post,,,,AAXX 19004 07070 04250 82309 10058 20051 30163 40276 57012 69981 751// 333 69927 90710 91115 555 69925=
07070,2012-01-19 01:00:00,6.4,1027.2,-1.1,95,5.7,8000,14.816,29.632,,230,,,,,,,,,,0,og-post,,,,AAXX 19014 07070 24258 82308 10064 20057 30159 40272 58011 700// 333 69905 90710 91116=
07070,2012-01-19 02:00:00,6.7,1026.8,-1.3,95,6,5000,20.372,29.632,,240,,,,,,,,,,0,og-post,,,,AAXX 19024 07070 24250 82411 10067 20060 30155 40268 56013 700// 333 69905 90710 91116=
07070,2012-01-19 03:00:00,7.3,1026,-1.6,95,6.6,6000,24.076,35.188,,240,,,,,,,,,,58,og-post,,,,AAXX 19034 07070 24256 82413 10073 20066 30147 40260 58016 758// 333 69907 90710 91119 555 69905=
07070,2012-01-19 04:00:00,7.7,1025.8,-1.3,95,6.9,8000,22.224,31.484,,240,,,0.2,,,,,,,61,og-post,,,,AAXX 19044 07070 24358 82412 10077 20069 30146 40258 56013 761// 333 69925 90710 91117=
07070,2012-01-19 05:00:00,8.2,1025.4,-1.3,95,7.4,6000,24.076,35.188,,240,,,,,,,,,,0,og-post,,,,AAXX 19054 07070 24256 82413 10082 20074 30142 40254 56013 700// 333 69905 90710 91119=
07070,2012-01-19 06:00:00,8.6,1024.9,-1,95,7.8,5000,20.372,35.188,,240,3.4,8.6,0,0.2,,1,1.8,0,3,0,og-post,,,,AAXX 19064 07070 04250 82411 10086 20078 30137 40249 58010 60012 700// 333 10086 20034 31003 55000 69927 70018 90710 91119 555 60005=
07070,2012-01-19 07:00:00,9.2,1024.3,-1.5,95,8.4,6000,27.78,42.596,,240,,,0,,,,,,,0,og-post,,,,AAXX 19074 07070 24256 82415 10092 20084 30131 40243 58015 700// 333 60005 90710 91123=
07070,2012-01-19 08:00:00,9.6,1024,-1.3,95,8.8,8000,33.336,48.152,,240,,,,,,,,,,58,og-post,,,,AAXX 19084 07070 24258 82418 10096 20088 30129 40240 56013 758// 333 69905 90710 91126=
07070,2012-01-19 09:00:00,10.1,1023.6,-1.2,93,9,15000,31.484,50.004,,240,,,0,,,,,,,0,og-post,,,,AAXX 19094 07070 24365 82417 10101 20090 30125 40236 56012 700// 333 69907 90710 91127 555 60005=
07070,2012-01-19 10:00:00,10.4,1023.6,-0.6,91,9,19000,29.632,50.004,,240,,,0,,,,,,,0,og-post,,,,AAXX 19104 07070 24369 82416 10104 20090 30125 40236 56006 700// 333 60005 90710 91127=
07070,2012-01-19 11:00:00,11.4,1022.6,-1.3,88,9.5,20000,31.484,50.004,,240,,,0,,,,,,,0,og-post,,,,AAXX 19114 07070 24470 82417 10114 20095 30116 40226 58013 700// 333 60005 90710 91127=
07070,2012-01-19 12:00:00,11.8,1021.6,-1.9,84,9.2,20000,35.188,59.264,55.56,250,,,0,0,,,,,,0,og-post,,,,AAXX 19124 07070 04470 82519 10118 20092 30106 40216 58019 69901 700// 333 60007 91030 90710 91132 555 60005=
07070,2012-01-19 13:00:00,11.8,1020.9,-2.6,84,9.2,20000,33.336,62.968,,250,,,,,,,,,,0,og-post,,,,AAXX 19134 07070 24470 82518 10118 20092 30099 40209 56026 700// 333 69905 90710 91134=
07070,2012-01-19 14:00:00,12.2,1020.5,-2.1,79,8.7,20000,37.04,59.264,,250,,,0,,,,,,,0,og-post,,,,AAXX 19144 07070 24570 82520 10122 20087 30095 40205 56021 700// 333 60005 90710 91132=
07070,2012-01-19 15:00:00,10.8,1020.6,-1,91,9.4,8000,29.632,55.56,,260,,,0.8,0.8,,,,,,61,og-post,,,,AAXX 19154 07070 24358 82616 10108 20094 30096 40206 55010 761// 333 69987 90710 91130 555 69985=
07070,2012-01-19 16:00:00,10.7,1020.5,-0.4,93,9.6,2900,31.484,50.004,,260,,,0.8,,,,,,,61,og-post,,,,AAXX 19164 07070 24429 82617 10107 20096 30095 40205 56004 761// 333 69985 90710 91127=
07070,2012-01-19 17:00:00,10.7,1020.3,-0.2,93,9.6,8000,31.484,46.3,,260,,,0.2,,,,,,,51,og-post,,,,AAXX 19174 07070 24358 82617 10107 20096 30093 40203 58002 751// 333 69925 90710 91125=
07070,2012-01-19 18:00:00,10.7,1020.2,-0.4,93,9.6,7000,24.076,40.744,,270,8.6,12.2,0.6,2,,2,,,,60,og-post,,,,AAXX 19184 07070 04357 82713 10107 20096 30092 40202 57004 60022 760// 333 10122 20086 60027 90710 91122 555 69965=
07070,2012-01-19 19:00:00,9.5,1020.7,0.1,92,8.3,7000,31.484,59.264,,300,,,6,,,,,,,64,og-post,,,,AAXX 19194 07070 24357 83017 10095 20083 30096 40207 53001 764// 333 60065 90710 91132=
07070,2012-01-19 20:00:00,8.7,1020.8,0.4,90,7.1,20000,16.668,35.188,,300,,,0.4,,,,,,,0,og-post,,,,AAXX 19204 07070 24670 73009 10087 20071 30097 40208 53004 700// 333 69945 90710 91119=
07070,2012-01-19 21:00:00,8.2,1021,0.6,84,5.7,20000,18.52,29.632,,290,,,0,6,,,,,,0,og-post,,,,AAXX 19214 07070 24670 /2910 10082 20057 30098 40210 51006 700// 333 60067 90710 91116 555 60005=
07070,2012-01-19 22:00:00,8.3,1020.9,0.1,87,6.3,20000,20.372,31.484,,280,,,0,,,,,,,0,og-post,,,,AAXX 19224 07070 24570 62811 10083 20063 30097 40209 51001 700// 333 60005 90710 91117=
07070,2012-01-19 23:00:00,8.6,1020.5,-0.3,85,6.2,20000,24.076,37.04,,280,,,,,,,,,,60,og-post,,,,AAXX 19234 07070 24570 82813 10086 20062 30094 40205 58003 760// 333 69905 90710 91120=
07070,2012-01-20 00:00:00,7.1,1020.7,-0.3,90,5.6,6000,29.632,50.004,50.004,310,,,3,3,9,,,,,63,og-post,,,,AAXX 20004 07070 04456 83116 10071 20056 30095 40207 55003 60091 763// 333 60037 91027 90710 91127 555 60035=
07070,2012-01-20 01:00:00,7.4,1020.6,-0.3,86,5.2,20000,24.076,50.004,,290,,,0.6,,,,,,,0,og-post,,,,AAXX 20014 07070 24770 82913 10074 20052 30094 40206 56003 700// 333 69965 90710 91127=
07070,2012-01-20 02:00:00,7.4,1020.1,-0.5,84,4.9,20000,27.78,42.596,,280,,,0,,,,,,,0,og-post,,,,AAXX 20024 07070 24670 82815 10074 20049 30089 40201 58005 700// 333 60005 90710 91123=
07070,2012-01-20 03:00:00,6.9,1020.5,-0.2,79,3.5,20000,31.484,55.56,,280,,,0,0.6,,,,,,0,og-post,,,,AAXX 20034 07070 24770 82817 10069 20035 30093 40205 55002 700// 333 69967 90710 91130 555 60005=
07070,2012-01-20 04:00:00,6.2,1020.4,-0.2,80,3,20000,27.78,42.596,,280,,,0,,,,,,,0,og-post,,,,AAXX 20044 07070 24670 82815 10062 20030 30092 40204 56002 700// 333 60005 90710 91123=
07070,2012-01-20 05:00:00,6,1021.2,1,80,2.8,20000,25.928,44.448,,280,,,0,,,,,,,0,og-post,,,,AAXX 20054 07070 24570 72814 10060 20028 30099 40212 53010 700// 333 60005 90710 91124=
07070,2012-01-20 06:00:00,5.8,1021.7,1.1,79,2.4,20000,25.928,46.3,,290,5.8,10.7,0,0,,10,12.3,0,5,0,og-post,,,,AAXX 20064 07070 04970 82914 10058 20024 30104 40217 53011 60102 700// 333 10107 20058 30005 55000 60007 70123 90710 91125 555 60005=
07070,2012-01-20 07:00:00,5.4,1022.3,1.8,81,2.4,20000,22.224,35.188,,280,,,0,,,,,,,0,og-post,,,,AAXX 20074 07070 24970 82812 10054 20024 30110 40223 52018 700// 333 60005 90710 91119=
07070,2012-01-20 08:00:00,5.7,1022.4,1.2,79,2.3,20000,22.224,40.744,,270,,,0,,,,,,,0,og-post,,,,AAXX 20084 07070 24570 72712 10057 20023 30111 40224 51012 700// 333 60005 90710 91122=
07070,2012-01-20 09:00:00,5.9,1022.9,1.2,79,2.5,19000,20.372,33.336,,270,,,0,0,,,,,,0,og-post,,,,AAXX 20094 07070 24969 62711 10059 20025 30116 40229 51012 700// 333 60007 90710 91118 555 60005=
07070,2012-01-20 10:00:00,7.2,1023.1,0.9,75,3.1,20000,25.928,42.596,,270,,,0,,,,,,,0,og-post,,,,AAXX 20104 07070 24970 /2714 10072 20031 30119 40231 53009 700// 333 60005 90710 91123=
07070,2012-01-20 11:00:00,7.6,1022.5,0.2,73,3.1,20000,29.632,44.448,,270,,,0,,,,,,,0,og-post,,,,AAXX 20114 07070 24570 72716 10076 20031 30113 40225 50002 700// 333 60005 90710 91124=
07070,2012-01-20 12:00:00,7.5,1021.6,-1.2,73,3,20000,25.928,42.596,,260,,,0,0,,,,,,0,og-post,,,,AAXX 20124 07070 04570 72614 10075 20030 30104 40216 58012 60001 700// 333 60007 90710 91123 555 60005=
07070,2012-01-20 13:00:00,7.1,1020.4,-2.7,80,3.9,16000,29.632,46.3,,260,,,,,,,,,,61,og-post,,,,AAXX 20134 07070 24566 82616 10071 20039 30092 40204 58027 761// 333 69905 90710 91125=
07070,2012-01-20 14:00:00,6.7,1019.8,-2.7,88,4.9,11000,31.484,48.152,,280,,,0.8,,,,,,,61,og-post,,,,AAXX 20144 07070 24461 82817 10067 20049 30086 40198 56027 761// 333 69985 90710 91126=
07070,2012-01-20 15:00:00,7.1,1019.2,-2.4,88,5.2,14000,33.336,55.56,,280,,,0.4,1,,,,,,61,og-post,,,,AAXX 20154 07070 24464 82818 10071 20052 30080 40192 56024 761// 333 60017 90710 91130 555 69945=
07070,2012-01-20 16:00:00,7.4,1018.9,-1.5,88,5.5,17000,33.336,55.56,51.856,280,,,0.8,,,,,,,61,og-post,,,,AAXX 20164 07070 24467 82818 10074 20055 30077 40189 56015 761// 333 69985 91028 90710 91130=
07070,2012-01-20 17:00:00,7.7,1019,-0.8,88,5.8,20000,27.78,48.152,,280,,,,,,,,,,61,og-post,,,,AAXX 20174 07070 24470 82815 10077 20058 30078 40190 55008 761// 333 69905 90710 91126=
07070,2012-01-20 18:00:00,7.8,1019.4,0.2,89,6.1,15000,25.928,44.448,,290,5.3,7.8,0.2,1,,2,,,,61,og-post,,,,AAXX 20184 07070 04465 82914 10078 20061 30082 40194 53002 60022 761// 333 10078 20053 60017 90710 91124 555 69925=
07070,2012-01-20 19:00:00,7.9,1019.5,0.6,89,6.2,20000,27.78,42.596,,290,,,0.2,,,,,,,61,og-post,,,,AAXX 20194 07070 24470 82915 10079 20062 30083 40195 52006 761// 333 69925 90710 91123=
07070,2012-01-20 20:00:00,7.8,1019.8,0.8,91,6.4,12000,24.076,38.892,,290,,,0.2,,,,,,,61,og-post,,,,AAXX 20204 07070 24462 82913 10078 20064 30086 40198 51008 761// 333 69925 90710 91121=
07070,2012-01-20 21:00:00,8.2,1019.9,0.6,88,6.3,19000,24.076,37.04,,300,,,,0.4,,,,,,0,og-post,,,,AAXX 20214 07070 24469 83013 10082 20063 30088 40199 53006 700// 333 69947 90710 91120 555 69905=
07070,2012-01-20 22:00:00,7.9,1020.5,1,90,6.4,19000,18.52,35.188,,290,,,,,,,,,,0,og-post,,,,AAXX 20224 07070 24469 82910 10079 20064 30093 40205 53010 700// 333 69905 90710 91119=
07070,2012-01-20 23:00:00,7.7,1020.3,0.5,89,6,19000,18.52,33.336,,280,,,0,,,,,,,0,og-post,,,,AAXX 20234 07070 24569 82810 10077 20060 30091 40203 50005 700// 333 60005 90710 91118=
07070,2012-01-21 00:00:00,7.8,1020,0,92,6.6,13000,18.52,29.632,,280,,,,,0.4,,,,,61,og-post,,,,AAXX 21004 07070 04563 82810 10078 20066 30088 40200 50000 69941 761// 333 69907 90710 91116 555 69905=
07070,2012-01-21 01:00:00,8,1019.9,-0.6,91,6.6,10000,18.52,27.78,,270,,,0.4,,,,,,,61,og-post,,,,AAXX 21014 07070 24460 82710 10080 20066 30087 40199 56006 761// 333 69945 90710 91115=
07070,2012-01-21 02:00:00,7.9,1019.7,-0.6,91,6.5,12000,20.372,31.484,,260,,,,,,,,,,0,og-post,,,,AAXX 21024 07070 24662 82611 10079 20065 30085 40197 56006 700// 333 69905 90710 91117=
07070,2012-01-21 03:00:00,7.8,1018.9,-1.1,90,6.3,12000,16.668,27.78,,250,,,,0.4,,,,,,0,og-post,,,,AAXX 21034 07070 24562 82509 10078 20063 30077 40189 58011 700// 333 69947 90710 91115 555 69905=
07070,2012-01-21 04:00:00,7.6,1018.2,-1.7,91,6.2,5000,18.52,31.484,,250,,,,,,,,,,0,og-post,,,,AAXX 21044 07070 24450 82510 10076 20062 30070 40182 58017 700// 333 69905 90710 91117=
07070,2012-01-21 05:00:00,7.9,1017,-2.6,92,6.7,6000,22.224,33.336,,250,,,0.2,,,,,,,0,og-post,,,,AAXX 21054 07070 24456 82512 10079 20067 30059 40170 58026 700// 333 69925 90710 91118=
07070,2012-01-21 06:00:00,7.8,1016.6,-2.2,94,6.9,13000,18.52,31.484,,240,7.5,8.2,,0.2,,1,3.2,0.7,7,0,og-post,,,,AAXX 21064 07070 04363 82410 10078 20069 30055 40166 56022 60012 700// 333 10082 20075 32007 55007 69927 70032 90710 91117 555 69905=
07070,2012-01-21 07:00:00,7.8,1016.3,-1.8,95,7,8000,24.076,35.188,,240,,,0.2,,,,,,,51,og-post,,,,AAXX 21074 07070 24358 82413 10078 20070 30052 40163 56018 751// 333 69925 90710 91119=
07070,2012-01-21 08:00:00,8.4,1016.1,-0.9,95,7.6,8000,18.52,33.336,,230,,,0.2,,,,,,,0,og-post,,,,AAXX 21084 07070 24358 82310 10084 20076 30050 40161 56009 700// 333 69925 90710 91118=
07070,2012-01-21 09:00:00,9.9,1015.7,-0.8,92,8.7,20000,27.78,46.3,,260,,,,0.4,,,,,,0,og-post,,,,AAXX 21094 07070 24370 82615 10099 20087 30047 40157 57008 700// 333 69947 90710 91125 555 69905=
07070,2012-01-21 10:00:00,10.5,1015.5,-0.7,88,8.6,20000,25.928,37.04,,260,,,0,,,,,,,0,og-post,,,,AAXX 21104 07070 24470 82614 10105 20086 30045 40155 57007 700// 333 60005 90710 91120=
07070,2012-01-21 11:00:00,11.4,1015.2,-0.8,80,8.1,20000,29.632,59.264,,270,,,0,,,,,,,0,og-post,,,,AAXX 21114 07070 24570 82716 10114 20081 30042 40152 57008 700// 333 60005 90710 91132=
07070,2012-01-21 12:00:00,11.8,1014.7,-0.9,77,7.9,20000,31.484,50.004,,280,,,0,0,0.4,,,,,0,og-post,,,,AAXX 21124 07070 04570 82817 10118 20079 30038 40147 58009 69941 700// 333 60007 90710 91127 555 60005=
07070,2012-01-21 13:00:00,12.3,1013.7,-1.7,75,8,20000,33.336,51.856,,280,,,0,,,,,,,0,og-post,,,,AAXX 21134 07070 24570 82818 10123 20080 30028 40137 58017 700// 333 60005 90710 91128=
07070,2012-01-21 14:00:00,11.9,1013.2,-1.9,80,8.6,20000,37.04,51.856,,270,,,0,,,,,,,0,og-post,,,,AAXX 21144 07070 24570 82720 10119 20086 30023 40132 57019 700// 333 60005 90710 91128=
07070,2012-01-21 15:00:00,11,1013.1,-1.7,85,8.6,14000,33.336,53.708,,280,,,,,,,,,,50,og-post,,,,AAXX 21154 07070 24464 82818 10110 20086 30021 40131 56017 750// 333 69907 90710 91129 555 69905=
07070,2012-01-21 16:00:00,10.8,1012.7,-1.1,85,8.4,20000,25.928,57.412,,270,,,,,,,,,,0,og-post,,,,AAXX 21164 07070 24470 82714 10108 20084 30017 40127 56011 700// 333 69905 90710 91131=
07070,2012-01-21 17:00:00,10.8,1012.9,-0.4,84,8.2,20000,25.928,48.152,,280,,,0,,,,,,,0,og-post,,,,AAXX 21174 07070 24470 82814 10108 20082 30019 40129 55004 700// 333 60005 90710 91126=
07070,2012-01-21 18:00:00,10.2,1012.9,-0.2,86,8,14000,,,,,7.7,12.8,0.2,0.2,,0.6,,,,61,og-post,,,,AAXX 21184 07070 04564 8//// 10102 20080 30019 40129 56002 69962 761// 333 10128 20077 69927 555 69925=
07070,2012-01-21 19:00:00,10.6,1012.6,-0.1,77,6.7,20000,,,,,,,,,,,,,,0,og-post,,,,AAXX 21194 07070 24570 8//// 10106 20067 30016 40126 58001 700// 333 69905=
07070,2012-01-21 20:00:00,9.4,1013,0.1,87,7.3,3400,,,,,,,0.2,,,,,,,63,og-post,,,,AAXX 21204 07070 24534 8//// 10094 20073 30020 40130 53001 763// 333 69925=
07070,2012-01-21 21:00:00,9.1,1014.2,1.2,82,6.2,20000,,,,,,,0.2,0.4,,,,,,0,og-post,,,,AAXX 21214 07070 24470 8//// 10091 20062 30031 40142 53012 700// 333 69947 555 69925=
07070,2012-01-21 22:00:00,8.8,1015,2.3,74,4.4,19000,,,,,,,0,,,,,,,0,og-post,,,,AAXX 21224 07070 24669 8//// 10088 20044 30039 40150 53023 700// 333 60005=
07070,2012-01-21 23:00:00,8.4,1015.9,2.8,75,4.2,17000,,,,,,,0,,,,,,,0,og-post,,,,AAXX 21234 07070 24567 7//// 10084 20042 30048 40159 51028 700// 333 60005=
07070,2012-01-22 00:00:00,7.3,1016.5,2.2,78,3.7,18000,,,,,,,0,0,0.4,,,,,0,og-post,,,,AAXX 22004 07070 04568 ///// 10073 20037 30053 40165 51022 69941 700// 333 60007 555 60005=
07070,2012-01-22 01:00:00,7.8,1016.6,1.6,75,3.6,19000,,,,,,,0,,,,,,,0,og-post,,,,AAXX 22014 07070 24769 8//// 10078 20036 30055 40166 51016 700// 333 60005=
07070,2012-01-22 02:00:00,6.8,1017.2,1.2,78,3.2,19000,,,,,,,0,,,,,,,0,og-post,,,,AAXX 22024 07070 24969 ///// 10068 20032 30060 40172 52012 700// 333 60005=
07070,2012-01-22 03:00:00,6.7,1017.4,0.9,79,3.3,19000,,,,,,,0,0,,,,,,0,og-post,,,,AAXX 22034 07070 24769 ///// 10067 20033 30062 40174 52009 700// 333 60007 555 60005=
07070,2012-01-22 04:00:00,6,1016.9,0.2,82,3.2,18000,,,,,,,0,,,,,,,0,og-post,,,,AAXX 22044 07070 24668 ///// 10060 20032 30057 40169 50002 700// 333 60005=
07070,2012-01-22 05:00:00,5,1016.9,-0.4,86,2.9,18000,,,,,,,0,,,,,,,0,og-post,,,,AAXX 22054 07070 24568 ///// 10050 20029 30056 40169 58004 700// 333 60005=
07070,2012-01-22 06:00:00,5.1,1016.8,-0.6,85,2.8,18000,,,,,4.9,10.8,0,0,,0.4,1,0.1,4,0,og-post,,,,AAXX 22064 07070 04568 ///// 10051 20028 30056 40168 56006 69942 700// 333 10108 20049 3/004 55001 60007 70010 555 60005=
07070,2012-01-22 07:00:00,5.2,1016.5,-0.4,88,3.4,18000,,,,,,,0,,,,,,,0,og-post,,,,AAXX 22074 07070 24568 6//// 10052 20034 30053 40165 58004 700// 333 60005=
07070,2012-01-22 08:00:00,6,1016.5,-0.3,83,3.3,20000,,,,,,,0,,,,,,,0,og-post,,,,AAXX 22084 07070 24670 8//// 10060 20033 30053 40165 57003 700// 333 60005=
07070,2012-01-22 09:00:00,7.4,1016.3,-0.4,76,3.4,19000,,,,,,,0,0,,,,,,0,og-post,,,,AAXX 22094 07070 24669 8//// 10074 20034 30052 40163 56004 700// 333 60007 555 60005=
07070,2012-01-22 10:00:00,8,1016.5,0.1,75,3.8,19000,,,,,,,0,,,,,,,0,og-post,,,,AAXX 22104 07070 24569 8//// 10080 20038 30054 40165 53001 700// 333 60005=
07070,2012-01-22 11:00:00,8.1,1016.5,0.1,75,3.9,19000,,,,,,,0,,,,,,,0,og-post,,,,AAXX 22114 07070 24569 8//// 10081 20039 30054 40165 53001 700// 333 60005=
07070,2012-01-22 12:00:00,8.7,1015.2,-1.1,78,5.1,20000,,,,,,,0,0,,,,,,0,og-post,,,,AAXX 22124 07070 04570 8//// 10087 20051 30041 40152 58011 60001 700// 333 60007 555 60005=
07070,2012-01-22 13:00:00,8.6,1015,-1.5,78,5,20000,,,,,,,0,,,,,,,0,og-post,,,,AAXX 22134 07070 24570 8//// 10086 20050 30039 40150 58015 700// 333 60005=
07070,2012-01-22 14:00:00,9.1,1015,-1.5,78,5.5,20000,,,,,,,,,,,,,,0,og-post,,,,AAXX 22144 07070 24570 8//// 10091 20055 30039 40150 56015 700// 333 69905=
07070,2012-01-22 15:00:00,9.5,1014.9,-0.2,76,5.5,20000,,,,,,,0,,,,,,,0,og-post,,,,AAXX 22154 07070 24570 8//// 10095 20055 30039 40149 56002 700// 333 69907 555 60005=
07070,2012-01-22 16:00:00,9.5,1015.2,0.3,78,5.9,20000,,,,,,,0,,,,,,,0,og-post,,,,AAXX 22164 07070 24570 8//// 10095 20059 30042 40152 53003 700// 333 60005=
07070,2012-01-22 17:00:00,9.4,1015.7,0.7,77,5.6,20000,,,,,,,0,,,,,,,0,og-post,,,,AAXX 22174 07070 24770 8//// 10094 20056 30046 40157 53007 700// 333 60005=
07070,2012-01-22 18:00:00,8.9,1016.5,1.5,78,5.3,20000,,,,,4.6,9.5,0,0,,,,,,0,og-post,,,,AAXX 22184 07070 04770 7//// 10089 20053 30054 40165 53015 69902 700// 333 10095 20046 60007 555 60005=
07070,2012-01-22 19:00:00,8.7,1016.9,1.6,76,4.7,20000,,,,,,,0,,,,,,,0,og-post,,,,AAXX 22194 07070 24770 7//// 10087 20047 30058 40169 52016 700// 333 60005=
07070,2012-01-22 20:00:00,8.4,1017.3,1.6,80,5.1,20000,,,,,,,0,,,,,,,0,og-post,,,,AAXX 22204 07070 24670 8//// 10084 20051 30062 40173 51016 700// 333 60005=
07070,2012-01-22 21:00:00,7.9,1017.8,1.3,82,5,19000,,,,,,,0,0,,,,,,0,og-post,,,,AAXX 22214 07070 24769 7//// 10079 20050 30067 40178 53013 700// 333 60007 555 60005=
07070,2012-01-22 22:00:00,7.6,1018.2,1.2,83,4.9,18000,,,,,,,0,,,,,,,0,og-post,,,,AAXX 22224 07070 24668 7//// 10076 20049 30070 40182 51012 700// 333 60005=
07070,2012-01-22 23:00:00,6.5,1018.4,1,84,4,15000,,,,,,,0,,,,,,,0,og-post,,,,AAXX 22234 07070 24765 ///// 10065 20040 30072 40184 51010 700// 333 60005=
07070,2012-01-23 00:00:00,6,1018.7,0.8,86,3.8,13000,,,,,,,0,0,,,,,,0,og-post,,,,AAXX 23004 07070 04763 7//// 10060 20038 30075 40187 52008 60001 700// 333 60007 555 60005=
07070,2012-01-23 01:00:00,6,1018.8,0.6,88,4.2,12000,,,,,,,0,,,,,,,0,og-post,,,,AAXX 23014 07070 24662 8//// 10060 20042 30076 40188 51006 700// 333 60005=
07070,2012-01-23 02:00:00,6.3,1019,0.6,87,4.3,12000,,,,,,,0,,,,,,,0,og-post,,,,AAXX 23024 07070 24562 8//// 10063 20043 30078 40190 51006 700// 333 60005=
07070,2012-01-23 03:00:00,6.2,1018.8,0.1,86,4,12000,,,,,,,0,0,,,,,,0,og-post,,,,AAXX 23034 07070 24762 8//// 10062 20040 30076 40188 50001 700// 333 60007 555 60005=
07070,2012-01-23 04:00:00,5.2,1018.9,0,88,3.4,12000,,,,,,,0,,,,,,,0,og-post,,,,AAXX 23044 07070 24762 7//// 10052 20034 30076 40189 50000 700// 333 60005=
07070,2012-01-23 05:00:00,5.3,1019.3,0.2,89,3.6,11000,,,,,,,0,,,,,,,0,og-post,,,,AAXX 23054 07070 24661 8//// 10053 20036 30080 40193 53002 700// 333 60005=
07070,2012-01-23 06:00:00,4.8,1019.6,0.7,91,3.5,11000,,,,,4.8,9,0,0,,,0,0.1,4,0,og-post,,,,AAXX 23064 07070 04661 8//// 10048 20035 30083 40196 53007 60002 700// 333 10090 20048 30004 55001 60007 79999 555 60005=
07070,2012-01-23 07:00:00,4.8,1019.5,0.6,92,3.6,8000,,,,,,,0,,,,,,,0,og-post,,,,AAXX 23074 07070 24658 7//// 10048 20036 30082 40195 51006 700// 333 60005=
07070,2012-01-23 08:00:00,5.1,1019.6,0.3,92,3.9,8000,,,,,,,0,,,,,,,0,og-post,,,,AAXX 23084 07070 24558 8//// 10051 20039 30083 40196 51003 700// 333 60005=
07070,2012-01-23 09:00:00,5.4,1019.9,0.3,90,3.9,10000,,,,,,,0,0,,,,,,0,og-post,,,,AAXX 23094 07070 24560 6//// 10054 20039 30086 40199 53003 700// 333 60007 555 60005=
07070,2012-01-23 10:00:00,6.1,1020,0.6,86,3.9,15000,,,,,,,0,,,,,,,0,og-post,,,,AAXX 23104 07070 24865 8//// 10061 20039 30088 40200 53006 700// 333 60005=
07070,2012-01-23 11:00:00,6.9,1020.4,0.9,82,4,17000,14.816,,,270,,,0,,,,,,,0,og-post,,,,AAXX 23114 07070 24867 82708 10069 20040 30092 40204 53009 700// 333 60005=
07070,2012-01-23 12:00:00,7.6,1020.1,0.3,80,4.4,18000,18.52,27.78,,290,,,0,0,,,,,,0,og-post,,,,AAXX 23124 07070 04968 82910 10076 20044 30089 40201 50003 60001 700// 333 60007 90710 91115 555 60005=
07070,2012-01-23 13:00:00,7.7,1019.6,-0.4,76,3.7,19000,14.816,25.928,,270,,,0,,,,,,,0,og-post,,,,AAXX 23134 07070 24469 82708 10077 20037 30084 40196 58004 700// 333 60005 90710 91114=
07070,2012-01-23 14:00:00,7.9,1019.4,-1,74,3.5,20000,14.816,24.076,,290,,,0,,,,,,,0,og-post,,,,AAXX 23144 07070 24570 82908 10079 20035 30082 40194 56010 700// 333 60005 90710 91113=
07070,2012-01-23 15:00:00,7.8,1019.6,-0.5,73,3.3,20000,18.52,27.78,,280,,,0,0,,,,,,0,og-post,,,,AAXX 23154 07070 24870 82810 10078 20033 30084 40196 55005 700// 333 60007 90710 91115 555 60005=
07070,2012-01-23 16:00:00,7.2,1019.7,0.1,76,3.2,20000,12.964,20.372,,270,,,0,,,,,,,0,og-post,,,,AAXX 23164 07070 24770 82707 10072 20032 30085 40197 53001 700// 333 60005 90710 91111=
07070,2012-01-23 17:00:00,6.7,1019.6,0.2,81,3.7,19000,11.112,16.668,,260,,,0,,,,,,,0,og-post,,,,AAXX 23174 07070 24969 82606 10067 20037 30084 40196 50002 700// 333 60005 90710 91109=
07070,2012-01-23 18:00:00,6.5,1019.6,0,82,3.6,19000,14.816,18.52,,260,4.8,8,0,0,,,,,,0,og-post,,,,AAXX 23184 07070 04969 82608 10065 20036 30084 40196 50000 60002 700// 333 10080 20048 60007 90710 91110 555 60005=
07070,2012-01-23 19:00:00,6.5,1019.7,-0,81,3.5,20000,18.52,25.928,,260,,,0,,,,,,,0,og-post,,,,AAXX 23194 07070 24770 82610 10065 20035 30085 40197 55000 700// 333 60005 90710 91114=
07070,2012-01-23 20:00:00,6.5,1019.8,0.2,80,3.3,20000,20.372,27.78,,280,,,,,,,,,,0,og-post,,,,AAXX 23204 07070 24770 82811 10065 20033 30086 40198 53002 700// 333 69905 90710 91115=
07070,2012-01-23 21:00:00,6.1,1019.9,0.3,82,3.3,20000,18.52,25.928,,280,,,0,,,,,,,0,og-post,,,,AAXX 23214 07070 24970 82810 10061 20033 30087 40199 52003 700// 333 69907 90710 91114 555 60005=
07070,2012-01-23 22:00:00,6.2,1020.3,0.6,82,3.4,20000,16.668,27.78,,280,,,0,,,,,,,0,og-post,,,,AAXX 23224 07070 24570 82809 10062 20034 30091 40203 53006 700// 333 60005 90710 91115=
07070,2012-01-23 23:00:00,5.8,1020.8,0.9,84,3.3,20000,12.964,25.928,,290,,,0,,,,,,,0,og-post,,,,AAXX 23234 07070 24770 82907 10058 20033 30095 40208 53009 700// 333 60005 90710 91114=
07070,2012-01-24 00:00:00,6,1021,1,85,3.7,20000,14.816,20.372,,280,,,0,0,,,,,,0,og-post,,,,AAXX 24004 07070 04870 82808 10060 20037 30097 40210 51010 69901 700// 333 60007 90710 91111 555 60005=
07070,2012-01-24 01:00:00,5.7,1021.2,0.8,87,3.7,19000,9.26,20.372,,290,,,0,,,,,,,0,og-post,,,,AAXX 24014 07070 24869 82905 10057 20037 30099 40212 51008 700// 333 60005 90710 91111=
07070,2012-01-24 02:00:00,5.3,1021.5,0.7,89,3.6,19000,11.112,14.816,,280,,,0,,,,,,,0,og-post,,,,AAXX 24024 07070 24469 72806 10053 20036 30102 40215 53007 700// 333 60005 90710 91108=
07070,2012-01-24 03:00:00,4.2,1021.7,0.7,90,2.7,19000,11.112,16.668,,300,,,0,0,,,,,,0,og-post,,,,AAXX 24034 07070 24769 /3006 10042 20027 30104 40217 52007 700// 333 60007 90710 91109 555 60005=
07070,2012-01-24 04:00:00,3.3,1022.2,0.9,93,2.3,14000,7.408,14.816,,250,,,0,,,,,,,0,og-post,,,,AAXX 24044 07070 24764 /2504 10033 20023 30108 40222 53009 700// 333 60005 90710 91108=
07070,2012-01-24 05:00:00,2.5,1022.6,1,94,1.6,12000,7.408,7.408,,300,,,0,,,,,,,0,og-post,,,,AAXX 24054 07070 24962 /3004 10025 20016 30112 40226 53010 700// 333 60005 90710 91104=
07070,2012-01-24 06:00:00,1.9,1023.1,1.2,94,1,9000,5.556,9.26,,310,1.9,6.5,0,0,,,0,0.2,-1,0,og-post,,,,AAXX 24064 07070 04959 /3103 10019 20010 30116 40231 52012 69902 700// 333 10065 20019 30101 55002 60007 79999 90710 91105 555 60005=
07070,2012-01-24 07:00:00,1.4,1023.1,0.8,95,0.7,2000,5.556,7.408,,210,,,0,,,,,,,10,og-post,,,,AAXX 24074 07070 24920 /2103 10014 20007 30116 40231 51008 710// 333 60005 90710 91104=
07070,2012-01-24 08:00:00,1.3,1023.7,1,96,0.7,1800,3.704,7.408,,210,,,0,,,,,,,10,og-post,,,,AAXX 24084 07070 24918 72102 10013 20007 30122 40237 53010 710// 333 60005 90710 91104=
07070,2012-01-24 09:00:00,1.6,1024.2,1.1,96,1,2500,,7.408,,,,,0,0,,,,,,10,og-post,,,,AAXX 24094 07070 24925 60000 10016 20010 30127 40242 53011 710// 333 60007 90710 91104 555 60005=
07070,2012-01-24 10:00:00,3.5,1024.3,1.3,96,2.9,7000,5.556,9.26,,220,,,0,,,,,,,0,og-post,,,,AAXX 24104 07070 24457 72203 10035 20029 30129 40243 51013 700// 333 60005 90710 91105=
07070,2012-01-24 15:00:00,5.5,1022.9,-0.9,81,2.5,15000,14.816,20.372,,270,,,,,,,,,,61,og-post,,,,AAXX 24154 07070 24465 82708 10055 20025 30116 40229 58009 761// 333 69907 90710 91111 555 69905=
07070,2012-01-24 16:00:00,4.1,1022.7,-1.2,86,2,18000,3.704,22.224,,220,,,0.8,,,,,,,61,og-post,,,,AAXX 24164 07070 24468 82202 10041 20020 30113 40227 56012 761// 333 69985 90710 91112=
07070,2012-01-24 17:00:00,3.8,1022.6,-0.5,89,2.2,12000,7.408,14.816,,210,,,0.8,,,,,,,61,og-post,,,,AAXX 24174 07070 24462 82104 10038 20022 30112 40226 57005 761// 333 69985 90710 91108=
07070,2012-01-24 18:00:00,3.5,1022.7,-0.3,90,2,15000,9.26,16.668,,190,0.8,6.1,0.6,2,,2,,,,61,og-post,,,,AAXX 24184 07070 04465 81905 10035 20020 30113 40227 55003 60022 761// 333 10061 20008 60027 90710 91109 555 69965=
07070,2012-01-24 19:00:00,3.4,1022.2,-0.5,92,2.2,13000,11.112,16.668,,160,,,0.2,,,,,,,60,og-post,,,,AAXX 24194 07070 24563 81606 10034 20022 30108 40222 58005 760// 333 69925 90710 91109=
07070,2012-01-24 20:00:00,3.3,1022,-0.6,93,2.3,4300,12.964,22.224,,140,,,,,,,,,,51,og-post,,,,AAXX 24204 07070 24343 81407 10033 20023 30106 40220 58006 751// 333 69905 90710 91112=
07070,2012-01-24 21:00:00,3.2,1021.6,-1.1,95,2.5,5000,20.372,27.78,,160,,,0.2,0.4,,,,,,51,og-post,,,,AAXX 24214 07070 24350 81611 10032 20025 30102 40216 56011 751// 333 69947 90710 91115 555 69925=
07070,2012-01-24 22:00:00,3.3,1021.4,-0.8,95,2.6,7000,16.668,27.78,,160,,,0.2,,,,,,,0,og-post,,,,AAXX 24224 07070 24357 81609 10033 20026 30100 40214 57008 700// 333 69925 90710 91115=
07070,2012-01-24 23:00:00,3.4,1021.5,-0.5,94,2.5,7000,14.816,24.076,,160,,,0,,,,,,,0,og-post,,,,AAXX 24234 07070 24357 81608 10034 20025 30101 40215 55005 700// 333 60005 90710 91113=
07070,2012-01-25 00:00:00,3.5,1021.4,-0.2,95,2.8,16000,14.816,24.076,,160,,,0,0.2,0.6,,,,,0,og-post,,,,AAXX 25004 07070 04366 81608 10035 20028 30100 40214 56002 69961 700// 333 69927 90710 91113 555 60005=
07070,2012-01-25 01:00:00,3.6,1021.1,-0.3,94,2.7,18000,14.816,20.372,,170,,,0,,,,,,,0,og-post,,,,AAXX 25014 07070 24268 81708 10036 20027 30097 40211 58003 700// 333 60005 90710 91111=
07070,2012-01-25 02:00:00,3.8,1020.9,-0.5,94,2.9,16000,11.112,18.52,,170,,,0,,,,,,,0,og-post,,,,AAXX 25024 07070 24266 81706 10038 20029 30096 40209 57005 700// 333 60005 90710 91110=
07070,2012-01-25 03:00:00,3.8,1020.6,-0.7,95,3.1,8000,12.964,18.52,,170,,,0.2,0.2,,,,,,0,og-post,,,,AAXX 25034 07070 24258 81707 10038 20031 30093 40206 57007 700// 333 69927 90710 91110 555 69925=
07070,2012-01-25 04:00:00,3.9,1020.4,-0.6,95,3.2,5000,11.112,18.52,,170,,,0,,,,,,,0,og-post,,,,AAXX 25044 07070 24150 81706 10039 20032 30091 40204 57006 700// 333 60005 90710 91110=
07070,2012-01-25 05:00:00,3.9,1020.2,-0.7,95,3.2,3700,12.964,16.668,,150,,,,,,,,,,10,og-post,,,,AAXX 25054 07070 24137 81507 10039 20032 30089 40202 56007 710// 333 69905 90710 91109=
07070,2012-01-25 06:00:00,4,1020.6,-0,96,3.4,1000,11.112,18.52,,170,3.1,4,0,,,0.8,3,0.1,3,10,og-post,,,,AAXX 25064 07070 04/10 91706 10040 20034 30093 40206 55000 69982 710// 333 10040 20031 31003 55001 69907 70030 90710 91110 555 60005=
07070,2012-01-25 07:00:00,4.1,1020.5,0.1,96,3.5,2700,11.112,18.52,,170,,,,,,,,,,51,og-post,,,,AAXX 25074 07070 24127 81706 10041 20035 30092 40205 53001 751// 333 69905 90710 91110=
07070,2012-01-25 08:00:00,4.2,1020.5,0.3,96,3.6,4300,9.26,16.668,,160,,,0.2,,,,,,,61,og-post,,,,AAXX 25084 07070 24243 81605 10042 20036 30092 40205 51003 761// 333 69925 90710 91109=
07070,2012-01-25 09:00:00,4.5,1020.7,0.1,96,3.9,9000,9.26,14.816,,160,,,,0.2,,,,,,0,og-post,,,,AAXX 25094 07070 24259 81605 10045 20039 30094 40207 53001 700// 333 69927 90710 91108 555 69905=
07070,2012-01-25 10:00:00,4.8,1020.7,0.2,96,4.2,8000,11.112,14.816,,160,,,,,,,,,,0,og-post,,,,AAXX 25104 07070 24258 81606 10048 20042 30094 40207 52002 700// 333 69905 90710 91108=
07070,2012-01-25 11:00:00,5.3,1020.5,0,95,4.6,6000,12.964,18.52,,150,,,0,,,,,,,0,og-post,,,,AAXX 25114 07070 24256 81507 10053 20046 30092 40205 50000 700// 333 60005 90710 91110=
07070,2012-01-25 12:00:00,6,1020.1,-0.5,94,5.1,16000,12.964,18.52,,160,,,0,,0.2,,,,,0,og-post,,,,AAXX 25124 07070 04266 81607 10060 20051 30089 40201 58005 69921 700// 333 69907 90710 91110 555 60005=
07070,2012-01-25 13:00:00,6.3,1019.6,-1,93,5.3,11000,12.964,18.52,,150,,,0,,,,,,,0,og-post,,,,AAXX 25134 07070 24261 81507 10063 20053 30084 40196 58010 700// 333 60005 90710 91110=
07070,2012-01-25 14:00:00,6.6,1019.1,-1.3,94,5.7,9000,14.816,22.224,,160,,,0,,,,,,,0,og-post,,,,AAXX 25144 07070 24259 81608 10066 20057 30079 40191 58013 700// 333 60005 90710 91112=
07070,2012-01-25 15:00:00,6.5,1018.9,-1.2,94,5.6,6000,12.964,18.52,,150,,,0,0,,,,,,0,og-post,,,,AAXX 25154 07070 24256 81507 10065 20056 30077 40189 56012 700// 333 60007 90710 91110 555 60005=
07070,2012-01-25 16:00:00,6.4,1018.9,-0.7,95,5.7,6000,12.964,18.52,,160,,,0,,,,,,,0,og-post,,,,AAXX 25164 07070 24256 81607 10064 20057 30077 40189 56007 700// 333 60005 90710 91110=
07070,2012-01-25 17:00:00,6.4,1018.9,-0.2,95,5.7,3700,9.26,18.52,,150,,,0,,,,,,,10,og-post,,,,AAXX 25174 07070 24137 81505 10064 20057 30077 40189 56002 710// 333 60005 90710 91110=
07070,2012-01-25 18:00:00,6.4,1018.9,-0,96,5.8,2300,11.112,16.668,,150,4,6.6,0,0,,0.2,,,,10,og-post,,,,AAXX 25184 07070 04123 81506 10064 20058 30077 40189 54000 69922 710// 333 10066 20040 60007 90710 91109 555 60005=
07070,2012-01-25 19:00:00,6.4,1018.7,-0.2,96,5.8,2100,14.816,20.372,,160,,,0,,,,,,,10,og-post,,,,AAXX 25194 07070 24121 81608 10064 20058 30075 40187 58002 710// 333 60005 90710 91111=
07070,2012-01-25 20:00:00,6.4,1018.3,-0.6,96,5.8,2700,14.816,22.224,,160,,,0,,,,,,,10,og-post,,,,AAXX 25204 07070 24127 81608 10064 20058 30071 40183 58006 710// 333 60005 90710 91112=
07070,2012-01-25 21:00:00,6.5,1018,-0.9,96,5.9,5000,20.372,29.632,,160,,,0,0,,,,,,0,og-post,,,,AAXX 25214 07070 24250 81611 10065 20059 30068 40180 58009 700// 333 60007 90710 91116 555 60005=
07070,2012-01-25 22:00:00,6.6,1017.7,-1,96,6,3700,18.52,29.632,,170,,,0,,,,,,,10,og-post,,,,AAXX 25224 07070 24537 81710 10066 20060 30065 40177 56010 710// 333 60005 90710 91116=
07070,2012-01-25 23:00:00,6.7,1017.5,-0.8,96,6.1,4000,12.964,24.076,,190,,,0,,,,,,,10,og-post,,,,AAXX 25234 07070 24140 81907 10067 20061 30063 40175 56008 710// 333 60005 90710 91113=
07070,2012-01-26 00:00:00,6.8,1017.1,-0.9,96,6.2,4200,9.26,18.52,,180,,,0,0,,,,,,10,og-post,,,,AAXX 26004 07070 04242 81805 10068 20062 30059 40171 58009 60001 710// 333 60007 90710 91110 555 60005=
07070,2012-01-26 01:00:00,7,1016.6,-1.1,96,6.4,5000,16.668,24.076,,170,,,0,,,,,,,0,og-post,,,,AAXX 26014 07070 24550 81709 10070 20064 30054 40166 58011 700// 333 60005 90710 91113=
07070,2012-01-26 02:00:00,7,1016.4,-1.1,95,6.3,4600,16.668,24.076,,160,,,0,,,,,,,10,og-post,,,,AAXX 26024 07070 24246 81609 10070 20063 30052 40164 56011 710// 333 60005 90710 91113=
07070,2012-01-26 03:00:00,6.9,1015.9,-1.2,95,6.2,4700,18.52,27.78,,160,,,0,0,,,,,,10,og-post,,,,AAXX 26034 07070 24247 81610 10069 20062 30047 40159 57012 710// 333 60007 90710 91115 555 60005=
07070,2012-01-26 04:00:00,6.9,1015.6,-1,95,6.2,6000,20.372,27.78,,160,,,0,,,,,,,0,og-post,,,,AAXX 26044 07070 24256 81611 10069 20062 30044 40156 58010 700// 333 60005 90710 91115=
07070,2012-01-26 05:00:00,6.8,1015.4,-1,95,6.1,6000,20.372,29.632,,160,,,0,,,,,,,0,og-post,,,,AAXX 26054 07070 24256 81611 10068 20061 30042 40154 56010 700// 333 60005 90710 91116=
07070,2012-01-26 06:00:00,6.8,1015.4,-0.5,95,6.1,7000,16.668,25.928,,160,6.3,7,0.2,0.2,,0.2,0.4,0,6,0,og-post,,,,AAXX 26064 07070 04357 81609 10068 20061 30042 40154 56005 69922 700// 333 10070 20063 3/006 55000 69927 70004 90710 91114 555 69925=
07070,2012-01-26 07:00:00,7,1015.1,-0.4,96,6.4,6000,16.668,24.076,,170,,,,,,,,,,0,og-post,,,,AAXX 26074 07070 24256 81709 10070 20064 30040 40151 57004 700// 333 69905 90710 91113=
07070,2012-01-26 08:00:00,7.1,1014.9,-0.4,95,6.4,5000,16.668,24.076,,150,,,0,,,,,,,0,og-post,,,,AAXX 26084 07070 24250 81509 10071 20064 30038 40149 58004 700// 333 60005 90710 91113=
07070,2012-01-26 09:00:00,7.9,1014.9,-0.4,95,7.1,9000,14.816,20.372,,170,,,0,,,,,,,0,og-post,,,,AAXX 26094 07070 24259 81708 10079 20071 30038 40149 56004 700// 333 69907 90710 91111 555 60005=
07070,2012-01-26 10:00:00,8.2,1014.9,-0.2,92,7,11000,16.668,29.632,,170,,,0,,,,,,,0,og-post,,,,AAXX 26104 07070 24361 81709 10082 20070 30038 40149 56002 700// 333 60005 90710 91116=
07070,2012-01-26 11:00:00,8.5,1014.8,-0.1,92,7.3,13000,18.52,29.632,,170,,,,,,,,,,0,og-post,,,,AAXX 26114 07070 24563 81710 10085 20073 30037 40148 54001 700// 333 69905 90710 91116=
07070,2012-01-26 12:00:00,8.6,1014.5,-0.4,92,7.4,11000,14.816,25.928,,180,,,,,,,,,,61,og-post,,,,AAXX 26124 07070 04461 81808 10086 20074 30034 40145 58004 69901 761// 333 69907 90710 91114 555 69905=
07070,2012-01-26 13:00:00,8.7,1014.5,-0.4,92,7.5,14000,11.112,18.52,,200,,,,,,,,,,0,og-post,,,,AAXX 26134 07070 24464 82006 10087 20075 30034 40145 56004 700// 333 69905 90710 91110=
07070,2012-01-26 14:00:00,9.2,1014.4,-0.3,88,7.3,20000,14.816,27.78,,210,,,0,,,,,,,0,og-post,,,,AAXX 26144 07070 24470 72108 10092 20073 30034 40144 56003 700// 333 60005 90710 91115=
07070,2012-01-26 15:00:00,9.4,1014.5,0.1,84,6.8,17000,14.816,24.076,,220,,,0,,,,,,,0,og-post,,,,AAXX 26154 07070 24467 82208 10094 20068 30035 40145 53001 700// 333 69907 90710 91113 555 60005=
07070,2012-01-26 16:00:00,8.8,1015,0.5,88,6.9,20000,11.112,22.224,,230,,,0.2,,,,,,,0,og-post,,,,AAXX 26164 07070 24470 82306 10088 20069 30039 40150 53005 700// 333 69925 90710 91112=
07070,2012-01-26 17:00:00,7,1016.1,1.5,87,5,13000,11.112,35.188,,290,,,,,,,,,,61,og-post,,,,AAXX 26174 07070 24563 82906 10070 20050 30049 40161 53015 761// 333 69905 90710 91119=
07070,2012-01-26 18:00:00,6.5,1016.8,2.1,90,5,20000,9.26,14.816,,260,6.5,9.9,0.2,0.4,,0.4,,,,60,og-post,,,,AAXX 26184 07070 04670 82605 10065 20050 30056 40168 53021 69942 760// 333 10099 20065 69947 90710 91108 555 69925=
07070,2012-01-26 19:00:00,6,1017.3,2.2,92,4.8,20000,9.26,12.964,,260,,,,,,,,,,0,og-post,,,,AAXX 26194 07070 24970 82605 10060 20048 30061 40173 51022 700// 333 69905 90710 91107=
07070,2012-01-26 20:00:00,5.1,1017.9,1.7,90,3.6,20000,7.408,14.816,,260,,,0,,,,,,,0,og-post,,,,AAXX 26204 07070 24970 /2604 10051 20036 30066 40179 51017 700// 333 60005 90710 91108=
07070,2012-01-26 21:00:00,4.2,1018.4,1.5,92,3,20000,5.556,11.112,,250,,,0.2,0.2,,,,,,0,og-post,,,,AAXX 26214 07070 24970 /2503 10042 20030 30071 40184 52015 700// 333 69927 90710 91106 555 69925=
07070,2012-01-26 22:00:00,4,1018.9,1.5,92,2.8,20000,5.556,9.26,,230,,,0,,,,,,,0,og-post,,,,AAXX 26224 07070 24970 /2303 10040 20028 30076 40189 52015 700// 333 60005 90710 91105=
07070,2012-01-26 23:00:00,2.6,1019.5,1.5,92,1.4,8000,5.556,12.964,,210,,,0,,,,,,,0,og-post,,,,AAXX 26234 07070 24958 /2103 10026 20014 30081 40195 52015 700// 333 60005 90710 91107=
07070,2012-01-27 00:00:00,2.3,1019.9,1.4,94,1.4,8000,1.852,12.964,,220,,,0,0,0.2,,,,,0,og-post,,,,AAXX 27004 07070 04958 /2201 10023 20014 30085 40199 51014 69921 700// 333 60007 90710 91107 555 60005=
07070,2012-01-27 01:00:00,0.9,1020.4,1.3,94,0,5000,5.556,7.408,,190,,,0,,,,,,,0,og-post,,,,AAXX 27014 07070 24950 /1903 10009 20000 30089 40204 51013 700// 333 60005 90710 91104=
07070,2012-01-27 02:00:00,1.4,1020.6,1.1,95,0.7,8000,3.704,9.26,,220,,,0,,,,,,,0,og-post,,,,AAXX 27024 07070 24958 /2202 10014 20007 30092 40206 52011 700// 333 60005 90710 91105=
07070,2012-01-27 03:00:00,1.2,1021,1,96,0.6,8000,9.26,12.964,,200,,,0,0,,,,,,0,og-post,,,,AAXX 27034 07070 24958 /2005 10012 20006 30095 40210 51010 700// 333 60007 90710 91107 555 60005=
07070,2012-01-27 04:00:00,0.7,1021.4,1,96,0.1,13000,11.112,14.816,,190,,,0,,,,,,,0,og-post,,,,AAXX 27044 07070 24963 71906 10007 20001 30099 40214 53010 700// 333 60005 90710 91108=
07070,2012-01-27 05:00:00,1.2,1021.8,1.1,95,0.5,13000,3.704,14.816,,200,,,0,,,,,,,0,og-post,,,,AAXX 27054 07070 24963 82002 10012 20005 30103 40218 53011 700// 333 60005 90710 91108=
07070,2012-01-27 06:00:00,1.4,1022.5,1.5,96,0.8,13000,3.704,7.408,,220,0.5,6.5,0,0,,0.2,0.6,0.1,-3,0,og-post,,,,AAXX 27064 07070 04963 /2202 10014 20008 30110 40225 53015 69922 700// 333 10065 20005 3/103 55001 60007 70006 90710 91104 555 60005=
07070,2012-01-27 07:00:00,0.2,1023.1,1.7,95,-0.5,10000,1.852,5.556,,180,,,0,,,,,,,0,og-post,,,,AAXX 27074 07070 24960 /1801 10002 21005 30116 40231 53017 700// 333 60005 90710 91103=
07070,2012-01-27 08:00:00,0.8,1023.6,1.8,96,0.2,14000,5.556,7.408,,190,,,0,,,,,,,0,og-post,,,,AAXX 27084 07070 24964 /1903 10008 20002 30121 40236 51018 700// 333 60005 90710 91104=
07070,2012-01-27 09:00:00,1.6,1024.2,1.7,94,0.7,8000,3.704,7.408,,220,,,0,0,,,,,,0,og-post,,,,AAXX 27094 07070 24958 /2202 10016 20007 30127 40242 52017 700// 333 60007 90710 91104 555 60005=
07070,2012-01-27 10:00:00,4.2,1024.6,1.6,90,2.7,7000,3.704,7.408,,200,,,0,,,,,,,0,og-post,,,,AAXX 27104 07070 24957 /2002 10042 20027 30132 40246 52016 700// 333 60005 90710 91104=
07070,2012-01-27 11:00:00,5.1,1024.6,1.2,86,2.9,11000,3.704,5.556,,160,,,0,,,,,,,0,og-post,,,,AAXX 27114 07070 24961 /1602 10051 20029 30133 40246 51012 700// 333 60005 90710 91103=
07070,2012-01-27 12:00:00,5.9,1024.5,0.5,84,3.4,14000,5.556,11.112,,200,,,0,0,,,,,,0,og-post,,,,AAXX 27124 07070 04964 /2003 10059 20034 30132 40245 51005 60001 700// 333 60007 90710 91106 555 60005=
07070,2012-01-27 13:00:00,6.4,1024.2,-0.3,84,3.9,14000,9.26,12.964,,170,,,0,,,,,,,0,og-post,,,,AAXX 27134 07070 24964 /1705 10064 20039 30129 40242 58003 700// 333 60005 90710 91107=
07070,2012-01-27 14:00:00,6.5,1024.4,-0.2,85,4.2,10000,12.964,16.668,,180,,,0,,,,,,,0,og-post,,,,AAXX 27144 07070 24960 /1807 10065 20042 30131 40244 55002 700// 333 60005 90710 91109=
07070,2012-01-27 15:00:00,6.7,1024.5,-0,84,4.2,15000,9.26,18.52,,170,,,0,0,,,,,,0,og-post,,,,AAXX 27154 07070 24965 /1705 10067 20042 30132 40245 55000 700// 333 60007 90710 91110 555 60005=
07070,2012-01-27 16:00:00,5.5,1024.5,0.3,87,3.5,11000,11.112,12.964,,160,,,0,,,,,,,0,og-post,,,,AAXX 27164 07070 24961 /1606 10055 20035 30132 40245 51003 700// 333 60005 90710 91107=
07070,2012-01-27 17:00:00,4.2,1024.9,0.4,91,2.9,10000,14.816,18.52,,170,,,0,,,,,,,0,og-post,,,,AAXX 27174 07070 24960 /1708 10042 20029 30135 40249 53004 700// 333 60005 90710 91110=
07070,2012-01-27 18:00:00,3.1,1025,0.4,93,2.1,4900,12.964,18.52,,180,-0.3,7.3,0,0,,,,,,10,og-post,,,,AAXX 27184 07070 04949 /1807 10031 20021 30136 40250 53004 60002 710// 333 10073 21003 60007 90710 91110 555 60005=
07070,2012-01-27 19:00:00,1.8,1025.2,0.5,94,0.9,2200,12.964,16.668,,170,,,0,,,,,,,10,og-post,,,,AAXX 27194 07070 24922 /1707 10018 20009 30137 40252 51005 710// 333 60005 90710 91109=
07070,2012-01-27 20:00:00,1.6,1025.4,0.4,95,0.9,2500,12.964,16.668,,180,,,0,,,,,,,10,og-post,,,,AAXX 27204 07070 24725 /1807 10016 20009 30139 40254 53004 710// 333 60005 90710 91109=
07070,2012-01-27 21:00:00,1.2,1025.3,0.2,95,0.5,2900,12.964,16.668,,180,,,0,0,,,,,,10,og-post,,,,AAXX 27214 07070 24829 /1807 10012 20005 30138 40253 50002 710// 333 60007 90710 91109 555 60005=
07070,2012-01-27 22:00:00,0.6,1025.3,0.1,96,0,3200,11.112,16.668,,200,,,0,,,,,,,10,og-post,,,,AAXX 27224 07070 24932 /2006 10006 20000 30138 40253 51001 710// 333 60005 90710 91109=
07070,2012-01-27 23:00:00,1.4,1025.3,-0.1,96,0.8,7000,14.816,18.52,,180,,,0,,,,,,,0,og-post,,,,AAXX 27234 07070 24857 /1808 10014 20008 30138 40253 56001 700// 333 60005 90710 91110=
07070,2012-01-28 00:00:00,1.3,1025.1,-0.2,96,0.7,5000,9.26,18.52,,190,,,0,0,,,,,,0,og-post,,,,AAXX 28004 07070 04850 81905 10013 20007 30136 40251 58002 60001 700// 333 60007 90710 91110 555 60005=
07070,2012-01-28 01:00:00,1.8,1024.9,-0.4,95,1.1,8000,7.408,12.964,,200,,,0,,,,,,,0,og-post,,,,AAXX 28014 07070 24858 82004 10018 20011 30134 40249 58004 700// 333 60005 90710 91107=
07070,2012-01-28 02:00:00,1.8,1024.9,-0.4,95,1.1,8000,12.964,16.668,,180,,,0,,,,,,,0,og-post,,,,AAXX 28024 07070 24758 81807 10018 20011 30134 40249 56004 700// 333 60005 90710 91109=
07070,2012-01-28 03:00:00,2.2,1024.5,-0.6,94,1.3,11000,18.52,22.224,,180,,,0.4,0.4,,,,,,0,og-post,,,,AAXX 28034 07070 24661 /1810 10022 20013 30130 40245 58006 700// 333 69947 90710 91112 555 69945=
07070,2012-01-28 04:00:00,1.9,1024.3,-0.6,94,1,11000,16.668,20.372,,180,,,0,,,,,,,0,og-post,,,,AAXX 28044 07070 24861 81809 10019 20010 30128 40243 58006 700// 333 60005 90710 91111=
07070,2012-01-28 05:00:00,0.7,1024.6,-0.3,96,0.1,3500,20.372,27.78,,180,,,0,,,,,,,10,og-post,,,,AAXX 28054 07070 24035 81811 10007 20001 30131 40246 55003 710// 333 60005 90710 91115=
07070,2012-01-28 06:00:00,0.9,1025,0.5,97,0.5,2000,18.52,25.928,,180,0.5,3.1,0,0,,0.4,0.4,6.8,-1,10,og-post,,,,AAXX 28064 07070 04120 81810 10009 20005 30135 40250 53005 69942 710// 333 10031 20005 3/101 55068 60007 70004 90710 91114 555 60005=
07070,2012-01-28 07:00:00,1,1025.7,1.4,97,0.6,1600,14.816,24.076,,140,,,0,,,,,,,10,og-post,,,,AAXX 28074 07070 24116 81408 10010 20006 30142 40257 53014 710// 333 60005 90710 91113=
07070,2012-01-28 08:00:00,1.1,1026.1,1.5,97,0.7,6000,12.964,22.224,,170,,,,,,,,,,0,og-post,,,,AAXX 28084 07070 24156 81707 10011 20007 30146 40261 52015 700// 333 69905 90710 91112=
07070,2012-01-28 09:00:00,2.1,1026.4,1.4,96,1.5,9000,12.964,18.52,,150,,,0,,,,,,,0,og-post,,,,AAXX 28094 07070 24259 81507 10021 20015 30149 40264 51014 700// 333 69907 90710 91110 555 60005=
07070,2012-01-28 10:00:00,2.7,1026.6,0.9,95,2,11000,11.112,22.224,,130,,,0,,,,,,,0,og-post,,,,AAXX 28104 07070 24261 81306 10027 20020 30151 40266 51009 700// 333 60005 90710 91112=
07070,2012-01-28 11:00:00,3,1026.8,0.8,94,2.1,10000,11.112,18.52,,140,,,0,,,,,,,0,og-post,,,,AAXX 28114 07070 24260 81406 10030 20021 30154 40268 52008 700// 333 60005 90710 91110=
07070,2012-01-28 12:00:00,3.1,1026.7,0.4,94,2.2,8000,12.964,18.52,,150,,,0,0,,,,,,0,og-post,,,,AAXX 28124 07070 04258 81507 10031 20022 30153 40267 50004 69901 700// 333 60007 90710 91110 555 60005=
07070,2012-01-28 13:00:00,3.5,1026.5,0,93,2.5,15000,12.964,18.52,,120,,,0,,,,,,,0,og-post,,,,AAXX 28134 07070 24265 81207 10035 20025 30151 40265 50000 700// 333 60005 90710 91110=
07070,2012-01-28 14:00:00,4.1,1026.6,-0.2,90,2.6,20000,9.26,16.668,,90,,,0,,,,,,,0,og-post,,,,AAXX 28144 07070 24470 80905 10041 20026 30152 40266 55002 700// 333 60005 90710 91109=
07070,2012-01-28 15:00:00,3.9,1026.9,0.2,91,2.6,12000,12.964,18.52,,100,,,0,0,,,,,,0,og-post,,,,AAXX 28154 07070 24362 81007 10039 20026 30155 40269 53002 700// 333 60007 90710 91110 555 60005=
07070,2012-01-28 16:00:00,3.9,1027.2,0.7,88,2.1,17000,5.556,18.52,,110,,,0,,,,,,,0,og-post,,,,AAXX 28164 07070 24467 81103 10039 20021 30158 40272 53007 700// 333 60005 90710 91110=
07070,2012-01-28 17:00:00,3.6,1027.7,1.1,89,2,16000,1.852,7.408,,40,,,0,,,,,,,0,og-post,,,,AAXX 28174 07070 24566 80401 10036 20020 30163 40277 53011 700// 333 60005 90710 91104=
07070,2012-01-28 18:00:00,3.2,1028.2,1.2,92,2,12000,5.556,7.408,,10,0.8,4.2,0,0,,,,,,0,og-post,,,,AAXX 28184 07070 04562 80103 10032 20020 30167 40282 53012 69902 700// 333 10042 20008 60007 90710 91104 555 60005=
07070,2012-01-28 19:00:00,3.6,1028.3,1.1,86,1.5,20000,12.964,16.668,,20,,,0,,,,,,,0,og-post,,,,AAXX 28194 07070 24570 80207 10036 20015 30169 40283 51011 700// 333 60005 90710 91109=
07070,2012-01-28 20:00:00,1.8,1028.5,0.7,90,0.3,17000,7.408,18.52,,10,,,0,,,,,,,0,og-post,,,,AAXX 28204 07070 24567 70104 10018 20003 30170 40285 51007 700// 333 60005 90710 91110=
07070,2012-01-28 21:00:00,2,1028.4,0.2,88,0.2,20000,11.112,16.668,,10,,,0,0,,,,,,0,og-post,,,,AAXX 28214 07070 24570 /0106 10020 20002 30169 40284 50002 700// 333 60007 90710 91109 555 60005=
07070,2012-01-28 22:00:00,0.4,1028.6,0.1,90,-1,17000,1.852,12.964,,30,,,0,,,,,,,0,og-post,,,,AAXX 28224 07070 24567 /0301 10004 21010 30170 40286 52001 700// 333 60005 90710 91107=
07070,2012-01-28 23:00:00,-0.2,1028.7,0.1,93,-1.2,8000,5.556,7.408,,10,,,0,,,,,,,0,og-post,,,,AAXX 28234 07070 24558 /0103 11002 21012 30171 40287 53001 700// 333 60005 90710 91104=
07070,2012-01-29 00:00:00,-0.5,1028.6,0.1,94,-1.3,6000,5.556,9.26,,10,,,0,0,,,,,,0,og-post,,,,AAXX 29004 07070 04456 70103 11005 21013 30170 40286 50001 60001 700// 333 60007 90710 91105 555 60005=
07070,2012-01-29 01:00:00,0.1,1028.5,-0.1,95,-0.6,6000,11.112,14.816,,20,,,0,,,,,,,0,og-post,,,,AAXX 29014 07070 24456 /0206 10001 21006 30169 40285 58001 700// 333 60005 90710 91108=
07070,2012-01-29 02:00:00,0.3,1028.5,-0.2,94,-0.6,5000,9.26,14.816,,10,,,0,,,,,,,0,og-post,,,,AAXX 29024 07070 24450 80105 10003 21006 30169 40285 56002 700// 333 60005 90710 91108=
07070,2012-01-29 03:00:00,0.3,1028.5,-0.1,93,-0.7,4500,7.408,16.668,,40,,,0,0,,,,,,10,og-post,,,,AAXX 29034 07070 24445 80404 10003 21007 30169 40285 56001 710// 333 60007 90710 91109 555 60005=
07070,2012-01-29 04:00:00,0.5,1028.5,-0,88,-1.3,8000,9.26,16.668,,20,,,0,,,,,,,0,og-post,,,,AAXX 29044 07070 24558 80205 10005 21013 30169 40285 54000 700// 333 60005 90710 91109=
07070,2012-01-29 05:00:00,0.5,1028.5,-0,86,-1.6,8000,14.816,24.076,,20,,,0,,,,,,,0,og-post,,,,AAXX 29054 07070 24558 80208 10005 21016 30169 40285 54000 700// 333 60005 90710 91113=
07070,2012-01-29 06:00:00,-0.1,1028.7,0.2,87,-2,7000,12.964,24.076,,10,-0.7,3.6,0,0,,,0,0,-4,0,og-post,,,,AAXX 29064 07070 04557 /0107 11001 21020 30171 40287 53002 60002 700// 333 10036 21007 30104 55000 60007 79999 90710 91113 555 60005=
07070,2012-01-29 07:00:00,-0.3,1028.7,0.2,90,-1.7,4400,14.816,22.224,,10,,,0,,,,,,,10,og-post,,,,AAXX 29074 07070 24544 /0108 11003 21017 30171 40287 52002 710// 333 60005 90710 91112=
07070,2012-01-29 08:00:00,-0.6,1028.9,0.4,90,-2,4700,14.816,20.372,,10,,,0,,,,,,,10,og-post,,,,AAXX 29084 07070 24547 80108 11006 21020 30173 40289 52004 710// 333 60005 90710 91111=
07070,2012-01-29 09:00:00,-0.5,1028.9,0.2,90,-1.9,5000,12.964,18.52,,10,,,0,0,,,,,,0,og-post,,,,AAXX 29094 07070 24550 /0107 11005 21019 30173 40289 52002 700// 333 60007 90710 91110 555 60005=
07070,2012-01-29 10:00:00,0.6,1028.9,0.2,86,-1.5,6000,12.964,20.372,,10,,,0,,,,,,,0,og-post,,,,AAXX 29104 07070 24556 /0107 10006 21015 30173 40289 51002 700// 333 60005 90710 91111=
07070,2012-01-29 11:00:00,1.5,1028.8,-0,76,-2.3,9000,16.668,24.076,,20,,,0,,,,,,,0,og-post,,,,AAXX 29114 07070 24459 60209 10015 21023 30173 40288 54000 700// 333 60005 90710 91113=
07070,2012-01-29 12:00:00,1.3,1028.5,-0.3,80,-1.8,7000,12.964,29.632,,20,,,0,0,,,,,,0,og-post,,,,AAXX 29124 07070 04457 80207 10013 21018 30170 40285 58003 60001 700// 333 60007 90710 91116 555 60005=
07070,2012-01-29 13:00:00,1.4,1028,-0.8,75,-2.6,12000,18.52,29.632,,30,,,0,,,,,,,0,og-post,,,,AAXX 29134 07070 24562 80310 10014 21026 30165 40280 58008 700// 333 60005 90710 91116=
07070,2012-01-29 14:00:00,1,1027.8,-1,73,-3.3,11000,18.52,27.78,,20,,,0,,,,,,,0,og-post,,,,AAXX 29144 07070 24561 80210 10010 21033 30163 40278 56010 700// 333 60005 90710 91115=
07070,2012-01-29 15:00:00,0.7,1027.9,-0.7,76,-3,12000,20.372,29.632,,40,,,0,0,,,,,,0,og-post,,,,AAXX 29154 07070 24562 80411 10007 21030 30163 40279 56007 700// 333 60007 90710 91116 555 60005=
07070,2012-01-29 16:00:00,0.4,1028.1,-0,78,-3,11000,12.964,25.928,,30,,,0,,,,,,,0,og-post,,,,AAXX 29164 07070 24561 80307 10004 21030 30165 40281 55000 700// 333 60005 90710 91114=
07070,2012-01-29 17:00:00,0.2,1028.1,0.2,79,-3,9000,11.112,24.076,,20,,,0,,,,,,,0,og-post,,,,AAXX 29174 07070 24559 80206 10002 21030 30165 40281 52002 700// 333 60005 90710 91113=
07070,2012-01-29 18:00:00,0.3,1028,0.1,77,-3.3,11000,11.112,22.224,,30,-0.8,1.9,0,0,,,,,,0,og-post,,,,AAXX 29184 07070 04561 80306 10003 21033 30164 40280 50001 60002 700// 333 10019 21008 60007 90710 91112 555 60005=
07070,2012-01-29 19:00:00,0.1,1028,-0.1,78,-3.3,10000,9.26,20.372,,30,,,0,,,,,,,0,og-post,,,,AAXX 29194 07070 24560 80305 10001 21033 30164 40280 57001 700// 333 60005 90710 91111=
07070,2012-01-29 20:00:00,0.2,1027.9,-0.2,77,-3.4,9000,7.408,16.668,,40,,,0,,,,,,,0,og-post,,,,AAXX 29204 07070 24559 80404 10002 21034 30163 40279 57002 700// 333 60005 90710 91109=
07070,2012-01-29 21:00:00,0.1,1027.7,-0.3,81,-2.8,6000,7.408,16.668,,10,,,0,0,,,,,,0,og-post,,,,AAXX 29214 07070 24456 80104 10001 21028 30161 40277 58003 700// 333 60007 90710 91109 555 60005=
07070,2012-01-29 22:00:00,-0.2,1027.6,-0.4,81,-3.1,6000,9.26,16.668,,20,,,0,,,,,,,0,og-post,,,,AAXX 29224 07070 24456 80205 11002 21031 30160 40276 57004 700// 333 60005 90710 91109=
07070,2012-01-29 23:00:00,-0.4,1027.6,-0.3,82,-3.1,6000,9.26,14.816,,10,,,0,,,,,,,0,og-post,,,,AAXX 29234 07070 24556 80105 11004 21031 30160 40276 56003 700// 333 60005 90710 91108=
07070,2012-01-30 00:00:00,-0.5,1027.3,-0.4,84,-2.9,5000,9.26,14.816,,360,,,0,0,,,,,,0,og-post,,,,AAXX 30004 07070 04550 83605 11005 21029 30157 40273 58004 60001 700// 333 60007 90710 91108 555 60005=
07070,2012-01-30 01:00:00,-0.6,1027,-0.6,84,-3,5000,9.26,14.816,,360,,,0,,,,,,,0,og-post,,,,AAXX 30014 07070 24450 73605 11006 21030 30154 40270 58006 700// 333 60005 90710 91108=
07070,2012-01-30 02:00:00,-0.6,1027.2,-0.4,84,-3,4900,5.556,14.816,,350,,,0,,,,,,,10,og-post,,,,AAXX 30024 07070 24449 83503 11006 21030 30156 40272 55004 710// 333 60005 90710 91108=
07070,2012-01-30 03:00:00,-0.8,1026.9,-0.4,86,-2.8,4900,9.26,12.964,,330,,,0,0,,,,,,10,og-post,,,,AAXX 30034 07070 24449 83305 11008 21028 30153 40269 57004 710// 333 60007 90710 91107 555 60005=
07070,2012-01-30 04:00:00,-0.8,1026.6,-0.4,84,-3.2,4900,7.408,14.816,,320,,,0,,,,,,,10,og-post,,,,AAXX 30044 07070 24549 83204 11008 21032 30150 40266 58004 710// 333 60005 90710 91108=
07070,2012-01-30 05:00:00,-0.8,1026.7,-0.5,84,-3.2,5000,9.26,12.964,,330,,,0,,,,,,,10,og-post,,,,AAXX 30054 07070 24550 83305 11008 21032 30151 40267 55005 710// 333 60005 90710 91107=
07070,2012-01-30 06:00:00,-1,1026.5,-0.4,84,-3.4,5000,12.964,18.52,,340,-1,0.3,0,0,,,0,1.3,-1,10,og-post,,,,AAXX 30064 07070 04550 83407 11010 21034 30149 40265 56004 60002 710// 333 10003 21010 30101 55013 60007 70000 90710 91110 555 60005=
07070,2012-01-30 07:00:00,-1.1,1026.7,0.1,83,-3.6,5000,12.964,16.668,,340,,,0,,,,,,,0,og-post,,,,AAXX 30074 07070 24550 83407 11011 21036 30151 40267 53001 700// 333 60005 90710 91109=
07070,2012-01-30 08:00:00,-1.2,1026.9,0.2,81,-4,5000,11.112,16.668,,340,,,0,,,,,,,0,og-post,,,,AAXX 30084 07070 24450 83406 11012 21040 30153 40269 53002 700// 333 60005 90710 91109=
07070,2012-01-30 09:00:00,-1.4,1027,0.5,82,-4.1,5000,11.112,18.52,,330,,,0,0,,,,,,0,og-post,,,,AAXX 30094 07070 24450 83306 11014 21041 30154 40270 51005 700// 333 60007 90710 91110 555 60005=
07070,2012-01-30 10:00:00,-1.3,1027,0.3,80,-4.3,5000,5.556,16.668,,300,,,0,,,,,,,0,og-post,,,,AAXX 30104 07070 24450 83003 11013 21043 30154 40270 51003 700// 333 60005 90710 91109=
07070,2012-01-30 11:00:00,-1.2,1026.9,0,79,-4.4,5000,1.852,14.816,,310,,,0,,,,,,,0,og-post,,,,AAXX 30114 07070 24450 83101 11012 21044 30153 40269 50000 700// 333 60005 90710 91108=
07070,2012-01-30 12:00:00,-1,1026.6,-0.4,79,-4.2,5000,5.556,16.668,,310,,,0,0,,,,,,0,og-post,,,,AAXX 30124 07070 04450 83103 11010 21042 30150 40266 58004 60001 700// 333 60007 90710 91109 555 60005=
07070,2012-01-30 13:00:00,-1.1,1026.1,-0.9,82,-3.8,4600,5.556,11.112,,360,,,0,,,,,,,10,og-post,,,,AAXX 30134 07070 24446 83603 11011 21038 30145 40261 58009 710// 333 60005 90710 91106=
07070,2012-01-30 14:00:00,-1.4,1025.7,-1.2,81,-4.2,4800,7.408,12.964,,360,,,0,,,,,,,10,og-post,,,,AAXX 30144 07070 24448 83604 11014 21042 30141 40257 58012 710// 333 60005 90710 91107=
07070,2012-01-30 15:00:00,-1.4,1025.7,-0.9,81,-4.2,4700,5.556,9.26,,360,,,0,0,,,,,,10,og-post,,,,AAXX 30154 07070 24447 83603 11014 21042 30141 40257 56009 710// 333 60007 90710 91105 555 60005=
07070,2012-01-30 16:00:00,-1.4,1025.6,-0.5,80,-4.4,4800,3.704,7.408,,30,,,0,,,,,,,10,og-post,,,,AAXX 30164 07070 24448 80302 11014 21044 30140 40256 56005 710// 333 60005 90710 91104=
07070,2012-01-30 17:00:00,-1.5,1025.6,-0.1,81,-4.3,5000,3.704,9.26,,40,,,0,,,,,,,0,og-post,,,,AAXX 30174 07070 24450 80402 11015 21043 30140 40256 57001 700// 333 60005 90710 91105=
07070,2012-01-30 18:00:00,-1.5,1025.5,-0.2,82,-4.2,5000,1.852,7.408,,30,-1.6,-1,0,0,,,,,,0,og-post,,,,AAXX 30184 07070 04450 80301 11015 21042 30139 40255 57002 60002 700// 333 11010 21016 60007 90710 91104 555 60005=
07070,2012-01-30 19:00:00,-1.5,1025.2,-0.4,81,-4.3,5000,5.556,7.408,,50,,,0,,,,,,,0,og-post,,,,AAXX 30194 07070 24450 80503 11015 21043 30136 40252 58004 700// 333 60005 90710 91104=
07070,2012-01-30 20:00:00,-1.6,1025,-0.6,80,-4.6,5000,5.556,11.112,,50,,,0,,,,,,,0,og-post,,,,AAXX 30204 07070 24450 80503 11016 21046 30134 40250 58006 700// 333 60005 90710 91106=
07070,2012-01-30 21:00:00,-1.7,1024.8,-0.7,82,-4.4,5000,7.408,9.26,,40,,,0,0,,,,,,0,og-post,,,,AAXX 30214 07070 24450 80404 11017 21044 30132 40248 56007 700// 333 60007 90710 91105 555 60005=
07070,2012-01-30 22:00:00,-1.7,1024.5,-0.7,81,-4.5,5000,5.556,11.112,,40,,,0,,,,,,,0,og-post,,,,AAXX 30224 07070 24450 80403 11017 21045 30129 40245 58007 700// 333 60005 90710 91106=
07070,2012-01-30 23:00:00,-1.8,1024.3,-0.7,82,-4.5,5000,5.556,7.408,,30,,,0,,,,,,,0,og-post,,,,AAXX 30234 07070 24450 80303 11018 21045 30127 40243 57007 700// 333 60005 90710 91104=
07070,2012-01-31 00:00:00,-1.8,1024,-0.8,82,-4.5,5000,7.408,11.112,,50,,,0,0,,,,,,0,og-post,,,,AAXX 31004 07070 04450 80504 11018 21045 30124 40240 57008 60001 700// 333 60007 90710 91106 555 60005=
07070,2012-01-31 01:00:00,-1.8,1023.6,-0.9,82,-4.5,5000,7.408,11.112,,30,,,0,,,,,,,0,og-post,,,,AAXX 31014 07070 24550 80304 11018 21045 30120 40236 58009 700// 333 60005 90710 91106=
07070,2012-01-31 02:00:00,-1.8,1023.3,-1,80,-4.8,6000,11.112,14.816,,40,,,0,,,,,,,0,og-post,,,,AAXX 31024 07070 24456 80406 11018 21048 30117 40233 57010 700// 333 60005 90710 91108=
07070,2012-01-31 03:00:00,-1.8,1022.9,-1.1,77,-5.3,8000,7.408,14.816,,20,,,0,0,,,,,,0,og-post,,,,AAXX 31034 07070 24558 80204 11018 21053 30113 40229 57011 700// 333 60007 90710 91108 555 60005=
07070,2012-01-31 04:00:00,-1.8,1022.7,-0.9,81,-4.6,6000,5.556,9.26,,10,,,0,,,,,,,0,og-post,,,,AAXX 31044 07070 24556 80103 11018 21046 30111 40227 56009 700// 333 60005 90710 91105=
07070,2012-01-31 05:00:00,-1.9,1022.7,-0.6,83,-4.4,6000,9.26,12.964,,40,,,0,,,,,,,0,og-post,,,,AAXX 31054 07070 24556 80405 11019 21044 30111 40227 56006 700// 333 60005 90710 91107=
07070,2012-01-31 06:00:00,-1.9,1022.4,-0.5,85,-4.1,5000,7.408,14.816,,10,-1.9,-1.5,0,0,,,0,0,-2,0,og-post,,,,AAXX 31064 07070 04650 80104 11019 21041 30108 40224 58005 60002 700// 333 11015 21019 30102 55000 60007 70000 90710 91108 555 60005=
07070,2012-01-31 07:00:00,-1.8,1022.5,-0.2,85,-4,5000,9.26,16.668,,10,,,0,,,,,,,0,og-post,,,,AAXX 31074 07070 24650 80105 11018 21040 30109 40225 55002 700// 333 60005 90710 91109=
07070,2012-01-31 08:00:00,-1.6,1022.7,-0,86,-3.6,5000,7.408,14.816,,350,,,0,,,,,,,0,og-post,,,,AAXX 31084 07070 24450 73504 11016 21036 30111 40227 55000 700// 333 60005 90710 91108=
07070,2012-01-31 09:00:00,-1.1,1022.9,0.5,87,-3,3600,11.112,16.668,,350,,,0,0,,,,,,10,og-post,,,,AAXX 31094 07070 24436 83506 11011 21030 30113 40229 53005 710// 333 60007 90710 91109 555 60005=
07070,2012-01-31 10:00:00,-0.5,1022.9,0.4,89,-2.1,2800,9.26,16.668,,10,,,0,,,,,,,10,og-post,,,,AAXX 31104 07070 24528 80105 11005 21021 30113 40229 51004 710// 333 60005 90710 91109=
07070,2012-01-31 11:00:00,0.1,1022.9,0.3,85,-2.1,3200,9.26,16.668,,10,,,0,,,,,,,10,og-post,,,,AAXX 31114 07070 24532 70105 10001 21021 30114 40229 52003 710// 333 60005 90710 91109=
07070,2012-01-31 12:00:00,0.6,1022.7,0.1,83,-2,3200,11.112,16.668,,360,,,0,0,,,,,,10,og-post,,,,AAXX 31124 07070 04432 73606 10006 21020 30112 40227 50001 60001 710// 333 60007 90710 91109 555 60005=
07070,2012-01-31 13:00:00,1.1,1022.5,-0.3,77,-2.5,5000,11.112,20.372,,10,,,0,,,,,,,0,og-post,,,,AAXX 31134 07070 24550 80106 10011 21025 30110 40225 58003 700// 333 60005 90710 91111=
07070,2012-01-31 14:00:00,1.4,1022.4,-0.5,73,-2.9,6000,11.112,16.668,,360,,,0,,,,,,,0,og-post,,,,AAXX 31144 07070 24556 83606 10014 21029 30109 40224 56005 700// 333 60005 90710 91109=
07070,2012-01-31 15:00:00,1,1022.7,-0,73,-3.3,7000,12.964,20.372,,30,,,0,0,,,,,,0,og-post,,,,AAXX 31154 07070 24657 80307 10010 21033 30112 40227 55000 700// 333 60007 90710 91111 555 60005=
07070,2012-01-31 16:00:00,0.8,1023,0.5,73,-3.5,7000,11.112,18.52,,20,,,0,,,,,,,0,og-post,,,,AAXX 31164 07070 24657 80206 10008 21035 30115 40230 53005 700// 333 60005 90710 91110=
07070,2012-01-31 17:00:00,0.2,1023.5,1.1,79,-3,5000,11.112,18.52,,10,,,0,,,,,,,0,og-post,,,,AAXX 31174 07070 24650 80106 10002 21030 30120 40235 53011 700// 333 60005 90710 91110=
07070,2012-01-31 18:00:00,-0.6,1024.3,1.5,82,-3.3,3700,16.668,20.372,,40,-1.9,1.5,0,0,,,,,,10,og-post,,,,AAXX 31184 07070 04537 60409 11006 21033 30127 40243 53015 60002 710// 333 10015 21019 60007 90710 91111 555 60005=
07070,2012-01-31 19:00:00,-1.7,1024.6,1.5,84,-4,3500,14.816,22.224,,50,,,0,,,,,,,10,og-post,,,,AAXX 31194 07070 24935 /0508 11017 21040 30130 40246 51015 710// 333 60005 90710 91112=
07070,2012-01-31 20:00:00,-2.9,1025,1.3,86,-4.9,3500,12.964,22.224,,30,,,0,,,,,,,10,og-post,,,,AAXX 31204 07070 24935 /0307 11029 21049 30133 40250 51013 710// 333 60005 90710 91112=
07070,2012-01-31 21:00:00,-3.4,1025.2,0.8,87,-5.3,3400,7.408,14.816,,10,,,0,0,,,,,,10,og-post,,,,AAXX 31214 07070 24534 /0104 11034 21053 30135 40252 52008 710// 333 60007 90710 91108 555 60005=
07070,2012-01-31 22:00:00,-3.4,1025.3,0.6,86,-5.4,3600,9.26,12.964,,20,,,0,,,,,,,10,og-post,,,,AAXX 31224 07070 24536 /0205 11034 21054 30136 40253 51006 710// 333 60005 90710 91107=
07070,2012-01-31 23:00:00,-4.4,1025.6,0.5,89,-5.9,3400,9.26,14.816,,30,,,0,,,,,,,10,og-post,,,,AAXX 31234 07070 24934 /0305 11044 21059 30138 40256 52005 710// 333 60005 90710 91108=
07070,2012-02-01 00:00:00,-5.2,1025.7,0.4,89,-6.7,3900,9.26,12.964,,30,,,0,0,,,,,,10,og-post,,,,AAXX 01004 07070 04939 /0305 11052 21067 30139 40257 52004 60001 710// 333 60007 90710 91107 555 60005=
07070,2012-02-01 01:00:00,-5.8,1025.8,0.4,88,-7.5,5000,9.26,12.964,,60,,,0,,,,,,,0,og-post,,,,AAXX 01014 07070 24950 /0605 11058 21075 30140 40258 52004 700// 333 60005 90710 91107=
07070,2012-02-01 02:00:00,-6,1025.9,0.3,86,-8,5000,11.112,14.816,,50,,,0,,,,,,,0,og-post,,,,AAXX 01024 07070 24950 /0506 11060 21080 30141 40259 52003 700// 333 60005 90710 91108=
07070,2012-02-01 03:00:00,-6.4,1025.9,0.1,85,-8.5,6000,9.26,18.52,,40,,,0,0,,,,,,0,og-post,,,,AAXX 01034 07070 24956 /0405 11064 21085 30140 40259 50001 700// 333 60007 90710 91110 555 60005=
07070,2012-02-01 04:00:00,-6.8,1025.8,-0.1,86,-8.8,5000,9.26,14.816,,50,,,0,,,,,,,0,og-post,,,,AAXX 01044 07070 24950 /0505 11068 21088 30139 40258 58001 700// 333 60005 90710 91108=
07070,2012-02-01 05:00:00,-6.9,1025.9,-0.1,85,-9,6000,14.816,18.52,,50,,,0,,,,,,,0,og-post,,,,AAXX 01054 07070 24956 /0508 11069 21090 30140 40259 55001 700// 333 60005 90710 91110=
07070,2012-02-01 06:00:00,-7.4,1026.2,0.3,86,-9.3,7000,11.112,18.52,,40,-7.5,-0.6,0,0,,,0,0,-9,0,og-post,,,,AAXX 01064 07070 04957 /0406 11074 21093 30143 40262 53003 60002 700// 333 11006 21075 34109 55000 60007 70000 90710 91110 555 60005=
07070,2012-02-01 07:00:00,-7.5,1026.4,0.6,85,-9.6,7000,12.964,18.52,,50,,,0,,,,,,,0,og-post,,,,AAXX 01074 07070 24957 /0507 11075 21096 30145 40264 53006 700// 333 60005 90710 91110=
07070,2012-02-01 08:00:00,-6.8,1026.8,0.9,83,-9.2,7000,16.668,22.224,,50,,,0,,,,,,,0,og-post,,,,AAXX 01084 07070 24957 /0509 11068 21092 30149 40268 53009 700// 333 60005 90710 91112=
07070,2012-02-01 09:00:00,-5.2,1026.9,0.8,76,-8.8,9000,20.372,29.632,,50,,,0,0,,,,,,0,og-post,,,,AAXX 01094 07070 24959 /0511 11052 21088 30151 40269 52008 700// 333 60007 90710 91116 555 60005=
07070,2012-02-01 10:00:00,-4.3,1026.7,0.4,71,-8.8,10000,24.076,33.336,,50,,,0,,,,,,,0,og-post,,,,AAXX 01104 07070 24960 /0513 11043 21088 30149 40267 50004 700// 333 60005 90710 91118=
07070,2012-02-01 11:00:00,-3,1026.4,-0.2,66,-8.5,11000,25.928,35.188,,40,,,0,,,,,,,0,og-post,,,,AAXX 01114 07070 24961 /0414 11030 21085 30147 40264 58002 700// 333 60005 90710 91119=
07070,2012-02-01 12:00:00,-2,1026.1,-0.7,60,-8.7,11000,24.076,33.336,,40,,,0,0,,,,,,0,og-post,,,,AAXX 01124 07070 04961 /0413 11020 21087 30144 40261 58007 60001 700// 333 60007 90710 91118 555 60005=
07070,2012-02-01 13:00:00,-1.2,1025.6,-0.9,55,-9.1,13000,24.076,35.188,,30,,,0,,,,,,,0,og-post,,,,AAXX 01134 07070 24963 /0313 11012 21091 30140 40256 58009 700// 333 60005 90710 91119=
07070,2012-02-01 14:00:00,-0.4,1025.4,-0.9,52,-9.1,14000,27.78,37.04,,40,,,0,,,,,,,0,og-post,,,,AAXX 01144 07070 24964 /0415 11004 21091 30138 40254 56009 700// 333 60005 90710 91120=
07070,2012-02-01 15:00:00,-0.6,1025.1,-0.9,55,-8.5,16000,27.78,38.892,,40,,,0,0,,,,,,0,og-post,,,,AAXX 01154 07070 24966 /0415 11006 21085 30135 40251 56009 700// 333 60007 90710 91121 555 60005=
07070,2012-02-01 16:00:00,-1.8,1025.4,-0.2,60,-8.6,13000,27.78,42.596,,30,,,0,,,,,,,0,og-post,,,,AAXX 01164 07070 24963 /0315 11018 21086 30138 40254 55002 700// 333 60005 90710 91123=
07070,2012-02-01 17:00:00,-3.5,1026,0.5,67,-8.8,9000,22.224,38.892,,20,,,0,,,,,,,0,og-post,,,,AAXX 01174 07070 24959 /0212 11035 21088 30143 40260 53005 700// 333 60005 90710 91121=
07070,2012-02-01 18:00:00,-4.1,1026.7,1.4,66,-9.5,10000,24.076,35.188,,30,-7.6,-0.3,0,0,,,,,,0,og-post,,,,AAXX 01184 07070 04960 /0313 11041 21095 30149 40267 53014 60002 700// 333 11003 21076 60007 90710 91119 555 60005=
07070,2012-02-01 19:00:00,-4.8,1026.8,1.2,65,-10.4,13000,18.52,31.484,,30,,,0,,,,,,,0,og-post,,,,AAXX 01194 07070 24963 /0310 11048 21104 30150 40268 51012 700// 333 60005 90710 91117=
07070,2012-02-01 20:00:00,-5.1,1027,0.9,61,-11.5,19000,14.816,24.076,,30,,,0,,,,,,,0,og-post,,,,AAXX 01204 07070 24969 /0308 11051 21115 30152 40270 51009 700// 333 60005 90710 91113=
07070,2012-02-01 21:00:00,-6,1027.3,0.5,65,-11.5,20000,16.668,24.076,,30,,,0,0,,,,,,0,og-post,,,,AAXX 01214 07070 24970 /0309 11060 21115 30154 40273 53005 700// 333 60007 90710 91113 555 60005=
07070,2012-02-01 22:00:00,-5.9,1027.2,0.4,61,-12.2,20000,22.224,29.632,,30,,,0,,,,,,,0,og-post,,,,AAXX 01224 07070 24970 /0312 11059 21122 30154 40272 51004 700// 333 60005 90710 91116=
07070,2012-02-01 23:00:00,-6.6,1027.6,0.5,63,-12.5,20000,20.372,27.78,,30,,,0,,,,,,,0,og-post,,,,AAXX 01234 07070 24970 /0311 11066 21125 30157 40276 53005 700// 333 60005 90710 91115=
07070,2012-02-02 00:00:00,-7.2,1027.6,0.3,65,-12.7,20000,16.668,29.632,,30,,,0,0,,,,,,0,og-post,,,,AAXX 02004 07070 04970 /0309 11072 21127 30157 40276 52003 60001 700// 333 60007 90710 91116 555 60005=
07070,2012-02-02 01:00:00,-7.6,1027.6,0.3,65,-13,20000,16.668,22.224,,30,,,0,,,,,,,0,og-post,,,,AAXX 02014 07070 24970 /0309 11076 21130 30157 40276 51003 700// 333 60005 90710 91112=
07070,2012-02-02 02:00:00,-7.7,1027.7,0.1,64,-13.3,20000,20.372,25.928,,30,,,0,,,,,,,0,og-post,,,,AAXX 02024 07070 24970 /0311 11077 21133 30158 40277 53001 700// 333 60005 90710 91114=
07070,2012-02-02 03:00:00,-8.3,1027.8,0.1,65,-13.7,20000,16.668,31.484,,30,,,0,0,,,,,,0,og-post,,,,AAXX 02034 07070 24970 /0309 11083 21137 30158 40278 52001 700// 333 60007 90710 91117 555 60005=
07070,2012-02-02 04:00:00,-8.5,1027.9,0.2,64,-14.1,20000,14.816,25.928,,20,,,0,,,,,,,0,og-post,,,,AAXX 02044 07070 24970 /0208 11085 21141 30159 40279 52002 700// 333 60005 90710 91114=
07070,2012-02-02 05:00:00,-8.7,1028,0.2,64,-14.3,20000,20.372,25.928,,20,,,0,,,,,,,0,og-post,,,,AAXX 02054 07070 24970 /0211 11087 21143 30160 40280 53002 700// 333 60005 90710 91114=
07070,2012-02-02 06:00:00,-9,1028.1,0.3,65,-14.4,20000,14.816,24.076,,20,-9.1,-4.1,0,0,,,0,8,-10,0,og-post,,,,AAXX 02064 07070 04970 /0208 11090 21144 30161 40281 52003 60002 700// 333 11041 21091 30110 55080 60007 70000 90710 91113 555 60005=
07070,2012-02-02 07:00:00,-9,1028.6,0.7,64,-14.6,20000,16.668,24.076,,20,,,0,,,,,,,0,og-post,,,,AAXX 02074 07070 24970 /0209 11090 21146 30166 40286 53007 700// 333 60005 90710 91113=
07070,2012-02-02 08:00:00,-8.5,1029.4,1.4,64,-14.1,19000,14.816,24.076,,20,,,0,,,,,,,0,og-post,,,,AAXX 02084 07070 24969 /0208 11085 21141 30174 40294 53014 700// 333 60005 90710 91113=
07070,2012-02-02 09:00:00,-6.7,1029.4,1.4,55,-14.3,19000,20.372,27.78,,40,,,0,0,,,,,,0,og-post,,,,AAXX 02094 07070 24969 /0411 11067 21143 30175 40294 51014 700// 333 60007 90710 91115 555 60005=
07070,2012-02-02 10:00:00,-5.2,1029.4,1,46,-15,20000,25.928,37.04,,50,,,0,,,,,,,0,og-post,,,,AAXX 02104 07070 24970 /0514 11052 21150 30176 40294 51010 700// 333 60005 90710 91120=
07070,2012-02-02 11:00:00,-3.7,1029.2,0,42,-14.8,19000,24.076,37.04,,50,,,0,,,,,,,0,og-post,,,,AAXX 02114 07070 24969 /0513 11037 21148 30174 40292 50000 700// 333 60005 90710 91120=
07070,2012-02-02 12:00:00,-2.5,1028.4,-0.8,37,-15.2,20000,24.076,35.188,,50,,,0,0,,,,,,0,og-post,,,,AAXX 02124 07070 04970 /0513 11025 21152 30167 40284 58008 60001 700// 333 60007 90710 91119 555 60005=
07070,2012-02-02 13:00:00,-1.1,1028.1,-1.2,34,-15,20000,27.78,38.892,,40,,,0,,,,,,,0,og-post,,,,AAXX 02134 07070 24970 /0415 11011 21150 30164 40281 58012 700// 333 60005 90710 91121=
07070,2012-02-02 14:00:00,-0.6,1027.9,-1.1,32,-15.3,20000,25.928,38.892,,50,,,0,,,,,,,0,og-post,,,,AAXX 02144 07070 24970 /0514 11006 21153 30163 40279 56011 700// 333 60005 90710 91121=
07070,2012-02-02 15:00:00,-0.7,1028.3,-0,34,-14.6,20000,27.78,37.04,,40,,,0,0,,,,,,0,og-post,,,,AAXX 02154 07070 24970 /0415 11007 21146 30167 40283 55000 700// 333 60007 90710 91120 555 60005=
07070,2012-02-02 16:00:00,-2.1,1028.6,0.5,39,-14.2,20000,29.632,38.892,,40,,,0,,,,,,,0,og-post,,,,AAXX 02164 07070 24970 /0416 11021 21142 30169 40286 53005 700// 333 60005 90710 91121=
07070,2012-02-02 17:00:00,-4,1029.3,1.2,49,-13.2,20000,24.076,38.892,,20,,,0,,,,,,,0,og-post,,,,AAXX 02174 07070 24970 /0213 11040 21132 30175 40293 53012 700// 333 60005 90710 91121=
07070,2012-02-02 18:00:00,-5.4,1030.2,1.6,56,-12.8,19000,22.224,35.188,,20,-9.1,-0.4,0,0,,,,,,0,og-post,,,,AAXX 02184 07070 04969 /0212 11054 21128 30183 40302 53016 60002 700// 333 11004 21091 60007 90710 91119 555 60005=
07070,2012-02-02 19:00:00,-6.6,1030.9,2.1,60,-13.1,16000,22.224,33.336,,20,,,0,,,,,,,0,og-post,,,,AAXX 02194 07070 24966 /0212 11066 21131 30190 40309 53021 700// 333 60005 90710 91118=
07070,2012-02-02 20:00:00,-7.2,1031.6,2.1,61,-13.5,17000,16.668,29.632,,20,,,0,,,,,,,0,og-post,,,,AAXX 02204 07070 24967 /0209 11072 21135 30196 40316 51021 700// 333 60005 90710 91116=
07070,2012-02-02 21:00:00,-9.4,1032.3,1.9,72,-13.5,14000,9.26,24.076,,10,,,0,0,,,,,,0,og-post,,,,AAXX 02214 07070 24964 /0105 11094 21135 30202 40323 51019 700// 333 60007 90710 91113 555 60005=
07070,2012-02-02 22:00:00,-9.4,1032.5,1.4,72,-13.5,15000,9.26,16.668,,10,,,0,,,,,,,0,og-post,,,,AAXX 02224 07070 24965 /0105 11094 21135 30204 40325 51014 700// 333 60005 90710 91109=
07070,2012-02-02 23:00:00,-9.6,1033.1,1.4,73,-13.5,15000,14.816,18.52,,10,,,0,,,,,,,0,og-post,,,,AAXX 02234 07070 24965 /0108 11096 21135 30210 40331 52014 700// 333 60005 90710 91110=
07070,2012-02-03 00:00:00,-9.3,1033.1,0.8,70,-13.8,17000,11.112,18.52,,10,,,0,0,,,,,,0,og-post,,,,AAXX 03004 07070 04967 /0106 11093 21138 30210 40331 51008 60001 700// 333 60007 90710 91110 555 60005=
07070,2012-02-03 01:00:00,-10.5,1033.2,0.7,70,-14.9,16000,9.26,18.52,,340,,,0,,,,,,,0,og-post,,,,AAXX 03014 07070 24966 /3405 11105 21149 30211 40332 51007 700// 333 60005 90710 91110=
07070,2012-02-03 02:00:00,-10.8,1033.3,0.2,73,-14.7,15000,9.26,14.816,,350,,,0,,,,,,,0,og-post,,,,AAXX 03024 07070 24965 /3505 11108 21147 30212 40333 53002 700// 333 60005 90710 91108=
07070,2012-02-03 03:00:00,-10.6,1033.5,0.4,74,-14.3,16000,14.816,20.372,,360,,,0,0,,,,,,0,og-post,,,,AAXX 03034 07070 24966 /3608 11106 21143 30214 40335 53004 700// 333 60007 90710 91111 555 60005=
07070,2012-02-03 04:00:00,-10.6,1033.4,0.2,75,-14.2,16000,16.668,22.224,,360,,,0,,,,,,,0,og-post,,,,AAXX 03044 07070 24966 /3609 11106 21142 30213 40334 50002 700// 333 60005 90710 91112=
07070,2012-02-03 05:00:00,-11.2,1033.7,0.3,77,-14.4,15000,14.816,22.224,,350,,,0,,,,,,,0,og-post,,,,AAXX 03054 07070 24965 /3508 11112 21144 30215 40337 52003 700// 333 60005 90710 91112=
07070,2012-02-03 06:00:00,-11.1,1034.5,0.9,76,-14.5,16000,14.816,24.076,,10,-11.2,-5.4,0,0,,,0,8.2,-13,0,og-post,,,,AAXX 03064 07070 04966 /0108 11111 21145 30223 40345 53009 60002 700// 333 11054 21112 34113 55082 60007 70000 90710 91113 555 60005=
07070,2012-02-03 07:00:00,-12.6,1035.6,2,79,-15.5,15000,7.408,16.668,,350,,,0,,,,,,,0,og-post,,,,AAXX 03074 07070 24965 /3504 11126 21155 30233 40356 53020 700// 333 60005 90710 91109=
07070,2012-02-03 08:00:00,-10.8,1035.5,1.8,74,-14.5,17000,3.704,11.112,,330,,,0,,,,,,,0,og-post,,,,AAXX 03084 07070 24967 /3302 11108 21145 30233 40355 51018 700// 333 60005 90710 91106=
07070,2012-02-03 09:00:00,-8.7,1036.6,2.2,67,-13.7,16000,14.816,22.224,,10,,,0,0,,,,,,0,og-post,,,,AAXX 03094 07070 24966 /0108 11087 21137 30245 40366 53022 700// 333 60007 90710 91112 555 60005=
07070,2012-02-03 10:00:00,-6.7,1037,1.7,52,-14.9,20000,14.816,25.928,,30,,,0,,,,,,,0,og-post,,,,AAXX 03104 07070 24970 /0308 11067 21149 30250 40370 53017 700// 333 60005 90710 91114=
07070,2012-02-03 11:00:00,-5.9,1037.2,1.9,42,-16.8,19000,20.372,29.632,,40,,,0,,,,,,,0,og-post,,,,AAXX 03114 07070 24969 /0411 11059 21168 30252 40372 51019 700// 333 60005 90710 91116=
07070,2012-02-03 12:00:00,-4,1037.3,0.9,39,-15.9,20000,18.52,29.632,,40,,,0,0,,,,,,0,og-post,,,,AAXX 03124 07070 04970 70410 11040 21159 30254 40373 51009 60001 700// 333 60007 90710 91116 555 60005=
07070,2012-02-03 13:00:00,-3.4,1036.8,0.1,38,-15.7,20000,14.816,31.484,,20,,,0,,,,,,,0,og-post,,,,AAXX 03134 07070 24970 /0208 11034 21157 30249 40368 50001 700// 333 60005 90710 91117=
07070,2012-02-03 14:00:00,-2.6,1036.3,-0.7,35,-16,20000,14.816,24.076,,20,,,0,,,,,,,0,og-post,,,,AAXX 03144 07070 24870 /0208 11026 21160 30245 40363 58007 700// 333 60005 90710 91113=
07070,2012-02-03 15:00:00,-2.8,1036,-1.2,36,-15.8,20000,14.816,25.928,,30,,,0,0,,,,,,0,og-post,,,,AAXX 03154 07070 24870 80308 11028 21158 30242 40360 56012 700// 333 60007 90710 91114 555 60005=
07070,2012-02-03 16:00:00,-3.4,1036.1,-0.6,43,-14.2,20000,18.52,25.928,,10,,,0,,,,,,,0,og-post,,,,AAXX 03164 07070 24770 80110 11034 21142 30243 40361 55006 700// 333 60005 90710 91114=
07070,2012-02-03 17:00:00,-3.8,1036.3,-0.1,48,-13.2,20000,11.112,24.076,,10,,,0,,,,,,,0,og-post,,,,AAXX 03174 07070 24770 80106 11038 21132 30244 40363 55001 700// 333 60005 90710 91113=
07070,2012-02-03 18:00:00,-4.9,1037,0.9,69,-9.7,10000,14.816,25.928,,360,-12.6,-2.5,,,,,,,,71,og-post,,,,AAXX 03184 07070 04560 83608 11049 21097 30251 40370 53009 69902 771// 333 11025 21126 69907 90710 91114 555 69905=
07070,2012-02-03 19:00:00,-6,1037.3,1,88,-7.7,1900,11.112,22.224,,340,,,,,,,,,,71,og-post,,,,AAXX 03194 07070 24519 83406 11060 21077 30253 40373 53010 771// 333 69905 90710 91112=
07070,2012-02-03 20:00:00,-6.2,1037.2,0.8,91,-7.4,2900,5.556,11.112,,340,,,,,,,,,,71,og-post,,,,AAXX 03204 07070 24529 83403 11062 21074 30252 40372 51008 771// 333 69905 90710 91106=
07070,2012-02-03 21:00:00,-6.5,1037.2,0.1,91,-7.7,5000,3.704,5.556,,300,,,,,,,,,,71,og-post,,0,,AAXX 03214 07070 24750 83002 11065 21077 30252 40372 51001 771// 333 43/// 69907 90710 91103 555 69905=
07070,2012-02-03 22:00:00,-8.6,1037.4,-0,90,-9.9,5000,3.704,5.556,,80,,,,,,,,,,70,og-post,,,,AAXX 03224 07070 24650 70802 11086 21099 30253 40374 55000 770// 333 69905 90710 91103=
07070,2012-02-03 23:00:00,-11.2,1037.9,0.5,90,-12.5,200,3.704,5.556,,60,,,,,,,,,,49,og-post,,,,AAXX 03234 07070 24902 /0602 11112 21125 30257 40379 53005 749// 333 69905 90710 91103=
07070,2012-02-04 00:00:00,-14.1,1038.1,0.5,89,-15.5,500,,5.556,,,,,0,,,,,,,49,og-post,,0,,AAXX 04004 07070 04/00 90000 11141 21155 30257 40381 52005 69901 749// 333 43/// 69907 90710 91103 555 60005=
07070,2012-02-04 01:00:00,-13.5,1038.3,0.7,88,-15.1,100,,3.704,,,,,0,,,,,,,49,og-post,,,,AAXX 04014 07070 24/01 90000 11135 21151 30260 40383 51007 749// 333 60005 90710 91102=
07070,2012-02-04 02:00:00,-15.9,1038.6,0.5,87,-17.6,600,,3.704,,,,,0,,,,,,,49,og-post,,,,AAXX 04024 07070 24906 /0000 11159 21176 30262 40386 53005 749// 333 60005 90710 91102=
07070,2012-02-04 03:00:00,-17.9,1038.5,0.3,86,-19.7,300,1.852,3.704,,170,,,0,0,,,,,,49,og-post,,0,,AAXX 04034 07070 24903 /1701 11179 21197 30260 40385 50003 749// 333 43/// 60007 90710 91102 555 60005=
07070,2012-02-04 04:00:00,-17.8,1038.8,0.3,85,-19.7,300,1.852,3.704,,150,,,0,,,,,,,49,og-post,,,,AAXX 04044 07070 24903 /1501 11178 21197 30263 40388 53003 749// 333 60005 90710 91102=
07070,2012-02-04 05:00:00,-19.6,1039.2,0.4,84,-21.6,100,,1.852,,,,,0,,,,,,,49,og-post,,,,AAXX 04054 07070 24901 /0000 11196 21216 30266 40392 53004 749// 333 60005 90710 91101=
07070,2012-02-04 06:00:00,-18.2,1039.4,0.8,85,-20.1,700,,1.852,,,-19.7,-4.9,0,0,,,0,6.2,-21,49,og-post,,0,,AAXX 04064 07070 04907 /0000 11182 21201 30268 40394 52008 69902 749// 333 11049 21197 3/121 43/// 55062 60007 79999 90710 91101 555 60005=
07070,2012-02-04 07:00:00,-19.1,1040,1.1,82,-21.4,7000,,1.852,,,,,0,,,,,,,0,og-post,,,,AAXX 04074 07070 24957 /0000 11191 21214 30274 40400 53011 700// 333 60005 90710 91101=
07070,2012-02-04 08:00:00,-17.7,1040.7,1.5,85,-19.6,6000,,,,,,,0,,,,,,,0,og-post,,,,AAXX 04084 07070 24956 /0000 11177 21196 30281 40407 53015 700// 333 60005 90710 91100=
07070,2012-02-04 09:00:00,-10.3,1040.3,1.3,88,-11.9,7000,,,,,,,0,0,,,,,,0,og-post,,0,,AAXX 04094 07070 24957 /0000 11103 21119 30281 40403 51013 700// 333 43/// 60007 90710 91100 555 60005=
07070,2012-02-04 10:00:00,-9.6,1040.3,0.7,87,-11.4,9000,3.704,5.556,,20,,,0,,,,,,,0,og-post,,,,AAXX 04104 07070 24959 /0202 11096 21114 30281 40403 51007 700// 333 60005 90710 91103=
07070,2012-02-04 11:00:00,-8,1039.8,-0.4,83,-10.4,9000,3.704,7.408,,30,,,0,,,,,,,0,og-post,,,,AAXX 04114 07070 24959 /0302 11080 21104 30277 40398 58004 700// 333 60005 90710 91104=
07070,2012-02-04 12:00:00,-5.8,1039.1,-1,74,-9.7,10000,5.556,11.112,,50,,,0,0,,,,,,0,og-post,,0,,AAXX 04124 07070 04960 /0503 11058 21097 30271 40391 58010 60001 700// 333 43/// 60007 90710 91106 555 60005=
07070,2012-02-04 13:00:00,-5.3,1038.7,-1.4,68,-10.3,15000,11.112,14.816,,340,,,0,,,,,,,0,og-post,,,,AAXX 04134 07070 24965 /3406 11053 21103 30267 40387 57014 700// 333 60005 90710 91108=
07070,2012-02-04 14:00:00,-4.3,1038.3,-1.3,63,-10.3,18000,11.112,18.52,,350,,,0,,,,,,,0,og-post,,,,AAXX 04144 07070 24968 /3506 11043 21103 30264 40383 56013 700// 333 60005 90710 91110=
07070,2012-02-04 15:00:00,-4.5,1037.7,-1.3,62,-10.7,19000,12.964,18.52,,10,,,0,0,,,,,,0,og-post,,,,AAXX 04154 07070 24969 /0107 11045 21107 30258 40377 58013 700// 333 60007 90710 91110 555 60005=
07070,2012-02-04 16:00:00,-5.2,1037.3,-1.3,64,-11,20000,9.26,16.668,,360,,,0,,,,,,,0,og-post,,,,AAXX 04164 07070 24970 /3605 11052 21110 30254 40373 57013 700// 333 60005 90710 91109=
07070,2012-02-04 17:00:00,-8.1,1037.7,-0.8,72,-12.3,19000,9.26,12.964,,320,,,0,,,,,,,0,og-post,,,,AAXX 04174 07070 24969 /3205 11081 21123 30256 40377 55008 700// 333 60005 90710 91107=
07070,2012-02-04 18:00:00,-8.1,1037.7,-0.2,74,-11.9,19000,9.26,14.816,,360,-19.5,-4.2,0,0,,,,,,0,og-post,,,,AAXX 04184 07070 04969 /3605 11081 21119 30256 40377 56002 60002 700// 333 11042 21195 60007 90710 91108 555 60005=
07070,2012-02-04 19:00:00,-10.5,1037.2,-0.4,78,-13.6,13000,,11.112,,,,,0,,,,,,,0,og-post,,,,AAXX 04194 07070 24963 /0000 11105 21136 30250 40372 58004 700// 333 60005 90710 91106=
07070,2012-02-04 20:00:00,-11.2,1037.2,-0.6,80,-14,11000,5.556,9.26,,200,,,0,,,,,,,0,og-post,,,,AAXX 04204 07070 24961 /2003 11112 21140 30250 40372 57006 700// 333 60005 90710 91105=
07070,2012-02-04 21:00:00,-11.3,1036.6,-1.2,83,-13.6,6000,3.704,11.112,,170,,,0,0,,,,,,0,og-post,,,,AAXX 04214 07070 24956 /1702 11113 21136 30244 40366 57012 700// 333 60007 90710 91106 555 60005=
07070,2012-02-04 22:00:00,-12.7,1036.1,-1.2,85,-14.7,6000,,5.556,,,,,0,,,,,,,0,og-post,,,,AAXX 04224 07070 24956 /0000 11127 21147 30238 40361 58012 700// 333 60005 90710 91103=
07070,2012-02-04 23:00:00,-12.7,1035.6,-1.7,88,-14.3,8000,3.704,3.704,,150,,,0,,,,,,,0,og-post,,,,AAXX 04234 07070 24958 /1502 11127 21143 30233 40356 56017 700// 333 60005 90710 91102=
07070,2012-02-05 00:00:00,-12.8,1035.2,-1.5,86,-14.7,8000,9.26,11.112,,160,,,0,0,,,,,,0,og-post,,,,AAXX 05004 07070 04958 /1605 11128 21147 30229 40352 56015 60001 700// 333 60007 90710 91106 555 60005=
07070,2012-02-05 01:00:00,-11.1,1033.8,-2.2,84,-13.3,9000,9.26,12.964,,170,,,0,,,,,,,0,og-post,,,,AAXX 05014 07070 24959 61705 11111 21133 30216 40338 58022 700// 333 60005 90710 91107=
07070,2012-02-05 02:00:00,-9.8,1032.5,-2.9,79,-12.8,14000,9.26,14.816,,170,,,0,,,,,,,0,og-post,,,,AAXX 05024 07070 24964 71705 11098 21128 30204 40325 58029 700// 333 60005 90710 91108=
07070,2012-02-05 03:00:00,-9.3,1031.8,-3.2,76,-12.8,15000,11.112,18.52,,180,,,0,0,,,,,,0,og-post,,,,AAXX 05034 07070 24965 81806 11093 21128 30197 40318 56032 700// 333 60007 90710 91110 555 60005=
07070,2012-02-05 04:00:00,-9.2,1031.2,-2.4,74,-13,15000,9.26,24.076,,150,,,0,,,,,,,0,og-post,,,,AAXX 05044 07070 24965 81505 11092 21130 30192 40312 56024 700// 333 60005 90710 91113=
07070,2012-02-05 05:00:00,-9.1,1031,-1.4,71,-13.4,17000,18.52,24.076,,140,,,0,,,,,,,0,og-post,,,,AAXX 05054 07070 24967 81410 11091 21134 30190 40310 56014 700// 333 60005 90710 91113=
07070,2012-02-05 06:00:00,-9.3,1030.6,-1.1,72,-13.4,16000,18.52,27.78,,150,-13.4,-8.1,0,0,,,0,8.2,-16,0,og-post,,,,AAXX 05064 07070 04966 81510 11093 21134 30186 40306 56011 60002 700// 333 11081 21134 30116 55082 60007 70000 90710 91115 555 60005=
07070,2012-02-05 07:00:00,-9.7,1030.4,-0.9,74,-13.5,15000,20.372,29.632,,150,,,0,,,,,,,0,og-post,,,,AAXX 05074 07070 24965 81511 11097 21135 30183 40304 58009 700// 333 60005 90710 91116=
07070,2012-02-05 08:00:00,-9.3,1030.4,-0.6,74,-13.1,14000,18.52,27.78,,150,,,0,,,,,,,0,og-post,,,,AAXX 05084 07070 24964 81510 11093 21131 30184 40304 55006 700// 333 60005 90710 91115=
07070,2012-02-05 09:00:00,-8,1030.4,-0.2,71,-12.3,15000,20.372,29.632,,150,,,0,0,,,,,,0,og-post,,,,AAXX 05094 07070 24965 61511 11080 21123 30184 40304 56002 700// 333 60007 90710 91116 555 60005=
07070,2012-02-05 10:00:00,-6.8,1030.6,0.4,66,-12.1,16000,18.52,27.78,,150,,,0,,,,,,,0,og-post,,,,AAXX 05104 07070 24966 /1510 11068 21121 30187 40306 53004 700// 333 60005 90710 91115=
07070,2012-02-05 11:00:00,-5.5,1030.9,0.6,57,-12.7,18000,12.964,24.076,,150,,,0,,,,,,,0,og-post,,,,AAXX 05114 07070 24968 /1507 11055 21127 30190 40309 53006 700// 333 60005 90710 91113=
07070,2012-02-05 12:00:00,-4.4,1031.1,0.9,51,-13,18000,11.112,20.372,,130,,,0,0,,,,,,0,og-post,,,,AAXX 05124 07070 04968 /1306 11044 21130 30193 40311 52009 60001 700// 333 60007 90710 91111 555 60005=
07070,2012-02-05 13:00:00,-4.1,1031.2,0.7,48,-13.5,19000,9.26,18.52,,80,,,0,,,,,,,0,og-post,,,,AAXX 05134 07070 24969 /0805 11041 21135 30194 40312 51007 700// 333 60005 90710 91110=
07070,2012-02-05 14:00:00,-3.8,1031.1,0.3,49,-13,19000,11.112,18.52,,90,,,0,,,,,,,0,og-post,,,,AAXX 05144 07070 24969 /0906 11038 21130 30193 40311 50003 700// 333 60005 90710 91110=
07070,2012-02-05 15:00:00,-3.6,1031.2,0.1,43,-14.4,20000,9.26,20.372,,100,,,0,0,,,,,,0,og-post,,,,AAXX 05154 07070 24970 /1005 11036 21144 30194 40312 52001 700// 333 60007 90710 91111 555 60005=
07070,2012-02-05 16:00:00,-3.6,1031.6,0.4,44,-14.1,20000,7.408,12.964,,50,,,0,,,,,,,0,og-post,,,,AAXX 05164 07070 24970 /0504 11036 21141 30198 40316 53004 700// 333 60005 90710 91107=
07070,2012-02-05 17:00:00,-6,1032,0.8,61,-12.3,20000,11.112,12.964,,40,,,0,,,,,,,0,og-post,,,,AAXX 05174 07070 24970 /0406 11060 21123 30201 40320 53008 700// 333 60005 90710 91107=
07070,2012-02-05 18:00:00,-8.2,1032.6,1.2,70,-12.7,19000,1.852,12.964,,70,-9.7,-3.1,0,0,,,,,,0,og-post,,,,AAXX 05184 07070 04969 /0701 11082 21127 30206 40326 53012 60002 700// 333 11031 21097 60007 90710 91107 555 60005=
07070,2012-02-05 19:00:00,-9.2,1032.9,1,71,-13.5,18000,,3.704,,,,,0,,,,,,,0,og-post,,,,AAXX 05194 07070 24968 /0000 11092 21135 30208 40329 51010 700// 333 60005 90710 91102=
07070,2012-02-05 20:00:00,-10.9,1033,0.8,77,-14.1,14000,5.556,7.408,,110,,,0,,,,,,,0,og-post,,,,AAXX 05204 07070 24964 /1103 11109 21141 30209 40330 51008 700// 333 60005 90710 91104=
07070,2012-02-05 21:00:00,-9.8,1033.5,0.8,73,-13.7,17000,3.704,9.26,,90,,,0,0,,,,,,0,og-post,,,,AAXX 05214 07070 24967 70902 11098 21137 30214 40335 53008 700// 333 60007 90710 91105 555 60005=
07070,2012-02-05 22:00:00,-9.7,1033.7,0.8,80,-12.5,13000,,5.556,,,,,0,,,,,,,0,og-post,,,,AAXX 05224 07070 24963 60000 11097 21125 30216 40337 53008 700// 333 60005 90710 91103=
07070,2012-02-05 23:00:00,-10,1033.6,0.6,80,-12.8,14000,1.852,5.556,,50,,,0,,,,,,,0,og-post,,,,AAXX 05234 07070 24964 80501 11100 21128 30215 40336 50006 700// 333 60005 90710 91103=
07070,2012-02-06 00:00:00,-10.1,1033.8,0.3,81,-12.7,11000,3.704,7.408,,320,,,0,0,,,,,,0,og-post,,,,AAXX 06004 07070 04961 73202 11101 21127 30217 40338 52003 60001 700// 333 60007 90710 91104 555 60005=
07070,2012-02-06 01:00:00,-10.5,1034,0.3,83,-12.8,11000,,5.556,,,,,0,,,,,,,0,og-post,,,,AAXX 06014 07070 24961 60000 11105 21128 30219 40340 53003 700// 333 60005 90710 91103=
07070,2012-02-06 02:00:00,-9.7,1034,0.4,83,-12,10000,,3.704,,,,,0,,,,,,,0,og-post,,,,AAXX 06024 07070 24860 80000 11097 21120 30219 40340 51004 700// 333 60005 90710 91102=
07070,2012-02-06 03:00:00,-8.7,1033.6,-0.1,83,-11.1,10000,1.852,3.704,,70,,,0,0,,,,,,0,og-post,,,,AAXX 06034 07070 24860 80701 11087 21111 30216 40336 58001 700// 333 60007 90710 91102 555 60005=
07070,2012-02-06 04:00:00,-7.9,1033.6,-0.3,84,-10.1,9000,,1.852,,,,,0,,,,,,,0,og-post,,,,AAXX 06044 07070 24759 80000 11079 21101 30216 40336 57003 700// 333 60005 90710 91101=
07070,2012-02-06 05:00:00,-6.6,1033.9,-0,73,-10.6,16000,5.556,9.26,,80,,,0,,,,,,,0,og-post,,,,AAXX 06054 07070 24766 80803 11066 21106 30219 40339 55000 700// 333 60005 90710 91105=
07070,2012-02-06 06:00:00,-6.5,1034.1,0.5,71,-10.9,17000,3.704,7.408,,80,-11,-6.4,0,0,,,0,7.6,-14,0,og-post,,,,AAXX 06064 07070 04767 80802 11065 21109 30221 40341 53005 60002 700// 333 11064 21110 34114 55076 60007 70000 90710 91104 555 60005=
07070,2012-02-06 07:00:00,-6.6,1034.2,0.6,70,-11.2,16000,5.556,11.112,,110,,,0,,,,,,,0,og-post,,,,AAXX 06074 07070 24966 81103 11066 21112 30222 40342 51006 700// 333 60005 90710 91106=
07070,2012-02-06 08:00:00,-6.3,1034.6,0.7,65,-11.8,18000,7.408,11.112,,110,,,0,,,,,,,0,og-post,,,,AAXX 06084 07070 24868 81104 11063 21118 30226 40346 53007 700// 333 60005 90710 91106=
07070,2012-02-06 09:00:00,-5.9,1034.7,0.7,60,-12.4,18000,11.112,12.964,,100,,,0,0,,,,,,0,og-post,,,,AAXX 06094 07070 24868 81006 11059 21124 30228 40347 53007 700// 333 60007 90710 91107 555 60005=
07070,2012-02-06 10:00:00,-5.3,1035,0.9,55,-12.9,19000,7.408,14.816,,110,,,0,,,,,,,0,og-post,,,,AAXX 06104 07070 24969 81104 11053 21129 30231 40350 52009 700// 333 60005 90710 91108=
07070,2012-02-06 11:00:00,-4.6,1034.9,0.4,44,-15,20000,9.26,16.668,,110,,,0,,,,,,,0,og-post,,,,AAXX 06114 07070 24970 /1105 11046 21150 30230 40349 50004 700// 333 60005 90710 91109=
07070,2012-02-06 12:00:00,-2.8,1034.3,-0.3,39,-14.9,20000,7.408,14.816,,80,,,0,0,,,,,,0,og-post,,,,AAXX 06124 07070 04970 /0804 11028 21149 30225 40343 58003 60001 700// 333 60007 90710 91108 555 60005=
07070,2012-02-06 13:00:00,-2.1,1033.8,-1.1,37,-14.9,19000,5.556,12.964,,70,,,0,,,,,,,0,og-post,,,,AAXX 06134 07070 24969 /0703 11021 21149 30220 40338 58011 700// 333 60005 90710 91107=
07070,2012-02-06 14:00:00,-1.8,1033.6,-1.1,34,-15.6,19000,7.408,12.964,,60,,,0,,,,,,,0,og-post,,,,AAXX 06144 07070 24969 /0604 11018 21156 30219 40336 56011 700// 333 60005 90710 91107=
07070,2012-02-06 15:00:00,-1.7,1033.4,-0.8,35,-15.2,19000,7.408,14.816,,30,,,0,0,,,,,,0,og-post,,,,AAXX 06154 07070 24969 /0304 11017 21152 30217 40334 56008 700// 333 60007 90710 91108 555 60005=
07070,2012-02-06 16:00:00,-2.5,1033.4,-0.4,39,-14.6,20000,7.408,12.964,,20,,,0,,,,,,,0,og-post,,,,AAXX 06164 07070 24970 /0204 11025 21146 30216 40334 57004 700// 333 60005 90710 91107=
07070,2012-02-06 17:00:00,-5.2,1034,0.2,51,-13.8,20000,5.556,9.26,,10,,,0,,,,,,,0,og-post,,,,AAXX 06174 07070 24970 /0103 11052 21138 30221 40340 53002 700// 333 60005 90710 91105=
07070,2012-02-06 18:00:00,-6.6,1034.3,0.6,58,-13.5,20000,3.704,7.408,,340,-6.7,-1.4,0,0,,,,,,0,og-post,,,,AAXX 06184 07070 04970 /3402 11066 21135 30223 40343 53006 60002 700// 333 11014 21067 60007 90710 91104 555 60005=
07070,2012-02-06 19:00:00,-9,1034.6,0.9,73,-13,18000,,3.704,,,,,0,,,,,,,0,og-post,,,,AAXX 06194 07070 24968 /0000 11090 21130 30225 40346 51009 700// 333 60005 90710 91102=
07070,2012-02-06 20:00:00,-8.7,1034.7,0.5,69,-13.4,15000,1.852,3.704,,240,,,0,,,,,,,0,og-post,,,,AAXX 06204 07070 24965 /2401 11087 21134 30226 40347 52005 700// 333 60005 90710 91102=
07070,2012-02-06 21:00:00,-10,1035,0.6,76,-13.4,13000,5.556,11.112,,150,,,0,0,,,,,,0,og-post,,,,AAXX 06214 07070 24963 /1503 11100 21134 30229 40350 53006 700// 333 60007 90710 91106 555 60005=
07070,2012-02-06 22:00:00,-10.6,1035.2,0.5,73,-14.5,11000,,5.556,,,,,0,,,,,,,0,og-post,,,,AAXX 06224 07070 24961 /0000 11106 21145 30230 40352 52005 700// 333 60005 90710 91103=
07070,2012-02-06 23:00:00,-11.2,1035.4,0.6,76,-14.6,12000,1.852,3.704,,60,,,0,,,,,,,0,og-post,,,,AAXX 06234 07070 24962 /0601 11112 21146 30232 40354 52006 700// 333 60005 90710 91102=
07070,2012-02-07 00:00:00,-12.1,1035.7,0.6,77,-15.3,14000,3.704,5.556,,30,,,0,0,,,,,,0,og-post,,,,AAXX 07004 07070 04964 /0302 11121 21153 30235 40357 53006 60001 700// 333 60007 90710 91103 555 60005=
07070,2012-02-07 01:00:00,-12.3,1036,0.8,77,-15.5,11000,,5.556,,,,,0,,,,,,,0,og-post,,,,AAXX 07014 07070 24961 /0000 11123 21155 30238 40360 53008 700// 333 60005 90710 91103=
07070,2012-02-07 02:00:00,-13.5,1036.1,0.6,79,-16.4,12000,1.852,5.556,,40,,,0,,,,,,,0,og-post,,,,AAXX 07024 07070 24962 /0401 11135 21164 30238 40361 51006 700// 333 60005 90710 91103=
07070,2012-02-07 03:00:00,-13.9,1036.2,0.4,81,-16.5,13000,5.556,5.556,,90,,,0,0,,,,,,0,og-post,,,,AAXX 07034 07070 24963 /0903 11139 21165 30239 40362 51004 700// 333 60007 90710 91103 555 60005=
07070,2012-02-07 04:00:00,-13.8,1036.3,0.2,78,-16.8,12000,1.852,5.556,,40,,,0,,,,,,,0,og-post,,,,AAXX 07044 07070 24962 /0401 11138 21168 30240 40363 53002 700// 333 60005 90710 91103=
07070,2012-02-07 05:00:00,-14,1036.4,0.3,80,-16.7,12000,1.852,5.556,,30,,,0,,,,,,,0,og-post,,,,AAXX 07054 07070 24962 /0301 11140 21167 30241 40364 52003 700// 333 60005 90710 91103=
07070,2012-02-07 06:00:00,-14.3,1036.6,0.4,80,-17,11000,3.704,5.556,,40,-14.4,-6.6,0,0,,,0,5.5,-18,0,og-post,,,,AAXX 07064 07070 04961 /0402 11143 21170 30243 40366 53004 60002 700// 333 11066 21144 34118 55055 60007 70000 90710 91103 555 60005=
07070,2012-02-07 07:00:00,-13.1,1036.6,0.3,78,-16.1,12000,1.852,7.408,,30,,,0,,,,,,,0,og-post,,,,AAXX 07074 07070 24962 /0301 11131 21161 30243 40366 52003 700// 333 60005 90710 91104=
07070,2012-02-07 08:00:00,-11.8,1036.8,0.5,77,-15,12000,5.556,9.26,,360,,,0,,,,,,,0,og-post,,,,AAXX 07084 07070 24962 /3603 11118 21150 30246 40368 53005 700// 333 60005 90710 91105=
07070,2012-02-07 09:00:00,-8.6,1037.1,0.7,69,-13.3,13000,9.26,18.52,,50,,,0,0,,,,,,0,og-post,,,,AAXX 07094 07070 24963 /0505 11086 21133 30250 40371 53007 700// 333 60007 90710 91110 555 60005=
07070,2012-02-07 10:00:00,-6.3,1037.2,0.9,57,-13.4,18000,16.668,24.076,,40,,,0,,,,,,,0,og-post,,,,AAXX 07104 07070 24968 /0409 11063 21134 30252 40372 52009 700// 333 60005 90710 91113=
07070,2012-02-07 11:00:00,-4.9,1037.1,0.6,33,-18.7,20000,18.52,29.632,,50,,,0,,,,,,,0,og-post,,,,AAXX 07114 07070 24970 /0510 11049 21187 30252 40371 51006 700// 333 60005 90710 91116=
07070,2012-02-07 12:00:00,-3.7,1036.6,-0.3,27,-20,20000,18.52,29.632,,50,,,0,0,,,,,,0,og-post,,,,AAXX 07124 07070 04970 /0510 11037 21200 30247 40366 58003 60001 700// 333 60007 90710 91116 555 60005=
07070,2012-02-07 13:00:00,-2.8,1035.8,-1.2,22,-21.6,20000,18.52,29.632,,30,,,0,,,,,,,0,og-post,,,,AAXX 07134 07070 24970 /0310 11028 21216 30240 40358 58012 700// 333 60005 90710 91116=
07070,2012-02-07 14:00:00,-2.9,1035.2,-1.8,21,-22.2,20000,22.224,35.188,,20,,,0,,,,,,,0,og-post,,,,AAXX 07144 07070 24970 /0212 11029 21222 30234 40352 58018 700// 333 60005 90710 91119=
07070,2012-02-07 15:00:00,-3.4,1035.3,-1.2,26,-20.2,20000,24.076,33.336,,20,,,0,0,,,,,,0,og-post,,,,AAXX 07154 07070 24970 /0213 11034 21202 30235 40353 55012 700// 333 60007 90710 91118 555 60005=
07070,2012-02-07 16:00:00,-4.4,1035.6,-0.3,30,-19.4,20000,24.076,38.892,,20,,,0,,,,,,,0,og-post,,,,AAXX 07164 07070 24970 /0213 11044 21194 30237 40356 55003 700// 333 60005 90710 91121=
07070,2012-02-07 17:00:00,-6.4,1036.2,0.8,44,-16.7,20000,24.076,37.04,,30,,,0,,,,,,,0,og-post,,,,AAXX 07174 07070 24970 /0313 11064 21167 30242 40362 53008 700// 333 60005 90710 91120=
07070,2012-02-07 18:00:00,-6.8,1036.7,1.2,54,-14.6,19000,25.928,42.596,,30,-14.6,-2.4,0,0,,,,,,0,og-post,,,,AAXX 07184 07070 04769 80314 11068 21146 30247 40367 53012 60002 700// 333 11024 21146 60007 90710 91123 555 60005=
07070,2012-02-07 19:00:00,-6.7,1037,1.3,66,-12,12000,29.632,40.744,,40,,,,,,,,,,0,og-post,,,,AAXX 07194 07070 24662 80416 11067 21120 30250 40370 51013 700// 333 69905 90710 91122=
07070,2012-02-07 20:00:00,-7.4,1036.9,0.7,83,-9.8,3000,22.224,40.744,,30,,,,,,,,,,71,og-post,,,,AAXX 07204 07070 24630 80312 11074 21098 30249 40369 51007 771// 333 69905 90710 91122=
07070,2012-02-07 21:00:00,-7.4,1036.7,0,87,-9.2,2000,18.52,29.632,,20,,,,,,,,,,71,og-post,,,,AAXX 07214 07070 24520 80210 11074 21092 30247 40367 50000 771// 333 69907 90710 91116 555 69905=
07070,2012-02-07 22:00:00,-7.3,1036.5,-0.5,88,-8.9,2500,18.52,31.484,,20,,,0.2,,,,,,,71,og-post,,,,AAXX 07224 07070 24525 80210 11073 21089 30245 40365 58005 771// 333 69925 90710 91117=
07070,2012-02-07 23:00:00,-7.2,1036.4,-0.5,88,-8.8,5000,18.52,29.632,,10,,,,,,,,,,0,og-post,,,,AAXX 07234 07070 24750 70110 11072 21088 30244 40364 56005 700// 333 69905 90710 91116=
07070,2012-02-08 00:00:00,-7.3,1036.2,-0.5,85,-9.4,6000,14.816,25.928,,20,,,,0.2,0.2,,,,,0,og-post,,0,,AAXX 08004 07070 04856 /0208 11073 21094 30242 40362 57005 69921 700// 333 43/// 69927 90710 91114 555 69905=
07070,2012-02-08 01:00:00,-7.8,1036.1,-0.4,81,-10.5,8000,14.816,24.076,,20,,,0,,,,,,,0,og-post,,,,AAXX 08014 07070 24958 /0208 11078 21105 30241 40361 57004 700// 333 60005 90710 91113=
07070,2012-02-08 02:00:00,-8.9,1036.2,-0.3,82,-11.4,7000,12.964,25.928,,30,,,0,,,,,,,0,og-post,,,,AAXX 08024 07070 24957 /0307 11089 21114 30241 40362 56003 700// 333 60005 90710 91114=
07070,2012-02-08 03:00:00,-8.9,1036,-0.3,79,-11.9,8000,16.668,22.224,,30,,,0,0,,,,,,0,og-post,,0,,AAXX 08034 07070 24958 /0309 11089 21119 30239 40360 57003 700// 333 43/// 60007 90710 91112 555 60005=
07070,2012-02-08 04:00:00,-9,1035.8,-0.4,81,-11.7,10000,16.668,22.224,,20,,,0,,,,,,,0,og-post,,,,AAXX 08044 07070 24960 /0209 11090 21117 30237 40358 58004 700// 333 60005 90710 91112=
07070,2012-02-08 05:00:00,-9.2,1035.9,-0.3,79,-12.2,11000,14.816,22.224,,20,,,0,,,,,,,0,og-post,,,,AAXX 08054 07070 24961 /0208 11092 21122 30238 40359 55003 700// 333 60005 90710 91112=
07070,2012-02-08 06:00:00,-8.1,1036,0.1,81,-10.8,10000,14.816,20.372,,30,-11.2,-6.6,0,0,,0.2,0.2,8.5,-12,0,og-post,,0,,AAXX 08064 07070 04660 80308 11081 21108 30240 40360 53001 69922 700// 333 11066 21112 3/112 43/// 55085 60007 70002 90710 91111 555 60005=
07070,2012-02-08 07:00:00,-7.1,1035.9,0.2,78,-10.3,11000,14.816,22.224,,30,,,0,,,,,,,0,og-post,,,,AAXX 08074 07070 24561 80308 11071 21103 30239 40359 50002 700// 333 60005 90710 91112=
07070,2012-02-08 08:00:00,-6.5,1036,0.2,77,-9.9,12000,16.668,24.076,,40,,,0,,,,,,,0,og-post,,,,AAXX 08084 07070 24562 80409 11065 21099 30240 40360 51002 700// 333 60005 90710 91113=
07070,2012-02-08 09:00:00,-5.7,1036.1,0.2,76,-9.3,12000,18.52,25.928,,40,,,,,,,,,,0,og-post,,0,,AAXX 08094 07070 24562 /0410 11057 21093 30242 40361 53002 700// 333 43/// 69907 90710 91114 555 69905=
07070,2012-02-08 10:00:00,-4.4,1036.1,0.3,71,-8.9,13000,18.52,25.928,,40,,,0,,,,,,,0,og-post,,,,AAXX 08104 07070 24963 /0410 11044 21089 30242 40361 51003 700// 333 60005 90710 91114=
07070,2012-02-08 11:00:00,-3.9,1036.1,0.2,70,-8.6,13000,20.372,27.78,,40,,,0,,,,,,,0,og-post,,,,AAXX 08114 07070 24563 70411 11039 21086 30242 40361 51002 700// 333 60005 90710 91115=
07070,2012-02-08 12:00:00,-3,1035.8,-0.2,63,-9.1,14000,20.372,29.632,,30,,,0,0,,,,,,0,og-post,,0,,AAXX 08124 07070 04564 /0311 11030 21091 30240 40358 58002 69901 700// 333 43/// 60007 90710 91116 555 60005=
07070,2012-02-08 13:00:00,-2,1035.6,-0.4,63,-8.1,16000,18.52,29.632,,30,,,0,,,,,,,0,og-post,,,,AAXX 08134 07070 24966 /0310 11020 21081 30238 40356 58004 700// 333 60005 90710 91116=
07070,2012-02-08 14:00:00,-0.8,1035.3,-0.6,55,-8.7,16000,18.52,25.928,,20,,,0,,,,,,,0,og-post,,,,AAXX 08144 07070 24966 /0210 11008 21087 30236 40353 57006 700// 333 60005 90710 91114=
07070,2012-02-08 15:00:00,-0.4,1035.1,-0.6,55,-8.4,16000,16.668,24.076,,30,,,0,0,,,,,,0,og-post,,,,AAXX 08154 07070 24966 /0309 11004 21084 30234 40351 57006 700// 333 60007 90710 91113 555 60005=
07070,2012-02-08 16:00:00,-1.1,1035.2,-0.3,60,-7.9,16000,11.112,22.224,,10,,,0,,,,,,,0,og-post,,,,AAXX 08164 07070 24966 /0106 11011 21079 30235 40352 55003 700// 333 60005 90710 91112=
07070,2012-02-08 17:00:00,-2.7,1035.5,0.1,67,-8,14000,14.816,24.076,,10,,,0,,,,,,,0,og-post,,,,AAXX 08174 07070 24964 /0108 11027 21080 30237 40355 53001 700// 333 60005 90710 91113=
07070,2012-02-08 18:00:00,-3.9,1035.9,0.6,68,-8.9,12000,12.964,20.372,,10,-8,-0.3,0,0,,,,,,0,og-post,,,,AAXX 08184 07070 04962 70107 11039 21089 30240 40359 53006 69902 700// 333 11003 21080 60007 90710 91111 555 60005=
07070,2012-02-08 19:00:00,-5,1036.5,1.1,77,-8.4,9000,14.816,22.224,,10,,,0,,,,,,,0,og-post,,,,AAXX 08194 07070 24959 /0108 11050 21084 30246 40365 53011 700// 333 60005 90710 91112=
07070,2012-02-08 20:00:00,-5.6,1036.5,0.9,77,-9,9000,11.112,20.372,,20,,,0,,,,,,,0,og-post,,,,AAXX 08204 07070 24959 /0206 11056 21090 30246 40365 51009 700// 333 60005 90710 91111=
07070,2012-02-08 21:00:00,-7.8,1037.2,1.2,81,-10.5,7000,12.964,20.372,,30,,,0,0,,,,,,0,og-post,,,,AAXX 08214 07070 24957 /0307 11078 21105 30252 40372 52012 700// 333 60007 90710 91111 555 60005=
07070,2012-02-08 22:00:00,-8.2,1037.1,0.4,85,-10.3,6000,,12.964,,,,,0,,,,,,,0,og-post,,,,AAXX 08224 07070 24956 /0000 11082 21103 30250 40371 50004 700// 333 60005 90710 91107=
07070,2012-02-08 23:00:00,-9.5,1037.5,0.8,86,-11.4,5000,1.852,1.852,,60,,,0,,,,,,,0,og-post,,,,AAXX 08234 07070 24950 /0601 11095 21114 30254 40375 51008 700// 333 60005 90710 91101=
07070,2012-02-09 00:00:00,-9.5,1037.8,0.5,88,-11.1,5000,,5.556,,,,,0,0,,,,,,0,og-post,,,,AAXX 09004 07070 04950 /0000 11095 21111 30257 40378 53005 60001 700// 333 60007 90710 91103 555 60005=
07070,2012-02-09 01:00:00,-9.8,1037.6,0.5,89,-11.3,4900,,1.852,,,,,0,,,,,,,10,og-post,,,,AAXX 09014 07070 24949 /0000 11098 21113 30255 40376 50005 710// 333 60005 90710 91101=
07070,2012-02-09 02:00:00,-10.3,1037.5,-0.1,89,-11.8,4700,3.704,5.556,,270,,,0,,,,,,,10,og-post,,,,AAXX 09024 07070 24947 /2702 11103 21118 30253 40375 58001 710// 333 60005 90710 91103=
07070,2012-02-09 03:00:00,-11.3,1037.2,-0.7,88,-12.9,4600,,5.556,,,,,0,0,,,,,,10,og-post,,,,AAXX 09034 07070 24946 /0000 11113 21129 30250 40372 57007 710// 333 60007 90710 91103 555 60005=
07070,2012-02-09 04:00:00,-12.1,1037.6,-0.2,88,-13.7,4600,,,,,,,0,,,,,,,10,og-post,,,,AAXX 09044 07070 24946 /0000 11121 21137 30253 40376 55002 710// 333 60005 90710 91100=
07070,2012-02-09 05:00:00,-11.2,1037.5,-0,91,-12.4,4200,1.852,3.704,,290,,,0,,,,,,,10,og-post,,,,AAXX 09054 07070 24942 /2901 11112 21124 30253 40375 55000 710// 333 60005 90710 91102=
07070,2012-02-09 06:00:00,-11.8,1037.3,0.1,90,-13.1,4000,3.704,5.556,,250,-12.3,-4,0,0,,,0,6,-15,10,og-post,,,,AAXX 09064 07070 04940 /2502 11118 21131 30251 40373 50001 60002 710// 333 11040 21123 34115 55060 60007 79999 90710 91103 555 60005=
07070,2012-02-09 07:00:00,-12.6,1037.4,-0.2,88,-14.2,3900,,5.556,,,,,0,,,,,,,10,og-post,,,,AAXX 09074 07070 24939 /0000 11126 21142 30251 40374 57002 710// 333 60005 90710 91103=
07070,2012-02-09 08:00:00,-10.4,1037.5,-0,90,-11.7,3900,1.852,1.852,,260,,,0,,,,,,,10,og-post,,,,AAXX 09084 07070 24939 /2601 11104 21117 30253 40375 55000 710// 333 60005 90710 91101=
07070,2012-02-09 09:00:00,-7.2,1037.6,0.5,86,-9.1,4900,3.704,5.556,,320,,,0,0,,,,,,10,og-post,,,,AAXX 09094 07070 24949 /3202 11072 21091 30256 40376 53005 710// 333 60007 90710 91103 555 60005=
07070,2012-02-09 10:00:00,-4.9,1037.1,0.1,77,-8.3,7000,5.556,14.816,,350,,,0,,,,,,,0,og-post,,,,AAXX 09104 07070 24957 /3503 11049 21083 30252 40371 50001 700// 333 60005 90710 91108=
07070,2012-02-09 11:00:00,-4.2,1037.1,0.1,73,-8.3,7000,14.816,18.52,,360,,,0,,,,,,,0,og-post,,,,AAXX 09114 07070 24957 /3608 11042 21083 30252 40371 50001 700// 333 60005 90710 91110=
07070,2012-02-09 12:00:00,-2.6,1036.4,-1,62,-8.9,9000,12.964,20.372,,350,,,0,0,,,,,,0,og-post,,,,AAXX 09124 07070 04959 /3507 11026 21089 30246 40364 58010 60001 700// 333 60007 90710 91111 555 60005=
07070,2012-02-09 13:00:00,-0.1,1035.6,-1.3,60,-6.9,9000,14.816,24.076,,320,,,0,,,,,,,0,og-post,,,,AAXX 09134 07070 24959 /3208 11001 21069 30239 40356 58013 700// 333 60005 90710 91113=
07070,2012-02-09 14:00:00,-1,1035.8,-1.1,65,-6.8,13000,22.224,33.336,,10,,,0,,,,,,,0,og-post,,,,AAXX 09144 07070 24963 /0112 11010 21068 30241 40358 55011 700// 333 60005 90710 91118=
07070,2012-02-09 15:00:00,-1.1,1035.7,-0.6,65,-6.9,12000,22.224,33.336,,10,,,0,0,,,,,,0,og-post,,,,AAXX 09154 07070 24962 70112 11011 21069 30240 40357 56006 700// 333 60007 90710 91118 555 60005=
07070,2012-02-09 16:00:00,-1.8,1036.2,0.5,67,-7.1,14000,14.816,35.188,,20,,,0,,,,,,,0,og-post,,,,AAXX 09164 07070 24964 /0208 11018 21071 30244 40362 53005 700// 333 60005 90710 91119=
07070,2012-02-09 17:00:00,-1.9,1036.3,0.4,68,-7,15000,7.408,27.78,,10,,,0,,,,,,,0,og-post,,,,AAXX 09174 07070 24565 80104 11019 21070 30245 40363 53004 700// 333 60005 90710 91115=
07070,2012-02-09 18:00:00,-2.1,1036.3,0.5,72,-6.5,13000,7.408,11.112,,340,-13.1,0.7,0,0,,,,,,0,og-post,,,,AAXX 09184 07070 04563 83404 11021 21065 30245 40363 51005 60002 700// 333 10007 21131 60007 90710 91106 555 60005=
07070,2012-02-09 19:00:00,-1.9,1036.8,0.6,75,-5.7,15000,14.816,22.224,,10,,,0,,,,,,,0,og-post,,,,AAXX 09194 07070 24565 80108 11019 21057 30250 40368 53006 700// 333 60005 90710 91112=
07070,2012-02-09 20:00:00,-1.9,1037.1,0.8,76,-5.6,13000,14.816,22.224,,50,,,0,,,,,,,0,og-post,,,,AAXX 09204 07070 24563 80508 11019 21056 30253 40371 53008 700// 333 60005 90710 91112=
07070,2012-02-09 21:00:00,-4.3,1037.4,1,77,-7.7,11000,12.964,22.224,,40,,,0,0,,,,,,0,og-post,,,,AAXX 09214 07070 24961 /0407 11043 21077 30255 40374 51010 700// 333 60007 90710 91112 555 60005=
07070,2012-02-09 22:00:00,-6.5,1037.8,0.8,83,-8.9,8000,11.112,14.816,,30,,,0,,,,,,,0,og-post,,,,AAXX 09224 07070 24958 /0306 11065 21089 30258 40378 52008 700// 333 60005 90710 91108=
07070,2012-02-09 23:00:00,-7.1,1037.9,0.6,84,-9.3,7000,11.112,12.964,,40,,,0,,,,,,,0,og-post,,,,AAXX 09234 07070 24957 /0406 11071 21093 30259 40379 52006 700// 333 60005 90710 91107=
07070,2012-02-10 00:00:00,-7.9,1038.1,0.5,85,-10,6000,5.556,14.816,,40,,,0,0,,,,,,0,og-post,,,,AAXX 10004 07070 04956 /0403 11079 21100 30260 40381 51005 60001 700// 333 60007 90710 91108 555 60005=
07070,2012-02-10 01:00:00,-8.7,1038.1,0.2,88,-10.3,4800,3.704,7.408,,60,,,0,,,,,,,10,og-post,,,,AAXX 10014 07070 24948 /0602 11087 21103 30260 40381 51002 710// 333 60005 90710 91104=
07070,2012-02-10 02:00:00,-8.5,1038,0,87,-10.3,4500,7.408,9.26,,50,,,0,,,,,,,10,og-post,,,,AAXX 10024 07070 24945 /0504 11085 21103 30259 40380 50000 710// 333 60005 90710 91105=
07070,2012-02-10 03:00:00,-9.3,1037.8,-0.3,86,-11.2,3900,5.556,11.112,,60,,,0,0,,,,,,10,og-post,,,,AAXX 10034 07070 24939 /0603 11093 21112 30257 40378 58003 710// 333 60007 90710 91106 555 60005=
07070,2012-02-10 04:00:00,-9.3,1037.7,-0.4,90,-10.6,3900,3.704,7.408,,50,,,0,,,,,,,10,og-post,,,,AAXX 10044 07070 24939 /0502 11093 21106 30256 40377 57004 710// 333 60005 90710 91104=
07070,2012-02-10 05:00:00,-8.9,1037.6,-0.4,90,-10.2,4400,3.704,5.556,,20,,,0,,,,,,,10,og-post,,,,AAXX 10054 07070 24944 /0202 11089 21102 30255 40376 56004 710// 333 60005 90710 91103=
07070,2012-02-10 06:00:00,-9.5,1037.7,-0.1,89,-11,3900,3.704,7.408,,20,-10.1,-1.8,0,0,,,0,6.1,-15,10,og-post,,,,AAXX 10064 07070 04939 /0202 11095 21110 30256 40377 55001 60002 710// 333 11018 21101 34115 55061 60007 70000 90710 91104 555 60005=
07070,2012-02-10 07:00:00,-10.9,1038.2,0.4,87,-12.6,4200,5.556,7.408,,20,,,0,,,,,,,10,og-post,,,,AAXX 10074 07070 24942 /0203 11109 21126 30260 40382 53004 710// 333 60005 90710 91104=
07070,2012-02-10 08:00:00,-9.8,1038.5,0.8,89,-11.3,3900,1.852,5.556,,40,,,0,,,,,,,10,og-post,,,,AAXX 10084 07070 24939 /0401 11098 21113 30263 40385 53008 710// 333 60005 90710 91103=
07070,2012-02-10 09:00:00,-5.8,1038.4,0.8,82,-8.4,7000,5.556,7.408,,50,,,0,0,,,,,,0,og-post,,,,AAXX 10094 07070 24957 /0503 11058 21084 30264 40384 51008 700// 333 60007 90710 91104 555 60005=
07070,2012-02-10 10:00:00,-3.2,1038.2,0.3,72,-7.5,11000,7.408,11.112,,100,,,0,,,,,,,0,og-post,,,,AAXX 10104 07070 24961 /1004 11032 21075 30263 40382 50003 700// 333 60005 90710 91106=
07070,2012-02-10 11:00:00,-1,1037.7,-0.4,61,-7.6,19000,16.668,27.78,,70,,,0,,,,,,,0,og-post,,,,AAXX 10114 07070 24969 /0709 11010 21076 30259 40377 58004 700// 333 60005 90710 91115=
07070,2012-02-10 12:00:00,-0.2,1037,-1.1,47,-10.2,19000,22.224,35.188,,50,,,0,0,,,,,,0,og-post,,,,AAXX 10124 07070 04969 /0512 11002 21102 30253 40370 58011 60001 700// 333 60007 90710 91119 555 60005=
07070,2012-02-10 13:00:00,0.4,1036.4,-1.6,46,-9.9,20000,16.668,27.78,,50,,,0,,,,,,,0,og-post,,,,AAXX 10134 07070 24670 /0509 10004 21099 30247 40364 58016 700// 333 60005 90710 91115=
07070,2012-02-10 14:00:00,0.7,1035.7,-1.9,42,-10.8,20000,16.668,29.632,,50,,,0,,,,,,,0,og-post,,,,AAXX 10144 07070 24970 /0509 10007 21108 30240 40357 57019 700// 333 60005 90710 91116=
07070,2012-02-10 15:00:00,0.8,1035.1,-1.8,44,-10.1,20000,14.816,29.632,,50,,,0,0,,,,,,0,og-post,,,,AAXX 10154 07070 24970 /0508 10008 21101 30235 40351 56018 700// 333 60007 90710 91116 555 60005=
07070,2012-02-10 16:00:00,-0.2,1034.8,-1.6,46,-10.4,20000,16.668,27.78,,80,,,0,,,,,,,0,og-post,,,,AAXX 10164 07070 24970 /0809 11002 21104 30231 40348 56016 700// 333 60005 90710 91115=
07070,2012-02-10 17:00:00,-3.2,1035,-0.8,60,-9.9,20000,11.112,20.372,,90,,,0,,,,,,,0,og-post,,,,AAXX 10174 07070 24970 /0906 11032 21099 30232 40350 55008 700// 333 60005 90710 91111=
07070,2012-02-10 18:00:00,-5.2,1035.2,-0.2,67,-10.4,18000,14.816,18.52,,90,-11.7,0.8,0,0,,,,,,0,og-post,,,,AAXX 10184 07070 04968 /0908 11052 21104 30233 40352 55002 60002 700// 333 10008 21117 60007 90710 91110 555 60005=
07070,2012-02-10 19:00:00,-6.7,1035.5,0.4,69,-11.4,18000,7.408,16.668,,80,,,0,,,,,,,0,og-post,,,,AAXX 10194 07070 24968 /0804 11067 21114 30235 40355 53004 700// 333 60005 90710 91109=
07070,2012-02-10 20:00:00,-8.2,1035.5,0.3,73,-12.2,17000,3.704,11.112,,80,,,0,,,,,,,0,og-post,,,,AAXX 10204 07070 24967 /0802 11082 21122 30235 40355 52003 700// 333 60005 90710 91106=
07070,2012-02-10 21:00:00,-8.1,1035.5,0.2,74,-11.9,14000,3.704,7.408,,40,,,0,0,,,,,,0,og-post,,,,AAXX 10214 07070 24964 /0402 11081 21119 30235 40355 51002 700// 333 60007 90710 91104 555 60005=
07070,2012-02-10 22:00:00,-8.5,1035.5,-0.1,75,-12.1,14000,5.556,11.112,,100,,,0,,,,,,,0,og-post,,,,AAXX 10224 07070 24964 /1003 11085 21121 30234 40355 58001 700// 333 60005 90710 91106=
07070,2012-02-10 23:00:00,-8.7,1035.4,-0.2,75,-12.3,13000,7.408,11.112,,50,,,0,,,,,,,0,og-post,,,,AAXX 10234 07070 24963 /0504 11087 21123 30233 40354 58002 700// 333 60005 90710 91106=
07070,2012-02-11 00:00:00,-9.2,1035.2,-0.4,77,-12.5,11000,5.556,9.26,,60,,,0,0,,,,,,0,og-post,,,,AAXX 11004 07070 04961 /0603 11092 21125 30231 40352 57004 60001 700// 333 60007 90710 91105 555 60005=
07070,2012-02-11 01:00:00,-10.7,1035,-0.6,79,-13.6,10000,5.556,7.408,,50,,,0,,,,,,,0,og-post,,,,AAXX 11014 07070 24960 /0503 11107 21136 30228 40350 58006 700// 333 60005 90710 91104=
07070,2012-02-11 02:00:00,-11,1034.6,-0.9,79,-13.9,11000,5.556,9.26,,30,,,0,,,,,,,0,og-post,,,,AAXX 11024 07070 24961 /0303 11110 21139 30224 40346 58009 700// 333 60005 90710 91105=
07070,2012-02-11 03:00:00,-11.5,1034.1,-1.2,79,-14.4,12000,5.556,9.26,,30,,,0,0,,,,,,0,og-post,,,,AAXX 11034 07070 24962 /0303 11115 21144 30219 40341 58012 700// 333 60007 90710 91105 555 60005=
07070,2012-02-11 04:00:00,-11.5,1033.8,-1.2,80,-14.3,11000,3.704,11.112,,10,,,0,,,,,,,0,og-post,,,,AAXX 11044 07070 24961 /0102 11115 21143 30216 40338 56012 700// 333 60005 90710 91106=
07070,2012-02-11 05:00:00,-12.3,1033.8,-0.8,83,-14.6,11000,1.852,9.26,,10,,,0,,,,,,,0,og-post,,,,AAXX 11054 07070 24961 /0101 11123 21146 30216 40338 56008 700// 333 60005 90710 91105=
07070,2012-02-11 06:00:00,-12.3,1033.5,-0.6,83,-14.6,12000,5.556,9.26,,20,-12.5,-5.3,0,0,,,0,8.9,-18,0,og-post,,,,AAXX 11064 07070 04962 /0203 11123 21146 30213 40335 57006 60002 700// 333 11053 21125 34118 55089 60007 70000 90710 91105 555 60005=
07070,2012-02-11 07:00:00,-12.2,1034.3,0.5,81,-14.8,12000,7.408,12.964,,10,,,0,,,,,,,0,og-post,,,,AAXX 11074 07070 24962 /0104 11122 21148 30221 40343 53005 700// 333 60005 90710 91107=
07070,2012-02-11 08:00:00,-10.9,1034.6,0.8,81,-13.5,10000,5.556,9.26,,20,,,0,,,,,,,0,og-post,,,,AAXX 11084 07070 24960 /0203 11109 21135 30224 40346 53008 700// 333 60005 90710 91105=
07070,2012-02-11 09:00:00,-7.7,1034.3,1,72,-11.9,16000,7.408,9.26,,50,,,0,0,,,,,,0,og-post,,,,AAXX 11094 07070 24966 /0504 11077 21119 30223 40343 50010 700// 333 60007 90710 91105 555 60005=
07070,2012-02-11 10:00:00,-6,1034,0,64,-11.7,18000,12.964,20.372,,50,,,0,,,,,,,0,og-post,,,,AAXX 11104 07070 24968 /0507 11060 21117 30221 40340 50000 700// 333 60005 90710 91111=
07070,2012-02-11 11:00:00,-4.5,1034,-0.3,55,-12.2,19000,18.52,27.78,,30,,,0,,,,,,,0,og-post,,,,AAXX 11114 07070 24969 /0310 11045 21122 30221 40340 56003 700// 333 60005 90710 91115=
07070,2012-02-11 12:00:00,-2.5,1032.8,-1.3,40,-14.3,20000,18.52,29.632,,30,,,0,0,,,,,,0,og-post,,,,AAXX 11124 07070 04970 /0310 11025 21143 30210 40328 58013 60001 700// 333 60007 90710 91116 555 60005=
07070,2012-02-11 13:00:00,-1.5,1032.2,-1.6,32,-16.1,19000,18.52,27.78,,40,,,0,,,,,,,0,og-post,,,,AAXX 11134 07070 24969 /0410 11015 21161 30205 40322 58016 700// 333 60005 90710 91115=
07070,2012-02-11 14:00:00,-0.3,1031.7,-2.1,28,-16.6,20000,14.816,27.78,,30,,,0,,,,,,,0,og-post,,,,AAXX 11144 07070 24970 /0308 11003 21166 30200 40317 56021 700// 333 60005 90710 91115=
07070,2012-02-11 15:00:00,0,1031.4,-1.2,28,-16.4,20000,14.816,25.928,,70,,,0,0,,,,,,0,og-post,,,,AAXX 11154 07070 24970 /0708 10000 21164 30198 40314 56012 700// 333 60007 90710 91114 555 60005=
07070,2012-02-11 16:00:00,-0.4,1031.6,-0.6,30,-15.9,20000,12.964,22.224,,50,,,0,,,,,,,0,og-post,,,,AAXX 11164 07070 24970 /0507 11004 21159 30199 40316 55006 700// 333 60005 90710 91112=
07070,2012-02-11 17:00:00,-4.5,1032.4,0.6,43,-15.2,20000,12.964,24.076,,60,,,0,,,,,,,0,og-post,,,,AAXX 11174 07070 24970 /0607 11045 21152 30206 40324 53006 700// 333 60005 90710 91113=
07070,2012-02-11 18:00:00,-5,1033.2,1.5,46,-14.9,20000,14.816,22.224,,50,-13.1,0.1,0,0,,,,,,0,og-post,,,,AAXX 11184 07070 04970 /0508 11050 21149 30213 40332 53015 60002 700// 333 10001 21131 60007 90710 91112 555 60005=
07070,2012-02-11 19:00:00,-8.2,1033.7,1.8,63,-14,17000,3.704,18.52,,100,,,0,,,,,,,0,og-post,,,,AAXX 11194 07070 24967 /1002 11082 21140 30217 40337 51018 700// 333 60005 90710 91110=
07070,2012-02-11 20:00:00,-8.1,1034.2,1.6,67,-13.2,14000,11.112,16.668,,60,,,0,,,,,,,0,og-post,,,,AAXX 11204 07070 24964 /0606 11081 21132 30222 40342 51016 700// 333 60005 90710 91109=
07070,2012-02-11 21:00:00,-9.5,1034.6,1.2,74,-13.3,12000,5.556,14.816,,80,,,0,0,,,,,,0,og-post,,,,AAXX 11214 07070 24962 /0803 11095 21133 30225 40346 51012 700// 333 60007 90710 91108 555 60005=
07070,2012-02-11 22:00:00,-10,1034.5,0.7,74,-13.8,12000,3.704,7.408,,30,,,0,,,,,,,0,og-post,,,,AAXX 11224 07070 24962 /0302 11100 21138 30224 40345 50007 700// 333 60005 90710 91104=
07070,2012-02-11 23:00:00,-10.8,1034.4,0,77,-14,11000,5.556,9.26,,10,,,0,,,,,,,0,og-post,,,,AAXX 11234 07070 24961 /0103 11108 21140 30222 40344 50000 700// 333 60005 90710 91105=
07070,2012-02-12 00:00:00,-12.3,1034.5,-0.2,79,-15.2,9000,3.704,7.408,,310,,,0,0,,,,,,0,og-post,,,,AAXX 12004 07070 04959 /3102 11123 21152 30223 40345 55002 60001 700// 333 60007 90710 91104 555 60005=
07070,2012-02-12 01:00:00,-11,1034.8,0.2,80,-13.8,9000,9.26,14.816,,10,,,0,,,,,,,0,og-post,,,,AAXX 12014 07070 24959 /0105 11110 21138 30226 40348 53002 700// 333 60005 90710 91108=
07070,2012-02-12 02:00:00,-11.5,1034.8,0.4,83,-13.8,8000,3.704,14.816,,30,,,0,,,,,,,0,og-post,,,,AAXX 12024 07070 24958 /0302 11115 21138 30226 40348 52004 700// 333 60005 90710 91108=
07070,2012-02-12 03:00:00,-13.4,1034.2,-0.4,81,-16,6000,1.852,9.26,,90,,,0,0,,,,,,0,og-post,,,,AAXX 12034 07070 24956 /0901 11134 21160 30219 40342 58004 700// 333 60007 90710 91105 555 60005=
07070,2012-02-12 04:00:00,-13,1034,-0.9,80,-15.7,6000,3.704,9.26,,40,,,0,,,,,,,0,og-post,,,,AAXX 12044 07070 24956 /0402 11130 21157 30217 40340 58009 700// 333 60005 90710 91105=
07070,2012-02-12 05:00:00,-12.7,1034.2,-0.6,86,-14.6,5000,1.852,5.556,,290,,,0,,,,,,,0,og-post,,,,AAXX 12054 07070 24950 /2901 11127 21146 30220 40342 55006 700// 333 60005 90710 91103=
07070,2012-02-12 06:00:00,-13.9,1034.3,0.1,87,-15.6,5000,,3.704,,,-14.5,-5,0,0,,,0,9,-18,0,og-post,,,,AAXX 12064 07070 04950 /0000 11139 21156 30220 40343 53001 60002 700// 333 11050 21145 34118 55090 60007 70000 90710 91102 555 60005=
07070,2012-02-12 07:00:00,-12.3,1034.5,0.6,88,-13.9,5000,,3.704,,,,,0,,,,,,,0,og-post,,,,AAXX 12074 07070 24950 80000 11123 21139 30223 40345 52006 700// 333 60005 90710 91102=
07070,2012-02-12 08:00:00,-11.1,1034.5,0.3,87,-12.8,5000,1.852,5.556,,220,,,0,,,,,,,0,og-post,,,,AAXX 12084 07070 24950 72201 11111 21128 30223 40345 52003 700// 333 60005 90710 91103=
07070,2012-02-12 09:00:00,-7.5,1034.6,0.6,79,-10.5,5000,,3.704,,,,,0,0,,,,,,0,og-post,,,,AAXX 12094 07070 24950 /0000 11075 21105 30226 40346 52006 700// 333 60007 90710 91102 555 60005=
07070,2012-02-12 10:00:00,-5.2,1034.3,0.1,68,-10.2,8000,,5.556,,,,,0,,,,,,,0,og-post,,,,AAXX 12104 07070 24958 /0000 11052 21102 30224 40343 50001 700// 333 60005 90710 91103=
07070,2012-02-12 11:00:00,-3.8,1033.9,-0.2,59,-10.7,10000,3.704,9.26,,340,,,0,,,,,,,0,og-post,,,,AAXX 12114 07070 24960 /3402 11038 21107 30221 40339 58002 700// 333 60005 90710 91105=
07070,2012-02-12 12:00:00,-2.5,1033.5,-0.9,52,-11,12000,9.26,14.816,,330,,,0,0,,,,,,0,og-post,,,,AAXX 12124 07070 04962 /3305 11025 21110 30217 40335 58009 60001 700// 333 60007 90710 91108 555 60005=
07070,2012-02-12 13:00:00,-1.6,1032.9,-1.2,48,-11.2,13000,5.556,16.668,,360,,,0,,,,,,,0,og-post,,,,AAXX 12134 07070 24863 83603 11016 21112 30212 40329 58012 700// 333 60005 90710 91109=
07070,2012-02-12 14:00:00,0,1031.9,-1.8,43,-11.1,15000,11.112,20.372,,350,,,0,,,,,,,0,og-post,,,,AAXX 12144 07070 24865 83506 10000 21111 30203 40319 58018 700// 333 60005 90710 91111=
07070,2012-02-12 15:00:00,0,1031.5,-1.8,46,-10.3,12000,11.112,18.52,,340,,,0,0,,,,,,0,og-post,,,,AAXX 12154 07070 24762 83406 10000 21103 30199 40315 56018 700// 333 60007 90710 91110 555 60005=
07070,2012-02-12 16:00:00,-0.5,1031.7,-1.2,50,-9.7,13000,9.26,18.52,,330,,,0,,,,,,,0,og-post,,,,AAXX 12164 07070 24763 83305 11005 21097 30200 40317 55012 700// 333 60005 90710 91110=
07070,2012-02-12 17:00:00,-0.7,1031.5,-0.5,52,-9.4,14000,9.26,14.816,,330,,,0,,,,,,,0,og-post,,,,AAXX 12174 07070 24764 83305 11007 21094 30198 40315 56005 700// 333 60005 90710 91108=
07070,2012-02-12 18:00:00,-1,1031.4,-0.2,54,-9.1,15000,12.964,20.372,,330,-14,0.3,0,0,,,,,,0,og-post,,,,AAXX 12184 07070 04765 83307 11010 21091 30197 40314 58002 60002 700// 333 10003 21140 60007 90710 91111 555 60005=
07070,2012-02-12 19:00:00,-1.2,1031.4,-0.3,58,-8.4,12000,9.26,22.224,,340,,,0,,,,,,,0,og-post,,,,AAXX 12194 07070 24562 83405 11012 21084 30197 40314 56003 700// 333 60005 90710 91112=
07070,2012-02-12 20:00:00,-1.2,1031.4,-0.1,66,-6.7,9000,11.112,18.52,,340,,,0,,,,,,,0,og-post,,,,AAXX 12204 07070 24459 83406 11012 21067 30197 40314 55001 700// 333 60005 90710 91110=
07070,2012-02-12 21:00:00,-1.6,1031,-0.4,70,-6.4,8000,11.112,18.52,,330,,,0,0,,,,,,0,og-post,,,,AAXX 12214 07070 24558 83306 11016 21064 30193 40310 58004 700// 333 60007 90710 91110 555 60005=
07070,2012-02-12 22:00:00,-1.8,1031,-0.4,71,-6.4,7000,5.556,14.816,,330,,,0,,,,,,,0,og-post,,,,AAXX 12224 07070 24757 83303 11018 21064 30193 40310 57004 700// 333 60005 90710 91108=
07070,2012-02-12 23:00:00,-2.1,1031.1,-0.3,73,-6.3,6000,1.852,7.408,,320,,,0,,,,,,,0,og-post,,,,AAXX 12234 07070 24856 83201 11021 21063 30194 40311 55003 700// 333 60005 90710 91104=
07070,2012-02-13 00:00:00,-2.1,1031.1,0.1,74,-6.1,6000,5.556,5.556,,290,,,0,0,,,,,,0,og-post,,,,AAXX 13004 07070 04456 82903 11021 21061 30194 40311 52001 60001 700// 333 60007 90710 91103 555 60005=
07070,2012-02-13 01:00:00,-2.2,1030.7,-0.3,77,-5.7,5000,5.556,5.556,,290,,,0,,,,,,,0,og-post,,,,AAXX 13014 07070 24450 82903 11022 21057 30190 40307 58003 700// 333 60005 90710 91103=
07070,2012-02-13 02:00:00,-1.8,1030.4,-0.7,76,-5.5,5000,3.704,5.556,,250,,,0,,,,,,,0,og-post,,,,AAXX 13024 07070 24450 82502 11018 21055 30187 40304 58007 700// 333 60005 90710 91103=
07070,2012-02-13 03:00:00,-2,1029.9,-1.2,77,-5.5,5000,3.704,5.556,,300,,,0,0,,,,,,0,og-post,,,,AAXX 13034 07070 24350 83002 11020 21055 30182 40299 58012 700// 333 60007 90710 91103 555 60005=
07070,2012-02-13 04:00:00,-1.7,1029.4,-1.3,78,-5,5000,5.556,5.556,,300,,,0,,,,,,,0,og-post,,,,AAXX 13044 07070 24250 83003 11017 21050 30177 40294 58013 700// 333 60005 90710 91103=
07070,2012-02-13 05:00:00,-1.5,1029.5,-0.9,83,-4,3600,3.704,7.408,,310,,,0,,,,,,,10,og-post,,,,AAXX 13054 07070 24236 83102 11015 21040 30178 40295 55009 710// 333 60005 90710 91104=
07070,2012-02-13 06:00:00,-1.3,1028.9,-1,88,-3,2000,5.556,9.26,,310,-2.4,-1,0,0,,,0,3.3,-3,10,og-post,,,,AAXX 13064 07070 04220 83103 11013 21030 30172 40289 57010 60002 710// 333 11010 21024 34103 55033 60007 70000 90710 91105 555 60005=
07070,2012-02-13 07:00:00,-1.3,1028.9,-0.5,90,-2.7,2000,5.556,11.112,,250,,,0,,,,,,,10,og-post,,,,AAXX 13074 07070 24120 82503 11013 21027 30172 40289 57005 710// 333 60005 90710 91106=
07070,2012-02-13 08:00:00,-1,1028.9,-0.5,91,-2.3,1200,5.556,9.26,,270,,,0,,,,,,,10,og-post,,,,AAXX 13084 07070 24212 82703 11010 21023 30173 40289 55005 710// 333 60005 90710 91105=
07070,2012-02-13 09:00:00,-0.7,1028.5,-0.3,93,-1.7,900,11.112,12.964,,240,,,0,0,,,,,,49,og-post,,,,AAXX 13094 07070 24109 82406 11007 21017 30169 40285 58003 749// 333 60007 90710 91107 555 60005=
07070,2012-02-13 10:00:00,-0.1,1028,-0.8,93,-1.1,1400,11.112,14.816,,260,,,,,,,,,,10,og-post,,,,AAXX 13104 07070 24114 82606 11001 21011 30164 40280 58008 710// 333 69905 90710 91108=
07070,2012-02-13 11:00:00,0.7,1027,-1.8,94,-0.2,1300,12.964,16.668,,260,,,,,,,,,,58,og-post,,,,AAXX 13114 07070 24113 82607 10007 21002 30155 40270 58018 758// 333 69905 90710 91109=
07070,2012-02-13 12:00:00,1.4,1025.8,-2.6,94,0.5,3500,14.816,20.372,,260,,,,,,,,,,10,og-post,,,,AAXX 13124 07070 04135 82608 10014 20005 30143 40258 58026 69901 710// 333 69907 90710 91111 555 69905=
07070,2012-02-13 13:00:00,2.2,1024.9,-3,93,1.2,5000,14.816,24.076,,270,,,,,,,,,,10,og-post,,,,AAXX 13134 07070 24250 82708 10022 20012 30134 40249 57030 710// 333 69905 90710 91113=
07070,2012-02-13 14:00:00,2.3,1024.3,-2.6,92,1.1,4500,12.964,22.224,,270,,,0,,,,,,,10,og-post,,,,AAXX 13144 07070 24245 82707 10023 20011 30129 40243 56026 710// 333 60005 90710 91112=
07070,2012-02-13 15:00:00,2.6,1023.4,-2.3,91,1.3,7000,11.112,22.224,,290,,,,,,,,,,51,og-post,,,,AAXX 13154 07070 24257 82906 10026 20013 30120 40234 57023 751// 333 69907 90710 91112 555 69905=
07070,2012-02-13 16:00:00,3.1,1022.3,-2.5,89,1.5,9000,12.964,18.52,,270,,,,,,,,,,0,og-post,,,,AAXX 13164 07070 24659 82707 10031 20015 30109 40223 58025 700// 333 69905 90710 91110=
07070,2012-02-13 17:00:00,2.8,1021.5,-2.8,88,1,9000,11.112,20.372,,260,,,0,,,,,,,0,og-post,,,,AAXX 13174 07070 24659 82606 10028 20010 30101 40215 56028 700// 333 60005 90710 91111=
07070,2012-02-13 18:00:00,2.3,1021.1,-2.3,87,0.4,8000,9.26,16.668,,250,-1.4,3.1,0,,,,,,,0,og-post,,,,AAXX 13184 07070 04558 82505 10023 20004 30097 40211 56023 69902 700// 333 10031 21014 69907 90710 91109 555 60005=
07070,2012-02-13 19:00:00,2.3,1020.5,-1.8,87,0.4,12000,12.964,16.668,,250,,,,,,,,,,51,og-post,,,,AAXX 13194 07070 24462 82507 10023 20004 30091 40205 56018 751// 333 69905 90710 91109=
07070,2012-02-13 20:00:00,2.3,1020.1,-1.4,89,0.7,7000,11.112,16.668,,270,,,,,,,,,,60,og-post,,,,AAXX 13204 07070 24457 82706 10023 20007 30087 40201 57014 760// 333 69905 90710 91109=
07070,2012-02-13 21:00:00,1.5,1019.6,-1.5,93,0.5,3300,7.408,25.928,,260,,,0.6,0.6,,,,,,10,og-post,,,,AAXX 13214 07070 24333 82604 10015 20005 30082 40196 56015 710// 333 69967 90710 91114 555 69965=
07070,2012-02-13 22:00:00,1.5,1018.9,-1.6,94,0.6,2900,9.26,12.964,,260,,,0.2,,,,,,,10,og-post,,,,AAXX 13224 07070 24329 82605 10015 20006 30075 40189 58016 710// 333 69925 90710 91107=
07070,2012-02-13 23:00:00,1.5,1018.5,-1.6,94,0.6,2700,9.26,11.112,,260,,,0.2,,,,,,,10,og-post,,,,AAXX 13234 07070 24327 82605 10015 20006 30071 40185 56016 710// 333 69925 90710 91106=
07070,2012-02-14 00:00:00,1.6,1018.3,-1.3,95,0.9,2000,9.26,12.964,,240,,,0,0.4,1,,,,,10,og-post,,,,AAXX 14004 07070 04220 82405 10016 20009 30069 40183 56013 60011 710// 333 69947 90710 91107 555 60005=
07070,2012-02-14 01:00:00,1.8,1018.2,-0.7,95,1.1,1800,7.408,12.964,,280,,,0.2,,,,,,,68,og-post,,,,AAXX 14014 07070 24218 82804 10018 20011 30068 40182 56007 768// 333 69925 90710 91107=
07070,2012-02-14 02:00:00,1.2,1018.1,-0.4,95,0.5,3400,9.26,12.964,,300,,,0.2,,,,,,,61,og-post,,,,AAXX 14024 07070 24234 83005 10012 20005 30067 40181 56004 761// 333 69925 90710 91107=
07070,2012-02-14 03:00:00,0.9,1017.9,-0.4,96,0.3,3500,5.556,7.408,,250,,,,0.4,,,,,,10,og-post,,,,AAXX 14034 07070 24335 82503 10009 20003 30065 40179 58004 710// 333 69947 90710 91104 555 69905=
07070,2012-02-14 04:00:00,1,1018,-0.2,96,0.4,3200,3.704,9.26,,280,,,,,,,,,,10,og-post,,,,AAXX 14044 07070 24432 82802 10010 20004 30066 40180 55002 710// 333 69905 90710 91105=
07070,2012-02-14 05:00:00,2.1,1018.3,0.2,96,1.5,2100,7.408,14.816,,340,,,0.2,,,,,,,60,og-post,,,,AAXX 14054 07070 24121 83404 10021 20015 30069 40183 53002 760// 333 69925 90710 91108=
07070,2012-02-14 06:00:00,2.6,1018.3,0.4,96,2,6000,12.964,24.076,,330,0.9,2.6,0.6,0.8,,2,2.2,0,1,0,og-post,,,,AAXX 14064 07070 04256 83307 10026 20020 30069 40183 51004 60022 700// 333 10026 20009 32001 55000 69987 70022 90710 91113 555 69965=
07070,2012-02-14 07:00:00,2.7,1018.7,0.7,95,2,9000,18.52,27.78,,340,,,0,,,,,,,0,og-post,,,,AAXX 14074 07070 24359 83410 10027 20020 30073 40187 53007 700// 333 60005 90710 91115=
07070,2012-02-14 08:00:00,2.9,1019.5,1.2,94,2,8000,14.816,31.484,,330,,,0,,,,,,,0,og-post,,,,AAXX 14084 07070 24458 83308 10029 20020 30081 40195 53012 700// 333 60005 90710 91117=
07070,2012-02-14 09:00:00,3.3,1020.4,2.1,93,2.3,9000,18.52,31.484,,340,,,0,0,,,,,,0,og-post,,,,AAXX 14094 07070 24359 83410 10033 20023 30090 40204 53021 700// 333 60007 90710 91117 555 60005=
07070,2012-02-14 10:00:00,4.5,1020.5,1.9,91,3.2,11000,20.372,31.484,,330,,,0,,,,,,,0,og-post,,,,AAXX 14104 07070 24361 83311 10045 20032 30092 40205 51019 700// 333 60005 90710 91117=
07070,2012-02-14 11:00:00,5.4,1020.7,1.3,87,3.4,15000,14.816,35.188,,340,,,0,,,,,,,0,og-post,,,,AAXX 14114 07070 24465 73408 10054 20034 30094 40207 51013 700// 333 60005 90710 91119=
07070,2012-02-14 12:00:00,4.9,1021.1,0.8,83,2.3,17000,24.076,37.04,,360,,,0,0,,,,,,0,og-post,,,,AAXX 14124 07070 04467 83613 10049 20023 30098 40211 53008 60001 700// 333 60007 90710 91120 555 60005=
07070,2012-02-14 13:00:00,5.6,1021,0.5,80,2.4,19000,20.372,31.484,,10,,,0,,,,,,,0,og-post,,,,AAXX 14134 07070 24469 80111 10056 20024 30097 40210 51005 700// 333 60005 90710 91117=
07070,2012-02-14 14:00:00,6.2,1020.3,-0.3,68,0.7,20000,22.224,33.336,,10,,,0,,,,,,,0,og-post,,,,AAXX 14144 07070 24570 /0112 10062 20007 30091 40203 58003 700// 333 60005 90710 91118=
07070,2012-02-14 15:00:00,6.5,1020.8,-0.2,69,1.2,19000,20.372,33.336,,340,,,0,0,,,,,,0,og-post,,,,AAXX 14154 07070 24569 /3411 10065 20012 30096 40208 55002 700// 333 60007 90710 91118 555 60005=
07070,2012-02-14 16:00:00,4.7,1021.2,0.2,79,1.4,19000,22.224,37.04,,340,,,0,,,,,,,0,og-post,,,,AAXX 14164 07070 24569 73412 10047 20014 30099 40212 53002 700// 333 60005 90710 91120=
07070,2012-02-14 17:00:00,3.8,1021.4,0.9,83,1.2,20000,11.112,27.78,,320,,,0,,,,,,,0,og-post,,,,AAXX 14174 07070 24470 73206 10038 20012 30100 40214 51009 700// 333 60005 90710 91115=
07070,2012-02-14 18:00:00,3.8,1021.7,0.7,85,1.5,19000,11.112,18.52,,310,2.6,6.8,0,0,,,,,,0,og-post,,,,AAXX 14184 07070 04469 83106 10038 20015 30103 40217 52007 60002 700// 333 10068 20026 60007 90710 91110 555 60005=
07070,2012-02-14 19:00:00,3.6,1021.4,0.1,87,1.6,14000,18.52,27.78,,320,,,,,,,,,,61,og-post,,,,AAXX 14194 07070 24464 83210 10036 20016 30100 40214 50001 761// 333 69905 90710 91115=
07070,2012-02-14 20:00:00,3.2,1021.4,0,90,1.7,8000,16.668,25.928,,310,,,,,,,,,,60,og-post,,,,AAXX 14204 07070 24458 83109 10032 20017 30100 40214 50000 760// 333 69905 90710 91114=
07070,2012-02-14 21:00:00,3.3,1021.2,-0.5,91,2,12000,14.816,22.224,,300,,,,,,,,,,0,og-post,,,,AAXX 14214 07070 24462 83008 10033 20020 30098 40212 56005 700// 333 69907 90710 91112 555 69905=
07070,2012-02-14 22:00:00,3.5,1020.7,-0.7,90,2,11000,18.52,25.928,,290,,,,,,,,,,0,og-post,,,,AAXX 14224 07070 24561 82910 10035 20020 30093 40207 58007 700// 333 69905 90710 91114=
07070,2012-02-14 23:00:00,3.5,1020.4,-1,90,2,7000,18.52,29.632,,290,,,0.2,,,,,,,61,og-post,,,,AAXX 14234 07070 24657 82910 10035 20020 30090 40204 57010 761// 333 69925 90710 91116=
07070,2012-02-15 00:00:00,3.4,1020,-1.2,90,1.9,10000,16.668,24.076,,270,,,,0.2,0.2,,,,,0,og-post,,,,AAXX 15004 07070 04660 82709 10034 20019 30086 40200 56012 69921 700// 333 69927 90710 91113 555 69905=
07070,2012-02-15 01:00:00,3.4,1019.4,-1.2,90,1.9,9000,16.668,24.076,,280,,,,,,,,,,60,og-post,,,,AAXX 15014 07070 24459 82809 10034 20019 30081 40194 58012 760// 333 69905 90710 91113=
07070,2012-02-15 02:00:00,3.8,1018.9,-1.4,90,2.3,5000,22.224,35.188,,300,,,,,,,,,,51,og-post,,,,AAXX 15024 07070 24450 83012 10038 20023 30076 40189 58014 751// 333 69905 90710 91119=
07070,2012-02-15 03:00:00,4.1,1018.5,-1.4,92,2.9,4700,24.076,37.04,,300,,,0.4,0.4,,,,,,60,og-post,,,,AAXX 15034 07070 24447 83013 10041 20029 30072 40185 56014 760// 333 69947 90710 91120 555 69945=
07070,2012-02-15 04:00:00,4.6,1018.4,-1,90,3.1,12000,25.928,40.744,,310,,,0.2,,,,,,,0,og-post,,,,AAXX 15044 07070 24462 83114 10046 20031 30071 40184 56010 700// 333 69925 90710 91122=
07070,2012-02-15 05:00:00,4.6,1018.7,-0.2,89,2.9,12000,25.928,40.744,,310,,,,,,,,,,0,og-post,,,,AAXX 15054 07070 24462 83114 10046 20029 30074 40187 55002 700// 333 69905 90710 91122=
07070,2012-02-15 06:00:00,4.6,1019.2,0.7,89,2.9,15000,25.928,38.892,,310,3.1,4.7,,0.2,,0.8,0.8,1.6,2,0,og-post,,,,AAXX 15064 07070 04465 83114 10046 20029 30079 40192 53007 69982 700// 333 10047 20031 3/002 55016 69927 70008 90710 91121 555 69905=
07070,2012-02-15 07:00:00,4.7,1019.3,0.9,89,3,17000,24.076,38.892,,310,,,,,,,,,,0,og-post,,,,AAXX 15074 07070 24467 83113 10047 20030 30080 40193 51009 700// 333 69905 90710 91121=
07070,2012-02-15 08:00:00,5.1,1019.5,0.8,88,3.3,17000,27.78,38.892,,310,,,,,,,,,,0,og-post,,,,AAXX 15084 07070 24467 83115 10051 20033 30082 40195 51008 700// 333 69905 90710 91121=
07070,2012-02-15 09:00:00,5.7,1019.7,0.5,87,3.7,20000,29.632,44.448,,310,,,0,,,,,,,0,og-post,,,,AAXX 15094 07070 24470 83116 10057 20037 30084 40197 53005 700// 333 69907 90710 91124 555 60005=
07070,2012-02-15 10:00:00,5.9,1020,0.8,86,3.7,14000,31.484,51.856,,320,,,,,,,,,,61,og-post,,,,AAXX 15104 07070 24464 83217 10059 20037 30088 40200 53008 761// 333 69905 90710 91128=
07070,2012-02-15 11:00:00,6.7,1020.4,1,83,4,20000,35.188,55.56,53.708,320,,,,,,,,,,0,og-post,,,,AAXX 15114 07070 24570 83219 10067 20040 30092 40204 53010 700// 333 69905 91029 90710 91130=
07070,2012-02-15 12:00:00,6.8,1020.4,0.8,81,3.8,20000,33.336,53.708,,320,,,0,,,,,,,0,og-post,,,,AAXX 15124 07070 04570 83218 10068 20038 30092 40204 51008 69901 700// 333 69907 90710 91129 555 60005=
07070,2012-02-15 13:00:00,6.8,1020.4,0.4,80,3.6,20000,31.484,51.856,,330,,,,,,,,,,0,og-post,,,,AAXX 15134 07070 24470 83317 10068 20036 30092 40204 51004 700// 333 69905 90710 91128=
07070,2012-02-15 14:00:00,6.5,1020.9,0.5,83,3.8,7000,25.928,50.004,,330,,,0.2,,,,,,,63,og-post,,,,AAXX 15144 07070 24557 83314 10065 20038 30097 40209 53005 763// 333 69925 90710 91127=
07070,2012-02-15 15:00:00,7.1,1020.7,0.3,79,3.7,20000,29.632,42.596,,320,,,,0.2,,,,,,0,og-post,,,,AAXX 15154 07070 24570 83216 10071 20037 30095 40207 50003 700// 333 69927 90710 91123 555 69905=
07070,2012-02-15 16:00:00,6.8,1020.9,0.5,77,3,20000,27.78,46.3,,320,,,,,,,,,,0,og-post,,,,AAXX 15164 07070 24570 83215 10068 20030 30097 40209 51005 700// 333 69905 90710 91125=
07070,2012-02-15 17:00:00,6.4,1021.6,0.7,80,3.2,20000,29.632,55.56,,330,,,,,,,,,,0,og-post,,,,AAXX 15174 07070 24570 83316 10064 20032 30104 40216 53007 700// 333 69905 90710 91130=
07070,2012-02-15 18:00:00,5.9,1022.4,1.6,85,3.6,15000,31.484,53.708,,320,4.3,8.2,,,,0.2,,,,61,og-post,,,,AAXX 15184 07070 04565 83217 10059 20036 30111 40224 53016 69922 761// 333 10082 20043 69907 90710 91129 555 69905=
07070,2012-02-15 19:00:00,5.7,1022.7,1.7,86,3.5,20000,27.78,55.56,,320,,,,,,,,,,0,og-post,,,,AAXX 15194 07070 24470 83215 10057 20035 30114 40227 51017 700// 333 69905 90710 91130=
07070,2012-02-15 20:00:00,5.6,1023.4,1.7,88,3.8,19000,27.78,50.004,,330,,,,,,,,,,58,og-post,,,,AAXX 15204 07070 24469 83315 10056 20038 30121 40234 52017 758// 333 69905 90710 91127=
07070,2012-02-15 21:00:00,5.6,1023.6,1.2,89,3.9,19000,25.928,40.744,,330,,,,,,,,,,60,og-post,,,,AAXX 15214 07070 24469 83314 10056 20039 30123 40236 51012 760// 333 69907 90710 91122 555 69905=
07070,2012-02-15 22:00:00,5.5,1024.1,1.4,92,4.3,9000,22.224,46.3,,330,,,,,,,,,,0,og-post,,,,AAXX 15224 07070 24359 83312 10055 20043 30128 40241 51014 700// 333 69905 90710 91125=
07070,2012-02-15 23:00:00,5.5,1024,0.6,92,4.3,11000,25.928,37.04,,320,,,,,,,,,,0,og-post,,,,AAXX 15234 07070 24361 83214 10055 20043 30127 40240 51006 700// 333 69905 90710 91120=
07070,2012-02-16 00:00:00,5.7,1024.4,0.8,90,4.2,14000,22.224,40.744,,330,,,0,,,,,,,0,og-post,,,,AAXX 16004 07070 04364 83312 10057 20042 30131 40244 51008 69901 700// 333 69907 90710 91122 555 60005=
07070,2012-02-16 01:00:00,5.4,1024.5,0.4,92,4.2,11000,22.224,37.04,,320,,,0,,,,,,,0,og-post,,,,AAXX 16014 07070 24361 83212 10054 20042 30132 40245 53004 700// 333 60005 90710 91120=
07070,2012-02-16 02:00:00,5.7,1024.7,0.7,90,4.2,19000,22.224,35.188,,330,,,0,,,,,,,0,og-post,,,,AAXX 16024 07070 24469 83312 10057 20042 30134 40247 51007 700// 333 60005 90710 91119=
07070,2012-02-16 03:00:00,5.3,1024.8,0.4,91,3.9,12000,18.52,33.336,,330,,,0,0,,,,,,0,og-post,,,,AAXX 16034 07070 24362 83310 10053 20039 30135 40248 52004 700// 333 60007 90710 91118 555 60005=
07070,2012-02-16 04:00:00,5.1,1025.1,0.6,92,3.9,8000,16.668,31.484,,320,,,0,,,,,,,0,og-post,,,,AAXX 16044 07070 24358 83209 10051 20039 30138 40251 53006 700// 333 60005 90710 91117=
07070,2012-02-16 05:00:00,5.2,1025.5,0.8,91,3.8,11000,16.668,27.78,,330,,,0,,,,,,,0,og-post,,,,AAXX 16054 07070 24361 83309 10052 20038 30142 40255 53008 700// 333 60005 90710 91115=
07070,2012-02-16 06:00:00,5,1026.3,1.4,92,3.8,7000,18.52,24.076,,330,5,5.8,0,0,,,0.2,0.1,5,0,og-post,,,,AAXX 16064 07070 04357 83310 10050 20038 30149 40263 53014 69902 700// 333 10058 20050 31005 55001 60007 70002 90710 91113 555 60005=
07070,2012-02-16 07:00:00,5,1026.8,1.6,92,3.8,9000,20.372,31.484,,330,,,0,,,,,,,0,og-post,,,,AAXX 16074 07070 24359 83311 10050 20038 30154 40268 53016 700// 333 60005 90710 91117=
07070,2012-02-16 08:00:00,5.2,1027.6,2,91,3.8,13000,18.52,33.336,,340,,,0,,,,,,,0,og-post,,,,AAXX 16084 07070 24363 83410 10052 20038 30162 40276 53020 700// 333 60005 90710 91118=
07070,2012-02-16 09:00:00,5.8,1027.4,1.2,90,4.3,13000,18.52,27.78,,340,,,0,0,,,,,,0,og-post,,,,AAXX 16094 07070 24463 83410 10058 20043 30161 40274 50012 700// 333 60007 90710 91115 555 60005=
07070,2012-02-16 10:00:00,7.3,1027.8,1.1,83,4.6,19000,12.964,25.928,,360,,,0.2,,,,,,,0,og-post,,,,AAXX 16104 07070 24469 /3607 10073 20046 30165 40278 51011 700// 333 69925 90710 91114=
07070,2012-02-16 11:00:00,7.2,1028.2,0.7,80,4,20000,16.668,24.076,,330,,,0,,,,,,,0,og-post,,,,AAXX 16114 07070 24470 83309 10072 20040 30169 40282 53007 700// 333 60005 90710 91113=
07070,2012-02-16 12:00:00,7.9,1028.1,0.7,75,3.7,20000,16.668,25.928,,330,,,0,0.2,0.2,,,,,0,og-post,,,,AAXX 16124 07070 04470 73309 10079 20037 30168 40281 50007 69921 700// 333 69927 90710 91114 555 60005=
07070,2012-02-16 13:00:00,7.9,1027.7,-0.1,78,4.3,17000,12.964,27.78,,320,,,0,,,,,,,0,og-post,,,,AAXX 16134 07070 24567 83207 10079 20043 30164 40277 58001 700// 333 60005 90710 91115=
07070,2012-02-16 14:00:00,8.1,1027.3,-0.8,77,4.3,19000,12.964,20.372,,310,,,0,,,,,,,0,og-post,,,,AAXX 16144 07070 24469 83107 10081 20043 30161 40273 58008 700// 333 60005 90710 91111=
07070,2012-02-16 15:00:00,7.7,1027.2,-0.9,79,4.3,19000,11.112,18.52,,300,,,0,0,,,,,,0,og-post,,,,AAXX 16154 07070 24469 83006 10077 20043 30159 40272 56009 700// 333 60007 90710 91110 555 60005=
07070,2012-02-16 16:00:00,6.9,1027.4,-0.3,82,4,18000,9.26,16.668,,290,,,0,,,,,,,0,og-post,,,,AAXX 16164 07070 24568 82905 10069 20040 30161 40274 55003 700// 333 60005 90710 91109=
07070,2012-02-16 17:00:00,6.2,1027.6,0.2,85,3.9,11000,7.408,14.816,,260,,,,,,,,,,0,og-post,,,,AAXX 16174 07070 24561 82604 10062 20039 30163 40276 53002 700// 333 69905 90710 91108=
07070,2012-02-16 18:00:00,5.7,1027.9,0.7,87,3.7,10000,7.408,14.816,,270,4.9,8.9,,,,0.2,,,,0,og-post,,,,AAXX 16184 07070 04660 82704 10057 20037 30166 40279 53007 69922 700// 333 10089 20049 69907 90710 91108 555 69905=
07070,2012-02-16 19:00:00,5.2,1027.7,0.2,87,3.2,8000,7.408,9.26,,240,,,0,,,,,,,0,og-post,,,,AAXX 16194 07070 24658 82404 10052 20032 30163 40277 50002 700// 333 60005 90710 91105=
07070,2012-02-16 20:00:00,5.1,1028,0.3,89,3.4,7000,7.408,11.112,,230,,,0,,,,,,,0,og-post,,,,AAXX 16204 07070 24657 82304 10051 20034 30166 40280 52003 700// 333 60005 90710 91106=
07070,2012-02-16 21:00:00,4.5,1027.9,-0.1,89,2.8,5000,7.408,9.26,,220,,,0,0,,,,,,0,og-post,,,,AAXX 16214 07070 24650 82204 10045 20028 30165 40279 56001 700// 333 60007 90710 91105 555 60005=
07070,2012-02-16 22:00:00,4.7,1028,0.3,90,3.2,6000,9.26,14.816,,250,,,0,,,,,,,0,og-post,,,,AAXX 16224 07070 24556 82505 10047 20032 30166 40280 51003 700// 333 60005 90710 91108=
07070,2012-02-16 23:00:00,4.8,1028,-0,90,3.3,6000,11.112,14.816,,260,,,0,,,,,,,0,og-post,,,,AAXX 16234 07070 24656 82606 10048 20033 30166 40280 55000 700// 333 60005 90710 91108=
07070,2012-02-17 00:00:00,4.6,1027.9,0,90,3.1,6000,9.26,12.964,,260,,,0,0,,,,,,0,og-post,,,,AAXX 17004 07070 04656 82605 10046 20031 30165 40279 50000 60001 700// 333 60007 90710 91107 555 60005=
07070,2012-02-17 01:00:00,4.2,1027.6,-0.4,90,2.7,6000,9.26,16.668,,240,,,0,,,,,,,0,og-post,,,,AAXX 17014 07070 24656 82405 10042 20027 30162 40276 58004 700// 333 60005 90710 91109=
07070,2012-02-17 02:00:00,4.1,1027.6,-0.4,90,2.6,8000,9.26,14.816,,260,,,0,,,,,,,0,og-post,,,,AAXX 17024 07070 24658 82605 10041 20026 30162 40276 56004 700// 333 60005 90710 91108=
07070,2012-02-17 03:00:00,4.2,1027.2,-0.7,89,2.5,10000,11.112,18.52,,250,,,0,0,,,,,,0,og-post,,,,AAXX 17034 07070 24660 82506 10042 20025 30158 40272 58007 700// 333 60007 90710 91110 555 60005=
07070,2012-02-17 04:00:00,4.5,1026.9,-0.7,86,2.4,16000,11.112,18.52,,260,,,0,,,,,,,0,og-post,,,,AAXX 17044 07070 24666 82606 10045 20024 30155 40269 58007 700// 333 60005 90710 91110=
07070,2012-02-17 05:00:00,3.6,1026.7,-0.9,88,1.8,14000,9.26,14.816,,240,,,0,,,,,,,0,og-post,,,,AAXX 17054 07070 24664 82405 10036 20018 30153 40267 56009 700// 333 60005 90710 91108=
07070,2012-02-17 06:00:00,3.2,1026.5,-0.7,89,1.6,13000,9.26,16.668,,240,3,5.9,0,0,,,0.2,1.1,2,0,og-post,,,,AAXX 17064 07070 04663 62405 10032 20016 30151 40265 56007 60002 700// 333 10059 20030 30002 55011 60007 70002 90710 91109 555 60005=
07070,2012-02-17 07:00:00,3.9,1026.6,-0.3,87,1.9,11000,11.112,16.668,,240,,,0,,,,,,,0,og-post,,,,AAXX 17074 07070 24661 82406 10039 20019 30152 40266 55003 700// 333 60005 90710 91109=
07070,2012-02-17 08:00:00,4.6,1027.3,0.6,85,2.3,12000,14.816,22.224,,250,,,0,,,,,,,0,og-post,,,,AAXX 17084 07070 24662 82508 10046 20023 30159 40273 53006 700// 333 60005 90710 91112=
07070,2012-02-17 09:00:00,5.2,1027.4,0.9,85,2.9,13000,12.964,18.52,,250,,,0,0,,,,,,0,og-post,,,,AAXX 17094 07070 24463 82507 10052 20029 30160 40274 52009 700// 333 60007 90710 91110 555 60005=
07070,2012-02-17 10:00:00,6.3,1027.1,0.6,85,4,11000,14.816,22.224,,250,,,0,,,,,,,0,og-post,,,,AAXX 17104 07070 24461 82508 10063 20040 30158 40271 50006 700// 333 60005 90710 91112=
07070,2012-02-17 11:00:00,6.9,1027.4,0.2,85,4.6,10000,16.668,22.224,,250,,,0,,,,,,,0,og-post,,,,AAXX 17114 07070 24460 82509 10069 20046 30161 40274 53002 700// 333 60005 90710 91112=
07070,2012-02-17 12:00:00,7.1,1026.7,-0.6,92,5.9,5000,16.668,24.076,,240,,,,,,,,,,50,og-post,,,,AAXX 17124 07070 04250 82409 10071 20059 30154 40267 58006 69901 750// 333 69907 90710 91113 555 69905=
07070,2012-02-17 13:00:00,7.1,1026.2,-0.9,93,6,3200,14.816,24.076,,250,,,0.4,,,,,,,10,og-post,,,,AAXX 17134 07070 24232 82508 10071 20060 30149 40262 58009 710// 333 69945 90710 91113=
07070,2012-02-17 14:00:00,6.9,1025.9,-1.5,94,6,5000,16.668,29.632,,250,,,,,,,,,,0,og-post,,,,AAXX 17144 07070 24250 82509 10069 20060 30146 40259 56015 700// 333 69905 90710 91116=
07070,2012-02-17 15:00:00,7.4,1025.5,-1.1,92,6.2,10000,16.668,25.928,,250,,,0,0.4,,,,,,0,og-post,,,,AAXX 17154 07070 24360 82509 10074 20062 30143 40255 56011 700// 333 69947 90710 91114 555 60005=
07070,2012-02-17 16:00:00,7.4,1025.3,-0.8,91,6,12000,11.112,22.224,,250,,,0,,,,,,,0,og-post,,,,AAXX 17164 07070 24362 82506 10074 20060 30141 40253 56008 700// 333 60005 90710 91112=
07070,2012-02-17 17:00:00,7,1025.5,-0.4,91,5.6,9000,7.408,16.668,,240,,,0,,,,,,,0,og-post,,,,AAXX 17174 07070 24359 82404 10070 20056 30142 40255 55004 700// 333 60005 90710 91109=
07070,2012-02-17 18:00:00,6.8,1025.4,-0.2,93,5.7,4000,9.26,16.668,,250,3.2,7.5,,,,0.4,,,,51,og-post,,,,AAXX 17184 07070 04340 82505 10068 20057 30141 40254 56002 69942 751// 333 10075 20032 69907 90710 91109 555 69905=
07070,2012-02-17 19:00:00,6.5,1025.1,-0.3,94,5.6,3800,7.408,14.816,,230,,,0.2,,,,,,,10,og-post,,,,AAXX 17194 07070 24238 82304 10065 20056 30138 40251 58003 710// 333 69925 90710 91108=
07070,2012-02-17 20:00:00,6.3,1024.8,-0.7,95,5.6,1800,7.408,11.112,,240,,,0,,,,,,,10,og-post,,,,AAXX 17204 07070 24218 82404 10063 20056 30135 40248 58007 710// 333 60005 90710 91106=
07070,2012-02-17 21:00:00,6.3,1024.3,-1.1,95,5.6,2400,7.408,12.964,,240,,,0,0.2,,,,,,10,og-post,,,,AAXX 17214 07070 24224 82404 10063 20056 30130 40243 58011 710// 333 69927 90710 91107 555 60005=
07070,2012-02-17 22:00:00,6.3,1024,-1.1,96,5.7,2900,9.26,14.816,,230,,,0,,,,,,,10,og-post,,,,AAXX 17224 07070 24229 82305 10063 20057 30127 40240 57011 710// 333 60005 90710 91108=
07070,2012-02-17 23:00:00,6.2,1023.8,-1,96,5.6,2600,12.964,18.52,,240,,,0,,,,,,,10,og-post,,,,AAXX 17234 07070 24226 82407 10062 20056 30125 40238 56010 710// 333 60005 90710 91110=
07070,2012-02-18 00:00:00,6.2,1023.4,-0.9,96,5.6,2900,11.112,18.52,,230,,,0,0,0.2,,,,,10,og-post,,,,AAXX 18004 07070 04229 82306 10062 20056 30121 40234 58009 69921 710// 333 60007 90710 91110 555 60005=
07070,2012-02-18 01:00:00,6.1,1023,-1,96,5.5,2200,11.112,18.52,,230,,,0,,,,,,,10,og-post,,,,AAXX 18014 07070 24222 82306 10061 20055 30117 40230 58010 710// 333 60005 90710 91110=
07070,2012-02-18 02:00:00,6,1022.6,-1.2,96,5.4,2000,9.26,16.668,,220,,,,,,,,,,10,og-post,,,,AAXX 18024 07070 24220 82205 10060 20054 30113 40226 57012 710// 333 69905 90710 91109=
07070,2012-02-18 03:00:00,6.1,1021.8,-1.6,96,5.5,2700,9.26,16.668,,230,,,0.6,0.6,,,,,,61,og-post,,,,AAXX 18034 07070 24227 82305 10061 20055 30105 40218 58016 761// 333 69967 90710 91109 555 69965=
07070,2012-02-18 04:00:00,6,1021.2,-1.8,96,5.4,4700,11.112,14.816,,240,,,0.4,,,,,,,10,og-post,,,,AAXX 18044 07070 24247 82406 10060 20054 30099 40212 58018 710// 333 69945 90710 91108=
07070,2012-02-18 05:00:00,6.1,1020.9,-1.6,96,5.5,5000,14.816,20.372,,230,,,0,,,,,,,10,og-post,,,,AAXX 18054 07070 24250 82308 10061 20055 30097 40209 56016 710// 333 60005 90710 91111=
07070,2012-02-18 06:00:00,6.1,1020.5,-1.2,96,5.5,6000,9.26,18.52,,240,5.9,6.8,0,0.4,,1,1.6,0,6,0,og-post,,,,AAXX 18064 07070 04256 82405 10061 20055 30093 40205 56012 60012 700// 333 10068 20059 31006 55000 69947 70016 90710 91110 555 60005=
07070,2012-02-18 07:00:00,6.2,1020.5,-0.6,96,5.6,5000,7.408,14.816,,230,,,0,,,,,,,0,og-post,,,,AAXX 18074 07070 24250 82304 10062 20056 30093 40205 56006 700// 333 60005 90710 91108=
07070,2012-02-18 08:00:00,6.4,1020.8,-0.1,96,5.8,2900,12.964,18.52,,240,,,0,,,,,,,10,og-post,,,,AAXX 18084 07070 24129 82407 10064 20058 30096 40208 55001 710// 333 60005 90710 91110=
07070,2012-02-18 09:00:00,6.6,1020.5,0,96,6,2700,12.964,20.372,,230,,,0,0,,,,,,10,og-post,,,,AAXX 18094 07070 24127 82307 10066 20060 30093 40205 50000 710// 333 60007 90710 91111 555 60005=
07070,2012-02-18 10:00:00,7.6,1020,-0.5,96,7,7000,14.816,20.372,,230,,,0,,,,,,,0,og-post,,,,AAXX 18104 07070 24257 82308 10076 20070 30088 40200 58005 700// 333 60005 90710 91111=
07070,2012-02-18 11:00:00,8.5,1019.8,-0.9,91,7.1,10000,14.816,24.076,,250,,,0,,,,,,,0,og-post,,,,AAXX 18114 07070 24360 82508 10085 20071 30087 40198 56009 700// 333 60005 90710 91113=
07070,2012-02-18 12:00:00,8.9,1019,-1.4,88,7,14000,16.668,24.076,,230,,,0,0,,,,,,0,og-post,,,,AAXX 18124 07070 04464 82309 10089 20070 30079 40190 58014 60001 700// 333 60007 90710 91113 555 60005=
07070,2012-02-18 13:00:00,9.1,1018.1,-1.8,85,6.7,18000,16.668,27.78,,220,,,0,,,,,,,0,og-post,,,,AAXX 18134 07070 24468 82209 10091 20067 30070 40181 58018 700// 333 60005 90710 91115=
07070,2012-02-18 14:00:00,8.6,1017.3,-2.5,87,6.6,19000,14.816,31.484,,210,,,0,,,,,,,0,og-post,,,,AAXX 18144 07070 24469 82108 10086 20066 30062 40173 57025 700// 333 60005 90710 91117=
07070,2012-02-18 15:00:00,8.8,1016.5,-2.5,84,6.2,20000,16.668,29.632,,220,,,0,0,,,,,,0,og-post,,,,AAXX 18154 07070 24470 82209 10088 20062 30054 40165 56025 700// 333 60007 90710 91116 555 60005=
07070,2012-02-18 16:00:00,8.1,1016.1,-2,87,6.1,11000,20.372,35.188,,230,,,0,,,,,,,0,og-post,,,,AAXX 18164 07070 24461 82311 10081 20061 30050 40161 56020 700// 333 60005 90710 91119=
07070,2012-02-18 17:00:00,7.4,1015.7,-1.6,93,6.3,3800,16.668,31.484,,220,,,,,,,,,,51,og-post,,,,AAXX 18174 07070 24338 82209 10074 20063 30046 40157 56016 751// 333 69905 90710 91117=
07070,2012-02-18 18:00:00,7.3,1015.2,-1.3,92,6.1,12000,14.816,24.076,,220,6.1,9.5,0.2,0.2,,0.2,,,,0,og-post,,,,AAXX 18184 07070 04462 82208 10073 20061 30041 40152 58013 69922 700// 333 10095 20061 69927 90710 91113 555 69925=
07070,2012-02-18 19:00:00,7.6,1014.6,-1.5,90,6.1,12000,18.52,35.188,,220,,,0,,,,,,,0,og-post,,,,AAXX 18194 07070 24462 82210 10076 20061 30035 40146 58015 700// 333 60005 90710 91119=
07070,2012-02-18 20:00:00,8,1014.1,-1.6,89,6.3,15000,24.076,40.744,,220,,,0,,,,,,,0,og-post,,,,AAXX 18204 07070 24465 82213 10080 20063 30030 40141 57016 700// 333 60005 90710 91122=
07070,2012-02-18 21:00:00,7.4,1013.8,-1.4,92,6.2,5000,18.52,37.04,,230,,,0.2,0.2,,,,,,61,og-post,,,,AAXX 18214 07070 24450 82310 10074 20062 30027 40138 56014 761// 333 69927 90710 91120 555 69925=
07070,2012-02-18 22:00:00,7.6,1013.2,-1.4,92,6.4,11000,18.52,33.336,,240,,,0.6,,,,,,,60,og-post,,,,AAXX 18224 07070 24461 82410 10076 20064 30021 40132 58014 760// 333 69965 90710 91118=
07070,2012-02-18 23:00:00,7.6,1013.2,-0.9,89,5.9,17000,22.224,33.336,,250,,,0.2,,,,,,,0,og-post,,,,AAXX 18234 07070 24467 82512 10076 20059 30021 40132 56009 700// 333 69925 90710 91118=
07070,2012-02-19 00:00:00,7.1,1012.8,-1,91,5.7,9000,20.372,35.188,,250,,,1,2,2,,,,,63,og-post,,,,AAXX 19004 07070 04459 82511 10071 20057 30017 40128 56010 60021 763// 333 60027 90710 91119 555 60015=
07070,2012-02-19 01:00:00,4.2,1014.5,1.1,88,2.4,16000,27.78,59.264,,330,,,1,,,,,,,61,og-post,,,,AAXX 19014 07070 24466 83315 10042 20024 30032 40145 53011 761// 333 60015 90710 91132=
07070,2012-02-19 02:00:00,3.6,1015.3,1.9,89,2,20000,7.408,29.632,,310,,,0.2,,,,,,,0,og-post,,,,AAXX 19024 07070 24570 83104 10036 20020 30040 40153 53019 700// 333 69925 90710 91116=
07070,2012-02-19 03:00:00,2.4,1015.7,2.7,90,0.9,20000,11.112,14.816,,290,,,0,1,,,,,,0,og-post,,,,AAXX 19034 07070 24970 /2906 10024 20009 30044 40157 51027 700// 333 60017 90710 91108 555 60005=
07070,2012-02-19 04:00:00,1.9,1016.7,2.1,92,0.7,20000,12.964,18.52,,300,,,0,,,,,,,0,og-post,,,,AAXX 19044 07070 24570 /3007 10019 20007 30053 40167 53021 700// 333 60005 90710 91110=
07070,2012-02-19 05:00:00,1.6,1017.7,2.3,91,0.3,20000,14.816,22.224,,310,,,0,,,,,,,0,og-post,,,,AAXX 19054 07070 24970 /3108 10016 20003 30063 40177 53023 700// 333 60005 90710 91112=
07070,2012-02-19 06:00:00,0.8,1018.8,2.9,89,-0.8,20000,11.112,18.52,,300,0.8,8,0,0,,3,3.6,0,-0,0,og-post,,,,AAXX 19064 07070 04970 /3006 10008 21008 30073 40188 53029 60032 700// 333 10080 20008 35100 55000 60007 70036 90710 91110 555 60005=
07070,2012-02-19 07:00:00,0.6,1019.9,3.1,89,-1,20000,14.816,18.52,,290,,,0,,,,,,,0,og-post,,,,AAXX 19074 07070 24970 /2908 10006 21010 30084 40199 53031 700// 333 60005 90710 91110=
07070,2012-02-19 08:00:00,1.5,1021.1,3.4,86,-0.6,20000,12.964,20.372,,290,,,0,,,,,,,0,og-post,,,,AAXX 19084 07070 24570 72907 10015 21006 30097 40211 53034 700// 333 60005 90710 91111=
07070,2012-02-19 09:00:00,3,1021.9,3.2,81,0.1,20000,18.52,25.928,,300,,,0,0,,,,,,0,og-post,,,,AAXX 19094 07070 24970 /3010 10030 20001 30105 40219 51032 700// 333 60007 90710 91114 555 60005=
07070,2012-02-19 10:00:00,3.9,1023,3.2,78,0.4,19000,16.668,27.78,,310,,,0,,,,,,,0,og-post,,,,AAXX 19104 07070 24569 83109 10039 20004 30116 40230 51032 700// 333 60005 90710 91115=
07070,2012-02-19 11:00:00,4,1023.8,2.7,72,-0.6,20000,20.372,31.484,,330,,,0,,,,,,,0,og-post,,,,AAXX 19114 07070 24570 83311 10040 21006 30124 40238 52027 700// 333 60005 90710 91117=
07070,2012-02-19 12:00:00,4.8,1024.1,2.3,64,-1.4,20000,18.52,37.04,,320,,,0,0,,,,,,0,og-post,,,,AAXX 19124 07070 04570 63210 10048 21014 30128 40241 51023 60001 700// 333 60007 90710 91120 555 60005=
07070,2012-02-19 13:00:00,4.7,1024.5,1.5,63,-1.8,20000,18.52,33.336,,340,,,0,,,,,,,0,og-post,,,,AAXX 19134 07070 24570 /3410 10047 21018 30131 40245 51015 700// 333 60005 90710 91118=
07070,2012-02-19 14:00:00,6.2,1024.6,0.9,55,-2.2,20000,20.372,31.484,,320,,,0,,,,,,,0,og-post,,,,AAXX 19144 07070 24670 /3211 10062 21022 30133 40246 51009 700// 333 60005 90710 91117=
07070,2012-02-19 15:00:00,5.3,1025.1,1,55,-3,20000,18.52,31.484,,330,,,0,0,,,,,,0,og-post,,,,AAXX 19154 07070 24970 /3310 10053 21030 30138 40251 53010 700// 333 60007 90710 91117 555 60005=
07070,2012-02-19 16:00:00,4.8,1026,1.5,55,-3.5,20000,24.076,35.188,,330,,,0,,,,,,,0,og-post,,,,AAXX 19164 07070 24970 /3313 10048 21035 30146 40260 53015 700// 333 60005 90710 91119=
07070,2012-02-19 17:00:00,2.9,1027.1,2.3,62,-3.7,20000,16.668,31.484,,330,,,0,,,,,,,0,og-post,,,,AAXX 19174 07070 24970 /3309 10029 21037 30156 40271 53023 700// 333 60005 90710 91117=
07070,2012-02-19 18:00:00,0.1,1028.4,3,78,-3.3,20000,9.26,22.224,,350,0.1,6.4,0,0,,,,,,0,og-post,,,,AAXX 19184 07070 04970 /3505 10001 21033 30168 40284 53030 60002 700// 333 10064 20001 60007 90710 91112 555 60005=
07070,2012-02-19 19:00:00,0,1029.4,3.2,76,-3.7,20000,12.964,22.224,,330,,,0,,,,,,,0,og-post,,,,AAXX 19194 07070 24970 /3307 10000 21037 30178 40294 52032 700// 333 60005 90710 91112=
07070,2012-02-19 20:00:00,-1.1,1030.3,3,81,-3.9,20000,11.112,20.372,,310,,,0,,,,,,,0,og-post,,,,AAXX 19204 07070 24970 /3106 11011 21039 30186 40303 51030 700// 333 60005 90710 91111=
07070,2012-02-19 21:00:00,-1.4,1031.3,2.8,83,-3.9,20000,9.26,16.668,,320,,,0,0,,,,,,0,og-post,,,,AAXX 19214 07070 24970 /3205 11014 21039 30196 40313 52028 700// 333 60007 90710 91109 555 60005=
07070,2012-02-19 22:00:00,-1.1,1032.1,2.6,82,-3.8,20000,5.556,9.26,,310,,,0,,,,,,,0,og-post,,,,AAXX 19224 07070 24970 /3103 11011 21038 30204 40321 52026 700// 333 60005 90710 91105=
07070,2012-02-19 23:00:00,-1.2,1032.6,2.3,83,-3.7,19000,5.556,7.408,,320,,,0,,,,,,,0,og-post,,,,AAXX 19234 07070 24969 /3203 11012 21037 30209 40326 51023 700// 333 60005 90710 91104=
07070,2012-02-20 00:00:00,-2.8,1033.1,1.7,86,-4.8,19000,3.704,7.408,,250,,,0,0,,,,,,0,og-post,,,,AAXX 20004 07070 04969 /2502 11028 21048 30213 40331 51017 60001 700// 333 60007 90710 91104 555 60005=
07070,2012-02-20 01:00:00,-3.5,1033.6,1.4,89,-5.1,20000,,7.408,,,,,0,,,,,,,0,og-post,,,,AAXX 20014 07070 24970 /0000 11035 21051 30218 40336 52014 700// 333 60005 90710 91104=
07070,2012-02-20 02:00:00,-3.4,1034,1.3,91,-4.7,19000,3.704,5.556,,310,,,0,,,,,,,0,og-post,,,,AAXX 20024 07070 24969 /3102 11034 21047 30222 40340 52013 700// 333 60005 90710 91103=
07070,2012-02-20 03:00:00,-4.1,1034.1,1,91,-5.4,15000,3.704,7.408,,190,,,0,0,,,,,,0,og-post,,,,AAXX 20034 07070 24965 /1902 11041 21054 30223 40341 51010 700// 333 60007 90710 91104 555 60005=
07070,2012-02-20 04:00:00,-4.5,1034.7,1,92,-5.6,15000,,5.556,,,,,0,,,,,,,0,og-post,,,,AAXX 20044 07070 24965 /0000 11045 21056 30228 40347 53010 700// 333 60005 90710 91103=
07070,2012-02-20 05:00:00,-4.9,1035,0.9,92,-6,16000,,3.704,,,,,0,,,,,,,0,og-post,,,,AAXX 20054 07070 24966 /0000 11049 21060 30231 40350 53009 700// 333 60005 90710 91102=
07070,2012-02-20 06:00:00,-5.2,1035.3,1.1,93,-6.2,15000,1.852,3.704,,190,-5.8,1.4,0,0,,,0,5.2,-9,0,og-post,,,,AAXX 20064 07070 04965 /1901 11052 21062 30234 40353 51011 60002 700// 333 10014 21058 30109 55052 60007 70000 90710 91102 555 60005=
07070,2012-02-20 07:00:00,-5.8,1035.6,0.9,93,-6.8,13000,,5.556,,,,,0,,,,,,,0,og-post,,,,AAXX 20074 07070 24963 /0000 11058 21068 30237 40356 52009 700// 333 60005 90710 91103=
07070,2012-02-20 08:00:00,-3.4,1036.2,1.3,92,-4.5,12000,,5.556,,,,,0,,,,,,,0,og-post,,,,AAXX 20084 07070 24962 /0000 11034 21045 30244 40362 53013 700// 333 60005 90710 91103=
07070,2012-02-20 09:00:00,1.2,1036.4,1.4,80,-1.9,14000,,3.704,,,,,0,0,,,,,,0,og-post,,,,AAXX 20094 07070 24964 /0000 10012 21019 30248 40364 53014 700// 333 60007 90710 91102 555 60005=
07070,2012-02-20 10:00:00,1.7,1036.7,1.4,77,-1.9,14000,5.556,7.408,,30,,,0,,,,,,,0,og-post,,,,AAXX 20104 07070 24964 /0303 10017 21019 30251 40367 51014 700// 333 60005 90710 91104=
07070,2012-02-20 11:00:00,3.5,1036.6,0.7,73,-0.9,16000,5.556,9.26,,30,,,0,,,,,,,0,og-post,,,,AAXX 20114 07070 24966 /0303 10035 21009 30251 40366 51007 700// 333 60005 90710 91105=
07070,2012-02-20 12:00:00,4.1,1036.4,0.1,66,-1.7,19000,5.556,18.52,,90,,,0,0,,,,,,0,og-post,,,,AAXX 20124 07070 04969 /0903 10041 21017 30249 40364 50001 60001 700// 333 60007 90710 91110 555 60005=
07070,2012-02-20 13:00:00,4.7,1035.7,-0.9,64,-1.5,19000,3.704,11.112,,110,,,0,,,,,,,0,og-post,,,,AAXX 20134 07070 24969 /1102 10047 21015 30242 40357 58009 700// 333 60005 90710 91106=
07070,2012-02-20 14:00:00,5.1,1035.5,-1.1,54,-3.5,20000,5.556,11.112,,10,,,0,,,,,,,0,og-post,,,,AAXX 20144 07070 24970 /0103 10051 21035 30240 40355 57011 700// 333 60005 90710 91106=
07070,2012-02-20 15:00:00,5.5,1034.9,-1.4,54,-3.1,20000,1.852,11.112,,110,,,0,0,,,,,,0,og-post,,,,AAXX 20154 07070 24970 /1101 10055 21031 30235 40349 56014 700// 333 60007 90710 91106 555 60005=
07070,2012-02-20 16:00:00,4.8,1034.8,-0.9,53,-4,20000,1.852,7.408,,70,,,0,,,,,,,0,og-post,,,,AAXX 20164 07070 24970 /0701 10048 21040 30233 40348 57009 700// 333 60005 90710 91104=
07070,2012-02-20 17:00:00,1,1034.9,-0.7,76,-2.8,20000,3.704,5.556,,110,,,0,,,,,,,0,og-post,,,,AAXX 20174 07070 24970 /1102 10010 21028 30233 40349 56007 700// 333 60005 90710 91103=
07070,2012-02-20 18:00:00,-0.7,1035.2,-0,83,-3.2,20000,5.556,7.408,,120,-6.1,5.8,0,0,,,,,,0,og-post,,,,AAXX 20184 07070 04970 /1203 11007 21032 30235 40352 55000 60002 700// 333 10058 21061 60007 90710 91104 555 60005=
07070,2012-02-20 19:00:00,-0.6,1035.1,0.1,88,-2.3,20000,5.556,7.408,,170,,,0,,,,,,,0,og-post,,,,AAXX 20194 07070 24970 /1703 11006 21023 30234 40351 50001 700// 333 60005 90710 91104=
07070,2012-02-20 20:00:00,-1.7,1035.1,0.1,87,-3.6,17000,1.852,7.408,,260,,,0,,,,,,,0,og-post,,,,AAXX 20204 07070 24967 /2601 11017 21036 30234 40351 51001 700// 333 60005 90710 91104=
07070,2012-02-20 21:00:00,-1.3,1035.2,-0,88,-3,9000,3.704,9.26,,200,,,0,0,,,,,,0,og-post,,,,AAXX 20214 07070 24959 /2002 11013 21030 30235 40352 55000 700// 333 60007 90710 91105 555 60005=
07070,2012-02-20 22:00:00,-2.4,1035.2,0,86,-4.4,11000,,5.556,,,,,0,,,,,,,0,og-post,,,,AAXX 20224 07070 24961 /0000 11024 21044 30234 40352 50000 700// 333 60005 90710 91103=
07070,2012-02-20 23:00:00,-3,1035.1,-0.1,88,-4.7,8000,1.852,5.556,,260,,,0,,,,,,,0,og-post,,,,AAXX 20234 07070 24958 /2601 11030 21047 30233 40351 58001 700// 333 60005 90710 91103=
07070,2012-02-21 00:00:00,-1.8,1034.7,-0.5,88,-3.5,15000,5.556,9.26,,220,,,0,0,,,,,,0,og-post,,,,AAXX 21004 07070 04965 /2203 11018 21035 30230 40347 58005 60001 700// 333 60007 90710 91105 555 60005=
07070,2012-02-21 01:00:00,-2.5,1034.5,-0.7,89,-4.1,13000,5.556,5.556,,220,,,0,,,,,,,0,og-post,,,,AAXX 21014 07070 24963 /2203 11025 21041 30227 40345 58007 700// 333 60005 90710 91103=
07070,2012-02-21 02:00:00,-2.6,1034.3,-0.8,89,-4.2,16000,3.704,9.26,,210,,,0,,,,,,,0,og-post,,,,AAXX 21024 07070 24966 /2102 11026 21042 30225 40343 56008 700// 333 60005 90710 91105=
07070,2012-02-21 03:00:00,-3.6,1033.7,-1.1,91,-4.9,10000,5.556,7.408,,190,,,0,0,,,,,,0,og-post,,,,AAXX 21034 07070 24960 /1903 11036 21049 30219 40337 58011 700// 333 60007 90710 91104 555 60005=
07070,2012-02-21 04:00:00,-4,1033.7,-0.8,91,-5.3,13000,5.556,9.26,,180,,,0,,,,,,,0,og-post,,,,AAXX 21044 07070 24963 /1803 11040 21053 30219 40337 56008 700// 333 60005 90710 91105=
07070,2012-02-21 05:00:00,-3.9,1033.6,-0.7,91,-5.2,13000,3.704,5.556,,190,,,0,,,,,,,0,og-post,,,,AAXX 21054 07070 24963 /1902 11039 21052 30218 40336 56007 700// 333 60005 90710 91103=
07070,2012-02-21 06:00:00,-4.5,1033.7,-0.1,91,-5.7,14000,1.852,9.26,,220,-4.6,-0.3,0,0,,,0,9.3,-8,0,og-post,,,,AAXX 21064 07070 04964 /2201 11045 21057 30218 40337 57001 60002 700// 333 11003 21046 34108 55093 60007 70000 90710 91105 555 60005=
07070,2012-02-21 07:00:00,-3.5,1034,0.3,91,-4.8,13000,3.704,9.26,,210,,,0,,,,,,,0,og-post,,,,AAXX 21074 07070 24963 /2102 11035 21048 30222 40340 53003 700// 333 60005 90710 91105=
07070,2012-02-21 08:00:00,-1,1034.2,0.7,88,-2.7,16000,9.26,11.112,,180,,,0,,,,,,,0,og-post,,,,AAXX 21084 07070 24966 /1805 11010 21027 30225 40342 53007 700// 333 60005 90710 91106=
07070,2012-02-21 09:00:00,2,1034.3,0.9,77,-1.6,18000,5.556,11.112,,190,,,0,0,,,,,,0,og-post,,,,AAXX 21094 07070 24968 /1903 10020 21016 30227 40343 51009 700// 333 60007 90710 91106 555 60005=
07070,2012-02-21 10:00:00,4.4,1034.3,0.6,63,-2,19000,7.408,14.816,,250,,,0,,,,,,,0,og-post,,,,AAXX 21104 07070 24669 /2504 10044 21020 30228 40343 51006 700// 333 60005 90710 91108=
07070,2012-02-21 11:00:00,4.6,1034.4,0.4,59,-2.7,20000,12.964,20.372,,250,,,0,,,,,,,0,og-post,,,,AAXX 21114 07070 24670 82507 10046 21027 30229 40344 51004 700// 333 60005 90710 91111=
07070,2012-02-21 12:00:00,5.5,1034,-0.1,58,-2.1,20000,11.112,18.52,,240,,,0,0,,,,,,0,og-post,,,,AAXX 21124 07070 04670 82406 10055 21021 30226 40340 58001 60001 700// 333 60007 90710 91110 555 60005=
07070,2012-02-21 13:00:00,6.1,1033.8,-0.4,57,-1.8,19000,9.26,18.52,,240,,,0,,,,,,,0,og-post,,,,AAXX 21134 07070 24669 82405 10061 21018 30224 40338 58004 700// 333 60005 90710 91110=
07070,2012-02-21 14:00:00,6.6,1033.5,-0.8,55,-1.8,19000,11.112,16.668,,240,,,0,,,,,,,0,og-post,,,,AAXX 21144 07070 24669 82406 10066 21018 30221 40335 57008 700// 333 60005 90710 91109=
07070,2012-02-21 15:00:00,6.5,1033.3,-0.7,55,-1.9,20000,7.408,12.964,,240,,,0,0,,,,,,0,og-post,,,,AAXX 21154 07070 24670 82404 10065 21019 30219 40333 57007 700// 333 60007 90710 91107 555 60005=
07070,2012-02-21 16:00:00,6.4,1033.2,-0.6,57,-1.5,20000,5.556,11.112,,240,,,0,,,,,,,0,og-post,,,,AAXX 21164 07070 24670 82403 10064 21015 30218 40332 56006 700// 333 60005 90710 91106=
07070,2012-02-21 17:00:00,5.3,1033.3,-0.2,63,-1.2,20000,3.704,7.408,,240,,,0,,,,,,,0,og-post,,,,AAXX 21174 07070 24670 82402 10053 21012 30219 40333 55002 700// 333 60005 90710 91104=
07070,2012-02-21 18:00:00,3.4,1033.9,0.5,76,-0.4,15000,7.408,9.26,,170,-4.5,6.6,0,0,,,,,,0,og-post,,,,AAXX 21184 07070 04665 81704 10034 21004 30224 40339 53005 60002 700// 333 10066 21045 60007 90710 91105 555 60005=
07070,2012-02-21 19:00:00,2.4,1034.2,0.8,83,-0.2,13000,7.408,9.26,,160,,,0,,,,,,,0,og-post,,,,AAXX 21194 07070 24663 81604 10024 21002 30226 40342 53008 700// 333 60005 90710 91105=
07070,2012-02-21 20:00:00,1.6,1034.1,0.6,84,-0.8,10000,7.408,12.964,,170,,,0,,,,,,,0,og-post,,,,AAXX 21204 07070 24660 81704 10016 21008 30225 40341 50006 700// 333 60005 90710 91107=
07070,2012-02-21 21:00:00,0.5,1034.3,0.3,87,-1.4,9000,9.26,12.964,,190,,,0,0,,,,,,0,og-post,,,,AAXX 21214 07070 24959 /1905 10005 21014 30227 40343 52003 700// 333 60007 90710 91107 555 60005=
07070,2012-02-21 22:00:00,0.6,1034.3,0.1,86,-1.5,10000,9.26,12.964,,190,,,0,,,,,,,0,og-post,,,,AAXX 21224 07070 24960 /1905 10006 21015 30227 40343 53001 700// 333 60005 90710 91107=
07070,2012-02-21 23:00:00,0.4,1034.3,0.2,86,-1.7,10000,7.408,11.112,,220,,,0,,,,,,,0,og-post,,,,AAXX 21234 07070 24960 /2204 10004 21017 30227 40343 51002 700// 333 60005 90710 91106=
07070,2012-02-22 00:00:00,-0.3,1034.3,-0.1,84,-2.7,7000,,7.408,,,,,0,0,,,,,,0,og-post,,,,AAXX 22004 07070 04957 /0000 11003 21027 30226 40343 58001 60001 700// 333 60007 90710 91104 555 60005=
07070,2012-02-22 01:00:00,-2.1,1034.2,-0.3,90,-3.5,5000,,3.704,,,,,0,,,,,,,0,og-post,,,,AAXX 22014 07070 24950 /0000 11021 21035 30224 40342 58003 700// 333 60005 90710 91102=
07070,2012-02-22 02:00:00,-1.9,1033.9,-0.5,92,-3,5000,,1.852,,,,,0,,,,,,,0,og-post,,,,AAXX 22024 07070 24950 /0000 11019 21030 30222 40339 57005 700// 333 60005 90710 91101=
07070,2012-02-22 03:00:00,-2.9,1033.7,-0.7,93,-3.9,4300,1.852,5.556,,210,,,0,0,,,,,,10,og-post,,,,AAXX 22034 07070 24943 /2101 11029 21039 30219 40337 58007 710// 333 60007 90710 91103 555 60005=
07070,2012-02-22 04:00:00,-3.1,1033.6,-0.6,94,-3.9,4400,,3.704,,,,,0,,,,,,,10,og-post,,,,AAXX 22044 07070 24944 /0000 11031 21039 30218 40336 56006 710// 333 60005 90710 91102=
07070,2012-02-22 05:00:00,-3.6,1033.5,-0.5,94,-4.4,2300,,1.852,,,,,0,,,,,,,10,og-post,,,,AAXX 22054 07070 24923 /0000 11036 21044 30217 40335 56005 710// 333 60005 90710 91101=
07070,2012-02-22 06:00:00,-3.5,1033.3,-0.4,95,-4.2,5000,3.704,5.556,,190,-4,3.4,0,0,,,0,2.8,-7,0,og-post,,,,AAXX 22064 07070 04950 /1902 11035 21042 30215 40333 58004 60002 700// 333 10034 21040 34107 55028 60007 70000 90710 91103 555 60005=
07070,2012-02-22 07:00:00,-3.9,1033.7,0.1,95,-4.6,4900,1.852,5.556,,200,,,0,,,,,,,10,og-post,,,,AAXX 22074 07070 24949 /2001 11039 21046 30219 40337 53001 710// 333 60005 90710 91103=
07070,2012-02-22 08:00:00,-0.8,1033.4,-0,94,-1.6,4600,,7.408,,,,,0,,,,,,,10,og-post,,,,AAXX 22084 07070 24946 /0000 11008 21016 30217 40334 54000 710// 333 60005 90710 91104=
07070,2012-02-22 09:00:00,2.3,1032.6,-0.4,83,-0.3,9000,3.704,14.816,,210,,,0,0,,,,,,0,og-post,,,,AAXX 22094 07070 24959 /2102 10023 21003 30211 40326 58004 700// 333 60007 90710 91108 555 60005=
07070,2012-02-22 10:00:00,4.9,1032.6,-0.7,70,-0.1,13000,3.704,7.408,,220,,,0,,,,,,,0,og-post,,,,AAXX 22104 07070 24963 /2202 10049 21001 30212 40326 55007 700// 333 60005 90710 91104=
07070,2012-02-22 11:00:00,7.1,1032.2,-0.8,61,0.1,19000,5.556,9.26,,160,,,0,,,,,,,0,og-post,,,,AAXX 22114 07070 24969 /1603 10071 20001 30209 40322 56008 700// 333 60005 90710 91105=
07070,2012-02-22 12:00:00,7.9,1031.6,-0.8,56,-0.3,19000,3.704,9.26,,140,,,0,0,,,,,,0,og-post,,,,AAXX 22124 07070 04969 /1402 10079 21003 30203 40316 58008 60001 700// 333 60007 90710 91105 555 60005=
07070,2012-02-22 13:00:00,8.8,1030.9,-1.6,52,-0.5,20000,11.112,18.52,,290,,,0,,,,,,,0,og-post,,,,AAXX 22134 07070 24970 /2906 10088 21005 30196 40309 58016 700// 333 60005 90710 91110=
07070,2012-02-22 14:00:00,9.6,1029.9,-2.2,53,0.5,19000,12.964,20.372,,260,,,0,,,,,,,0,og-post,,,,AAXX 22144 07070 24969 /2607 10096 20005 30187 40299 58022 700// 333 60005 90710 91111=
07070,2012-02-22 15:00:00,9,1028.9,-2.6,53,-0.1,20000,14.816,24.076,,240,,,0,0,,,,,,0,og-post,,,,AAXX 22154 07070 24970 /2408 10090 21001 30177 40289 58026 700// 333 60007 90710 91113 555 60005=
07070,2012-02-22 16:00:00,8.5,1028.3,-2.5,56,0.2,20000,11.112,18.52,,260,,,0,,,,,,,0,og-post,,,,AAXX 22164 07070 24970 /2606 10085 20002 30171 40283 56025 700// 333 60005 90710 91110=
07070,2012-02-22 17:00:00,6.7,1028.2,-1.8,61,-0.3,20000,11.112,16.668,,230,,,0,,,,,,,0,og-post,,,,AAXX 22174 07070 24970 /2306 10067 21003 30169 40282 56018 700// 333 60005 90710 91109=
07070,2012-02-22 18:00:00,5.5,1028.3,-0.8,68,0.1,17000,9.26,18.52,,220,-4.5,10,0,0,,,,,,0,og-post,,,,AAXX 22184 07070 04967 72205 10055 20001 30169 40283 56008 60002 700// 333 10100 21045 60007 90710 91110 555 60005=
07070,2012-02-22 19:00:00,4.5,1028,-0.5,70,-0.5,17000,7.408,16.668,,220,,,0,,,,,,,0,og-post,,,,AAXX 22194 07070 24967 /2204 10045 21005 30166 40280 57005 700// 333 60005 90710 91109=
07070,2012-02-22 20:00:00,3.9,1027.3,-1,75,-0.1,14000,9.26,14.816,,200,,,0,,,,,,,0,og-post,,,,AAXX 22204 07070 24964 82005 10039 21001 30159 40273 58010 700// 333 60005 90710 91108=
07070,2012-02-22 21:00:00,5.1,1027.5,-0.8,66,-0.7,15000,9.26,16.668,,240,,,0,0,,,,,,0,og-post,,,,AAXX 22214 07070 24965 82405 10051 21007 30161 40275 55008 700// 333 60007 90710 91109 555 60005=
07070,2012-02-22 22:00:00,5,1027.1,-0.9,67,-0.6,16000,7.408,14.816,,220,,,0,,,,,,,0,og-post,,,,AAXX 22224 07070 24966 62204 10050 21006 30157 40271 56009 700// 333 60005 90710 91108=
07070,2012-02-22 23:00:00,5.4,1026.6,-0.6,66,-0.4,18000,9.26,16.668,,230,,,0,,,,,,,0,og-post,,,,AAXX 22234 07070 24968 82305 10054 21004 30153 40266 58006 700// 333 60005 90710 91109=
07070,2012-02-23 00:00:00,5.9,1026,-1.4,63,-0.6,17000,16.668,27.78,,220,,,,,,,,,,0,og-post,,,,AAXX 23004 07070 04467 82209 10059 21006 30147 40260 58014 69901 700// 333 69907 90710 91115 555 69905=
07070,2012-02-23 01:00:00,5.5,1025.7,-1.3,69,0.3,16000,14.816,25.928,,230,,,,,,,,,,0,og-post,,,,AAXX 23014 07070 24466 82308 10055 20003 30144 40257 56013 700// 333 69905 90710 91114=
07070,2012-02-23 02:00:00,5.7,1025.3,-1.3,69,0.5,16000,14.816,25.928,,240,,,0,,,,,,,0,og-post,,,,AAXX 23024 07070 24466 82408 10057 20005 30140 40253 56013 700// 333 60005 90710 91114=
07070,2012-02-23 03:00:00,4.8,1024.9,-1.1,84,2.3,10000,18.52,27.78,,240,,,0.2,0.2,,,,,,61,og-post,,,,AAXX 23034 07070 24460 82410 10048 20023 30136 40249 57011 761// 333 69927 90710 91115 555 69925=
07070,2012-02-23 04:00:00,4.2,1025,-0.8,93,3.2,2300,12.964,24.076,,230,,,0.8,,,,,,,52,og-post,,,,AAXX 23044 07070 24223 82307 10042 20032 30136 40250 56008 752// 333 69985 90710 91113=
07070,2012-02-23 05:00:00,4.4,1025,-0.4,94,3.5,2200,14.816,22.224,,240,,,,,,,,,,10,og-post,,,,AAXX 23054 07070 24222 82408 10044 20035 30136 40250 56004 710// 333 69905 90710 91112=
07070,2012-02-23 06:00:00,4.6,1025.3,0.3,94,3.7,2100,11.112,24.076,,230,3.2,6,,0.8,,1,1,8.7,1,10,og-post,,,,AAXX 23064 07070 04221 82306 10046 20037 30139 40253 53003 60012 710// 333 10060 20032 31001 55087 69987 70010 90710 91113 555 69905=
07070,2012-02-23 07:00:00,4.8,1025.8,0.8,95,4.1,3300,9.26,20.372,,240,,,0,,,,,,,10,og-post,,,,AAXX 23074 07070 24233 82405 10048 20041 30144 40258 53008 710// 333 60005 90710 91111=
07070,2012-02-23 08:00:00,5.2,1026.3,1.4,94,4.3,2300,12.964,20.372,,240,,,0,,,,,,,10,og-post,,,,AAXX 23084 07070 24223 82407 10052 20043 30150 40263 53014 710// 333 60005 90710 91111=
07070,2012-02-23 09:00:00,5.7,1026.5,1.3,95,5,3200,9.26,16.668,,240,,,,,,,,,,10,og-post,,,,AAXX 23094 07070 24232 82405 10057 20050 30152 40265 51013 710// 333 69907 90710 91109 555 69905=
07070,2012-02-23 10:00:00,6.6,1026.9,1.2,94,5.7,4300,11.112,16.668,,240,,,0,,,,,,,10,og-post,,,,AAXX 23104 07070 24243 82406 10066 20057 30156 40269 51012 710// 333 60005 90710 91109=
07070,2012-02-23 11:00:00,7.7,1027.2,1,93,6.6,5000,12.964,18.52,,240,,,0,,,,,,,0,og-post,,,,AAXX 23114 07070 24250 82407 10077 20066 30160 40272 53010 700// 333 60005 90710 91110=
07070,2012-02-23 12:00:00,8.4,1027.4,1,92,7.2,5000,11.112,16.668,,250,,,0,0,,,,,,0,og-post,,,,AAXX 23124 07070 04250 82506 10084 20072 30162 40274 51010 69901 700// 333 60007 90710 91109 555 60005=
07070,2012-02-23 13:00:00,9.7,1026.9,0.1,89,8,7000,12.964,18.52,,260,,,0,,,,,,,0,og-post,,,,AAXX 23134 07070 24357 82607 10097 20080 30157 40269 50001 700// 333 60005 90710 91110=
07070,2012-02-23 14:00:00,10.2,1026.7,-0.4,89,8.5,8000,12.964,18.52,,260,,,0.2,,,,,,,0,og-post,,,,AAXX 23144 07070 24358 82607 10102 20085 30156 40267 58004 700// 333 69925 90710 91110=
07070,2012-02-23 15:00:00,10.2,1027.1,-0.2,90,8.6,6000,11.112,18.52,,260,,,0,0.2,,,,,,0,og-post,,,,AAXX 23154 07070 24356 82606 10102 20086 30160 40271 55002 700// 333 69927 90710 91110 555 60005=
07070,2012-02-23 16:00:00,10.1,1027.3,0.5,92,8.9,3200,7.408,14.816,,230,,,0,,,,,,,10,og-post,,,,AAXX 23164 07070 24332 82304 10101 20089 30162 40273 53005 710// 333 60005 90710 91108=
07070,2012-02-23 17:00:00,9.7,1027.5,0.7,93,8.6,3400,9.26,14.816,,220,,,0,,,,,,,10,og-post,,,,AAXX 23174 07070 24334 82205 10097 20086 30163 40275 51007 710// 333 60005 90710 91108=
07070,2012-02-23 18:00:00,9.7,1028.1,0.9,94,8.8,2300,9.26,14.816,,220,4.6,10.3,0,0,,0.2,,,,10,og-post,,,,AAXX 23184 07070 04223 82205 10097 20088 30169 40281 53009 69922 710// 333 10103 20046 60007 90710 91108 555 60005=
07070,2012-02-23 19:00:00,9.8,1028.4,1,95,9,2200,9.26,18.52,,230,,,0,,,,,,,10,og-post,,,,AAXX 23194 07070 24322 82305 10098 20090 30172 40284 53010 710// 333 60005 90710 91110=
07070,2012-02-23 20:00:00,9.7,1028.7,1.2,96,9.1,1600,9.26,14.816,,230,,,0,,,,,,,10,og-post,,,,AAXX 23204 07070 24216 82305 10097 20091 30175 40287 51012 710// 333 60005 90710 91108=
07070,2012-02-23 21:00:00,9.3,1028.8,0.7,96,8.7,1000,9.26,12.964,,220,,,0,0,,,,,,10,og-post,,,,AAXX 23214 07070 24210 82205 10093 20087 30176 40288 51007 710// 333 60007 90710 91107 555 60005=
07070,2012-02-23 22:00:00,9.1,1029,0.6,96,8.5,500,5.556,12.964,,210,,,,,,,,,,45,og-post,,,,AAXX 23224 07070 24205 82103 10091 20085 30178 40290 51006 745// 333 69905 90710 91107=
07070,2012-02-23 23:00:00,9.4,1029.1,0.4,96,8.8,1500,5.556,9.26,,230,,,0,,,,,,,10,og-post,,,,AAXX 23234 07070 24115 82303 10094 20088 30179 40291 52004 710// 333 60005 90710 91105=
07070,2012-02-24 00:00:00,9.6,1029.4,0.6,96,9,3700,12.964,20.372,,260,,,0.2,0.2,0.2,,,,,10,og-post,,,,AAXX 24004 07070 04237 82607 10096 20090 30182 40294 53006 69921 710// 333 69927 90710 91111 555 69925=
07070,2012-02-24 01:00:00,9.5,1029.6,0.6,96,8.9,3000,14.816,20.372,,270,,,,,,,,,,10,og-post,,,,AAXX 24014 07070 24230 82708 10095 20089 30184 40296 53006 710// 333 69905 90710 91111=
07070,2012-02-24 02:00:00,9.4,1029.2,0.1,96,8.8,2600,7.408,20.372,,250,,,,,,,,,,10,og-post,,,,AAXX 24024 07070 24226 82504 10094 20088 30180 40292 50001 710// 333 69905 90710 91111=
07070,2012-02-24 03:00:00,9.1,1029,-0.4,96,8.5,3400,9.26,18.52,,290,,,,,,,,,,10,og-post,,,,AAXX 24034 07070 24234 82905 10091 20085 30178 40290 58004 710// 333 69907 90710 91110 555 69905=
07070,2012-02-24 04:00:00,9,1028.7,-0.9,96,8.4,1400,7.408,12.964,,240,,,0,,,,,,,10,og-post,,,,AAXX 24044 07070 24214 82404 10090 20084 30175 40287 56009 710// 333 60005 90710 91107=
07070,2012-02-24 05:00:00,9,1028.6,-0.6,96,8.4,1400,9.26,12.964,,240,,,0.2,,,,,,,10,og-post,,,,AAXX 24054 07070 24114 82405 10090 20084 30174 40286 56006 710// 333 69925 90710 91107=
07070,2012-02-24 06:00:00,9,1028.6,-0.4,97,8.5,1700,9.26,14.816,,240,8.9,9.8,0,0.2,,0.4,0.6,0,9,10,og-post,,,,AAXX 24064 07070 04117 82405 10090 20085 30174 40286 56004 69942 710// 333 10098 20089 31009 55000 69927 70006 90710 91108 555 60005=
07070,2012-02-24 07:00:00,9,1029.3,0.6,97,8.5,1600,7.408,14.816,,260,,,,,,,,,,58,og-post,,,,AAXX 24074 07070 24216 82604 10090 20085 30181 40293 53006 758// 333 69905 90710 91108=
07070,2012-02-24 08:00:00,9.1,1029.7,1.1,97,8.6,1500,9.26,11.112,,250,,,,,,,,,,51,og-post,,,,AAXX 24084 07070 24215 82505 10091 20086 30185 40297 53011 751// 333 69905 90710 91106=
07070,2012-02-24 09:00:00,9.4,1029.7,1.1,97,8.9,2100,9.26,14.816,,260,,,0.2,0.2,,,,,,10,og-post,,,,AAXX 24094 07070 24121 82605 10094 20089 30185 40297 51011 710// 333 69927 90710 91108 555 69925=
07070,2012-02-24 10:00:00,9.5,1029.8,0.5,96,8.9,9000,12.964,16.668,,250,,,0,,,,,,,0,og-post,,,,AAXX 24104 07070 24359 82507 10095 20089 30186 40298 51005 700// 333 60005 90710 91109=
07070,2012-02-24 11:00:00,9.7,1029.7,0,94,8.8,19000,14.816,24.076,,270,,,0,,,,,,,0,og-post,,,,AAXX 24114 07070 24369 82708 10097 20088 30185 40297 50000 700// 333 60005 90710 91113=
07070,2012-02-24 12:00:00,9.7,1029.8,0.1,93,8.6,18000,14.816,24.076,,260,,,0,0,0.2,,,,,0,og-post,,,,AAXX 24124 07070 04368 82608 10097 20086 30186 40298 52001 69921 700// 333 60007 90710 91113 555 60005=
07070,2012-02-24 13:00:00,10.1,1029.4,-0.4,92,8.9,15000,12.964,20.372,,260,,,0,,,,,,,0,og-post,,,,AAXX 24134 07070 24265 82607 10101 20089 30182 40294 58004 700// 333 60005 90710 91111=
07070,2012-02-24 14:00:00,10.1,1029.2,-0.5,92,8.9,14000,16.668,24.076,,250,,,0,,,,,,,0,og-post,,,,AAXX 24144 07070 24264 82509 10101 20089 30180 40292 58005 700// 333 60005 90710 91113=
07070,2012-02-24 15:00:00,10.2,1029.3,-0.5,91,8.8,14000,14.816,22.224,,260,,,0,0,,,,,,0,og-post,,,,AAXX 24154 07070 24364 82608 10102 20088 30181 40293 55005 700// 333 60007 90710 91112 555 60005=
07070,2012-02-24 16:00:00,10.5,1029,-0.4,89,8.8,17000,9.26,24.076,,290,,,0,,,,,,,0,og-post,,,,AAXX 24164 07070 24367 82905 10105 20088 30178 40290 58004 700// 333 60005 90710 91113=
07070,2012-02-24 17:00:00,10.1,1029.4,0.2,89,8.4,15000,14.816,22.224,,280,,,0,,,,,,,0,og-post,,,,AAXX 24174 07070 24365 82808 10101 20084 30182 40294 53002 700// 333 60005 90710 91112=
07070,2012-02-24 18:00:00,9.9,1029.5,0.2,90,8.3,11000,11.112,16.668,,260,9,10.5,0,0,,0.2,,,,0,og-post,,,,AAXX 24184 07070 04461 82606 10099 20083 30183 40295 53002 69922 700// 333 10105 20090 60007 90710 91109 555 60005=
07070,2012-02-24 19:00:00,9.7,1029.6,0.6,91,8.3,10000,12.964,16.668,,250,,,0,,,,,,,0,og-post,,,,AAXX 24194 07070 24460 82507 10097 20083 30184 40296 51006 700// 333 60005 90710 91109=
07070,2012-02-24 20:00:00,9.6,1029.4,0,91,8.2,8000,3.704,16.668,,220,,,0,,,,,,,0,og-post,,,,AAXX 24204 07070 24458 82202 10096 20082 30182 40294 50000 700// 333 60005 90710 91109=
07070,2012-02-24 21:00:00,9.4,1029.3,-0.2,91,8,6000,5.556,9.26,,240,,,0,0,,,,,,0,og-post,,,,AAXX 24214 07070 24456 82403 10094 20080 30181 40293 58002 700// 333 60007 90710 91105 555 60005=
07070,2012-02-24 22:00:00,9.1,1029.5,-0.1,92,7.9,4800,5.556,9.26,,320,,,0,,,,,,,10,og-post,,,,AAXX 24224 07070 24448 83203 10091 20079 30183 40295 55001 710// 333 60005 90710 91105=
07070,2012-02-24 23:00:00,8.9,1029.7,0.3,93,7.8,4700,7.408,11.112,,360,,,0,,,,,,,10,og-post,,,,AAXX 24234 07070 24347 83604 10089 20078 30185 40297 53003 710// 333 60005 90710 91106=
07070,2012-02-25 00:00:00,8.7,1029.5,0.2,93,7.6,6000,5.556,12.964,,350,,,0,0,,,,,,0,og-post,,,,AAXX 25004 07070 04256 83503 10087 20076 30183 40295 50002 60001 700// 333 60007 90710 91107 555 60005=
07070,2012-02-25 01:00:00,8.3,1029.3,-0.2,94,7.4,5000,7.408,12.964,,10,,,0,,,,,,,10,og-post,,,,AAXX 25014 07070 24350 80104 10083 20074 30181 40293 58002 710// 333 60005 90710 91107=
07070,2012-02-25 02:00:00,8,1028.9,-0.9,94,7.1,3900,3.704,12.964,,340,,,0,,,,,,,10,og-post,,,,AAXX 25024 07070 24239 83402 10080 20071 30176 40289 58009 710// 333 60005 90710 91107=
07070,2012-02-25 03:00:00,8,1028,-1.5,95,7.2,3100,5.556,7.408,,340,,,0,0,,,,,,10,og-post,,,,AAXX 25034 07070 24231 83403 10080 20072 30168 40280 58015 710// 333 60007 90710 91104 555 60005=
07070,2012-02-25 04:00:00,8,1028,-1.3,95,7.2,2100,5.556,9.26,,280,,,0,,,,,,,10,og-post,,,,AAXX 25044 07070 24221 82803 10080 20072 30168 40280 56013 710// 333 60005 90710 91105=
07070,2012-02-25 05:00:00,8,1027.9,-0.9,95,7.2,600,3.704,7.408,,260,,,0,,,,,,,45,og-post,,,,AAXX 25054 07070 24/06 92602 10080 20072 30167 40279 56009 745// 333 60005 90710 91104=
07070,2012-02-25 06:00:00,8,1027.5,-0.5,96,7.4,400,5.556,9.26,,260,8,9.9,0,0,,,0.2,0,8,45,og-post,,,,AAXX 25064 07070 04/04 92603 10080 20074 30163 40275 58005 60002 745// 333 10099 20080 3/008 55000 60007 70002 90710 91105 555 60005=
07070,2012-02-25 07:00:00,7.9,1027.7,-0.3,96,7.3,500,5.556,11.112,,260,,,0,,,,,,,45,og-post,,,,AAXX 25074 07070 24/05 92603 10079 20073 30165 40277 55003 745// 333 60005 90710 91106=
07070,2012-02-25 08:00:00,8,1027.7,-0.2,96,7.4,900,3.704,7.408,,280,,,0,,,,,,,45,og-post,,,,AAXX 25084 07070 24/09 92802 10080 20074 30165 40277 56002 745// 333 60005 90710 91104=
07070,2012-02-25 09:00:00,8.4,1027.2,-0.3,96,7.8,1000,9.26,12.964,,250,,,0,0,,,,,,10,og-post,,,,AAXX 25094 07070 24110 82505 10084 20078 30160 40272 58003 710// 333 60007 90710 91107 555 60005=
07070,2012-02-25 10:00:00,8.5,1027.5,-0.2,96,7.9,2200,9.26,14.816,,300,,,0,,,,,,,10,og-post,,,,AAXX 25104 07070 24122 83005 10085 20079 30163 40275 55002 710// 333 60005 90710 91108=
07070,2012-02-25 11:00:00,9.1,1027.3,-0.4,96,8.5,2400,7.408,12.964,,300,,,,,,,,,,10,og-post,,,,AAXX 25114 07070 24224 83004 10091 20085 30161 40273 56004 710// 333 69905 90710 91107=
07070,2012-02-25 12:00:00,9.6,1026.6,-0.6,96,9,3600,11.112,16.668,,250,,,,,,,,,,10,og-post,,,,AAXX 25124 07070 04236 82506 10096 20090 30154 40266 58006 69901 710// 333 69907 90710 91109 555 69905=
07070,2012-02-25 13:00:00,9.7,1026.3,-1.2,94,8.8,4600,14.816,20.372,,320,,,,,,,,,,61,og-post,,,,AAXX 25134 07070 24246 83208 10097 20088 30151 40263 58012 761// 333 69905 90710 91111=
07070,2012-02-25 14:00:00,9.2,1025.7,-1.6,95,8.4,2600,12.964,22.224,,330,,,0.2,,,,,,,10,og-post,,,,AAXX 25144 07070 24226 83307 10092 20084 30145 40257 56016 710// 333 69925 90710 91112=
07070,2012-02-25 15:00:00,8.6,1025.5,-1.1,95,7.8,4700,12.964,20.372,,330,,,,0.2,,,,,,10,og-post,,,,AAXX 25154 07070 24247 83307 10086 20078 30143 40255 56011 710// 333 69927 90710 91111 555 69905=
07070,2012-02-25 16:00:00,8.7,1025.1,-1.2,95,7.9,3800,12.964,18.52,,310,,,,,,,,,,10,og-post,,,,AAXX 25164 07070 24338 83107 10087 20079 30139 40251 56012 710// 333 69905 90710 91110=
07070,2012-02-25 17:00:00,8.6,1025.2,-0.5,94,7.7,3300,9.26,18.52,,320,,,0,,,,,,,10,og-post,,,,AAXX 25174 07070 24433 83205 10086 20077 30140 40252 55005 710// 333 60005 90710 91110=
07070,2012-02-25 18:00:00,8.3,1025.6,0.1,94,7.4,2500,14.816,22.224,,350,7.9,10.1,0,,,0.2,,,,10,og-post,,,,AAXX 25184 07070 04225 83508 10083 20074 30144 40256 53001 69922 710// 333 10101 20079 69907 90710 91112 555 60005=
07070,2012-02-25 19:00:00,7.8,1025.6,0.5,94,6.9,3000,12.964,22.224,,340,,,,,,,,,,10,og-post,,,,AAXX 25194 07070 24330 83407 10078 20069 30144 40256 51005 710// 333 69905 90710 91112=
07070,2012-02-25 20:00:00,7.4,1025.8,0.6,93,6.3,3900,11.112,16.668,,330,,,0,,,,,,,10,og-post,,,,AAXX 25204 07070 24439 83306 10074 20063 30146 40258 51006 710// 333 60005 90710 91109=
07070,2012-02-25 21:00:00,7,1026.1,0.4,89,5.3,7000,11.112,18.52,,330,,,0,,,,,,,0,og-post,,,,AAXX 25214 07070 24557 83306 10070 20053 30148 40261 53004 700// 333 69907 90710 91110 555 60005=
07070,2012-02-25 22:00:00,5.6,1026.6,0.9,87,3.6,9000,12.964,24.076,,10,,,0,,,,,,,0,og-post,,,,AAXX 25224 07070 24659 80107 10056 20036 30153 40266 53009 700// 333 60005 90710 91113=
07070,2012-02-25 23:00:00,5.5,1026.5,0.6,80,2.3,15000,7.408,25.928,,10,,,0,,,,,,,0,og-post,,,,AAXX 25234 07070 24665 80104 10055 20023 30152 40265 51006 700// 333 60005 90710 91114=
07070,2012-02-26 00:00:00,4.1,1026.5,0.3,83,1.5,12000,7.408,12.964,,320,,,0,0,,,,,,0,og-post,,,,AAXX 26004 07070 04662 73204 10041 20015 30151 40265 50003 69901 700// 333 60007 90710 91107 555 60005=
07070,2012-02-26 01:00:00,2,1027,0.2,88,0.2,9000,9.26,12.964,,340,,,0,,,,,,,0,og-post,,,,AAXX 26014 07070 24959 /3405 10020 20002 30155 40270 53002 700// 333 60005 90710 91107=
07070,2012-02-26 02:00:00,1.9,1026.9,0.2,89,0.3,8000,9.26,14.816,,330,,,0,,,,,,,0,og-post,,,,AAXX 26024 07070 24658 63305 10019 20003 30154 40269 52002 700// 333 60005 90710 91108=
07070,2012-02-26 03:00:00,3.9,1026.6,0.1,88,2.1,11000,9.26,16.668,,350,,,0,0,,,,,,0,og-post,,,,AAXX 26034 07070 24661 83505 10039 20021 30152 40266 50001 700// 333 60007 90710 91109 555 60005=
07070,2012-02-26 04:00:00,3.9,1026.6,-0.3,87,1.9,9000,5.556,12.964,,340,,,0,,,,,,,0,og-post,,,,AAXX 26044 07070 24659 83403 10039 20019 30152 40266 56003 700// 333 60005 90710 91107=
07070,2012-02-26 05:00:00,4,1026.8,-0,86,1.9,8000,7.408,9.26,,330,,,0,,,,,,,0,og-post,,,,AAXX 26054 07070 24658 83304 10040 20019 30154 40268 55000 700// 333 60005 90710 91105=
07070,2012-02-26 06:00:00,3.7,1027.1,0.5,87,1.7,7000,7.408,11.112,,330,1.9,8.3,0,0,,,0.2,0,-0,0,og-post,,,,AAXX 26064 07070 04657 83304 10037 20017 30157 40271 53005 69902 700// 333 10083 20019 3/100 55000 60007 70002 90710 91106 555 60005=
07070,2012-02-26 07:00:00,3.1,1027.4,0.8,87,1.1,6000,9.26,14.816,,320,,,0,,,,,,,0,og-post,,,,AAXX 26074 07070 24656 /3205 10031 20011 30160 40274 53008 700// 333 60005 90710 91108=
07070,2012-02-26 08:00:00,4.6,1027.9,1.1,85,2.3,5000,1.852,12.964,,170,,,0,,,,,,,0,og-post,,,,AAXX 26084 07070 24950 /1701 10046 20023 30165 40279 53011 700// 333 60005 90710 91107=
07070,2012-02-26 09:00:00,6.6,1028.3,1.3,81,3.6,8000,9.26,12.964,,320,,,0,0,,,,,,0,og-post,,,,AAXX 26094 07070 24958 /3205 10066 20036 30170 40283 53013 700// 333 60007 90710 91107 555 60005=
07070,2012-02-26 10:00:00,7.6,1028.8,1.5,80,4.4,7000,12.964,18.52,,360,,,0,,,,,,,0,og-post,,,,AAXX 26104 07070 24457 /3607 10076 20044 30175 40288 52015 700// 333 60005 90710 91110=
07070,2012-02-26 11:00:00,6.3,1029.3,1.5,86,4.1,4100,14.816,22.224,,10,,,0,,,,,,,10,og-post,,,,AAXX 26114 07070 24241 80108 10063 20041 30180 40293 52015 710// 333 60005 90710 91112=
07070,2012-02-26 12:00:00,6.9,1029.2,0.9,83,4.2,5000,14.816,24.076,,330,,,0,0,,,,,,0,og-post,,,,AAXX 26124 07070 04350 83308 10069 20042 30179 40292 50009 60001 700// 333 60007 90710 91113 555 60005=
07070,2012-02-26 13:00:00,8.9,1028.8,0.1,74,4.5,6000,12.964,24.076,,310,,,0,,,,,,,0,og-post,,,,AAXX 26134 07070 24456 /3107 10089 20045 30176 40288 50001 700// 333 60005 90710 91113=
07070,2012-02-26 14:00:00,9.5,1028.6,-0.6,66,3.5,13000,12.964,22.224,,330,,,0,,,,,,,0,og-post,,,,AAXX 26144 07070 24963 /3307 10095 20035 30174 40286 58006 700// 333 60005 90710 91112=
07070,2012-02-26 15:00:00,9.6,1028.5,-0.6,67,3.8,17000,14.816,24.076,,360,,,0,0,,,,,,0,og-post,,,,AAXX 26154 07070 24567 /3608 10096 20038 30173 40285 56006 700// 333 60007 90710 91113 555 60005=
07070,2012-02-26 16:00:00,8.8,1028.5,-0.3,70,3.6,18000,12.964,22.224,,360,,,0,,,,,,,0,og-post,,,,AAXX 26164 07070 24668 83607 10088 20036 30173 40285 56003 700// 333 60005 90710 91112=
07070,2012-02-26 17:00:00,8,1029,0.3,76,4,14000,11.112,18.52,,20,,,0,,,,,,,0,og-post,,,,AAXX 26174 07070 24664 80206 10080 20040 30177 40290 53003 700// 333 60005 90710 91110=
07070,2012-02-26 18:00:00,7.2,1029.5,0.9,80,4,12000,11.112,16.668,,350,3,10.2,0,0,,,,,,0,og-post,,,,AAXX 26184 07070 04662 83506 10072 20040 30182 40295 53009 60002 700// 333 10102 20030 60007 90710 91109 555 60005=
07070,2012-02-26 19:00:00,6.7,1029.8,1.2,84,4.2,8000,5.556,16.668,,320,,,0,,,,,,,0,og-post,,,,AAXX 26194 07070 24658 83203 10067 20042 30185 40298 51012 700// 333 60005 90710 91109=
07070,2012-02-26 20:00:00,5.7,1030.1,1,87,3.7,5000,5.556,11.112,,340,,,,,,,,,,0,og-post,,,,AAXX 26204 07070 24750 83403 10057 20037 30187 40301 51010 700// 333 69905 90710 91106=
07070,2012-02-26 21:00:00,3.8,1030.5,0.8,90,2.3,3600,7.408,11.112,,340,,,0,,,,,,,10,og-post,,,,AAXX 26214 07070 24636 /3404 10038 20023 30190 40305 52008 710// 333 69907 90710 91106 555 60005=
07070,2012-02-26 22:00:00,3.2,1030.3,0.3,91,1.9,2400,3.704,7.408,,190,,,0,,,,,,,10,og-post,,,,AAXX 26224 07070 24624 /1902 10032 20019 30188 40303 50003 710// 333 60005 90710 91104=
07070,2012-02-26 23:00:00,2,1029.9,-0.3,94,1.1,2100,9.26,11.112,,190,,,0,,,,,,,10,og-post,,,,AAXX 26234 07070 24621 /1905 10020 20011 30184 40299 58003 710// 333 60005 90710 91106=
07070,2012-02-27 00:00:00,1.1,1030,-0.6,95,0.4,300,3.704,9.26,,320,,,0,0,,,,,,45,og-post,,,,AAXX 27004 07070 04903 /3202 10011 20004 30184 40300 56006 69901 745// 333 60007 90710 91105 555 60005=
07070,2012-02-27 01:00:00,0.3,1030,-0.4,95,-0.4,100,1.852,3.704,,90,,,0,,,,,,,45,og-post,,,,AAXX 27014 07070 24601 /0901 10003 21004 30184 40300 56004 745// 333 60005 90710 91102=
07070,2012-02-27 02:00:00,0.1,1030,-0,96,-0.5,100,1.852,5.556,,150,,,0,,,,,,,45,og-post,,,,AAXX 27024 07070 24601 /1501 10001 21005 30184 40300 54000 745// 333 60005 90710 91103=
07070,2012-02-27 03:00:00,-0.4,1029.6,-0.4,96,-1,500,,7.408,,,,,0,0,,,,,,49,og-post,,,,AAXX 27034 07070 24/00 90000 11004 21010 30180 40296 58004 749// 333 60007 90710 91104 555 60005=
07070,2012-02-27 04:00:00,-1.7,1029.3,-0.8,97,-2.1,200,,1.852,,,,,0,,,,,,,49,og-post,,,,AAXX 27044 07070 24902 /0000 11017 21021 30176 40293 58008 749// 333 60005 90710 91101=
07070,2012-02-27 05:00:00,-2.3,1029.2,-0.9,97,-2.7,200,1.852,7.408,,240,,,0,,,,,,,49,og-post,,,,AAXX 27054 07070 24902 /2401 11023 21027 30175 40292 56009 749// 333 60005 90710 91104=
07070,2012-02-27 06:00:00,-1.1,1029.3,-0.4,97,-1.5,700,3.704,5.556,,190,-2.3,7.2,0,0,,,0,6.8,-5,49,og-post,,,,AAXX 27064 07070 04907 /1902 11011 21015 30176 40293 55004 69902 749// 333 10072 21023 34105 55068 60007 79999 90710 91103 555 60005=
07070,2012-02-27 07:00:00,-2.1,1030,0.7,97,-2.5,300,,3.704,,,,,0,,,,,,,49,og-post,,,,AAXX 27074 07070 24603 /0000 11021 21025 30183 40300 53007 749// 333 60005 90710 91102=
07070,2012-02-27 08:00:00,-0.2,1029.8,0.7,97,-0.6,600,3.704,5.556,,70,,,0,,,,,,,49,og-post,,,,AAXX 27084 07070 24606 /0702 11002 21006 30182 40298 51007 749// 333 60005 90710 91103=
07070,2012-02-27 09:00:00,3.4,1029.3,0.2,96,2.8,3500,,5.556,,,,,0,0,,,,,,10,og-post,,,,AAXX 27094 07070 24635 80000 10034 20028 30178 40293 50002 710// 333 60007 90710 91103 555 60005=
07070,2012-02-27 10:00:00,4.7,1029.4,-0.3,94,3.8,7000,3.704,7.408,,180,,,0,,,,,,,0,og-post,,,,AAXX 27104 07070 24657 81802 10047 20038 30180 40294 55003 700// 333 60005 90710 91104=
07070,2012-02-27 11:00:00,7.5,1028.8,-0.7,81,4.4,9000,7.408,12.964,,220,,,0,,,,,,,0,og-post,,,,AAXX 27114 07070 24659 82204 10075 20044 30175 40288 57007 700// 333 60005 90710 91107=
07070,2012-02-27 12:00:00,9.8,1027.8,-1.2,65,3.5,12000,14.816,20.372,,240,,,0,0,,,,,,0,og-post,,,,AAXX 27124 07070 04662 /2408 10098 20035 30166 40278 58012 60001 700// 333 60007 90710 91111 555 60005=
07070,2012-02-27 13:00:00,11,1026.9,-2.2,59,3.3,16000,18.52,27.78,,260,,,0,,,,,,,0,og-post,,,,AAXX 27134 07070 24666 /2610 10110 20033 30158 40269 58022 700// 333 60005 90710 91115=
07070,2012-02-27 14:00:00,10.8,1026.4,-2.2,57,2.6,18000,14.816,25.928,,260,,,0,,,,,,,0,og-post,,,,AAXX 27144 07070 24668 /2608 10108 20026 30153 40264 56022 700// 333 60005 90710 91114=
07070,2012-02-27 15:00:00,11,1026.3,-1.4,57,2.8,18000,16.668,25.928,,270,,,0,0,,,,,,0,og-post,,,,AAXX 27154 07070 24668 72709 10110 20028 30152 40263 56014 700// 333 60007 90710 91114 555 60005=
07070,2012-02-27 16:00:00,10.6,1025.9,-1,62,3.6,14000,14.816,22.224,,260,,,0,,,,,,,0,og-post,,,,AAXX 27164 07070 24664 82608 10106 20036 30148 40259 56010 700// 333 60005 90710 91112=
07070,2012-02-27 17:00:00,10,1026,-0.5,66,3.9,11000,9.26,20.372,,250,,,0,,,,,,,0,og-post,,,,AAXX 27174 07070 24761 82505 10100 20039 30148 40260 56005 700// 333 60005 90710 91111=
07070,2012-02-27 18:00:00,9.4,1026.4,-0,70,4.2,11000,7.408,11.112,,230,-2.4,11.8,0,0,,,,,,0,og-post,,,,AAXX 27184 07070 04561 82304 10094 20042 30152 40264 55000 60002 700// 333 10118 21024 60007 90710 91106 555 60005=
07070,2012-02-27 19:00:00,9.2,1026.7,0.7,71,4.2,11000,9.26,12.964,,260,,,0,,,,,,,0,og-post,,,,AAXX 27194 07070 24561 82605 10092 20042 30155 40267 53007 700// 333 60005 90710 91107=
07070,2012-02-27 20:00:00,8.8,1026.6,0.6,77,5,9000,7.408,12.964,,280,,,0,,,,,,,0,og-post,,,,AAXX 27204 07070 24659 82804 10088 20050 30154 40266 50006 700// 333 60005 90710 91107=
07070,2012-02-27 21:00:00,8.2,1026.8,0.4,81,5.1,8000,3.704,11.112,,260,,,0,0,,,,,,0,og-post,,,,AAXX 27214 07070 24758 82602 10082 20051 30156 40268 52004 700// 333 60007 90710 91106 555 60005=
07070,2012-02-27 22:00:00,7.6,1026.8,-0,84,5.1,7000,9.26,11.112,,280,,,0,,,,,,,0,og-post,,,,AAXX 27224 07070 24657 82805 10076 20051 30155 40268 54000 700// 333 60005 90710 91106=
07070,2012-02-27 23:00:00,7.3,1026.7,0,85,4.9,5000,5.556,9.26,,230,,,0,,,,,,,0,og-post,,,,AAXX 27234 07070 24450 82303 10073 20049 30154 40267 50000 700// 333 60005 90710 91105=
07070,2012-02-28 00:00:00,7.4,1026.9,-0,86,5.2,6000,7.408,12.964,,240,,,0,0,,,,,,0,og-post,,,,AAXX 28004 07070 04456 82404 10074 20052 30156 40269 55000 60001 700// 333 60007 90710 91107 555 60005=
07070,2012-02-28 01:00:00,7.4,1026.7,-0.1,86,5.2,7000,5.556,12.964,,230,,,0,,,,,,,0,og-post,,,,AAXX 28014 07070 24457 82303 10074 20052 30154 40267 58001 700// 333 60005 90710 91107=
07070,2012-02-28 02:00:00,7.4,1026.2,-0.5,85,5,7000,7.408,14.816,,250,,,0,,,,,,,0,og-post,,,,AAXX 28024 07070 24457 82504 10074 20050 30149 40262 58005 700// 333 60005 90710 91108=
07070,2012-02-28 03:00:00,7.1,1026.2,-0.7,87,5.1,8000,7.408,12.964,,250,,,0,0,,,,,,0,og-post,,,,AAXX 28034 07070 24558 82504 10071 20051 30149 40262 56007 700// 333 60007 90710 91107 555 60005=
07070,2012-02-28 04:00:00,7,1025.9,-0.8,88,5.1,7000,7.408,12.964,,220,,,0,,,,,,,0,og-post,,,,AAXX 28044 07070 24557 82204 10070 20051 30146 40259 56008 700// 333 60005 90710 91107=
07070,2012-02-28 05:00:00,7.2,1025.7,-0.5,87,5.2,8000,5.556,12.964,,260,,,0,,,,,,,0,og-post,,,,AAXX 28054 07070 24558 82603 10072 20052 30144 40257 58005 700// 333 60005 90710 91107=
07070,2012-02-28 06:00:00,7.2,1026,-0.2,88,5.3,8000,,7.408,,,6.9,9.4,0,0,,,0,3.4,6,0,og-post,,,,AAXX 28064 07070 04558 80000 10072 20053 30147 40260 55002 60002 700// 333 10094 20069 30006 55034 60007 70000 90710 91104 555 60005=
07070,2012-02-28 07:00:00,7.4,1026.4,0.5,88,5.5,8000,7.408,11.112,,250,,,0,,,,,,,0,og-post,,,,AAXX 28074 07070 24558 82504 10074 20055 30151 40264 53005 700// 333 60005 90710 91106=
07070,2012-02-28 08:00:00,7.8,1026.5,0.9,87,5.8,7000,11.112,16.668,,250,,,0,,,,,,,0,og-post,,,,AAXX 28084 07070 24557 82506 10078 20058 30153 40265 51009 700// 333 60005 90710 91109=
07070,2012-02-28 09:00:00,8.2,1026.8,0.9,87,6.2,8000,12.964,20.372,,250,,,0,0,,,,,,0,og-post,,,,AAXX 28094 07070 24458 82507 10082 20062 30156 40268 52009 700// 333 60007 90710 91111 555 60005=
07070,2012-02-28 10:00:00,9,1027,0.7,84,6.4,10000,14.816,20.372,,250,,,0,,,,,,,0,og-post,,,,AAXX 28104 07070 24460 82508 10090 20064 30158 40270 52007 700// 333 60005 90710 91111=
07070,2012-02-28 11:00:00,9.8,1027.1,0.6,81,6.7,13000,16.668,24.076,,250,,,0,,,,,,,0,og-post,,,,AAXX 28114 07070 24463 82509 10098 20067 30159 40271 51006 700// 333 60005 90710 91113=
07070,2012-02-28 12:00:00,10.4,1026.7,0,78,6.7,15000,14.816,22.224,,250,,,0,0,,,,,,0,og-post,,,,AAXX 28124 07070 04465 82508 10104 20067 30156 40267 50000 60001 700// 333 60007 90710 91112 555 60005=
07070,2012-02-28 13:00:00,10.9,1026.5,-0.4,77,7,15000,16.668,22.224,,260,,,0,,,,,,,0,og-post,,,,AAXX 28134 07070 24465 82609 10109 20070 30154 40265 58004 700// 333 60005 90710 91112=
07070,2012-02-28 14:00:00,11.2,1026.4,-0.6,76,7.1,18000,12.964,22.224,,250,,,0,,,,,,,0,og-post,,,,AAXX 28144 07070 24568 82507 10112 20071 30153 40264 56006 700// 333 60005 90710 91112=
07070,2012-02-28 15:00:00,11.1,1026.1,-0.6,77,7.2,17000,12.964,20.372,,260,,,0,0,,,,,,0,og-post,,,,AAXX 28154 07070 24467 82607 10111 20072 30150 40261 57006 700// 333 60007 90710 91111 555 60005=
07070,2012-02-28 16:00:00,10.9,1026,-0.5,78,7.2,18000,9.26,18.52,,250,,,0,,,,,,,0,og-post,,,,AAXX 28164 07070 24468 82505 10109 20072 30149 40260 57005 700// 333 60005 90710 91110=
07070,2012-02-28 17:00:00,10.4,1026.2,-0.2,80,7.1,15000,9.26,12.964,,240,,,0,,,,,,,0,og-post,,,,AAXX 28174 07070 24465 82405 10104 20071 30151 40262 55002 700// 333 60005 90710 91107=
07070,2012-02-28 18:00:00,10,1026.5,0.4,82,7.1,11000,7.408,12.964,,240,7.2,11.4,0,0,,,,,,0,og-post,,,,AAXX 28184 07070 04561 82404 10100 20071 30154 40265 53004 60002 700// 333 10114 20072 60007 90710 91107 555 60005=
07070,2012-02-28 19:00:00,9.8,1026.8,0.7,83,7,9000,5.556,9.26,,240,,,0,,,,,,,0,og-post,,,,AAXX 28194 07070 24559 82403 10098 20070 30156 40268 52007 700// 333 60005 90710 91105=
07070,2012-02-28 20:00:00,9.5,1027,0.7,84,6.9,9000,5.556,7.408,,220,,,0,,,,,,,0,og-post,,,,AAXX 28204 07070 24559 82203 10095 20069 30158 40270 51007 700// 333 60005 90710 91104=
07070,2012-02-28 21:00:00,9.2,1027.1,0.5,85,6.8,8000,3.704,9.26,,240,,,0,0,,,,,,0,og-post,,,,AAXX 28214 07070 24558 82402 10092 20068 30159 40271 51005 700// 333 60007 90710 91105 555 60005=
07070,2012-02-28 22:00:00,9,1026.9,0.1,86,6.8,6000,3.704,5.556,,220,,,0,,,,,,,0,og-post,,,,AAXX 28224 07070 24756 82202 10090 20068 30157 40269 50001 700// 333 60005 90710 91103=
07070,2012-02-28 23:00:00,8.5,1027,-0,88,6.6,4800,1.852,12.964,,60,,,0,,,,,,,10,og-post,,,,AAXX 28234 07070 24648 80601 10085 20066 30158 40270 54000 710// 333 60005 90710 91107=
07070,2012-02-29 00:00:00,8.2,1027.1,-0,90,6.7,5000,1.852,3.704,,240,,,0,0,,,,,,0,og-post,,,,AAXX 29004 07070 04650 82401 10082 20067 30159 40271 55000 60001 700// 333 60007 90710 91102 555 60005=
07070,2012-02-29 01:00:00,7.7,1026.9,0,90,6.2,4300,1.852,3.704,,270,,,0,,,,,,,10,og-post,,,,AAXX 29014 07070 24443 82701 10077 20062 30157 40269 50000 710// 333 60005 90710 91102=
07070,2012-02-29 02:00:00,7.8,1026.7,-0.3,91,6.4,4400,3.704,5.556,,240,,,0,,,,,,,10,og-post,,,,AAXX 29024 07070 24444 82402 10078 20064 30155 40267 58003 710// 333 60005 90710 91103=
07070,2012-02-29 03:00:00,7.7,1026.6,-0.5,91,6.3,3500,,3.704,,,,,0,0,,,,,,10,og-post,,,,AAXX 29034 07070 24435 80000 10077 20063 30154 40266 56005 710// 333 60007 90710 91102 555 60005=
07070,2012-02-29 04:00:00,7.7,1026.7,-0.2,92,6.5,3600,,,,,,,0,,,,,,,10,og-post,,,,AAXX 29044 07070 24436 80000 10077 20065 30155 40267 55002 710// 333 60005 90710 91100=
07070,2012-02-29 05:00:00,7.6,1026.6,-0.1,92,6.4,3700,,,,,,,0,,,,,,,10,og-post,,,,AAXX 29054 07070 24437 80000 10076 20064 30154 40266 57001 710// 333 60005 90710 91100=
07070,2012-02-29 06:00:00,7.6,1026.6,0,93,6.5,2800,1.852,3.704,,60,7.5,10,0,0,,,0,0,6,10,og-post,,,,AAXX 29064 07070 04228 80601 10076 20065 30154 40266 50000 60002 710// 333 10100 20075 30006 55000 60007 70000 90710 91102 555 60005=
07070,2012-02-29 07:00:00,8,1026.9,0.2,93,6.9,2900,3.704,7.408,,70,,,0,,,,,,,10,og-post,,,,AAXX 29074 07070 24329 80702 10080 20069 30157 40269 53002 710// 333 60005 90710 91104=
07070,2012-02-29 08:00:00,8.4,1027.1,0.5,93,7.3,3000,5.556,7.408,,120,,,0,,,,,,,10,og-post,,,,AAXX 29084 07070 24330 81203 10084 20073 30159 40271 53005 710// 333 60005 90710 91104=
07070,2012-02-29 09:00:00,9.2,1027.1,0.5,92,8,4400,3.704,7.408,,100,,,0,0,,,,,,10,og-post,,,,AAXX 29094 07070 24344 81002 10092 20080 30159 40271 51005 710// 333 60007 90710 91104 555 60005=
07070,2012-02-29 10:00:00,9.4,1027.3,0.4,90,7.8,4300,3.704,9.26,,110,,,0,,,,,,,10,og-post,,,,AAXX 29104 07070 24243 81102 10094 20078 30161 40273 52004 710// 333 60005 90710 91105=
07070,2012-02-29 11:00:00,10,1026.9,-0.1,88,8.1,5000,3.704,7.408,,30,,,0,,,,,,,0,og-post,,,,AAXX 29114 07070 24350 80302 10100 20081 30158 40269 58001 700// 333 60005 90710 91104=
07070,2012-02-29 12:00:00,10.5,1026.4,-0.6,86,8.3,6000,5.556,11.112,,40,,,0,0,,,,,,0,og-post,,,,AAXX 29124 07070 04356 80403 10105 20083 30153 40264 58006 60001 700// 333 60007 90710 91106 555 60005=
07070,2012-02-29 13:00:00,10.7,1026.1,-1.1,85,8.3,7000,5.556,11.112,,30,,,0,,,,,,,0,og-post,,,,AAXX 29134 07070 24357 80303 10107 20083 30150 40261 57011 700// 333 60005 90710 91106=
07070,2012-02-29 14:00:00,11.2,1025.6,-1.3,83,8.4,8000,7.408,12.964,,20,,,0,,,,,,,0,og-post,,,,AAXX 29144 07070 24358 80204 10112 20084 30145 40256 57013 700// 333 60005 90710 91107=
07070,2012-02-29 15:00:00,11.4,1025.1,-1.3,83,8.6,11000,7.408,14.816,,20,,,0,0,,,,,,0,og-post,,,,AAXX 29154 07070 24361 80204 10114 20086 30140 40251 58013 700// 333 60007 90710 91108 555 60005=
07070,2012-02-29 16:00:00,11.4,1024.8,-1.3,85,9,16000,9.26,14.816,,360,,,0,,,,,,,0,og-post,,,,AAXX 29164 07070 24366 /3605 10114 20090 30137 40248 56013 700// 333 60005 90710 91108=
07070,2012-02-29 17:00:00,10,1024.8,-0.8,88,8.1,12000,7.408,12.964,,360,,,0,,,,,,,0,og-post,,,,AAXX 29174 07070 24462 /3604 10100 20081 30137 40248 56008 700// 333 60005 90710 91107=
07070,2012-02-29 18:00:00,8.1,1025,-0.2,92,6.9,8000,7.408,14.816,,320,7.6,11.7,0,0,,,,,,0,og-post,,,,AAXX 29184 07070 04958 /3204 10081 20069 30138 40250 55002 60002 700// 333 10117 20076 60007 90710 91108 555 60005=
07070,2012-02-29 19:00:00,7.3,1024.8,-0.1,94,6.4,4400,9.26,12.964,,340,,,0,,,,,,,10,og-post,,,,AAXX 29194 07070 24944 /3405 10073 20064 30136 40248 58001 710// 333 60005 90710 91107=
07070,2012-02-29 20:00:00,8.5,1024.9,-0,96,7.9,200,11.112,18.52,,360,,,0,,,,,,,45,og-post,,,,AAXX 29204 07070 24/02 93606 10085 20079 30137 40249 54000 745// 333 60005 90710 91110=
07070,2012-02-29 21:00:00,8.8,1025,-0,96,8.2,200,11.112,18.52,,360,,,0,0,,,,,,45,og-post,,,,AAXX 29214 07070 24/02 93606 10088 20082 30138 40250 55000 745// 333 60007 90710 91110 555 60005=
07070,2012-02-29 22:00:00,8.7,1025,0.2,97,8.2,100,7.408,16.668,,350,,,0,,,,,,,45,og-post,,,,AAXX 29224 07070 24/01 93504 10087 20082 30138 40250 51002 745// 333 60005 90710 91109=
07070,2012-02-29 23:00:00,8.4,1024.8,-0.1,97,8,100,9.26,12.964,,360,,,0,,,,,,,45,og-post,,,,AAXX 29234 07070 24/01 93605 10084 20080 30136 40248 58001 745// 333 60005 90710 91107=
07070,2012-03-01 00:00:00,8,1024.6,-0.4,97,7.6,200,7.408,12.964,,10,,,0,0,,,,,,45,og-post,,,,AAXX 01004 07070 04/02 90104 10080 20076 30134 40246 58004 60001 745// 333 60007 90710 91107 555 60005=
07070,2012-03-01 01:00:00,7.8,1024.4,-0.6,97,7.4,100,7.408,12.964,,10,,,0,,,,,,,45,og-post,,,,AAXX 01014 07070 24/01 90104 10078 20074 30132 40244 57006 745// 333 60005 90710 91107=
07070,2012-03-01 02:00:00,7.5,1024.2,-0.6,97,7.1,200,7.408,12.964,,10,,,0,,,,,,,45,og-post,,,,AAXX 01024 07070 24/02 90104 10075 20071 30130 40242 57006 745// 333 60005 90710 91107=
07070,2012-03-01 03:00:00,7.1,1024,-0.6,97,6.7,100,7.408,11.112,,360,,,0.2,0.2,,,,,,45,og-post,,,,AAXX 01034 07070 24/01 93604 10071 20067 30128 40240 57006 745// 333 69927 90710 91106 555 69925=
07070,2012-03-01 04:00:00,6.7,1024.1,-0.4,97,6.3,100,5.556,9.26,,10,,,0,,,,,,,45,og-post,,,,AAXX 01044 07070 24/01 90103 10067 20063 30128 40241 56004 745// 333 60005 90710 91105=
07070,2012-03-01 05:00:00,6.4,1024,-0.3,97,6,100,3.704,9.26,,30,,,0,,,,,,,45,og-post,,,,AAXX 01054 07070 24/01 90302 10064 20060 30127 40240 56003 745// 333 60005 90710 91105=
07070,2012-03-01 06:00:00,5.9,1024.1,-0,97,5.5,100,5.556,7.408,,330,5.9,8.8,0,0,,0.2,0.2,0.3,5,45,og-post,,,,AAXX 01064 07070 04/01 93303 10059 20055 30128 40241 55000 69922 745// 333 10088 20059 31005 55003 60007 70002 90710 91104 555 60005=
07070,2012-03-01 07:00:00,5.8,1024.7,0.6,97,5.4,100,5.556,7.408,,320,,,0,,,,,,,45,og-post,,,,AAXX 01074 07070 24/01 93203 10058 20054 30134 40247 53006 745// 333 60005 90710 91104=
07070,2012-03-01 08:00:00,6,1025.2,1.2,97,5.6,400,7.408,9.26,,20,,,0,,,,,,,45,og-post,,,,AAXX 01084 07070 24/04 90204 10060 20056 30139 40252 53012 745// 333 60005 90710 91105=
07070,2012-03-01 09:00:00,6.7,1025.6,1.5,97,6.3,1700,9.26,11.112,,10,,,0,0,,,,,,10,og-post,,,,AAXX 01094 07070 24/17 90105 10067 20063 30143 40256 51015 710// 333 60007 90710 91106 555 60005=
07070,2012-03-01 10:00:00,7.4,1025.5,0.9,97,7,1700,7.408,12.964,,20,,,0,,,,,,,10,og-post,,,,AAXX 01104 07070 24117 80204 10074 20070 30143 40255 51009 710// 333 60005 90710 91107=
07070,2012-03-01 11:00:00,8.2,1025.7,0.6,97,7.8,2400,11.112,16.668,,20,,,0,,,,,,,10,og-post,,,,AAXX 01114 07070 24124 80206 10082 20078 30145 40257 51006 710// 333 60005 90710 91109=
07070,2012-03-01 12:00:00,8.7,1025.6,0.1,97,8.2,4300,11.112,14.816,,30,,,0,0,,,,,,10,og-post,,,,AAXX 01124 07070 04243 80306 10087 20082 30144 40256 50001 60001 710// 333 60007 90710 91108 555 60005=
07070,2012-03-01 13:00:00,9.2,1025.4,0.1,97,8.7,6000,9.26,16.668,,20,,,0,,,,,,,0,og-post,,,,AAXX 01134 07070 24256 80205 10092 20087 30142 40254 50001 700// 333 60005 90710 91109=
07070,2012-03-01 14:00:00,9.2,1025.2,-0.5,96,8.6,7000,9.26,16.668,,20,,,0,,,,,,,0,og-post,,,,AAXX 01144 07070 24257 80205 10092 20086 30140 40252 58005 700// 333 60005 90710 91109=
07070,2012-03-01 15:00:00,9.5,1025.1,-0.4,94,8.6,8000,9.26,14.816,,20,,,0,0,,,,,,0,og-post,,,,AAXX 01154 07070 24358 80205 10095 20086 30140 40251 56004 700// 333 60007 90710 91108 555 60005=
07070,2012-03-01 16:00:00,9.2,1025.3,-0.1,93,8.1,7000,7.408,14.816,,10,,,0,,,,,,,0,og-post,,,,AAXX 01164 07070 24257 80104 10092 20081 30141 40253 55001 700// 333 60005 90710 91108=
07070,2012-03-01 17:00:00,8.9,1025.7,0.5,94,8,2600,5.556,11.112,,330,,,0,,,,,,,10,og-post,,,,AAXX 01174 07070 24226 83303 10089 20080 30145 40257 53005 710// 333 60005 90710 91106=
07070,2012-03-01 18:00:00,8.6,1025.9,0.7,95,7.8,900,3.704,7.408,,270,5.8,9.6,0,0,,,,,,45,og-post,,,,AAXX 01184 07070 04209 82702 10086 20078 30147 40259 53007 60002 745// 333 10096 20058 60007 90710 91104 555 60005=
07070,2012-03-01 19:00:00,8.5,1026,0.7,96,7.9,500,3.704,5.556,,330,,,,,,,,,,45,og-post,,,,AAXX 01194 07070 24105 83302 10085 20079 30148 40260 51007 745// 333 69905 90710 91103=
07070,2012-03-01 20:00:00,8.5,1026,0.3,96,7.9,800,,5.556,,,,,0,,,,,,,45,og-post,,,,AAXX 01204 07070 24408 80000 10085 20079 30148 40260 51003 745// 333 60005 90710 91103=
07070,2012-03-01 21:00:00,8.5,1026.3,0.4,96,7.9,700,3.704,3.704,,280,,,0.2,0.2,,,,,,51,og-post,,,,AAXX 01214 07070 24207 82802 10085 20079 30151 40263 53004 751// 333 69927 90710 91102 555 69925=
07070,2012-03-01 22:00:00,8.6,1026.2,0.2,97,8.2,1000,5.556,5.556,,240,,,,,,,,,,50,og-post,,,,AAXX 01224 07070 24210 82403 10086 20082 30150 40262 50002 750// 333 69905 90710 91103=
07070,2012-03-01 23:00:00,8.5,1026.1,0.1,97,8.1,1100,5.556,7.408,,270,,,,,,,,,,10,og-post,,,,AAXX 01234 07070 24111 82703 10085 20081 30149 40261 50001 710// 333 69905 90710 91104=
07070,2012-03-02 00:00:00,8.7,1026.2,-0.1,97,8.2,1200,3.704,7.408,,300,,,0,,0.2,,,,,10,og-post,,,,AAXX 02004 07070 04112 83002 10087 20082 30150 40262 55001 69921 710// 333 69907 90710 91104 555 60005=
07070,2012-03-02 01:00:00,8.7,1026.1,-0.1,97,8.2,1200,1.852,5.556,,250,,,0,,,,,,,10,og-post,,,,AAXX 02014 07070 24212 82501 10087 20082 30149 40261 57001 710// 333 60005 90710 91103=
07070,2012-03-02 02:00:00,8.7,1025.7,-0.4,97,8.2,1100,,3.704,,,,,0,,,,,,,10,og-post,,,,AAXX 02024 07070 24211 80000 10087 20082 30145 40257 58004 710// 333 60005 90710 91102=
07070,2012-03-02 03:00:00,8.6,1025.5,-0.7,97,8.2,800,3.704,3.704,,200,,,,,,,,,,45,og-post,,,,AAXX 02034 07070 24108 82002 10086 20082 30143 40255 58007 745// 333 69907 90710 91102 555 69905=
07070,2012-03-02 04:00:00,8.7,1025.7,-0.4,97,8.2,900,5.556,5.556,,270,,,,,,,,,,50,og-post,,,,AAXX 02044 07070 24109 82703 10087 20082 30145 40257 55004 750// 333 69905 90710 91103=
07070,2012-03-02 05:00:00,8.6,1025.9,0.2,97,8.2,500,7.408,9.26,,300,,,0.2,,,,,,,45,og-post,,,,AAXX 02054 07070 24/05 93004 10086 20082 30147 40259 53002 745// 333 69925 90710 91105=
07070,2012-03-02 06:00:00,8.4,1025.9,0.4,97,8,300,3.704,9.26,,340,8.4,8.7,,0.2,,0.4,0.4,0,8,45,og-post,,,,AAXX 02064 07070 04/03 93402 10084 20080 30147 40259 51004 69942 745// 333 10087 20084 31008 55000 69927 70004 90710 91105 555 69905=
07070,2012-03-02 07:00:00,8.4,1026.1,0.4,97,8,100,1.852,3.704,,360,,,0,,,,,,,45,og-post,,,,AAXX 02074 07070 24/01 93601 10084 20080 30149 40261 52004 745// 333 60005 90710 91102=
07070,2012-03-02 08:00:00,8.6,1026.3,0.4,97,8.2,100,1.852,3.704,,150,,,0,,,,,,,45,og-post,,,,AAXX 02084 07070 24/01 91501 10086 20082 30151 40263 53004 745// 333 60005 90710 91102=
07070,2012-03-02 09:00:00,8.8,1026.1,0.2,97,8.3,1600,11.112,14.816,,150,,,0,0,,,,,,10,og-post,,,,AAXX 02094 07070 24116 81506 10088 20083 30149 40261 50002 710// 333 60007 90710 91108 555 60005=
07070,2012-03-02 10:00:00,9,1026,-0.1,97,8.5,2400,14.816,18.52,,150,,,0,,,,,,,10,og-post,,,,AAXX 02104 07070 24224 81508 10090 20085 30148 40260 58001 710// 333 60005 90710 91110=
07070,2012-03-02 11:00:00,9.4,1026,-0.3,96,8.8,4800,12.964,20.372,,160,,,0,,,,,,,10,og-post,,,,AAXX 02114 07070 24248 81607 10094 20088 30148 40260 56003 710// 333 60005 90710 91111=
07070,2012-03-02 12:00:00,10.2,1025.8,-0.2,92,9,8000,7.408,14.816,,160,,,0,0,,,,,,0,og-post,,,,AAXX 02124 07070 04458 81604 10102 20090 30147 40258 57002 60001 700// 333 60007 90710 91108 555 60005=
07070,2012-03-02 13:00:00,10.3,1025.2,-0.7,89,8.6,9000,9.26,12.964,,160,,,0,,,,,,,0,og-post,,,,AAXX 02134 07070 24459 81605 10103 20086 30141 40252 58007 700// 333 60005 90710 91107=
07070,2012-03-02 14:00:00,10.6,1024.6,-1.3,84,8,11000,9.26,14.816,,140,,,0,,,,,,,0,og-post,,,,AAXX 02144 07070 24461 81405 10106 20080 30135 40246 58013 700// 333 60005 90710 91108=
07070,2012-03-02 15:00:00,10.8,1024.1,-1.7,85,8.4,9000,11.112,12.964,,120,,,0,0,,,,,,0,og-post,,,,AAXX 02154 07070 24459 81206 10108 20084 30130 40241 56017 700// 333 60007 90710 91107 555 60005=
07070,2012-03-02 16:00:00,10.6,1023.9,-1.3,84,8,9000,12.964,16.668,,130,,,0,,,,,,,0,og-post,,,,AAXX 02164 07070 24459 81307 10106 20080 30128 40239 56013 700// 333 60005 90710 91109=
07070,2012-03-02 17:00:00,10.2,1023.8,-0.8,86,8,7000,5.556,14.816,,170,,,0,,,,,,,0,og-post,,,,AAXX 02174 07070 24457 81703 10102 20080 30127 40238 56008 700// 333 60005 90710 91108=
07070,2012-03-02 18:00:00,9.8,1023.6,-0.5,89,8.1,6000,1.852,5.556,,80,8.4,10.9,0,0,,,,,,0,og-post,,,,AAXX 02184 07070 04456 80801 10098 20081 30125 40236 57005 60002 700// 333 10109 20084 60007 90710 91103 555 60005=
07070,2012-03-02 19:00:00,9.7,1023.4,-0.5,90,8.1,5000,3.704,7.408,,40,,,0,,,,,,,0,og-post,,,,AAXX 02194 07070 24450 80402 10097 20081 30123 40234 58005 700// 333 60005 90710 91104=
07070,2012-03-02 20:00:00,9.6,1023.5,-0.3,92,8.4,2200,5.556,9.26,,100,,,0,,,,,,,10,og-post,,,,AAXX 02204 07070 24422 81003 10096 20084 30124 40235 55003 710// 333 60005 90710 91105=
07070,2012-03-02 21:00:00,9.5,1023.1,-0.5,92,8.3,2100,9.26,14.816,,110,,,0,0,,,,,,10,og-post,,,,AAXX 02214 07070 24421 81105 10095 20083 30120 40231 58005 710// 333 60007 90710 91108 555 60005=
07070,2012-03-02 22:00:00,9.4,1022.7,-0.7,93,8.3,1900,9.26,12.964,,110,,,0,,,,,,,10,og-post,,,,AAXX 02224 07070 24419 81105 10094 20083 30116 40227 58007 710// 333 60005 90710 91107=
07070,2012-03-02 23:00:00,9.3,1022.6,-0.9,93,8.2,1800,9.26,12.964,,130,,,0,,,,,,,10,og-post,,,,AAXX 02234 07070 24418 81305 10093 20082 30115 40226 56009 710// 333 60005 90710 91107=
07070,2012-03-03 00:00:00,9.2,1022.5,-0.6,93,8.1,1500,3.704,9.26,,170,,,0,0,,,,,,10,og-post,,,,AAXX 03004 07070 04315 81702 10092 20081 30114 40225 56006 60001 710// 333 60007 90710 91105 555 60005=
07070,2012-03-03 01:00:00,9.1,1022.4,-0.3,94,8.2,1400,3.704,5.556,,180,,,0,,,,,,,10,og-post,,,,AAXX 03014 07070 24314 81802 10091 20082 30113 40224 57003 710// 333 60005 90710 91103=
07070,2012-03-03 02:00:00,9,1022.2,-0.4,94,8.1,1400,1.852,5.556,,150,,,0,,,,,,,10,og-post,,,,AAXX 03024 07070 24314 /1501 10090 20081 30111 40222 57004 710// 333 60005 90710 91103=
07070,2012-03-03 03:00:00,8.4,1022,-0.6,94,7.5,1100,9.26,12.964,,170,,,0,0,,,,,,10,og-post,,,,AAXX 03034 07070 24511 81705 10084 20075 30108 40220 58006 710// 333 60007 90710 91107 555 60005=
07070,2012-03-03 04:00:00,8.1,1022,-0.5,95,7.3,1200,7.408,11.112,,200,,,0,,,,,,,10,og-post,,,,AAXX 03044 07070 24512 82004 10081 20073 30108 40220 56005 710// 333 60005 90710 91106=
07070,2012-03-03 05:00:00,7.9,1022.3,-0,95,7.1,1700,5.556,9.26,,210,,,0,,,,,,,10,og-post,,,,AAXX 03054 07070 24517 82103 10079 20071 30111 40223 55000 710// 333 60005 90710 91105=
07070,2012-03-03 06:00:00,8.1,1022.6,0.6,87,6.1,5000,5.556,18.52,,220,7.7,9.8,0,0,,,0,0,8,0,og-post,,,,AAXX 03064 07070 04550 82203 10081 20061 30114 40226 53006 60002 700// 333 10098 20077 30008 55000 60007 70000 90710 91110 555 60005=
07070,2012-03-03 07:00:00,8.1,1023,1,86,5.9,5000,5.556,9.26,,220,,,0,,,,,,,0,og-post,,,,AAXX 03074 07070 24550 82203 10081 20059 30118 40230 53010 700// 333 60005 90710 91105=
07070,2012-03-03 08:00:00,8.7,1023.2,0.9,84,6.1,5000,1.852,9.26,,240,,,0,,,,,,,0,og-post,,,,AAXX 03084 07070 24550 82401 10087 20061 30120 40232 52009 700// 333 60005 90710 91105=
07070,2012-03-03 09:00:00,9.3,1023.4,0.9,79,5.8,6000,9.26,12.964,,240,,,0,0,,,,,,0,og-post,,,,AAXX 03094 07070 24556 82405 10093 20058 30123 40234 51009 700// 333 60007 90710 91107 555 60005=
07070,2012-03-03 10:00:00,10.5,1023.8,0.9,75,6.3,7000,11.112,16.668,,230,,,0,,,,,,,0,og-post,,,,AAXX 03104 07070 24557 82306 10105 20063 30127 40238 53009 700// 333 60005 90710 91109=
07070,2012-03-03 11:00:00,11.2,1024.1,1,72,6.3,9000,11.112,18.52,,240,,,0,,,,,,,0,og-post,,,,AAXX 03114 07070 24459 72406 10112 20063 30130 40241 52010 700// 333 60005 90710 91110=
07070,2012-03-03 12:00:00,11.5,1024.2,0.8,68,5.8,10000,12.964,18.52,,250,,,0,0,,,,,,0,og-post,,,,AAXX 03124 07070 04560 82507 10115 20058 30131 40242 51008 60001 700// 333 60007 90710 91110 555 60005=
07070,2012-03-03 13:00:00,12.1,1023.9,0.2,69,6.6,8000,18.52,25.928,,240,,,0,,,,,,,0,og-post,,,,AAXX 03134 07070 24558 82410 10121 20066 30129 40239 50002 700// 333 60005 90710 91114=
07070,2012-03-03 14:00:00,11.5,1023.9,-0.2,70,6.2,8000,18.52,29.632,,250,,,0,,,,,,,0,og-post,,,,AAXX 03144 07070 24558 82510 10115 20062 30128 40239 58002 700// 333 60005 90710 91116=
07070,2012-03-03 15:00:00,11.3,1023.9,-0.3,72,6.4,9000,12.964,25.928,,240,,,0,0,,,,,,0,og-post,,,,AAXX 03154 07070 24559 82407 10113 20064 30128 40239 56003 700// 333 60007 90710 91114 555 60005=
07070,2012-03-03 16:00:00,11.4,1024,-0,72,6.5,10000,12.964,22.224,,240,,,0,,,,,,,0,og-post,,,,AAXX 03164 07070 24560 82407 10114 20065 30129 40240 55000 700// 333 60005 90710 91112=
07070,2012-03-03 17:00:00,11,1024.2,0.3,76,6.9,10000,18.52,24.076,,240,,,0,,,,,,,0,og-post,,,,AAXX 03174 07070 24560 82410 10110 20069 30131 40242 53003 700// 333 60005 90710 91113=
07070,2012-03-03 18:00:00,9.9,1024.8,0.9,81,6.8,9000,14.816,27.78,,240,8.1,12.2,0,0,,,,,,0,og-post,,,,AAXX 03184 07070 04459 82408 10099 20068 30137 40248 53009 60002 700// 333 10122 20081 60007 90710 91115 555 60005=
07070,2012-03-03 19:00:00,9.6,1024.9,0.9,84,7,8000,12.964,22.224,,230,,,0,,,,,,,0,og-post,,,,AAXX 03194 07070 24458 82307 10096 20070 30138 40249 51009 700// 333 60005 90710 91112=
07070,2012-03-03 20:00:00,9.5,1025.4,1.1,85,7.1,8000,9.26,18.52,,230,,,0,,,,,,,0,og-post,,,,AAXX 03204 07070 24458 82305 10095 20071 30142 40254 51011 700// 333 60005 90710 91110=
07070,2012-03-03 21:00:00,9.4,1025.5,0.6,86,7.2,7000,12.964,16.668,,240,,,0,0,,,,,,0,og-post,,,,AAXX 03214 07070 24457 82407 10094 20072 30143 40255 52006 700// 333 60007 90710 91109 555 60005=
07070,2012-03-03 22:00:00,9,1025.4,0.4,88,7.1,6000,9.26,18.52,,230,,,,,,,,,,0,og-post,,,,AAXX 03224 07070 24456 82305 10090 20071 30142 40254 51004 700// 333 69905 90710 91110=
07070,2012-03-03 23:00:00,8.9,1025.4,-0,88,7,7000,11.112,16.668,,250,,,0,,,,,,,0,og-post,,,,AAXX 03234 07070 24457 82506 10089 20070 30142 40254 54000 700// 333 60005 90710 91109=
07070,2012-03-04 00:00:00,9,1025.4,-0.1,88,7.1,7000,9.26,14.816,,240,,,0,,,,,,,0,og-post,,,,AAXX 04004 07070 04457 82405 10090 20071 30142 40254 55001 69901 700// 333 69907 90710 91108 555 60005=
07070,2012-03-04 01:00:00,8.9,1025.5,0.1,89,7.2,6000,5.556,11.112,,240,,,0,,,,,,,0,og-post,,,,AAXX 04014 07070 24356 82403 10089 20072 30143 40255 53001 700// 333 60005 90710 91106=
07070,2012-03-04 02:00:00,8.8,1024.8,-0.6,89,7.1,6000,5.556,9.26,,240,,,0,,,,,,,0,og-post,,,,AAXX 04024 07070 24356 82403 10088 20071 30136 40248 58006 700// 333 60005 90710 91105=
07070,2012-03-04 03:00:00,8.7,1024.1,-1.3,89,7,5000,1.852,7.408,,270,,,0,0,,,,,,0,og-post,,,,AAXX 04034 07070 24350 82701 10087 20070 30129 40241 58013 700// 333 60007 90710 91104 555 60005=
07070,2012-03-04 04:00:00,8.4,1023.6,-1.9,91,7,4100,3.704,5.556,,110,,,0,,,,,,,10,og-post,,,,AAXX 04044 07070 24341 81102 10084 20070 30124 40236 56019 710// 333 60005 90710 91103=
07070,2012-03-04 05:00:00,8,1022.9,-1.9,93,6.9,3500,11.112,16.668,,160,,,0,,,,,,,10,og-post,,,,AAXX 04054 07070 24335 81606 10080 20069 30117 40229 57019 710// 333 60005 90710 91109=
07070,2012-03-04 06:00:00,7.8,1022.3,-1.8,94,6.9,1800,9.26,14.816,,150,7.8,9.9,0,0,,,0,0.2,8,10,og-post,,,,AAXX 04064 07070 04218 81505 10078 20069 30111 40223 58018 69902 710// 333 10099 20078 30008 55002 60007 79999 90710 91108 555 60005=
07070,2012-03-04 07:00:00,7.9,1021.9,-1.7,95,7.1,2100,9.26,14.816,,160,,,,,,,,,,10,og-post,,,,AAXX 04074 07070 24221 81605 10079 20071 30107 40219 56017 710// 333 69905 90710 91108=
07070,2012-03-04 08:00:00,8.3,1021.6,-1.3,95,7.5,3200,9.26,14.816,,160,,,,,,,,,,58,og-post,,,,AAXX 04084 07070 24232 81605 10083 20075 30104 40216 56013 758// 333 69905 90710 91108=
07070,2012-03-04 09:00:00,9,1021,-1.2,94,8.1,3700,14.816,18.52,,170,,,,,,,,,,10,og-post,,,,AAXX 04094 07070 24237 81708 10090 20081 30099 40210 58012 710// 333 69907 90710 91110 555 69905=
07070,2012-03-04 10:00:00,9.7,1020.6,-1.2,91,8.3,7000,11.112,24.076,,190,,,0,,,,,,,0,og-post,,,,AAXX 04104 07070 24357 81906 10097 20083 30095 40206 57012 700// 333 60005 90710 91113=
07070,2012-03-04 11:00:00,10.7,1019.9,-1.5,78,7,18000,11.112,20.372,,200,,,0,,,,,,,0,og-post,,,,AAXX 04114 07070 24468 72006 10107 20070 30089 40199 58015 700// 333 60005 90710 91111=
07070,2012-03-04 12:00:00,11,1019.1,-1.8,75,6.7,19000,11.112,22.224,,220,,,0,0,,,,,,0,og-post,,,,AAXX 04124 07070 04569 82206 10110 20067 30081 40191 58018 69901 700// 333 60007 90710 91112 555 60005=
07070,2012-03-04 13:00:00,10.6,1017.8,-2.7,78,6.9,17000,22.224,29.632,,170,,,0,,,,,,,0,og-post,,,,AAXX 04134 07070 24467 71712 10106 20069 30068 40178 58027 700// 333 60005 90710 91116=
07070,2012-03-04 14:00:00,11,1017.1,-2.8,76,6.9,19000,14.816,31.484,,190,,,0,,,,,,,0,og-post,,,,AAXX 04144 07070 24569 71908 10110 20069 30061 40171 56028 700// 333 60005 90710 91117=
07070,2012-03-04 15:00:00,11.2,1016.1,-3,76,7.1,18000,18.52,27.78,,180,,,0,0,,,,,,0,og-post,,,,AAXX 04154 07070 24568 81810 10112 20071 30051 40161 56030 700// 333 60007 90710 91115 555 60005=
07070,2012-03-04 16:00:00,10.9,1015,-2.8,81,7.8,18000,18.52,29.632,,170,,,,,,,,,,0,og-post,,,,AAXX 04164 07070 24568 81710 10109 20078 30040 40150 58028 700// 333 69905 90710 91116=
07070,2012-03-04 17:00:00,10.7,1014.4,-2.7,75,6.4,20000,14.816,33.336,,200,,,,,,,,,,61,og-post,,,,AAXX 04174 07070 24670 82008 10107 20064 30034 40144 56027 761// 333 69905 90710 91118=
07070,2012-03-04 18:00:00,9.7,1014.1,-2,81,6.6,12000,14.816,29.632,,190,7.8,11.4,0.6,0.6,,0.6,,,,61,og-post,,,,AAXX 04184 07070 04662 81908 10097 20066 30031 40141 56020 69962 761// 333 10114 20078 69967 90710 91116 555 69965=
07070,2012-03-04 19:00:00,9.1,1013.4,-1.6,90,7.5,9000,18.52,29.632,,180,,,1,,,,,,,61,og-post,,,,AAXX 04194 07070 24559 81810 10091 20075 30024 40134 58016 761// 333 60015 90710 91116=
07070,2012-03-04 20:00:00,8.8,1012.7,-1.7,90,7.2,8000,16.668,29.632,,180,,,2,,,,,,,61,og-post,,,,AAXX 04204 07070 24658 81809 10088 20072 30017 40127 58017 761// 333 60025 90710 91116=
07070,2012-03-04 21:00:00,5.9,1013.9,-0.4,88,4.1,18000,40.744,61.116,61.116,290,,,1,4,,,,,,61,og-post,,,,AAXX 04214 07070 24468 82922 10059 20041 30027 40139 55004 761// 333 60047 91033 90710 91133 555 60015=
07070,2012-03-04 22:00:00,4.7,1015.1,1.5,85,2.4,20000,29.632,55.56,50.004,290,,,,,,,,,,0,og-post,,,,AAXX 04224 07070 24470 82916 10047 20024 30039 40151 53015 700// 333 69905 91027 90710 91130=
07070,2012-03-04 23:00:00,4.4,1015.8,2.8,83,1.8,20000,25.928,55.56,,290,,,,,,,,,,61,og-post,,,,AAXX 04234 07070 24570 82914 10044 20018 30045 40158 51028 761// 333 69905 90710 91130=
07070,2012-03-05 00:00:00,4.3,1016.4,2.4,85,2,15000,27.78,51.856,,290,,,,,4,,,,,60,og-post,,,,AAXX 05004 07070 04465 82915 10043 20020 30051 40164 51024 60041 760// 333 69907 90710 91128 555 69905=
07070,2012-03-05 01:00:00,4.5,1017.2,2,78,1,20000,37.04,55.56,55.56,300,,,,,,,,,,0,og-post,,,,AAXX 05014 07070 24570 83020 10045 20010 30059 40172 53020 700// 333 69905 91030 90710 91130=
07070,2012-03-05 02:00:00,3.8,1017.8,2,85,1.5,12000,29.632,53.708,,290,,,0.2,,,,,,,61,og-post,,,,AAXX 05024 07070 24462 82916 10038 20015 30065 40178 52020 761// 333 69925 90710 91129=
07070,2012-03-05 03:00:00,3.7,1018.1,1.7,85,1.4,19000,33.336,51.856,,280,,,0.2,0.4,,,,,,61,og-post,,,,AAXX 05034 07070 24569 82818 10037 20014 30068 40181 51017 761// 333 69947 90710 91128 555 69925=
07070,2012-03-05 04:00:00,3.7,1018.7,1.5,85,1.4,20000,33.336,53.708,,270,,,0.2,,,,,,,61,og-post,,,,AAXX 05044 07070 24470 82718 10037 20014 30074 40187 52015 761// 333 69925 90710 91129=
07070,2012-03-05 05:00:00,3.4,1019,1.2,85,1.1,15000,29.632,55.56,,270,,,0.2,,,,,,,61,og-post,,,,AAXX 05054 07070 24465 82716 10034 20011 30077 40190 52012 761// 333 69925 90710 91130=
07070,2012-03-05 06:00:00,3.5,1019.3,1.2,84,1,16000,33.336,51.856,,270,3.3,9.7,0.4,0.8,,6,6.2,0,2,61,og-post,,,,AAXX 05064 07070 04466 82718 10035 20010 30080 40193 51012 60062 761// 333 10097 20033 32002 55000 69987 70062 90710 91128 555 69945=
07070,2012-03-05 07:00:00,3.6,1019.6,0.9,81,0.6,19000,33.336,51.856,,270,,,0.2,,,,,,,61,og-post,,,,AAXX 05074 07070 24569 82718 10036 20006 30083 40196 52009 761// 333 69925 90710 91128=
07070,2012-03-05 08:00:00,3,1020.2,1.1,86,0.9,17000,29.632,53.708,,280,,,0.2,,,,,,,61,og-post,,,,AAXX 05084 07070 24467 82816 10030 20009 30088 40202 53011 761// 333 69925 90710 91129=
07070,2012-03-05 09:00:00,3.4,1020.5,1.1,87,1.4,13000,31.484,44.448,,270,,,1,1,,,,,,61,og-post,,,,AAXX 05094 07070 24463 82717 10034 20014 30091 40205 52011 761// 333 60017 90710 91124 555 60015=
07070,2012-03-05 10:00:00,3.1,1020.7,1,88,1.3,16000,27.78,46.3,,260,,,0.4,,,,,,,61,og-post,,,,AAXX 05104 07070 24466 82615 10031 20013 30093 40207 51010 761// 333 69945 90710 91125=
07070,2012-03-05 11:00:00,3.4,1020.7,0.5,89,1.8,17000,20.372,40.744,,260,,,0.4,,,,,,,63,og-post,,,,AAXX 05114 07070 24467 82611 10034 20018 30093 40207 51005 763// 333 69945 90710 91122=
07070,2012-03-05 12:00:00,4,1020,-0.4,86,1.9,19000,29.632,44.448,,250,,,1,2,3,,,,,61,og-post,,,,AAXX 05124 07070 04469 82516 10040 20019 30087 40200 58004 60031 761// 333 60027 90710 91124 555 60015=
07070,2012-03-05 13:00:00,3.8,1020.2,-0.4,87,1.8,10000,31.484,59.264,,280,,,0.6,,,,,,,61,og-post,,,,AAXX 05134 07070 24460 82817 10038 20018 30089 40202 55004 761// 333 69965 90710 91132=
07070,2012-03-05 14:00:00,2.7,1020.2,-0.5,91,1.4,10000,22.224,38.892,,250,,,2,,,,,,,63,og-post,,,,AAXX 05144 07070 24360 82512 10027 20014 30088 40202 56005 763// 333 60025 90710 91121=
07070,2012-03-05 15:00:00,3.3,1020,-0.1,91,2,11000,25.928,42.596,,250,,,1,4,,,,,,61,og-post,,,,AAXX 05154 07070 24461 82514 10033 20020 30086 40200 58001 761// 333 60047 90710 91123 555 60015=
07070,2012-03-05 16:00:00,3.5,1019.6,-0.6,91,2.2,17000,25.928,42.596,,250,,,0.6,,,,,,,61,og-post,,,,AAXX 05164 07070 24467 82514 10035 20022 30083 40196 58006 761// 333 69965 90710 91123=
07070,2012-03-05 17:00:00,3.7,1019.5,-0.6,89,2.1,19000,29.632,48.152,48.152,260,,,0.2,,,,,,,61,og-post,,,,AAXX 05174 07070 24469 82616 10037 20021 30082 40195 56006 761// 333 69925 91026 90710 91126=
07070,2012-03-05 18:00:00,3.4,1019.6,-0.3,90,1.9,13000,24.076,44.448,,250,2.7,4.7,0.4,1,,9,,,,61,og-post,,,,AAXX 05184 07070 04463 82513 10034 20019 30083 40196 55003 60092 761// 333 10047 20027 60017 90710 91124 555 69945=
07070,2012-03-05 19:00:00,3.5,1019.4,-0.2,91,2.2,12000,24.076,38.892,,240,,,0.6,,,,,,,61,og-post,,,,AAXX 05194 07070 24462 82413 10035 20022 30081 40194 58002 761// 333 69965 90710 91121=
07070,2012-03-05 20:00:00,3.8,1019.3,-0.2,91,2.5,13000,24.076,35.188,,250,,,0.4,,,,,,,61,og-post,,,,AAXX 05204 07070 24463 82513 10038 20025 30080 40193 58002 761// 333 69945 90710 91119=
07070,2012-03-05 21:00:00,4,1019.3,-0.3,89,2.3,19000,22.224,35.188,,260,,,,1,,,,,,58,og-post,,,,AAXX 05214 07070 24469 82612 10040 20023 30080 40193 56003 758// 333 60017 90710 91119 555 69905=
07070,2012-03-05 22:00:00,3.9,1019.3,-0.1,89,2.3,15000,24.076,35.188,,260,,,0.2,,,,,,,60,og-post,,,,AAXX 05224 07070 24465 82613 10039 20023 30080 40193 56001 760// 333 69925 90710 91119=
07070,2012-03-05 23:00:00,3.6,1019.5,0.2,90,2.1,11000,22.224,31.484,,260,,,0.2,,,,,,,61,og-post,,,,AAXX 05234 07070 24461 82612 10036 20021 30082 40195 53002 761// 333 69925 90710 91117=
07070,2012-03-06 00:00:00,3.6,1019.5,0.2,91,2.3,13000,16.668,31.484,,250,,,,0.4,1,,,,,0,og-post,,,,AAXX 06004 07070 04363 82509 10036 20023 30082 40195 52002 60011 700// 333 69947 90710 91117 555 69905=
07070,2012-03-06 01:00:00,3.5,1019.8,0.5,92,2.3,10000,14.816,24.076,,240,,,,,,,,,,60,og-post,,,,AAXX 06014 07070 24360 82408 10035 20023 30085 40198 53005 760// 333 69905 90710 91113=
07070,2012-03-06 02:00:00,3.3,1019.9,0.3,91,2,13000,16.668,27.78,,260,,,0.2,,,,,,,61,og-post,,,,AAXX 06024 07070 24463 82609 10033 20020 30085 40199 52003 761// 333 69925 90710 91115=
07070,2012-03-06 03:00:00,3.2,1020,0.4,93,2.2,11000,12.964,18.52,,260,,,0.2,0.4,,,,,,0,og-post,,,,AAXX 06034 07070 24461 82607 10032 20022 30086 40200 51004 700// 333 69947 90710 91110 555 69925=
07070,2012-03-06 04:00:00,3.3,1020.2,0.3,93,2.3,11000,11.112,16.668,,260,,,0,,,,,,,0,og-post,,,,AAXX 06044 07070 24361 82606 10033 20023 30088 40202 53003 700// 333 60005 90710 91109=
07070,2012-03-06 05:00:00,3.3,1020.9,1,93,2.3,9000,7.408,12.964,,260,,,0,,,,,,,0,og-post,,,,AAXX 06054 07070 24459 82604 10033 20023 30095 40209 53010 700// 333 60005 90710 91107=
07070,2012-03-06 06:00:00,2.8,1021.3,1.3,93,1.8,6000,7.408,11.112,,260,2.8,4,0,0,,2,10.3,0,2,0,og-post,,,,AAXX 06064 07070 04456 62604 10028 20018 30099 40213 53013 60022 700// 333 10040 20028 31002 55000 60007 70103 90710 91106 555 60005=
07070,2012-03-06 07:00:00,3.6,1021.9,1.7,92,2.4,8000,3.704,11.112,,220,,,,,,,,,,61,og-post,,,,AAXX 06074 07070 24458 82202 10036 20024 30105 40219 51017 761// 333 69905 90710 91106=
07070,2012-03-06 08:00:00,4.1,1022.8,1.9,90,2.6,8000,5.556,9.26,,210,,,,,,,,,,0,og-post,,,,AAXX 06084 07070 24458 82103 10041 20026 30114 40228 53019 700// 333 69905 90710 91105=
07070,2012-03-06 09:00:00,4.5,1023.4,2.2,87,2.5,11000,5.556,7.408,,170,,,0,,,,,,,0,og-post,,,,AAXX 06094 07070 24561 81703 10045 20025 30121 40234 53022 700// 333 69907 90710 91104 555 60005=
07070,2012-03-06 10:00:00,5.3,1024.1,2.3,81,2.3,12000,3.704,9.26,,160,,,0,,,,,,,0,og-post,,,,AAXX 06104 07070 24462 81602 10053 20023 30128 40241 51023 700// 333 60005 90710 91105=
07070,2012-03-06 11:00:00,6.9,1024.5,1.8,72,2.2,16000,5.556,11.112,,160,,,0,,,,,,,0,og-post,,,,AAXX 06114 07070 24666 81603 10069 20022 30132 40245 51018 700// 333 60005 90710 91106=
07070,2012-03-06 12:00:00,7.1,1024.8,1.4,68,1.6,16000,3.704,12.964,,210,,,0,0,,,,,,0,og-post,,,,AAXX 06124 07070 04566 62102 10071 20016 30135 40248 51014 69901 700// 333 60007 90710 91107 555 60005=
07070,2012-03-06 13:00:00,7,1025.2,1.1,71,2.1,14000,7.408,12.964,,160,,,0,,,,,,,0,og-post,,,,AAXX 06134 07070 24564 81604 10070 20021 30139 40252 52011 700// 333 60005 90710 91107=
07070,2012-03-06 14:00:00,7,1025.4,0.9,69,1.7,17000,12.964,18.52,,210,,,0,,,,,,,0,og-post,,,,AAXX 06144 07070 24567 82107 10070 20017 30141 40254 52009 700// 333 60005 90710 91110=
07070,2012-03-06 15:00:00,7.4,1025.9,1.1,65,1.2,19000,7.408,14.816,,300,,,0,0,,,,,,0,og-post,,,,AAXX 06154 07070 24769 73004 10074 20012 30146 40259 53011 700// 333 60007 90710 91108 555 60005=
07070,2012-03-06 16:00:00,7.9,1026,0.9,58,0.1,20000,5.556,11.112,,270,,,0,,,,,,,0,og-post,,,,AAXX 06164 07070 24570 82703 10079 20001 30148 40260 52009 700// 333 60005 90710 91106=
07070,2012-03-06 17:00:00,6.6,1026.6,1.2,75,2.5,17000,7.408,14.816,,350,,,0,,,,,,,0,og-post,,,,AAXX 06174 07070 24667 83504 10066 20025 30153 40266 52012 700// 333 60005 90710 91108=
07070,2012-03-06 18:00:00,5.9,1027.3,1.4,79,2.5,16000,3.704,7.408,,320,2.8,9,0,0,,,,,,0,og-post,,,,AAXX 06184 07070 04666 83202 10059 20025 30160 40273 53014 69902 700// 333 10090 20028 60007 90710 91104 555 60005=
07070,2012-03-06 19:00:00,5.4,1027.8,1.6,81,2.4,17000,5.556,5.556,,310,,,0,,,,,,,0,og-post,,,,AAXX 06194 07070 24767 83103 10054 20024 30164 40278 51016 700// 333 60005 90710 91103=
07070,2012-03-06 20:00:00,4,1028,1.3,85,1.7,13000,5.556,7.408,,290,,,0,,,,,,,0,og-post,,,,AAXX 06204 07070 24963 /2903 10040 20017 30166 40280 51013 700// 333 60005 90710 91104=
07070,2012-03-06 21:00:00,1.5,1028.4,0.9,89,-0.1,5000,7.408,11.112,,160,,,0,0,,,,,,0,og-post,,,,AAXX 06214 07070 24950 /1604 10015 21001 30169 40284 51009 700// 333 60007 90710 91106 555 60005=
07070,2012-03-06 22:00:00,0.4,1028.3,0.3,93,-0.6,5000,1.852,7.408,,270,,,0,,,,,,,0,og-post,,,,AAXX 06224 07070 24950 /2701 10004 21006 30167 40283 50003 700// 333 60005 90710 91104=
07070,2012-03-06 23:00:00,0.4,1028.6,0.4,94,-0.5,4000,,3.704,,,,,0,,,,,,,10,og-post,,,,AAXX 06234 07070 24940 /0000 10004 21005 30170 40286 52004 710// 333 60005 90710 91102=
07070,2012-03-07 00:00:00,-0.1,1028.3,-0.2,95,-0.8,3700,1.852,9.26,,190,,,0,0,,,,,,10,og-post,,,,AAXX 07004 07070 04937 /1901 11001 21008 30167 40283 58002 60001 710// 333 60007 90710 91105 555 60005=
07070,2012-03-07 01:00:00,-0.2,1028.6,0.3,95,-0.9,3500,1.852,5.556,,230,,,0,,,,,,,10,og-post,,,,AAXX 07014 07070 24935 /2301 11002 21009 30170 40286 52003 710// 333 60005 90710 91103=
07070,2012-03-07 02:00:00,-0.6,1027.7,-0.9,96,-1.2,2700,3.704,7.408,,190,,,0,,,,,,,10,og-post,,,,AAXX 07024 07070 24927 /1902 11006 21012 30161 40277 58009 710// 333 60005 90710 91104=
07070,2012-03-07 03:00:00,-0.1,1027.5,-0.8,96,-0.7,3700,3.704,11.112,,220,,,0,0,,,,,,10,og-post,,,,AAXX 07034 07070 24937 /2202 11001 21007 30159 40275 58008 710// 333 60007 90710 91106 555 60005=
07070,2012-03-07 04:00:00,0,1027,-1.6,96,-0.6,4100,9.26,11.112,,190,,,0,,,,,,,10,og-post,,,,AAXX 07044 07070 24941 /1905 10000 21006 30154 40270 56016 710// 333 60005 90710 91106=
07070,2012-03-07 05:00:00,-0.6,1027,-0.7,96,-1.2,4200,3.704,9.26,,190,,,0,,,,,,,10,og-post,,,,AAXX 07054 07070 24942 /1902 11006 21012 30154 40270 56007 710// 333 60005 90710 91105=
07070,2012-03-07 06:00:00,-0.6,1027.2,-0.3,96,-1.2,3900,11.112,12.964,,190,-0.8,6,0,0,,,0,1.1,-5,10,og-post,,,,AAXX 07064 07070 04939 /1906 11006 21012 30156 40272 55003 60002 710// 333 10060 21008 30105 55011 60007 79999 90710 91107 555 60005=
07070,2012-03-07 07:00:00,0.3,1027.1,0.1,96,-0.3,3000,7.408,11.112,,200,,,0,,,,,,,10,og-post,,,,AAXX 07074 07070 24930 /2004 10003 21003 30155 40271 50001 710// 333 60005 90710 91106=
07070,2012-03-07 08:00:00,1.5,1026.8,-0.1,96,0.9,2400,9.26,11.112,,210,,,0,,,,,,,10,og-post,,,,AAXX 07084 07070 24924 /2105 10015 20009 30153 40268 58001 710// 333 60005 90710 91106=
07070,2012-03-07 09:00:00,4,1026.1,-0.9,89,2.3,6000,11.112,16.668,,220,,,0,0,,,,,,0,og-post,,,,AAXX 07094 07070 24956 /2206 10040 20023 30147 40261 58009 700// 333 60007 90710 91109 555 60005=
07070,2012-03-07 10:00:00,5.7,1025.5,-1.3,80,2.5,9000,16.668,31.484,,230,,,0,,,,,,,0,og-post,,,,AAXX 07104 07070 24959 /2309 10057 20025 30142 40255 58013 700// 333 60005 90710 91117=
07070,2012-03-07 11:00:00,6.4,1024.4,-2.2,74,2.1,11000,20.372,37.04,,220,,,0,,,,,,,0,og-post,,,,AAXX 07114 07070 24561 72211 10064 20021 30131 40244 58022 700// 333 60005 90710 91120=
07070,2012-03-07 12:00:00,6.9,1023.5,-2.5,67,1.2,18000,25.928,38.892,,220,,,0,0,,,,,,0,og-post,,,,AAXX 07124 07070 04968 72214 10069 20012 30122 40235 58025 60001 700// 333 60007 90710 91121 555 60005=
07070,2012-03-07 13:00:00,6.8,1021.9,-3.5,68,1.3,19000,24.076,40.744,,220,,,0,,,,,,,0,og-post,,,,AAXX 07134 07070 24969 72213 10068 20013 30107 40219 58035 700// 333 60005 90710 91122=
07070,2012-03-07 14:00:00,7,1020.8,-3.5,69,1.7,19000,18.52,37.04,,220,,,0,,,,,,,0,og-post,,,,AAXX 07144 07070 24969 72210 10070 20017 30096 40208 58035 700// 333 60005 90710 91120=
07070,2012-03-07 15:00:00,6.7,1020.2,-3.2,69,1.4,19000,24.076,42.596,,230,,,,,,,,,,61,og-post,,,,AAXX 07154 07070 24569 82313 10067 20014 30090 40202 56032 761// 333 69907 90710 91123 555 69905=
07070,2012-03-07 16:00:00,5.6,1019.2,-2.8,80,2.4,11000,25.928,44.448,,210,,,0.8,,,,,,,60,og-post,,,,AAXX 07164 07070 24561 82114 10056 20024 30079 40192 57028 760// 333 69985 90710 91124=
07070,2012-03-07 17:00:00,4.3,1018.8,-2.1,86,2.2,11000,29.632,50.004,48.152,220,,,2,,,,,,,61,og-post,,,,AAXX 07174 07070 24461 82216 10043 20022 30075 40188 56021 761// 333 60025 91026 90710 91127=
07070,2012-03-07 18:00:00,3.9,1018.6,-1.7,89,2.3,11000,27.78,44.448,,220,-0.6,7.2,1,4,,4,,,,61,og-post,,,,AAXX 07184 07070 04461 82215 10039 20023 30073 40186 56017 60042 761// 333 10072 21006 60047 90710 91124 555 60015=
07070,2012-03-07 19:00:00,4.8,1018.2,-1,88,3,17000,27.78,50.004,,240,,,0.4,,,,,,,0,og-post,,,,AAXX 07194 07070 24467 82415 10048 20030 30069 40182 57010 700// 333 69945 90710 91127=
07070,2012-03-07 20:00:00,5.4,1018.2,-0.5,89,3.7,14000,22.224,50.004,,240,,,,,,,,,,50,og-post,,,,AAXX 07204 07070 24464 82412 10054 20037 30070 40182 55005 750// 333 69905 90710 91127=
07070,2012-03-07 21:00:00,5.4,1018.8,0.2,92,4.2,6000,16.668,38.892,,240,,,0.6,1,,,,,,0,og-post,,,,AAXX 07214 07070 24656 82409 10054 20042 30075 40188 53002 700// 333 60017 90710 91121 555 69965=
07070,2012-03-07 22:00:00,6,1019.3,1.2,92,4.8,7000,11.112,22.224,,280,,,0,,,,,,,0,og-post,,,,AAXX 07224 07070 24557 82806 10060 20048 30081 40193 53012 700// 333 60005 90710 91112=
07070,2012-03-07 23:00:00,6.4,1020.1,1.9,88,4.6,19000,18.52,25.928,,310,,,,,,,,,,0,og-post,,,,AAXX 07234 07070 24569 83110 10064 20046 30089 40201 53019 700// 333 69905 90710 91114=
07070,2012-03-08 00:00:00,6.2,1021.1,2.4,82,3.4,20000,25.928,35.188,,330,,,,,1,,,,,0,og-post,,,,AAXX 08004 07070 04870 83314 10062 20034 30099 40211 53024 60011 700// 333 69907 90710 91119 555 69905=
07070,2012-03-08 01:00:00,5.5,1022.4,3,77,1.8,20000,27.78,38.892,,330,,,0,,,,,,,0,og-post,,,,AAXX 08014 07070 24670 73315 10055 20018 30111 40224 53030 700// 333 60005 90710 91121=
07070,2012-03-08 02:00:00,4.6,1023.3,3.1,77,0.9,20000,24.076,44.448,,320,,,0,,,,,,,0,og-post,,,,AAXX 08024 07070 24770 63213 10046 20009 30120 40233 51031 700// 333 60005 90710 91124=
07070,2012-03-08 03:00:00,3.9,1024.3,3,77,0.2,20000,22.224,38.892,,320,,,0,0,,,,,,0,og-post,,,,AAXX 08034 07070 24770 /3212 10039 20002 30129 40243 51030 700// 333 60007 90710 91121 555 60005=
07070,2012-03-08 04:00:00,2.9,1025.3,2.8,80,-0.2,20000,18.52,35.188,,310,,,0,,,,,,,0,og-post,,,,AAXX 08044 07070 24970 /3110 10029 21002 30139 40253 53028 700// 333 60005 90710 91119=
07070,2012-03-08 05:00:00,2.7,1026.2,2.7,81,-0.2,20000,20.372,31.484,,330,,,0,,,,,,,0,og-post,,,,AAXX 08054 07070 24970 /3311 10027 21002 30147 40262 52027 700// 333 60005 90710 91117=
07070,2012-03-08 06:00:00,2.3,1027.4,3,82,-0.5,20000,18.52,29.632,,330,2.1,6.5,0,0,,1,4.6,0.1,1,0,og-post,,,,AAXX 08064 07070 04970 /3310 10023 21005 30159 40274 53030 60012 700// 333 10065 20021 3/001 55001 60007 70046 90710 91116 555 60005=
07070,2012-03-08 07:00:00,2.6,1028.4,3,81,-0.3,20000,16.668,25.928,,320,,,0,,,,,,,0,og-post,,,,AAXX 08074 07070 24970 /3209 10026 21003 30169 40284 53030 700// 333 60005 90710 91114=
07070,2012-03-08 08:00:00,4.6,1029.6,3.5,76,0.7,20000,16.668,24.076,,330,,,0,,,,,,,0,og-post,,,,AAXX 08084 07070 24970 /3309 10046 20007 30182 40296 53035 700// 333 60005 90710 91113=
07070,2012-03-08 09:00:00,6.2,1030.4,3.1,71,1.3,20000,18.52,27.78,,350,,,0,0,,,,,,0,og-post,,,,AAXX 08094 07070 24970 /3510 10062 20013 30190 40304 51031 700// 333 60007 90710 91115 555 60005=
07070,2012-03-08 10:00:00,7.3,1031.3,3.1,69,2,20000,22.224,33.336,,360,,,0,,,,,,,0,og-post,,,,AAXX 08104 07070 24570 /3612 10073 20020 30200 40313 51031 700// 333 60005 90710 91118=
07070,2012-03-08 11:00:00,7.5,1031.8,2.3,69,2.2,19000,18.52,31.484,,350,,,0,,,,,,,0,og-post,,,,AAXX 08114 07070 24569 /3510 10075 20022 30205 40318 51023 700// 333 60005 90710 91117=
07070,2012-03-08 12:00:00,8.2,1032.2,1.9,60,0.9,19000,16.668,27.78,,320,,,0,0,,,,,,0,og-post,,,,AAXX 08124 07070 04569 /3209 10082 20009 30209 40322 51019 60001 700// 333 60007 90710 91115 555 60005=
07070,2012-03-08 13:00:00,8.7,1032.3,1,56,0.4,20000,16.668,25.928,,330,,,0,,,,,,,0,og-post,,,,AAXX 08134 07070 24570 63309 10087 20004 30210 40323 51010 700// 333 60005 90710 91114=
07070,2012-03-08 14:00:00,8.8,1032.6,0.8,55,0.2,20000,9.26,27.78,,350,,,0,,,,,,,0,og-post,,,,AAXX 08144 07070 24670 73505 10088 20002 30213 40326 51008 700// 333 60005 90710 91115=
07070,2012-03-08 15:00:00,8.6,1033,0.8,58,0.8,20000,14.816,24.076,,320,,,0,0,,,,,,0,og-post,,,,AAXX 08154 07070 24670 83208 10086 20008 30217 40330 53008 700// 333 60007 90710 91113 555 60005=
07070,2012-03-08 16:00:00,8.2,1033.6,1.3,62,1.3,20000,11.112,24.076,,10,,,0,,,,,,,0,og-post,,,,AAXX 08164 07070 24770 80106 10082 20013 30223 40336 53013 700// 333 60005 90710 91113=
07070,2012-03-08 17:00:00,7.8,1034.1,1.5,64,1.4,20000,11.112,16.668,,330,,,0,,,,,,,0,og-post,,,,AAXX 08174 07070 24870 83306 10078 20014 30228 40341 53015 700// 333 60005 90710 91109=
07070,2012-03-08 18:00:00,6.9,1034.9,1.8,68,1.4,20000,7.408,12.964,,340,1.8,9.5,0,0,,,,,,0,og-post,,,,AAXX 08184 07070 04670 83404 10069 20014 30235 40349 53018 60002 700// 333 10095 20018 60007 90710 91107 555 60005=
07070,2012-03-08 19:00:00,6,1035.3,1.6,73,1.5,16000,3.704,9.26,,290,,,0,,,,,,,0,og-post,,,,AAXX 08194 07070 24766 /2902 10060 20015 30239 40353 51016 700// 333 60005 90710 91105=
07070,2012-03-08 20:00:00,3.9,1036.3,2,80,0.8,15000,3.704,5.556,,320,,,0,,,,,,,0,og-post,,,,AAXX 08204 07070 24765 /3202 10039 20008 30248 40363 53020 700// 333 60005 90710 91103=
07070,2012-03-08 21:00:00,3.4,1036.4,1.4,84,1,14000,5.556,7.408,,300,,,0,0,,,,,,0,og-post,,,,AAXX 08214 07070 24964 /3003 10034 20010 30249 40364 51014 700// 333 60007 90710 91104 555 60005=
07070,2012-03-08 22:00:00,1.8,1037,1.5,88,0,12000,1.852,7.408,,240,,,0,,,,,,,0,og-post,,,,AAXX 08224 07070 24962 /2401 10018 20000 30254 40370 51015 700// 333 60005 90710 91104=
07070,2012-03-08 23:00:00,1.4,1037.5,1.1,86,-0.7,11000,1.852,5.556,,220,,,0,,,,,,,0,og-post,,,,AAXX 08234 07070 24961 /2201 10014 21007 30259 40375 53011 700// 333 60005 90710 91103=
07070,2012-03-09 00:00:00,0.9,1037.7,1.1,92,-0.3,10000,3.704,5.556,,240,,,0,0,,,,,,0,og-post,,,,AAXX 09004 07070 04960 /2402 10009 21003 30260 40377 51011 60001 700// 333 60007 90710 91103 555 60005=
07070,2012-03-09 01:00:00,-0.3,1037.8,0.7,93,-1.3,7000,7.408,7.408,,170,,,0,,,,,,,0,og-post,,,,AAXX 09014 07070 24957 /1704 11003 21013 30261 40378 51007 700// 333 60005 90710 91104=
07070,2012-03-09 02:00:00,-0.3,1037.9,0.3,92,-1.4,9000,1.852,7.408,,320,,,0,,,,,,,0,og-post,,,,AAXX 09024 07070 24959 83201 11003 21014 30262 40379 52003 700// 333 60005 90710 91104=
07070,2012-03-09 03:00:00,0.6,1037.5,-0.2,93,-0.4,9000,3.704,5.556,,270,,,0,0,,,,,,0,og-post,,,,AAXX 09034 07070 24959 82702 10006 21004 30258 40375 58002 700// 333 60007 90710 91103 555 60005=
07070,2012-03-09 04:00:00,-0.2,1037.9,0.1,93,-1.2,6000,5.556,7.408,,140,,,0,,,,,,,0,og-post,,,,AAXX 09044 07070 24956 61403 11002 21012 30262 40379 53001 700// 333 60005 90710 91104=
07070,2012-03-09 05:00:00,0.7,1038,0.1,94,-0.2,7000,9.26,11.112,,170,,,0,,,,,,,0,og-post,,,,AAXX 09054 07070 24957 81705 10007 21002 30263 40380 53001 700// 333 60005 90710 91106=
07070,2012-03-09 06:00:00,1.3,1038,0.6,94,0.4,4300,7.408,11.112,,190,-0.4,6.9,0,0,,,0,5.7,-4,10,og-post,,,,AAXX 09064 07070 04943 81904 10013 20004 30264 40380 51006 60002 710// 333 10069 21004 30104 55057 60007 70000 90710 91106 555 60005=
07070,2012-03-09 07:00:00,2.3,1038.5,0.7,93,1.3,7000,,9.26,,,,,0,,,,,,,0,og-post,,,,AAXX 09074 07070 24957 80000 10023 20013 30269 40385 53007 700// 333 60005 90710 91105=
07070,2012-03-09 08:00:00,4.7,1038.7,0.9,85,2.4,10000,5.556,11.112,,220,,,0,,,,,,,0,og-post,,,,AAXX 09084 07070 24960 /2203 10047 20024 30272 40387 53009 700// 333 60005 90710 91106=
07070,2012-03-09 09:00:00,7.6,1038.8,1,69,2.3,14000,5.556,9.26,,200,,,0,0,,,,,,0,og-post,,,,AAXX 09094 07070 24964 /2003 10076 20023 30274 40388 51010 700// 333 60007 90710 91105 555 60005=
07070,2012-03-09 10:00:00,9.8,1039.1,0.9,57,1.7,19000,5.556,11.112,,200,,,0,,,,,,,0,og-post,,,,AAXX 09104 07070 24969 /2003 10098 20017 30278 40391 53009 700// 333 60005 90710 91106=
07070,2012-03-09 11:00:00,10.2,1038.8,0.3,55,1.6,18000,5.556,12.964,,240,,,0,,,,,,,0,og-post,,,,AAXX 09114 07070 24668 /2403 10102 20016 30275 40388 50003 700// 333 60005 90710 91107=
07070,2012-03-09 12:00:00,11.6,1038.4,-0.2,50,1.5,19000,5.556,12.964,,230,,,0,0,,,,,,0,og-post,,,,AAXX 09124 07070 04669 /2303 10116 20015 30272 40384 58002 60001 700// 333 60007 90710 91107 555 60005=
07070,2012-03-09 13:00:00,11.5,1037.8,-1.2,47,0.6,17000,3.704,14.816,,250,,,0,,,,,,,0,og-post,,,,AAXX 09134 07070 24667 /2502 10115 20006 30266 40378 58012 700// 333 60005 90710 91108=
07070,2012-03-09 14:00:00,11.7,1037.5,-1.2,48,1,19000,3.704,14.816,,160,,,0,,,,,,,0,og-post,,,,AAXX 09144 07070 24669 /1602 10117 20010 30263 40375 57012 700// 333 60005 90710 91108=
07070,2012-03-09 15:00:00,11.8,1037.2,-1.2,48,1.1,20000,7.408,11.112,,290,,,0,0,,,,,,0,og-post,,,,AAXX 09154 07070 24970 /2904 10118 20011 30260 40372 56012 700// 333 60007 90710 91106 555 60005=
07070,2012-03-09 16:00:00,12.4,1036.9,-0.9,47,1.4,20000,7.408,11.112,,270,,,0,,,,,,,0,og-post,,,,AAXX 09164 07070 24970 /2704 10124 20014 30257 40369 57009 700// 333 60005 90710 91106=
07070,2012-03-09 17:00:00,10.8,1037.1,-0.4,54,1.9,20000,5.556,12.964,,290,,,0,,,,,,,0,og-post,,,,AAXX 09174 07070 24970 /2903 10108 20019 30259 40371 55004 700// 333 60005 90710 91107=
07070,2012-03-09 18:00:00,9.4,1037.5,0.2,60,2,20000,3.704,7.408,,300,1.3,12.7,0,0,,,,,,0,og-post,,,,AAXX 09184 07070 04970 83002 10094 20020 30262 40375 53002 60002 700// 333 10127 20013 60007 90710 91104 555 60005=
07070,2012-03-09 19:00:00,7.1,1037.6,0.5,79,3.7,14000,7.408,7.408,,180,,,0,,,,,,,0,og-post,,,,AAXX 09194 07070 24964 81804 10071 20037 30262 40376 51005 700// 333 60005 90710 91104=
07070,2012-03-09 20:00:00,6.9,1037.8,0.5,81,3.9,13000,5.556,11.112,,190,,,0,,,,,,,0,og-post,,,,AAXX 09204 07070 24663 81903 10069 20039 30264 40378 52005 700// 333 60005 90710 91106=
07070,2012-03-09 21:00:00,6.9,1037.8,0.2,84,4.4,10000,7.408,9.26,,180,,,0,0,,,,,,0,og-post,,,,AAXX 09214 07070 24660 81804 10069 20044 30264 40378 52002 700// 333 60007 90710 91105 555 60005=
07070,2012-03-09 22:00:00,7.3,1037.9,0.3,78,3.7,12000,5.556,7.408,,200,,,0,,,,,,,0,og-post,,,,AAXX 09224 07070 24662 82003 10073 20037 30265 40379 51003 700// 333 60005 90710 91104=
07070,2012-03-09 23:00:00,6.6,1037.7,-0.1,76,2.7,15000,5.556,7.408,,230,,,0,,,,,,,0,og-post,,,,AAXX 09234 07070 24665 /2303 10066 20027 30263 40377 58001 700// 333 60005 90710 91104=
07070,2012-03-10 00:00:00,5.9,1037.9,0.1,85,3.6,12000,,7.408,,,,,0,0,,,,,,0,og-post,,,,AAXX 10004 07070 04662 80000 10059 20036 30265 40379 53001 60001 700// 333 60007 90710 91104 555 60005=
07070,2012-03-10 01:00:00,6.8,1037.9,-0,80,3.6,14000,1.852,3.704,,290,,,0,,,,,,,0,og-post,,,,AAXX 10014 07070 24664 82901 10068 20036 30265 40379 55000 700// 333 60005 90710 91102=
07070,2012-03-10 02:00:00,6.4,1037.8,0.1,83,3.7,12000,3.704,3.704,,220,,,0,,,,,,,0,og-post,,,,AAXX 10024 07070 24662 82202 10064 20037 30264 40378 51001 700// 333 60005 90710 91102=
07070,2012-03-10 03:00:00,6.7,1037.4,-0.5,82,3.8,12000,7.408,11.112,,220,,,0,0,,,,,,0,og-post,,,,AAXX 10034 07070 24662 82204 10067 20038 30260 40374 58005 700// 333 60007 90710 91106 555 60005=
07070,2012-03-10 04:00:00,7.2,1037.2,-0.7,79,3.8,14000,7.408,12.964,,250,,,0,,,,,,,0,og-post,,,,AAXX 10044 07070 24664 82504 10072 20038 30258 40372 58007 700// 333 60005 90710 91107=
07070,2012-03-10 05:00:00,6.9,1037.6,-0.2,80,3.7,13000,5.556,12.964,,280,,,0,,,,,,,0,og-post,,,,AAXX 10054 07070 24663 82803 10069 20037 30262 40376 55002 700// 333 60005 90710 91107=
07070,2012-03-10 06:00:00,6.8,1037.6,0.2,84,4.3,11000,5.556,7.408,,260,5.5,9.4,0,0,,,0,7.7,4,0,og-post,,,,AAXX 10064 07070 04661 82603 10068 20043 30262 40376 53002 60002 700// 333 10094 20055 30004 55077 60007 70000 90710 91104 555 60005=
07070,2012-03-10 07:00:00,7.2,1037.5,0.3,85,4.8,13000,7.408,9.26,,250,,,0,,,,,,,0,og-post,,,,AAXX 10074 07070 24563 82504 10072 20048 30261 40375 50003 700// 333 60005 90710 91105=
07070,2012-03-10 08:00:00,8.1,1037.7,0.1,82,5.2,12000,11.112,14.816,,260,,,0,,,,,,,0,og-post,,,,AAXX 10084 07070 24562 82606 10081 20052 30263 40377 53001 700// 333 60005 90710 91108=
07070,2012-03-10 09:00:00,8.8,1037.6,0.1,82,5.9,14000,11.112,14.816,,260,,,0,0,,,,,,0,og-post,,,,AAXX 10094 07070 24464 82606 10088 20059 30263 40376 53001 700// 333 60007 90710 91108 555 60005=
07070,2012-03-10 10:00:00,10.1,1037.7,0.3,82,7.2,18000,11.112,18.52,,300,,,0,,,,,,,0,og-post,,,,AAXX 10104 07070 24468 83006 10101 20072 30264 40377 52003 700// 333 60005 90710 91110=
07070,2012-03-10 11:00:00,10.3,1037.8,0.2,80,7,16000,14.816,20.372,,320,,,0,,,,,,,0,og-post,,,,AAXX 10114 07070 24466 83208 10103 20070 30265 40378 53002 700// 333 60005 90710 91111=
07070,2012-03-10 12:00:00,10.7,1037.7,0.2,81,7.6,12000,11.112,18.52,,310,,,0,0,,,,,,0,og-post,,,,AAXX 10124 07070 04562 83106 10107 20076 30265 40377 51002 60001 700// 333 60007 90710 91110 555 60005=
07070,2012-03-10 13:00:00,11.5,1037,-0.6,76,7.4,17000,11.112,14.816,,300,,,0,,,,,,,0,og-post,,,,AAXX 10134 07070 24467 83006 10115 20074 30258 40370 58006 700// 333 60005 90710 91108=
07070,2012-03-10 14:00:00,11.6,1036.5,-1.2,74,7.1,19000,11.112,18.52,,320,,,0,,,,,,,0,og-post,,,,AAXX 10144 07070 24469 83206 10116 20071 30253 40365 58012 700// 333 60005 90710 91110=
07070,2012-03-10 15:00:00,11.1,1036.4,-1.3,79,7.6,15000,9.26,20.372,,320,,,0,0,,,,,,0,og-post,,,,AAXX 10154 07070 24465 83205 10111 20076 30252 40364 56013 700// 333 60007 90710 91111 555 60005=
07070,2012-03-10 16:00:00,11.1,1036.3,-0.7,80,7.8,15000,5.556,14.816,,330,,,0,,,,,,,0,og-post,,,,AAXX 10164 07070 24465 83303 10111 20078 30251 40363 56007 700// 333 60005 90710 91108=
07070,2012-03-10 17:00:00,10.8,1036.3,-0.2,82,7.8,12000,5.556,12.964,,330,,,0,,,,,,,0,og-post,,,,AAXX 10174 07070 24462 83303 10108 20078 30251 40363 56002 700// 333 60005 90710 91107=
07070,2012-03-10 18:00:00,10.6,1036.3,-0.1,84,8,12000,5.556,9.26,,270,6.6,11.8,0,0,,,,,,0,og-post,,,,AAXX 10184 07070 04562 82703 10106 20080 30251 40363 56001 60002 700// 333 10118 20066 60007 90710 91105 555 60005=
07070,2012-03-10 19:00:00,9.2,1036.5,0.1,88,7.3,8000,5.556,7.408,,240,,,0,,,,,,,0,og-post,,,,AAXX 10194 07070 24458 62403 10092 20073 30252 40365 53001 700// 333 60005 90710 91104=
07070,2012-03-10 20:00:00,9.1,1036.7,0.3,90,7.5,8000,5.556,7.408,,280,,,0,,,,,,,0,og-post,,,,AAXX 10204 07070 24458 82803 10091 20075 30254 40367 53003 700// 333 60005 90710 91104=
07070,2012-03-10 21:00:00,9.4,1036.4,0,89,7.7,9000,5.556,9.26,,290,,,0,0,,,,,,0,og-post,,,,AAXX 10214 07070 24459 82903 10094 20077 30251 40364 50000 700// 333 60007 90710 91105 555 60005=
07070,2012-03-10 22:00:00,9.3,1036.7,0.2,90,7.7,7000,7.408,12.964,,320,,,0,,,,,,,0,og-post,,,,AAXX 10224 07070 24457 83204 10093 20077 30254 40367 53002 700// 333 60005 90710 91107=
07070,2012-03-10 23:00:00,9.2,1036.4,-0.3,91,7.8,7000,12.964,18.52,,320,,,0,,,,,,,0,og-post,,,,AAXX 10234 07070 24757 83207 10092 20078 30251 40364 57003 700// 333 60005 90710 91110=
07070,2012-03-11 00:00:00,9.1,1036.3,0.1,92,7.9,6000,5.556,14.816,,340,,,0,0,,,,,,0,og-post,,,,AAXX 11004 07070 04356 83403 10091 20079 30250 40363 50001 60001 700// 333 60007 90710 91108 555 60005=
07070,2012-03-11 01:00:00,9.1,1036.5,-0.2,92,7.9,4600,7.408,12.964,,330,,,0,,,,,,,10,og-post,,,,AAXX 11014 07070 24246 83304 10091 20079 30252 40365 55002 710// 333 60005 90710 91107=
07070,2012-03-11 02:00:00,8.7,1036.1,-0.3,94,7.8,2900,7.408,14.816,,330,,,0,,,,,,,10,og-post,,,,AAXX 11024 07070 24229 83304 10087 20078 30248 40361 58003 710// 333 60005 90710 91108=
07070,2012-03-11 03:00:00,8.6,1035.4,-0.9,94,7.7,2900,7.408,11.112,,310,,,0,0,,,,,,10,og-post,,,,AAXX 11034 07070 24229 83104 10086 20077 30241 40354 58009 710// 333 60007 90710 91106 555 60005=
07070,2012-03-11 04:00:00,8.7,1035.3,-1.2,94,7.8,3200,5.556,12.964,,320,,,0,,,,,,,10,og-post,,,,AAXX 11044 07070 24232 83203 10087 20078 30240 40353 56012 710// 333 60005 90710 91107=
07070,2012-03-11 05:00:00,8.5,1035.2,-0.9,94,7.6,2800,7.408,18.52,,320,,,0,,,,,,,10,og-post,,,,AAXX 11054 07070 24228 83204 10085 20076 30239 40352 56009 710// 333 60005 90710 91110=
07070,2012-03-11 06:00:00,8.6,1035.1,-0.3,94,7.7,3000,12.964,18.52,,340,8.5,10.6,0,0,,,0,0,7,10,og-post,,,,AAXX 11064 07070 04230 83407 10086 20077 30238 40351 57003 60002 710// 333 10106 20085 30007 55000 60007 70000 90710 91110 555 60005=
07070,2012-03-11 07:00:00,8.6,1035.1,-0.2,94,7.7,2900,9.26,20.372,,330,,,0,,,,,,,10,og-post,,,,AAXX 11074 07070 24229 83305 10086 20077 30238 40351 56002 710// 333 60005 90710 91111=
07070,2012-03-11 08:00:00,8.6,1035.6,0.4,94,7.7,2600,12.964,20.372,,350,,,0,,,,,,,10,og-post,,,,AAXX 11084 07070 24226 83507 10086 20077 30243 40356 53004 710// 333 60005 90710 91111=
07070,2012-03-11 09:00:00,9.8,1035.7,0.6,91,8.4,3200,11.112,16.668,,330,,,0,0,,,,,,10,og-post,,,,AAXX 11094 07070 24232 83306 10098 20084 30244 40357 53006 710// 333 60007 90710 91109 555 60005=
07070,2012-03-11 10:00:00,11.1,1035.9,0.9,83,8.3,4700,14.816,22.224,,20,,,0,,,,,,,10,og-post,,,,AAXX 11104 07070 24447 80208 10111 20083 30247 40359 51009 710// 333 60005 90710 91112=
07070,2012-03-11 11:00:00,12.5,1035.9,0.4,68,6.7,14000,20.372,27.78,,50,,,0,,,,,,,0,og-post,,,,AAXX 11114 07070 24564 80511 10125 20067 30247 40359 51004 700// 333 60005 90710 91115=
07070,2012-03-11 12:00:00,12.6,1035.8,0.2,64,6,20000,22.224,29.632,,50,,,0,0,,,,,,0,og-post,,,,AAXX 11124 07070 04570 80512 10126 20060 30246 40358 50002 60001 700// 333 60007 90710 91116 555 60005=
07070,2012-03-11 13:00:00,13.4,1035.1,-0.7,56,4.8,19000,16.668,29.632,,30,,,0,,,,,,,0,og-post,,,,AAXX 11134 07070 24669 /0309 10134 20048 30240 40351 58007 700// 333 60005 90710 91116=
07070,2012-03-11 14:00:00,13.2,1035,-0.8,57,4.9,20000,14.816,25.928,,50,,,0,,,,,,,0,og-post,,,,AAXX 11144 07070 24670 /0508 10132 20049 30239 40350 57008 700// 333 60005 90710 91114=
07070,2012-03-11 15:00:00,13.2,1034.8,-0.9,57,4.9,20000,11.112,22.224,,360,,,0,0,,,,,,0,og-post,,,,AAXX 11154 07070 24670 73606 10132 20049 30237 40348 56009 700// 333 60007 90710 91112 555 60005=
07070,2012-03-11 16:00:00,13.4,1034.7,-0.4,59,5.5,20000,11.112,16.668,,360,,,0,,,,,,,0,og-post,,,,AAXX 11164 07070 24670 73606 10134 20055 30236 40347 57004 700// 333 60005 90710 91109=
07070,2012-03-11 17:00:00,12.3,1034.5,-0.5,66,6.1,20000,11.112,16.668,,20,,,0,,,,,,,0,og-post,,,,AAXX 11174 07070 24970 /0206 10123 20061 30234 40345 57005 700// 333 60005 90710 91109=
07070,2012-03-11 18:00:00,9.1,1034.7,-0.3,78,5.5,20000,7.408,12.964,,350,8.6,14.2,0,0,,,,,,0,og-post,,,,AAXX 11184 07070 04970 /3504 10091 20055 30234 40347 56003 60002 700// 333 10142 20086 60007 90710 91107 555 60005=
07070,2012-03-11 19:00:00,7.9,1034.8,-0.1,82,5,20000,11.112,14.816,,10,,,0,,,,,,,0,og-post,,,,AAXX 11194 07070 24970 /0106 10079 20050 30235 40348 55001 700// 333 60005 90710 91108=
07070,2012-03-11 20:00:00,6.2,1035.1,0.3,86,4,15000,3.704,12.964,,20,,,0,,,,,,,0,og-post,,,,AAXX 11204 07070 24965 /0202 10062 20040 30237 40351 53003 700// 333 60005 90710 91107=
07070,2012-03-11 21:00:00,6.5,1035.2,0.4,91,5.1,15000,5.556,7.408,,30,,,0,0,,,,,,0,og-post,,,,AAXX 11214 07070 24965 /0303 10065 20051 30238 40352 52004 700// 333 60007 90710 91104 555 60005=
07070,2012-03-11 22:00:00,4.7,1035.1,0.1,89,3,7000,,7.408,,,,,0,,,,,,,0,og-post,,,,AAXX 11224 07070 24957 /0000 10047 20030 30236 40351 50001 700// 333 60005 90710 91104=
07070,2012-03-11 23:00:00,4,1035.3,0.1,93,3,5000,1.852,3.704,,170,,,0,,,,,,,0,og-post,,,,AAXX 11234 07070 24950 /1701 10040 20030 30238 40353 53001 700// 333 60005 90710 91102=
07070,2012-03-12 00:00:00,2.9,1035.1,-0.2,92,1.7,3100,1.852,5.556,,260,,,0,0,,,,,,10,og-post,,,,AAXX 12004 07070 04931 /2601 10029 20017 30236 40351 57002 60001 710// 333 60007 90710 91103 555 60005=
07070,2012-03-12 01:00:00,2.6,1034.9,-0.3,94,1.7,1800,,5.556,,,,,0,,,,,,,10,og-post,,,,AAXX 12014 07070 24918 /0000 10026 20017 30233 40349 58003 710// 333 60005 90710 91103=
07070,2012-03-12 02:00:00,1.8,1034.8,-0.6,95,1.1,1800,1.852,3.704,,230,,,0,,,,,,,10,og-post,,,,AAXX 12024 07070 24918 /2301 10018 20011 30232 40348 56006 710// 333 60005 90710 91102=
07070,2012-03-12 03:00:00,1.4,1034.6,-0.6,95,0.7,1300,1.852,5.556,,290,,,0,0,,,,,,10,og-post,,,,AAXX 12034 07070 24913 /2901 10014 20007 30230 40346 56006 710// 333 60007 90710 91103 555 60005=
07070,2012-03-12 04:00:00,1.6,1034.3,-0.6,96,1,1700,5.556,5.556,,230,,,0,,,,,,,10,og-post,,,,AAXX 12044 07070 24917 /2303 10016 20010 30227 40343 58006 710// 333 60005 90710 91103=
07070,2012-03-12 05:00:00,1.5,1034.3,-0.5,97,1.1,900,,5.556,,,,,0,,,,,,,45,og-post,,,,AAXX 12054 07070 24909 /0000 10015 20011 30227 40343 56005 745// 333 60005 90710 91103=
07070,2012-03-12 06:00:00,-0.2,1034.5,-0.2,96,-0.8,1800,7.408,11.112,,10,-0.2,9.3,0,0,,,0,1.5,-3,10,og-post,,,,AAXX 12064 07070 04918 /0104 11002 21008 30228 40345 55002 60002 710// 333 10093 21002 30103 55015 60007 70000 90710 91106 555 60005=
07070,2012-03-12 07:00:00,2.2,1034.6,0.3,96,1.6,1300,9.26,12.964,,320,,,0,,,,,,,10,og-post,,,,AAXX 12074 07070 24913 /3205 10022 20016 30230 40346 53003 710// 333 60005 90710 91107=
07070,2012-03-12 08:00:00,5.4,1034.6,0.5,96,4.8,2700,3.704,9.26,,270,,,0,,,,,,,10,og-post,,,,AAXX 12084 07070 24927 /2702 10054 20048 30232 40346 53005 710// 333 60005 90710 91105=
07070,2012-03-12 09:00:00,8.1,1034.6,0.5,89,6.4,5000,7.408,9.26,,360,,,0,0,,,,,,0,og-post,,,,AAXX 12094 07070 24950 /3604 10081 20064 30233 40346 51005 700// 333 60007 90710 91105 555 60005=
07070,2012-03-12 10:00:00,10.2,1034.3,0.1,79,6.7,6000,12.964,20.372,,20,,,0,,,,,,,0,og-post,,,,AAXX 12104 07070 24456 /0207 10102 20067 30231 40343 50001 700// 333 60005 90710 91111=
07070,2012-03-12 11:00:00,10.3,1034.3,-0.1,79,6.8,5000,14.816,22.224,,20,,,0,,,,,,,0,og-post,,,,AAXX 12114 07070 24450 80208 10103 20068 30231 40343 57001 700// 333 60005 90710 91112=
07070,2012-03-12 12:00:00,11.7,1034,-0.5,72,6.8,7000,11.112,20.372,,10,,,0,0,,,,,,0,og-post,,,,AAXX 12124 07070 04457 /0106 10117 20068 30228 40340 58005 60001 700// 333 60007 90710 91111 555 60005=
07070,2012-03-12 13:00:00,13.3,1033.3,-0.9,68,7.5,8000,12.964,20.372,,360,,,0,,,,,,,0,og-post,,,,AAXX 12134 07070 24958 /3607 10133 20075 30222 40333 58009 700// 333 60005 90710 91111=
07070,2012-03-12 14:00:00,14.1,1032.9,-1.3,68,8.3,7000,12.964,22.224,,360,,,0,,,,,,,0,og-post,,,,AAXX 12144 07070 24957 /3607 10141 20083 30218 40329 58013 700// 333 60005 90710 91112=
07070,2012-03-12 15:00:00,14.9,1032.5,-1.3,65,8.4,11000,16.668,25.928,,10,,,0,0,,,,,,0,og-post,,,,AAXX 12154 07070 24961 /0109 10149 20084 30215 40325 56013 700// 333 60007 90710 91114 555 60005=
07070,2012-03-12 16:00:00,14.7,1032.4,-0.8,66,8.4,10000,14.816,25.928,,360,,,0,,,,,,,0,og-post,,,,AAXX 12164 07070 24960 /3608 10147 20084 30214 40324 56008 700// 333 60005 90710 91114=
07070,2012-03-12 17:00:00,14,1032.3,-0.6,69,8.4,10000,11.112,18.52,,20,,,0,,,,,,,0,og-post,,,,AAXX 12174 07070 24960 /0206 10140 20084 30212 40323 56006 700// 333 60005 90710 91110=
07070,2012-03-12 18:00:00,11.6,1032.3,-0.3,79,8.1,7000,7.408,12.964,,10,-0.2,15.3,0,0,,,,,,0,og-post,,,,AAXX 12184 07070 04957 /0104 10116 20081 30212 40323 56003 60002 700// 333 10153 21002 60007 90710 91107 555 60005=
07070,2012-03-12 19:00:00,10.2,1032.4,-0.2,83,7.4,8000,14.816,18.52,,10,,,0,,,,,,,0,og-post,,,,AAXX 12194 07070 24958 /0108 10102 20074 30212 40324 56002 700// 333 60005 90710 91110=
07070,2012-03-12 20:00:00,8.4,1032.5,-0,86,6.2,7000,11.112,20.372,,20,,,0,,,,,,,0,og-post,,,,AAXX 12204 07070 24957 /0206 10084 20062 30212 40325 54000 700// 333 60005 90710 91111=
07070,2012-03-12 21:00:00,7.5,1032.5,-0,89,5.8,5000,14.816,16.668,,40,,,0,0,,,,,,0,og-post,,,,AAXX 12214 07070 24950 /0408 10075 20058 30212 40325 54000 700// 333 60007 90710 91109 555 60005=
07070,2012-03-12 22:00:00,5.8,1032.7,0.1,91,4.4,3900,7.408,14.816,,110,,,0,,,,,,,10,og-post,,,,AAXX 12224 07070 24939 /1104 10058 20044 30213 40327 53001 710// 333 60005 90710 91108=
07070,2012-03-12 23:00:00,6.2,1032.6,-0,90,4.7,4300,7.408,9.26,,60,,,0,,,,,,,10,og-post,,,,AAXX 12234 07070 24943 /0604 10062 20047 30212 40326 54000 710// 333 60005 90710 91105=
07070,2012-03-13 00:00:00,5,1032.7,0.1,92,3.8,3300,7.408,14.816,,50,,,0,0,,,,,,10,og-post,,,,AAXX 13004 07070 04933 /0504 10050 20038 30213 40327 52001 60001 710// 333 60007 90710 91108 555 60005=
07070,2012-03-13 01:00:00,4.2,1033.3,0.5,93,3.2,1900,,7.408,,,,,0,,,,,,,10,og-post,,,,AAXX 13014 07070 24919 /0000 10042 20032 30218 40333 53005 710// 333 60005 90710 91104=
07070,2012-03-13 02:00:00,4.2,1033.4,0.7,94,3.3,1100,3.704,7.408,,330,,,0,,,,,,,10,og-post,,,,AAXX 13024 07070 24911 /3302 10042 20033 30219 40334 52007 710// 333 60005 90710 91104=
07070,2012-03-13 03:00:00,3.5,1033.3,0.5,94,2.6,1600,9.26,11.112,,10,,,0,0,,,,,,10,og-post,,,,AAXX 13034 07070 24916 /0105 10035 20026 30218 40333 50005 710// 333 60007 90710 91106 555 60005=
07070,2012-03-13 04:00:00,1.4,1033.4,0,95,0.7,100,5.556,9.26,,190,,,0,,,,,,,45,og-post,,,,AAXX 13044 07070 24901 /1903 10014 20007 30218 40334 50000 745// 333 60005 90710 91105=
07070,2012-03-13 05:00:00,0.4,1033.3,-0.2,96,-0.2,500,,7.408,,,,,0,,,,,,,45,og-post,,,,AAXX 13054 07070 24/00 90000 10004 21002 30217 40333 57002 745// 333 60005 90710 91104=
07070,2012-03-13 06:00:00,0.7,1033.3,-0.1,96,0.1,500,,3.704,,,0.3,11.6,0,0,,,0,8.3,-1,45,og-post,,,,AAXX 13064 07070 04/00 90000 10007 20001 30217 40333 54001 60002 745// 333 10116 20003 31101 55083 60007 70000 90710 91102 555 60005=
07070,2012-03-13 07:00:00,1.5,1033.7,0.3,97,1.1,100,,1.852,,,,,0,,,,,,,45,og-post,,,,AAXX 13074 07070 24/01 90000 10015 20011 30221 40337 53003 745// 333 60005 90710 91101=
07070,2012-03-13 08:00:00,3.6,1033.7,0.5,97,3.2,100,5.556,9.26,,20,,,0,,,,,,,45,og-post,,,,AAXX 13084 07070 24/01 90203 10036 20032 30222 40337 53005 745// 333 60005 90710 91105=
07070,2012-03-13 09:00:00,5.4,1033.8,0.7,97,5,1500,5.556,9.26,,20,,,0,0,,,,,,10,og-post,,,,AAXX 13094 07070 24/15 90203 10054 20050 30224 40338 51007 710// 333 60007 90710 91105 555 60005=
07070,2012-03-13 10:00:00,8.6,1033.5,0.1,91,7.2,4600,9.26,16.668,,20,,,0,,,,,,,10,og-post,,,,AAXX 13104 07070 24946 /0205 10086 20072 30222 40335 50001 710// 333 60005 90710 91109=
07070,2012-03-13 11:00:00,12.4,1033.1,-0.2,67,6.4,6000,14.816,27.78,,40,,,0,,,,,,,0,og-post,,,,AAXX 13114 07070 24556 /0408 10124 20064 30220 40331 58002 700// 333 60005 90710 91115=
07070,2012-03-13 12:00:00,13.3,1032.7,-0.8,62,6.2,6000,14.816,25.928,,30,,,0,0,,,,,,0,og-post,,,,AAXX 13124 07070 04556 /0308 10133 20062 30216 40327 58008 60001 700// 333 60007 90710 91114 555 60005=
07070,2012-03-13 13:00:00,14.2,1032.1,-1.1,60,6.5,6000,12.964,24.076,,50,,,0,,,,,,,0,og-post,,,,AAXX 13134 07070 24956 /0507 10142 20065 30211 40321 58011 700// 333 60005 90710 91113=
07070,2012-03-13 14:00:00,14.7,1031.6,-1.4,57,6.3,6000,7.408,22.224,,40,,,0,,,,,,,0,og-post,,,,AAXX 13144 07070 24956 /0404 10147 20063 30206 40316 58014 700// 333 60005 90710 91112=
07070,2012-03-13 15:00:00,14.8,1031.1,-1.5,58,6.6,6000,11.112,18.52,,20,,,0,0,,,,,,0,og-post,,,,AAXX 13154 07070 24956 /0206 10148 20066 30201 40311 57015 700// 333 60007 90710 91110 555 60005=
07070,2012-03-13 16:00:00,14.2,1030.9,-1.2,61,6.8,8000,14.816,25.928,,360,,,0,,,,,,,0,og-post,,,,AAXX 13164 07070 24958 /3608 10142 20068 30199 40309 56012 700// 333 60005 90710 91114=
07070,2012-03-13 17:00:00,12.9,1030.7,-1,68,7.1,8000,11.112,22.224,,10,,,0,,,,,,,0,og-post,,,,AAXX 13174 07070 24958 /0106 10129 20071 30196 40307 56010 700// 333 60005 90710 91112=
07070,2012-03-13 18:00:00,10,1030.9,-0.4,78,6.3,7000,16.668,24.076,,10,0.7,15.1,0,0,,,,,,0,og-post,,,,AAXX 13184 07070 04957 /0109 10100 20063 30197 40309 55004 60002 700// 333 10151 20007 60007 90710 91113 555 60005=
07070,2012-03-13 19:00:00,8.7,1031.4,0.2,83,6,6000,14.816,22.224,,10,,,0,,,,,,,0,og-post,,,,AAXX 13194 07070 24956 /0108 10087 20060 30201 40314 53002 700// 333 60005 90710 91112=
07070,2012-03-13 20:00:00,8,1031.7,0.8,82,5.1,6000,11.112,20.372,,20,,,0,,,,,,,0,og-post,,,,AAXX 13204 07070 24956 /0206 10080 20051 30204 40317 53008 700// 333 60005 90710 91111=
07070,2012-03-13 21:00:00,5.9,1031.8,0.7,88,4.1,4800,9.26,14.816,,10,,,0,0,,,,,,10,og-post,,,,AAXX 13214 07070 24948 /0105 10059 20041 30204 40318 51007 710// 333 60007 90710 91108 555 60005=
07070,2012-03-13 22:00:00,5,1031.9,0.4,89,3.3,3800,7.408,16.668,,10,,,0,,,,,,,10,og-post,,,,AAXX 13224 07070 24938 /0104 10050 20033 30205 40319 51004 710// 333 60005 90710 91109=
07070,2012-03-13 23:00:00,3.5,1032.2,0.3,89,1.9,2700,3.704,12.964,,20,,,0,,,,,,,10,og-post,,,,AAXX 13234 07070 24927 /0202 10035 20019 30207 40322 53003 710// 333 60005 90710 91107=
07070,2012-03-14 00:00:00,3,1032.2,0.3,93,2,2300,,3.704,,,,,0,0,,,,,,10,og-post,,,,AAXX 14004 07070 04923 /0000 10030 20020 30207 40322 51003 60001 710// 333 60007 90710 91102 555 60005=
07070,2012-03-14 01:00:00,2.7,1032.1,0.1,94,1.8,2500,1.852,3.704,,40,,,0,,,,,,,10,og-post,,,,AAXX 14014 07070 24925 /0401 10027 20018 30206 40321 50001 710// 333 60005 90710 91102=
07070,2012-03-14 02:00:00,0,1031.9,-0.4,95,-0.7,200,3.704,5.556,,40,,,0,,,,,,,45,og-post,,,,AAXX 14024 07070 24902 /0402 10000 21007 30203 40319 58004 745// 333 60005 90710 91103=
07070,2012-03-14 03:00:00,0.1,1032,-0.3,95,-0.6,100,,5.556,,,,,0,0,,,,,,45,og-post,,,,AAXX 14034 07070 24901 /0000 10001 21006 30204 40320 55003 745// 333 60007 90710 91103 555 60005=
07070,2012-03-14 04:00:00,0.3,1031.7,-0.5,96,-0.3,700,1.852,5.556,,140,,,0,,,,,,,45,og-post,,,,AAXX 14044 07070 24907 /1401 10003 21003 30201 40317 57005 745// 333 60005 90710 91103=
07070,2012-03-14 05:00:00,-0.3,1031.9,-0,97,-0.7,1400,1.852,7.408,,20,,,0,,,,,,,10,og-post,,,,AAXX 14054 07070 24914 /0201 11003 21007 30203 40319 55000 710// 333 60005 90710 91104=
07070,2012-03-14 06:00:00,-0.8,1032.2,0.1,96,-1.4,100,5.556,5.556,,20,-1.3,10,0,0,,,0,8,-5,49,og-post,,,,AAXX 14064 07070 04901 /0203 11008 21014 30205 40322 53001 60002 749// 333 10100 21013 30105 55080 60007 70000 90710 91103 555 60005=
07070,2012-03-14 07:00:00,-0.8,1032.4,0.6,97,-1.2,100,1.852,3.704,,10,,,0,,,,,,,49,og-post,,,,AAXX 14074 07070 24901 /0101 11008 21012 30207 40324 52006 749// 333 60005 90710 91102=
07070,2012-03-14 08:00:00,1.6,1032.5,0.6,97,1.2,500,1.852,3.704,,50,,,0,,,,,,,45,og-post,,,,AAXX 14084 07070 24/00 90501 10016 20012 30209 40325 52006 745// 333 60005 90710 91102=
07070,2012-03-14 09:00:00,5.1,1032.3,0.4,97,4.7,1800,3.704,7.408,,60,,,0,0,,,,,,10,og-post,,,,AAXX 14094 07070 24/18 90602 10051 20047 30209 40323 51004 710// 333 60007 90710 91104 555 60005=
07070,2012-03-14 10:00:00,7.1,1032,0,85,4.7,3600,11.112,18.52,,60,,,0,,,,,,,10,og-post,,,,AAXX 14104 07070 24436 70606 10071 20047 30207 40320 50000 710// 333 60005 90710 91110=
07070,2012-03-15 16:00:00,19.7,1024.5,-1.7,43,6.8,8000,12.964,20.372,,140,,,0,,,,,,,0,og-post,,,,AAXX 15164 07070 24958 /1407 10197 20068 30137 40245 56017 700// 333 60005 90710 91111=
07070,2012-03-15 17:00:00,17.1,1024,-1.6,62,9.8,6000,12.964,14.816,,150,,,0,,,,,,,0,og-post,,,,AAXX 15174 07070 24956 /1507 10171 20098 30132 40240 56016 700// 333 60005 90710 91108=
07070,2012-03-15 18:00:00,13.1,1024,-1.2,65,6.7,7000,5.556,12.964,,130,0.3,20.2,0,0,,,,,,0,og-post,,,,AAXX 15184 07070 04957 /1303 10131 20067 30130 40240 56012 60002 700// 333 10202 20003 60007 90710 91107 555 60005=
07070,2012-03-15 19:00:00,9.9,1024.2,-0.6,71,4.9,6000,1.852,9.26,,100,,,0,,,,,,,0,og-post,,,,AAXX 15194 07070 24956 /1001 10099 20049 30131 40242 55006 700// 333 60005 90710 91105=
07070,2012-03-15 20:00:00,10.3,1024.1,-0.2,68,4.6,6000,1.852,5.556,,190,,,0,,,,,,,0,og-post,,,,AAXX 15204 07070 24956 /1901 10103 20046 30130 40241 56002 700// 333 60005 90710 91103=
07070,2012-03-15 21:00:00,9,1024.2,0,74,4.6,4800,5.556,7.408,,180,,,0,0,,,,,,10,og-post,,,,AAXX 15214 07070 24948 /1803 10090 20046 30130 40242 50000 710// 333 60007 90710 91104 555 60005=
07070,2012-03-15 22:00:00,6.2,1024.3,-0.1,85,3.9,4900,,5.556,,,,,0,,,,,,,10,og-post,,,,AAXX 15224 07070 24949 /0000 10062 20039 30130 40243 56001 710// 333 60005 90710 91103=
07070,2012-03-15 23:00:00,6.3,1024.3,-0,81,3.3,4400,1.852,7.408,,250,,,0,,,,,,,10,og-post,,,,AAXX 15234 07070 24944 /2501 10063 20033 30130 40243 54000 710// 333 60005 90710 91104=
07070,2012-03-16 00:00:00,6.2,1024.3,-0,88,4.4,4100,5.556,9.26,,240,,,0,0,,,,,,10,og-post,,,,AAXX 16004 07070 04941 /2403 10062 20044 30130 40243 54000 60001 710// 333 60007 90710 91105 555 60005=
07070,2012-03-16 01:00:00,6.2,1024.1,-0.2,79,2.8,4500,3.704,14.816,,240,,,0,,,,,,,10,og-post,,,,AAXX 16014 07070 24945 /2402 10062 20028 30128 40241 58002 710// 333 60005 90710 91108=
07070,2012-03-16 02:00:00,4.2,1024,-0.4,86,2.1,4500,3.704,5.556,,250,,,0,,,,,,,10,og-post,,,,AAXX 16024 07070 24945 /2502 10042 20021 30126 40240 58004 710// 333 60005 90710 91103=
07070,2012-03-16 03:00:00,6.3,1023.6,-0.7,82,3.5,5000,9.26,11.112,,200,,,0,0,,,,,,0,og-post,,,,AAXX 16034 07070 24950 /2005 10063 20035 30123 40236 58007 700// 333 60007 90710 91106 555 60005=
07070,2012-03-16 04:00:00,5,1023.4,-0.7,85,2.7,5000,3.704,11.112,,240,,,0,,,,,,,0,og-post,,,,AAXX 16044 07070 24950 /2402 10050 20027 30121 40234 57007 700// 333 60005 90710 91106=
07070,2012-03-16 05:00:00,2.4,1023.6,-0.4,89,0.8,2900,3.704,5.556,,280,,,0,,,,,,,10,og-post,,,,AAXX 16054 07070 24929 /2802 10024 20008 30122 40236 55004 710// 333 60005 90710 91103=
07070,2012-03-16 06:00:00,1.4,1023.9,0.1,92,0.2,2400,,3.704,,,1.3,12.9,0,0,,,0,10.6,-2,10,og-post,,,,AAXX 16064 07070 04924 /0000 10014 20002 30124 40239 53001 60002 710// 333 10129 20013 30102 55106 60007 70000 90710 91102 555 60005=
07070,2012-03-16 07:00:00,4.1,1023.8,0.3,93,3.1,2500,,,,,,,0,,,,,,,10,og-post,,,,AAXX 16074 07070 24925 /0000 10041 20031 30124 40238 51003 710// 333 60005 90710 91100=
07070,2012-03-16 08:00:00,8.6,1023.7,0.3,79,5.2,4100,,1.852,,,,,0,,,,,,,10,og-post,,,,AAXX 16084 07070 24941 /0000 10086 20052 30125 40237 52003 710// 333 60005 90710 91101=
07070,2012-03-16 09:00:00,12.1,1023.2,-0.2,71,7,5000,1.852,5.556,,140,,,0,0,,,,,,0,og-post,,,,AAXX 16094 07070 24950 /1401 10121 20070 30122 40232 58002 700// 333 60007 90710 91103 555 60005=
07070,2012-03-16 10:00:00,17.2,1022.7,-0.5,58,8.9,7000,11.112,16.668,,160,,,0,,,,,,,0,og-post,,,,AAXX 16104 07070 24957 /1606 10172 20089 30119 40227 58005 700// 333 60005 90710 91109=
07070,2012-03-16 11:00:00,18.9,1022.2,-1.1,54,9.4,8000,11.112,18.52,,180,,,0,,,,,,,0,og-post,,,,AAXX 16114 07070 24958 /1806 10189 20094 30114 40222 58011 700// 333 60005 90710 91110=
07070,2012-03-16 12:00:00,20.7,1021.4,-1.5,43,7.7,10000,18.52,29.632,,170,,,0,0,,,,,,0,og-post,,,,AAXX 16124 07070 04960 /1710 10207 20077 30107 40214 58015 60001 700// 333 60007 90710 91116 555 60005=
07070,2012-03-16 13:00:00,21.2,1020.7,-1.9,43,8.1,9000,20.372,27.78,,170,,,0,,,,,,,0,og-post,,,,AAXX 16134 07070 24959 /1711 10212 20081 30100 40207 58019 700// 333 60005 90710 91115=
07070,2012-03-16 14:00:00,22.4,1019.7,-2.3,31,4.4,14000,14.816,27.78,,200,,,0,,,,,,,0,og-post,,,,AAXX 16144 07070 24964 /2008 10224 20044 30091 40197 58023 700// 333 60005 90710 91115=
07070,2012-03-16 15:00:00,21.9,1018.8,-2.5,37,6.5,11000,16.668,31.484,,170,,,0,0,,,,,,0,og-post,,,,AAXX 16154 07070 24961 /1709 10219 20065 30082 40188 58025 700// 333 60007 90710 91117 555 60005=
07070,2012-03-16 16:00:00,21,1018.1,-2.5,42,7.6,9000,16.668,25.928,,160,,,0,,,,,,,0,og-post,,,,AAXX 16164 07070 24959 /1609 10210 20076 30075 40181 56025 700// 333 60005 90710 91114=
07070,2012-03-16 17:00:00,18.8,1017.7,-2.1,50,8.2,6000,12.964,24.076,,170,,,0,,,,,,,0,og-post,,,,AAXX 16174 07070 24956 /1707 10188 20082 30070 40177 56021 700// 333 60005 90710 91113=
07070,2012-03-16 18:00:00,13.4,1017.7,-1.4,71,8.2,5000,12.964,16.668,,160,1.4,22.4,0,0,,,,,,0,og-post,,,,AAXX 16184 07070 04950 /1607 10134 20082 30068 40177 56014 60002 700// 333 10224 20014 60007 90710 91109 555 60005=
07070,2012-03-16 19:00:00,13.9,1017.6,-0.8,61,6.5,7000,9.26,12.964,,190,,,0,,,,,,,0,og-post,,,,AAXX 16194 07070 24957 /1905 10139 20065 30067 40176 56008 700// 333 60005 90710 91107=
07070,2012-03-16 20:00:00,12.5,1017.6,-0.4,65,6.1,6000,11.112,14.816,,190,,,0,,,,,,,0,og-post,,,,AAXX 16204 07070 24956 /1906 10125 20061 30066 40176 56004 700// 333 60005 90710 91108=
07070,2012-03-16 21:00:00,12.1,1017.4,-0.4,64,5.5,8000,14.816,18.52,,190,,,0,0,,,,,,0,og-post,,,,AAXX 16214 07070 24958 /1908 10121 20055 30064 40174 58004 700// 333 60007 90710 91110 555 60005=
07070,2012-03-16 22:00:00,11.6,1017.6,-0.1,64,5,9000,12.964,18.52,,190,,,0,,,,,,,0,og-post,,,,AAXX 16224 07070 24959 /1907 10116 20050 30066 40176 55001 700// 333 60005 90710 91110=
07070,2012-03-16 23:00:00,9.9,1018,0.3,69,4.5,7000,3.704,16.668,,260,,,0,,,,,,,0,og-post,,,,AAXX 16234 07070 24957 /2602 10099 20045 30069 40180 53003 700// 333 60005 90710 91109=
07070,2012-03-17 00:00:00,8.8,1018.7,1.2,94,7.9,1000,14.816,27.78,,360,,,0,0,,,,,,10,og-post,,,,AAXX 17004 07070 04110 /3608 10088 20079 30076 40187 53012 60001 710// 333 60007 90710 91115 555 60005=
07070,2012-03-17 01:00:00,8.7,1019.1,1.4,95,7.9,500,9.26,22.224,,330,,,0,,,,,,,45,og-post,,,,AAXX 17014 07070 24/05 93305 10087 20079 30080 40191 53014 745// 333 60005 90710 91112=
07070,2012-03-17 02:00:00,8.6,1018.8,0.8,96,8,1100,9.26,20.372,,330,,,0,,,,,,,10,og-post,,,,AAXX 17024 07070 24111 83305 10086 20080 30077 40188 50008 710// 333 60005 90710 91111=
07070,2012-03-17 03:00:00,8.5,1018.2,-0.5,95,7.7,1500,7.408,12.964,,360,,,0,0,,,,,,10,og-post,,,,AAXX 17034 07070 24215 83604 10085 20077 30071 40182 58005 710// 333 60007 90710 91107 555 60005=
07070,2012-03-17 04:00:00,8.4,1018.2,-0.9,94,7.5,1700,5.556,11.112,,350,,,0,,,,,,,10,og-post,,,,AAXX 17044 07070 24217 83503 10084 20075 30071 40182 56009 710// 333 60005 90710 91106=
07070,2012-03-17 05:00:00,8.3,1018,-0.8,93,7.2,2600,3.704,9.26,,290,,,0,,,,,,,10,og-post,,,,AAXX 17054 07070 24326 82902 10083 20072 30069 40180 56008 710// 333 60005 90710 91105=
07070,2012-03-17 06:00:00,8.4,1018.6,0.4,92,7.2,2200,3.704,7.408,,260,8.3,14.3,0,0,,,0,10.5,5,10,og-post,,,,AAXX 17064 07070 04222 82602 10084 20072 30075 40186 53004 60002 710// 333 10143 20083 30005 55105 60007 70000 90710 91104 555 60005=
07070,2012-03-17 07:00:00,8.6,1018.7,0.5,93,7.5,2000,11.112,18.52,,220,,,0,,,,,,,10,og-post,,,,AAXX 17074 07070 24220 82206 10086 20075 30076 40187 53005 710// 333 60005 90710 91110=
07070,2012-03-17 08:00:00,8.8,1018.9,0.9,93,7.7,2100,9.26,18.52,,240,,,0,,,,,,,10,og-post,,,,AAXX 17084 07070 24221 82405 10088 20077 30078 40189 51009 710// 333 60005 90710 91110=
07070,2012-03-17 09:00:00,9.8,1018.9,0.3,90,8.2,3500,7.408,12.964,,230,,,0,0,,,,,,10,og-post,,,,AAXX 17094 07070 24335 82304 10098 20082 30078 40189 51003 710// 333 60007 90710 91107 555 60005=
07070,2012-03-17 10:00:00,10.4,1018.8,0.2,82,7.5,4300,11.112,22.224,,230,,,,,,,,,,10,og-post,,,,AAXX 17104 07070 24443 82306 10104 20075 30078 40188 51002 710// 333 69905 90710 91112=
07070,2012-03-17 11:00:00,10.7,1018.9,0.1,81,7.6,4800,14.816,27.78,,220,,,,,,,,,,10,og-post,,,,AAXX 17114 07070 24548 82208 10107 20076 30079 40189 53001 710// 333 69905 90710 91115=
07070,2012-03-17 12:00:00,10.3,1018.7,-0.2,81,7.2,6000,16.668,29.632,,230,,,0,,,,,,,0,og-post,,,,AAXX 17124 07070 04456 82309 10103 20072 30076 40187 58002 69901 700// 333 69907 90710 91116 555 60005=
07070,2012-03-17 13:00:00,11.1,1018.1,-0.7,76,7,8000,14.816,25.928,,230,,,0,,,,,,,0,og-post,,,,AAXX 17134 07070 24458 82308 10111 20070 30071 40181 58007 700// 333 60005 90710 91114=
07070,2012-03-17 14:00:00,11.1,1017.7,-1.2,72,6.2,12000,18.52,29.632,,220,,,0,,,,,,,0,og-post,,,,AAXX 17144 07070 24562 82210 10111 20062 30067 40177 58012 700// 333 60005 90710 91116=
07070,2012-03-17 15:00:00,10.5,1017.1,-1.5,77,6.6,9000,12.964,33.336,,240,,,,,,,,,,61,og-post,,,,AAXX 17154 07070 24559 82407 10105 20066 30061 40171 58015 761// 333 69907 90710 91118 555 69905=
07070,2012-03-17 16:00:00,10.8,1016.6,-1.5,78,7.1,9000,12.964,20.372,,240,,,,,,,,,,0,og-post,,,,AAXX 17164 07070 24659 82407 10108 20071 30056 40166 58015 700// 333 69905 90710 91111=
07070,2012-03-17 17:00:00,10.6,1016.5,-1.2,80,7.3,10000,7.408,16.668,,210,,,,,,,,,,0,og-post,,,,AAXX 17174 07070 24560 82104 10106 20073 30055 40165 56012 700// 333 69905 90710 91109=
07070,2012-03-17 18:00:00,10,1016,-1.1,80,6.7,10000,11.112,18.52,,180,8.4,11.2,0,,,,,,,0,og-post,,,,AAXX 17184 07070 04660 81806 10100 20067 30050 40160 57011 69902 700// 333 10112 20084 69907 90710 91110 555 60005=
07070,2012-03-17 19:00:00,9.6,1015.8,-0.8,84,7,8000,7.408,14.816,,160,,,,,,,,,,61,og-post,,,,AAXX 17194 07070 24758 71604 10096 20070 30048 40158 58008 761// 333 69905 90710 91108=
07070,2012-03-17 20:00:00,9.6,1015.8,-0.7,85,7.2,8000,12.964,16.668,,160,,,0.2,,,,,,,0,og-post,,,,AAXX 17204 07070 24658 81607 10096 20072 30048 40158 56007 700// 333 69925 90710 91109=
07070,2012-03-17 21:00:00,9.4,1015.6,-0.5,86,7.2,7000,14.816,18.52,,170,,,,0.2,,,,,,0,og-post,,,,AAXX 17214 07070 24757 81708 10094 20072 30045 40156 57005 700// 333 69927 90710 91110 555 69905=
07070,2012-03-18 00:00:00,10,1014.7,-0.8,88,8.1,7000,12.964,24.076,,200,,,0,,0.2,,,,,0,og-post,,,,AAXX 18004 07070 04457 82007 10100 20081 30037 40147 56008 69921 700// 333 69907 90710 91113 555 60005=
07070,2012-03-18 01:00:00,9.8,1014.4,-0.5,90,8.2,6000,11.112,18.52,,190,,,0,,,,,,,0,og-post,,,,AAXX 18014 07070 24456 81906 10098 20082 30034 40144 58005 700// 333 60005 90710 91110=
07070,2012-03-18 02:00:00,10.1,1014.3,-0.5,87,8,8000,12.964,18.52,,220,,,0,,,,,,,0,og-post,,,,AAXX 18024 07070 24458 82207 10101 20080 30033 40143 57005 700// 333 60005 90710 91110=
07070,2012-03-18 03:00:00,9.1,1014.1,-0.6,85,6.7,10000,16.668,31.484,,250,,,,,,,,,,0,og-post,,,,AAXX 18034 07070 24460 82509 10091 20067 30031 40141 56006 700// 333 69907 90710 91117 555 69905=
07070,2012-03-18 04:00:00,8.1,1014.9,0.4,81,5,20000,20.372,40.744,,280,,,0,,,,,,,0,og-post,,,,AAXX 18044 07070 24570 72811 10081 20050 30038 40149 53004 700// 333 60005 90710 91122=
07070,2012-03-18 05:00:00,7.5,1015.4,1,82,4.6,20000,12.964,29.632,,260,,,0,,,,,,,0,og-post,,,,AAXX 18054 07070 24570 82607 10075 20046 30043 40154 53010 700// 333 60005 90710 91116=
07070,2012-03-18 06:00:00,7.3,1015.6,1.4,83,4.6,20000,7.408,18.52,,250,7.2,10.2,0,0,,0.2,0.2,0,7,0,og-post,,,,AAXX 18064 07070 04470 82504 10073 20046 30045 40156 51014 69922 700// 333 10102 20072 31007 55000 60007 70002 90710 91110 555 60005=
07070,2012-03-18 07:00:00,7.2,1016,1.1,88,5.3,16000,11.112,16.668,,250,,,,,,,,,,0,og-post,,,,AAXX 18074 07070 24566 82506 10072 20053 30049 40160 51011 700// 333 69905 90710 91109=
07070,2012-03-18 08:00:00,6.9,1016.9,1.4,92,5.7,19000,3.704,18.52,,260,,,0.2,,,,,,,50,og-post,,,,AAXX 18084 07070 24469 82602 10069 20057 30057 40169 53014 750// 333 69925 90710 91110=
07070,2012-03-18 09:00:00,8,1017.4,1.8,87,6,20000,12.964,18.52,,260,,,,0.2,,,,,,0,og-post,,,,AAXX 18094 07070 24470 82607 10080 20060 30063 40174 53018 700// 333 69927 90710 91110 555 69905=
07070,2012-03-18 10:00:00,9.4,1017.8,1.8,74,5,20000,12.964,22.224,,270,,,0,,,,,,,0,og-post,,,,AAXX 18104 07070 24470 /2707 10094 20050 30067 40178 51018 700// 333 60005 90710 91112=
07070,2012-03-18 11:00:00,9.8,1017.9,1.1,69,4.4,20000,14.816,24.076,,250,,,0,,,,,,,0,og-post,,,,AAXX 18114 07070 24570 82508 10098 20044 30068 40179 51011 700// 333 60005 90710 91113=
07070,2012-03-18 12:00:00,10.9,1017.7,0.4,62,3.9,20000,12.964,25.928,,250,,,0,0,0.2,,,,,0,og-post,,,,AAXX 18124 07070 04570 82507 10109 20039 30067 40177 51004 69921 700// 333 60007 90710 91114 555 60005=
07070,2012-03-18 13:00:00,11.9,1017.5,-0.2,57,3.6,20000,9.26,25.928,,300,,,0,,,,,,,0,og-post,,,,AAXX 18134 07070 24670 83005 10119 20036 30065 40175 58002 700// 333 60005 90710 91114=
07070,2012-03-18 14:00:00,11.9,1017.2,-0.6,54,2.9,20000,12.964,27.78,,260,,,0,,,,,,,0,og-post,,,,AAXX 18144 07070 24670 /2607 10119 20029 30062 40172 58006 700// 333 60005 90710 91115=
07070,2012-03-18 15:00:00,12.4,1017.5,-0.2,49,2,20000,9.26,22.224,,270,,,0,0,,,,,,0,og-post,,,,AAXX 18154 07070 24770 72705 10124 20020 30065 40175 55002 700// 333 60007 90710 91112 555 60005=
07070,2012-03-18 16:00:00,11.3,1017.7,0.2,49,1,20000,5.556,14.816,,260,,,0,,,,,,,0,og-post,,,,AAXX 18164 07070 24670 72603 10113 20010 30067 40177 53002 700// 333 60005 90710 91108=
07070,2012-03-18 17:00:00,8.9,1018.7,1.4,75,4.7,17000,9.26,25.928,,200,,,0.2,,,,,,,0,og-post,,,,AAXX 18174 07070 24667 82005 10089 20047 30076 40187 53014 700// 333 69925 90710 91114=
07070,2012-03-18 18:00:00,7.7,1019.6,1.9,84,5.2,20000,9.26,20.372,,160,6.9,12.9,0,0.2,,0.4,,,,0,og-post,,,,AAXX 18184 07070 04770 81605 10077 20052 30084 40196 53019 69942 700// 333 10129 20069 69927 90710 91111 555 60005=
07070,2012-03-18 19:00:00,7.8,1020.7,2.8,78,4.2,20000,16.668,25.928,,10,,,0,,,,,,,0,og-post,,,,AAXX 18194 07070 24670 80109 10078 20042 30095 40207 53028 700// 333 60005 90710 91114=
07070,2012-03-18 20:00:00,7.2,1021.7,2.9,85,4.8,20000,12.964,20.372,,340,,,0,,,,,,,0,og-post,,,,AAXX 18204 07070 24670 83407 10072 20048 30105 40217 53029 700// 333 60005 90710 91111=
07070,2012-03-18 21:00:00,6.5,1021.9,2.3,91,5.1,11000,7.408,18.52,,30,,,1,1,,,,,,61,og-post,,,,AAXX 18214 07070 24661 /0304 10065 20051 30107 40219 51023 761// 333 60017 90710 91110 555 60015=
07070,2012-03-18 22:00:00,6.4,1022.6,1.8,91,5,19000,7.408,12.964,,330,,,,,,,,,,0,og-post,,,,AAXX 18224 07070 24869 83304 10064 20050 30113 40226 51018 700// 333 69905 90710 91107=
07070,2012-03-18 23:00:00,6.4,1023.2,1.4,92,5.2,17000,11.112,14.816,,360,,,0,,,,,,,0,og-post,,,,AAXX 18234 07070 24867 83606 10064 20052 30119 40232 53014 700// 333 60005 90710 91108=
07070,2012-03-19 00:00:00,6.1,1023.8,1.8,91,4.7,13000,9.26,16.668,,350,,,0,,1,,,,,0,og-post,,,,AAXX 19004 07070 04663 83505 10061 20047 30125 40238 52018 60011 700// 333 69907 90710 91109 555 60005=
07070,2012-03-19 01:00:00,5.6,1024.4,1.8,90,4.1,17000,12.964,18.52,,10,,,0,,,,,,,0,og-post,,,,AAXX 19014 07070 24667 80107 10056 20041 30131 40244 52018 700// 333 60005 90710 91110=
07070,2012-03-19 02:00:00,5,1024.8,1.6,90,3.5,11000,14.816,22.224,,10,,,0,,,,,,,0,og-post,,,,AAXX 19024 07070 24661 70108 10050 20035 30135 40248 51016 700// 333 60005 90710 91112=
07070,2012-03-19 03:00:00,3.8,1025.5,1.6,92,2.6,4900,16.668,25.928,,360,,,0,0,,,,,,10,og-post,,,,AAXX 19034 07070 24949 73609 10038 20026 30141 40255 52016 710// 333 60007 90710 91114 555 60005=
07070,2012-03-19 04:00:00,3,1026.4,1.9,93,2,3200,12.964,24.076,,10,,,0,,,,,,,10,og-post,,,,AAXX 19044 07070 24932 /0107 10030 20020 30150 40264 53019 710// 333 60005 90710 91113=
07070,2012-03-19 05:00:00,2.5,1027.3,2.3,93,1.5,2600,3.704,18.52,,320,,,0,,,,,,,10,og-post,,,,AAXX 19054 07070 24526 /3202 10025 20015 30158 40273 53023 710// 333 60005 90710 91110=
07070,2012-03-19 06:00:00,1.7,1028.4,2.8,94,0.8,1700,3.704,5.556,,310,1.7,8.2,0,0,,1,1.4,2.3,-1,10,og-post,,,,AAXX 19064 07070 04617 /3102 10017 20008 30169 40284 53028 60012 710// 333 10082 20017 3/101 55023 60007 70014 90710 91103 555 60005=
07070,2012-03-19 07:00:00,3.6,1029.5,3.1,95,2.9,2000,14.816,25.928,,360,,,0,,,,,,,10,og-post,,,,AAXX 19074 07070 24220 /3608 10036 20029 30181 40295 53031 710// 333 60005 90710 91114=
07070,2012-03-19 08:00:00,5.3,1030.4,3.2,91,3.9,2900,12.964,18.52,,10,,,0,,,,,,,10,og-post,,,,AAXX 19084 07070 24929 /0107 10053 20039 30190 40304 51032 710// 333 60005 90710 91110=
07070,2012-03-19 09:00:00,7.2,1031,2.8,82,4.3,5000,16.668,22.224,,10,,,0,0,,,,,,0,og-post,,,,AAXX 19094 07070 24450 /0109 10072 20043 30197 40310 51028 700// 333 60007 90710 91112 555 60005=
07070,2012-03-19 10:00:00,8,1031.7,2.3,72,3.3,9000,20.372,29.632,,20,,,0,,,,,,,0,og-post,,,,AAXX 19104 07070 24559 70211 10080 20033 30204 40317 51023 700// 333 60005 90710 91116=
07070,2012-03-19 11:00:00,8.6,1032.2,1.9,70,3.4,12000,16.668,31.484,,20,,,0,,,,,,,0,og-post,,,,AAXX 19114 07070 24662 70209 10086 20034 30209 40322 51019 700// 333 60005 90710 91117=
07070,2012-03-19 12:00:00,9.1,1032.7,1.7,57,1,20000,16.668,27.78,,10,,,0,0,,,,,,0,og-post,,,,AAXX 19124 07070 04670 70109 10091 20010 30214 40327 51017 60001 700// 333 60007 90710 91115 555 60005=
07070,2012-03-19 13:00:00,10.8,1032.6,1,51,1.1,19000,14.816,29.632,,20,,,0,,,,,,,0,og-post,,,,AAXX 19134 07070 24669 /0208 10108 20011 30214 40326 51010 700// 333 60005 90710 91116=
07070,2012-03-19 14:00:00,10.9,1032.7,0.6,51,1.1,19000,12.964,27.78,,20,,,0,,,,,,,0,og-post,,,,AAXX 19144 07070 24669 /0207 10109 20011 30215 40327 51006 700// 333 60005 90710 91115=
07070,2012-03-19 15:00:00,11.1,1032.7,0.1,50,1.1,19000,12.964,27.78,,360,,,0,0,,,,,,0,og-post,,,,AAXX 19154 07070 24669 /3607 10111 20011 30215 40327 52001 700// 333 60007 90710 91115 555 60005=
07070,2012-03-19 16:00:00,10.9,1032.7,0.1,48,0.3,20000,16.668,22.224,,350,,,0,,,,,,,0,og-post,,,,AAXX 19164 07070 24670 /3509 10109 20003 30215 40327 51001 700// 333 60005 90710 91112=
07070,2012-03-19 17:00:00,10.2,1033,0.3,52,0.8,20000,14.816,22.224,,340,,,0,,,,,,,0,og-post,,,,AAXX 19174 07070 24970 /3408 10102 20008 30218 40330 53003 700// 333 60005 90710 91112=
07070,2012-03-19 18:00:00,8,1033.6,0.8,61,0.9,19000,14.816,22.224,,340,1.4,11.6,0,0,,,,,,0,og-post,,,,AAXX 19184 07070 04969 /3408 10080 20009 30223 40336 53008 60002 700// 333 10116 20014 60007 90710 91112 555 60005=
07070,2012-03-19 19:00:00,6.2,1034.5,1.6,67,0.5,19000,12.964,20.372,,360,,,0,,,,,,,0,og-post,,,,AAXX 19194 07070 24969 /3607 10062 20005 30231 40345 53016 700// 333 60005 90710 91111=
07070,2012-03-19 20:00:00,4.3,1035.3,2,74,0.1,19000,11.112,18.52,,360,,,0,,,,,,,0,og-post,,,,AAXX 19204 07070 24969 /3606 10043 20001 30238 40353 53020 700// 333 60005 90710 91110=
07070,2012-03-19 21:00:00,3,1035.9,2,78,-0.5,16000,,11.112,,,,,0,0,,,,,,0,og-post,,,,AAXX 19214 07070 24966 /0000 10030 21005 30243 40359 51020 700// 333 60007 90710 91106 555 60005=
07070,2012-03-19 22:00:00,2,1036.4,1.7,85,-0.3,17000,,3.704,,,,,0,,,,,,,0,og-post,,,,AAXX 19224 07070 24967 /0000 10020 21003 30248 40364 51017 700// 333 60005 90710 91102=
07070,2012-03-19 23:00:00,1.3,1036.6,1.2,90,-0.2,11000,3.704,7.408,,140,,,0,,,,,,,0,og-post,,,,AAXX 19234 07070 24961 /1402 10013 21002 30250 40366 51012 700// 333 60005 90710 91104=
07070,2012-03-20 00:00:00,0.2,1036.6,0.6,90,-1.2,10000,3.704,5.556,,310,,,0,0,,,,,,0,og-post,,,,AAXX 20004 07070 04960 /3102 10002 21012 30249 40366 51006 60001 700// 333 60007 90710 91103 555 60005=
07070,2012-03-20 01:00:00,-1,1036.7,0.2,91,-2.3,7000,3.704,5.556,,270,,,0,,,,,,,0,og-post,,,,AAXX 20014 07070 24957 /2702 11010 21023 30250 40367 51002 700// 333 60005 90710 91103=
07070,2012-03-20 02:00:00,-0.9,1036.6,-0.1,92,-2,5000,3.704,5.556,,190,,,0,,,,,,,0,og-post,,,,AAXX 20024 07070 24950 /1902 11009 21020 30249 40366 54001 700// 333 60005 90710 91103=
07070,2012-03-20 03:00:00,-1,1036.3,-0.3,92,-2.1,5000,3.704,3.704,,310,,,0,0,,,,,,0,og-post,,,,AAXX 20034 07070 24950 /3102 11010 21021 30246 40363 58003 700// 333 60007 90710 91102 555 60005=
07070,2012-03-20 04:00:00,-1.8,1036.6,-0.2,93,-2.8,4600,,3.704,,,,,0,,,,,,,10,og-post,,,,AAXX 20044 07070 24946 /0000 11018 21028 30248 40366 55002 710// 333 60005 90710 91102=
07070,2012-03-20 05:00:00,-1.5,1036.9,0.2,94,-2.3,5000,3.704,5.556,,200,,,0,,,,,,,0,og-post,,,,AAXX 20054 07070 24950 /2002 11015 21023 30251 40369 53002 700// 333 60005 90710 91103=
07070,2012-03-20 06:00:00,-1.3,1037,0.7,94,-2.1,6000,3.704,7.408,,190,-2.1,8,0,0,,,0,6.8,-6,0,og-post,,,,AAXX 20064 07070 04956 /1902 11013 21021 30253 40370 52007 60002 700// 333 10080 21021 30106 55068 60007 70000 90710 91104 555 60005=
07070,2012-03-20 07:00:00,0.5,1037.2,0.7,92,-0.6,4600,,7.408,,,,,0,,,,,,,10,og-post,,,,AAXX 20074 07070 24946 /0000 10005 21006 30255 40372 52007 710// 333 60005 90710 91104=
07070,2012-03-20 08:00:00,4.9,1037.5,0.9,82,2.1,6000,,1.852,,,,,0,,,,,,,0,og-post,,,,AAXX 20084 07070 24956 /0000 10049 20021 30260 40375 53009 700// 333 60005 90710 91101=
07070,2012-03-20 09:00:00,7,1037.4,0.7,71,2.1,8000,3.704,7.408,,340,,,0,0,,,,,,0,og-post,,,,AAXX 20094 07070 24958 /3402 10070 20021 30260 40374 51007 700// 333 60007 90710 91104 555 60005=
07070,2012-03-20 10:00:00,9.7,1037.2,0.4,58,1.8,10000,1.852,7.408,,150,,,0,,,,,,,0,og-post,,,,AAXX 20104 07070 24960 /1501 10097 20018 30259 40372 51004 700// 333 60005 90710 91104=
07070,2012-03-20 11:00:00,11.4,1036.9,-0.3,51,1.6,11000,5.556,11.112,,30,,,0,,,,,,,0,og-post,,,,AAXX 20114 07070 24961 /0303 10114 20016 30257 40369 58003 700// 333 60005 90710 91106=
07070,2012-03-20 12:00:00,11.8,1036.7,-0.5,52,2.3,12000,7.408,14.816,,40,,,0,0,,,,,,0,og-post,,,,AAXX 20124 07070 04962 /0404 10118 20023 30255 40367 58005 60001 700// 333 60007 90710 91108 555 60005=
07070,2012-03-20 13:00:00,12.4,1036.1,-1,44,0.5,18000,5.556,18.52,,50,,,0,,,,,,,0,og-post,,,,AAXX 20134 07070 24668 /0503 10124 20005 30249 40361 58010 700// 333 60005 90710 91110=
07070,2012-03-20 14:00:00,12.7,1035.7,-1.2,46,1.4,15000,9.26,18.52,,50,,,0,,,,,,,0,og-post,,,,AAXX 20144 07070 24965 /0505 10127 20014 30245 40357 58012 700// 333 60005 90710 91110=
07070,2012-03-20 15:00:00,12.6,1035.3,-1.4,44,0.7,17000,7.408,16.668,,360,,,0,0,,,,,,0,og-post,,,,AAXX 20154 07070 24667 /3604 10126 20007 30241 40353 56014 700// 333 60007 90710 91109 555 60005=
07070,2012-03-20 16:00:00,12.9,1034.9,-1.1,44,0.9,14000,3.704,18.52,,40,,,0,,,,,,,0,og-post,,,,AAXX 20164 07070 24964 /0402 10129 20009 30238 40349 56011 700// 333 60005 90710 91110=
07070,2012-03-20 17:00:00,11.8,1035,-0.7,51,2,13000,7.408,12.964,,40,,,0,,,,,,,0,og-post,,,,AAXX 20174 07070 24963 /0404 10118 20020 30238 40350 56007 700// 333 60005 90710 91107=
07070,2012-03-20 18:00:00,8.4,1035.4,-0,67,2.6,12000,1.852,9.26,,20,-1.3,13.2,0,0,,,,,,0,og-post,,,,AAXX 20184 07070 04962 /0201 10084 20026 30241 40354 55000 60002 700// 333 10132 21013 60007 90710 91105 555 60005=
07070,2012-03-20 19:00:00,5.4,1035.7,0.5,78,1.9,8000,,3.704,,,,,0,,,,,,,0,og-post,,,,AAXX 20194 07070 24958 /0000 10054 20019 30243 40357 53005 700// 333 60005 90710 91102=
07070,2012-03-20 20:00:00,4.4,1036,0.7,80,1.2,8000,1.852,3.704,,50,,,0,,,,,,,0,og-post,,,,AAXX 20204 07070 24958 /0501 10044 20012 30245 40360 52007 700// 333 60005 90710 91102=
07070,2012-03-20 21:00:00,3.6,1035.9,0.3,83,1,7000,,1.852,,,,,0,0,,,,,,0,og-post,,,,AAXX 20214 07070 24957 /0000 10036 20010 30244 40359 51003 700// 333 60007 90710 91101 555 60005=
07070,2012-03-20 22:00:00,2.6,1035.9,0,87,0.7,6000,,1.852,,,,,0,,,,,,,0,og-post,,,,AAXX 20224 07070 24956 /0000 10026 20007 30243 40359 50000 700// 333 60005 90710 91101=
07070,2012-03-20 23:00:00,2.1,1035.8,-0.3,88,0.3,4500,3.704,5.556,,260,,,0,,,,,,,10,og-post,,,,AAXX 20234 07070 24945 /2602 10021 20003 30242 40358 57003 710// 333 60005 90710 91103=
07070,2012-03-21 00:00:00,1.7,1036,-0,89,0.1,4300,,3.704,,,,,0,0,,,,,,10,og-post,,,,AAXX 21004 07070 04943 /0000 10017 20001 30244 40360 55000 60001 710// 333 60007 90710 91102 555 60005=
07070,2012-03-21 01:00:00,0.1,1036.1,0.1,89,-1.5,4000,,1.852,,,,,0,,,,,,,10,og-post,,,,AAXX 21014 07070 24940 /0000 10001 21015 30244 40361 53001 710// 333 60005 90710 91101=
07070,2012-03-21 02:00:00,-0.4,1035.8,-0.1,91,-1.7,3200,,3.704,,,,,0,,,,,,,10,og-post,,,,AAXX 21024 07070 24932 /0000 11004 21017 30241 40358 58001 710// 333 60005 90710 91102=
07070,2012-03-21 03:00:00,-0.3,1035.5,-0.6,93,-1.3,2600,,3.704,,,,,0,0,,,,,,10,og-post,,,,AAXX 21034 07070 24926 /0000 11003 21013 30238 40355 58006 710// 333 60007 90710 91102 555 60005=
07070,2012-03-21 04:00:00,-1.6,1035.7,-0.4,93,-2.6,3200,1.852,3.704,,120,,,0,,,,,,,10,og-post,,,,AAXX 21044 07070 24932 /1201 11016 21026 30240 40357 55004 710// 333 60005 90710 91102=
07070,2012-03-21 05:00:00,-1.6,1035.6,-0.2,94,-2.4,1300,,1.852,,,,,0,,,,,,,10,og-post,,,,AAXX 21054 07070 24913 /0000 11016 21024 30239 40356 56002 710// 333 60005 90710 91101=
07070,2012-03-21 06:00:00,-2.8,1035.7,0.1,94,-3.6,600,1.852,1.852,,140,-2.8,8.4,0,0,,,0,10.4,-6,49,og-post,,,,AAXX 21064 07070 04906 /1401 11028 21036 30239 40357 51001 60002 749// 333 10084 21028 30106 55104 60007 70000 90710 91101 555 60005=
07070,2012-03-21 07:00:00,-1.5,1035.8,0.1,95,-2.2,200,1.852,3.704,,20,,,0,,,,,,,49,og-post,,,,AAXX 21074 07070 24902 /0201 11015 21022 30241 40358 53001 749// 333 60005 90710 91102=
07070,2012-03-21 08:00:00,4,1035.7,0.3,93,3,3800,,3.704,,,,,0,,,,,,,10,og-post,,,,AAXX 21084 07070 24838 /0000 10040 20030 30242 40357 53003 710// 333 60005 90710 91102=
07070,2012-03-21 09:00:00,7.6,1035.8,0.5,71,2.7,9000,7.408,12.964,,70,,,0,0,,,,,,0,og-post,,,,AAXX 21094 07070 24959 /0704 10076 20027 30244 40358 52005 700// 333 60007 90710 91107 555 60005=
07070,2012-03-21 10:00:00,10.1,1035.1,-0.2,62,3.1,10000,7.408,12.964,,60,,,0,,,,,,,0,og-post,,,,AAXX 21104 07070 24960 /0604 10101 20031 30239 40351 58002 700// 333 60005 90710 91107=
07070,2012-03-21 11:00:00,14.3,1034.3,-1,40,0.9,12000,18.52,29.632,,90,,,0,,,,,,,0,og-post,,,,AAXX 21114 07070 24962 /0910 10143 20009 30232 40343 58010 700// 333 60005 90710 91116=
07070,2012-03-21 12:00:00,15.3,1033.8,-1.6,39,1.4,13000,20.372,31.484,,80,,,0,0,,,,,,0,og-post,,,,AAXX 21124 07070 04963 /0811 10153 20014 30228 40338 56016 60001 700// 333 60007 90710 91117 555 60005=
07070,2012-03-21 13:00:00,16.2,1032.8,-2.1,33,-0.1,16000,18.52,31.484,,100,,,0,,,,,,,0,og-post,,,,AAXX 21134 07070 24966 /1010 10162 21001 30218 40328 58021 700// 333 60005 90710 91117=
07070,2012-03-22 13:00:00,18.8,1026.9,-1.9,31,1.3,14000,12.964,24.076,,90,,,0,,,,,,,0,og-post,,,,AAXX 22134 07070 24964 /0907 10188 20013 30161 40269 58019 700// 333 60005 90710 91113=
07070,2012-03-22 14:00:00,19.5,1026.3,-2,33,2.8,14000,11.112,20.372,,90,,,0,,,,,,,0,og-post,,,,AAXX 22144 07070 24964 /0906 10195 20028 30155 40263 56020 700// 333 60005 90710 91111=
07070,2012-03-22 15:00:00,19.9,1025.7,-1.8,31,2.3,15000,11.112,22.224,,100,,,0,0,,,,,,0,og-post,,,,AAXX 22154 07070 24965 /1006 10199 20023 30149 40257 57018 700// 333 60007 90710 91112 555 60005=
07070,2012-03-22 16:00:00,17.9,1025.3,-1.6,44,5.5,18000,7.408,20.372,,90,,,0,,,,,,,0,og-post,,,,AAXX 22164 07070 24968 /0904 10179 20055 30145 40253 56016 700// 333 60005 90710 91111=
07070,2012-03-22 17:00:00,16,1025.2,-1.2,55,7,12000,5.556,11.112,,80,,,0,,,,,,,0,og-post,,,,AAXX 22174 07070 24962 /0803 10160 20070 30143 40252 56012 700// 333 60005 90710 91106=
07070,2012-03-22 18:00:00,13.6,1025.6,-0.3,59,5.7,12000,3.704,5.556,,80,0.3,20.2,0,0,,,,,,0,og-post,,,,AAXX 22184 07070 04962 /0802 10136 20057 30146 40256 55003 60002 700// 333 10202 20003 60007 90710 91103 555 60005=
07070,2012-03-22 19:00:00,10.1,1025.9,0.3,69,4.7,10000,7.408,9.26,,100,,,0,,,,,,,0,og-post,,,,AAXX 22194 07070 24960 /1004 10101 20047 30148 40259 53003 700// 333 60005 90710 91105=
07070,2012-03-22 20:00:00,7.2,1026.2,0.6,76,3.2,11000,9.26,12.964,,100,,,0,,,,,,,0,og-post,,,,AAXX 22204 07070 24961 /1005 10072 20032 30149 40262 51006 700// 333 60005 90710 91107=
07070,2012-03-22 21:00:00,9,1026.3,0.5,67,3.2,15000,,12.964,,,,,0,0,,,,,,0,og-post,,,,AAXX 22214 07070 24965 /0000 10090 20032 30151 40263 52005 700// 333 60007 90710 91107 555 60005=
07070,2012-03-22 22:00:00,7.8,1026.6,0.6,72,3.1,13000,3.704,7.408,,340,,,0,,,,,,,0,og-post,,,,AAXX 22224 07070 24963 /3402 10078 20031 30154 40266 53006 700// 333 60005 90710 91104=
07070,2012-03-22 23:00:00,6,1026.6,0.4,77,2.3,10000,5.556,7.408,,330,,,0,,,,,,,0,og-post,,,,AAXX 22234 07070 24960 /3303 10060 20023 30153 40266 50004 700// 333 60005 90710 91104=
07070,2012-03-23 00:00:00,4,1026.5,0,83,1.4,11000,5.556,7.408,,60,,,0,0,,,,,,0,og-post,,,,AAXX 23004 07070 04961 /0603 10040 20014 30151 40265 50000 60001 700// 333 60007 90710 91104 555 60005=
07070,2012-03-23 01:00:00,4.5,1026.5,-0.3,83,1.9,11000,3.704,5.556,,340,,,0,,,,,,,0,og-post,,,,AAXX 23014 07070 24961 /3402 10045 20019 30151 40265 56003 700// 333 60005 90710 91103=
07070,2012-03-23 02:00:00,3.3,1026.3,-0.4,85,1,10000,1.852,5.556,,90,,,0,,,,,,,0,og-post,,,,AAXX 23024 07070 24960 /0901 10033 20010 30149 40263 57004 700// 333 60005 90710 91103=
07070,2012-03-23 03:00:00,2.5,1026.1,-0.5,87,0.6,10000,3.704,5.556,,60,,,0,0,,,,,,0,og-post,,,,AAXX 23034 07070 24960 /0602 10025 20006 30146 40261 58005 700// 333 60007 90710 91103 555 60005=
07070,2012-03-23 04:00:00,2,1026.2,-0.4,87,0.1,10000,1.852,5.556,,70,,,0,,,,,,,0,og-post,,,,AAXX 23044 07070 24960 /0701 10020 20001 30147 40262 55004 700// 333 60005 90710 91103=
07070,2012-03-23 05:00:00,1.8,1026.3,-0.1,89,0.2,9000,3.704,5.556,,70,,,0,,,,,,,0,og-post,,,,AAXX 23054 07070 24959 /0702 10018 20002 30148 40263 55001 700// 333 60005 90710 91103=
07070,2012-03-23 06:00:00,1.3,1026.5,0.4,89,-0.3,8000,3.704,5.556,,350,1.3,13.5,0,0,,,0,9.7,-2,0,og-post,,,,AAXX 23064 07070 04958 /3502 10013 21003 30150 40265 53004 60002 700// 333 10135 20013 30102 55097 60007 70000 90710 91103 555 60005=
07070,2012-03-23 07:00:00,4.4,1026.7,0.6,86,2.3,7000,,5.556,,,,,0,,,,,,,0,og-post,,,,AAXX 23074 07070 24957 /0000 10044 20023 30153 40267 53006 700// 333 60005 90710 91103=
07070,2012-03-23 08:00:00,9.5,1026.7,0.7,74,5.1,8000,3.704,5.556,,50,,,0,,,,,,,0,og-post,,,,AAXX 23084 07070 24958 /0502 10095 20051 30155 40267 52007 700// 333 60005 90710 91103=
07070,2012-03-23 09:00:00,12.6,1026.7,0.6,67,6.6,8000,7.408,12.964,,90,,,0,0,,,,,,0,og-post,,,,AAXX 23094 07070 24958 /0904 10126 20066 30156 40267 51006 700// 333 60007 90710 91107 555 60005=
07070,2012-03-23 10:00:00,15.4,1026.6,0.4,58,7.2,9000,3.704,11.112,,100,,,0,,,,,,,0,og-post,,,,AAXX 23104 07070 24959 /1002 10154 20072 30157 40266 51004 700// 333 60005 90710 91106=
07070,2012-03-23 11:00:00,16.9,1026.4,0,47,5.5,8000,5.556,18.52,,70,,,0,,,,,,,0,og-post,,,,AAXX 23114 07070 24958 /0703 10169 20055 30155 40264 50000 700// 333 60005 90710 91110=
07070,2012-03-23 12:00:00,18.3,1026.1,-0.3,47,6.8,9000,5.556,16.668,,40,,,0,0,,,,,,0,og-post,,,,AAXX 23124 07070 04959 /0403 10183 20068 30153 40261 58003 60001 700// 333 60007 90710 91109 555 60005=
07070,2012-03-23 13:00:00,19.6,1025.6,-0.9,38,4.9,10000,7.408,18.52,,50,,,0,,,,,,,0,og-post,,,,AAXX 23134 07070 24960 /0504 10196 20049 30148 40256 58009 700// 333 60005 90710 91110=
07070,2012-03-23 14:00:00,20.4,1025.3,-0.9,39,6,10000,3.704,16.668,,10,,,0,,,,,,,0,og-post,,,,AAXX 23144 07070 24960 /0102 10204 20060 30146 40253 57009 700// 333 60005 90710 91109=
07070,2012-03-23 15:00:00,20.8,1024.9,-1.1,34,4.4,11000,5.556,12.964,,30,,,0,0,,,,,,0,og-post,,,,AAXX 23154 07070 24961 /0303 10208 20044 30142 40249 56011 700// 333 60007 90710 91107 555 60005=
07070,2012-03-23 16:00:00,20.3,1024.4,-1.1,33,3.5,12000,5.556,11.112,,10,,,0,,,,,,,0,og-post,,,,AAXX 23164 07070 24962 /0103 10203 20035 30137 40244 58011 700// 333 60005 90710 91106=
07070,2012-03-23 17:00:00,19.2,1024.5,-0.9,39,4.9,13000,7.408,11.112,,330,,,0,,,,,,,0,og-post,,,,AAXX 23174 07070 24963 /3304 10192 20049 30137 40245 56009 700// 333 60005 90710 91106=
07070,2012-03-23 18:00:00,16.1,1024.8,-0.3,48,5.1,12000,5.556,11.112,,340,1,21,0,0,,,,,,0,og-post,,,,AAXX 23184 07070 04962 /3403 10161 20051 30139 40248 55003 60002 700// 333 10210 20010 60007 90710 91106 555 60005=
07070,2012-03-23 19:00:00,13.2,1025.2,0.5,57,4.9,12000,11.112,14.816,,10,,,0,,,,,,,0,og-post,,,,AAXX 23194 07070 24962 /0106 10132 20049 30142 40252 53005 700// 333 60005 90710 91108=
07070,2012-03-23 20:00:00,11.2,1025.7,0.9,65,4.9,10000,7.408,12.964,,330,,,0,,,,,,,0,og-post,,,,AAXX 23204 07070 24960 /3304 10112 20049 30146 40257 53009 700// 333 60005 90710 91107=
07070,2012-03-23 21:00:00,11,1025.8,0.8,66,4.9,10000,11.112,14.816,,350,,,0,0,,,,,,0,og-post,,,,AAXX 23214 07070 24960 /3506 10110 20049 30147 40258 51008 700// 333 60007 90710 91108 555 60005=
07070,2012-03-23 22:00:00,10,1025.9,0.6,69,4.6,9000,1.852,16.668,,270,,,0,,,,,,,0,og-post,,,,AAXX 23224 07070 24959 /2701 10100 20046 30148 40259 51006 700// 333 60005 90710 91109=
07070,2012-03-23 23:00:00,8.5,1025.7,-0.1,76,4.5,7000,5.556,7.408,,320,,,0,,,,,,,0,og-post,,,,AAXX 23234 07070 24957 /3203 10085 20045 30145 40257 58001 700// 333 60005 90710 91104=
07070,2012-03-24 00:00:00,6.1,1025.6,-0.4,84,3.6,5000,,5.556,,,,,0,0,,,,,,0,og-post,,,,AAXX 24004 07070 04950 /0000 10061 20036 30143 40256 58004 60001 700// 333 60007 90710 91103 555 60005=
07070,2012-03-24 01:00:00,5.3,1025.6,-0.5,87,3.3,5000,3.704,5.556,,290,,,0,,,,,,,0,og-post,,,,AAXX 24014 07070 24950 /2902 10053 20033 30143 40256 56005 700// 333 60005 90710 91103=
07070,2012-03-24 02:00:00,6.6,1025.6,-0.2,85,4.3,4900,,7.408,,,,,0,,,,,,,10,og-post,,,,AAXX 24024 07070 24949 /0000 10066 20043 30143 40256 56002 710// 333 60005 90710 91104=
07070,2012-03-24 03:00:00,4.3,1025.5,-0.2,89,2.6,3300,1.852,3.704,,160,,,0,0,,,,,,10,og-post,,,,AAXX 24034 07070 24933 /1601 10043 20026 30141 40255 58002 710// 333 60007 90710 91102 555 60005=
07070,2012-03-24 04:00:00,4.7,1025.5,-0.2,92,3.5,3200,1.852,3.704,,160,,,0,,,,,,,10,og-post,,,,AAXX 24044 07070 24932 /1601 10047 20035 30141 40255 57002 710// 333 60005 90710 91102=
07070,2012-03-24 05:00:00,3.9,1026,0.3,91,2.6,2100,,1.852,,,,,0,,,,,,,10,og-post,,,,AAXX 24054 07070 24921 /0000 10039 20026 30146 40260 53003 710// 333 60005 90710 91101=
07070,2012-03-24 06:00:00,3.4,1026.4,0.9,92,2.2,2500,3.704,3.704,,260,3.2,16,0,0,,,0,11,-0,10,og-post,,,,AAXX 24064 07070 04925 /2602 10034 20022 30150 40264 53009 60002 710// 333 10160 20032 30100 55110 60007 70000 90710 91102 555 60005=
07070,2012-03-24 07:00:00,6.7,1026.6,1.2,92,5.5,2000,,1.852,,,,,0,,,,,,,10,og-post,,,,AAXX 24074 07070 24920 /0000 10067 20055 30153 40266 51012 710// 333 60005 90710 91101=
07070,2012-03-24 08:00:00,9.4,1026.9,1.1,82,6.5,4500,3.704,5.556,,330,,,0,,,,,,,10,og-post,,,,AAXX 24084 07070 24945 /3302 10094 20065 30157 40269 52011 710// 333 60005 90710 91103=
07070,2012-03-24 09:00:00,13.7,1027,1,66,7.5,6000,5.556,9.26,,30,,,0,0,,,,,,0,og-post,,,,AAXX 24094 07070 24956 /0303 10137 20075 30160 40270 52010 700// 333 60007 90710 91105 555 60005=
07070,2012-03-24 10:00:00,16.5,1026.8,0.6,54,7.2,9000,1.852,9.26,,60,,,0,,,,,,,0,og-post,,,,AAXX 24104 07070 24959 /0601 10165 20072 30159 40268 50006 700// 333 60005 90710 91105=
07070,2012-03-24 11:00:00,18.5,1026.6,0.1,47,7,8000,5.556,12.964,,30,,,0,,,,,,,0,og-post,,,,AAXX 24114 07070 24958 /0303 10185 20070 30158 40266 50001 700// 333 60005 90710 91107=
07070,2012-03-24 12:00:00,20.1,1026.3,-0.5,44,7.5,9000,5.556,14.816,,30,,,0,0,,,,,,0,og-post,,,,AAXX 24124 07070 04959 /0303 10201 20075 30155 40263 58005 60001 700// 333 60007 90710 91108 555 60005=
07070,2012-03-24 13:00:00,20.7,1025.8,-0.8,36,5.1,8000,11.112,22.224,,30,,,0,,,,,,,0,og-post,,,,AAXX 24134 07070 24958 /0306 10207 20051 30151 40258 58008 700// 333 60005 90710 91112=
07070,2012-03-24 14:00:00,21.5,1025.5,-1,33,4.5,9000,11.112,22.224,,20,,,0,,,,,,,0,og-post,,,,AAXX 24144 07070 24959 /0206 10215 20045 30148 40255 57010 700// 333 60005 90710 91112=
07070,2012-03-24 15:00:00,21.2,1025.2,-1,34,4.7,10000,14.816,24.076,,20,,,0,0,,,,,,0,og-post,,,,AAXX 24154 07070 24960 /0208 10212 20047 30145 40252 56010 700// 333 60007 90710 91113 555 60005=
07070,2012-03-24 16:00:00,20.2,1025,-0.9,34,3.8,14000,14.816,25.928,,360,,,0,,,,,,,0,og-post,,,,AAXX 24164 07070 24964 /3608 10202 20038 30142 40250 57009 700// 333 60005 90710 91114=
07070,2012-03-24 17:00:00,18.7,1024.9,-0.7,45,6.5,13000,12.964,20.372,,10,,,0,,,,,,,0,og-post,,,,AAXX 24174 07070 24963 /0107 10187 20065 30141 40249 56007 700// 333 60005 90710 91111=
07070,2012-03-24 18:00:00,15.3,1025.4,-0,57,6.8,12000,12.964,18.52,,10,3.4,21.7,0,0,,,,,,0,og-post,,,,AAXX 24184 07070 04962 /0107 10153 20068 30145 40254 55000 60002 700// 333 10217 20034 60007 90710 91110 555 60005=
07070,2012-03-24 19:00:00,13.4,1026.1,0.9,63,6.5,11000,14.816,18.52,,20,,,0,,,,,,,0,og-post,,,,AAXX 24194 07070 24961 /0208 10134 20065 30151 40261 53009 700// 333 60005 90710 91110=
07070,2012-03-24 20:00:00,13.1,1026.5,1.4,60,5.5,12000,11.112,18.52,,10,,,0,,,,,,,0,og-post,,,,AAXX 24204 07070 24962 /0106 10131 20055 30155 40265 52014 700// 333 60005 90710 91110=
07070,2012-03-24 21:00:00,9.8,1027,1.3,76,5.8,10000,1.852,9.26,,360,,,0,0,,,,,,0,og-post,,,,AAXX 24214 07070 24960 /3601 10098 20058 30158 40270 51013 700// 333 60007 90710 91105 555 60005=
07070,2012-03-24 22:00:00,9.2,1027.4,1.1,76,5.2,9000,5.556,7.408,,310,,,0,,,,,,,0,og-post,,,,AAXX 24224 07070 24959 /3103 10092 20052 30162 40274 52011 700// 333 60005 90710 91104=
07070,2012-03-24 23:00:00,7.9,1027.8,1,78,4.3,7000,1.852,9.26,,310,,,0,,,,,,,0,og-post,,,,AAXX 24234 07070 24957 /3101 10079 20043 30165 40278 52010 700// 333 60005 90710 91105=
07070,2012-03-25 00:00:00,7.1,1027.7,0.6,87,5.1,7000,3.704,5.556,,320,,,0,0,,,,,,0,og-post,,,,AAXX 25004 07070 04957 /3202 10071 20051 30164 40277 50006 60001 700// 333 60007 90710 91103 555 60005=
07070,2012-03-25 01:00:00,5.7,1028,0.5,88,3.9,5000,,3.704,,,,,0,,,,,,,0,og-post,,,,AAXX 25014 07070 24950 /0000 10057 20039 30167 40280 52005 700// 333 60005 90710 91102=
07070,2012-03-25 02:00:00,4.8,1028.2,0.3,90,3.3,4000,,3.704,,,,,0,,,,,,,10,og-post,,,,AAXX 25024 07070 24940 /0000 10048 20033 30168 40282 53003 710// 333 60005 90710 91102=
07070,2012-03-25 03:00:00,4.7,1028.4,0.6,91,3.4,3000,,3.704,,,,,0,0,,,,,,10,og-post,,,,AAXX 25034 07070 24930 /0000 10047 20034 30170 40284 51006 710// 333 60007 90710 91102 555 60005=
07070,2012-03-25 04:00:00,4.5,1028.5,0.4,93,3.5,3000,3.704,3.704,,250,,,0,,,,,,,10,og-post,,,,AAXX 25044 07070 24930 /2502 10045 20035 30171 40285 52004 710// 333 60005 90710 91102=
07070,2012-03-25 05:00:00,4,1029,0.8,92,2.8,2000,,5.556,,,,,0,,,,,,,10,og-post,,,,AAXX 25054 07070 24920 /0000 10040 20028 30176 40290 53008 710// 333 60005 90710 91103=
07070,2012-03-25 06:00:00,3.8,1029.4,1,94,2.9,1400,,1.852,,,2.9,15.2,0,0,,,0,10.8,0,10,og-post,,,,AAXX 25064 07070 04914 /0000 10038 20029 30180 40294 53010 60002 710// 333 10152 20029 30000 55108 60007 70000 90710 91101 555 60005=
07070,2012-03-25 07:00:00,6.2,1029.8,1.4,95,5.5,2500,,3.704,,,,,0,,,,,,,10,og-post,,,,AAXX 25074 07070 24925 /0000 10062 20055 30185 40298 52014 710// 333 60005 90710 91102=
07070,2012-03-25 08:00:00,9.6,1030.1,1.3,87,7.5,4100,,3.704,,,,,0,,,,,,,10,og-post,,,,AAXX 25084 07070 24941 /0000 10096 20075 30189 40301 52013 710// 333 60005 90710 91102=
07070,2012-03-25 09:00:00,13.2,1030.5,1.4,69,7.6,5000,3.704,7.408,,50,,,0,0,,,,,,0,og-post,,,,AAXX 25094 07070 24950 /0502 10132 20076 30194 40305 52014 700// 333 60007 90710 91104 555 60005=
07070,2012-03-25 10:00:00,15.7,1030.6,1.1,64,8.9,6000,5.556,11.112,,30,,,0,,,,,,,0,og-post,,,,AAXX 25104 07070 24956 /0303 10157 20089 30196 40306 51011 700// 333 60005 90710 91106=
07070,2012-03-25 11:00:00,17.6,1030.4,0.6,53,7.9,6000,7.408,16.668,,40,,,0,,,,,,,0,og-post,,,,AAXX 25114 07070 24956 /0404 10176 20079 30195 40304 50006 700// 333 60005 90710 91109=
07070,2012-03-25 12:00:00,19.8,1030.1,-0.1,45,7.5,6000,9.26,16.668,,40,,,0,0,,,,,,0,og-post,,,,AAXX 25124 07070 04956 /0405 10198 20075 30193 40301 58001 60001 700// 333 60007 90710 91109 555 60005=
07070,2012-03-25 13:00:00,20.9,1029.6,-0.8,37,5.7,11000,14.816,22.224,,70,,,0,,,,,,,0,og-post,,,,AAXX 25134 07070 24961 /0708 10209 20057 30188 40296 58008 700// 333 60005 90710 91112=
07070,2012-03-25 14:00:00,21.7,1029.3,-0.9,32,4.3,16000,16.668,25.928,,50,,,0,,,,,,,0,og-post,,,,AAXX 25144 07070 24966 /0509 10217 20043 30186 40293 57009 700// 333 60005 90710 91114=
07070,2012-03-25 15:00:00,21.7,1029.2,-0.8,32,4.3,18000,14.816,24.076,,40,,,0,0,,,,,,0,og-post,,,,AAXX 25154 07070 24968 /0408 10217 20043 30185 40292 56008 700// 333 60007 90710 91113 555 60005=
07070,2012-03-25 16:00:00,21.7,1028.9,-0.6,32,4.3,20000,12.964,24.076,,40,,,0,,,,,,,0,og-post,,,,AAXX 25164 07070 24970 /0407 10217 20043 30182 40289 58006 700// 333 60005 90710 91113=
07070,2012-03-25 17:00:00,20.9,1029.1,-0.3,41,7.1,19000,9.26,20.372,,40,,,0,,,,,,,0,og-post,,,,AAXX 25174 07070 24969 /0405 10209 20071 30183 40291 55003 700// 333 60005 90710 91111=
07070,2012-03-25 18:00:00,16.2,1029.7,0.3,56,7.4,16000,9.26,14.816,,10,3.5,21.9,0,0,,,,,,0,og-post,,,,AAXX 25184 07070 04966 /0105 10162 20074 30188 40297 53003 60002 700// 333 10219 20035 60007 90710 91108 555 60005=
07070,2012-03-25 19:00:00,14.7,1030.3,1.1,65,8.2,12000,16.668,24.076,,40,,,0,,,,,,,0,og-post,,,,AAXX 25194 07070 24962 /0409 10147 20082 30193 40303 53011 700// 333 60005 90710 91113=
07070,2012-03-25 20:00:00,12.7,1031.1,1.7,74,8.2,10000,11.112,20.372,,30,,,0,,,,,,,0,og-post,,,,AAXX 25204 07070 24960 /0306 10127 20082 30200 40311 53017 700// 333 60005 90710 91111=
07070,2012-03-25 21:00:00,11.3,1031.5,1.5,76,7.2,9000,9.26,16.668,,40,,,0,0,,,,,,0,og-post,,,,AAXX 25214 07070 24959 /0405 10113 20072 30203 40315 51015 700// 333 60007 90710 91109 555 60005=
07070,2012-03-25 22:00:00,10.4,1031.8,1.3,75,6.2,10000,9.26,14.816,,60,,,0,,,,,,,0,og-post,,,,AAXX 25224 07070 24960 /0605 10104 20062 30206 40318 51013 700// 333 60005 90710 91108=
07070,2012-03-25 23:00:00,7.9,1032.2,0.9,79,4.5,10000,5.556,11.112,,20,,,0,,,,,,,0,og-post,,,,AAXX 25234 07070 24960 /0203 10079 20045 30209 40322 52009 700// 333 60005 90710 91106=
07070,2012-03-26 00:00:00,7.7,1032.4,0.8,81,4.6,11000,5.556,11.112,,20,,,0,0,,,,,,0,og-post,,,,AAXX 26004 07070 04961 /0203 10077 20046 30211 40324 51008 60001 700// 333 60007 90710 91106 555 60005=
07070,2012-03-26 01:00:00,6.8,1032.4,0.5,79,3.4,14000,1.852,5.556,,50,,,0,,,,,,,0,og-post,,,,AAXX 26014 07070 24964 /0501 10068 20034 30211 40324 51005 700// 333 60005 90710 91103=
07070,2012-03-26 02:00:00,4.4,1032.8,0.4,84,1.9,10000,1.852,5.556,,10,,,0,,,,,,,0,og-post,,,,AAXX 26024 07070 24960 /0101 10044 20019 30213 40328 52004 700// 333 60005 90710 91103=
07070,2012-03-26 03:00:00,3.9,1032.9,0.3,89,2.3,8000,3.704,5.556,,10,,,0,0,,,,,,0,og-post,,,,AAXX 26034 07070 24958 /0102 10039 20023 30214 40329 53003 700// 333 60007 90710 91103 555 60005=
07070,2012-03-26 04:00:00,3.3,1033.1,0.5,91,2,10000,1.852,5.556,,190,,,0,,,,,,,0,og-post,,,,AAXX 26044 07070 24960 /1901 10033 20020 30216 40331 52005 700// 333 60005 90710 91103=
07070,2012-03-26 05:00:00,3.1,1033.1,0.3,89,1.5,10000,,3.704,,,,,0,,,,,,,0,og-post,,,,AAXX 26054 07070 24960 /0000 10031 20015 30216 40331 51003 700// 333 60005 90710 91102=
07070,2012-03-26 06:00:00,1.4,1033.6,0.6,91,0.1,7000,1.852,5.556,,190,1.2,16.3,0,0,,,0,10.6,-3,0,og-post,,,,AAXX 26064 07070 04957 /1901 10014 20001 30220 40336 53006 60002 700// 333 10163 20012 30103 55106 60007 70000 90710 91103 555 60005=
07070,2012-03-26 07:00:00,7,1033.7,0.7,85,4.6,10000,1.852,3.704,,230,,,0,,,,,,,0,og-post,,,,AAXX 26074 07070 24960 /2301 10070 20046 30223 40337 53007 700// 333 60005 90710 91102=
07070,2012-03-26 08:00:00,10.8,1034.1,1.3,61,3.6,20000,3.704,5.556,,30,,,0,,,,,,,0,og-post,,,,AAXX 26084 07070 24970 /0302 10108 20036 30229 40341 53013 700// 333 60005 90710 91103=
07070,2012-03-26 09:00:00,13.5,1034.2,1.1,54,4.4,19000,7.408,14.816,,70,,,0,0,,,,,,0,og-post,,,,AAXX 26094 07070 24969 /0704 10135 20044 30231 40342 52011 700// 333 60007 90710 91108 555 60005=
07070,2012-03-26 10:00:00,16.5,1034.2,0.9,43,3.9,20000,14.816,20.372,,80,,,0,,,,,,,0,og-post,,,,AAXX 26104 07070 24970 /0808 10165 20039 30232 40342 51009 700// 333 60005 90710 91111=
07070,2012-03-26 11:00:00,18.3,1033.5,-0.3,36,3,20000,16.668,25.928,,90,,,0,,,,,,,0,og-post,,,,AAXX 26114 07070 24970 /0909 10183 20030 30226 40335 58003 700// 333 60005 90710 91114=
07070,2012-03-26 12:00:00,19.6,1033.2,-0.8,30,1.5,20000,24.076,31.484,,90,,,0,0,,,,,,0,og-post,,,,AAXX 26124 07070 04970 /0913 10196 20015 30223 40332 58008 60001 700// 333 60007 90710 91117 555 60005=
07070,2012-03-26 13:00:00,20.4,1032.7,-1.3,28,1.3,20000,20.372,44.448,,80,,,0,,,,,,,0,og-post,,,,AAXX 26134 07070 24970 /0811 10204 20013 30219 40327 56013 700// 333 60005 90710 91124=
07070,2012-03-26 14:00:00,20.5,1032.2,-1.2,25,-0.2,20000,18.52,33.336,,100,,,0,,,,,,,0,og-post,,,,AAXX 26144 07070 24970 /1010 10205 21002 30214 40322 58012 700// 333 60005 90710 91118=
07070,2012-03-26 15:00:00,20.7,1031.6,-1.5,26,0.5,20000,14.816,29.632,,60,,,0,0,,,,,,0,og-post,,,,AAXX 26154 07070 24970 /0608 10207 20005 30208 40316 58015 700// 333 60007 90710 91116 555 60005=
07070,2012-03-26 16:00:00,20.6,1031.2,-1.5,26,0.4,20000,14.816,24.076,,80,,,0,,,,,,,0,og-post,,,,AAXX 26164 07070 24970 /0808 10206 20004 30204 40312 56015 700// 333 60005 90710 91113=
07070,2012-03-26 17:00:00,19.7,1031.1,-1.1,34,3.4,20000,7.408,20.372,,60,,,0,,,,,,,0,og-post,,,,AAXX 26174 07070 24970 /0604 10197 20034 30203 40311 56011 700// 333 60005 90710 91111=
07070,2012-03-26 18:00:00,15.6,1031.6,-0.2,44,3.4,20000,18.52,25.928,,30,1.5,21,0,0,,,,,,0,og-post,,,,AAXX 26184 07070 04970 /0310 10156 20034 30206 40316 55002 60002 700// 333 10210 20015 60007 90710 91114 555 60005=
07070,2012-03-26 19:00:00,12.3,1032.2,0.7,52,2.7,20000,12.964,22.224,,30,,,0,,,,,,,0,og-post,,,,AAXX 26194 07070 24970 /0307 10123 20027 30211 40322 53007 700// 333 60005 90710 91112=
07070,2012-03-26 21:00:00,9.8,1032.8,1,58,1.9,20000,7.408,11.112,,60,,,0,0,,,,,,0,og-post,,,,AAXX 26214 07070 24970 /0604 10098 20019 30216 40328 51010 700// 333 60007 90710 91106 555 60005=
07070,2012-03-26 22:00:00,7.7,1033.1,0.7,65,1.5,20000,7.408,11.112,,30,,,0,,,,,,,0,og-post,,,,AAXX 26224 07070 24970 /0304 10077 20015 30218 40331 51007 700// 333 60005 90710 91106=
07070,2012-03-26 23:00:00,8.2,1033.2,0.4,60,0.9,20000,3.704,7.408,,70,,,0,,,,,,,0,og-post,,,,AAXX 26234 07070 24970 /0702 10082 20009 30219 40332 52004 700// 333 60005 90710 91104=
07070,2012-03-27 00:00:00,6.3,1033.3,0.3,69,1,20000,3.704,7.408,,310,,,0,0,,,,,,0,og-post,,,,AAXX 27004 07070 04970 /3102 10063 20010 30219 40333 51003 60001 700// 333 60007 90710 91104 555 60005=
07070,2012-03-27 01:00:00,5.5,1033.3,0.1,72,0.8,20000,1.852,7.408,,320,,,0,,,,,,,0,og-post,,,,AAXX 27014 07070 24970 /3201 10055 20008 30219 40333 51001 700// 333 60005 90710 91104=
07070,2012-03-27 02:00:00,4.2,1033.4,-0,75,0.2,20000,5.556,7.408,,300,,,0,,,,,,,0,og-post,,,,AAXX 27024 07070 24970 /3003 10042 20002 30219 40334 54000 700// 333 60005 90710 91104=
07070,2012-03-27 03:00:00,2.8,1033.4,-0,87,0.8,20000,3.704,7.408,,320,,,0,0,,,,,,0,og-post,,,,AAXX 27034 07070 24970 /3202 10028 20008 30219 40334 54000 700// 333 60007 90710 91104 555 60005=
07070,2012-03-27 04:00:00,1.4,1033.7,0.2,86,-0.7,19000,,5.556,,,,,0,,,,,,,0,og-post,,,,AAXX 27044 07070 24969 /0000 10014 21007 30221 40337 53002 700// 333 60005 90710 91103=
07070,2012-03-27 05:00:00,2.8,1033.8,0.4,84,0.4,16000,1.852,5.556,,50,,,0,,,,,,,0,og-post,,,,AAXX 27054 07070 24966 /0501 10028 20004 30223 40338 53004 700// 333 60005 90710 91103=
07070,2012-03-27 06:00:00,3,1034.1,0.7,86,0.9,15000,3.704,5.556,,240,1.1,15.7,0,0,,,0,11.5,-2,0,og-post,,,,AAXX 27064 07070 04965 /2402 10030 20009 30226 40341 53007 60002 700// 333 10157 20011 30102 55115 60007 70000 90710 91103 555 60005=
07070,2012-03-27 07:00:00,7.4,1034.3,0.9,73,2.9,8000,,3.704,,,,,0,,,,,,,0,og-post,,,,AAXX 27074 07070 24958 /0000 10074 20029 30230 40343 53009 700// 333 60005 90710 91102=
07070,2012-03-27 09:00:00,13.4,1034.6,0.9,57,5,17000,7.408,14.816,,60,,,0,0,,,,,,0,og-post,,,,AAXX 27094 07070 24967 /0604 10134 20050 30235 40346 51009 700// 333 60007 90710 91108 555 60005=
07070,2012-03-27 10:00:00,16.4,1034.3,0.3,48,5.4,16000,11.112,20.372,,50,,,0,,,,,,,0,og-post,,,,AAXX 27104 07070 24966 /0506 10164 20054 30233 40343 50003 700// 333 60005 90710 91111=
07070,2012-03-27 11:00:00,18.4,1033.7,-0.5,38,3.8,16000,14.816,24.076,,50,,,0,,,,,,,0,og-post,,,,AAXX 27114 07070 24966 /0508 10184 20038 30228 40337 58005 700// 333 60005 90710 91113=
07070,2012-03-27 12:00:00,19.7,1033.3,-1.1,27,0.2,19000,18.52,29.632,,60,,,0,0,,,,,,0,og-post,,,,AAXX 27124 07070 04969 /0610 10197 20002 30224 40333 58011 60001 700// 333 60007 90710 91116 555 60005=
07070,2012-03-27 13:00:00,20.5,1032.6,-1.5,27,0.8,20000,18.52,31.484,,90,,,0,,,,,,,0,og-post,,,,AAXX 27134 07070 24970 /0910 10205 20008 30218 40326 58015 700// 333 60005 90710 91117=
07070,2012-03-27 14:00:00,21.1,1032,-1.6,25,0.3,20000,14.816,33.336,,70,,,0,,,,,,,0,og-post,,,,AAXX 27144 07070 24970 /0708 10211 20003 30212 40320 58016 700// 333 60005 90710 91118=
07070,2012-03-27 15:00:00,21.4,1031.7,-1.5,27,1.6,20000,20.372,33.336,,80,,,0,0,,,,,,0,og-post,,,,AAXX 27154 07070 24970 /0811 10214 20016 30209 40317 56015 700// 333 60007 90710 91118 555 60005=
07070,2012-03-27 16:00:00,21.2,1031.1,-1.5,30,2.9,19000,12.964,27.78,,80,,,0,,,,,,,0,og-post,,,,AAXX 27164 07070 24969 /0807 10212 20029 30203 40311 57015 700// 333 60005 90710 91115=
07070,2012-03-27 17:00:00,20.7,1030.8,-1.2,34,4.3,20000,7.408,18.52,,30,,,0,,,,,,,0,og-post,,,,AAXX 27174 07070 24970 /0304 10207 20043 30200 40308 57012 700// 333 60005 90710 91110=
07070,2012-03-27 18:00:00,16.8,1031.1,-0.7,53,7.2,19000,9.26,12.964,,50,3,21.5,0,0,,,,,,0,og-post,,,,AAXX 27184 07070 04969 /0505 10168 20072 30202 40311 55007 60002 700// 333 10215 20030 60007 90710 91107 555 60005=
07070,2012-03-27 19:00:00,13.9,1031.5,0.1,57,5.5,15000,14.816,18.52,,30,,,0,,,,,,,0,og-post,,,,AAXX 27194 07070 24965 /0308 10139 20055 30204 40315 53001 700// 333 60005 90710 91110=
07070,2012-03-27 20:00:00,12,1031.9,0.8,61,4.7,16000,12.964,16.668,,40,,,0,,,,,,,0,og-post,,,,AAXX 27204 07070 24966 /0407 10120 20047 30208 40319 53008 700// 333 60005 90710 91109=
07070,2012-03-27 21:00:00,10.5,1032.3,0.9,65,4.2,14000,9.26,14.816,,40,,,0,0,,,,,,0,og-post,,,,AAXX 27214 07070 24964 /0405 10105 20042 30211 40323 53009 700// 333 60007 90710 91108 555 60005=
07070,2012-03-27 22:00:00,9.3,1032.3,0.7,70,4.1,13000,5.556,12.964,,50,,,0,,,,,,,0,og-post,,,,AAXX 27224 07070 24963 /0503 10093 20041 30211 40323 51007 700// 333 60005 90710 91107=
07070,2012-03-27 23:00:00,7.8,1032.4,0.3,74,3.5,11000,3.704,5.556,,50,,,0,,,,,,,0,og-post,,,,AAXX 27234 07070 24961 /0502 10078 20035 30211 40324 51003 700// 333 60005 90710 91103=
07070,2012-03-28 00:00:00,6.1,1032.4,-0.1,82,3.3,10000,1.852,7.408,,330,,,0,0,,,,,,0,og-post,,,,AAXX 28004 07070 04960 /3301 10061 20033 30210 40324 58001 60001 700// 333 60007 90710 91104 555 60005=
07070,2012-03-28 01:00:00,6.4,1032.2,-0.3,79,3,10000,1.852,3.704,,50,,,0,,,,,,,0,og-post,,,,AAXX 28014 07070 24960 /0501 10064 20030 30208 40322 58003 700// 333 60005 90710 91102=
07070,2012-03-28 02:00:00,4.5,1031.8,-0.7,83,1.9,7000,,7.408,,,,,0,,,,,,,0,og-post,,,,AAXX 28024 07070 24957 /0000 10045 20019 30204 40318 58007 700// 333 60005 90710 91104=
07070,2012-03-28 03:00:00,5.2,1031.6,-0.8,86,3,7000,,1.852,,,,,0,0,,,,,,0,og-post,,,,AAXX 28034 07070 24957 /0000 10052 20030 30202 40316 57008 700// 333 60007 90710 91101 555 60005=
07070,2012-03-28 04:00:00,3.8,1031.4,-0.9,87,1.8,6000,1.852,3.704,,320,,,0,,,,,,,0,og-post,,,,AAXX 28044 07070 24956 /3201 10038 20018 30199 40314 56009 700// 333 60005 90710 91102=
07070,2012-03-28 05:00:00,3.6,1031.6,-0.3,90,2.1,5000,1.852,3.704,,220,,,0,,,,,,,0,og-post,,,,AAXX 28054 07070 24950 /2201 10036 20021 30201 40316 55003 700// 333 60005 90710 91102=
07070,2012-03-28 06:00:00,3.1,1031.9,0.2,91,1.8,5000,3.704,3.704,,270,2.9,16.7,0,0,,,0,11.3,-1,0,og-post,,,,AAXX 28064 07070 04950 /2702 10031 20018 30204 40319 53002 60002 700// 333 10167 20029 30101 55113 60007 70000 90710 91102 555 60005=
07070,2012-03-28 07:00:00,7.1,1031.8,0.6,88,5.2,4700,1.852,3.704,,260,,,0,,,,,,,10,og-post,,,,AAXX 28074 07070 24947 /2601 10071 20052 30205 40318 51006 710// 333 60005 90710 91102=
07070,2012-03-28 08:00:00,11.2,1031.7,0.4,72,6.3,5000,1.852,5.556,,330,,,0,,,,,,,0,og-post,,,,AAXX 28084 07070 24950 /3301 10112 20063 30205 40317 51004 700// 333 60005 90710 91103=
07070,2012-03-28 09:00:00,14.1,1031.5,0.1,65,7.6,6000,7.408,14.816,,50,,,0,0,,,,,,0,og-post,,,,AAXX 28094 07070 24956 /0504 10141 20076 30205 40315 51001 700// 333 60007 90710 91108 555 60005=
07070,2012-03-28 10:00:00,15.6,1031.1,-0.4,58,7.4,7000,7.408,14.816,,20,,,0,,,,,,,0,og-post,,,,AAXX 28104 07070 24957 /0204 10156 20074 30201 40311 58004 700// 333 60005 90710 91108=
07070,2012-03-28 11:00:00,18.1,1030.5,-0.9,48,6.9,9000,9.26,16.668,,40,,,0,,,,,,,0,og-post,,,,AAXX 28114 07070 24959 /0405 10181 20069 30196 40305 58009 700// 333 60005 90710 91109=
07070,2012-03-28 12:00:00,19.5,1029.7,-1.6,40,5.5,14000,9.26,22.224,,20,,,0,0,,,,,,0,og-post,,,,AAXX 28124 07070 04964 /0205 10195 20055 30189 40297 58016 60001 700// 333 60007 90710 91112 555 60005=
07070,2012-03-28 13:00:00,21,1028.9,-2,34,4.5,19000,12.964,24.076,,30,,,0,,,,,,,0,og-post,,,,AAXX 28134 07070 24969 /0307 10210 20045 30181 40289 58020 700// 333 60005 90710 91113=
07070,2012-03-28 14:00:00,21.1,1028.2,-2.2,31,3.3,18000,18.52,25.928,,20,,,0,,,,,,,0,og-post,,,,AAXX 28144 07070 24968 /0210 10211 20033 30174 40282 57022 700// 333 60005 90710 91114=
07070,2012-03-28 15:00:00,21.7,1027.3,-2.3,31,3.8,19000,11.112,24.076,,40,,,0,0,,,,,,0,og-post,,,,AAXX 28154 07070 24969 /0406 10217 20038 30166 40273 57023 700// 333 60007 90710 91113 555 60005=
07070,2012-03-28 16:00:00,21.7,1026.8,-2,30,3.4,19000,12.964,24.076,,30,,,0,,,,,,,0,og-post,,,,AAXX 28164 07070 24969 /0307 10217 20034 30161 40268 56020 700// 333 60005 90710 91113=
07070,2012-03-28 17:00:00,20.6,1026.5,-1.7,35,4.6,19000,11.112,22.224,,10,,,0,,,,,,,0,og-post,,,,AAXX 28174 07070 24969 /0106 10206 20046 30157 40265 56017 700// 333 60005 90710 91112=
07070,2012-03-28 18:00:00,17.5,1026.8,-0.7,46,5.7,16000,16.668,24.076,,10,3.1,22.1,0,0,,,,,,0,og-post,,,,AAXX 28184 07070 04966 /0109 10175 20057 30159 40268 55007 60002 700// 333 10221 20031 60007 90710 91113 555 60005=
07070,2012-03-28 19:00:00,14.8,1027.2,0.1,52,5,17000,14.816,25.928,,10,,,0,,,,,,,0,og-post,,,,AAXX 28194 07070 24967 /0108 10148 20050 30162 40272 53001 700// 333 60005 90710 91114=
07070,2012-03-28 20:00:00,13.1,1027.3,0.6,58,5,14000,11.112,20.372,,20,,,0,,,,,,,0,og-post,,,,AAXX 28204 07070 24964 /0206 10131 20050 30163 40273 51006 700// 333 60005 90710 91111=
07070,2012-03-28 21:00:00,11.3,1027.5,0.5,66,5.2,10000,9.26,12.964,,20,,,0,0,,,,,,0,og-post,,,,AAXX 28214 07070 24960 /0205 10113 20052 30164 40275 51005 700// 333 60007 90710 91107 555 60005=
07070,2012-03-28 22:00:00,9.4,1027.4,0,72,4.6,9000,5.556,9.26,,330,,,0,,,,,,,0,og-post,,,,AAXX 28224 07070 24959 /3303 10094 20046 30162 40274 50000 700// 333 60005 90710 91105=
07070,2012-03-28 23:00:00,8.1,1027.5,-0,76,4.1,7000,7.408,9.26,,320,,,0,,,,,,,0,og-post,,,,AAXX 28234 07070 24957 /3204 10081 20041 30163 40275 54000 700// 333 60005 90710 91105=
07070,2012-03-29 00:00:00,8.2,1027.4,-0.2,81,5.1,4600,7.408,11.112,,330,,,0,0,,,,,,10,og-post,,,,AAXX 29004 07070 04946 /3304 10082 20051 30162 40274 56002 60001 710// 333 60007 90710 91106 555 60005=
07070,2012-03-29 01:00:00,5.7,1027.2,-0.3,88,3.9,3500,3.704,5.556,,330,,,0,,,,,,,10,og-post,,,,AAXX 29014 07070 24935 /3302 10057 20039 30159 40272 58003 710// 333 60005 90710 91103=
07070,2012-03-29 02:00:00,5.9,1027.1,-0.5,89,4.2,2700,3.704,12.964,,340,,,0,,,,,,,10,og-post,,,,AAXX 29024 07070 24927 /3402 10059 20042 30158 40271 57005 710// 333 60005 90710 91107=
07070,2012-03-29 03:00:00,3.7,1027,-0.6,91,2.4,1400,5.556,5.556,,190,,,0,0,,,,,,10,og-post,,,,AAXX 29034 07070 24914 /1903 10037 20024 30156 40270 56006 710// 333 60007 90710 91103 555 60005=
07070,2012-03-29 04:00:00,2.7,1027.1,-0.3,92,1.5,1100,1.852,9.26,,140,,,0,,,,,,,10,og-post,,,,AAXX 29044 07070 24911 /1401 10027 20015 30156 40271 56003 710// 333 60005 90710 91105=
07070,2012-03-29 05:00:00,2,1026.8,-0.5,94,1.1,900,3.704,9.26,,200,,,0,,,,,,,45,og-post,,,,AAXX 29054 07070 24909 /2002 10020 20011 30153 40268 58005 745// 333 60005 90710 91105=
07070,2012-03-29 06:00:00,4,1027,-0,96,3.4,1900,3.704,5.556,,270,1.4,17.5,0,0,,,0,11.5,-1,10,og-post,,,,AAXX 29064 07070 04919 /2702 10040 20034 30156 40270 55000 60002 710// 333 10175 20014 30101 55115 60007 70000 90710 91103 555 60005=
07070,2012-03-29 07:00:00,7.2,1027,0.1,91,5.8,3000,5.556,9.26,,310,,,0,,,,,,,10,og-post,,,,AAXX 29074 07070 24930 /3103 10072 20058 30157 40270 53001 710// 333 60005 90710 91105=
07070,2012-03-29 08:00:00,10.3,1026.9,0.5,70,5.1,4700,7.408,11.112,,310,,,0,,,,,,,10,og-post,,,,AAXX 29084 07070 24947 /3104 10103 20051 30158 40269 51005 710// 333 60005 90710 91106=
07070,2012-03-29 09:00:00,13.2,1026.7,0.1,62,6.1,6000,5.556,12.964,,320,,,0,0,,,,,,0,og-post,,,,AAXX 29094 07070 24956 /3203 10132 20061 30157 40267 51001 700// 333 60007 90710 91107 555 60005=
07070,2012-03-29 10:00:00,15.1,1026.3,-0.4,48,4.2,8000,14.816,25.928,,340,,,0,,,,,,,0,og-post,,,,AAXX 29104 07070 24958 /3408 10151 20042 30153 40263 58004 700// 333 60005 90710 91114=
07070,2012-03-29 11:00:00,16.5,1026.1,-0.6,43,3.9,11000,14.816,25.928,,350,,,0,,,,,,,0,og-post,,,,AAXX 29114 07070 24961 /3508 10165 20039 30152 40261 57006 700// 333 60005 90710 91114=
07070,2012-03-29 12:00:00,18.5,1025.4,-1.1,37,3.5,,18.52,27.78,,340,,,0,0,,,,,,,og-post,,,,AAXX 29124 07070 06/// /3410 10185 20035 30146 40254 58011 60001 333 60007 90710 91115 555 60005=
07070,2012-03-29 13:00:00,19.5,1024.4,-1.7,33,2.8,,16.668,37.04,,350,,,0,,,,,,,,og-post,,,,AAXX 29134 07070 26/// /3509 10195 20028 30136 40244 58017 333 60005 90710 91120=
07070,2012-03-29 14:00:00,19.9,1023.7,-2.3,31,2.3,16000,22.224,40.744,,340,,,0,,,,,,,0,og-post,,,,AAXX 29144 07070 24/66 /3412 10199 20023 30129 40237 58023 700// 333 60005 90710 91122=
07070,2012-03-29 15:00:00,18.7,1023.2,-2.2,37,3.7,10000,25.928,40.744,,350,,,0,0,,,,,,0,og-post,,,,AAXX 29154 07070 24960 83514 10187 20037 30124 40232 56022 700// 333 60007 90710 91122 555 60005=
07070,2012-03-29 16:00:00,18.1,1022.9,-1.5,34,2,12000,27.78,38.892,,350,,,0,,,,,,,0,og-post,,,,AAXX 29164 07070 24962 73515 10181 20020 30121 40229 56015 700// 333 60005 90710 91121=
07070,2012-03-29 17:00:00,17.4,1022.8,-0.9,43,4.7,11000,20.372,37.04,,10,,,0,,,,,,,0,og-post,,,,AAXX 29174 07070 24961 /0111 10174 20047 30120 40228 56009 700// 333 60005 90710 91120=
07070,2012-03-29 18:00:00,15.3,1023.3,-0,52,5.5,9000,16.668,31.484,,10,3.3,20.1,0,0,,,,,,0,og-post,,,,AAXX 29184 07070 04959 /0109 10153 20055 30124 40233 55000 60002 700// 333 10201 20033 60007 90710 91117 555 60005=
07070,2012-03-29 19:00:00,13,1024,0.9,60,5.4,8000,14.816,25.928,,10,,,0,,,,,,,0,og-post,,,,AAXX 29194 07070 24958 /0108 10130 20054 30130 40240 53009 700// 333 60005 90710 91114=
07070,2012-03-29 20:00:00,11,1024.7,1.6,65,4.7,11000,16.668,29.632,,10,,,0,,,,,,,0,og-post,,,,AAXX 29204 07070 24961 /0109 10110 20047 30136 40247 53016 700// 333 60005 90710 91116=
07070,2012-03-29 21:00:00,9.7,1024.9,1.4,70,4.5,16000,16.668,27.78,,10,,,0,0,,,,,,0,og-post,,,,AAXX 29214 07070 24966 /0109 10097 20045 30138 40249 51014 700// 333 60007 90710 91115 555 60005=
07070,2012-03-29 22:00:00,8.5,1025.5,1.3,78,4.9,12000,16.668,24.076,,10,,,0,,,,,,,0,og-post,,,,AAXX 29224 07070 24962 /0109 10085 20049 30143 40255 51013 700// 333 60005 90710 91113=
07070,2012-03-29 23:00:00,7.9,1025.5,0.7,81,4.8,10000,16.668,24.076,,10,,,0,,,,,,,0,og-post,,,,AAXX 29234 07070 24960 /0109 10079 20048 30143 40255 51007 700// 333 60005 90710 91113=
07070,2012-03-30 00:00:00,6.8,1025.3,0.2,84,4.3,8000,11.112,20.372,,350,,,0,0,,,,,,0,og-post,,,,AAXX 30004 07070 04958 /3506 10068 20043 30140 40253 50002 60001 700// 333 60007 90710 91111 555 60005=
07070,2012-03-30 01:00:00,5.9,1024.9,-0.7,88,4.1,6000,9.26,12.964,,350,,,0,,,,,,,0,og-post,,,,AAXX 30014 07070 24956 /3505 10059 20041 30136 40249 58007 700// 333 60005 90710 91107=
07070,2012-03-30 02:00:00,5.9,1024.4,-1.2,89,4.2,5000,11.112,14.816,,330,,,0,,,,,,,0,og-post,,,,AAXX 30024 07070 24950 /3306 10059 20042 30131 40244 58012 700// 333 60005 90710 91108=
07070,2012-03-30 03:00:00,5.1,1024.1,-1.2,89,3.4,5000,11.112,14.816,,320,,,0,0,,,,,,0,og-post,,,,AAXX 30034 07070 24950 /3206 10051 20034 30128 40241 56012 700// 333 60007 90710 91108 555 60005=
07070,2012-03-30 04:00:00,5.3,1024,-0.9,90,3.8,6000,5.556,14.816,,300,,,0,,,,,,,0,og-post,,,,AAXX 30044 07070 24956 /3003 10053 20038 30127 40240 56009 700// 333 60005 90710 91108=
07070,2012-03-30 05:00:00,3.5,1024.3,-0.2,90,2,3700,3.704,9.26,,50,,,0,,,,,,,10,og-post,,,,AAXX 30054 07070 24937 /0502 10035 20020 30129 40243 55002 710// 333 60005 90710 91105=
07070,2012-03-30 06:00:00,4.2,1024.5,0.3,93,3.2,4700,3.704,7.408,,310,3.5,15.2,0,0,,,0,7.7,-0,10,og-post,,,,AAXX 30064 07070 04947 /3102 10042 20032 30131 40245 53003 60002 710// 333 10152 20035 30100 55077 60007 70000 90710 91104 555 60005=
07070,2012-03-30 07:00:00,7.1,1024.4,0.5,89,5.4,6000,3.704,7.408,,300,,,0,,,,,,,0,og-post,,,,AAXX 30074 07070 24956 /3002 10071 20054 30132 40244 52005 700// 333 60005 90710 91104=
07070,2012-03-30 08:00:00,9.6,1024.5,0.5,77,5.8,7000,9.26,12.964,,320,,,0,,,,,,,0,og-post,,,,AAXX 30084 07070 24657 /3205 10096 20058 30134 40245 52005 700// 333 60005 90710 91107=
07070,2012-03-30 09:00:00,12,1024.1,-0.1,58,4,17000,14.816,18.52,,310,,,0,0,,,,,,0,og-post,,,,AAXX 30094 07070 24967 /3108 10120 20040 30130 40241 58001 700// 333 60007 90710 91110 555 60005=
07070,2012-03-30 10:00:00,14,1023.6,-0.6,50,3.7,17000,16.668,27.78,,330,,,0,,,,,,,0,og-post,,,,AAXX 30104 07070 24967 /3309 10140 20037 30126 40236 58006 700// 333 60005 90710 91115=
07070,2012-03-30 11:00:00,15.5,1022.9,-1.4,56,6.8,8000,20.372,33.336,,330,,,0,,,,,,,0,og-post,,,,AAXX 30114 07070 24958 /3311 10155 20068 30120 40229 58014 700// 333 60005 90710 91118=
07070,2012-03-30 12:00:00,16.3,1022.4,-1.5,55,7.2,7000,22.224,35.188,,340,,,0,0,,,,,,0,og-post,,,,AAXX 30124 07070 04957 /3412 10163 20072 30115 40224 58015 60001 700// 333 60007 90710 91119 555 60005=
07070,2012-03-30 13:00:00,16.5,1022,-1.5,54,7.2,8000,22.224,35.188,,340,,,0,,,,,,,0,og-post,,,,AAXX 30134 07070 24958 /3412 10165 20072 30111 40220 56015 700// 333 60005 90710 91119=
07070,2012-03-30 14:00:00,16.8,1021.4,-1.4,55,7.7,10000,22.224,37.04,,360,,,0,,,,,,,0,og-post,,,,AAXX 30144 07070 24560 /3612 10168 20077 30106 40214 57014 700// 333 60005 90710 91120=
07070,2012-03-30 15:00:00,14.4,1021.3,-1.1,63,7.4,16000,24.076,35.188,,10,,,0,0,,,,,,0,og-post,,,,AAXX 30154 07070 24566 /0113 10144 20074 30104 40213 56011 700// 333 60007 90710 91119 555 60005=
07070,2012-03-30 16:00:00,13.6,1021.3,-0.8,65,7.1,18000,20.372,31.484,,20,,,0,,,,,,,0,og-post,,,,AAXX 30164 07070 24568 /0211 10136 20071 30103 40213 56008 700// 333 60005 90710 91117=
07070,2012-03-30 17:00:00,11.7,1021.2,-0.4,72,6.8,18000,20.372,31.484,,10,,,0,,,,,,,0,og-post,,,,AAXX 30174 07070 24568 80111 10117 20068 30102 40212 56004 700// 333 60005 90710 91117=
07070,2012-03-30 18:00:00,10.4,1021.3,-0.2,75,6.2,13000,20.372,29.632,,350,4.2,17,0,0,,,,,,0,og-post,,,,AAXX 30184 07070 04463 83511 10104 20062 30102 40213 56002 60002 700// 333 10170 20042 60007 90710 91116 555 60005=
07070,2012-03-30 19:00:00,9.6,1021.3,-0.1,79,6.1,12000,18.52,27.78,,350,,,0,,,,,,,0,og-post,,,,AAXX 30194 07070 24462 83510 10096 20061 30102 40213 55001 700// 333 60005 90710 91115=
07070,2012-03-30 20:00:00,9,1021.1,-0.2,81,5.9,12000,16.668,27.78,,10,,,0,,,,,,,0,og-post,,,,AAXX 30204 07070 24462 80109 10090 20059 30100 40211 58002 700// 333 60005 90710 91115=
07070,2012-03-30 21:00:00,8.4,1021,-0.4,83,5.7,9000,18.52,27.78,,20,,,0,0,,,,,,0,og-post,,,,AAXX 30214 07070 24459 80210 10084 20057 30098 40210 58004 700// 333 60007 90710 91115 555 60005=
07070,2012-03-30 22:00:00,8.2,1020.6,-0.8,85,5.8,7000,14.816,24.076,,360,,,0,,,,,,,0,og-post,,,,AAXX 30224 07070 24457 83608 10082 20058 30094 40206 58008 700// 333 60005 90710 91113=
07070,2012-03-30 23:00:00,7.8,1020.2,-1,86,5.6,9000,12.964,24.076,,10,,,0,,,,,,,0,og-post,,,,AAXX 30234 07070 24359 80107 10078 20056 30090 40202 58010 700// 333 60005 90710 91113=
07070,2012-03-31 00:00:00,7.5,1019.6,-1.4,86,5.3,10000,11.112,18.52,,40,,,0,0,,,,,,0,og-post,,,,AAXX 31004 07070 04360 80406 10075 20053 30084 40196 58014 60001 700// 333 60007 90710 91110 555 60005=
07070,2012-03-31 01:00:00,7.4,1019.1,-1.5,86,5.2,10000,7.408,20.372,,360,,,0,,,,,,,0,og-post,,,,AAXX 31014 07070 24460 83604 10074 20052 30079 40191 58015 700// 333 60005 90710 91111=
07070,2012-03-31 02:00:00,7.2,1018.6,-1.6,85,4.8,11000,9.26,14.816,,20,,,0,,,,,,,0,og-post,,,,AAXX 31024 07070 24461 80205 10072 20048 30074 40186 56016 700// 333 60005 90710 91108=
07070,2012-03-31 03:00:00,7.2,1017.9,-1.7,85,4.8,10000,9.26,14.816,,360,,,0,0,,,,,,0,og-post,,,,AAXX 31034 07070 24460 83605 10072 20048 30067 40179 58017 700// 333 60007 90710 91108 555 60005=
07070,2012-03-31 04:00:00,7,1017.5,-1.6,84,4.5,10000,9.26,16.668,,40,,,0,,,,,,,0,og-post,,,,AAXX 31044 07070 24460 80405 10070 20045 30063 40175 56016 700// 333 60005 90710 91109=
07070,2012-03-31 05:00:00,7,1017.3,-1.3,83,4.3,11000,7.408,16.668,,20,,,0,,,,,,,0,og-post,,,,AAXX 31054 07070 24461 80204 10070 20043 30061 40173 56013 700// 333 60005 90710 91109=
07070,2012-03-31 06:00:00,7.1,1017.1,-0.8,83,4.4,14000,5.556,11.112,,30,7,10.4,0,0,,,0,9.8,7,0,og-post,,,,AAXX 31064 07070 04464 80303 10071 20044 30059 40171 56008 60002 700// 333 10104 20070 30007 55098 60007 70000 90710 91106 555 60005=
07070,2012-03-31 07:00:00,7.4,1017.2,-0.3,82,4.5,14000,7.408,12.964,,10,,,0,,,,,,,0,og-post,,,,AAXX 31074 07070 24464 80104 10074 20045 30060 40172 55003 700// 333 60005 90710 91107=
07070,2012-03-31 08:00:00,7.8,1016.9,-0.3,80,4.6,12000,7.408,11.112,,30,,,0,,,,,,,0,og-post,,,,AAXX 31084 07070 24462 80304 10078 20046 30058 40169 57003 700// 333 60005 90710 91106=
07070,2012-03-31 09:00:00,8.1,1017.4,0.4,80,4.9,12000,9.26,14.816,,350,,,0,0,,,,,,0,og-post,,,,AAXX 31094 07070 24462 83505 10081 20049 30063 40174 53004 700// 333 60007 90710 91108 555 60005=
07070,2012-03-31 10:00:00,8.4,1017.3,0.2,79,5,12000,7.408,16.668,,360,,,0,,,,,,,0,og-post,,,,AAXX 31104 07070 24462 83604 10084 20050 30062 40173 53002 700// 333 60005 90710 91109=
07070,2012-03-31 11:00:00,9.5,1016.8,0.1,74,5.1,10000,7.408,16.668,,270,,,0,,,,,,,0,og-post,,,,AAXX 31114 07070 24460 82704 10095 20051 30057 40168 50001 700// 333 60005 90710 91109=
07070,2012-03-31 12:00:00,10.1,1016.6,-0.7,73,5.5,8000,11.112,20.372,,320,,,0,0,,,,,,0,og-post,,,,AAXX 31124 07070 04558 83206 10101 20055 30056 40166 57007 60001 700// 333 60007 90710 91111 555 60005=
07070,2012-03-31 13:00:00,11.1,1016.3,-0.9,71,6,9000,11.112,20.372,,320,,,0,,,,,,,0,og-post,,,,AAXX 31134 07070 24559 83206 10111 20060 30053 40163 56009 700// 333 60005 90710 91111=
07070,2012-03-31 14:00:00,11.6,1015.8,-0.9,70,6.3,7000,16.668,25.928,,340,,,0,,,,,,,0,og-post,,,,AAXX 31144 07070 24557 83409 10116 20063 30048 40158 58009 700// 333 60005 90710 91114=
07070,2012-03-31 15:00:00,12,1015.4,-1.2,70,6.7,6000,16.668,31.484,,350,,,0,0,,,,,,0,og-post,,,,AAXX 31154 07070 24556 83509 10120 20067 30044 40154 57012 700// 333 60007 90710 91117 555 60005=
07070,2012-03-31 16:00:00,10.4,1015.6,-0.7,76,6.3,4900,22.224,40.744,,360,,,0,,,,,,,10,og-post,,,,AAXX 31164 07070 24449 83612 10104 20063 30046 40156 55007 710// 333 60005 90710 91122=
07070,2012-03-31 17:00:00,9.5,1016.3,0.4,70,4.3,19000,20.372,37.04,,10,,,0,,,,,,,0,og-post,,,,AAXX 31174 07070 24469 80111 10095 20043 30052 40163 53004 700// 333 60005 90710 91120=
07070,2012-03-31 18:00:00,8.9,1016.7,1.2,70,3.7,20000,18.52,37.04,,10,7.1,12.4,0,0,,,,,,0,og-post,,,,AAXX 31184 07070 04670 80110 10089 20037 30056 40167 53012 60002 700// 333 10124 20071 60007 90710 91120 555 60005=
07070,2012-03-31 19:00:00,8.2,1017.4,1.7,65,2,20000,25.928,40.744,,10,,,0,,,,,,,0,og-post,,,,AAXX 31194 07070 24670 80114 10082 20020 30063 40174 53017 700// 333 60005 90710 91122=
07070,2012-03-31 20:00:00,6.6,1018.1,1.7,65,0.5,20000,20.372,31.484,,10,,,0,,,,,,,0,og-post,,,,AAXX 31204 07070 24670 80111 10066 20005 30069 40181 53017 700// 333 60005 90710 91117=
07070,2012-03-31 21:00:00,4.5,1018.7,1.8,74,0.3,20000,16.668,27.78,,10,,,0,0,,,,,,0,og-post,,,,AAXX 31214 07070 24670 /0109 10045 20003 30074 40187 51018 700// 333 60007 90710 91115 555 60005=
07070,2012-03-31 22:00:00,4.4,1019.1,1.5,74,0.2,20000,18.52,27.78,,10,,,0,,,,,,,0,og-post,,,,AAXX 31224 07070 24670 /0110 10044 20002 30078 40191 51015 700// 333 60005 90710 91115=
07070,2012-03-31 23:00:00,3.2,1019.7,1.4,78,-0.3,19000,14.816,25.928,,10,,,0,,,,,,,0,og-post,,,,AAXX 31234 07070 24969 /0108 10032 21003 30083 40197 52014 700// 333 60005 90710 91114=
07070,2012-04-01 00:00:00,2.7,1020,1.2,79,-0.6,20000,16.668,25.928,,10,,,0,0,,,,,,0,og-post,,,,AAXX 01004 07070 04970 /0109 10027 21006 30086 40200 52012 60001 700// 333 60007 90710 91114 555 60005=
07070,2012-04-01 01:00:00,1.5,1019.9,0.7,82,-1.2,19000,11.112,20.372,,10,,,0,,,,,,,0,og-post,,,,AAXX 01014 07070 24969 /0106 10015 21012 30085 40199 50007 700// 333 60005 90710 91111=
07070,2012-04-01 02:00:00,-0.3,1020.1,0.3,85,-2.5,17000,11.112,18.52,,20,,,0,,,,,,,0,og-post,,,,AAXX 01024 07070 24967 /0206 11003 21025 30086 40201 51003 700// 333 60005 90710 91110=
07070,2012-04-01 03:00:00,-0.9,1020.1,-0,89,-2.5,18000,3.704,14.816,,120,,,0,0,,,,,,0,og-post,,,,AAXX 01034 07070 24968 /1202 11009 21025 30086 40201 55000 700// 333 60007 90710 91108 555 60005=
07070,2012-04-01 04:00:00,-1.2,1020.1,0,90,-2.6,19000,,9.26,,,,,0,,,,,,,0,og-post,,,,AAXX 01044 07070 24969 /0000 11012 21026 30085 40201 50000 700// 333 60005 90710 91105=
07070,2012-04-01 05:00:00,-0.8,1020.3,0.2,89,-2.4,20000,1.852,5.556,,50,,,0,,,,,,,0,og-post,,,,AAXX 01054 07070 24970 /0501 11008 21024 30088 40203 53002 700// 333 60005 90710 91103=
07070,2012-04-01 06:00:00,-1.3,1020.8,0.6,90,-2.7,19000,1.852,7.408,,340,-1.8,8.9,0,0,,,0,0,-5,0,og-post,,,,AAXX 01064 07070 04969 /3401 11013 21027 30092 40208 53006 60002 700// 333 10089 21018 30105 55000 60007 70000 90710 91104 555 60005=
07070,2012-04-01 07:00:00,2.1,1020.8,0.9,81,-0.8,19000,5.556,9.26,,20,,,0,,,,,,,0,og-post,,,,AAXX 01074 07070 24969 /0203 10021 21008 30094 40208 51009 700// 333 60005 90710 91105=
07070,2012-04-01 08:00:00,5.1,1020.8,0.7,68,-0.3,19000,12.964,18.52,,70,,,0,,,,,,,0,og-post,,,,AAXX 01084 07070 24969 /0707 10051 21003 30095 40208 51007 700// 333 60005 90710 91110=
07070,2012-04-01 09:00:00,6.9,1020.5,0.1,55,-1.5,20000,16.668,24.076,,70,,,0,0,,,,,,0,og-post,,,,AAXX 01094 07070 24970 /0709 10069 21015 30093 40205 50001 700// 333 60007 90710 91113 555 60005=
07070,2012-04-01 10:00:00,8.1,1020.3,-0.3,49,-2,19000,14.816,25.928,,50,,,0,,,,,,,0,og-post,,,,AAXX 01104 07070 24969 /0508 10081 21020 30091 40203 58003 700// 333 60005 90710 91114=
07070,2012-04-01 11:00:00,9.2,1019.8,-0.8,46,-1.8,20000,9.26,24.076,,40,,,0,,,,,,,0,og-post,,,,AAXX 01114 07070 24970 /0405 10092 21018 30087 40198 58008 700// 333 60005 90710 91113=
07070,2012-04-01 12:00:00,10.4,1019.3,-1.1,40,-2.6,20000,12.964,31.484,,50,,,0,0,,,,,,0,og-post,,,,AAXX 01124 07070 04970 /0507 10104 21026 30082 40193 58011 60001 700// 333 60007 90710 91117 555 60005=
07070,2012-04-01 13:00:00,11.3,1018.4,-1.7,32,-4.8,20000,11.112,22.224,,40,,,0,,,,,,,0,og-post,,,,AAXX 01134 07070 24970 /0406 10113 21048 30074 40184 58017 700// 333 60005 90710 91112=
07070,2012-04-01 14:00:00,11.7,1017.6,-2.1,29,-5.8,19000,11.112,27.78,,40,,,0,,,,,,,0,og-post,,,,AAXX 01144 07070 24969 /0406 10117 21058 30066 40176 58021 700// 333 60005 90710 91115=
07070,2012-04-01 15:00:00,12.3,1016.9,-2.3,30,-4.8,19000,7.408,25.928,,30,,,0,0,,,,,,0,og-post,,,,AAXX 01154 07070 24969 /0304 10123 21048 30059 40169 56023 700// 333 60007 90710 91114 555 60005=
07070,2012-04-01 16:00:00,12.5,1016.2,-2.2,29,-5.1,20000,9.26,25.928,,30,,,0,,,,,,,0,og-post,,,,AAXX 01164 07070 24970 /0305 10125 21051 30052 40162 56022 700// 333 60005 90710 91114=
07070,2012-04-01 17:00:00,11.8,1015.9,-1.7,30,-5.2,20000,11.112,20.372,,10,,,0,,,,,,,0,og-post,,,,AAXX 01174 07070 24970 /0106 10118 21052 30049 40159 56017 700// 333 60005 90710 91111=
07070,2012-04-01 18:00:00,8.8,1016,-1,49,-1.3,20000,12.964,18.52,,10,-1.3,12.7,0,0,,,,,,0,og-post,,,,AAXX 01184 07070 04970 /0107 10088 21013 30049 40160 56010 60002 700// 333 10127 21013 60007 90710 91110 555 60005=
07070,2012-04-01 19:00:00,7,1016.3,-0.1,56,-1.2,20000,12.964,20.372,,360,,,0,,,,,,,0,og-post,,,,AAXX 01194 07070 24970 /3607 10070 21012 30051 40163 55001 700// 333 60005 90710 91111=
07070,2012-04-01 20:00:00,6.5,1016.1,0,59,-0.9,20000,14.816,22.224,,10,,,0,,,,,,,0,og-post,,,,AAXX 01204 07070 24970 /0108 10065 21009 30049 40161 50000 700// 333 60005 90710 91112=
07070,2012-04-01 21:00:00,3.7,1016.1,-0.1,70,-1.3,20000,3.704,18.52,,10,,,0,0,,,,,,0,og-post,,,,AAXX 01214 07070 24970 /0102 10037 21013 30048 40161 58001 700// 333 60007 90710 91110 555 60005=
07070,2012-04-01 22:00:00,2.4,1016.1,-0.4,74,-1.8,19000,7.408,9.26,,330,,,0,,,,,,,0,og-post,,,,AAXX 01224 07070 24969 /3304 10024 21018 30047 40161 56004 700// 333 60005 90710 91105=
07070,2012-04-01 23:00:00,2,1016.2,-0.1,79,-1.3,18000,3.704,9.26,,320,,,0,,,,,,,0,og-post,,,,AAXX 01234 07070 24968 /3202 10020 21013 30048 40162 55001 700// 333 60005 90710 91105=
07070,2012-04-02 00:00:00,1.6,1016,-0.2,79,-1.7,13000,1.852,9.26,,200,,,0,0,,,,,,0,og-post,,,,AAXX 02004 07070 04963 /2001 10016 21017 30046 40160 58002 60001 700// 333 60007 90710 91105 555 60005=
07070,2012-04-02 01:00:00,0.3,1015.8,-0.3,87,-1.6,12000,3.704,5.556,,220,,,0,,,,,,,0,og-post,,,,AAXX 02014 07070 24962 /2202 10003 21016 30044 40158 58003 700// 333 60005 90710 91103=
07070,2012-04-02 02:00:00,-0.1,1015.4,-0.9,84,-2.5,11000,3.704,7.408,,10,,,0,,,,,,,0,og-post,,,,AAXX 02024 07070 24961 /0102 11001 21025 30039 40154 58009 700// 333 60005 90710 91104=
07070,2012-04-02 03:00:00,0.3,1014.5,-1.5,87,-1.6,9000,3.704,5.556,,30,,,0,0,,,,,,0,og-post,,,,AAXX 02034 07070 24959 /0302 10003 21016 30031 40145 58015 700// 333 60007 90710 91103 555 60005=
07070,2012-04-02 04:00:00,-0.8,1013.7,-2.2,90,-2.2,6000,5.556,5.556,,80,,,0,,,,,,,0,og-post,,,,AAXX 02044 07070 24956 /0803 11008 21022 30022 40137 58022 700// 333 60005 90710 91103=
07070,2012-04-02 05:00:00,-1,1013.3,-2.1,91,-2.3,6000,,7.408,,,,,0,,,,,,,0,og-post,,,,AAXX 02054 07070 24956 /0000 11010 21023 30018 40133 56021 700// 333 60005 90710 91104=
07070,2012-04-02 06:00:00,-0.5,1013.2,-1.3,89,-2.1,7000,3.704,5.556,,350,-1.5,8.8,0,0,,,0,12,-4,0,og-post,,,,AAXX 02064 07070 04957 /3502 11005 21021 30018 40132 56013 60002 700// 333 10088 21015 30104 55120 60007 70000 90710 91103 555 60005=
07070,2012-04-02 07:00:00,3,1013,-0.5,86,0.9,9000,7.408,11.112,,40,,,0,,,,,,,0,og-post,,,,AAXX 02074 07070 24959 /0404 10030 20009 30017 40130 56005 700// 333 60005 90710 91106=
07070,2012-04-02 08:00:00,5.7,1012.8,-0.2,71,0.8,14000,5.556,11.112,,50,,,0,,,,,,,0,og-post,,,,AAXX 02084 07070 24964 /0503 10057 20008 30016 40128 58002 700// 333 60005 90710 91106=
07070,2012-04-02 09:00:00,8,1012.3,-0.6,63,1.4,15000,9.26,14.816,,90,,,0,0,,,,,,0,og-post,,,,AAXX 02094 07070 24965 /0905 10080 20014 30012 40123 58006 700// 333 60007 90710 91108 555 60005=
07070,2012-04-02 10:00:00,10.6,1011.7,-1,55,1.9,17000,5.556,14.816,,90,,,0,,,,,,,0,og-post,,,,AAXX 02104 07070 24967 /0903 10106 20019 30007 40117 58010 700// 333 60005 90710 91108=
07070,2012-04-02 11:00:00,12.7,1010.8,-1.7,41,-0.2,18000,7.408,18.52,,90,,,0,,,,,,,0,og-post,,,,AAXX 02114 07070 24968 /0904 10127 21002 39999 40108 58017 700// 333 60005 90710 91110=
07070,2012-04-02 12:00:00,14,1010,-2,31,-2.9,19000,7.408,18.52,,60,,,0,0,,,,,,0,og-post,,,,AAXX 02124 07070 04969 /0604 10140 21029 39992 40100 58020 60001 700// 333 60007 90710 91110 555 60005=
07070,2012-04-02 13:00:00,14.7,1009,-2.5,34,-1,20000,9.26,18.52,,20,,,0,,,,,,,0,og-post,,,,AAXX 02134 07070 24970 /0205 10147 21010 39982 40090 58025 700// 333 60005 90710 91110=
07070,2012-04-02 14:00:00,15.8,1007.9,-2.7,28,-2.7,20000,9.26,20.372,,50,,,0,,,,,,,0,og-post,,,,AAXX 02144 07070 24970 /0505 10158 21027 39972 40079 58027 700// 333 60005 90710 91111=
07070,2012-04-02 15:00:00,16.1,1006.8,-3.1,28,-2.4,20000,12.964,18.52,,20,,,0,0,,,,,,0,og-post,,,,AAXX 02154 07070 24970 /0207 10161 21024 39961 40068 58031 700// 333 60007 90710 91110 555 60005=
07070,2012-04-02 16:00:00,16.2,1006.1,-2.8,28,-2.4,20000,9.26,20.372,,30,,,0,,,,,,,0,og-post,,,,AAXX 02164 07070 24970 /0305 10162 21024 39954 40061 56028 700// 333 60005 90710 91111=
07070,2012-04-02 17:00:00,15.9,1005.8,-2.1,28,-2.6,19000,7.408,18.52,,30,,,0,,,,,,,0,og-post,,,,AAXX 02174 07070 24969 /0304 10159 21026 39951 40058 56021 700// 333 60005 90710 91110=
07070,2012-04-02 18:00:00,12.9,1005.8,-1.1,40,-0.4,20000,5.556,9.26,,10,-0.5,16.4,0,0,,,,,,0,og-post,,,,AAXX 02184 07070 04970 /0103 10129 21004 39950 40058 56011 60002 700// 333 10164 21005 60007 90710 91105 555 60005=
07070,2012-04-02 19:00:00,9.9,1005.8,-0.5,46,-1.2,20000,3.704,9.26,,330,,,0,,,,,,,0,og-post,,,,AAXX 02194 07070 24970 /3302 10099 21012 39949 40058 56005 700// 333 60005 90710 91105=
07070,2012-04-02 20:00:00,8.9,1005.9,-0.2,53,-0.2,20000,5.556,7.408,,320,,,0,,,,,,,0,og-post,,,,AAXX 02204 07070 24970 /3203 10089 21002 39949 40059 56002 700// 333 60005 90710 91104=
07070,2012-04-02 21:00:00,7.2,1005.7,-0.3,61,0.2,20000,1.852,7.408,,290,,,0,0,,,,,,0,og-post,,,,AAXX 02214 07070 24970 /2901 10072 20002 39947 40057 57003 700// 333 60007 90710 91104 555 60005=
07070,2012-04-02 22:00:00,4.9,1005.6,-0.4,73,0.5,20000,1.852,3.704,,310,,,0,,,,,,,0,og-post,,,,AAXX 02224 07070 24970 /3101 10049 20005 39945 40056 58004 700// 333 60005 90710 91102=
07070,2012-04-02 23:00:00,4.4,1005.7,-0.4,75,0.4,19000,1.852,5.556,,280,,,0,,,,,,,0,og-post,,,,AAXX 02234 07070 24969 /2801 10044 20004 39945 40057 56004 700// 333 60005 90710 91103=
07070,2012-04-03 00:00:00,2.7,1005.4,-0.5,83,0.1,17000,,3.704,,,,,0,0,,,,,,0,og-post,,,,AAXX 03004 07070 04967 /0000 10027 20001 39942 40054 57005 60001 700// 333 60007 90710 91102 555 60005=
07070,2012-04-03 01:00:00,2.7,1005,-0.7,88,0.9,15000,,1.852,,,,,0,,,,,,,0,og-post,,,,AAXX 03014 07070 24965 /0000 10027 20009 39938 40050 58007 700// 333 60005 90710 91101=
07070,2012-04-03 02:00:00,1.9,1004.5,-1.2,89,0.3,13000,,3.704,,,,,0,,,,,,,0,og-post,,,,AAXX 03024 07070 24963 /0000 10019 20003 39933 40045 58012 700// 333 60005 90710 91102=
07070,2012-04-03 03:00:00,0.9,1004.4,-1.1,90,-0.6,11000,1.852,3.704,,190,,,0,0,,,,,,0,og-post,,,,AAXX 03034 07070 24961 /1901 10009 21006 39931 40044 56011 700// 333 60007 90710 91102 555 60005=
07070,2012-04-03 04:00:00,0.3,1004.3,-0.8,89,-1.3,10000,,5.556,,,,,0,,,,,,,0,og-post,,,,AAXX 03044 07070 24960 /0000 10003 21013 39930 40043 56008 700// 333 60005 90710 91103=
07070,2012-04-03 05:00:00,-0.3,1004.2,-0.4,91,-1.6,8000,,3.704,,,,,0,,,,,,,0,og-post,,,,AAXX 03054 07070 24958 /0000 11003 21016 39929 40042 56004 700// 333 60005 90710 91102=
07070,2012-04-03 06:00:00,0.8,1004.4,-0,91,-0.5,9000,,1.852,,,-0.4,12.8,0,0,,,0,11.3,-3,0,og-post,,,,AAXX 03064 07070 04959 /0000 10008 21005 39931 40044 55000 60002 700// 333 10128 21004 30103 55113 60007 70000 90710 91101 555 60005=
07070,2012-04-03 07:00:00,5.7,1004.2,0.1,81,2.7,13000,,3.704,,,,,0,,,,,,,0,og-post,,,,AAXX 03074 07070 24963 /0000 10057 20027 39931 40042 53001 700// 333 60005 90710 91102=
07070,2012-04-03 08:00:00,10,1004.1,0.3,65,3.7,7000,,1.852,,,,,0,,,,,,,0,og-post,,,,AAXX 03084 07070 24957 /0000 10100 20037 39932 40041 51003 700// 333 60005 90710 91101=
07070,2012-04-03 09:00:00,12.3,1004,0.1,59,4.5,13000,3.704,7.408,,10,,,0,0,,,,,,0,og-post,,,,AAXX 03094 07070 24963 /0102 10123 20045 39932 40040 52001 700// 333 60007 90710 91104 555 60005=
07070,2012-04-03 10:00:00,14.8,1003.5,-0.3,51,4.8,19000,5.556,12.964,,40,,,0,,,,,,,0,og-post,,,,AAXX 03104 07070 24969 /0403 10148 20048 39928 40035 58003 700// 333 60005 90710 91107=
07070,2012-04-03 11:00:00,15.8,1003.2,-0.7,42,2.9,19000,5.556,12.964,,80,,,0,,,,,,,0,og-post,,,,AAXX 03114 07070 24969 /0803 10158 20029 39925 40032 58007 700// 333 60005 90710 91107=
07070,2012-04-03 12:00:00,16.9,1002.4,-1.4,36,1.7,17000,5.556,14.816,,110,,,0,0,,,,,,0,og-post,,,,AAXX 03124 07070 04967 /1103 10169 20017 39918 40024 58014 60001 700// 333 60007 90710 91108 555 60005=
07070,2012-04-03 13:00:00,17.5,1002,-1.4,36,2.2,18000,7.408,18.52,,160,,,0,,,,,,,0,og-post,,,,AAXX 03134 07070 24868 /1604 10175 20022 39914 40020 58014 700// 333 60005 90710 91110=
07070,2012-04-03 14:00:00,17.5,1001.4,-1.7,34,1.4,16000,3.704,20.372,,230,,,0,,,,,,,0,og-post,,,,AAXX 03144 07070 24866 /2302 10175 20014 39908 40014 56017 700// 333 60005 90710 91111=
07070,2012-04-03 15:00:00,18.7,1000.7,-1.7,33,2.1,16000,5.556,12.964,,30,,,0,0,,,,,,0,og-post,,,,AAXX 03154 07070 24866 /0303 10187 20021 39901 40007 58017 700// 333 60007 90710 91107 555 60005=
07070,2012-04-03 16:00:00,17.1,1000.4,-1.6,39,3,17000,11.112,18.52,,10,,,0,,,,,,,0,og-post,,,,AAXX 03164 07070 24867 /0106 10171 20030 39898 40004 56016 700// 333 60005 90710 91110=
07070,2012-04-03 17:00:00,16,1000.4,-1,43,3.4,16000,3.704,16.668,,360,,,0,,,,,,,0,og-post,,,,AAXX 03174 07070 24866 73602 10160 20034 39898 40004 56010 700// 333 60005 90710 91109=
07070,2012-04-03 18:00:00,15.2,1000.3,-0.5,42,2.4,18000,5.556,9.26,,290,0.8,18.8,0,0,,,,,,0,og-post,,,,AAXX 03184 07070 04868 82903 10152 20024 39896 40003 56005 60002 700// 333 10188 20008 60007 90710 91105 555 60005=
07070,2012-04-03 19:00:00,13.5,1000.6,0.1,55,4.6,14000,3.704,11.112,,10,,,0,,,,,,,0,og-post,,,,AAXX 03194 07070 24864 80102 10135 20046 39899 40006 53001 700// 333 60005 90710 91106=
07070,2012-04-03 20:00:00,12.3,1001.5,0.9,62,5.2,12000,11.112,14.816,,330,,,,,,,,,,61,og-post,,,,AAXX 03204 07070 24762 83306 10123 20052 39907 40015 53009 761// 333 69905 90710 91108=
07070,2012-04-03 21:00:00,9.4,1002.8,2.3,77,5.6,9000,37.04,51.856,,300,,,,,,,,,,60,og-post,,,,AAXX 03214 07070 24659 83020 10094 20056 39919 40028 53023 760// 333 69907 90710 91128 555 69905=
07070,2012-04-03 22:00:00,7.8,1003.3,2.4,85,5.4,13000,12.964,48.152,,340,,,0.4,,,,,,,0,og-post,,,,AAXX 03224 07070 24763 /3407 10078 20054 39923 40033 51024 700// 333 69945 90710 91126=
07070,2012-04-03 23:00:00,5.7,1004.2,2.4,91,4.3,8000,7.408,12.964,,210,,,0,,,,,,,0,og-post,,,,AAXX 03234 07070 24958 /2104 10057 20043 39931 40042 51024 700// 333 60005 90710 91107=
07070,2012-04-04 00:00:00,5.5,1004.7,1.7,93,4.5,5000,3.704,7.408,,240,,,0,0.4,0.4,,,,,0,og-post,,,,AAXX 04004 07070 04950 /2402 10055 20045 39936 40047 53017 69941 700// 333 69947 90710 91104 555 60005=
07070,2012-04-04 01:00:00,5.2,1004.8,1.4,93,4.2,7000,9.26,11.112,,270,,,0,,,,,,,0,og-post,,,,AAXX 04014 07070 24957 /2705 10052 20042 39937 40048 51014 700// 333 60005 90710 91106=
07070,2012-04-04 02:00:00,3.1,1005.1,0.8,93,2.1,2100,7.408,11.112,,220,,,0,,,,,,,10,og-post,,,,AAXX 04024 07070 24921 /2204 10031 20021 39939 40051 51008 710// 333 60005 90710 91106=
07070,2012-04-04 03:00:00,3,1005.4,0.6,95,2.3,1300,3.704,11.112,,190,,,,,,,,,,10,og-post,,,,AAXX 04034 07070 24913 /1902 10030 20023 39942 40054 53006 710// 333 69907 90710 91106 555 69905=
07070,2012-04-04 04:00:00,2.9,1005.6,0.7,95,2.2,1400,3.704,7.408,,190,,,0.2,,,,,,,10,og-post,,,,AAXX 04044 07070 24814 /1902 10029 20022 39944 40056 52007 710// 333 69925 90710 91104=
07070,2012-04-04 05:00:00,2.6,1005.7,0.6,96,2,2100,3.704,7.408,,180,,,0,,,,,,,10,og-post,,,,AAXX 04054 07070 24821 71802 10026 20020 39945 40057 51006 710// 333 60005 90710 91104=
07070,2012-04-04 06:00:00,3.4,1006.4,1,96,2.8,2400,5.556,9.26,,190,2.1,15.2,0,0.2,,0.6,0.6,8.9,-1,10,og-post,,,,AAXX 04064 07070 04824 71903 10034 20028 39952 40064 53010 69962 710// 333 10152 20021 31101 55089 69927 70006 90710 91105 555 60005=
07070,2012-04-04 07:00:00,5.7,1006.9,1.4,96,5.1,5000,,12.964,,,,,0,,,,,,,0,og-post,,,,AAXX 04074 07070 24750 80000 10057 20051 39958 40069 53014 700// 333 60005 90710 91107=
07070,2012-04-04 08:00:00,7.3,1007.7,2.1,90,5.8,8000,7.408,12.964,,170,,,0,,,,,,,0,og-post,,,,AAXX 04084 07070 24758 71704 10073 20058 39966 40077 53021 700// 333 60005 90710 91107=
07070,2012-04-04 09:00:00,9,1008.2,2,75,4.8,13000,3.704,9.26,,180,,,0,0,,,,,,0,og-post,,,,AAXX 04094 07070 24863 81802 10090 20048 39972 40082 52020 700// 333 60007 90710 91105 555 60005=
07070,2012-04-04 10:00:00,10.7,1008.6,1.9,64,4.2,14000,1.852,9.26,,120,,,0,,,,,,,0,og-post,,,,AAXX 04104 07070 24764 81201 10107 20042 39977 40086 51019 700// 333 60005 90710 91105=
07070,2012-04-04 11:00:00,12.5,1008.7,1.2,57,4.2,15000,3.704,9.26,,310,,,0,,,,,,,0,og-post,,,,AAXX 04114 07070 24865 73102 10125 20042 39978 40087 51012 700// 333 60005 90710 91105=
07070,2012-04-04 12:00:00,13.4,1008.6,0.6,48,2.6,18000,5.556,14.816,,180,,,0,0,,,,,,0,og-post,,,,AAXX 04124 07070 04968 /1803 10134 20026 39978 40086 51006 60001 700// 333 60007 90710 91108 555 60005=
07070,2012-04-04 13:00:00,13.8,1008.5,0,50,3.5,16000,11.112,20.372,,100,,,0,,,,,,,0,og-post,,,,AAXX 04134 07070 24866 /1006 10138 20035 39977 40085 50000 700// 333 60005 90710 91111=
07070,2012-04-04 14:00:00,13.9,1008.6,-0,45,2.1,16000,9.26,20.372,,90,,,0,,,,,,,0,og-post,,,,AAXX 04144 07070 24966 /0905 10139 20021 39978 40086 55000 700// 333 60005 90710 91111=
07070,2012-04-04 15:00:00,13,1008.7,-0,48,2.2,19000,5.556,20.372,,140,,,0,0,,,,,,0,og-post,,,,AAXX 04154 07070 24969 81403 10130 20022 39978 40087 55000 700// 333 60007 90710 91111 555 60005=
07070,2012-04-04 16:00:00,13,1008.8,0.2,50,2.8,19000,9.26,14.816,,100,,,0,,,,,,,0,og-post,,,,AAXX 04164 07070 24969 81005 10130 20028 39979 40088 52002 700// 333 60005 90710 91108=
07070,2012-04-04 17:00:00,12.9,1008.9,0.2,49,2.4,19000,7.408,14.816,,90,,,0,,,,,,,0,og-post,,,,AAXX 04174 07070 24969 80904 10129 20024 39980 40089 53002 700// 333 60005 90710 91108=
07070,2012-04-04 18:00:00,11.9,1009.5,0.8,57,3.6,17000,3.704,9.26,,110,3.5,14.3,0,0,,,,,,0,og-post,,,,AAXX 04184 07070 04967 81102 10119 20036 39986 40095 53008 60002 700// 333 10143 20035 60007 90710 91105 555 60005=
07070,2012-04-04 19:00:00,9.2,1010.4,1.5,69,3.8,13000,5.556,11.112,,70,,,0,,,,,,,0,og-post,,,,AAXX 04194 07070 24963 /0703 10092 20038 39994 40104 53015 700// 333 60005 90710 91106=
07070,2012-04-04 20:00:00,7.7,1011.1,2,76,3.7,9000,11.112,14.816,,30,,,0,,,,,,,0,og-post,,,,AAXX 04204 07070 24959 /0306 10077 20037 30000 40111 52020 700// 333 60005 90710 91108=
07070,2012-04-04 21:00:00,5.6,1011.5,1.7,83,2.9,7000,3.704,16.668,,50,,,0,0,,,,,,0,og-post,,,,AAXX 04214 07070 24957 /0502 10056 20029 30003 40115 51017 700// 333 60007 90710 91109 555 60005=
07070,2012-04-04 22:00:00,4.8,1012,1.4,86,2.7,6000,,7.408,,,,,0,,,,,,,0,og-post,,,,AAXX 04224 07070 24956 /0000 10048 20027 30008 40120 51014 700// 333 60005 90710 91104=
07070,2012-04-04 23:00:00,3.8,1012.3,1,86,1.7,5000,,3.704,,,,,0,,,,,,,0,og-post,,,,AAXX 04234 07070 24950 /0000 10038 20017 30010 40123 52010 700// 333 60005 90710 91102=
07070,2012-04-05 00:00:00,3.6,1012.3,0.7,89,2,5000,3.704,7.408,,330,,,0,0,,,,,,0,og-post,,,,AAXX 05004 07070 04950 /3302 10036 20020 30010 40123 51007 60001 700// 333 60007 90710 91104 555 60005=
07070,2012-04-05 01:00:00,2.1,1012.4,0.3,92,0.9,2300,,3.704,,,,,0,,,,,,,10,og-post,,,,AAXX 05014 07070 24923 /0000 10021 20009 30011 40124 51003 710// 333 60005 90710 91102=
07070,2012-04-05 02:00:00,1.5,1012.3,0,93,0.5,2700,,5.556,,,,,0,,,,,,,10,og-post,,,,AAXX 05024 07070 24927 /0000 10015 20005 30010 40123 50000 710// 333 60005 90710 91103=
07070,2012-04-05 03:00:00,3.2,1012.4,0.1,93,2.2,4400,3.704,3.704,,320,,,0,0,,,,,,10,og-post,,,,AAXX 05034 07070 24744 83202 10032 20022 30011 40124 52001 710// 333 60007 90710 91102 555 60005=
07070,2012-04-05 04:00:00,4.3,1012.4,0.1,93,3.3,3200,1.852,3.704,,290,,,0,,,,,,,10,og-post,,,,AAXX 05044 07070 24732 82901 10043 20033 30012 40124 53001 710// 333 60005 90710 91102=
07070,2012-04-05 05:00:00,4.9,1012.5,0.3,92,3.7,2900,7.408,11.112,,10,,,0,,,,,,,10,og-post,,,,AAXX 05054 07070 24729 80104 10049 20037 30013 40125 52003 710// 333 60005 90710 91106=
07070,2012-04-05 06:00:00,5.9,1013,0.7,90,4.4,2700,7.408,11.112,,350,1.5,11.8,0,0,,,0,3.4,-2,10,og-post,,,,AAXX 05064 07070 04727 83504 10059 20044 30018 40130 53007 60002 710// 333 10118 20015 30102 55034 60007 70000 90710 91106 555 60005=
07070,2012-04-05 07:00:00,6.3,1013.4,1,89,4.6,2200,9.26,14.816,,360,,,,,,,,,,10,og-post,,,,AAXX 05074 07070 24722 83605 10063 20046 30022 40134 53010 710// 333 69905 90710 91108=
07070,2012-04-05 08:00:00,7.6,1013.5,1.1,87,5.6,2800,11.112,14.816,,20,,,,,,,,,,61,og-post,,,,AAXX 05084 07070 24728 80206 10076 20056 30024 40135 51011 761// 333 69905 90710 91108=
07070,2012-04-05 09:00:00,8.1,1014.2,1.3,87,6.1,2400,9.26,16.668,,30,,,,,,,,,,10,og-post,,,,AAXX 05094 07070 24724 70305 10081 20061 30031 40142 53013 710// 333 69907 90710 91109 555 69905=
07070,2012-04-05 10:00:00,8.6,1014.6,1.3,85,6.2,2600,11.112,14.816,,20,,,0,,,,,,,10,og-post,,,,AAXX 05104 07070 24726 80206 10086 20062 30035 40146 53013 710// 333 60005 90710 91108=
07070,2012-04-05 11:00:00,9.1,1014.5,1,81,6,3000,12.964,20.372,,20,,,0,,,,,,,10,og-post,,,,AAXX 05114 07070 24730 70207 10091 20060 30034 40145 50010 710// 333 60005 90710 91111=
07070,2012-04-05 12:00:00,10.3,1014.3,0.2,75,6.1,3500,18.52,25.928,,20,,,0,0,,,,,,10,og-post,,,,AAXX 05124 07070 04735 /0210 10103 20061 30033 40143 50002 69901 710// 333 60007 90710 91114 555 60005=
07070,2012-04-05 13:00:00,10.7,1014.4,-0.1,75,6.4,3900,16.668,25.928,,10,,,0,,,,,,,10,og-post,,,,AAXX 05134 07070 24439 70109 10107 20064 30034 40144 55001 710// 333 60005 90710 91114=
07070,2012-04-05 14:00:00,10.8,1014.2,-0.2,71,5.7,4600,20.372,29.632,,10,,,0,,,,,,,10,og-post,,,,AAXX 05144 07070 24746 70111 10108 20057 30032 40142 57002 710// 333 60005 90710 91116=
07070,2012-04-05 15:00:00,11,1013.8,-0.5,70,5.7,4900,16.668,29.632,,20,,,0,0,,,,,,10,og-post,,,,AAXX 05154 07070 24749 70209 10110 20057 30028 40138 58005 710// 333 60007 90710 91116 555 60005=
07070,2012-04-05 16:00:00,10.6,1013.6,-0.8,71,5.6,5000,20.372,29.632,,10,,,0,,,,,,,0,og-post,,,,AAXX 05164 07070 24750 70111 10106 20056 30026 40136 57008 700// 333 60005 90710 91116=
07070,2012-04-05 17:00:00,10.3,1013.5,-0.7,72,5.5,5000,16.668,27.78,,20,,,0,,,,,,,0,og-post,,,,AAXX 05174 07070 24750 80209 10103 20055 30025 40135 56007 700// 333 60005 90710 91115=
07070,2012-04-05 18:00:00,9.7,1013.7,-0.1,74,5.3,6000,14.816,25.928,,10,5.9,11.4,0,0,,,,,,0,og-post,,,,AAXX 05184 07070 04756 70108 10097 20053 30027 40137 55001 69902 700// 333 10114 20059 60007 90710 91114 555 60005=
07070,2012-04-05 19:00:00,9,1014.3,0.6,76,5,6000,12.964,22.224,,10,,,0,,,,,,,0,og-post,,,,AAXX 05194 07070 24756 80107 10090 20050 30032 40143 53006 700// 333 60005 90710 91112=
07070,2012-04-05 20:00:00,8.2,1014.7,1.1,80,5,5000,11.112,20.372,,360,,,0,,,,,,,0,og-post,,,,AAXX 05204 07070 24750 83606 10082 20050 30036 40147 53011 700// 333 60005 90710 91111=
07070,2012-04-05 21:00:00,7.7,1014.8,1,80,4.5,5000,12.964,18.52,,10,,,0,0,,,,,,0,og-post,,,,AAXX 05214 07070 24750 80107 10077 20045 30037 40148 51010 700// 333 60007 90710 91110 555 60005=
07070,2012-04-05 22:00:00,6.5,1015.2,0.8,85,4.2,4100,11.112,16.668,,10,,,0,,,,,,,10,og-post,,,,AAXX 05224 07070 24941 70106 10065 20042 30040 40152 51008 710// 333 60005 90710 91109=
07070,2012-04-05 23:00:00,6,1015.2,0.4,87,4,3600,11.112,18.52,,10,,,0,,,,,,,10,og-post,,,,AAXX 05234 07070 24736 60106 10060 20040 30040 40152 51004 710// 333 60005 90710 91110=
07070,2012-04-06 00:00:00,6.6,1015.2,0.3,83,3.9,4600,12.964,20.372,,20,,,0,0,,,,,,10,og-post,,,,AAXX 06004 07070 04746 60207 10066 20039 30040 40152 51003 60001 710// 333 60007 90710 91111 555 60005=
07070,2012-04-06 01:00:00,6.6,1014.8,-0.4,83,3.9,4500,11.112,18.52,,30,,,0,,,,,,,10,og-post,,,,AAXX 06014 07070 24745 80306 10066 20039 30036 40148 58004 710// 333 60005 90710 91110=
07070,2012-04-06 02:00:00,6.1,1014.6,-0.6,84,3.6,4200,11.112,18.52,,10,,,0,,,,,,,10,og-post,,,,AAXX 06024 07070 24542 60106 10061 20036 30034 40146 58006 710// 333 60005 90710 91110=
07070,2012-04-06 03:00:00,5.8,1014.3,-0.9,85,3.5,3800,11.112,16.668,,10,,,0,0,,,,,,10,og-post,,,,AAXX 06034 07070 24738 60106 10058 20035 30031 40143 56009 710// 333 60007 90710 91109 555 60005=
07070,2012-04-06 04:00:00,5.7,1014.2,-0.6,86,3.5,3300,9.26,18.52,,10,,,0,,,,,,,10,og-post,,,,AAXX 06044 07070 24533 /0105 10057 20035 30030 40142 56006 710// 333 60005 90710 91110=
07070,2012-04-06 05:00:00,5.5,1014,-0.6,87,3.5,3000,11.112,14.816,,10,,,0,,,,,,,10,og-post,,,,AAXX 06054 07070 24530 /0106 10055 20035 30028 40140 56006 710// 333 60005 90710 91108=
07070,2012-04-06 06:00:00,5.8,1014.2,-0.1,86,3.6,3100,9.26,16.668,,10,5.5,9.7,0,0,,,0,0,5,10,og-post,,,,AAXX 06064 07070 04731 /0105 10058 20036 30030 40142 55001 60002 710// 333 10097 20055 30005 55000 60007 79999 90710 91109 555 60005=
07070,2012-04-06 07:00:00,6.3,1014.3,0.1,83,3.6,3300,7.408,14.816,,10,,,0,,,,,,,10,og-post,,,,AAXX 06074 07070 24933 /0104 10063 20036 30031 40143 53001 710// 333 60005 90710 91108=
07070,2012-04-06 09:00:00,8.5,1014.4,0.3,71,3.5,5000,9.26,,,30,,,0,0,,,,,,0,og-post,,,,AAXX 06094 07070 24450 70305 10085 20035 30033 40144 52003 700// 333 6///7 555 6///5=
07070,2012-04-06 10:00:00,9.1,1014,-0.2,67,3.3,6000,9.26,20.372,,30,,,0,,,,,,,0,og-post,,,,AAXX 06104 07070 24556 80305 10091 20033 30029 40140 57002 700// 333 60005 90710 91111=
07070,2012-04-06 11:00:00,11,1013.4,,60,3.5,7000,11.112,18.52,,30,,,0,,,,,,,0,og-post,,,,AAXX 06114 07070 24557 /0306 10110 20035 30024 40134 700// 333 60005 90710 91110=
07070,2012-04-06 12:00:00,12,1012.5,-1.7,55,3.2,7000,11.112,22.224,,70,,,0,0,0,,,,,0,og-post,,,,AAXX 06124 07070 04957 /0706 10120 20032 30016 40125 58017 6///1 700// 333 60007 90710 91112 555 60005=
07070,2012-04-06 13:00:00,13.1,1011.9,-1.9,51,3.2,8000,14.816,25.928,,360,,,0,,,,,,,0,og-post,,,,AAXX 06134 07070 24958 /3608 10131 20032 30010 40119 58019 700// 333 60005 90710 91114=
07070,2012-04-06 14:00:00,13.5,1011.2,-2.1,47,2.4,7000,12.964,25.928,,360,,,0,,,,,,,0,og-post,,,,AAXX 06144 07070 24957 /3607 10135 20024 30003 40112 56021 700// 333 60005 90710 91114=
07070,2012-04-06 15:00:00,13.7,1010.4,-2,44,1.7,8000,18.52,27.78,,340,,,0,0,,,,,,0,og-post,,,,AAXX 06154 07070 24958 /3410 10137 20017 39996 40104 57020 700// 333 60007 90710 91115 555 60005=
07070,2012-04-06 16:00:00,13.6,1010.1,-1.7,41,0.6,11000,14.816,25.928,,340,,,0,,,,,,,0,og-post,,,,AAXX 06164 07070 24961 /3408 10136 20006 39993 40101 56017 700// 333 60005 90710 91114=
07070,2012-04-06 17:00:00,12.4,1010,-1.2,49,2,11000,18.52,25.928,,360,,,0,,,,,,,0,og-post,,,,AAXX 06174 07070 24961 /3610 10124 20020 39991 40100 56012 700// 333 60005 90710 91114=
07070,2012-04-06 18:00:00,10.1,1010,-0.6,56,1.7,9000,18.52,31.484,,340,,,0,0,,0,,,,0,og-post,,,,AAXX 06184 07070 04959 /3410 10101 20017 39990 40100 56006 6///2 700// 333 1//// 2//// 60007 90710 91117 555 60005=
07070,2012-04-06 19:00:00,8,1010.5,0.1,61,0.9,8000,11.112,24.076,,350,,,0,,,,,,,0,og-post,,,,AAXX 06194 07070 24958 /3506 10080 20009 39994 40105 53001 700// 333 60005 90710 91113=
07070,2012-04-06 20:00:00,6.6,1010.6,0.4,65,0.5,8000,9.26,16.668,,350,,,0,,,,,,,0,og-post,,,,AAXX 06204 07070 24958 /3505 10066 20005 39995 40106 53004 700// 333 60005 90710 91109=
07070,2012-04-06 21:00:00,6.2,1010.4,0.3,67,0.5,8000,9.26,12.964,,320,,,0,0,,,,,,0,og-post,,,,AAXX 06214 07070 24958 /3205 10062 20005 39993 40104 50003 700// 333 60007 90710 91107 555 60005=
07070,2012-04-06 22:00:00,5.2,1010.4,-0.2,71,0.4,10000,14.816,20.372,,350,,,0,,,,,,,0,og-post,,,,AAXX 06224 07070 24960 /3508 10052 20004 39992 40104 58002 700// 333 60005 90710 91111=
07070,2012-04-06 23:00:00,4.1,1010.5,-0.2,72,-0.5,15000,7.408,18.52,,330,,,0,,,,,,,0,og-post,,,,AAXX 06234 07070 24965 73304 10041 21005 39993 40105 55002 700// 333 60005 90710 91110=
07070,2012-04-07 00:00:00,4.4,1010.1,-0.4,72,-0.2,20000,3.704,11.112,,260,,,0,0,,,,,,0,og-post,,,,AAXX 07004 07070 04970 82602 10044 21002 39989 40101 58004 60001 700// 333 60007 90710 91106 555 60005=
07070,2012-04-07 01:00:00,4.8,1009.6,-0.8,68,-0.6,20000,5.556,12.964,,330,,,0,,,,,,,0,og-post,,,,AAXX 07014 07070 24970 83303 10048 21006 39984 40096 58008 700// 333 60005 90710 91107=
07070,2012-04-07 02:00:00,4.1,1009.4,-1.1,66,-1.7,20000,7.408,14.816,,330,,,0,,,,,,,0,og-post,,,,AAXX 07024 07070 24970 83304 10041 21017 39982 40094 56011 700// 333 60005 90710 91108=
07070,2012-04-07 03:00:00,4.1,1009.5,-0.6,66,-1.7,20000,3.704,12.964,,300,,,0,0,,,,,,0,og-post,,,,AAXX 07034 07070 24870 83002 10041 21017 39983 40095 55006 700// 333 60007 90710 91107 555 60005=
07070,2012-04-07 04:00:00,4.1,1009.4,-0.2,68,-1.3,19000,11.112,16.668,,340,,,,,,,,,,61,og-post,,,,AAXX 07044 07070 24769 73406 10041 21013 39982 40094 56002 761// 333 69905 90710 91109=
07070,2012-04-07 05:00:00,3.5,1009.4,-0,76,-0.3,20000,7.408,16.668,,340,,,0.2,,,,,,,0,og-post,,,,AAXX 07054 07070 24570 83404 10035 21003 39982 40094 54000 700// 333 69925 90710 91109=
07070,2012-04-07 06:00:00,4.1,1009.6,0.1,77,0.4,20000,3.704,7.408,,300,3.5,10.1,0,0.2,,0.2,,,1,0,og-post,,,,AAXX 07064 07070 04870 83002 10041 20004 39984 40096 53001 69922 700// 333 10101 20035 31001 55/// 69927 7//// 90710 91104 555 60005=
07070,2012-04-07 07:00:00,5.5,1009.8,0.4,68,0.1,18000,5.556,7.408,,300,,,0,,,,,,,0,og-post,,,,AAXX 07074 07070 24568 83003 10055 20001 39986 40098 53004 700// 333 60005 90710 91104=
07070,2012-04-07 08:00:00,6.4,1009.8,0.5,68,0.9,15000,9.26,18.52,,310,,,0,,,,,,,0,og-post,,,,AAXX 07084 07070 24665 83105 10064 20009 39987 40098 52005 700// 333 60005 90710 91110=
07070,2012-04-07 09:00:00,8.4,1009.9,0.5,67,2.6,14000,9.26,14.816,,310,,,0,0,,,,,,0,og-post,,,,AAXX 07094 07070 24564 73105 10084 20026 39989 40099 52005 700// 333 60007 90710 91108 555 60005=
07070,2012-04-07 10:00:00,9,1009.8,0.2,68,3.4,11000,11.112,20.372,,310,,,0,,,,,,,0,og-post,,,,AAXX 07104 07070 24561 83106 10090 20034 39988 40098 50002 700// 333 60005 90710 91111=
07070,2012-04-07 11:00:00,9.8,1009.5,-0.2,72,5,9000,11.112,20.372,,360,,,0,,,,,,,0,og-post,,,,AAXX 07114 07070 24559 83606 10098 20050 39985 40095 58002 700// 333 60005 90710 91111=
07070,2012-04-07 12:00:00,9.9,1009.3,-0.6,70,4.7,10000,9.26,22.224,,30,,,0,0,,,,,,0,og-post,,,,AAXX 07124 07070 04560 80305 10099 20047 39983 40093 58006 60001 700// 333 60007 90710 91112 555 60005=
07070,2012-04-07 13:00:00,10.3,1009.2,-0.6,68,4.6,19000,18.52,29.632,,10,,,0,,,,,,,0,og-post,,,,AAXX 07134 07070 24569 80110 10103 20046 39982 40092 56006 700// 333 60005 90710 91116=
07070,2012-04-07 14:00:00,10.2,1009.2,-0.3,62,3.2,19000,25.928,37.04,,20,,,0,,,,,,,0,og-post,,,,AAXX 07144 07070 24569 70214 10102 20032 39982 40092 56003 700// 333 60005 90710 91120=
07070,2012-04-07 15:00:00,10.4,1008.8,-0.4,64,3.9,20000,11.112,31.484,,360,,,0,0,,,,,,0,og-post,,,,AAXX 07154 07070 24870 83606 10104 20039 39979 40088 58004 700// 333 60007 90710 91117 555 60005=
07070,2012-04-07 16:00:00,9.1,1009.3,0.1,66,3.1,20000,16.668,31.484,,20,,,,,,,,,,0,og-post,,,,AAXX 07164 07070 24570 80209 10091 20031 39983 40093 53001 700// 333 69905 90710 91117=
07070,2012-04-07 17:00:00,8.4,1009.7,0.5,67,2.6,20000,24.076,40.744,,10,,,,,,,,,,0,og-post,,,,AAXX 07174 07070 24670 70113 10084 20026 39987 40097 53005 700// 333 69905 90710 91122=
07070,2012-04-07 18:00:00,7.7,1010.2,1.2,63,1.1,20000,20.372,33.336,,10,4,11.2,,,,,,,,0,og-post,,,,AAXX 07184 07070 04970 80111 10077 20011 39991 40102 52012 69902 700// 333 10112 20040 69907 90710 91118 555 69905=
07070,2012-04-07 19:00:00,6.8,1010.9,1.5,60,-0.4,20000,22.224,33.336,,10,,,0,,,,,,,0,og-post,,,,AAXX 07194 07070 24970 80112 10068 21004 39998 40109 53015 700// 333 60005 90710 91118=
07070,2012-04-07 20:00:00,4.9,1011.9,2,65,-1.1,20000,12.964,29.632,,10,,,0,,,,,,,0,og-post,,,,AAXX 07204 07070 24670 /0107 10049 21011 30007 40119 53020 700// 333 60005 90710 91116=
07070,2012-04-07 21:00:00,4.1,1012.6,2.3,67,-1.5,20000,12.964,25.928,,360,,,0,0,,,,,,0,og-post,,,,AAXX 07214 07070 24670 73607 10041 21015 30014 40126 52023 700// 333 60007 90710 91114 555 60005=
07070,2012-04-07 22:00:00,3.8,1013.2,2.1,66,-2,20000,16.668,22.224,,10,,,0,,,,,,,0,og-post,,,,AAXX 07224 07070 24670 80109 10038 21020 30019 40132 51021 700// 333 60005 90710 91112=
07070,2012-04-07 23:00:00,3.7,1013.7,1.7,65,-2.3,20000,14.816,22.224,,10,,,0,,,,,,,0,og-post,,,,AAXX 07234 07070 24770 80108 10037 21023 30024 40137 51017 700// 333 60005 90710 91112=
07070,2012-04-08 00:00:00,2.8,1014,1.3,70,-2.1,20000,12.964,20.372,,340,,,0,0,,,,,,0,og-post,,,,AAXX 08004 07070 04770 73407 10028 21021 30027 40140 51013 60001 700// 333 60007 90710 91111 555 60005=
07070,2012-04-08 01:00:00,1.3,1014.4,1.1,76,-2.5,20000,9.26,22.224,,330,,,0,,,,,,,0,og-post,,,,AAXX 08014 07070 24770 /3305 10013 21025 30030 40144 51011 700// 333 60005 90710 91112=
07070,2012-04-08 02:00:00,0,1014.6,0.8,83,-2.5,20000,11.112,16.668,,330,,,0,,,,,,,0,og-post,,,,AAXX 08024 07070 24970 /3306 10000 21025 30032 40146 51008 700// 333 60005 90710 91109=
07070,2012-04-08 03:00:00,-0.2,1015,0.8,84,-2.6,20000,12.964,18.52,,330,,,0,0,,,,,,0,og-post,,,,AAXX 08034 07070 24970 /3307 11002 21026 30035 40150 52008 700// 333 60007 90710 91110 555 60005=
07070,2012-04-08 04:00:00,-1.4,1015.2,0.7,87,-3.3,19000,7.408,18.52,,330,,,0,,,,,,,0,og-post,,,,AAXX 08044 07070 24969 /3304 11014 21033 30037 40152 52007 700// 333 60005 90710 91110=
07070,2012-04-08 05:00:00,-1.2,1015.7,1,85,-3.4,19000,5.556,9.26,,320,,,0,,,,,,,0,og-post,,,,AAXX 08054 07070 24969 /3203 11012 21034 30042 40157 53010 700// 333 60005 90710 91105=
07070,2012-04-08 06:00:00,-0.4,1016.5,1.5,86,-2.5,18000,1.852,5.556,,240,-1.6,7.7,0,0,,,0,0.4,-5,0,og-post,,,,AAXX 08064 07070 04968 /2401 11004 21025 30050 40165 53015 60002 700// 333 10077 21016 30105 55004 60007 79999 90710 91103 555 60005=
07070,2012-04-08 07:00:00,3.9,1016.9,1.9,73,-0.5,19000,7.408,12.964,,290,,,0,,,,,,,0,og-post,,,,AAXX 08074 07070 24769 82904 10039 21005 30056 40169 53019 700// 333 60005 90710 91107=
07070,2012-04-08 08:00:00,5,1017.5,2,69,-0.2,19000,7.408,11.112,,10,,,0,,,,,,,0,og-post,,,,AAXX 08084 07070 24769 80104 10050 21002 30062 40175 51020 700// 333 60005 90710 91106=
07070,2012-04-08 09:00:00,6.5,1017.8,1.6,60,-0.7,19000,9.26,16.668,,350,,,0,0,,,,,,0,og-post,,,,AAXX 08094 07070 24669 83505 10065 21007 30066 40178 51016 700// 333 60007 90710 91109 555 60005=
07070,2012-04-08 10:00:00,8.1,1017.7,1,49,-2,20000,12.964,22.224,,350,,,0,,,,,,,0,og-post,,,,AAXX 08104 07070 24670 63507 10081 21020 30066 40177 51010 700// 333 60005 90710 91112=
07070,2012-04-08 11:00:00,8.1,1017.5,0.2,49,-2,20000,9.26,22.224,,310,,,0,,,,,,,0,og-post,,,,AAXX 08114 07070 24670 73105 10081 21020 30064 40175 50002 700// 333 60005 90710 91112=
07070,2012-04-08 12:00:00,9.4,1017,-0.7,44,-2.3,20000,5.556,14.816,,230,,,0,0,,,,,,0,og-post,,,,AAXX 08124 07070 04670 /2303 10094 21023 30059 40170 58007 60001 700// 333 60007 90710 91108 555 60005=
07070,2012-04-08 13:00:00,11.2,1016.5,-1.1,46,0,20000,5.556,18.52,,330,,,0,,,,,,,0,og-post,,,,AAXX 08134 07070 24670 /3303 10112 20000 30055 40165 58011 700// 333 60005 90710 91110=
07070,2012-04-08 14:00:00,10.7,1015.9,-1.5,43,-1.4,20000,7.408,20.372,,260,,,0,,,,,,,0,og-post,,,,AAXX 08144 07070 24670 82604 10107 21014 30049 40159 58015 700// 333 60005 90710 91111=
07070,2012-04-08 15:00:00,11,1015.6,-1.3,44,-0.8,20000,12.964,24.076,,290,,,0,0,,,,,,0,og-post,,,,AAXX 08154 07070 24670 82907 10110 21008 30046 40156 56013 700// 333 60007 90710 91113 555 60005=
07070,2012-04-08 16:00:00,10.6,1015.4,-1.1,45,-0.9,20000,14.816,24.076,,270,,,0,,,,,,,0,og-post,,,,AAXX 08164 07070 24670 82708 10106 21009 30044 40154 56011 700// 333 60005 90710 91113=
07070,2012-04-08 17:00:00,10.1,1015.2,-0.7,47,-0.7,20000,16.668,25.928,,260,,,0,,,,,,,0,og-post,,,,AAXX 08174 07070 24670 82609 10101 21007 30042 40152 56007 700// 333 60005 90710 91114=
07070,2012-04-08 18:00:00,9.6,1015.1,-0.6,49,-0.6,20000,12.964,24.076,,260,-0.3,11.3,0,0,,,,,,0,og-post,,,,AAXX 08184 07070 04770 82607 10096 21006 30040 40151 57006 60002 700// 333 10113 21003 60007 90710 91113 555 60005=
07070,2012-04-08 19:00:00,9.5,1014.8,-0.7,50,-0.4,20000,12.964,20.372,,240,,,0,,,,,,,0,og-post,,,,AAXX 08194 07070 24670 82407 10095 21004 30037 40148 58007 700// 333 60005 90710 91111=
07070,2012-04-08 20:00:00,8.5,1014.7,-0.6,58,0.7,20000,18.52,31.484,,230,,,0,,,,,,,0,og-post,,,,AAXX 08204 07070 24670 82310 10085 20007 30036 40147 56006 700// 333 60005 90710 91117=
07070,2012-04-08 21:00:00,8.3,1014,-1.1,61,1.2,15000,16.668,24.076,,220,,,0.2,0.2,,,,,,60,og-post,,,,AAXX 08214 07070 24665 82209 10083 20012 30029 40140 58011 760// 333 69927 90710 91113 555 69925=
07070,2012-04-08 22:00:00,7.7,1013.1,-1.7,71,2.8,20000,16.668,29.632,,210,,,0.2,,,,,,,0,og-post,,,,AAXX 08224 07070 24570 82109 10077 20028 30020 40131 58017 700// 333 69925 90710 91116=
07070,2012-04-08 23:00:00,7.9,1012.5,-2.2,71,3,20000,16.668,27.78,,210,,,0,,,,,,,0,og-post,,,,AAXX 08234 07070 24570 82109 10079 20030 30014 40125 56022 700// 333 60005 90710 91115=
07070,2012-04-09 00:00:00,8.3,1011.7,-2.3,69,2.9,20000,18.52,29.632,,210,,,0,0.2,0.4,,,,,0,og-post,,,,AAXX 09004 07070 04570 82110 10083 20029 30006 40117 56023 69941 700// 333 69927 90710 91116 555 60005=
07070,2012-04-09 01:00:00,8.6,1010.8,-2.2,74,4.2,20000,14.816,27.78,,220,,,0,,,,,,,0,og-post,,,,AAXX 09014 07070 24570 82208 10086 20042 39998 40108 58022 700// 333 60005 90710 91115=
07070,2012-04-09 02:00:00,8.7,1010.3,-2.1,75,4.5,20000,20.372,29.632,,240,,,0,,,,,,,0,og-post,,,,AAXX 09024 07070 24470 82411 10087 20045 39993 40103 56021 700// 333 60005 90710 91116=
07070,2012-04-09 03:00:00,8.9,1009.5,-2.1,75,4.7,20000,14.816,29.632,,220,,,0,0,,,,,,0,og-post,,,,AAXX 09034 07070 24570 82208 10089 20047 39985 40095 57021 700// 333 60007 90710 91116 555 60005=
07070,2012-04-09 04:00:00,8.9,1008.7,-2.1,78,5.3,20000,12.964,24.076,,230,,,0,,,,,,,0,og-post,,,,AAXX 09044 07070 24570 82307 10089 20053 39977 40087 58021 700// 333 60005 90710 91113=
07070,2012-04-09 05:00:00,8.9,1008.3,-2,79,5.5,19000,16.668,25.928,,240,,,0,,,,,,,0,og-post,,,,AAXX 09054 07070 24569 82409 10089 20055 39973 40083 56020 700// 333 60005 90710 91114=
07070,2012-04-09 06:00:00,9.4,1007.9,-1.6,80,6.1,19000,18.52,29.632,,230,7.4,9.6,0,0,,0.4,0.4,5.2,6,0,og-post,,,,AAXX 09064 07070 04769 72310 10094 20061 39969 40079 56016 69942 700// 333 10096 20074 30006 55052 60007 70004 90710 91116 555 60005=
07070,2012-04-09 07:00:00,9.8,1007.3,-1.3,78,6.1,19000,20.372,31.484,,240,,,0,,,,,,,0,og-post,,,,AAXX 09074 07070 24869 82411 10098 20061 39964 40073 57013 700// 333 60005 90710 91117=
07070,2012-04-09 08:00:00,10.6,1007,-1.2,74,6.2,20000,22.224,33.336,,230,,,0,,,,,,,0,og-post,,,,AAXX 09084 07070 24470 82312 10106 20062 39961 40070 56012 700// 333 60005 90710 91118=
07070,2012-04-09 09:00:00,11.3,1006.8,-1,72,6.4,19000,20.372,37.04,,240,,,0,0,,,,,,0,og-post,,,,AAXX 09094 07070 24569 82411 10113 20064 39959 40068 56010 700// 333 60007 90710 91120 555 60005=
07070,2012-04-09 10:00:00,12.2,1006.2,-1,68,6.5,20000,24.076,37.04,,240,,,,,,,,,,0,og-post,,,,AAXX 09104 07070 24570 82413 10122 20065 39954 40062 58010 700// 333 69905 90710 91120=
07070,2012-04-09 11:00:00,12.4,1005.5,-1.4,67,6.4,19000,25.928,40.744,,240,,,0,,,,,,,0,og-post,,,,AAXX 09114 07070 24569 82414 10124 20064 39947 40055 58014 700// 333 60005 90710 91122=
07070,2012-04-09 12:00:00,14.1,1004.7,-2,59,6.2,18000,29.632,46.3,,240,,,0,,,,,,,0,og-post,,,,AAXX 09124 07070 04568 82416 10141 20062 39939 40047 58020 69901 700// 333 69907 90710 91125 555 60005=
07070,2012-04-09 13:00:00,13.5,1004,-2.2,58,5.4,20000,31.484,51.856,51.856,250,,,0,,,,,,,0,og-post,,,,AAXX 09134 07070 24670 82517 10135 20054 39932 40040 57022 700// 333 60005 91028 90710 91128=
07070,2012-04-09 14:00:00,12.9,1003.4,-2.1,61,5.6,20000,31.484,48.152,,240,,,0,,,,,,,0,og-post,,,,AAXX 09144 07070 24670 82417 10129 20056 39926 40034 56021 700// 333 60005 90710 91126=
07070,2012-04-09 15:00:00,12.4,1003,-1.7,69,6.9,20000,29.632,50.004,,240,,,0,0,,,,,,0,og-post,,,,AAXX 09154 07070 24770 82416 10124 20069 39922 40030 56017 700// 333 60007 90710 91127 555 60005=
07070,2012-04-09 16:00:00,10.8,1002.7,-1.4,83,8,20000,27.78,44.448,,240,,,0.4,,,,,,,61,og-post,,,,AAXX 09164 07070 24570 82415 10108 20080 39918 40027 56014 761// 333 69945 90710 91124=
07070,2012-04-09 17:00:00,10.6,1002.2,-1.3,86,8.4,14000,16.668,40.744,,220,,,0.2,,,,,,,61,og-post,,,,AAXX 09174 07070 24464 82209 10106 20084 39913 40022 58013 761// 333 69925 90710 91122=
07070,2012-04-09 18:00:00,10.2,1001.5,-1.6,86,8,12000,14.816,38.892,,210,9.4,14.2,0.6,1,,1,,,,61,og-post,,,,AAXX 09184 07070 04662 82108 10102 20080 39906 40015 58016 60012 761// 333 10142 20094 60017 90710 91121 555 69965=
07070,2012-04-09 19:00:00,10.2,1001.1,-1.6,88,8.3,13000,18.52,29.632,,210,,,0.6,,,,,,,61,og-post,,,,AAXX 09194 07070 24663 82110 10102 20083 39902 40011 56016 761// 333 69965 90710 91116=
07070,2012-04-09 20:00:00,10.1,1000.5,-1.7,88,8.2,16000,16.668,29.632,,200,,,0.4,,,,,,,61,og-post,,,,AAXX 09204 07070 24566 82009 10101 20082 39896 40005 56017 761// 333 69945 90710 91116=
07070,2012-04-09 21:00:00,10,999.9,-1.6,88,8.1,14000,18.52,27.78,,200,,,0.4,1,,,,,,61,og-post,,,,AAXX 09214 07070 24564 82010 10100 20081 39890 49999 58016 761// 333 60017 90710 91115 555 69945=
07070,2012-04-09 22:00:00,10,999.2,-1.8,87,7.9,18000,16.668,31.484,,200,,,,,,,,,,60,og-post,,,,AAXX 09224 07070 24568 82009 10100 20079 39884 49992 57018 760// 333 69905 90710 91117=
07070,2012-04-09 23:00:00,9.7,999,-1.5,88,7.8,15000,16.668,29.632,,210,,,0.2,,,,,,,61,og-post,,,,AAXX 09234 07070 24665 82109 10097 20078 39881 49990 56015 761// 333 69925 90710 91116=
07070,2012-04-10 00:00:00,10,998.5,-1.3,85,7.6,20000,16.668,37.04,,210,,,0.2,0.4,2,,,,,61,og-post,,,,AAXX 10004 07070 04670 82109 10100 20076 39877 49985 56013 60021 761// 333 69947 90710 91120 555 69925=
07070,2012-04-10 01:00:00,9.9,997.6,-1.6,84,7.3,20000,12.964,31.484,,200,,,,,,,,,,0,og-post,,,,AAXX 10014 07070 24570 82007 10099 20073 39868 49976 58016 700// 333 69905 90710 91117=
07070,2012-04-10 02:00:00,9.9,997,-1.9,83,7.1,20000,14.816,24.076,,190,,,0,,,,,,,0,og-post,,,,AAXX 10024 07070 24570 81908 10099 20071 39862 49970 58019 700// 333 60005 90710 91113=
07070,2012-04-10 03:00:00,10.7,996.5,-2,74,6.3,20000,25.928,42.596,,220,,,0,,,,,,,0,og-post,,,,AAXX 10034 07070 24570 82214 10107 20063 39857 49965 56020 700// 333 69907 90710 91123 555 60005=
07070,2012-04-10 04:00:00,10.4,996.1,-1.5,76,6.3,20000,20.372,44.448,,220,,,0,,,,,,,0,og-post,,,,AAXX 10044 07070 24570 82211 10104 20063 39853 49961 56015 700// 333 60005 90710 91124=
07070,2012-04-10 05:00:00,10.3,996.1,-0.9,74,5.9,20000,25.928,44.448,,220,,,0,,,,,,,0,og-post,,,,AAXX 10054 07070 24570 82214 10103 20059 39853 49961 56009 700// 333 60005 90710 91124=
07070,2012-04-10 06:00:00,10.1,996.3,-0.2,75,5.9,20000,20.372,46.3,,210,9.7,10.8,0,0,,2,3,0.1,9,0,og-post,,,,AAXX 10064 07070 04570 82111 10101 20059 39855 49963 55002 60022 700// 333 10108 20097 30009 55001 60007 70030 90710 91125 555 60005=
07070,2012-04-10 07:00:00,10.4,996.1,0,73,5.8,20000,27.78,48.152,,210,,,0,,,,,,,0,og-post,,,,AAXX 10074 07070 24570 82115 10104 20058 39853 49961 50000 700// 333 60005 90710 91126=
07070,2012-04-10 08:00:00,10.9,995.7,-0.4,73,6.2,20000,27.78,44.448,,210,,,0,,,,,,,0,og-post,,,,AAXX 10084 07070 24570 82115 10109 20062 39849 49957 58004 700// 333 60005 90710 91124=
07070,2012-04-10 09:00:00,12.2,995.5,-0.7,67,6.2,20000,25.928,50.004,,210,,,0,0,,,,,,0,og-post,,,,AAXX 10094 07070 24570 82114 10122 20062 39848 49955 56007 700// 333 60007 90710 91127 555 60005=
07070,2012-04-10 10:00:00,12.1,995.5,-0.5,70,6.8,20000,18.52,42.596,,210,,,0,,,,,,,0,og-post,,,,AAXX 10104 07070 24570 82110 10121 20068 39848 49955 56005 700// 333 60005 90710 91123=
07070,2012-04-10 11:00:00,14,994.6,-0.9,66,7.7,20000,24.076,40.744,,220,,,0,,,,,,,0,og-post,,,,AAXX 10114 07070 24670 82213 10140 20077 39840 49946 58009 700// 333 60005 90710 91122=
07070,2012-04-10 12:00:00,15.3,994.1,-1.3,62,8.1,20000,22.224,44.448,,220,,,0,0,,,,,,0,og-post,,,,AAXX 10124 07070 04670 82212 10153 20081 39835 49941 58013 60001 700// 333 60007 90710 91124 555 60005=
07070,2012-04-10 13:00:00,13.9,993.5,-1.9,68,8.1,20000,27.78,42.596,,180,,,0,,,,,,,0,og-post,,,,AAXX 10134 07070 24670 81815 10139 20081 39829 49935 56019 700// 333 60005 90710 91123=
07070,2012-04-10 14:00:00,13.7,993.1,-1.5,69,8.1,20000,31.484,53.708,,190,,,0,,,,,,,0,og-post,,,,AAXX 10144 07070 24570 81917 10137 20081 39825 49931 56015 700// 333 60005 90710 91129=
07070,2012-04-10 15:00:00,9.3,994.3,-0,88,7.4,12000,16.668,57.412,,290,,,1,1,,,,,,61,og-post,,,,AAXX 10154 07070 24462 82909 10093 20074 39835 49943 55000 761// 333 60017 90710 91131 555 60015=
07070,2012-04-10 16:00:00,8.9,994.6,0.9,92,7.7,9000,7.408,18.52,,240,,,1,,,,,,,63,og-post,,,,AAXX 10164 07070 24659 82404 10089 20077 39838 49946 53009 763// 333 60015 90710 91110=
07070,2012-04-10 17:00:00,9,994.1,0.8,92,7.8,3500,3.704,9.26,,190,,,2,,,,,,,63,og-post,,,,AAXX 10174 07070 24735 81902 10090 20078 39833 49941 50008 763// 333 60025 90710 91105=
07070,2012-04-10 18:00:00,8.8,994.7,0.4,92,7.6,20000,5.556,7.408,,230,8.8,15.4,0.2,3,,4,,,,0,og-post,,,,AAXX 10184 07070 04570 82303 10088 20076 39839 49947 53004 60042 700// 333 10154 20088 60037 90710 91104 555 69925=
07070,2012-04-10 19:00:00,8.7,995.7,1,92,7.5,4800,7.408,18.52,,260,,,0.2,,,,,,,60,og-post,,,,AAXX 10194 07070 24448 82604 10087 20075 39848 49957 53010 760// 333 69925 90710 91110=
07070,2012-04-10 20:00:00,7.6,996.6,2.4,89,5.9,14000,14.816,27.78,,280,,,2,,,,,,,61,og-post,,,,AAXX 10204 07070 24664 82808 10076 20059 39857 49966 53024 761// 333 60025 90710 91115=
07070,2012-04-10 21:00:00,7.2,997.3,2.5,92,6,9000,12.964,16.668,,250,,,0.4,2,,,,,,60,og-post,,,,AAXX 10214 07070 24659 82507 10072 20060 39864 49973 51025 760// 333 60027 90710 91109 555 69945=
07070,2012-04-10 22:00:00,7,998,2.2,91,5.6,18000,11.112,20.372,,250,,,,,,,,,,0,og-post,,,,AAXX 10224 07070 24668 82506 10070 20056 39870 49980 51022 700// 333 69905 90710 91111=
07070,2012-04-10 23:00:00,6.1,998.3,1.6,91,4.7,13000,12.964,20.372,,230,,,0,,,,,,,0,og-post,,,,AAXX 10234 07070 24963 /2307 10061 20047 39873 49983 51016 700// 333 60005 90710 91111=
07070,2012-04-11 00:00:00,5.5,998.5,1.1,91,4.1,11000,11.112,18.52,,230,,,0,,2,,,,,0,og-post,,,,AAXX 11004 07070 04761 /2306 10055 20041 39875 49985 51011 60021 700// 333 69907 90710 91110 555 60005=
07070,2012-04-11 01:00:00,6.2,998.7,0.7,90,4.7,14000,12.964,20.372,,230,,,0,,,,,,,0,og-post,,,,AAXX 11014 07070 24664 82307 10062 20047 39877 49987 52007 700// 333 60005 90710 91111=
07070,2012-04-11 02:00:00,6.4,998.9,0.6,89,4.7,13000,16.668,22.224,,260,,,0,,,,,,,0,og-post,,,,AAXX 11024 07070 24763 82609 10064 20047 39879 49989 52006 700// 333 60005 90710 91112=
07070,2012-04-11 03:00:00,5.4,999.4,0.9,90,3.9,19000,16.668,25.928,,230,,,0,0,,,,,,0,og-post,,,,AAXX 11034 07070 24869 /2309 10054 20039 39884 49994 53009 700// 333 60007 90710 91114 555 60005=
07070,2012-04-11 04:00:00,4.8,999.7,0.9,91,3.5,18000,18.52,24.076,,250,,,0,,,,,,,0,og-post,,,,AAXX 11044 07070 24968 /2510 10048 20035 39886 49997 52009 700// 333 60005 90710 91113=
07070,2012-04-11 05:00:00,4,1000.2,1.2,92,2.8,8000,12.964,22.224,,220,,,0,,,,,,,0,og-post,,,,AAXX 11054 07070 24958 /2207 10040 20028 39891 40002 52012 700// 333 60005 90710 91112=
07070,2012-04-11 06:00:00,4.8,1000.6,1.1,92,3.6,8000,9.26,20.372,,220,3.7,8.9,0.2,0.2,,2,6.8,0.3,3,0,og-post,,,,AAXX 11064 07070 04958 /2205 10048 20036 39895 40006 53011 60022 700// 333 10089 20037 31003 55003 69927 70068 90710 91111 555 69925=
07070,2012-04-11 07:00:00,5.9,1000.7,1.1,87,3.9,10000,14.816,18.52,,200,,,0,,,,,,,0,og-post,,,,AAXX 11074 07070 24460 /2008 10059 20039 39897 40007 51011 700// 333 60005 90710 91110=
07070,2012-04-11 08:00:00,7.8,1000.9,0.8,79,4.4,17000,12.964,22.224,,200,,,0,,,,,,,0,og-post,,,,AAXX 11084 07070 24467 /2007 10078 20044 39899 40009 51008 700// 333 60005 90710 91112=
07070,2012-04-11 09:00:00,9.2,1001.2,0.8,78,5.6,20000,14.816,22.224,,200,,,0,0,,,,,,0,og-post,,,,AAXX 11094 07070 24470 62008 10092 20056 39903 40012 53008 700// 333 60007 90710 91112 555 60005=
07070,2012-04-11 10:00:00,9.9,1001.2,0.6,74,5.5,20000,14.816,27.78,,230,,,0,,,,,,,0,og-post,,,,AAXX 11104 07070 24570 82308 10099 20055 39903 40012 51006 700// 333 60005 90710 91115=
07070,2012-04-11 11:00:00,11.6,1001,0.3,62,4.6,20000,20.372,31.484,,220,,,0,,,,,,,0,og-post,,,,AAXX 11114 07070 24570 /2211 10116 20046 39902 40010 51003 700// 333 60005 90710 91117=
07070,2012-04-11 12:00:00,10.7,1000.8,-0.3,65,4.4,20000,12.964,27.78,,230,,,0,0,,,,,,0,og-post,,,,AAXX 11124 07070 04670 82307 10107 20044 39900 40008 58003 60001 700// 333 60007 90710 91115 555 60005=
07070,2012-04-11 13:00:00,11.3,1000.9,-0.2,62,4.3,20000,20.372,31.484,,250,,,0,,,,,,,0,og-post,,,,AAXX 11134 07070 24570 82511 10113 20043 39901 40009 55002 700// 333 60005 90710 91117=
07070,2012-04-11 14:00:00,11.2,1000.6,-0.4,68,5.5,20000,14.816,33.336,,200,,,0.2,,,,,,,0,og-post,,,,AAXX 11144 07070 24570 72008 10112 20055 39898 40006 58004 700// 333 69925 90710 91118=
07070,2012-04-11 15:00:00,11.5,1000.3,-0.5,63,4.7,20000,14.816,31.484,,200,,,0,0.2,,,,,,0,og-post,,,,AAXX 11154 07070 24670 72008 10115 20047 39895 40003 58005 700// 333 69927 90710 91117 555 60005=
07070,2012-04-11 16:00:00,12.5,1000.2,-0.7,60,4.9,20000,9.26,25.928,,240,,,0,,,,,,,0,og-post,,,,AAXX 11164 07070 24670 62405 10125 20049 39894 40002 56007 700// 333 60005 90710 91114=
07070,2012-04-11 17:00:00,11.7,1000.3,-0.3,66,5.6,20000,11.112,24.076,,200,,,0,,,,,,,0,og-post,,,,AAXX 11174 07070 24670 72006 10117 20056 39895 40003 55003 700// 333 60005 90710 91113=
07070,2012-04-11 18:00:00,9.7,1000.7,0.3,76,5.7,20000,12.964,24.076,,160,4.8,13.1,0,0,,0.2,,,,0,og-post,,,,AAXX 11184 07070 04670 /1607 10097 20057 39898 40007 53003 69922 700// 333 10131 20048 60007 90710 91113 555 60005=
07070,2012-04-11 19:00:00,7.1,1001.8,1.4,81,4.1,20000,3.704,33.336,,330,,,,,,,,,,0,og-post,,,,AAXX 11194 07070 24670 /3302 10071 20041 39908 40018 53014 700// 333 69905 90710 91118=
07070,2012-04-11 20:00:00,5.8,1002,1.4,90,4.3,19000,7.408,9.26,,90,,,0,,,,,,,0,og-post,,,,AAXX 11204 07070 24769 60904 10058 20043 39909 40020 51014 700// 333 60005 90710 91105=
07070,2012-04-11 21:00:00,5.1,1002.4,1.5,92,3.9,19000,9.26,12.964,,150,,,0,,,,,,,0,og-post,,,,AAXX 11214 07070 24869 /1505 10051 20039 39913 40024 51015 700// 333 69907 90710 91107 555 60005=
07070,2012-04-11 22:00:00,3.9,1002.5,0.6,92,2.7,19000,7.408,12.964,,180,,,0,,,,,,,0,og-post,,,,AAXX 11224 07070 24669 /1804 10039 20027 39914 40025 52006 700// 333 60005 90710 91107=
07070,2012-04-11 23:00:00,5,1002.5,0.5,93,4,14000,5.556,11.112,,200,,,0,,,,,,,0,og-post,,,,AAXX 11234 07070 24864 82003 10050 20040 39914 40025 51005 700// 333 60005 90710 91106=
07070,2012-04-12 00:00:00,5.4,1002.7,0.3,90,3.9,19000,3.704,7.408,,200,,,0,0,,,,,,0,og-post,,,,AAXX 12004 07070 04869 72002 10054 20039 39916 40027 53003 69901 700// 333 60007 90710 91104 555 60005=
07070,2012-04-12 01:00:00,5.2,1002.3,-0.2,92,4,17000,7.408,11.112,,200,,,0,,,,,,,0,og-post,,,,AAXX 12014 07070 24867 82004 10052 20040 39912 40023 58002 700// 333 60005 90710 91106=
07070,2012-04-12 02:00:00,5,1002.4,-0.1,91,3.7,15000,3.704,7.408,,240,,,0,,,,,,,0,og-post,,,,AAXX 12024 07070 24565 82402 10050 20037 39913 40024 58001 700// 333 60005 90710 91104=
07070,2012-04-12 03:00:00,5.6,1002.4,-0.3,91,4.2,12000,3.704,5.556,,240,,,0.2,0.2,,,,,,61,og-post,,,,AAXX 12034 07070 24562 82402 10056 20042 39913 40024 56003 761// 333 69927 90710 91103 555 69925=
07070,2012-04-12 04:00:00,5.9,1002.4,0.1,92,4.7,5000,5.556,7.408,,260,,,0.2,,,,,,,61,og-post,,,,AAXX 12044 07070 24450 82603 10059 20047 39913 40024 52001 761// 333 69925 90710 91104=
07070,2012-04-12 05:00:00,5.9,1002.6,0.2,92,4.7,5000,1.852,11.112,,200,,,,,,,,,,0,og-post,,,,AAXX 12054 07070 24550 82001 10059 20047 39915 40026 53002 700// 333 69905 90710 91106=
07070,2012-04-12 06:00:00,6.1,1002.8,0.5,93,5.1,4800,5.556,9.26,,250,3.8,9.6,0.2,0.4,,0.6,0.8,5.5,2,10,og-post,,,,AAXX 12064 07070 04548 82503 10061 20051 39918 40028 53005 69962 710// 333 10096 20038 31002 55055 69947 70008 90710 91105 555 69925=
07070,2012-04-12 07:00:00,7.4,1003.1,0.8,91,6,7000,7.408,12.964,,270,,,0,,,,,,,0,og-post,,,,AAXX 12074 07070 24457 72704 10074 20060 39921 40031 53008 700// 333 60005 90710 91107=
07070,2012-04-12 08:00:00,8.3,1003.3,0.8,82,5.4,12000,7.408,12.964,,260,,,0,,,,,,,0,og-post,,,,AAXX 12084 07070 24462 /2604 10083 20054 39923 40033 51008 700// 333 60005 90710 91107=
07070,2012-04-12 09:00:00,9.1,1003.5,0.8,77,5.3,19000,9.26,12.964,,270,,,0,0,,,,,,0,og-post,,,,AAXX 12094 07070 24469 72705 10091 20053 39926 40035 52008 700// 333 60007 90710 91107 555 60005=
07070,2012-04-12 10:00:00,10.9,1003.6,0.6,69,5.4,19000,14.816,24.076,,320,,,0,,,,,,,0,og-post,,,,AAXX 12104 07070 24569 /3208 10109 20054 39927 40036 52006 700// 333 60005 90710 91113=
07070,2012-04-12 11:00:00,12.2,1003.3,0.2,55,3.4,20000,11.112,24.076,,290,,,0,,,,,,,0,og-post,,,,AAXX 12114 07070 24570 /2906 10122 20034 39925 40033 50002 700// 333 60005 90710 91113=
07070,2012-04-12 12:00:00,9.6,1003.6,0.1,68,4,20000,7.408,31.484,,330,,,0.2,0.2,0.2,,,,,0,og-post,,,,AAXX 12124 07070 04670 /3304 10096 20040 39927 40036 53001 69921 700// 333 69927 90710 91117 555 69925=
07070,2012-04-12 13:00:00,10.4,1003.9,0.3,70,5.2,17000,18.52,27.78,,320,,,,,,,,,,0,og-post,,,,AAXX 12134 07070 24667 83210 10104 20052 39930 40039 53003 700// 333 69905 90710 91115=
07070,2012-04-12 14:00:00,10,1003.8,0.4,63,3.3,20000,16.668,22.224,,260,,,,,,,,,,60,og-post,,,,AAXX 12144 07070 24570 82609 10100 20033 39929 40038 50004 760// 333 69905 90710 91112=
07070,2012-04-12 15:00:00,12.4,1003.6,0.1,54,3.3,20000,18.52,27.78,,290,,,,,,,,,,0,og-post,,,,AAXX 12154 07070 24970 /2910 10124 20033 39928 40036 50001 700// 333 69907 90710 91115 555 69905=
07070,2012-04-12 16:00:00,10.9,1003.8,-0.1,71,5.8,20000,12.964,42.596,,320,,,,,,,,,,0,og-post,,,,AAXX 12164 07070 24670 83207 10109 20058 39929 40038 55001 700// 333 69905 90710 91123=
07070,2012-04-12 17:00:00,11.3,1004.2,0.4,58,3.3,20000,11.112,20.372,,320,,,0,,,,,,,0,og-post,,,,AAXX 12174 07070 24970 /3206 10113 20033 39933 40042 53004 700// 333 60005 90710 91111=
07070,2012-04-12 18:00:00,9.4,1004.6,0.9,65,3.1,20000,7.408,18.52,,310,6.1,12.8,0,,,0.2,,,,0,og-post,,,,AAXX 12184 07070 04670 /3104 10094 20031 39937 40046 53009 69922 700// 333 10128 20061 69907 90710 91110 555 60005=
07070,2012-04-12 19:00:00,7.4,1005.4,1.5,73,2.9,20000,9.26,25.928,,360,,,0,,,,,,,0,og-post,,,,AAXX 12194 07070 24670 73605 10074 20029 39944 40054 53015 700// 333 60005 90710 91114=
07070,2012-04-12 20:00:00,5.8,1005.6,1.2,80,2.6,20000,5.556,11.112,,290,,,0,,,,,,,0,og-post,,,,AAXX 12204 07070 24970 /2903 10058 20026 39945 40056 51012 700// 333 60005 90710 91106=
07070,2012-04-12 21:00:00,3.7,1005.9,1,89,2.1,17000,,9.26,,,,,0,0,,,,,,0,og-post,,,,AAXX 12214 07070 24767 /0000 10037 20021 39947 40059 51010 700// 333 60007 90710 91105 555 60005=
07070,2012-04-12 22:00:00,2.6,1006.1,0.5,91,1.3,13000,5.556,7.408,,190,,,0,,,,,,,0,og-post,,,,AAXX 12224 07070 24963 /1903 10026 20013 39949 40061 53005 700// 333 60005 90710 91104=
07070,2012-04-12 23:00:00,2.1,1006.3,0.5,91,0.8,12000,3.704,5.556,,230,,,0,,,,,,,0,og-post,,,,AAXX 12234 07070 24962 /2302 10021 20008 39950 40063 51005 700// 333 60005 90710 91103=
07070,2012-04-13 00:00:00,1.4,1006.2,0.2,93,0.4,9000,,3.704,,,,,0,0,,,,,,0,og-post,,,,AAXX 13004 07070 04959 /0000 10014 20004 39949 40062 50002 60001 700// 333 60007 90710 91102 555 60005=
07070,2012-04-13 01:00:00,0.7,1006.2,0,93,-0.3,6000,,1.852,,,,,0,,,,,,,0,og-post,,,,AAXX 13014 07070 24956 /0000 10007 21003 39949 40062 50000 700// 333 60005 90710 91101=
07070,2012-04-13 02:00:00,-0.1,1006.2,-0.1,94,-1,4100,,5.556,,,,,0,,,,,,,10,og-post,,,,AAXX 13024 07070 24941 /0000 11001 21010 39949 40062 56001 710// 333 60005 90710 91103=
07070,2012-04-13 03:00:00,0.8,1006.1,-0.1,95,0.1,7000,1.852,5.556,,220,,,0,0,,,,,,0,og-post,,,,AAXX 13034 07070 24957 /2201 10008 20001 39948 40061 58001 700// 333 60007 90710 91103 555 60005=
07070,2012-04-13 04:00:00,-0.5,1006.2,-0.1,95,-1.2,5000,,3.704,,,,,0,,,,,,,0,og-post,,,,AAXX 13044 07070 24950 /0000 11005 21012 39948 40062 57001 700// 333 60005 90710 91102=
07070,2012-04-13 05:00:00,-1.1,1006.1,-0.2,95,-1.8,4800,1.852,5.556,,250,,,0,,,,,,,10,og-post,,,,AAXX 13054 07070 24948 /2501 11011 21018 39947 40061 57002 710// 333 60005 90710 91103=
07070,2012-04-13 06:00:00,0.5,1006.5,0.4,94,-0.4,6000,1.852,3.704,,30,-1.1,9.5,0,0,,,0.2,6,-5,0,og-post,,,,AAXX 13064 07070 04956 /0301 10005 21004 39952 40065 53004 60002 700// 333 10095 21011 30105 55060 60007 70002 90710 91102 555 60005=
07070,2012-04-13 07:00:00,5.1,1006.5,0.6,88,3.3,6000,,3.704,,,,,0,,,,,,,0,og-post,,,,AAXX 13074 07070 24956 /0000 10051 20033 39954 40065 53006 700// 333 60005 90710 91102=
07070,2012-04-13 08:00:00,8.7,1006.5,0.8,76,4.7,9000,,3.704,,,,,0,,,,,,,0,og-post,,,,AAXX 13084 07070 24959 /0000 10087 20047 39955 40065 51008 700// 333 60005 90710 91102=
07070,2012-04-13 09:00:00,10.1,1006.4,0.3,71,5.1,15000,5.556,11.112,,10,,,0,0,,,,,,0,og-post,,,,AAXX 13094 07070 24965 /0103 10101 20051 39955 40064 51003 700// 333 60007 90710 91106 555 60005=
07070,2012-04-13 10:00:00,11.6,1006.1,-0.2,67,5.7,17000,5.556,12.964,,30,,,0,,,,,,,0,og-post,,,,AAXX 13104 07070 24567 /0303 10116 20057 39952 40061 58002 700// 333 60005 90710 91107=
07070,2012-04-13 11:00:00,12.3,1005.8,-0.5,61,5,19000,3.704,16.668,,40,,,0,,,,,,,0,og-post,,,,AAXX 13114 07070 24569 70402 10123 20050 39950 40058 58005 700// 333 60005 90710 91109=
07070,2012-04-13 12:00:00,12.9,1005.3,-1,52,3.3,20000,5.556,16.668,,240,,,0,0,,,,,,0,og-post,,,,AAXX 13124 07070 04670 /2403 10129 20033 39945 40053 58010 60001 700// 333 60007 90710 91109 555 60005=
07070,2012-04-13 13:00:00,13.8,1005,-1,47,2.7,19000,12.964,18.52,,40,,,0,,,,,,,0,og-post,,,,AAXX 13134 07070 24669 /0407 10138 20027 39942 40050 57010 700// 333 60005 90710 91110=
07070,2012-04-13 14:00:00,13.9,1004.6,-1.2,42,1.2,20000,5.556,18.52,,340,,,0,,,,,,,0,og-post,,,,AAXX 13144 07070 24970 /3403 10139 20012 39938 40046 56012 700// 333 60005 90710 91110=
07070,2012-04-13 15:00:00,14.2,1004.3,-1,44,2.1,20000,9.26,20.372,,360,,,0,0,,,,,,0,og-post,,,,AAXX 13154 07070 24670 /3605 10142 20021 39935 40043 57010 700// 333 60007 90710 91111 555 60005=
07070,2012-04-13 16:00:00,13,1004.1,-0.9,42,0.4,20000,1.852,14.816,,30,,,0,,,,,,,0,og-post,,,,AAXX 13164 07070 24770 /0301 10130 20004 39933 40041 56009 700// 333 60005 90710 91108=
07070,2012-04-13 17:00:00,12.7,1004,-0.6,51,2.8,20000,5.556,11.112,,70,,,0,,,,,,,0,og-post,,,,AAXX 13174 07070 24970 /0703 10127 20028 39932 40040 56006 700// 333 60005 90710 91106=
07070,2012-04-13 18:00:00,10.2,1004.1,-0.3,74,5.8,19000,7.408,11.112,,160,0.6,14.7,0,0,,,,,,0,og-post,,,,AAXX 13184 07070 04769 /1604 10102 20058 39932 40041 56003 60002 700// 333 10147 20006 60007 90710 91106 555 60005=
07070,2012-04-13 19:00:00,10.3,1004.5,0.3,59,2.6,20000,9.26,14.816,,250,,,0,,,,,,,0,og-post,,,,AAXX 13194 07070 24670 72505 10103 20026 39936 40045 53003 700// 333 60005 90710 91108=
07070,2012-04-13 20:00:00,10.4,1004.5,0.4,54,1.5,20000,20.372,33.336,,280,,,,,,,,,,61,og-post,,,,AAXX 13204 07070 24770 82811 10104 20015 39936 40045 52004 761// 333 69905 90710 91118=
07070,2012-04-13 21:00:00,9.4,1004.4,0.3,63,2.7,20000,12.964,31.484,,340,,,,,,,,,,60,og-post,,,,AAXX 13214 07070 24770 83407 10094 20027 39935 40044 50003 760// 333 69907 90710 91117 555 69905=
07070,2012-04-13 22:00:00,8.7,1004.5,-0.1,76,4.7,19000,9.26,22.224,,360,,,0,,,,,,,0,og-post,,,,AAXX 13224 07070 24969 83605 10087 20047 39935 40045 57001 700// 333 60005 90710 91112=
07070,2012-04-13 23:00:00,8,1004.3,-0.3,80,4.8,17000,7.408,14.816,,40,,,0,,,,,,,0,og-post,,,,AAXX 13234 07070 24967 80404 10080 20048 39933 40043 58003 700// 333 60005 90710 91108=
07070,2012-04-14 00:00:00,7.8,1004.1,-0.4,79,4.4,18000,7.408,9.26,,20,,,0,0,,,,,,0,og-post,,,,AAXX 14004 07070 04968 80204 10078 20044 39931 40041 58004 69901 700// 333 60007 90710 91105 555 60005=
07070,2012-04-14 01:00:00,6.8,1003.8,-0.7,83,4.1,15000,1.852,9.26,,340,,,0,,,,,,,0,og-post,,,,AAXX 14014 07070 24965 83401 10068 20041 39928 40038 58007 700// 333 60005 90710 91105=
07070,2012-04-14 02:00:00,5.3,1003.8,-0.6,88,3.5,8000,7.408,12.964,,320,,,0,,,,,,,0,og-post,,,,AAXX 14024 07070 24958 /3204 10053 20035 39927 40038 56006 700// 333 60005 90710 91107=
07070,2012-04-14 03:00:00,4.1,1003.8,-0.4,89,2.4,5000,1.852,9.26,,30,,,0,0,,,,,,0,og-post,,,,AAXX 14034 07070 24950 /0301 10041 20024 39927 40038 56004 700// 333 60007 90710 91105 555 60005=
07070,2012-04-14 04:00:00,3.9,1003.6,-0.3,91,2.6,6000,,5.556,,,,,0,,,,,,,0,og-post,,,,AAXX 14044 07070 24856 80000 10039 20026 39925 40036 58003 700// 333 60005 90710 91103=
07070,2012-04-14 05:00:00,3.8,1003.5,-0.4,92,2.6,6000,3.704,7.408,,10,,,0,,,,,,,0,og-post,,,,AAXX 14054 07070 24856 80102 10038 20026 39923 40035 58004 700// 333 60005 90710 91104=
07070,2012-04-14 06:00:00,4.6,1003.7,-0.1,91,3.3,5000,3.704,5.556,,360,3.7,10.7,0,0,,,0,9.3,-1,0,og-post,,,,AAXX 14064 07070 04850 /3602 10046 20033 39926 40037 55001 69902 700// 333 10107 20037 30101 55093 60007 79999 90710 91103 555 60005=
07070,2012-04-14 07:00:00,7.3,1003.8,0.3,83,4.6,8000,5.556,7.408,,30,,,0,,,,,,,0,og-post,,,,AAXX 14074 07070 24958 /0303 10073 20046 39928 40038 53003 700// 333 60005 90710 91104=
07070,2012-04-14 08:00:00,8.4,1003.8,0.5,77,4.6,11000,9.26,11.112,,360,,,0,,,,,,,0,og-post,,,,AAXX 14084 07070 24961 /3605 10084 20046 39928 40038 51005 700// 333 60005 90710 91106=
07070,2012-04-14 09:00:00,10.7,1003.9,0.4,68,5,11000,9.26,14.816,,360,,,0,0,,,,,,0,og-post,,,,AAXX 14094 07070 24961 /3605 10107 20050 39930 40039 52004 700// 333 60007 90710 91108 555 60005=
07070,2012-04-14 10:00:00,13,1003.7,0.1,54,3.9,19000,11.112,20.372,,20,,,0,,,,,,,0,og-post,,,,AAXX 14104 07070 24969 /0206 10130 20039 39929 40037 50001 700// 333 60005 90710 91111=
07070,2012-04-14 11:00:00,13.8,1003.5,0.1,48,3,19000,12.964,22.224,,50,,,0,,,,,,,0,og-post,,,,AAXX 14114 07070 24669 /0507 10138 20030 39927 40035 50001 700// 333 60005 90710 91112=
07070,2012-04-14 12:00:00,14.8,1003,-0.7,45,3,20000,9.26,22.224,,30,,,0,0,,,,,,0,og-post,,,,AAXX 14124 07070 04670 70305 10148 20030 39923 40030 58007 60001 700// 333 60007 90710 91112 555 60005=
07070,2012-04-14 13:00:00,14.2,1002.9,-0.7,46,2.7,17000,20.372,35.188,,10,,,0,,,,,,,0,og-post,,,,AAXX 14134 07070 24667 60111 10142 20027 39922 40029 56007 700// 333 60005 90710 91119=
07070,2012-04-14 14:00:00,14.1,1002.8,-0.6,42,1.4,19000,20.372,37.04,,360,,,0,,,,,,,0,og-post,,,,AAXX 14144 07070 24969 /3611 10141 20014 39921 40028 56006 700// 333 60005 90710 91120=
07070,2012-04-14 15:00:00,10.3,1003.4,0.2,72,5.5,14000,16.668,55.56,,40,,,0.8,0.8,,,,,,61,og-post,,,,AAXX 14154 07070 24564 /0409 10103 20055 39925 40034 53002 761// 333 69987 90710 91130 555 69985=
07070,2012-04-14 16:00:00,11.6,1003.3,0.3,63,4.8,20000,7.408,46.3,,350,,,0.2,,,,,,,0,og-post,,,,AAXX 14164 07070 24570 /3504 10116 20048 39925 40033 53003 700// 333 69925 90710 91125=
07070,2012-04-14 17:00:00,10.7,1004.1,1.1,66,4.6,19000,20.372,29.632,,40,,,0,,,,,,,0,og-post,,,,AAXX 14174 07070 24669 70411 10107 20046 39932 40041 53011 700// 333 60005 90710 91116=
07070,2012-04-14 18:00:00,9.5,1004.4,1,72,4.7,15000,22.224,31.484,,40,4.6,15,,0.2,,1,,,,0,og-post,,,,AAXX 14184 07070 04765 60412 10095 20047 39935 40044 53010 60012 700// 333 10150 20046 69927 90710 91117 555 69905=
07070,2012-04-14 19:00:00,8.6,1005.1,1.6,74,4.2,15000,11.112,27.78,,10,,,0,,,,,,,0,og-post,,,,AAXX 14194 07070 24965 80106 10086 20042 39941 40051 51016 700// 333 60005 90710 91115=
07070,2012-04-14 20:00:00,7.3,1005.9,1.7,78,3.7,10000,12.964,25.928,,30,,,0,,,,,,,0,og-post,,,,AAXX 14204 07070 24960 /0307 10073 20037 39949 40059 53017 700// 333 60005 90710 91114=
07070,2012-04-14 21:00:00,7,1006.4,1.8,84,4.5,8000,12.964,18.52,,10,,,0,0,,,,,,0,og-post,,,,AAXX 14214 07070 24858 60107 10070 20045 39953 40064 51018 700// 333 60007 90710 91110 555 60005=
07070,2012-04-14 22:00:00,6.2,1006.3,1.1,87,4.2,8000,18.52,24.076,,10,,,0,,,,,,,0,og-post,,,,AAXX 14224 07070 24858 /0110 10062 20042 39952 40063 51011 700// 333 60005 90710 91113=
07070,2012-04-14 23:00:00,5.8,1006.5,0.5,85,3.5,13000,18.52,29.632,,360,,,0,,,,,,,0,og-post,,,,AAXX 14234 07070 24963 /3610 10058 20035 39954 40065 51005 700// 333 60005 90710 91116=
07070,2012-04-15 00:00:00,5.4,1006.7,0.3,85,3.1,13000,18.52,31.484,,10,,,0,0,,,,,,0,og-post,,,,AAXX 15004 07070 04963 /0110 10054 20031 39956 40067 53003 60001 700// 333 60007 90710 91117 555 60005=
07070,2012-04-15 01:00:00,4.7,1007,0.6,87,2.7,11000,14.816,25.928,,10,,,0,,,,,,,0,og-post,,,,AAXX 15014 07070 24961 /0108 10047 20027 39958 40070 52006 700// 333 60005 90710 91114=
07070,2012-04-15 02:00:00,4.9,1007.3,0.8,86,2.8,12000,16.668,24.076,,360,,,0,,,,,,,0,og-post,,,,AAXX 15024 07070 24762 /3609 10049 20028 39962 40073 53008 700// 333 60005 90710 91113=
07070,2012-04-15 03:00:00,5.1,1007.5,0.8,85,2.8,14000,16.668,25.928,,360,,,0,0,,,,,,0,og-post,,,,AAXX 15034 07070 24764 83609 10051 20028 39964 40075 52008 700// 333 60007 90710 91114 555 60005=
07070,2012-04-15 04:00:00,4.7,1008.1,1.1,86,2.6,15000,16.668,27.78,,10,,,0,,,,,,,0,og-post,,,,AAXX 15044 07070 24865 80109 10047 20026 39969 40081 53011 700// 333 60005 90710 91115=
07070,2012-04-15 05:00:00,4.4,1008.7,1.3,88,2.6,12000,18.52,25.928,,360,,,0,,,,,,,0,og-post,,,,AAXX 15054 07070 24862 83610 10044 20026 39975 40087 53013 700// 333 60005 90710 91114=
07070,2012-04-15 06:00:00,4.2,1009.5,1.9,88,2.4,12000,18.52,27.78,,350,3.9,9.4,0,0,,,1,7.4,4,0,og-post,,,,AAXX 15064 07070 04762 73510 10042 20024 39983 40095 53019 60002 700// 333 10094 20039 30004 55074 60007 70010 90710 91115 555 60005=
07070,2012-04-15 07:00:00,5.2,1010.1,2,85,2.9,13000,24.076,33.336,,350,,,0,,,,,,,0,og-post,,,,AAXX 15074 07070 24863 73513 10052 20029 39989 40101 52020 700// 333 60005 90710 91118=
07070,2012-04-15 08:00:00,7.3,1010.6,2,75,3.2,19000,27.78,40.744,,10,,,0,,,,,,,0,og-post,,,,AAXX 15084 07070 24869 80115 10073 20032 39995 40106 51020 700// 333 60005 90710 91122=
07070,2012-04-15 09:00:00,8.1,1011.1,1.7,66,2.1,20000,35.188,53.708,,10,,,0,0,,,,,,0,og-post,,,,AAXX 15094 07070 24570 /0119 10081 20021 30000 40111 51017 700// 333 60007 90710 91129 555 60005=
07070,2012-04-15 10:00:00,9.4,1011.4,1.5,59,1.8,20000,37.04,57.412,55.56,20,,,0,,,,,,,0,og-post,,,,AAXX 15104 07070 24570 60220 10094 20018 30004 40114 51015 700// 333 60005 91030 90710 91131=
07070,2012-04-15 11:00:00,9.6,1011.6,1.1,56,1.2,20000,33.336,57.412,,20,,,0,,,,,,,0,og-post,,,,AAXX 15114 07070 24670 80218 10096 20012 30006 40116 51011 700// 333 60005 90710 91131=
07070,2012-04-15 12:00:00,9.6,1011.8,0.8,54,0.7,20000,33.336,57.412,,20,,,0,0,,,,,,0,og-post,,,,AAXX 15124 07070 04670 80218 10096 20007 30008 40118 51008 60001 700// 333 60007 90710 91131 555 60005=
07070,2012-04-15 13:00:00,9.5,1012.2,0.8,55,0.9,20000,33.336,51.856,,10,,,0,,,,,,,0,og-post,,,,AAXX 15134 07070 24670 80118 10095 20009 30012 40122 53008 700// 333 60005 90710 91128=
07070,2012-04-15 14:00:00,9.4,1012.7,1.1,55,0.8,20000,33.336,50.004,,10,,,0,,,,,,,0,og-post,,,,AAXX 15144 07070 24670 80118 10094 20008 30017 40127 53011 700// 333 60005 90710 91127=
07070,2012-04-15 15:00:00,9.8,1013.1,1.3,52,0.4,20000,27.78,48.152,,20,,,0,0,,,,,,0,og-post,,,,AAXX 15154 07070 24670 80215 10098 20004 30021 40131 52013 700// 333 60007 90710 91126 555 60005=
07070,2012-04-15 16:00:00,9.7,1013.6,1.4,56,1.3,20000,31.484,53.708,53.708,10,,,0,,,,,,,0,og-post,,,,AAXX 15164 07070 24770 80117 10097 20013 30026 40136 52014 700// 333 60005 91029 90710 91129=
07070,2012-04-15 17:00:00,8.8,1014.5,1.7,61,1.7,20000,31.484,48.152,,10,,,0,,,,,,,0,og-post,,,,AAXX 15174 07070 24670 80117 10088 20017 30034 40145 53017 700// 333 60005 90710 91126=
07070,2012-04-15 18:00:00,8.3,1015.3,2.1,60,1,20000,29.632,51.856,,10,4.2,10.6,0,0,,,,,,0,og-post,,,,AAXX 15184 07070 04770 80116 10083 20010 30042 40153 53021 60002 700// 333 10106 20042 60007 90710 91128 555 60005=
07070,2012-04-15 19:00:00,7.6,1016.1,2.4,61,0.6,20000,25.928,50.004,,10,,,0,,,,,,,0,og-post,,,,AAXX 15194 07070 24770 80114 10076 20006 30050 40161 52024 700// 333 60005 90710 91127=
07070,2012-04-15 20:00:00,6.8,1017.3,2.7,65,0.7,20000,25.928,38.892,,10,,,0,,,,,,,0,og-post,,,,AAXX 15204 07070 24770 80114 10068 20007 30061 40173 53027 700// 333 60005 90710 91121=
07070,2012-04-15 21:00:00,6.2,1017.8,2.4,67,0.5,20000,22.224,38.892,,10,,,0,0,,,,,,0,og-post,,,,AAXX 15214 07070 24770 80112 10062 20005 30066 40178 51024 700// 333 60007 90710 91121 555 60005=
07070,2012-04-15 22:00:00,5.3,1018.5,2.2,69,0.1,20000,22.224,37.04,,10,,,0,,,,,,,0,og-post,,,,AAXX 15224 07070 24770 70112 10053 20001 30072 40185 51022 700// 333 60005 90710 91120=
07070,2012-04-15 23:00:00,3.9,1019,1.6,74,-0.3,20000,18.52,33.336,,10,,,0,,,,,,,0,og-post,,,,AAXX 15234 07070 24970 /0110 10039 21003 30077 40190 52016 700// 333 60005 90710 91118=
07070,2012-04-16 00:00:00,3.4,1019.3,1.4,78,-0.1,20000,20.372,29.632,,10,,,0,0,,,,,,0,og-post,,,,AAXX 16004 07070 04970 /0111 10034 21001 30080 40193 51014 60001 700// 333 60007 90710 91116 555 60005=
07070,2012-04-16 01:00:00,3.4,1019.5,0.9,71,-1.4,20000,22.224,37.04,,10,,,0,,,,,,,0,og-post,,,,AAXX 16014 07070 24970 /0112 10034 21014 30081 40195 51009 700// 333 60005 90710 91120=
07070,2012-04-16 02:00:00,2,1020.1,1,79,-1.3,20000,20.372,33.336,,10,,,0,,,,,,,0,og-post,,,,AAXX 16024 07070 24970 /0111 10020 21013 30087 40201 53010 700// 333 60005 90710 91118=
07070,2012-04-16 03:00:00,1.5,1020.5,1.1,82,-1.2,20000,16.668,31.484,,360,,,0,0,,,,,,0,og-post,,,,AAXX 16034 07070 24970 /3609 10015 21012 30091 40205 53011 700// 333 60007 90710 91117 555 60005=
07070,2012-04-16 04:00:00,1.2,1020.9,1.3,85,-1,20000,18.52,24.076,,360,,,0,,,,,,,0,og-post,,,,AAXX 16044 07070 24970 /3610 10012 21010 30094 40209 51013 700// 333 60005 90710 91113=
07070,2012-04-16 05:00:00,0.9,1021.4,1.2,86,-1.2,20000,16.668,25.928,,360,,,0,,,,,,,0,og-post,,,,AAXX 16054 07070 24970 /3609 10009 21012 30099 40214 53012 700// 333 60005 90710 91114=
07070,2012-04-16 06:00:00,2.1,1022.1,1.6,82,-0.7,20000,18.52,24.076,,350,0.8,8.2,0,0,,,0,2.6,-0,0,og-post,,,,AAXX 16064 07070 04670 /3510 10021 21007 30107 40221 53016 60002 700// 333 10082 20008 30100 55026 60007 70000 90710 91113 555 60005=
07070,2012-04-16 07:00:00,4,1022.5,1.7,78,0.5,20000,16.668,25.928,,10,,,0,,,,,,,0,og-post,,,,AAXX 16074 07070 24970 /0109 10040 20005 30111 40225 51017 700// 333 60005 90710 91114=
07070,2012-04-16 08:00:00,6.8,1022.5,1.4,62,0,20000,25.928,37.04,,20,,,0,,,,,,,0,og-post,,,,AAXX 16084 07070 24570 60214 10068 20000 30113 40225 51014 700// 333 60005 90710 91120=
07070,2012-04-16 09:00:00,8.7,1022.6,0.7,46,-2.3,20000,29.632,53.708,,40,,,0,0,,,,,,0,og-post,,,,AAXX 16094 07070 24670 60416 10087 21023 30114 40226 51007 700// 333 60007 90710 91129 555 60005=
07070,2012-04-16 10:00:00,8.5,1022.7,0.4,44,-3.1,20000,27.78,40.744,,20,,,0,,,,,,,0,og-post,,,,AAXX 16104 07070 24670 /0215 10085 21031 30115 40227 52004 700// 333 60005 90710 91122=
07070,2012-04-16 11:00:00,9,1022.6,0.1,43,-2.9,20000,25.928,40.744,,10,,,0,,,,,,,0,og-post,,,,AAXX 16114 07070 24770 /0114 10090 21029 30114 40226 50001 700// 333 60005 90710 91122=
07070,2012-04-16 12:00:00,9.3,1022.4,-0.2,44,-2.3,20000,27.78,50.004,,10,,,0,0,,,,,,0,og-post,,,,AAXX 16124 07070 04770 70115 10093 21023 30112 40224 58002 60001 700// 333 60007 90710 91127 555 60005=
07070,2012-04-16 13:00:00,9,1022.5,-0.2,39,-4.2,20000,27.78,59.264,,10,,,0,,,,,,,0,og-post,,,,AAXX 16134 07070 24770 70115 10090 21042 30113 40225 55002 700// 333 60005 90710 91132=
07070,2012-04-16 14:00:00,10.3,1022,-0.5,44,-1.4,20000,18.52,38.892,,20,,,0,,,,,,,0,og-post,,,,AAXX 16144 07070 24770 70210 10103 21014 30109 40220 58005 700// 333 60005 90710 91121=
07070,2012-04-16 15:00:00,9,1021.9,-0.5,51,-0.6,20000,22.224,40.744,,10,,,0,0,,,,,,0,og-post,,,,AAXX 16154 07070 24870 70112 10090 21006 30107 40219 58005 700// 333 60007 90710 91122 555 60005=
07070,2012-04-16 16:00:00,8.9,1022,-0.5,47,-1.8,20000,24.076,44.448,,10,,,0,,,,,,,0,og-post,,,,AAXX 16164 07070 24770 80113 10089 21018 30108 40220 55005 700// 333 60005 90710 91124=
07070,2012-04-16 17:00:00,8.5,1022,-0.1,52,-0.8,20000,18.52,33.336,,10,,,0,,,,,,,0,og-post,,,,AAXX 16174 07070 24870 60110 10085 21008 30108 40220 56001 700// 333 60005 90710 91118=
07070,2012-04-16 18:00:00,8.1,1022.1,0.2,54,-0.7,20000,14.816,27.78,,10,2.1,10.8,0,0,,,,,,0,og-post,,,,AAXX 16184 07070 04870 /0108 10081 21007 30109 40221 52002 60002 700// 333 10108 20021 60007 90710 91115 555 60005=
07070,2012-04-16 19:00:00,4.7,1022.2,0.1,65,-1.3,20000,11.112,22.224,,10,,,0,,,,,,,0,og-post,,,,AAXX 16194 07070 24870 /0106 10047 21013 30109 40222 52001 700// 333 60005 90710 91112=
07070,2012-04-16 20:00:00,3.5,1022.5,0.3,70,-1.5,20000,9.26,14.816,,360,,,0,,,,,,,0,og-post,,,,AAXX 16204 07070 24770 /3605 10035 21015 30111 40225 53003 700// 333 60005 90710 91108=
07070,2012-04-16 21:00:00,3.4,1022.5,0.2,71,-1.4,20000,11.112,14.816,,340,,,0,0,,,,,,0,og-post,,,,AAXX 16214 07070 24770 63406 10034 21014 30111 40225 52002 700// 333 60007 90710 91108 555 60005=
07070,2012-04-16 22:00:00,2.3,1022.1,-0.2,76,-1.5,20000,7.408,12.964,,300,,,0,,,,,,,0,og-post,,,,AAXX 16224 07070 24970 /3004 10023 21015 30107 40221 58002 700// 333 60005 90710 91107=
07070,2012-04-16 23:00:00,0.7,1021.5,-1.1,81,-2.2,20000,,9.26,,,,,0,,,,,,,0,og-post,,,,AAXX 16234 07070 24970 /0000 10007 21022 30100 40215 58011 700// 333 60005 90710 91105=
07070,2012-04-17 00:00:00,0.7,1021.2,-1.4,83,-1.9,20000,5.556,9.26,,280,,,0,0,,,,,,0,og-post,,,,AAXX 17004 07070 04970 /2803 10007 21019 30097 40212 56014 60001 700// 333 60007 90710 91105 555 60005=
07070,2012-04-17 01:00:00,-1.1,1020.3,-2,86,-3.1,19000,1.852,9.26,,270,,,0,,,,,,,0,og-post,,,,AAXX 17014 07070 24969 /2701 11011 21031 30087 40203 58020 700// 333 60005 90710 91105=
07070,2012-04-17 02:00:00,-1.8,1019.4,-2.2,89,-3.4,15000,3.704,3.704,,210,,,0,,,,,,,0,og-post,,,,AAXX 17024 07070 24965 /2102 11018 21034 30078 40194 58022 700// 333 60005 90710 91102=
07070,2012-04-17 03:00:00,-2.5,1018.7,-2.6,90,-3.9,12000,,5.556,,,,,0,0,,,,,,0,og-post,,,,AAXX 17034 07070 24962 /0000 11025 21039 30071 40187 56026 700// 333 60007 90710 91103 555 60005=
07070,2012-04-17 04:00:00,-2.5,1017.8,-2.5,92,-3.6,11000,1.852,5.556,,220,,,0,,,,,,,0,og-post,,,,AAXX 17044 07070 24961 /2201 11025 21036 30062 40178 57025 700// 333 60005 90710 91103=
07070,2012-04-17 05:00:00,-2.3,1016.9,-2.5,93,-3.3,11000,5.556,9.26,,170,,,0,,,,,,,0,og-post,,,,AAXX 17054 07070 24961 61703 11023 21033 30053 40169 58025 700// 333 60005 90710 91105=
07070,2012-04-17 06:00:00,-0.7,1016.2,-2.4,90,-2.1,10000,3.704,7.408,,190,-3.2,8,0,0,,,0,7.4,-7,0,og-post,,,,AAXX 17064 07070 04960 /1902 11007 21021 30047 40162 56024 60002 700// 333 10080 21032 30107 55074 60007 70000 90710 91104 555 60005=
07070,2012-04-17 07:00:00,3.2,1015.1,-2.4,78,-0.3,16000,12.964,16.668,,180,,,0,,,,,,,0,og-post,,,,AAXX 17074 07070 24966 71807 10032 21003 30038 40151 57024 700// 333 60005 90710 91109=
07070,2012-04-17 08:00:00,5.8,1013.8,-2.7,67,0.1,19000,14.816,20.372,,160,,,0,,,,,,,0,og-post,,,,AAXX 17084 07070 24969 71608 10058 20001 30026 40138 58027 700// 333 60005 90710 91111=
07070,2012-04-17 09:00:00,9,1012.7,-3.1,48,-1.4,19000,22.224,40.744,,200,,,0,0,,,,,,0,og-post,,,,AAXX 17094 07070 24969 62012 10090 21014 30016 40127 57031 700// 333 60007 90710 91122 555 60005=
07070,2012-04-17 10:00:00,9.9,1011.2,-3.6,43,-2.1,20000,27.78,44.448,,220,,,0,,,,,,,0,og-post,,,,AAXX 17104 07070 24970 72215 10099 21021 30002 40112 58036 700// 333 60005 90710 91124=
07070,2012-04-17 11:00:00,11.8,1009.5,-4,36,-2.8,19000,29.632,44.448,,200,,,0,,,,,,,0,og-post,,,,AAXX 17114 07070 24969 /2016 10118 21028 39986 40095 58040 700// 333 60005 90710 91124=
07070,2012-04-17 12:00:00,11.1,1008.5,-4,38,-2.7,20000,27.78,46.3,,220,,,0,0,,,,,,0,og-post,,,,AAXX 17124 07070 04870 82215 10111 21027 39976 40085 56040 60001 700// 333 60007 90710 91125 555 60005=
07070,2012-04-17 13:00:00,8.4,1008.2,-3,53,-0.6,19000,33.336,61.116,61.116,240,,,,,,,,,,60,og-post,,,,AAXX 17134 07070 24569 82418 10084 21006 39972 40082 56030 760// 333 69905 91033 90710 91133=
07070,2012-04-17 14:00:00,9.7,1006.7,-2.9,51,0,20000,24.076,46.3,,200,,,,,,,,,,0,og-post,,,,AAXX 17144 07070 24570 82013 10097 20000 39957 40067 58029 700// 333 69905 90710 91125=
07070,2012-04-17 15:00:00,7.1,1005.8,-2.8,76,3.2,17000,24.076,46.3,,210,,,0.4,0.4,,,,,,61,og-post,,,,AAXX 17154 07070 24567 82113 10071 20032 39948 40058 58028 761// 333 69947 90710 91125 555 69945=
07070,2012-04-17 16:00:00,6.6,1005.2,-3.1,82,3.7,11000,20.372,40.744,,210,,,0.2,,,,,,,61,og-post,,,,AAXX 17164 07070 24561 82111 10066 20037 39941 40052 56031 761// 333 69925 90710 91122=
07070,2012-04-17 17:00:00,6.1,1004.6,-2.2,87,4.1,11000,16.668,37.04,,220,,,1,,,,,,,61,og-post,,,,AAXX 17174 07070 24461 82209 10061 20041 39935 40046 56022 761// 333 60015 90710 91120=
07070,2012-04-17 18:00:00,6.1,1003.8,-2.1,86,3.9,19000,18.52,33.336,,210,-0.6,12,0.4,2,,2,,,,0,og-post,,,,AAXX 17184 07070 04569 82110 10061 20039 39927 40038 58021 60022 700// 333 10120 21006 60027 90710 91118 555 69945=
07070,2012-04-17 19:00:00,6.2,1003.3,-1.8,89,4.5,20000,16.668,40.744,,200,,,,,,,,,,0,og-post,,,,AAXX 17194 07070 24470 82009 10062 20045 39923 40033 56018 700// 333 69905 90710 91122=
07070,2012-04-17 20:00:00,6.5,1002.8,-1.7,89,4.8,19000,16.668,29.632,,200,,,0,,,,,,,0,og-post,,,,AAXX 17204 07070 24469 82009 10065 20048 39918 40028 56017 700// 333 60005 90710 91116=
07070,2012-04-17 21:00:00,6.6,1002.3,-1.4,90,5.1,17000,16.668,24.076,,200,,,0,,,,,,,0,og-post,,,,AAXX 17214 07070 24467 82009 10066 20051 39913 40023 57014 700// 333 69907 90710 91113 555 60005=
07070,2012-04-17 22:00:00,6.5,1002,-1.3,90,5,13000,11.112,20.372,,220,,,0,,,,,,,0,og-post,,,,AAXX 17224 07070 24563 62206 10065 20050 39910 40020 56013 700// 333 60005 90710 91111=
07070,2012-04-17 23:00:00,6.2,1001.6,-1.2,92,5,10000,12.964,25.928,,210,,,,,,,,,,0,og-post,,,,AAXX 17234 07070 24460 72107 10062 20050 39906 40016 56012 700// 333 69905 90710 91114=
07070,2012-04-18 00:00:00,6.9,1001.1,-1.2,91,5.5,12000,11.112,20.372,,210,,,0,,,,,,,0,og-post,,,,AAXX 18004 07070 04462 82106 10069 20055 39901 40011 58012 69901 700// 333 69907 90710 91111 555 60005=
07070,2012-04-18 01:00:00,6.4,999.9,-2.1,91,5,11000,7.408,20.372,,200,,,0,,,,,,,0,og-post,,,,AAXX 18014 07070 24461 82004 10064 20050 39889 49999 58021 700// 333 60005 90710 91111=
07070,2012-04-18 02:00:00,7.1,999.4,-2.2,90,5.6,11000,11.112,22.224,,220,,,,,,,,,,61,og-post,,,,AAXX 18024 07070 24461 82206 10071 20056 39884 49994 57022 761// 333 69905 90710 91112=
07070,2012-04-18 03:00:00,6.4,998.6,-2.5,88,4.6,17000,14.816,31.484,,220,,,0.2,0.2,,,,,,0,og-post,,,,AAXX 18034 07070 24467 /2208 10064 20046 39876 49986 56025 700// 333 69927 90710 91117 555 69925=
07070,2012-04-18 04:00:00,5.9,998.1,-1.8,87,3.9,19000,14.816,31.484,,220,,,0,,,,,,,0,og-post,,,,AAXX 18044 07070 24469 72208 10059 20039 39871 49981 57018 700// 333 60005 90710 91117=
07070,2012-04-18 05:00:00,6,997.6,-1.8,87,4,20000,18.52,35.188,,210,,,0,,,,,,,0,og-post,,,,AAXX 18054 07070 24470 62110 10060 20040 39866 49976 56018 700// 333 60005 90710 91119=
07070,2012-04-18 06:00:00,6.5,997,-1.6,86,4.3,19000,20.372,33.336,,200,5.7,7.1,0,0,,0.2,2.6,4.6,5,0,og-post,,,,AAXX 18064 07070 04469 82011 10065 20043 39860 49970 58016 69922 700// 333 10071 20057 31005 55046 60007 70026 90710 91118 555 60005=
07070,2012-04-18 07:00:00,6.7,996.6,-1.5,85,4.4,18000,24.076,35.188,,200,,,,,,,,,,58,og-post,,,,AAXX 18074 07070 24468 82013 10067 20044 39856 49966 56015 758// 333 69905 90710 91119=
07070,2012-04-18 08:00:00,7.4,995.7,-1.8,84,4.9,20000,25.928,44.448,,200,,,,,,,,,,0,og-post,,,,AAXX 18084 07070 24470 82014 10074 20049 39848 49957 58018 700// 333 69905 90710 91124=
07070,2012-04-18 09:00:00,8.7,995.1,-1.8,80,5.4,19000,24.076,44.448,,200,,,0,,,,,,,0,og-post,,,,AAXX 18094 07070 24469 72013 10087 20054 39842 49951 58018 700// 333 69907 90710 91124 555 60005=
07070,2012-04-18 10:00:00,10.4,994,-2.4,69,5,19000,29.632,46.3,,210,,,0,,,,,,,0,og-post,,,,AAXX 18104 07070 24569 72116 10104 20050 39832 49940 58024 700// 333 60005 90710 91125=
07070,2012-04-18 11:00:00,10.1,993.1,-2.5,68,4.5,20000,33.336,50.004,,200,,,0,,,,,,,0,og-post,,,,AAXX 18114 07070 24570 72018 10101 20045 39823 49931 58025 700// 333 60005 90710 91127=
07070,2012-04-18 12:00:00,11.1,991.8,-3.1,65,4.8,20000,29.632,50.004,50.004,200,,,,,,,,,,0,og-post,,,,AAXX 18124 07070 04570 72016 10111 20048 39811 49918 58031 69901 700// 333 69907 91027 90710 91127 555 69905=
07070,2012-04-18 13:00:00,11.1,991.1,-2.8,63,4.3,20000,33.336,55.56,,200,,,0,,,,,,,0,og-post,,,,AAXX 18134 07070 24670 82018 10111 20043 39804 49911 56028 700// 333 60005 90710 91130=
07070,2012-04-18 14:00:00,11.7,989.9,-3.1,67,5.8,20000,33.336,61.116,53.708,190,,,,,,,,,,0,og-post,,,,AAXX 18144 07070 24570 61918 10117 20058 39792 49899 57031 700// 333 69905 91029 90710 91133=
07070,2012-04-18 15:00:00,11.7,988.8,-3,64,5.1,20000,29.632,51.856,51.856,190,,,0,,,,,,,0,og-post,,,,AAXX 18154 07070 24670 71916 10117 20051 39781 49888 58030 700// 333 69907 91028 90710 91128 555 60005=
07070,2012-04-18 16:00:00,11.6,988.2,-2.9,60,4.1,20000,35.188,59.264,59.264,200,,,0,,,,,,,0,og-post,,,,AAXX 18164 07070 24670 82019 10116 20041 39775 49882 56029 700// 333 60005 91032 90710 91132=
07070,2012-04-18 17:00:00,6.9,989.1,-1,87,4.9,8000,24.076,75.932,,240,,,2,,,,,,,63,og-post,,,,AAXX 18174 07070 24558 82413 10069 20049 39782 49891 55010 763// 333 60025 90710 91141=
07070,2012-04-18 18:00:00,7.9,988.2,-0.7,85,5.5,20000,18.52,40.744,,200,6.5,12.7,1,3,,3,,,,0,og-post,,,,AAXX 18184 07070 04670 82010 10079 20055 39774 49882 58007 60032 700// 333 10127 20065 60037 90710 91122 555 60015=
07070,2012-04-18 19:00:00,8.2,988.2,-0.1,85,5.8,20000,25.928,38.892,,190,,,,,,,,,,60,og-post,,,,AAXX 18194 07070 24670 81914 10082 20058 39774 49882 58001 760// 333 69905 90710 91121=
07070,2012-04-18 20:00:00,8.2,988.1,-0.9,81,5.1,20000,27.78,42.596,,190,,,,,,,,,,0,og-post,,,,AAXX 18204 07070 24670 81915 10082 20051 39773 49881 56009 700// 333 69905 90710 91123=
07070,2012-04-18 21:00:00,7.7,988.1,-0.1,86,5.5,15000,27.78,48.152,,180,,,,,,,,,,60,og-post,,,,AAXX 18214 07070 24565 81815 10077 20055 39773 49881 57001 760// 333 69907 90710 91126 555 69905=
07070,2012-04-18 22:00:00,7.7,987.8,-0.4,88,5.8,12000,24.076,42.596,,200,,,0.6,,,,,,,60,og-post,,,,AAXX 18224 07070 24462 82013 10077 20058 39770 49878 58004 760// 333 69965 90710 91123=
07070,2012-04-18 23:00:00,5.8,988.4,0.2,90,4.3,20000,12.964,38.892,,210,,,1,,,,,,,0,og-post,,,,AAXX 18234 07070 24670 72107 10058 20043 39775 49884 53002 700// 333 60015 90710 91121=
07070,2012-04-19 00:00:00,5.8,988.5,0.3,87,3.8,20000,20.372,29.632,,210,,,0,2,2,,,,,0,og-post,,,,AAXX 19004 07070 04670 82111 10058 20038 39776 49885 53003 60021 700// 333 60027 90710 91116 555 60005=
07070,2012-04-19 01:00:00,6.1,988.6,0.7,85,3.8,20000,24.076,33.336,,220,,,0,,,,,,,0,og-post,,,,AAXX 19014 07070 24970 82213 10061 20038 39777 49886 51007 700// 333 60005 90710 91118=
07070,2012-04-19 02:00:00,5.9,988.7,0.3,86,3.7,20000,20.372,35.188,,210,,,0,,,,,,,0,og-post,,,,AAXX 19024 07070 24770 82111 10059 20037 39778 49887 52003 700// 333 60005 90710 91119=
07070,2012-04-19 03:00:00,6.3,988.6,0.1,87,4.3,20000,18.52,33.336,,220,,,0,0,,,,,,0,og-post,,,,AAXX 19034 07070 24770 82210 10063 20043 39777 49886 51001 700// 333 60007 90710 91118 555 60005=
07070,2012-04-19 04:00:00,6.5,989,0.4,88,4.7,19000,16.668,31.484,,210,,,0,,,,,,,0,og-post,,,,AAXX 19044 07070 24469 82109 10065 20047 39781 49890 53004 700// 333 60005 90710 91117=
07070,2012-04-19 05:00:00,5.7,989.2,0.5,89,4,20000,14.816,24.076,,200,,,0,,,,,,,0,og-post,,,,AAXX 19054 07070 24970 /2008 10057 20040 39783 49892 53005 700// 333 60005 90710 91113=
07070,2012-04-19 06:00:00,7,989.6,1,86,4.8,20000,18.52,27.78,,210,5.6,8.3,0,0,,2,5,1.6,5,0,og-post,,,,AAXX 19064 07070 04470 /2110 10070 20048 39787 49896 52010 60022 700// 333 10083 20056 31005 55016 60007 70050 90710 91115 555 60005=
07070,2012-04-19 07:00:00,7.5,990.1,1.1,82,4.6,19000,16.668,27.78,,210,,,0,,,,,,,0,og-post,,,,AAXX 19074 07070 24469 62109 10075 20046 39792 49901 53011 700// 333 60005 90710 91115=
07070,2012-04-19 08:00:00,9.1,990.3,1.2,77,5.3,20000,18.52,31.484,,230,,,0,,,,,,,0,og-post,,,,AAXX 19084 07070 24470 72310 10091 20053 39795 49903 51012 700// 333 60005 90710 91117=
07070,2012-04-19 09:00:00,10.4,990.3,0.9,68,4.7,20000,24.076,35.188,,210,,,0,0,,,,,,0,og-post,,,,AAXX 19094 07070 24570 82113 10104 20047 39796 49903 51009 700// 333 60007 90710 91119 555 60005=
07070,2012-04-19 10:00:00,11.5,990.5,0.6,64,4.9,20000,20.372,37.04,,230,,,0,,,,,,,0,og-post,,,,AAXX 19104 07070 24570 /2311 10115 20049 39798 49905 51006 700// 333 60005 90710 91120=
07070,2012-04-19 11:00:00,11.4,990.7,0.5,58,3.4,20000,22.224,37.04,,240,,,0,,,,,,,0,og-post,,,,AAXX 19114 07070 24670 82412 10114 20034 39800 49907 53005 700// 333 60005 90710 91120=
07070,2012-04-19 12:00:00,12.4,990.9,0.6,52,2.8,20000,22.224,38.892,,240,,,0,0,,,,,,0,og-post,,,,AAXX 19124 07070 04670 /2412 10124 20028 39802 49909 52006 60001 700// 333 60007 90710 91121 555 60005=
07070,2012-04-19 13:00:00,13,991.1,0.6,53,3.6,20000,24.076,37.04,,240,,,0,,,,,,,0,og-post,,,,AAXX 19134 07070 24670 /2413 10130 20036 39804 49911 52006 700// 333 60005 90710 91120=
07070,2012-04-19 14:00:00,13.4,990.9,0.3,44,1.4,20000,18.52,35.188,,250,,,0,,,,,,,0,og-post,,,,AAXX 19144 07070 24770 /2510 10134 20014 39803 49909 50003 700// 333 60005 90710 91119=
07070,2012-04-19 15:00:00,14.8,990.9,0.1,38,0.6,19000,18.52,35.188,,250,,,0,0,,,,,,0,og-post,,,,AAXX 19154 07070 24769 /2510 10148 20006 39803 49909 51001 700// 333 60007 90710 91119 555 60005=
07070,2012-04-19 16:00:00,14.3,991.1,0.1,45,2.5,19000,16.668,29.632,,220,,,0,,,,,,,0,og-post,,,,AAXX 19164 07070 24769 /2209 10143 20025 39805 49911 53001 700// 333 60005 90710 91116=
07070,2012-04-19 17:00:00,12.4,991.3,0.3,47,1.4,20000,11.112,22.224,,220,,,0,,,,,,,0,og-post,,,,AAXX 19174 07070 24970 /2206 10124 20014 39806 49913 53003 700// 333 60005 90710 91112=
07070,2012-04-19 18:00:00,8.2,992.7,1.5,83,5.5,20000,12.964,61.116,,310,7,14.8,1,1,,1,,,,0,og-post,,,,AAXX 19184 07070 04670 73107 10082 20055 39818 49927 53015 60012 700// 333 10148 20070 60017 90710 91133 555 60015=
07070,2012-04-19 19:00:00,6.4,993.2,1.8,90,4.9,20000,9.26,14.816,,220,,,0,,,,,,,0,og-post,,,,AAXX 19194 07070 24970 /2205 10064 20049 39823 49932 53018 700// 333 60005 90710 91108=
07070,2012-04-19 20:00:00,5.2,993.8,2.2,91,3.8,14000,9.26,11.112,,180,,,0,,,,,,,0,og-post,,,,AAXX 19204 07070 24764 61805 10052 20038 39828 49938 51022 700// 333 60005 90710 91106=
07070,2012-04-19 21:00:00,6.4,994.1,1.4,88,4.6,20000,7.408,18.52,,210,,,0,0,,,,,,0,og-post,,,,AAXX 19214 07070 24670 72104 10064 20046 39832 49941 52014 700// 333 60007 90710 91110 555 60005=
07070,2012-04-19 22:00:00,5.1,994.6,1.3,89,3.4,20000,11.112,16.668,,180,,,0,,,,,,,0,og-post,,,,AAXX 19224 07070 24970 /1806 10051 20034 39836 49946 51013 700// 333 60005 90710 91109=
07070,2012-04-19 23:00:00,4.6,994.8,1,93,3.6,17000,12.964,12.964,,180,,,0,,,,,,,0,og-post,,,,AAXX 19234 07070 24967 61807 10046 20036 39838 49948 51010 700// 333 60005 90710 91107=
07070,2012-04-20 00:00:00,5.3,994.8,0.6,92,4.1,20000,9.26,16.668,,220,,,0,0,,,,,,0,og-post,,,,AAXX 20004 07070 04870 72205 10053 20041 39838 49948 51006 60001 700// 333 60007 90710 91109 555 60005=
07070,2012-04-20 01:00:00,4.1,994.9,0.3,89,2.4,20000,3.704,14.816,,200,,,0,,,,,,,0,og-post,,,,AAXX 20014 07070 24970 /2002 10041 20024 39839 49949 52003 700// 333 60005 90710 91108=
07070,2012-04-20 02:00:00,3,995.1,0.2,89,1.4,20000,7.408,9.26,,160,,,0,,,,,,,0,og-post,,,,AAXX 20024 07070 24970 /1604 10030 20014 39840 49951 53002 700// 333 60005 90710 91105=
07070,2012-04-20 03:00:00,3.3,995.2,0.3,93,2.3,18000,9.26,12.964,,190,,,0,0,,,,,,0,og-post,,,,AAXX 20034 07070 24868 61905 10033 20023 39841 49952 52003 700// 333 60007 90710 91107 555 60005=
07070,2012-04-20 04:00:00,4.5,995.4,0.5,92,3.3,16000,1.852,11.112,,210,,,0.2,,,,,,,0,og-post,,,,AAXX 20044 07070 24866 72101 10045 20033 39844 49954 53005 700// 333 69925 90710 91106=
07070,2012-04-20 05:00:00,4.7,996,1,91,3.4,8000,7.408,14.816,,190,,,0,,,,,,,0,og-post,,,,AAXX 20054 07070 24858 81904 10047 20034 39850 49960 53010 700// 333 60005 90710 91108=
07070,2012-04-20 06:00:00,6,996.5,1.4,90,4.5,11000,7.408,14.816,,250,2.8,8.2,0,0.2,,0.2,1.6,7,0,0,og-post,,,,AAXX 20064 07070 04661 72504 10060 20045 39855 49965 53014 69922 700// 333 10082 20028 31000 55070 69927 70016 90710 91108 555 60005=
07070,2012-04-20 07:00:00,7.6,997.1,1.8,87,5.6,11000,18.52,24.076,,250,,,0,,,,,,,0,og-post,,,,AAXX 20074 07070 24361 82510 10076 20056 39862 49971 53018 700// 333 60005 90710 91113=
07070,2012-04-20 08:00:00,8.6,997.4,1.5,80,5.3,16000,18.52,27.78,,240,,,0,,,,,,,0,og-post,,,,AAXX 20084 07070 24466 /2410 10086 20053 39865 49974 51015 700// 333 60005 90710 91115=
07070,2012-04-20 09:00:00,10,997.7,1.4,75,5.8,19000,20.372,31.484,,230,,,0,0,,,,,,0,og-post,,,,AAXX 20094 07070 24469 72311 10100 20058 39869 49977 51014 700// 333 60007 90710 91117 555 60005=
07070,2012-04-20 10:00:00,10,997.8,0.8,72,5.2,19000,18.52,31.484,,230,,,0,,,,,,,0,og-post,,,,AAXX 20104 07070 24569 82310 10100 20052 39870 49978 51008 700// 333 60005 90710 91117=
07070,2012-04-20 11:00:00,10.4,997.9,0.6,71,5.4,20000,20.372,35.188,,240,,,0,,,,,,,0,og-post,,,,AAXX 20114 07070 24570 82411 10104 20054 39871 49979 51006 700// 333 60005 90710 91119=
07070,2012-04-20 12:00:00,8.7,998.4,0.6,87,6.7,18000,18.52,44.448,,250,,,0.6,0.6,0.6,,,,,61,og-post,,,,AAXX 20124 07070 04568 82510 10087 20067 39875 49984 53006 69961 761// 333 69967 90710 91124 555 69965=
07070,2012-04-20 13:00:00,12.4,998.3,0.5,63,5.5,20000,22.224,33.336,,240,,,0,,,,,,,0,og-post,,,,AAXX 20134 07070 24570 72412 10124 20055 39875 49983 51005 700// 333 60005 90710 91118=
07070,2012-04-20 14:00:00,9.2,999.2,1.2,74,4.8,20000,18.52,51.856,,240,,,,,,,,,,0,og-post,,,,AAXX 20144 07070 24670 72410 10092 20048 39883 49992 53012 700// 333 69905 90710 91128=
07070,2012-04-20 15:00:00,12.4,998.7,0.4,58,4.4,20000,18.52,27.78,,250,,,,,,,,,,0,og-post,,,,AAXX 20154 07070 24670 72510 10124 20044 39879 49987 50004 700// 333 69907 90710 91115 555 69905=
07070,2012-04-20 16:00:00,11.9,998.4,0.1,59,4.1,20000,12.964,31.484,,210,,,0,,,,,,,0,og-post,,,,AAXX 20164 07070 24970 /2107 10119 20041 39876 49984 50001 700// 333 60005 90710 91117=
07070,2012-04-20 17:00:00,12.6,998.3,-0.8,55,3.8,20000,18.52,29.632,,220,,,0,,,,,,,0,og-post,,,,AAXX 20174 07070 24870 /2210 10126 20038 39875 49983 56008 700// 333 60005 90710 91116=
07070,2012-04-20 18:00:00,8.2,999.6,0.8,78,4.6,11000,33.336,64.82,,290,6,12.8,0.2,0.2,,0.8,,,,61,og-post,,,,AAXX 20184 07070 04661 62918 10082 20046 39887 49996 53008 69982 761// 333 10128 20060 69927 90710 91135 555 69925=
07070,2012-04-20 19:00:00,7.2,999.7,1.1,85,4.8,20000,1.852,33.336,,240,,,0.2,,,,,,,0,og-post,,,,AAXX 20194 07070 24970 82401 10072 20048 39887 49997 53011 700// 333 69925 90710 91118=
07070,2012-04-20 20:00:00,5.3,999.7,1.2,89,3.6,20000,11.112,14.816,,170,,,0,,,,,,,0,og-post,,,,AAXX 20204 07070 24770 /1706 10053 20036 39887 49997 51012 700// 333 60005 90710 91108=
07070,2012-04-20 21:00:00,6.7,999.6,-0.1,86,4.5,20000,14.816,18.52,,170,,,0,0.2,,,,,,0,og-post,,,,AAXX 20214 07070 24670 71708 10067 20045 39886 49996 58001 700// 333 69927 90710 91110 555 60005=
07070,2012-04-20 22:00:00,6.8,999.6,-0.1,84,4.3,20000,14.816,18.52,,160,,,0,,,,,,,0,og-post,,,,AAXX 20224 07070 24670 81608 10068 20043 39886 49996 57001 700// 333 60005 90710 91110=
07070,2012-04-20 23:00:00,8.5,999.4,-0.2,83,5.8,20000,22.224,33.336,,240,,,,,,,,,,61,og-post,,,,AAXX 20234 07070 24670 82412 10085 20058 39885 49994 57002 761// 333 69905 90710 91118=
07070,2012-04-21 00:00:00,8,999.1,-0.4,86,5.8,20000,11.112,27.78,,230,,,,,0.2,,,,,0,og-post,,,,AAXX 21004 07070 04570 72306 10080 20058 39882 49991 58004 69921 700// 333 69907 90710 91115 555 69905=
07070,2012-04-21 01:00:00,7.7,999.2,-0.3,89,6,17000,16.668,27.78,,230,,,0.6,,,,,,,60,og-post,,,,AAXX 21014 07070 24567 82309 10077 20060 39883 49992 55003 760// 333 69965 90710 91115=
07070,2012-04-21 02:00:00,7.5,999.4,-0.1,88,5.6,20000,16.668,27.78,,250,,,,,,,,,,0,og-post,,,,AAXX 21024 07070 24570 82509 10075 20056 39884 49994 55001 700// 333 69905 90710 91115=
07070,2012-04-21 03:00:00,7.2,999.4,0.2,87,5.2,19000,16.668,29.632,,240,,,0,0.6,,,,,,0,og-post,,,,AAXX 21034 07070 24969 82409 10072 20052 39884 49994 52002 700// 333 69967 90710 91116 555 60005=
07070,2012-04-21 04:00:00,7.3,999.4,0.1,84,4.8,20000,20.372,31.484,,230,,,0,,,,,,,0,og-post,,,,AAXX 21044 07070 24870 82311 10073 20048 39884 49994 51001 700// 333 60005 90710 91117=
07070,2012-04-21 05:00:00,6.6,999.6,0.2,81,3.6,20000,16.668,33.336,,230,,,0.2,,,,,,,0,og-post,,,,AAXX 21054 07070 24670 82309 10066 20036 39886 49996 53002 700// 333 69925 90710 91118=
07070,2012-04-21 06:00:00,6.8,999.9,0.5,83,4.1,20000,14.816,24.076,,220,5,8.7,0,0.2,,1,1.8,5.2,4,0,og-post,,,,AAXX 21064 07070 04570 82208 10068 20041 39889 49999 53005 60012 700// 333 10087 20050 31004 55052 69927 70018 90710 91113 555 60005=
07070,2012-04-21 07:00:00,7.8,1000.3,0.9,80,4.6,20000,24.076,37.04,,230,,,0,,,,,,,0,og-post,,,,AAXX 21074 07070 24470 82313 10078 20046 39893 40003 53009 700// 333 60005 90710 91120=
07070,2012-04-21 08:00:00,9,1000.4,0.9,71,4,20000,24.076,40.744,,240,,,0,,,,,,,0,og-post,,,,AAXX 21084 07070 24570 72413 10090 20040 39895 40004 52009 700// 333 60005 90710 91122=
07070,2012-04-21 09:00:00,9.3,1000.6,0.8,67,3.5,20000,25.928,38.892,,230,,,0,0,,,,,,0,og-post,,,,AAXX 21094 07070 24570 72314 10093 20035 39897 40006 51008 700// 333 60007 90710 91121 555 60005=
07070,2012-04-21 10:00:00,9.1,1000.5,0.3,73,4.5,20000,20.372,40.744,,230,,,,,,,,,,0,og-post,,,,AAXX 21104 07070 24570 72311 10091 20045 39896 40005 50003 700// 333 69905 90710 91122=
07070,2012-04-21 11:00:00,11.9,1000.4,0.1,58,3.9,20000,29.632,42.596,,240,,,0,,,,,,,0,og-post,,,,AAXX 21114 07070 24670 62416 10119 20039 39896 40004 51001 700// 333 60005 90710 91123=
07070,2012-04-21 12:00:00,11.1,1000.2,-0.3,63,4.3,20000,22.224,37.04,,230,,,0,,,,,,,0,og-post,,,,AAXX 21124 07070 04670 /2312 10111 20043 39894 40002 58003 69901 700// 333 69907 90710 91120 555 60005=
07070,2012-04-21 13:00:00,11.7,1000.1,-0.3,61,4.4,20000,18.52,37.04,,240,,,0,,,,,,,0,og-post,,,,AAXX 21134 07070 24670 72410 10117 20044 39893 40001 58003 700// 333 60005 90710 91120=
07070,2012-04-21 14:00:00,12.4,1000,-0.4,63,5.5,20000,16.668,35.188,,250,,,0,,,,,,,0,og-post,,,,AAXX 21144 07070 24670 /2509 10124 20055 39892 40000 56004 700// 333 60005 90710 91119=
07070,2012-04-21 15:00:00,11.5,999.9,-0.3,62,4.5,20000,20.372,35.188,,220,,,0,0,,,,,,0,og-post,,,,AAXX 21154 07070 24670 72211 10115 20045 39891 49999 57003 700// 333 60007 90710 91119 555 60005=
07070,2012-04-21 16:00:00,8.4,1000.8,0.6,83,5.7,20000,7.408,44.448,,240,,,3,,,,,,,0,og-post,,,,AAXX 21164 07070 24570 62404 10084 20057 39899 40008 53006 700// 333 60035 90710 91124=
07070,2012-04-21 17:00:00,10.3,1001.2,1.1,70,5.1,20000,18.52,31.484,,250,,,0,,,,,,,0,og-post,,,,AAXX 21174 07070 24570 /2510 10103 20051 39903 40012 53011 700// 333 60005 90710 91117=
07070,2012-04-21 18:00:00,9.5,1002.1,2.1,74,5.1,20000,7.408,20.372,,270,6.8,13.2,,3,,3,,,,0,og-post,,,,AAXX 21184 07070 04570 62704 10095 20051 39912 40021 53021 60032 700// 333 10132 20068 60037 90710 91111 555 69905=
07070,2012-04-21 19:00:00,8.1,1003,2.1,82,5.2,20000,9.26,18.52,,230,,,0,,,,,,,0,og-post,,,,AAXX 21194 07070 24670 /2305 10081 20052 39920 40030 53021 700// 333 60005 90710 91110=
07070,2012-04-21 20:00:00,7.7,1003.9,2.6,87,5.7,20000,11.112,18.52,,230,,,,,,,,,,0,og-post,,,,AAXX 21204 07070 24570 /2306 10077 20057 39929 40039 52026 700// 333 69905 90710 91110=
07070,2012-04-21 21:00:00,8,1004.8,2.6,85,5.6,20000,7.408,16.668,,270,,,0,,,,,,,0,og-post,,,,AAXX 21214 07070 24570 82704 10080 20056 39938 40048 53026 700// 333 69907 90710 91109 555 60005=
07070,2012-04-21 22:00:00,7.5,1005.6,2.6,87,5.5,20000,9.26,12.964,,250,,,0,,,,,,,0,og-post,,,,AAXX 21224 07070 24670 72505 10075 20055 39946 40056 52026 700// 333 60005 90710 91107=
07070,2012-04-21 23:00:00,6.2,1006.3,2.3,87,4.2,20000,12.964,14.816,,220,,,0,,,,,,,0,og-post,,,,AAXX 21234 07070 24970 /2207 10062 20042 39952 40063 51023 700// 333 60005 90710 91108=
07070,2012-04-22 00:00:00,5.4,1006.8,1.9,87,3.4,20000,11.112,16.668,,230,,,0,0,,,,,,0,og-post,,,,AAXX 22004 07070 04670 /2306 10054 20034 39957 40068 51019 69901 700// 333 60007 90710 91109 555 60005=
07070,2012-04-22 01:00:00,5.1,1006.9,1.2,86,2.9,20000,12.964,14.816,,230,,,0.2,,,,,,,0,og-post,,,,AAXX 22014 07070 24870 /2307 10051 20029 39958 40069 51012 700// 333 69925 90710 91108=
07070,2012-04-22 02:00:00,6,1007,0.7,86,3.8,20000,14.816,20.372,,230,,,0,,,,,,,0,og-post,,,,AAXX 22024 07070 24670 82308 10060 20038 39959 40070 51007 700// 333 60005 90710 91111=
07070,2012-04-22 03:00:00,6.2,1007.1,0.3,85,3.9,20000,18.52,25.928,,230,,,0,0.2,,,,,,0,og-post,,,,AAXX 22034 07070 24770 82310 10062 20039 39960 40071 52003 700// 333 69927 90710 91114 555 60005=
07070,2012-04-22 04:00:00,5.9,1007.3,0.4,87,3.9,20000,16.668,24.076,,230,,,0,,,,,,,0,og-post,,,,AAXX 22044 07070 24670 82309 10059 20039 39962 40073 53004 700// 333 60005 90710 91113=
07070,2012-04-22 05:00:00,5.4,1007.5,0.5,88,3.6,19000,16.668,24.076,,240,,,0,,,,,,,0,og-post,,,,AAXX 22054 07070 24669 62409 10054 20036 39964 40075 53005 700// 333 60005 90710 91113=
07070,2012-04-22 06:00:00,6.4,1008.1,1,86,4.2,19000,16.668,27.78,,240,5.1,9.4,0,0,,0.2,2.8,4.3,4,0,og-post,,,,AAXX 22064 07070 04469 /2409 10064 20042 39970 40081 53010 69922 700// 333 10094 20051 31004 55043 60007 70028 90710 91115 555 60005=
07070,2012-04-22 07:00:00,7.2,1008.7,1.4,81,4.2,20000,18.52,33.336,,230,,,0,,,,,,,0,og-post,,,,AAXX 22074 07070 24470 62310 10072 20042 39976 40087 53014 700// 333 60005 90710 91118=
07070,2012-04-22 08:00:00,8.2,1008.9,1.5,76,4.2,20000,22.224,31.484,,250,,,0,,,,,,,0,og-post,,,,AAXX 22084 07070 24470 82512 10082 20042 39979 40089 51015 700// 333 60005 90710 91117=
07070,2012-04-22 09:00:00,9.7,1009,1,71,4.7,20000,18.52,29.632,,230,,,0,0,,,,,,0,og-post,,,,AAXX 22094 07070 24470 /2310 10097 20047 39980 40090 51010 700// 333 60007 90710 91116 555 60005=
07070,2012-04-22 10:00:00,10.1,1009,0.4,64,3.6,20000,24.076,35.188,,240,,,0,,,,,,,0,og-post,,,,AAXX 22104 07070 24570 72413 10101 20036 39980 40090 51004 700// 333 60005 90710 91119=
07070,2012-04-22 11:00:00,10.5,1008.1,-0.7,57,2.3,19000,27.78,44.448,,220,,,0,,,,,,,0,og-post,,,,AAXX 22114 07070 24669 72215 10105 20023 39972 40081 58007 700// 333 60005 90710 91124=
07070,2012-04-22 12:00:00,11.8,1007.7,-1.2,58,3.8,20000,29.632,57.412,48.152,230,,,,,,,,,,0,og-post,,,,AAXX 22124 07070 04670 72316 10118 20038 39968 40077 58012 69901 700// 333 69907 91026 90710 91131 555 69905=
07070,2012-04-22 13:00:00,12,1007.6,-1.3,54,3,20000,37.04,53.708,,240,,,0,,,,,,,0,og-post,,,,AAXX 22134 07070 24670 72420 10120 20030 39967 40076 56013 700// 333 60005 90710 91129=
07070,2012-04-22 14:00:00,7.8,1008.4,0.2,82,4.9,15000,27.78,51.856,,240,,,1,,,,,,,61,og-post,,,,AAXX 22144 07070 24665 82415 10078 20049 39974 40084 53002 761// 333 60015 90710 91128=
07070,2012-04-22 15:00:00,9.9,1007.2,-0.5,72,5.1,20000,18.52,42.596,,240,,,0.2,1,,,,,,0,og-post,,,,AAXX 22154 07070 24670 82410 10099 20051 39963 40072 58005 700// 333 60017 90710 91123 555 69925=
07070,2012-04-22 16:00:00,8,1007.7,0,82,5.1,20000,24.076,59.264,,250,,,0.2,,,,,,,0,og-post,,,,AAXX 22164 07070 24570 82513 10080 20051 39967 40077 50000 700// 333 69925 90710 91132=
07070,2012-04-22 17:00:00,10.1,1007.3,-1,67,4.2,20000,25.928,42.596,,250,,,,,,,,,,0,og-post,,,,AAXX 22174 07070 24670 /2514 10101 20042 39964 40073 56010 700// 333 69905 90710 91123=
07070,2012-04-22 18:00:00,8.9,1007.7,0.4,71,3.9,20000,16.668,40.744,,250,6.4,12.8,0,0.2,,2,,,,0,og-post,,,,AAXX 22184 07070 04770 /2509 10089 20039 39967 40077 51004 60022 700// 333 10128 20064 69927 90710 91122 555 60005=
07070,2012-04-22 19:00:00,8,1008.1,0.4,77,4.2,20000,3.704,24.076,,230,,,0,,,,,,,0,og-post,,,,AAXX 22194 07070 24670 /2302 10080 20042 39971 40081 53004 700// 333 60005 90710 91113=
07070,2012-04-22 20:00:00,7.5,1009,1.5,83,4.8,20000,11.112,16.668,,320,,,0,,,,,,,0,og-post,,,,AAXX 22204 07070 24570 83206 10075 20048 39979 40090 53015 700// 333 60005 90710 91109=
07070,2012-04-22 21:00:00,6,1008.9,1.1,88,4.2,20000,3.704,12.964,,120,,,0,0,,,,,,0,og-post,,,,AAXX 22214 07070 24670 /1202 10060 20042 39978 40089 50011 700// 333 60007 90710 91107 555 60005=
07070,2012-04-22 22:00:00,5.2,1008.8,0.5,86,3,20000,12.964,18.52,,210,,,0,,,,,,,0,og-post,,,,AAXX 22224 07070 24970 /2107 10052 20030 39976 40088 50005 700// 333 60005 90710 91110=
07070,2012-04-22 23:00:00,6.4,1008.4,-0.6,83,3.7,20000,11.112,18.52,,230,,,0,,,,,,,0,og-post,,,,AAXX 22234 07070 24770 62306 10064 20037 39973 40084 58006 700// 333 60005 90710 91110=
07070,2012-04-23 00:00:00,6.9,1008.2,-0.7,81,3.9,20000,12.964,18.52,,230,,,0,0,,,,,,0,og-post,,,,AAXX 23004 07070 04770 72307 10069 20039 39971 40082 57007 60001 700// 333 60007 90710 91110 555 60005=
07070,2012-04-23 01:00:00,6.8,1007.8,-0.9,81,3.8,20000,12.964,18.52,,230,,,0,,,,,,,0,og-post,,,,AAXX 23014 07070 24670 82307 10068 20038 39967 40078 57009 700// 333 60005 90710 91110=
07070,2012-04-23 02:00:00,4.9,1007.6,-0.9,88,3.1,20000,9.26,20.372,,230,,,0,,,,,,,0,og-post,,,,AAXX 23024 07070 24970 /2305 10049 20031 39964 40076 58009 700// 333 60005 90710 91111=
07070,2012-04-23 03:00:00,4.5,1007.3,-1,89,2.8,20000,12.964,18.52,,230,,,0,0,,,,,,0,og-post,,,,AAXX 23034 07070 24970 /2307 10045 20028 39961 40073 56010 700// 333 60007 90710 91110 555 60005=
07070,2012-04-23 04:00:00,2.7,1006.9,-1,90,1.2,18000,9.26,16.668,,220,,,0,,,,,,,0,og-post,,,,AAXX 23044 07070 24868 /2205 10027 20012 39957 40069 57010 700// 333 60005 90710 91109=
07070,2012-04-23 05:00:00,4.4,1006.4,-1.2,93,3.4,19000,9.26,14.816,,200,,,0,,,,,,,0,og-post,,,,AAXX 23054 07070 24869 82005 10044 20034 39952 40064 58012 700// 333 60005 90710 91108=
07070,2012-04-23 06:00:00,5.8,1005.8,-1.4,90,4.3,19000,12.964,20.372,,210,2.6,9,0,0,,,1.6,5.5,1,0,og-post,,,,AAXX 23064 07070 04669 82107 10058 20043 39947 40058 58014 60002 700// 333 10090 20026 31001 55055 60007 70016 90710 91111 555 60005=
07070,2012-04-23 07:00:00,6.7,1005.3,-1.5,86,4.5,19000,18.52,27.78,,210,,,0,,,,,,,0,og-post,,,,AAXX 23074 07070 24469 82110 10067 20045 39942 40053 57015 700// 333 60005 90710 91115=
07070,2012-04-23 08:00:00,8.2,1004.6,-1.6,83,5.5,20000,16.668,27.78,,200,,,0,,,,,,,0,og-post,,,,AAXX 23084 07070 24470 82009 10082 20055 39936 40046 58016 700// 333 60005 90710 91115=
07070,2012-04-23 09:00:00,9.4,1003.3,-2.3,71,4.4,20000,24.076,37.04,,190,,,0,0,,,,,,0,og-post,,,,AAXX 23094 07070 24570 /1913 10094 20044 39924 40033 58023 700// 333 60007 90710 91120 555 60005=
07070,2012-04-23 10:00:00,11,1002,-3.1,61,3.8,20000,27.78,46.3,,200,,,0,,,,,,,0,og-post,,,,AAXX 23104 07070 24670 /2015 10110 20038 39911 40020 58031 700// 333 60005 90710 91125=
07070,2012-04-23 11:00:00,10.9,1000.7,-3.7,65,4.6,20000,29.632,46.3,,180,,,0,,,,,,,0,og-post,,,,AAXX 23114 07070 24570 71816 10109 20046 39899 40007 57037 700// 333 60005 90710 91125=
07070,2012-04-23 12:00:00,10.6,999.4,-3.8,64,4.1,19000,35.188,53.708,,180,,,,,,,,,,58,og-post,,,,AAXX 23124 07070 04669 81819 10106 20041 39886 49994 57038 69901 758// 333 69907 90710 91129 555 69905=
07070,2012-04-23 13:00:00,9.2,998.2,-3.8,80,5.9,12000,29.632,55.56,,170,,,0.4,,,,,,,61,og-post,,,,AAXX 23134 07070 24562 81716 10092 20059 39873 49982 58038 761// 333 69945 90710 91130=
07070,2012-04-23 14:00:00,8.2,997.2,-3.6,86,6,9000,38.892,62.968,62.968,180,,,2,,,,,,,63,og-post,,,,AAXX 23144 07070 24459 81821 10082 20060 39863 49972 56036 763// 333 60025 91034 90710 91134=
07070,2012-04-23 15:00:00,8,995.8,-3.7,87,6,10000,35.188,61.116,53.708,170,,,1,4,,,,,,63,og-post,,,,AAXX 23154 07070 24460 81719 10080 20060 39849 49958 57037 763// 333 60047 91029 90710 91133 555 60015=
07070,2012-04-23 16:00:00,8.6,995,-3.2,86,6.4,20000,29.632,53.708,,180,,,0.6,,,,,,,60,og-post,,,,AAXX 23164 07070 24470 81816 10086 20064 39841 49950 56032 760// 333 69965 90710 91129=
07070,2012-04-23 17:00:00,8.7,994.6,-2.6,85,6.3,20000,25.928,50.004,,190,,,,,,,,,,0,og-post,,,,AAXX 23174 07070 24470 81914 10087 20063 39837 49946 56026 700// 333 69905 90710 91127=
07070,2012-04-23 18:00:00,9.2,994,-1.7,83,6.5,20000,22.224,44.448,,190,5.8,11.4,0,0.6,,4,,,,0,og-post,,,,AAXX 23184 07070 04670 61912 10092 20065 39832 49940 56017 60042 700// 333 10114 20058 69967 90710 91124 555 60005=
07070,2012-04-23 19:00:00,8.8,993.9,-1,84,6.2,20000,16.668,33.336,,190,,,0,,,,,,,0,og-post,,,,AAXX 23194 07070 24570 81909 10088 20062 39831 49939 56010 700// 333 60005 90710 91118=
07070,2012-04-23 20:00:00,7.7,994.4,-0.2,82,4.8,20000,14.816,29.632,,200,,,0,,,,,,,0,og-post,,,,AAXX 23204 07070 24970 /2008 10077 20048 39835 49944 55002 700// 333 60005 90710 91116=
07070,2012-04-23 21:00:00,6.9,994.4,0.3,86,4.7,20000,14.816,31.484,,190,,,0,0,,,,,,0,og-post,,,,AAXX 23214 07070 24770 61908 10069 20047 39835 49944 53003 700// 333 60007 90710 91117 555 60005=
07070,2012-04-23 22:00:00,6,994.3,0.2,91,4.6,20000,16.668,24.076,,160,,,0,,,,,,,0,og-post,,,,AAXX 23224 07070 24970 /1609 10060 20046 39833 49943 50002 700// 333 60005 90710 91113=
07070,2012-04-23 23:00:00,6.6,994.2,-0.2,90,5.1,20000,16.668,22.224,,170,,,0,,,,,,,0,og-post,,,,AAXX 23234 07070 24670 81709 10066 20051 39833 49942 57002 700// 333 60005 90710 91112=
07070,2012-04-24 00:00:00,6.5,993.9,-0.5,88,4.7,20000,20.372,29.632,,170,,,0,0,,,,,,0,og-post,,,,AAXX 24004 07070 04570 81711 10065 20047 39830 49939 57005 60001 700// 333 60007 90710 91116 555 60005=
07070,2012-04-24 01:00:00,6.3,993.5,-0.7,89,4.6,20000,20.372,35.188,,170,,,0,,,,,,,0,og-post,,,,AAXX 24014 07070 24570 81711 10063 20046 39826 49935 58007 700// 333 60005 90710 91119=
07070,2012-04-24 02:00:00,6.1,992.9,-1.3,92,4.9,12000,14.816,27.78,,150,,,0.8,,,,,,,63,og-post,,,,AAXX 24024 07070 24462 81508 10061 20049 39820 49929 58013 763// 333 69985 90710 91115=
07070,2012-04-24 03:00:00,6.2,992.1,-1.8,92,5,13000,16.668,25.928,,150,,,2,2,,,,,,61,og-post,,,,AAXX 24034 07070 24463 81509 10062 20050 39812 49921 58018 761// 333 60027 90710 91114 555 60025=
07070,2012-04-24 04:00:00,6.4,991.5,-2,92,5.2,16000,20.372,35.188,,170,,,0.6,,,,,,,61,og-post,,,,AAXX 24044 07070 24366 81711 10064 20052 39806 49915 57020 761// 333 69965 90710 91119=
07070,2012-04-24 05:00:00,6.5,991.4,-1.5,91,5.1,19000,14.816,31.484,,170,,,0.8,,,,,,,61,og-post,,,,AAXX 24054 07070 24569 81708 10065 20051 39805 49914 56015 761// 333 69985 90710 91117=
07070,2012-04-24 06:00:00,7,991.9,-0.2,93,5.9,19000,3.704,16.668,,230,5.6,9.2,,1,,4,8,1.8,5,50,og-post,,,,AAXX 24064 07070 04369 82302 10070 20059 39810 49919 55002 60042 750// 333 10092 20056 31005 55018 60017 70080 90710 91109 555 69905=
07070,2012-04-24 07:00:00,7.4,992.7,1.2,93,6.3,14000,12.964,18.52,,250,,,0.2,,,,,,,0,og-post,,,,AAXX 24074 07070 24364 82507 10074 20063 39818 49927 53012 700// 333 69925 90710 91110=
07070,2012-04-24 08:00:00,8.3,993.6,2.2,89,6.6,20000,16.668,25.928,,280,,,0.2,,,,,,,51,og-post,,,,AAXX 24084 07070 24470 82809 10083 20066 39827 49936 53022 751// 333 69925 90710 91114=
07070,2012-04-24 09:00:00,8.3,994.7,2.8,82,5.4,20000,22.224,37.04,,300,,,,0.4,,,,,,0,og-post,,,,AAXX 24094 07070 24470 83012 10083 20054 39838 49947 53028 700// 333 69947 90710 91120 555 69905=
07070,2012-04-24 10:00:00,10.3,995.6,3,75,6.1,20000,18.52,31.484,,310,,,0,,,,,,,0,og-post,,,,AAXX 24104 07070 24470 73110 10103 20061 39848 49956 53030 700// 333 60005 90710 91117=
07070,2012-04-24 11:00:00,10.6,996.2,2.7,70,5.4,20000,18.52,27.78,,280,,,0,,,,,,,0,og-post,,,,AAXX 24114 07070 24570 82810 10106 20054 39854 49962 51027 700// 333 60005 90710 91115=
07070,2012-04-24 12:00:00,12,996.6,2,60,4.5,20000,16.668,25.928,,300,,,0,0,0.4,,,,,0,og-post,,,,AAXX 24124 07070 04570 73009 10120 20045 39858 49966 51020 69941 700// 333 60007 90710 91114 555 60005=
07070,2012-04-24 13:00:00,8.8,997.7,2,79,5.4,9000,27.78,38.892,,280,,,0.8,,,,,,,61,og-post,,,,AAXX 24134 07070 24559 82815 10088 20054 39868 49977 53020 761// 333 69985 90710 91121=
07070,2012-04-24 14:00:00,10,998.3,2.1,86,7.8,17000,22.224,44.448,,270,,,0.2,,,,,,,0,og-post,,,,AAXX 24144 07070 24567 82712 10100 20078 39875 49983 53021 700// 333 69925 90710 91124=
07070,2012-04-24 15:00:00,11.2,999.1,2.5,76,7.1,20000,27.78,42.596,,280,,,0,1,,,,,,0,og-post,,,,AAXX 24154 07070 24570 82815 10112 20071 39883 49991 51025 700// 333 60017 90710 91123 555 60005=
07070,2012-04-24 16:00:00,10.3,1000.2,2.5,77,6.4,20000,31.484,50.004,,280,,,0,,,,,,,0,og-post,,,,AAXX 24164 07070 24570 82817 10103 20064 39893 40002 53025 700// 333 60005 90710 91127=
07070,2012-04-24 17:00:00,10.7,1001,2.7,71,5.7,19000,31.484,51.856,51.856,290,,,0,,,,,,,0,og-post,,,,AAXX 24174 07070 24569 82917 10107 20057 39902 40010 53027 700// 333 60005 91028 90710 91128=
07070,2012-04-24 18:00:00,9.2,1002.1,2.9,75,5,20000,24.076,48.152,,280,7,12.9,0,0,,1,,,,0,og-post,,,,AAXX 24184 07070 04670 82813 10092 20050 39912 40021 52029 60012 700// 333 10129 20070 60007 90710 91126 555 60005=
07070,2012-04-24 19:00:00,8.7,1002.8,2.6,78,5.1,20000,18.52,31.484,,260,,,0,,,,,,,0,og-post,,,,AAXX 24194 07070 24670 82610 10087 20051 39919 40028 51026 700// 333 60005 90710 91117=
07070,2012-04-24 20:00:00,7.6,1003.9,2.7,79,4.2,20000,14.816,22.224,,250,,,0,,,,,,,0,og-post,,,,AAXX 24204 07070 24770 /2508 10076 20042 39929 40039 52027 700// 333 60005 90710 91112=
07070,2012-04-24 21:00:00,6,1004.3,2,85,3.7,14000,11.112,20.372,,220,,,0,0,,,,,,0,og-post,,,,AAXX 24214 07070 24964 /2206 10060 20037 39932 40043 51020 700// 333 60007 90710 91111 555 60005=
07070,2012-04-24 22:00:00,4.1,1004.4,1.4,90,2.6,7000,9.26,12.964,,200,,,0,,,,,,,0,og-post,,,,AAXX 24224 07070 24957 /2005 10041 20026 39933 40044 51014 700// 333 60005 90710 91107=
07070,2012-04-24 23:00:00,3.5,1004.5,0.4,92,2.3,6000,9.26,12.964,,180,,,0,,,,,,,0,og-post,,,,AAXX 24234 07070 24856 /1805 10035 20023 39933 40045 51004 700// 333 60005 90710 91107=
07070,2012-04-25 00:00:00,4.3,1004.1,-0.2,93,3.3,7000,11.112,16.668,,180,,,0,0,,,,,,0,og-post,,,,AAXX 25004 07070 04757 /1806 10043 20033 39930 40041 58002 60001 700// 333 60007 90710 91109 555 60005=
07070,2012-04-25 01:00:00,4.9,1003.4,-1,92,3.7,6000,14.816,18.52,,170,,,0,,,,,,,0,og-post,,,,AAXX 25014 07070 24656 /1708 10049 20037 39923 40034 58010 700// 333 60005 90710 91110=
07070,2012-04-25 02:00:00,5.5,1002.9,-1.5,92,4.3,8000,9.26,18.52,,200,,,0,,,,,,,0,og-post,,,,AAXX 25024 07070 24858 72005 10055 20043 39918 40029 58015 700// 333 60005 90710 91110=
07070,2012-04-25 03:00:00,5.2,1002.5,-1.6,92,4,10000,20.372,27.78,,180,,,0,0,,,,,,0,og-post,,,,AAXX 25034 07070 24660 /1811 10052 20040 39914 40025 56016 700// 333 60007 90710 91115 555 60005=
07070,2012-04-25 04:00:00,5.5,1001.9,-1.5,92,4.3,16000,14.816,25.928,,180,,,0,,,,,,,0,og-post,,,,AAXX 25044 07070 24966 71808 10055 20043 39908 40019 58015 700// 333 60005 90710 91114=
07070,2012-04-25 05:00:00,5.7,1001.2,-1.6,92,4.5,18000,16.668,25.928,,170,,,0,,,,,,,0,og-post,,,,AAXX 25054 07070 24968 71709 10057 20045 39902 40012 58016 700// 333 60005 90710 91114=
07070,2012-04-25 06:00:00,6.7,1000.9,-1.5,90,5.2,19000,20.372,29.632,,170,3.5,9.2,0,0,,,1.4,2.1,2,0,og-post,,,,AAXX 25064 07070 04969 /1711 10067 20052 39899 40009 56015 60002 700// 333 10092 20035 31002 55021 60007 70014 90710 91116 555 60005=
07070,2012-04-25 07:00:00,7.8,1000.4,-1.4,86,5.6,20000,24.076,37.04,,180,,,0,,,,,,,0,og-post,,,,AAXX 25074 07070 24870 71813 10078 20056 39894 40004 56014 700// 333 60005 90710 91120=
07070,2012-04-25 08:00:00,9,999.7,-1.4,77,5.2,20000,27.78,44.448,,180,,,0.2,,,,,,,0,og-post,,,,AAXX 25084 07070 24570 81815 10090 20052 39888 49997 58014 700// 333 69925 90710 91124=
07070,2012-04-25 09:00:00,9.1,999.2,-1.6,76,5.1,20000,27.78,55.56,,180,,,0,0.2,,,,,,0,og-post,,,,AAXX 25094 07070 24670 81815 10091 20051 39883 49992 57016 700// 333 69927 90710 91130 555 60005=
07070,2012-04-25 10:00:00,10.1,998.6,-1.6,77,6.2,20000,37.04,53.708,,180,,,0,,,,,,,0,og-post,,,,AAXX 25104 07070 24570 81820 10101 20062 39878 49986 56016 700// 333 60005 90710 91129=
07070,2012-04-25 11:00:00,9.5,998.4,-1.3,85,7.1,19000,31.484,55.56,53.708,180,,,0.2,,,,,,,61,og-post,,,,AAXX 25114 07070 24469 81817 10095 20071 39875 49984 56013 761// 333 69925 91029 90710 91130=
07070,2012-04-25 12:00:00,9.5,998,-1.2,87,7.4,18000,33.336,57.412,53.708,180,,,0.6,0.8,1,,,,,61,og-post,,,,AAXX 25124 07070 04468 81818 10095 20074 39871 49980 56012 60011 761// 333 69987 91029 90710 91131 555 69965=
07070,2012-04-25 13:00:00,10,997.3,-1.3,88,8.1,17000,29.632,50.004,,180,,,1,,,,,,,61,og-post,,,,AAXX 25134 07070 24467 81816 10100 20081 39865 49973 58013 761// 333 60015 90710 91127=
07070,2012-04-25 14:00:00,10.7,996.7,-1.6,84,8.1,20000,27.78,46.3,,160,,,,,,,,,,0,og-post,,,,AAXX 25144 07070 24570 81615 10107 20081 39859 49967 58016 700// 333 69905 90710 91125=
07070,2012-04-25 15:00:00,10.5,997.1,-0.8,87,8.4,14000,22.224,42.596,,170,,,1,2,,,,,,61,og-post,,,,AAXX 25154 07070 24664 81712 10105 20084 39863 49971 55008 761// 333 60027 90710 91123 555 60015=
07070,2012-04-25 16:00:00,11,997.2,-0.1,87,8.9,19000,14.816,29.632,,180,,,0.8,,,,,,,61,og-post,,,,AAXX 25164 07070 24669 81808 10110 20089 39864 49972 55001 761// 333 69985 90710 91116=
07070,2012-04-25 17:00:00,11.2,996.1,-0.6,87,9.1,20000,29.632,46.3,,160,,,0.2,,,,,,,0,og-post,,,,AAXX 25174 07070 24970 81616 10112 20091 39853 49961 58006 700// 333 69925 90710 91125=
07070,2012-04-25 18:00:00,12,996.8,-0.2,81,8.8,20000,25.928,70.376,,200,6.8,12.5,0,1,,4,,,,0,og-post,,,,AAXX 25184 07070 04670 72014 10120 20088 39861 49968 55002 60042 700// 333 10125 20068 60017 90710 91138 555 60005=
07070,2012-04-25 19:00:00,11,996.7,-0.5,78,7.3,20000,24.076,46.3,,190,,,,,,,,,,0,og-post,,,,AAXX 25194 07070 24870 81913 10110 20073 39859 49967 56005 700// 333 69905 90710 91125=
07070,2012-04-25 20:00:00,10.9,997.8,1.7,83,8.1,20000,22.224,38.892,,190,,,,,,,,,,60,og-post,,,,AAXX 25204 07070 24670 81912 10109 20081 39870 49978 53017 760// 333 69905 90710 91121=
07070,2012-04-25 21:00:00,10.7,998.1,1.2,85,8.3,20000,27.78,46.3,,210,,,1,1,,,,,,0,og-post,,,,AAXX 25214 07070 24570 82115 10107 20083 39873 49981 53012 700// 333 60017 90710 91125 555 60015=
07070,2012-04-25 22:00:00,10.1,997.5,0.8,84,7.5,19000,24.076,44.448,,180,,,0.2,,,,,,,61,og-post,,,,AAXX 25224 07070 24769 81813 10101 20075 39867 49975 50008 761// 333 69925 90710 91124=
07070,2012-04-25 23:00:00,9.6,997.6,-0.2,82,6.7,20000,18.52,50.004,,200,,,0.4,,,,,,,0,og-post,,,,AAXX 25234 07070 24970 82010 10096 20067 39868 49976 58002 700// 333 69945 90710 91127=
07070,2012-04-26 00:00:00,9.5,997.5,-0.7,83,6.8,20000,24.076,42.596,,190,,,,0.6,2,,,,,0,og-post,,,,AAXX 26004 07070 04970 81913 10095 20068 39866 49975 56007 60021 700// 333 69967 90710 91123 555 69905=
07070,2012-04-26 01:00:00,9.6,998.2,0.6,84,7,20000,27.78,42.596,,180,,,0,,,,,,,0,og-post,,,,AAXX 26014 07070 24970 81815 10096 20070 39873 49982 53006 700// 333 60005 90710 91123=
07070,2012-04-26 02:00:00,10,999.1,1.4,79,6.5,20000,14.816,44.448,,220,,,0,,,,,,,0,og-post,,,,AAXX 26024 07070 24870 82208 10100 20065 39882 49991 53014 700// 333 60005 90710 91124=
07070,2012-04-26 03:00:00,9.7,999.8,2.3,82,6.8,20000,24.076,44.448,,190,,,0,0,,,,,,0,og-post,,,,AAXX 26034 07070 24970 81913 10097 20068 39889 49998 52023 700// 333 60007 90710 91124 555 60005=
07070,2012-04-26 04:00:00,9.7,1000.5,2.3,81,6.6,20000,22.224,38.892,,190,,,0,,,,,,,0,og-post,,,,AAXX 26044 07070 24970 81912 10097 20066 39896 40005 51023 700// 333 60005 90710 91121=
07070,2012-04-26 05:00:00,9.6,1001.4,2.3,80,6.3,20000,24.076,38.892,,190,,,0,,,,,,,0,og-post,,,,AAXX 26054 07070 24670 81913 10096 20063 39905 40014 53023 700// 333 60005 90710 91121=
07070,2012-04-26 06:00:00,9.6,1002.6,2.8,80,6.3,20000,24.076,44.448,,190,9.3,12.2,0,0,,2,5.6,0.6,9,0,og-post,,,,AAXX 26064 07070 04670 81913 10096 20063 39917 40026 53028 60022 700// 333 10122 20093 30009 55006 60007 70056 90710 91124 555 60005=
07070,2012-04-26 07:00:00,9.6,1003.5,3,80,6.3,20000,25.928,46.3,,190,,,0,,,,,,,0,og-post,,,,AAXX 26074 07070 24570 81914 10096 20063 39926 40035 52030 700// 333 60005 90710 91125=
07070,2012-04-26 08:00:00,10.2,1004.4,3,77,6.3,20000,29.632,46.3,,190,,,0,,,,,,,0,og-post,,,,AAXX 26084 07070 24570 81916 10102 20063 39935 40044 51030 700// 333 60005 90710 91125=
07070,2012-04-26 09:00:00,10.6,1005.4,2.8,77,6.7,20000,25.928,44.448,,190,,,,,,,,,,0,og-post,,,,AAXX 26094 07070 24570 71914 10106 20067 39945 40054 53028 700// 333 69907 90710 91124 555 69905=
07070,2012-04-26 10:00:00,11,1006.2,2.7,74,6.5,20000,31.484,51.856,51.856,200,,,0,,,,,,,0,og-post,,,,AAXX 26104 07070 24570 72017 10110 20065 39953 40062 51027 700// 333 60005 91028 90710 91128=
07070,2012-04-26 11:00:00,11.6,1006.9,2.5,72,6.7,20000,33.336,51.856,,200,,,0,,,,,,,0,og-post,,,,AAXX 26114 07070 24770 72018 10116 20067 39960 40069 51025 700// 333 60005 90710 91128=
07070,2012-04-26 12:00:00,12,1006.8,1.4,73,7.3,20000,29.632,53.708,53.708,180,,,0,0,,,,,,0,og-post,,,,AAXX 26124 07070 04570 81816 10120 20073 39959 40068 50014 69901 700// 333 60007 91029 90710 91129 555 60005=
07070,2012-04-26 13:00:00,12.7,1007.3,1.2,71,7.6,20000,29.632,51.856,,190,,,0,,,,,,,0,og-post,,,,AAXX 26134 07070 24970 61916 10127 20076 39965 40073 51012 700// 333 60005 90710 91128=
07070,2012-04-26 14:00:00,13.6,1007.7,0.9,69,8,20000,35.188,57.412,53.708,190,,,0,,,,,,,0,og-post,,,,AAXX 26144 07070 24570 71919 10136 20080 39969 40077 53009 700// 333 60005 91029 90710 91131=
07070,2012-04-26 15:00:00,12.3,1007.9,1.1,72,7.4,20000,33.336,61.116,51.856,180,,,0,0,,,,,,0,og-post,,,,AAXX 26154 07070 24570 71818 10123 20074 39970 40079 51011 700// 333 60007 91028 90710 91133 555 60005=
07070,2012-04-26 16:00:00,11.8,1008,0.6,79,8.3,20000,33.336,53.708,53.708,180,,,0,,,,,,,0,og-post,,,,AAXX 26164 07070 24570 71818 10118 20083 39971 40080 51006 700// 333 60005 91029 90710 91129=
07070,2012-04-26 17:00:00,11.8,1008.5,0.7,79,8.3,20000,27.78,50.004,,180,,,0,,,,,,,0,og-post,,,,AAXX 26174 07070 24970 81815 10118 20083 39976 40085 53007 700// 333 60005 90710 91127=
07070,2012-04-26 18:00:00,11.4,1009.1,1.2,81,8.3,20000,24.076,38.892,,190,9.5,14.1,0,0,,,,,,0,og-post,,,,AAXX 26184 07070 04570 81913 10114 20083 39982 40091 53012 69902 700// 333 10141 20095 60007 90710 91121 555 60005=
07070,2012-04-26 19:00:00,11.2,1010,2,79,7.7,20000,22.224,38.892,,200,,,0,,,,,,,0,og-post,,,,AAXX 26194 07070 24970 82012 10112 20077 39991 40100 53020 700// 333 60005 90710 91121=
07070,2012-04-26 20:00:00,11.2,1010.8,2.3,79,7.7,20000,22.224,40.744,,200,,,0,,,,,,,0,og-post,,,,AAXX 26204 07070 24870 82012 10112 20077 39999 40108 53023 700// 333 60005 90710 91122=
07070,2012-04-26 21:00:00,10.6,1011.4,2.2,87,8.5,19000,24.076,38.892,,190,,,0.2,0.2,,,,,,61,og-post,,,,AAXX 26214 07070 24769 81913 10106 20085 30004 40114 51022 761// 333 69927 90710 91121 555 69925=
07070,2012-04-26 22:00:00,10.6,1011.7,1.6,90,9,11000,31.484,46.3,,180,,,,,,,,,,0,og-post,,,,AAXX 26224 07070 24861 81817 10106 20090 30007 40117 51016 700// 333 69905 90710 91125=
07070,2012-04-26 23:00:00,10.4,1012.6,1.7,90,8.8,20000,24.076,44.448,,180,,,0.2,,,,,,,61,og-post,,,,AAXX 26234 07070 24770 81813 10104 20088 30016 40126 53017 761// 333 69925 90710 91124=
07070,2012-04-27 00:00:00,10.3,1013.3,1.9,87,8.2,18000,22.224,38.892,,190,,,0.2,0.4,0.6,,,,,61,og-post,,,,AAXX 27004 07070 04668 81912 10103 20082 30023 40133 53019 69961 761// 333 69947 90710 91121 555 69925=
07070,2012-04-27 01:00:00,10.1,1013,1.3,87,8,20000,24.076,37.04,,180,,,0.6,,,,,,,0,og-post,,,,AAXX 27014 07070 24670 81813 10101 20080 30020 40130 50013 700// 333 69965 90710 91120=
07070,2012-04-27 02:00:00,9.8,1013.9,1.3,90,8.2,17000,14.816,31.484,,190,,,0.2,,,,,,,63,og-post,,,,AAXX 27024 07070 24767 81908 10098 20082 30029 40139 53013 763// 333 69925 90710 91117=
07070,2012-04-27 03:00:00,9.5,1013.6,0.3,85,7.1,20000,18.52,31.484,,180,,,0.8,2,,,,,,0,og-post,,,,AAXX 27034 07070 24770 81810 10095 20071 30026 40136 52003 700// 333 60027 90710 91117 555 69985=
07070,2012-04-27 04:00:00,9.4,1013.4,0.4,87,7.3,20000,20.372,33.336,,180,,,0,,,,,,,0,og-post,,,,AAXX 27044 07070 24970 81811 10094 20073 30024 40134 50004 700// 333 60005 90710 91118=
07070,2012-04-27 05:00:00,9.4,1013.9,-0,89,7.7,20000,16.668,35.188,,190,,,0,,,,,,,0,og-post,,,,AAXX 27054 07070 24870 81909 10094 20077 30029 40139 55000 700// 333 60005 90710 91119=
07070,2012-04-27 06:00:00,9.6,1015.1,1.5,87,7.5,20000,16.668,33.336,,210,9.4,11.4,0,0,,2,2.2,0.6,9,0,og-post,,,,AAXX 27064 07070 04870 82109 10096 20075 30041 40151 53015 60022 700// 333 10114 20094 31009 55006 60007 70022 90710 91118 555 60005=
07070,2012-04-27 07:00:00,10.3,1015.3,1.9,82,7.4,20000,11.112,22.224,,200,,,0,,,,,,,0,og-post,,,,AAXX 27074 07070 24770 82006 10103 20074 30043 40153 51019 700// 333 60005 90710 91112=
07070,2012-04-27 08:00:00,10.8,1016.1,2.2,78,7.1,19000,5.556,22.224,,190,,,,,,,,,,0,og-post,,,,AAXX 27084 07070 24769 81903 10108 20071 30051 40161 51022 700// 333 69905 90710 91112=
07070,2012-04-27 09:00:00,11.1,1016.9,1.8,74,6.6,20000,12.964,22.224,,220,,,0,,,,,,,0,og-post,,,,AAXX 27094 07070 24970 82207 10111 20066 30059 40169 53018 700// 333 69907 90710 91112 555 60005=
07070,2012-04-27 10:00:00,12.4,1016.7,1.4,67,6.4,20000,12.964,25.928,,230,,,0,,,,,,,0,og-post,,,,AAXX 27104 07070 24970 82307 10124 20064 30057 40167 50014 700// 333 60005 90710 91114=
07070,2012-04-27 11:00:00,13.3,1016.4,0.4,59,5.4,20000,9.26,20.372,,240,,,0,,,,,,,0,og-post,,,,AAXX 27114 07070 24870 82405 10133 20054 30055 40164 50004 700// 333 60005 90710 91111=
07070,2012-04-27 12:00:00,13.9,1016.3,-0.5,58,5.8,20000,5.556,14.816,,350,,,0,0,,,,,,0,og-post,,,,AAXX 27124 07070 04870 83503 10139 20058 30054 40163 56005 69901 700// 333 60007 90710 91108 555 60005=
07070,2012-04-27 13:00:00,15.2,1016,-0.5,53,5.7,18000,7.408,12.964,,50,,,0,,,,,,,0,og-post,,,,AAXX 27134 07070 24668 80504 10152 20057 30052 40160 57005 700// 333 60005 90710 91107=
07070,2012-04-27 14:00:00,14.4,1016,-0.4,62,7.2,20000,5.556,12.964,,80,,,0,,,,,,,0,og-post,,,,AAXX 27144 07070 24670 80803 10144 20072 30051 40160 57004 700// 333 60005 90710 91107=
07070,2012-04-27 15:00:00,14.2,1015.8,-0.5,66,7.9,20000,9.26,14.816,,160,,,0,0,,,,,,0,og-post,,,,AAXX 27154 07070 24570 81605 10142 20079 30049 40158 57005 700// 333 60007 90710 91108 555 60005=
07070,2012-04-27 16:00:00,13.2,1015.6,-0.5,75,8.9,20000,12.964,16.668,,140,,,,,,,,,,0,og-post,,,,AAXX 27164 07070 24970 81407 10132 20089 30047 40156 57005 700// 333 69905 90710 91109=
07070,2012-04-27 17:00:00,12.9,1015.4,-0.6,81,9.7,20000,9.26,14.816,,130,,,0,,,,,,,0,og-post,,,,AAXX 27174 07070 24670 81305 10129 20097 30045 40154 57006 700// 333 60005 90710 91108=
07070,2012-04-27 18:00:00,12.4,1014.7,-1.1,81,9.2,20000,7.408,12.964,,80,9.5,15.4,0,,,,,,,0,og-post,,,,AAXX 27184 07070 04670 80804 10124 20092 30038 40147 58011 69902 700// 333 10154 20095 69907 90710 91107 555 60005=
07070,2012-04-27 19:00:00,11.6,1015.2,-0.5,89,9.8,11000,5.556,14.816,,90,,,0.8,,,,,,,61,og-post,,,,AAXX 27194 07070 24561 80903 10116 20098 30042 40152 55005 761// 333 69985 90710 91108=
07070,2012-04-27 20:00:00,11.1,1014.9,-0.6,92,9.8,20000,14.816,22.224,,100,,,1,,,,,,,0,og-post,,,,AAXX 27204 07070 24570 81008 10111 20098 30039 40149 56006 700// 333 60015 90710 91112=
07070,2012-04-27 21:00:00,10.9,1014.4,-0.4,93,9.8,6000,11.112,20.372,,40,,,0.8,3,,,,,,61,og-post,,,,AAXX 27214 07070 24456 /0406 10109 20098 30034 40144 58004 761// 333 60037 90710 91111 555 69985=
07070,2012-04-27 22:00:00,10.8,1013.9,-1.3,94,9.9,8000,12.964,18.52,,70,,,0.4,,,,,,,61,og-post,,,,AAXX 27224 07070 24558 80707 10108 20099 30029 40139 58013 761// 333 69945 90710 91110=
07070,2012-04-27 23:00:00,10.6,1013.2,-1.7,95,9.8,9000,5.556,14.816,,360,,,0.4,,,,,,,60,og-post,,,,AAXX 27234 07070 24359 73603 10106 20098 30022 40132 58017 760// 333 69945 90710 91108=
07070,2012-04-28 00:00:00,10.2,1011.7,-2.7,95,9.4,5000,7.408,12.964,,40,,,,0.8,4,,,,,0,og-post,,,,AAXX 28004 07070 04250 60404 10102 20094 30007 40117 58027 60041 700// 333 69987 90710 91107 555 69905=
07070,2012-04-28 01:00:00,10.5,1010.5,-3.3,96,9.9,4100,11.112,16.668,,20,,,0,,,,,,,10,og-post,,,,AAXX 28014 07070 24141 80206 10105 20099 39996 40105 58033 710// 333 60005 90710 91109=
07070,2012-04-28 02:00:00,10.6,1009.5,-3.6,96,10,4100,7.408,16.668,,30,,,,,,,,,,10,og-post,,,,AAXX 28024 07070 24241 80304 10106 20100 39986 40095 56036 710// 333 69905 90710 91109=
07070,2012-04-28 03:00:00,10.3,1009.8,-1.8,96,9.7,2700,5.556,12.964,,310,,,0,,,,,,,10,og-post,,,,AAXX 28034 07070 24927 83103 10103 20097 39989 40098 55018 710// 333 69907 90710 91107 555 60005=
07070,2012-04-28 04:00:00,10,1009.5,-1.1,96,9.4,1400,,20.372,,,,,0,,,,,,,10,og-post,,,,AAXX 28044 07070 24914 70000 10100 20094 39985 40095 56011 710// 333 60005 90710 91111=
07070,2012-04-28 05:00:00,9.8,1009.7,0.1,96,9.2,4200,,9.26,,,,,0,,,,,,,10,og-post,,,,AAXX 28054 07070 24942 /0000 10098 20092 39987 40097 52001 710// 333 60005 90710 91105=
07070,2012-04-28 06:00:00,13.5,1009.6,-0.1,92,12.2,19000,18.52,29.632,,170,9.5,13.5,0,0,,4,3.8,0.4,8,0,og-post,,,,AAXX 28064 07070 04969 81710 10135 20122 39988 40096 55001 60042 700// 333 10135 20095 31008 55004 60007 70038 90710 91116 555 60005=
07070,2012-04-28 07:00:00,14.7,1010.4,1.1,85,12.2,19000,14.816,31.484,,200,,,0,,,,,,,0,og-post,,,,AAXX 28074 07070 24969 72008 10147 20122 39996 40104 53011 700// 333 60005 90710 91117=
07070,2012-04-28 08:00:00,15.6,1010.2,0.8,81,12.3,20000,7.408,22.224,,260,,,0,,,,,,,0,og-post,,,,AAXX 28084 07070 24970 72604 10156 20123 39995 40102 50008 700// 333 60005 90710 91112=
07070,2012-04-28 09:00:00,16.2,1011.1,1.6,80,12.7,19000,5.556,14.816,,180,,,0,0,,,,,,0,og-post,,,,AAXX 28094 07070 24969 71803 10162 20127 30004 40111 53016 700// 333 60007 90710 91108 555 60005=
07070,2012-04-28 10:00:00,16.7,1010.8,0.5,81,13.4,20000,7.408,12.964,,140,,,,,,,,,,0,og-post,,,,AAXX 28104 07070 24770 71404 10167 20134 30001 40108 50005 700// 333 69905 90710 91107=
07070,2012-04-28 11:00:00,18.5,1010.2,0.1,72,13.4,19000,9.26,18.52,,160,,,0,,,,,,,0,og-post,,,,AAXX 28114 07070 24969 71605 10185 20134 39996 40102 50001 700// 333 60005 90710 91110=
07070,2012-04-28 12:00:00,18.5,1010.2,-0.8,75,14,20000,9.26,16.668,,150,,,0,,,,,,,0,og-post,,,,AAXX 28124 07070 04970 81505 10185 20140 39996 40102 56008 69901 700// 333 69907 90710 91109 555 60005=
07070,2012-04-28 13:00:00,19.6,1010,-0.7,68,13.5,19000,,9.26,,,,,0,,,,,,,0,og-post,,,,AAXX 28134 07070 24969 70000 10196 20135 39994 40100 56007 700// 333 60005 90710 91105=
07070,2012-04-28 14:00:00,18.1,1009.7,-0.5,79,14.4,20000,11.112,25.928,,320,,,,,,,,,,0,og-post,,,,AAXX 28144 07070 24770 83206 10181 20144 39991 40097 58005 700// 333 69905 90710 91114=
07070,2012-04-28 15:00:00,17.4,1008.8,-1.5,84,14.7,17000,16.668,33.336,,40,,,,,,,,,,0,og-post,,,,AAXX 28154 07070 24967 70409 10174 20147 39981 40088 58015 700// 333 69907 90710 91118 555 69905=
07070,2012-04-28 16:00:00,17.6,1008.2,-1.8,84,14.9,19000,11.112,24.076,,70,,,0,,,,,,,0,og-post,,,,AAXX 28164 07070 24969 70706 10176 20149 39976 40082 58018 700// 333 60005 90710 91113=
07070,2012-04-28 17:00:00,17.4,1007.1,-2.6,84,14.7,19000,9.26,18.52,,10,,,0,,,,,,,0,og-post,,,,AAXX 28174 07070 24969 70105 10174 20147 39965 40071 58026 700// 333 60005 90710 91110=
07070,2012-04-28 18:00:00,16.9,1006.3,-2.4,84,14.2,20000,9.26,22.224,,20,13.6,19.7,0,0,,,,,,0,og-post,,,,AAXX 28184 07070 04970 80205 10169 20142 39957 40063 58024 69902 700// 333 10197 20136 60007 90710 91112 555 60005=
07070,2012-04-28 19:00:00,17,1004.5,-3.7,76,12.7,20000,25.928,37.04,,50,,,0,,,,,,,0,og-post,,,,AAXX 28194 07070 24970 80514 10170 20127 39939 40045 58037 700// 333 60005 90710 91120=
07070,2012-04-28 20:00:00,16.6,1004.1,-3,78,12.7,20000,22.224,42.596,,60,,,0,,,,,,,0,og-post,,,,AAXX 28204 07070 24970 80612 10166 20127 39935 40041 56030 700// 333 60005 90710 91123=
07070,2012-04-28 21:00:00,16.5,1003.4,-2.9,74,11.8,20000,5.556,37.04,,100,,,0,0,,,,,,0,og-post,,,,AAXX 28214 07070 24970 81003 10165 20118 39928 40034 56029 700// 333 60007 90710 91120 555 60005=
07070,2012-04-28 22:00:00,16.6,1003.1,-1.4,69,10.9,20000,3.704,14.816,,70,,,0,,,,,,,0,og-post,,,,AAXX 28224 07070 24970 80702 10166 20109 39925 40031 56014 700// 333 60005 90710 91108=
07070,2012-04-28 23:00:00,17.1,1003.4,-0.7,68,11.1,20000,7.408,24.076,,360,,,0.2,,,,,,,0,og-post,,,,AAXX 28234 07070 24970 73604 10171 20111 39928 40034 55007 700// 333 69925 90710 91113=
07070,2012-04-29 00:00:00,15,1002,-1.5,78,11.2,20000,20.372,29.632,,10,,,0,0.2,0.2,,,,,0,og-post,,,,AAXX 29004 07070 04970 /0111 10150 20112 39913 40020 58015 69921 700// 333 69927 90710 91116 555 60005=
07070,2012-04-29 01:00:00,15.1,1001.5,-1.7,83,12.2,20000,11.112,31.484,,40,,,0,,,,,,,0,og-post,,,,AAXX 29014 07070 24970 80406 10151 20122 39908 40015 58017 700// 333 60005 90710 91117=
07070,2012-04-29 02:00:00,14.7,1002.2,-1.3,85,12.2,20000,5.556,14.816,,210,,,0,,,,,,,0,og-post,,,,AAXX 29024 07070 24970 82103 10147 20122 39915 40022 55013 700// 333 60005 90710 91108=
07070,2012-04-29 03:00:00,13.2,1002.6,0.5,90,11.6,17000,7.408,12.964,,210,,,0,0,,,,,,0,og-post,,,,AAXX 29034 07070 24967 62104 10132 20116 39918 40026 53005 700// 333 60007 90710 91107 555 60005=
07070,2012-04-29 04:00:00,13.3,1001.9,0.4,91,11.9,12000,5.556,11.112,,50,,,,,,,,,,0,og-post,,,,AAXX 29044 07070 24962 70503 10133 20119 39912 40019 50004 700// 333 69905 90710 91106=
07070,2012-04-29 05:00:00,13.4,1002.7,0.5,92,12.1,8000,3.704,16.668,,310,,,,,,,,,,61,og-post,,,,AAXX 29054 07070 24958 83102 10134 20121 39920 40027 53005 761// 333 69905 90710 91109=
07070,2012-04-29 06:00:00,14.2,1003,0.5,92,12.9,5000,1.852,9.26,,290,12.8,18.4,0.2,0.2,,0.4,0.4,0.9,12,61,og-post,,,,AAXX 29064 07070 04950 82901 10142 20129 39923 40030 53005 69942 761// 333 10184 20128 32012 55009 69927 70004 90710 91105 555 69925=
07070,2012-04-29 07:00:00,15.8,1003.1,1.2,80,12.4,20000,25.928,44.448,,190,,,,,,,,,,61,og-post,,,,AAXX 29074 07070 24770 81914 10158 20124 39924 40031 51012 761// 333 69905 90710 91124=
07070,2012-04-29 08:00:00,15,1004.4,1.7,86,12.7,11000,37.04,68.524,,170,,,1,,,,,,,61,og-post,,,,AAXX 29084 07070 24661 81720 10150 20127 39937 40044 53017 761// 333 60015 90710 91137=
07070,2012-04-29 09:00:00,14.3,1004.5,1.5,82,11.3,20000,20.372,64.82,,200,,,0.6,2,,,,,,0,og-post,,,,AAXX 29094 07070 24570 82011 10143 20113 39938 40045 52015 700// 333 60027 90710 91135 555 69965=
07070,2012-04-29 10:00:00,16.4,1006.2,3.1,71,11.1,20000,25.928,62.968,,200,,,0,,,,,,,0,og-post,,,,AAXX 29104 07070 24670 /2014 10164 20111 39955 40062 53031 700// 333 60005 90710 91134=
07070,2012-04-29 11:00:00,16.2,1006.8,2.4,62,8.9,20000,31.484,50.004,,200,,,0,,,,,,,0,og-post,,,,AAXX 29114 07070 24670 /2017 10162 20089 39961 40068 53024 700// 333 60005 90710 91127=
07070,2012-04-29 12:00:00,17.1,1007.4,2.9,59,9,20000,31.484,51.856,51.856,190,,,0,0,2,,,,,0,og-post,,,,AAXX 29124 07070 04670 71917 10171 20090 39967 40074 51029 60021 700// 333 60007 91028 90710 91128 555 60005=
07070,2012-04-29 13:00:00,17.9,1007.6,1.5,57,9.3,20000,33.336,51.856,,190,,,0,,,,,,,0,og-post,,,,AAXX 29134 07070 24670 /1918 10179 20093 39970 40076 51015 700// 333 60005 90710 91128=
07070,2012-04-29 14:00:00,18.6,1007.9,1.2,54,9.1,20000,27.78,51.856,,210,,,0,,,,,,,0,og-post,,,,AAXX 29144 07070 24670 /2115 10186 20091 39973 40079 51012 700// 333 60005 90710 91128=
07070,2012-04-29 15:00:00,18.3,1008,0.7,48,7.1,20000,29.632,53.708,,200,,,0,0,,,,,,0,og-post,,,,AAXX 29154 07070 24770 /2016 10183 20071 39974 40080 51007 700// 333 60007 90710 91129 555 60005=
07070,2012-04-29 16:00:00,18.5,1008.6,1,46,6.7,20000,27.78,48.152,,220,,,0,,,,,,,0,og-post,,,,AAXX 29164 07070 24970 /2215 10185 20067 39980 40086 53010 700// 333 60005 90710 91126=
07070,2012-04-29 17:00:00,17.7,1009.2,1.2,46,5.9,20000,22.224,42.596,,220,,,0,,,,,,,0,og-post,,,,AAXX 29174 07070 24770 72212 10177 20059 39985 40092 53012 700// 333 60005 90710 91123=
07070,2012-04-29 18:00:00,16.5,1009.5,1.4,52,6.6,20000,12.964,35.188,,220,14.1,19.1,0,0,,2,,,,0,og-post,,,,AAXX 29184 07070 04970 82207 10165 20066 39988 40095 51014 60022 700// 333 10191 20141 60007 90710 91119 555 60005=
07070,2012-04-29 19:00:00,13.7,1010.4,1.6,69,8.1,20000,12.964,31.484,,180,,,0,,,,,,,0,og-post,,,,AAXX 29194 07070 24970 81807 10137 20081 39996 40104 53016 700// 333 60005 90710 91117=
07070,2012-04-29 20:00:00,12.1,1011.4,2,80,8.8,20000,12.964,22.224,,180,,,0,,,,,,,0,og-post,,,,AAXX 29204 07070 24970 81807 10121 20088 30005 40114 53020 700// 333 60005 90710 91112=
07070,2012-04-29 21:00:00,11.4,1012.1,2.4,81,8.3,20000,14.816,20.372,,160,,,0,0,,,,,,0,og-post,,,,AAXX 29214 07070 24970 /1608 10114 20083 30012 40121 51024 700// 333 60007 90710 91111 555 60005=
07070,2012-04-29 22:00:00,10,1012.8,2.2,85,7.6,20000,14.816,20.372,,180,,,0,,,,,,,0,og-post,,,,AAXX 29224 07070 24970 /1808 10100 20076 30018 40128 51022 700// 333 60005 90710 91111=
07070,2012-04-29 23:00:00,9,1013.3,1.8,86,6.8,20000,9.26,20.372,,180,,,0,,,,,,,0,og-post,,,,AAXX 29234 07070 24970 /1805 10090 20068 30023 40133 51018 700// 333 60005 90710 91111=
07070,2012-04-30 00:00:00,8.2,1013.7,1.4,89,6.5,20000,1.852,20.372,,50,,,0,0,,,,,,0,og-post,,,,AAXX 30004 07070 04970 /0501 10082 20065 30026 40137 51014 60001 700// 333 60007 90710 91111 555 60005=
07070,2012-04-30 01:00:00,9.3,1014.1,1.3,87,7.2,20000,16.668,22.224,,170,,,0,,,,,,,0,og-post,,,,AAXX 30014 07070 24970 /1709 10093 20072 30031 40141 52013 700// 333 60005 90710 91112=
07070,2012-04-30 02:00:00,8.5,1014.2,0.8,88,6.6,20000,9.26,18.52,,170,,,0,,,,,,,0,og-post,,,,AAXX 30024 07070 24870 /1705 10085 20066 30031 40142 51008 700// 333 60005 90710 91110=
07070,2012-04-30 03:00:00,7,1013.9,0.2,88,5.1,20000,5.556,12.964,,170,,,0,0,,,,,,0,og-post,,,,AAXX 30034 07070 24970 /1703 10070 20051 30028 40139 50002 700// 333 60007 90710 91107 555 60005=
07070,2012-04-30 04:00:00,7.1,1014.3,0.1,92,5.9,20000,5.556,11.112,,180,,,0,,,,,,,0,og-post,,,,AAXX 30044 07070 24970 /1803 10071 20059 30032 40143 53001 700// 333 60005 90710 91106=
07070,2012-04-30 05:00:00,7.9,1014.3,0.1,90,6.4,20000,9.26,16.668,,180,,,0,,,,,,,0,og-post,,,,AAXX 30054 07070 24970 /1805 10079 20064 30032 40143 53001 700// 333 60005 90710 91109=
07070,2012-04-30 06:00:00,9.6,1014.7,0.9,89,7.9,20000,9.26,18.52,,190,6.5,16.5,0,0,,,1.8,5.3,3,0,og-post,,,,AAXX 30064 07070 04970 /1905 10096 20079 30037 40147 53009 60002 700// 333 10165 20065 31003 55053 60007 70018 90710 91110 555 60005=
07070,2012-04-30 07:00:00,12.2,1015.5,1.4,78,8.5,20000,16.668,22.224,,170,,,0,,,,,,,0,og-post,,,,AAXX 30074 07070 24970 /1709 10122 20085 30046 40155 53014 700// 333 60005 90710 91112=
07070,2012-04-30 08:00:00,15.4,1015.1,1.1,65,8.8,20000,7.408,14.816,,150,,,0,,,,,,,0,og-post,,,,AAXX 30084 07070 24970 /1504 10154 20088 30043 40151 50011 700// 333 60005 90710 91108=
07070,2012-04-30 09:00:00,16.7,1015.2,0.7,64,9.9,20000,14.816,25.928,,110,,,0,0,,,,,,0,og-post,,,,AAXX 30094 07070 24970 /1108 10167 20099 30044 40152 51007 700// 333 60007 90710 91114 555 60005=
07070,2012-04-30 10:00:00,16.9,1014.9,-0.5,57,8.3,20000,12.964,29.632,,130,,,0,,,,,,,0,og-post,,,,AAXX 30104 07070 24870 61307 10169 20083 30041 40149 57005 700// 333 60005 90710 91116=
07070,2012-04-30 11:00:00,17.6,1014.4,-0.6,59,9.5,20000,18.52,33.336,,150,,,0,,,,,,,0,og-post,,,,AAXX 30114 07070 24670 81510 10176 20095 30037 40144 58006 700// 333 60005 90710 91118=
07070,2012-04-30 12:00:00,17.9,1014.1,-1,51,7.6,20000,18.52,33.336,,130,,,,,,,,,,0,og-post,,,,AAXX 30124 07070 04870 81310 10179 20076 30034 40141 57010 69901 700// 333 69907 90710 91118 555 69905=
07070,2012-04-30 13:00:00,16.4,1014.5,-0.4,69,10.7,20000,5.556,22.224,,150,,,,,,,,,,61,og-post,,,,AAXX 30134 07070 24870 81503 10164 20107 30037 40145 55004 761// 333 69905 90710 91112=
07070,2012-04-30 14:00:00,17.1,1013.8,-0.6,57,8.5,20000,1.852,14.816,,260,,,,,,,,,,0,og-post,,,,AAXX 30144 07070 24670 82601 10171 20085 30031 40138 58006 700// 333 69905 90710 91108=
07070,2012-04-30 15:00:00,16.5,1012.6,-1.5,63,9.4,20000,11.112,14.816,,320,,,,,,,,,,0,og-post,,,,AAXX 30154 07070 24870 83206 10165 20094 30019 40126 58015 700// 333 69907 90710 91108 555 69905=
07070,2012-04-30 16:00:00,16.5,1012,-2.4,61,8.9,20000,12.964,20.372,,360,,,0,,,,,,,0,og-post,,,,AAXX 30164 07070 24870 /3607 10165 20089 30013 40120 57024 700// 333 60005 90710 91111=
07070,2012-04-30 17:00:00,16.1,1011.4,-2.4,70,10.6,20000,11.112,22.224,,10,,,0,,,,,,,0,og-post,,,,AAXX 30174 07070 24970 80106 10161 20106 30007 40114 56024 700// 333 60005 90710 91112=
07070,2012-04-30 18:00:00,15.5,1010.9,-1.8,71,10.3,20000,5.556,18.52,,360,9.7,18.2,0,0,,,,,,0,og-post,,,,AAXX 30184 07070 04770 73603 10155 20103 30001 40109 57018 69902 700// 333 10182 20097 60007 90710 91110 555 60005=
07070,2012-04-30 19:00:00,14.5,1010.9,-1.2,78,10.7,20000,,7.408,,,,,0,,,,,,,0,og-post,,,,AAXX 30194 07070 24970 80000 10145 20107 30001 40109 56012 700// 333 60005 90710 91104=
07070,2012-04-30 20:00:00,13.6,1011.2,-0.3,84,10.9,20000,5.556,11.112,,200,,,0,,,,,,,0,og-post,,,,AAXX 30204 07070 24770 82003 10136 20109 30004 40112 55003 700// 333 60005 90710 91106=
07070,2012-04-30 21:00:00,13.9,1011.5,0.6,78,10.1,20000,12.964,24.076,,250,,,0,0,,,,,,0,og-post,,,,AAXX 30214 07070 24870 62507 10139 20101 30007 40115 53006 700// 333 60007 90710 91113 555 60005=
07070,2012-04-30 22:00:00,14,1011.8,0.9,73,9.2,20000,14.816,18.52,,250,,,0,,,,,,,0,og-post,,,,AAXX 30224 07070 24770 82508 10140 20092 30010 40118 52009 700// 333 60005 90710 91110=
07070,2012-04-30 23:00:00,12.3,1013.3,2,88,10.4,11000,3.704,16.668,,170,,,2,,,,,,,63,og-post,,,,AAXX 30234 07070 24761 81702 10123 20104 30024 40133 53020 763// 333 60025 90710 91109=
07070,2012-05-01 00:00:00,11.9,1013.2,1.6,92,10.6,4400,9.26,12.964,,80,,,2,4,4,,,,,61,og-post,,,,AAXX 01004 07070 04844 80805 10119 20106 30023 40132 50016 60041 761// 333 60047 90710 91107 555 60025=
07070,2012-05-01 01:00:00,11.2,1013,1.1,93,10.1,20000,7.408,12.964,,210,,,0.2,,,,,,,0,og-post,,,,AAXX 01014 07070 24870 82104 10112 20101 30021 40130 50011 700// 333 69925 90710 91107=
07070,2012-05-01 02:00:00,10.5,1013.5,0.1,94,9.6,20000,11.112,14.816,,160,,,0,,,,,,,0,og-post,,,,AAXX 01024 07070 24970 /1606 10105 20096 30025 40135 53001 700// 333 60005 90710 91108=
07070,2012-05-01 03:00:00,10.2,1014,0.7,92,9,20000,7.408,20.372,,120,,,0,0.2,,,,,,0,og-post,,,,AAXX 01034 07070 24970 /1204 10102 20090 30030 40140 53007 700// 333 69927 90710 91111 555 60005=
07070,2012-05-01 04:00:00,9.9,1014.4,1.3,93,8.8,20000,11.112,16.668,,180,,,0,,,,,,,0,og-post,,,,AAXX 01044 07070 24970 /1806 10099 20088 30034 40144 52013 700// 333 60005 90710 91109=
07070,2012-05-01 05:00:00,9.9,1015.2,1.7,93,8.8,20000,7.408,16.668,,170,,,0,,,,,,,0,og-post,,,,AAXX 01054 07070 24970 /1704 10099 20088 30042 40152 53017 700// 333 60005 90710 91109=
07070,2012-05-01 06:00:00,11.1,1015.8,1.8,92,9.8,20000,9.26,14.816,,200,9.5,15.5,0,0,,4,4.4,4.1,8,0,og-post,,,,AAXX 01064 07070 04470 /2005 10111 20098 30048 40158 53018 60042 700// 333 10155 20095 31008 55041 60007 70044 90710 91108 555 60005=
07070,2012-05-01 07:00:00,12.5,1016.5,2.2,84,9.9,20000,14.816,29.632,,210,,,0,,,,,,,0,og-post,,,,AAXX 01074 07070 24470 82108 10125 20099 30056 40165 52022 700// 333 60005 90710 91116=
07070,2012-05-01 08:00:00,12.9,1017,1.9,76,8.8,20000,11.112,20.372,,250,,,0.2,,,,,,,0,og-post,,,,AAXX 01084 07070 24470 62506 10129 20088 30061 40170 52019 700// 333 69925 90710 91111=
07070,2012-05-01 09:00:00,14,1018,2.3,75,9.6,20000,20.372,29.632,,230,,,0,0.2,,,,,,0,og-post,,,,AAXX 01094 07070 24570 /2311 10140 20096 30071 40180 53023 700// 333 69927 90710 91116 555 60005=
07070,2012-05-01 10:00:00,13.8,1018.6,2.1,69,8.2,20000,11.112,25.928,,260,,,0,,,,,,,0,og-post,,,,AAXX 01104 07070 24570 62606 10138 20082 30077 40186 53021 700// 333 60005 90710 91114=
07070,2012-05-01 11:00:00,14.2,1018.6,1.6,67,8.2,20000,11.112,20.372,,220,,,0,,,,,,,0,og-post,,,,AAXX 01114 07070 24570 72206 10142 20082 30077 40186 51016 700// 333 60005 90710 91111=
07070,2012-05-01 12:00:00,15.9,1018.7,0.8,60,8.1,20000,9.26,18.52,,210,,,0,0,0.2,,,,,0,og-post,,,,AAXX 01124 07070 04670 72105 10159 20081 30079 40187 51008 69921 700// 333 60007 90710 91110 555 60005=
07070,2012-05-01 13:00:00,16.2,1018.7,0.2,57,7.7,20000,9.26,18.52,,240,,,0,,,,,,,0,og-post,,,,AAXX 01134 07070 24670 /2405 10162 20077 30079 40187 52002 700// 333 60005 90710 91110=
07070,2012-05-01 14:00:00,18,1018.7,0.2,51,7.7,18000,3.704,18.52,,270,,,0,,,,,,,0,og-post,,,,AAXX 01144 07070 24668 /2702 10180 20077 30079 40187 51002 700// 333 60005 90710 91110=
07070,2012-05-01 15:00:00,17.4,1018.6,-0.1,52,7.4,20000,5.556,12.964,,350,,,0,0,,,,,,0,og-post,,,,AAXX 01154 07070 24770 /3503 10174 20074 30078 40186 58001 700// 333 60007 90710 91107 555 60005=
07070,2012-05-01 16:00:00,16,1018.3,-0.4,67,9.9,20000,7.408,12.964,,80,,,0,,,,,,,0,og-post,,,,AAXX 01164 07070 24970 /0804 10160 20099 30075 40183 58004 700// 333 60005 90710 91107=
07070,2012-05-01 17:00:00,16.7,1018.4,-0.3,60,8.9,20000,9.26,11.112,,100,,,0,,,,,,,0,og-post,,,,AAXX 01174 07070 24970 61005 10167 20089 30076 40184 55003 700// 333 60005 90710 91106=
07070,2012-05-01 18:00:00,16,1018.6,-0,69,10.3,20000,9.26,11.112,,80,11.1,18.1,0,0,,0.2,,,,0,og-post,,,,AAXX 01184 07070 04970 /0805 10160 20103 30078 40186 55000 69922 700// 333 10181 20111 60007 90710 91106 555 60005=
07070,2012-05-01 19:00:00,13,1019.2,0.8,84,10.4,20000,7.408,12.964,,90,,,0,,,,,,,0,og-post,,,,AAXX 01194 07070 24670 /0904 10130 20104 30083 40192 53008 700// 333 60005 90710 91107=
07070,2012-05-01 20:00:00,10.8,1020,1.4,89,9.1,20000,5.556,7.408,,100,,,0,,,,,,,0,og-post,,,,AAXX 01204 07070 24970 /1003 10108 20091 30090 40200 53014 700// 333 60005 90710 91104=
07070,2012-05-01 21:00:00,10.4,1019.8,0.9,91,9,20000,3.704,5.556,,320,,,0,0,,,,,,0,og-post,,,,AAXX 01214 07070 24970 63202 10104 20090 30087 40198 50009 700// 333 60007 90710 91103 555 60005=
07070,2012-05-01 22:00:00,9.7,1019.6,0.2,91,8.3,20000,5.556,9.26,,310,,,0,,,,,,,0,og-post,,,,AAXX 01224 07070 24970 /3103 10097 20083 30085 40196 50002 700// 333 60005 90710 91105=
07070,2012-05-01 23:00:00,9.2,1019.6,-0.5,92,8,19000,1.852,5.556,,10,,,0,,,,,,,0,og-post,,,,AAXX 01234 07070 24969 /0101 10092 20080 30085 40196 56005 700// 333 60005 90710 91103=
07070,2012-05-02 00:00:00,8.8,1019,-0.8,91,7.4,20000,7.408,12.964,,350,,,0,0,,,,,,0,og-post,,,,AAXX 02004 07070 04970 /3504 10088 20074 30079 40190 58008 60001 700// 333 60007 90710 91107 555 60005=
07070,2012-05-02 01:00:00,9,1018.6,-1,92,7.8,20000,3.704,11.112,,320,,,0,,,,,,,0,og-post,,,,AAXX 02014 07070 24970 73202 10090 20078 30075 40186 58010 700// 333 60005 90710 91106=
07070,2012-05-02 02:00:00,10,1018.3,-1.3,90,8.4,20000,5.556,12.964,,350,,,0,,,,,,,0,og-post,,,,AAXX 02024 07070 24670 83503 10100 20084 30072 40183 56013 700// 333 60005 90710 91107=
07070,2012-05-02 03:00:00,10.1,1017.4,-1.5,91,8.7,19000,11.112,14.816,,310,,,0,0,,,,,,0,og-post,,,,AAXX 02034 07070 24669 83106 10101 20087 30064 40174 58015 700// 333 60007 90710 91108 555 60005=
07070,2012-05-02 04:00:00,10.5,1017,-1.5,92,9.3,5000,11.112,16.668,,320,,,0,,,,,,,0,og-post,,,,AAXX 02044 07070 24750 83206 10105 20093 30060 40170 58015 700// 333 60005 90710 91109=
07070,2012-05-02 05:00:00,10.8,1016.4,-1.8,92,9.6,3200,18.52,29.632,,340,,,0,,,,,,,10,og-post,,,,AAXX 02054 07070 24732 73410 10108 20096 30054 40164 56018 710// 333 60005 90710 91116=
07070,2012-05-02 06:00:00,10.9,1016.7,-0.7,92,9.7,3300,14.816,29.632,,340,8.4,16,0,0,,,0.2,6.3,5,10,og-post,,,,AAXX 02064 07070 04633 73408 10109 20097 30057 40167 55007 60002 710// 333 10160 20084 30005 55063 60007 70002 90710 91116 555 60005=
07070,2012-05-02 07:00:00,10.7,1016.5,-0.5,91,9.3,4000,14.816,24.076,,330,,,0,,,,,,,10,og-post,,,,AAXX 02074 07070 24740 83308 10107 20093 30055 40165 56005 710// 333 60005 90710 91113=
07070,2012-05-02 08:00:00,10.7,1016.8,0.4,92,9.5,4200,18.52,27.78,,340,,,0.8,,,,,,,63,og-post,,,,AAXX 02084 07070 24742 83410 10107 20095 30058 40168 52004 763// 333 69985 90710 91115=
07070,2012-05-02 09:00:00,10.4,1016.8,0.1,94,9.5,2200,14.816,24.076,,330,,,5,5,,,,,,63,og-post,,,,AAXX 02094 07070 24522 73308 10104 20095 30058 40168 53001 763// 333 60057 90710 91113 555 60055=
07070,2012-05-02 10:00:00,9.9,1015.8,-0.7,94,9,4300,24.076,33.336,,340,,,4,,,,,,,63,og-post,,,,AAXX 02104 07070 24643 83413 10099 20090 30048 40158 58007 763// 333 60045 90710 91118=
07070,2012-05-02 11:00:00,10.9,1014.9,-1.9,91,9.5,15000,29.632,51.856,,350,,,1,,,,,,,0,og-post,,,,AAXX 02114 07070 24665 73516 10109 20095 30039 40149 58019 700// 333 60015 90710 91128=
07070,2012-05-02 12:00:00,11.4,1015.4,-1.4,88,9.5,14000,14.816,38.892,,350,,,0,6,11,,,,,0,og-post,,,,AAXX 02124 07070 04464 83508 10114 20095 30044 40154 55014 60111 700// 333 60067 90710 91121 555 60005=
07070,2012-05-02 13:00:00,11.1,1015.6,-0.2,92,9.8,2200,11.112,27.78,,340,,,0.4,,,,,,,61,og-post,,,,AAXX 02134 07070 24422 83406 10111 20098 30046 40156 55002 761// 333 69945 90710 91115=
07070,2012-05-02 14:00:00,11.1,1014.7,-0.2,94,10.2,3300,20.372,27.78,,320,,,0.4,,,,,,,10,og-post,,,,AAXX 02144 07070 24233 83211 10111 20102 30037 40147 58002 710// 333 69945 90710 91115=
07070,2012-05-02 15:00:00,11.2,1014.6,-0.8,93,10.1,5000,22.224,31.484,,330,,,0,0.8,,,,,,0,og-post,,,,AAXX 02154 07070 24350 83312 10112 20101 30036 40146 58008 700// 333 69987 90710 91117 555 60005=
07070,2012-05-02 16:00:00,10.9,1014.5,-1.1,92,9.7,6000,18.52,37.04,,330,,,,,,,,,,61,og-post,,,,AAXX 02164 07070 24356 83310 10109 20097 30035 40145 56011 761// 333 69905 90710 91120=
07070,2012-05-02 17:00:00,10.6,1014.5,-0.2,92,9.4,8000,12.964,25.928,,330,,,,,,,,,,50,og-post,,,,AAXX 02174 07070 24458 83307 10106 20094 30035 40145 56002 750// 333 69905 90710 91114=
07070,2012-05-02 18:00:00,10.4,1014.5,-0.1,94,9.5,3900,12.964,25.928,,330,9.8,11.5,0.4,0.4,,12,,,,58,og-post,,,,AAXX 02184 07070 04439 83307 10104 20095 30035 40145 56001 60122 758// 333 10115 20098 69947 90710 91114 555 69945=
07070,2012-05-02 19:00:00,10.1,1014.4,-0.1,94,9.2,6000,16.668,24.076,,320,,,,,,,,,,60,og-post,,,,AAXX 02194 07070 24356 83209 10101 20092 30034 40144 58001 760// 333 69905 90710 91113=
07070,2012-05-02 20:00:00,9.9,1014.7,0.2,94,9,8000,11.112,27.78,,330,,,0.2,,,,,,,60,og-post,,,,AAXX 02204 07070 24358 83306 10099 20090 30037 40147 53002 760// 333 69925 90710 91115=
07070,2012-05-02 21:00:00,9.5,1014.6,0.1,95,8.7,2900,12.964,20.372,,310,,,3,3,,,,,,63,og-post,,,,AAXX 02214 07070 24429 83107 10095 20087 30036 40146 52001 763// 333 60037 90710 91111 555 60035=
07070,2012-05-02 22:00:00,9.5,1014.8,0.4,95,8.7,2000,9.26,14.816,,260,,,2,,,,,,,61,og-post,,,,AAXX 02224 07070 24320 82605 10095 20087 30038 40148 51004 761// 333 60025 90710 91108=
07070,2012-05-02 23:00:00,9.6,1014.8,0.1,95,8.8,3500,9.26,14.816,,260,,,0.2,,,,,,,10,og-post,,,,AAXX 02234 07070 24435 82605 10096 20088 30038 40148 53001 710// 333 69925 90710 91108=
07070,2012-05-03 00:00:00,9.6,1014.6,0,96,9,2700,9.26,12.964,,250,,,0,3,6,,,,,10,og-post,,,,AAXX 03004 07070 04127 82505 10096 20090 30036 40146 50000 60061 710// 333 60037 90710 91107 555 60005=
07070,2012-05-03 01:00:00,9.7,1014.3,-0.5,96,9.1,6000,11.112,14.816,,230,,,0,,,,,,,0,og-post,,,,AAXX 03014 07070 24356 82306 10097 20091 30033 40143 58005 700// 333 60005 90710 91108=
07070,2012-05-03 02:00:00,9.7,1014,-0.8,95,8.9,7000,7.408,14.816,,200,,,0,,,,,,,0,og-post,,,,AAXX 03024 07070 24457 82004 10097 20089 30030 40140 58008 700// 333 60005 90710 91108=
07070,2012-05-03 03:00:00,9.7,1013.8,-0.8,95,8.9,7000,9.26,12.964,,190,,,0,0,,,,,,0,og-post,,,,AAXX 03034 07070 24457 81905 10097 20089 30028 40138 56008 700// 333 60007 90710 91107 555 60005=
07070,2012-05-03 04:00:00,9.4,1013.5,-0.8,95,8.6,6000,7.408,12.964,,140,,,0,,,,,,,0,og-post,,,,AAXX 03044 07070 24456 81404 10094 20086 30025 40135 57008 700// 333 60005 90710 91107=
07070,2012-05-03 05:00:00,9.7,1013.6,-0.4,95,8.9,4600,5.556,9.26,,180,,,0,,,,,,,10,og-post,,,,AAXX 03054 07070 24446 81803 10097 20089 30026 40136 55004 710// 333 60005 90710 91105=
07070,2012-05-03 06:00:00,10.7,1013.7,-0.1,93,9.6,7000,7.408,11.112,,190,9.4,10.7,0,0,,6,18.1,0,9,0,og-post,,,,AAXX 03064 07070 04457 81904 10107 20096 30027 40137 55001 60062 700// 333 10107 20094 31009 55000 60007 70181 90710 91106 555 60005=
07070,2012-05-03 07:00:00,11.5,1013.4,0,86,9.2,14000,12.964,18.52,,220,,,0,,,,,,,0,og-post,,,,AAXX 03074 07070 24364 82207 10115 20092 30025 40134 50000 700// 333 60005 90710 91110=
07070,2012-05-03 08:00:00,11.1,1013.7,0.1,86,8.8,11000,11.112,24.076,,210,,,0,,,,,,,0,og-post,,,,AAXX 03084 07070 24461 82106 10111 20088 30027 40137 53001 700// 333 60005 90710 91113=
07070,2012-05-03 09:00:00,11.3,1013.7,-0,88,9.4,7000,9.26,18.52,,210,,,,,,,,,,0,og-post,,,,AAXX 03094 07070 24557 82105 10113 20094 30027 40137 55000 700// 333 69907 90710 91110 555 69905=
07070,2012-05-03 10:00:00,12.7,1013.3,-0.1,82,9.7,13000,11.112,18.52,,220,,,0,,,,,,,0,og-post,,,,AAXX 03104 07070 24463 82206 10127 20097 30024 40133 58001 700// 333 60005 90710 91110=
07070,2012-05-03 11:00:00,14.1,1012.8,-0.7,72,9.1,17000,14.816,29.632,,220,,,0,,,,,,,0,og-post,,,,AAXX 03114 07070 24567 82208 10141 20091 30020 40128 58007 700// 333 60005 90710 91116=
07070,2012-05-03 12:00:00,15.5,1012.3,-1.2,65,8.9,18000,11.112,25.928,,260,,,0,0,,,,,,0,og-post,,,,AAXX 03124 07070 04568 82606 10155 20089 30015 40123 58012 69901 700// 333 60007 90710 91114 555 60005=
07070,2012-05-03 13:00:00,16.2,1011.8,-1.4,58,7.9,19000,12.964,22.224,,230,,,0,,,,,,,0,og-post,,,,AAXX 03134 07070 24669 82307 10162 20079 30010 40118 58014 700// 333 60005 90710 91112=
07070,2012-05-03 14:00:00,17.3,1011.1,-1.6,55,8.2,20000,18.52,27.78,,220,,,0,,,,,,,0,og-post,,,,AAXX 03144 07070 24670 72210 10173 20082 30004 40111 58016 700// 333 60005 90710 91115=
07070,2012-05-03 15:00:00,17.9,1010.6,-1.6,49,7,20000,16.668,31.484,,260,,,0,0,,,,,,0,og-post,,,,AAXX 03154 07070 24670 /2609 10179 20070 39999 40106 57016 700// 333 60007 90710 91117 555 60005=
07070,2012-05-03 16:00:00,18.7,1010.1,-1.5,49,7.8,20000,18.52,31.484,,260,,,0,,,,,,,0,og-post,,,,AAXX 03164 07070 24970 /2610 10187 20078 39995 40101 56015 700// 333 60005 90710 91117=
07070,2012-05-03 17:00:00,18.3,1009.8,-1.3,49,7.4,20000,12.964,25.928,,260,,,0,,,,,,,0,og-post,,,,AAXX 03174 07070 24970 /2607 10183 20074 39991 40098 56013 700// 333 60005 90710 91114=
07070,2012-05-03 18:00:00,17.7,1009.4,-1.2,52,7.7,20000,7.408,18.52,,260,10.7,18.8,0,0,,,,,,0,og-post,,,,AAXX 03184 07070 04770 /2604 10177 20077 39987 40094 57012 69902 700// 333 10188 20107 60007 90710 91110 555 60005=
07070,2012-05-03 19:00:00,15.4,1009.4,-0.9,60,7.7,20000,3.704,11.112,,330,,,0,,,,,,,0,og-post,,,,AAXX 03194 07070 24970 /3302 10154 20077 39986 40094 56009 700// 333 60005 90710 91106=
07070,2012-05-03 20:00:00,10.9,1009.8,-0.2,85,8.5,20000,5.556,7.408,,100,,,0,,,,,,,0,og-post,,,,AAXX 03204 07070 24970 /1003 10109 20085 39989 40098 55002 700// 333 60005 90710 91104=
07070,2012-05-03 21:00:00,9.8,1009.9,0.2,88,7.9,20000,1.852,9.26,,60,,,0,0,,,,,,0,og-post,,,,AAXX 03214 07070 24970 /0601 10098 20079 39989 40099 53002 700// 333 60007 90710 91105 555 60005=
07070,2012-05-03 22:00:00,8.9,1009.6,0,92,7.7,17000,3.704,5.556,,140,,,0,,,,,,,0,og-post,,,,AAXX 03224 07070 24967 /1402 10089 20077 39986 40096 50000 700// 333 60005 90710 91103=
07070,2012-05-03 23:00:00,7.6,1009.4,-0.6,91,6.2,16000,,5.556,,,,,0,,,,,,,0,og-post,,,,AAXX 03234 07070 24966 /0000 10076 20062 39983 40094 58006 700// 333 60005 90710 91103=
07070,2012-05-04 00:00:00,6.7,1008.6,-1.4,93,5.6,11000,3.704,5.556,,170,,,0,0,,,,,,0,og-post,,,,AAXX 04004 07070 04961 /1702 10067 20056 39975 40086 58014 60001 700// 333 60007 90710 91103 555 60005=
07070,2012-05-04 01:00:00,6.3,1008,-1.7,93,5.3,14000,,11.112,,,,,0,,,,,,,0,og-post,,,,AAXX 04014 07070 24964 /0000 10063 20053 39969 40080 58017 700// 333 60005 90710 91106=
07070,2012-05-04 02:00:00,6.4,1007.6,-1.8,94,5.5,12000,3.704,5.556,,160,,,0,,,,,,,0,og-post,,,,AAXX 04024 07070 24862 /1602 10064 20055 39965 40076 56018 700// 333 60005 90710 91103=
07070,2012-05-04 03:00:00,5.5,1006.9,-1.7,94,4.6,12000,3.704,7.408,,300,,,0,0,,,,,,0,og-post,,,,AAXX 04034 07070 24862 /3002 10055 20046 39958 40069 58017 700// 333 60007 90710 91104 555 60005=
07070,2012-05-04 04:00:00,7.7,1006.3,-1.6,95,6.9,20000,5.556,12.964,,200,,,0,,,,,,,0,og-post,,,,AAXX 04044 07070 24870 72003 10077 20069 39953 40063 58016 700// 333 60005 90710 91107=
07070,2012-05-04 05:00:00,9.5,1006.2,-1.2,88,7.6,20000,5.556,16.668,,220,,,0.2,,,,,,,0,og-post,,,,AAXX 04054 07070 24870 82203 10095 20076 39953 40062 56012 700// 333 69925 90710 91109=
07070,2012-05-04 06:00:00,10.7,1006.3,-0.4,86,8.5,20000,7.408,11.112,,170,5,17.6,0,0.2,,0.2,0.2,4.7,2,0,og-post,,,,AAXX 04064 07070 04970 81704 10107 20085 39954 40063 55004 69922 700// 333 10176 20050 30002 55047 69927 70002 90710 91106 555 60005=
07070,2012-05-04 07:00:00,13,1006,0.1,82,10,19000,7.408,9.26,,170,,,0,,,,,,,0,og-post,,,,AAXX 04074 07070 24969 81704 10130 20100 39952 40060 50001 700// 333 60005 90710 91105=
07070,2012-05-04 08:00:00,17.1,1005.5,-0.4,67,10.9,20000,3.704,11.112,,160,,,0,,,,,,,0,og-post,,,,AAXX 04084 07070 24970 /1602 10171 20109 39949 40055 58004 700// 333 60005 90710 91106=
07070,2012-05-04 09:00:00,18.4,1005.5,-0.5,55,9.2,20000,12.964,20.372,,260,,,0,0,,,,,,0,og-post,,,,AAXX 04094 07070 24770 62607 10184 20092 39949 40055 56005 700// 333 60007 90710 91111 555 60005=
07070,2012-05-04 10:00:00,19.3,1005.3,-0.5,57,10.6,20000,11.112,18.52,,270,,,0,,,,,,,0,og-post,,,,AAXX 04104 07070 24970 /2706 10193 20106 39947 40053 56005 700// 333 60005 90710 91110=
07070,2012-05-04 11:00:00,19.6,1005,-0.5,51,9.2,20000,11.112,18.52,,220,,,0,,,,,,,0,og-post,,,,AAXX 04114 07070 24970 /2206 10196 20092 39944 40050 58005 700// 333 60005 90710 91110=
07070,2012-05-04 12:00:00,19.9,1004.5,-0.9,56,10.9,20000,7.408,18.52,,290,,,0,0,,,,,,0,og-post,,,,AAXX 04124 07070 04870 72904 10199 20109 39940 40045 58009 60001 700// 333 60007 90710 91110 555 60005=
07070,2012-05-04 13:00:00,19.8,1004.1,-1.1,54,10.2,20000,7.408,12.964,,330,,,,,,,,,,0,og-post,,,,AAXX 04134 07070 24970 73304 10198 20102 39936 40041 57011 700// 333 69905 90710 91107=
07070,2012-05-04 14:00:00,20,1003.6,-1.3,51,9.5,20000,5.556,18.52,,260,,,0,,,,,,,0,og-post,,,,AAXX 04144 07070 24970 72603 10200 20095 39931 40036 58013 700// 333 60005 90710 91110=
07070,2012-05-04 15:00:00,20.3,1002.7,-1.8,58,11.8,20000,11.112,14.816,,20,,,0,,,,,,,0,og-post,,,,AAXX 04154 07070 24970 /0206 10203 20118 39922 40027 58018 700// 333 69907 90710 91108 555 60005=
07070,2012-05-04 16:00:00,19,1002.3,-1.8,64,12,20000,7.408,12.964,,50,,,0,,,,,,,0,og-post,,,,AAXX 04164 07070 24970 /0504 10190 20120 39918 40023 56018 700// 333 60005 90710 91107=
07070,2012-05-04 17:00:00,15.6,1002.7,-1.1,74,11,19000,7.408,24.076,,270,,,0.2,,,,,,,63,og-post,,,,AAXX 04174 07070 24669 82704 10156 20110 39920 40027 55011 763// 333 69925 90710 91113=
07070,2012-05-04 18:00:00,15.4,1003.1,0.2,82,12.3,20000,9.26,18.52,,270,10.7,21,0.2,0.4,,0.4,,,,61,og-post,,,,AAXX 04184 07070 04770 82705 10154 20123 39924 40031 53002 69942 761// 333 10210 20107 69947 90710 91110 555 69925=
07070,2012-05-04 19:00:00,14.7,1003.2,0.7,87,12.6,20000,7.408,12.964,,70,,,0.2,,,,,,,0,og-post,,,,AAXX 04194 07070 24570 80704 10147 20126 39925 40032 51007 700// 333 69925 90710 91107=
07070,2012-05-04 20:00:00,13.5,1003.3,0.6,90,11.9,20000,11.112,20.372,,90,,,0,,,,,,,0,og-post,,,,AAXX 04204 07070 24570 80906 10135 20119 39926 40033 51006 700// 333 60005 90710 91111=
07070,2012-05-04 21:00:00,13.2,1003.3,0.1,92,11.9,9000,9.26,16.668,,180,,,4,5,,,,,,61,og-post,,,,AAXX 04214 07070 24559 81805 10132 20119 39925 40033 50001 761// 333 60057 90710 91109 555 60045=
07070,2012-05-04 22:00:00,13.3,1003.4,0.1,93,12.2,19000,9.26,18.52,,230,,,0.8,,,,,,,53,og-post,,,,AAXX 04224 07070 24569 82305 10133 20122 39926 40034 52001 753// 333 69985 90710 91110=
07070,2012-05-04 23:00:00,12.5,1003.4,-0,92,11.2,20000,3.704,14.816,,250,,,0.8,,,,,,,0,og-post,,,,AAXX 04234 07070 24670 82502 10125 20112 39926 40034 55000 700// 333 69985 90710 91108=
07070,2012-05-05 00:00:00,11.9,1003.2,-0.1,92,10.6,20000,7.408,7.408,,210,,,0,2,6,,,,,0,og-post,,,,AAXX 05004 07070 04770 82104 10119 20106 39924 40032 58001 60061 700// 333 60027 90710 91104 555 60005=
07070,2012-05-05 01:00:00,11.7,1003.1,-0.3,94,10.8,9000,3.704,7.408,,180,,,0,,,,,,,0,og-post,,,,AAXX 05014 07070 24559 81802 10117 20108 39923 40031 58003 700// 333 60005 90710 91104=
07070,2012-05-05 02:00:00,12.2,1002.9,-0.5,95,11.4,19000,3.704,11.112,,230,,,0,,,,,,,0,og-post,,,,AAXX 05024 07070 24569 82302 10122 20114 39921 40029 57005 700// 333 60005 90710 91106=
07070,2012-05-05 03:00:00,11.8,1002.8,-0.4,95,11,13000,5.556,7.408,,210,,,0,0,,,,,,0,og-post,,,,AAXX 05034 07070 24463 82103 10118 20110 39920 40028 57004 700// 333 60007 90710 91104 555 60005=
07070,2012-05-05 04:00:00,12,1002.8,-0.3,93,10.9,20000,5.556,11.112,,260,,,0,,,,,,,0,og-post,,,,AAXX 05044 07070 24470 82603 10120 20109 39920 40028 56003 700// 333 60005 90710 91106=
07070,2012-05-05 05:00:00,12.1,1003.1,0.2,92,10.8,15000,7.408,16.668,,250,,,0,,,,,,,0,og-post,,,,AAXX 05054 07070 24465 82504 10121 20108 39923 40031 53002 700// 333 60005 90710 91109=
07070,2012-05-05 06:00:00,12.2,1003.7,0.9,92,10.9,13000,7.408,11.112,,240,11.6,15.4,0,0,,6,6.5,5.3,10,0,og-post,,,,AAXX 05064 07070 04363 82404 10122 20109 39929 40037 53009 60062 700// 333 10154 20116 31010 55053 60007 70065 90710 91106 555 60005=
07070,2012-05-05 07:00:00,12.8,1004.1,1.3,91,11.4,11000,9.26,12.964,,240,,,0,,,,,,,0,og-post,,,,AAXX 05074 07070 24361 82405 10128 20114 39933 40041 53013 700// 333 60005 90710 91107=
07070,2012-05-05 08:00:00,13.2,1004.5,1.4,84,10.6,9000,12.964,20.372,,280,,,0,,,,,,,0,og-post,,,,AAXX 05084 07070 24459 82807 10132 20106 39937 40045 51014 700// 333 60005 90710 91111=
07070,2012-05-05 09:00:00,13.2,1005.1,1.4,84,10.6,7000,12.964,22.224,,280,,,0,0,,,,,,0,og-post,,,,AAXX 05094 07070 24457 82807 10132 20106 39943 40051 53014 700// 333 60007 90710 91112 555 60005=
07070,2012-05-05 10:00:00,14.6,1005.2,1.2,77,10.6,13000,14.816,20.372,,250,,,0,,,,,,,0,og-post,,,,AAXX 05104 07070 24463 82508 10146 20106 39945 40052 51012 700// 333 60005 90710 91111=
07070,2012-05-05 11:00:00,15.8,1005.4,1,72,10.8,19000,12.964,22.224,,250,,,0,,,,,,,0,og-post,,,,AAXX 05114 07070 24569 82507 10158 20108 39947 40054 51010 700// 333 60005 90710 91112=
07070,2012-05-05 12:00:00,14.9,1005.3,0.3,79,11.3,16000,16.668,25.928,,310,,,,,,,,,,60,og-post,,,,AAXX 05124 07070 04466 73109 10149 20113 39946 40053 50003 69901 760// 333 69907 90710 91114 555 69905=
07070,2012-05-05 13:00:00,14.7,1005.3,0.1,75,10.3,20000,14.816,22.224,,310,,,,,,,,,,60,og-post,,,,AAXX 05134 07070 24570 73108 10147 20103 39946 40053 51001 760// 333 69905 90710 91112=
07070,2012-05-05 14:00:00,15.9,1004.9,-0.5,67,9.8,19000,18.52,25.928,,340,,,,,,,,,,0,og-post,,,,AAXX 05144 07070 24569 /3410 10159 20098 39942 40049 58005 700// 333 69905 90710 91114=
07070,2012-05-05 15:00:00,15.4,1005.3,-0,68,9.5,20000,11.112,24.076,,350,,,0,,,,,,,0,og-post,,,,AAXX 05154 07070 24570 73506 10154 20095 39946 40053 55000 700// 333 69907 90710 91113 555 60005=
07070,2012-05-05 16:00:00,15,1005.4,0.1,71,9.8,20000,11.112,20.372,,10,,,0,,,,,,,0,og-post,,,,AAXX 05164 07070 24570 80106 10150 20098 39947 40054 53001 700// 333 60005 90710 91111=
07070,2012-05-05 17:00:00,14,1005.8,0.8,77,10,20000,12.964,20.372,,10,,,0,,,,,,,0,og-post,,,,AAXX 05174 07070 24570 70107 10140 20100 39950 40058 51008 700// 333 60005 90710 91111=
07070,2012-05-05 18:00:00,12.4,1005.9,0.5,80,9,20000,11.112,22.224,,360,12.2,16.3,0,0,,,,,,0,og-post,,,,AAXX 05184 07070 04670 73606 10124 20090 39951 40059 52005 69902 700// 333 10163 20122 60007 90710 91112 555 60005=
07070,2012-05-05 19:00:00,11.6,1006.7,1.1,86,9.3,18000,7.408,16.668,,320,,,,,,,,,,61,og-post,,,,AAXX 05194 07070 24568 83204 10116 20093 39958 40067 53011 761// 333 69905 90710 91109=
07070,2012-05-05 20:00:00,10.8,1006.8,0.9,92,9.6,8000,11.112,16.668,,360,,,0.8,,,,,,,61,og-post,,,,AAXX 05204 07070 24558 83606 10108 20096 39959 40068 52009 761// 333 69985 90710 91109=
07070,2012-05-05 21:00:00,10.3,1006.8,0.8,93,9.2,9000,7.408,14.816,,10,,,,0.8,,,,,,0,og-post,,,,AAXX 05214 07070 24459 80104 10103 20092 39959 40068 51008 700// 333 69987 90710 91108 555 69905=
07070,2012-05-05 22:00:00,10.1,1006.7,0,92,8.9,7000,9.26,16.668,,30,,,,,,,,,,51,og-post,,,,AAXX 05224 07070 24457 80305 10101 20089 39958 40067 50000 751// 333 69905 90710 91109=
07070,2012-05-05 23:00:00,10,1006.9,0.1,92,8.8,6000,7.408,14.816,,20,,,,,,,,,,0,og-post,,,,AAXX 05234 07070 24456 80204 10100 20088 39960 40069 53001 700// 333 69905 90710 91108=
07070,2012-05-06 00:00:00,9.9,1006.8,-0,93,8.8,5000,7.408,11.112,,10,,,0,,0.8,,,,,0,og-post,,,,AAXX 06004 07070 04450 80104 10099 20088 39959 40068 54000 69981 700// 333 69907 90710 91106 555 60005=
07070,2012-05-06 01:00:00,9.8,1006.6,0.1,93,8.7,4700,7.408,12.964,,10,,,,,,,,,,61,og-post,,,,AAXX 06014 07070 24447 80104 10098 20087 39957 40066 50001 761// 333 69905 90710 91107=
07070,2012-05-06 02:00:00,9.6,1006.4,-0.5,95,8.8,3600,7.408,12.964,,10,,,0.8,,,,,,,60,og-post,,,,AAXX 06024 07070 24436 /0104 10096 20088 39955 40064 58005 760// 333 69985 90710 91107=
07070,2012-05-06 03:00:00,9.4,1006.2,-0.6,95,8.6,4000,7.408,11.112,,20,,,0.4,1,,,,,,10,og-post,,,,AAXX 06034 07070 24240 80204 10094 20086 39953 40062 57006 710// 333 60017 90710 91106 555 69945=
07070,2012-05-06 04:00:00,9.4,1006.2,-0.4,95,8.6,2300,7.408,11.112,,350,,,0.2,,,,,,,61,og-post,,,,AAXX 06044 07070 24223 83504 10094 20086 39953 40062 56004 761// 333 69925 90710 91106=
07070,2012-05-06 05:00:00,9.4,1006.5,0.1,96,8.8,2500,5.556,11.112,,350,,,0.6,,,,,,,62,og-post,,,,AAXX 06054 07070 24125 83503 10094 20088 39956 40065 53001 762// 333 69965 90710 91106=
07070,2012-05-06 06:00:00,9.5,1007.2,0.9,96,8.9,2100,5.556,11.112,,340,9.3,12.4,3,3,,5,5.4,1.5,9,63,og-post,,,,AAXX 06064 07070 04221 73403 10095 20089 39962 40072 53009 60052 763// 333 10124 20093 32009 55015 60037 70054 90710 91106 555 60035=
07070,2012-05-06 07:00:00,9.7,1007.5,1.3,96,9.1,3400,5.556,7.408,,330,,,3,,,,,,,63,og-post,,,,AAXX 06074 07070 24234 63303 10097 20091 39966 40075 53013 763// 333 60035 90710 91104=
07070,2012-05-06 08:00:00,9.9,1008.1,1.6,96,9.3,4000,9.26,12.964,,310,,,0.4,,,,,,,58,og-post,,,,AAXX 06084 07070 24240 83105 10099 20093 39972 40081 52016 758// 333 69945 90710 91107=
07070,2012-05-06 09:00:00,10.7,1008.8,1.7,95,9.9,15000,7.408,14.816,,340,,,0.6,4,,,,,,0,og-post,,,,AAXX 06094 07070 24265 83404 10107 20099 39979 40088 53017 700// 333 60047 90710 91108 555 69965=
07070,2012-05-06 10:00:00,11.1,1009.4,1.9,91,9.7,13000,12.964,18.52,,300,,,0,,,,,,,0,og-post,,,,AAXX 06104 07070 24363 83007 10111 20097 39985 40094 52019 700// 333 60005 90710 91110=
07070,2012-05-06 11:00:00,10.6,1010,1.9,91,9.2,11000,16.668,24.076,,310,,,0,,,,,,,0,og-post,,,,AAXX 06114 07070 24361 83109 10106 20092 39991 40100 52019 700// 333 60005 90710 91113=
07070,2012-05-06 12:00:00,12.1,1010.5,1.7,83,9.3,19000,16.668,22.224,,320,,,0,0,4,,,,,0,og-post,,,,AAXX 06124 07070 04469 83209 10121 20093 39996 40105 51017 60041 700// 333 60007 90710 91112 555 60005=
07070,2012-05-06 13:00:00,10.8,1011,1.6,87,8.7,17000,18.52,25.928,,280,,,0,,,,,,,0,og-post,,,,AAXX 06134 07070 24467 82810 10108 20087 30001 40110 51016 700// 333 60005 90710 91114=
07070,2012-05-06 14:00:00,10.8,1011.7,1.6,86,8.6,16000,16.668,24.076,,300,,,0,,,,,,,0,og-post,,,,AAXX 06144 07070 24466 83009 10108 20086 30007 40117 53016 700// 333 60005 90710 91113=
07070,2012-05-06 15:00:00,11.5,1011.8,1.3,81,8.4,19000,12.964,20.372,,320,,,0,0,,,,,,0,og-post,,,,AAXX 06154 07070 24469 83207 10115 20084 30009 40118 51013 700// 333 60007 90710 91111 555 60005=
07070,2012-05-06 16:00:00,10.9,1012.3,1.2,82,7.9,15000,14.816,20.372,,320,,,0,,,,,,,0,og-post,,,,AAXX 06164 07070 24465 83208 10109 20079 30013 40123 51012 700// 333 60005 90710 91111=
07070,2012-05-06 17:00:00,10.7,1012.7,1,83,7.9,11000,12.964,22.224,,300,,,0,,,,,,,0,og-post,,,,AAXX 06174 07070 24461 83007 10107 20079 30017 40127 53010 700// 333 60005 90710 91112=
07070,2012-05-06 18:00:00,10.3,1013.2,1.3,84,7.7,8000,12.964,18.52,,320,9.4,12.3,0,0,,4,,,,0,og-post,,,,AAXX 06184 07070 04458 63207 10103 20077 30022 40132 53013 60042 700// 333 10123 20094 60007 90710 91110 555 60005=
07070,2012-05-06 19:00:00,9.8,1014,1.7,87,7.7,6000,7.408,16.668,,300,,,0,,,,,,,0,og-post,,,,AAXX 06194 07070 24456 83004 10098 20077 30030 40140 53017 700// 333 60005 90710 91109=
07070,2012-05-06 20:00:00,9.6,1014.7,2,88,7.7,5000,5.556,12.964,,310,,,0,,,,,,,0,og-post,,,,AAXX 06204 07070 24450 83103 10096 20077 30037 40147 53020 700// 333 60005 90710 91107=
07070,2012-05-06 21:00:00,9.1,1015.1,1.8,90,7.5,4300,7.408,11.112,,300,,,0,0,,,,,,10,og-post,,,,AAXX 06214 07070 24543 83004 10091 20075 30040 40151 51018 710// 333 60007 90710 91106 555 60005=
07070,2012-05-06 22:00:00,8.9,1015.4,1.3,92,7.7,3600,9.26,14.816,,310,,,0,,,,,,,10,og-post,,,,AAXX 06224 07070 24536 83105 10089 20077 30043 40154 51013 710// 333 60005 90710 91108=
07070,2012-05-06 23:00:00,7.9,1015.9,1.1,93,6.8,2200,9.26,12.964,,320,,,0,,,,,,,10,og-post,,,,AAXX 06234 07070 24522 /3205 10079 20068 30048 40159 53011 710// 333 60005 90710 91107=
07070,2012-05-07 00:00:00,6.5,1016.1,0.9,94,5.6,1300,7.408,11.112,,340,,,0,0,,,,,,10,og-post,,,,AAXX 07004 07070 04413 /3404 10065 20056 30049 40161 51009 60001 710// 333 60007 90710 91106 555 60005=
07070,2012-05-07 01:00:00,6.6,1016.2,0.7,95,5.9,1300,3.704,7.408,,270,,,0,,,,,,,10,og-post,,,,AAXX 07014 07070 24613 /2702 10066 20059 30050 40162 51007 710// 333 60005 90710 91104=
07070,2012-05-07 02:00:00,6,1016.2,0.2,95,5.3,1000,,9.26,,,,,0,,,,,,,10,og-post,,,,AAXX 07024 07070 24910 60000 10060 20053 30050 40162 51002 710// 333 60005 90710 91105=
07070,2012-05-07 03:00:00,5.5,1016.8,0.7,96,4.9,300,7.408,11.112,,270,,,0,0,,,,,,45,og-post,,,,AAXX 07034 07070 24/03 92704 10055 20049 30056 40168 53007 745// 333 60007 90710 91106 555 60005=
07070,2012-05-07 04:00:00,6.8,1017,0.8,96,6.2,1900,1.852,12.964,,340,,,0,,,,,,,10,og-post,,,,AAXX 07044 07070 24419 83401 10068 20062 30058 40170 53008 710// 333 60005 90710 91107=
07070,2012-05-07 05:00:00,7.5,1017.5,1.4,96,6.9,1900,,3.704,,,,,0,,,,,,,10,og-post,,,,AAXX 07054 07070 24519 70000 10075 20069 30064 40175 52014 710// 333 60005 90710 91102=
07070,2012-05-07 06:00:00,8.4,1018,1.3,96,7.8,2700,3.704,5.556,,50,5.2,10.3,0,0,,,3.7,0.2,2,10,og-post,,,,AAXX 07064 07070 04127 /0502 10084 20078 30069 40180 53013 60002 710// 333 10103 20052 30002 55002 60007 70037 90710 91103 555 60005=
07070,2012-05-07 07:00:00,9.4,1018.3,1.4,90,7.8,3800,,5.556,,,,,0,,,,,,,10,og-post,,,,AAXX 07074 07070 24238 60000 10094 20078 30072 40183 51014 710// 333 60005 90710 91103=
07070,2012-05-07 08:00:00,9.7,1018.6,1.1,86,7.5,5000,7.408,11.112,,260,,,0,,,,,,,10,og-post,,,,AAXX 07084 07070 24350 /2604 10097 20075 30075 40186 51011 710// 333 60005 90710 91106=
07070,2012-05-07 09:00:00,13.3,1018.4,0.6,68,7.5,10000,3.704,11.112,,140,,,0,0,,,,,,0,og-post,,,,AAXX 07094 07070 24460 /1402 10133 20075 30075 40184 51006 700// 333 60007 90710 91106 555 60005=
07070,2012-05-07 10:00:00,14.1,1018.4,0.3,63,7.2,15000,1.852,11.112,,210,,,0,,,,,,,0,og-post,,,,AAXX 07104 07070 24665 /2101 10141 20072 30075 40184 51003 700// 333 60005 90710 91106=
07070,2012-05-07 11:00:00,14.6,1018.2,-0.2,60,6.9,19000,5.556,14.816,,340,,,0,,,,,,,0,og-post,,,,AAXX 07114 07070 24669 73403 10146 20069 30073 40182 58002 700// 333 60005 90710 91108=
07070,2012-05-07 12:00:00,15.9,1017.8,-0.5,57,7.4,19000,3.704,14.816,,20,,,0,0,,,,,,0,og-post,,,,AAXX 07124 07070 04669 70202 10159 20074 30070 40178 58005 60001 700// 333 60007 90710 91108 555 60005=
07070,2012-05-07 13:00:00,15.6,1017.5,-0.8,54,6.3,20000,11.112,33.336,,210,,,0,,,,,,,0,og-post,,,,AAXX 07134 07070 24670 82106 10156 20063 30067 40175 57008 700// 333 60005 90710 91118=
07070,2012-05-07 14:00:00,15.5,1017.3,-0.8,56,6.8,20000,9.26,18.52,,170,,,0,,,,,,,0,og-post,,,,AAXX 07144 07070 24670 81705 10155 20068 30065 40173 56008 700// 333 60005 90710 91110=
07070,2012-05-07 15:00:00,15.6,1016.9,-0.9,65,9,20000,12.964,22.224,,160,,,0,0,,,,,,0,og-post,,,,AAXX 07154 07070 24670 71607 10156 20090 30061 40169 58009 700// 333 60007 90710 91112 555 60005=
07070,2012-05-07 16:00:00,15.6,1016.7,-0.8,66,9.3,20000,16.668,24.076,,150,,,0,,,,,,,0,og-post,,,,AAXX 07164 07070 24970 /1509 10156 20093 30059 40167 57008 700// 333 60005 90710 91113=
07070,2012-05-07 17:00:00,15.2,1016.3,-1,66,8.9,20000,12.964,18.52,,160,,,0,,,,,,,0,og-post,,,,AAXX 07174 07070 24670 61607 10152 20089 30055 40163 57010 700// 333 60005 90710 91110=
07070,2012-05-07 18:00:00,14.7,1016.4,-0.6,67,8.6,20000,14.816,20.372,,180,8.4,16.4,0,0,,,,,,0,og-post,,,,AAXX 07184 07070 04870 81808 10147 20086 30055 40164 56006 60002 700// 333 10164 20084 60007 90710 91111 555 60005=
07070,2012-05-07 19:00:00,12.7,1016.4,-0.4,81,9.5,20000,9.26,16.668,,160,,,0,,,,,,,0,og-post,,,,AAXX 07194 07070 24970 71605 10127 20095 30055 40164 56004 700// 333 60005 90710 91109=
07070,2012-05-07 20:00:00,11.2,1016.7,0.2,87,9.1,17000,11.112,14.816,,170,,,0,,,,,,,0,og-post,,,,AAXX 07204 07070 24967 81706 10112 20091 30057 40167 53002 700// 333 60005 90710 91108=
07070,2012-05-07 21:00:00,9.4,1016.5,-0.1,89,7.7,19000,11.112,12.964,,170,,,0,0,,,,,,0,og-post,,,,AAXX 07214 07070 24969 /1706 10094 20077 30054 40165 58001 700// 333 60007 90710 91107 555 60005=
07070,2012-05-07 22:00:00,10,1016.2,-0.3,88,8.1,20000,12.964,16.668,,170,,,0,,,,,,,0,og-post,,,,AAXX 07224 07070 24970 /1707 10100 20081 30052 40162 58003 700// 333 60005 90710 91109=
07070,2012-05-07 23:00:00,11.2,1015.9,-0.8,85,8.8,20000,7.408,14.816,,180,,,0,,,,,,,0,og-post,,,,AAXX 07234 07070 24870 81804 10112 20088 30049 40159 57008 700// 333 60005 90710 91108=
07070,2012-05-08 00:00:00,9.9,1015.1,-1.3,86,7.7,20000,5.556,9.26,,170,,,0,0,,,,,,0,og-post,,,,AAXX 08004 07070 04970 /1703 10099 20077 30041 40151 58013 60001 700// 333 60007 90710 91105 555 60005=
07070,2012-05-08 01:00:00,9.6,1014.7,-1.5,85,7.2,20000,14.816,18.52,,180,,,0,,,,,,,0,og-post,,,,AAXX 08014 07070 24970 /1808 10096 20072 30037 40147 57015 700// 333 60005 90710 91110=
07070,2012-05-08 02:00:00,10.2,1014.1,-1.8,82,7.3,20000,20.372,27.78,,170,,,0,,,,,,,0,og-post,,,,AAXX 08024 07070 24970 81711 10102 20073 30031 40141 56018 700// 333 60005 90710 91115=
07070,2012-05-08 03:00:00,10.6,1013.7,-1.4,79,7.1,20000,16.668,27.78,,170,,,0,0,,,,,,0,og-post,,,,AAXX 08034 07070 24970 81709 10106 20071 30027 40137 57014 700// 333 60007 90710 91115 555 60005=
07070,2012-05-08 04:00:00,10,1012.9,-1.8,80,6.7,20000,12.964,25.928,,180,,,0,,,,,,,0,og-post,,,,AAXX 08044 07070 24970 61807 10100 20067 30019 40129 58018 700// 333 60005 90710 91114=
07070,2012-05-08 05:00:00,10.1,1012.4,-1.7,81,7,20000,16.668,25.928,,160,,,0,,,,,,,0,og-post,,,,AAXX 08054 07070 24970 /1609 10101 20070 30014 40124 58017 700// 333 60005 90710 91114=
07070,2012-05-08 06:00:00,11.5,1012,-1.6,74,7,20000,20.372,31.484,,160,9.2,14.7,0,0,,,0,6.1,8,0,og-post,,,,AAXX 08064 07070 04970 81611 10115 20070 30011 40120 56016 60002 700// 333 10147 20092 30008 55061 60007 70000 90710 91117 555 60005=
07070,2012-05-08 07:00:00,12.9,1011.7,-1.1,68,7.1,20000,24.076,40.744,,180,,,0,,,,,,,0,og-post,,,,AAXX 08074 07070 24970 81813 10129 20071 30008 40117 56011 700// 333 60005 90710 91122=
07070,2012-05-08 08:00:00,14.6,1011.6,-0.6,68,8.8,20000,24.076,38.892,,180,,,0,,,,,,,0,og-post,,,,AAXX 08084 07070 24970 /1813 10146 20088 30008 40116 56006 700// 333 60005 90710 91121=
07070,2012-05-08 09:00:00,15.6,1011.5,-0.4,68,9.7,20000,16.668,31.484,,180,,,0,0,,,,,,0,og-post,,,,AAXX 08094 07070 24970 81809 10156 20097 30007 40115 56004 700// 333 60007 90710 91117 555 60005=
07070,2012-05-08 10:00:00,16.6,1011.1,-0.4,70,11.1,20000,20.372,29.632,,170,,,0,,,,,,,0,og-post,,,,AAXX 08104 07070 24670 81711 10166 20111 30004 40111 58004 700// 333 60005 90710 91116=
07070,2012-05-08 11:00:00,17.3,1010.9,-0.6,69,11.6,20000,20.372,33.336,,170,,,0,,,,,,,0,og-post,,,,AAXX 08114 07070 24770 81711 10173 20116 30002 40109 58006 700// 333 60005 90710 91118=
07070,2012-05-08 12:00:00,19.4,1010.5,-0.8,62,11.9,20000,20.372,35.188,,210,,,0,0,,,,,,0,og-post,,,,AAXX 08124 07070 04970 /2111 10194 20119 39999 40105 57008 60001 700// 333 60007 90710 91119 555 60005=
07070,2012-05-08 13:00:00,18.6,1010.6,-0.4,66,12.1,20000,20.372,40.744,,200,,,0,,,,,,,0,og-post,,,,AAXX 08134 07070 24670 82011 10186 20121 30000 40106 55004 700// 333 60005 90710 91122=
07070,2012-05-08 14:00:00,18.1,1010.7,-0.2,67,11.9,20000,14.816,37.04,,240,,,0,,,,,,,0,og-post,,,,AAXX 08144 07070 24570 82408 10181 20119 30000 40107 56002 700// 333 60005 90710 91120=
07070,2012-05-08 15:00:00,17.1,1010.6,0,78,13.2,20000,18.52,35.188,,190,,,,,,,,,,61,og-post,,,,AAXX 08154 07070 24570 71910 10171 20132 39999 40106 50000 761// 333 69907 90710 91119 555 69905=
07070,2012-05-08 16:00:00,17.6,1010.7,-0,77,13.5,20000,18.52,35.188,,200,,,,,,,,,,60,og-post,,,,AAXX 08164 07070 24570 72010 10176 20135 30000 40107 55000 760// 333 69905 90710 91119=
07070,2012-05-08 17:00:00,16.6,1010.5,-0.2,81,13.3,17000,20.372,33.336,,170,,,,,,,,,,61,og-post,,,,AAXX 08174 07070 24467 81711 10166 20133 39998 40105 58002 761// 333 69905 90710 91118=
07070,2012-05-08 18:00:00,15.4,1010.5,-0.1,90,13.8,20000,12.964,35.188,,190,11.5,19.4,0.2,0.2,,0.2,,,,0,og-post,,,,AAXX 08184 07070 04470 81907 10154 20138 39998 40105 58001 69922 700// 333 10194 20115 69927 90710 91119 555 69925=
07070,2012-05-08 19:00:00,15,1010.4,-0.4,89,13.2,20000,12.964,25.928,,190,,,0,,,,,,,0,og-post,,,,AAXX 08194 07070 24670 61907 10150 20132 39996 40104 57004 700// 333 60005 90710 91114=
07070,2012-05-08 20:00:00,13.7,1010.9,0.3,93,12.6,20000,9.26,18.52,,190,,,0,,,,,,,0,og-post,,,,AAXX 08204 07070 24970 /1905 10137 20126 30001 40109 53003 700// 333 60005 90710 91110=
07070,2012-05-08 21:00:00,12.9,1010.9,0.2,94,12,19000,9.26,16.668,,160,,,0,0,,,,,,0,og-post,,,,AAXX 08214 07070 24969 /1605 10129 20120 30000 40109 53002 700// 333 60007 90710 91109 555 60005=
07070,2012-05-08 22:00:00,13.7,1011,0.6,93,12.6,20000,11.112,20.372,,170,,,0,,,,,,,0,og-post,,,,AAXX 08224 07070 24770 /1706 10137 20126 30002 40110 51006 700// 333 60005 90710 91111=
07070,2012-05-08 23:00:00,14.7,1011.3,0.4,93,13.6,20000,16.668,25.928,,200,,,0,,,,,,,0,og-post,,,,AAXX 08234 07070 24570 /2009 10147 20136 30005 40113 53004 700// 333 60005 90710 91114=
07070,2012-05-09 00:00:00,15,1011.7,0.9,90,13.4,20000,12.964,24.076,,210,,,0,0,,,,,,0,og-post,,,,AAXX 09004 07070 04470 82107 10150 20134 30009 40117 53009 60001 700// 333 60007 90710 91113 555 60005=
07070,2012-05-09 01:00:00,15.2,1011.5,0.5,88,13.2,20000,9.26,22.224,,210,,,0,,,,,,,0,og-post,,,,AAXX 09014 07070 24470 82105 10152 20132 30007 40115 50005 700// 333 60005 90710 91112=
07070,2012-05-09 02:00:00,14.9,1011.3,0,87,12.8,20000,12.964,27.78,,210,,,0,,,,,,,0,og-post,,,,AAXX 09024 07070 24470 82107 10149 20128 30005 40113 50000 700// 333 60005 90710 91115=
07070,2012-05-09 03:00:00,14.8,1011.3,-0.4,88,12.8,20000,7.408,20.372,,210,,,0,0,,,,,,0,og-post,,,,AAXX 09034 07070 24470 82104 10148 20128 30005 40113 56004 700// 333 60007 90710 91111 555 60005=
07070,2012-05-09 04:00:00,15,1011.5,-0,86,12.7,20000,9.26,16.668,,230,,,0,,,,,,,0,og-post,,,,AAXX 09044 07070 24470 82305 10150 20127 30007 40115 55000 700// 333 60005 90710 91109=
07070,2012-05-09 05:00:00,14.9,1011.9,0.6,88,12.9,20000,7.408,20.372,,210,,,,,,,,,,0,og-post,,,,AAXX 09054 07070 24470 82104 10149 20129 30011 40119 53006 700// 333 69905 90710 91111=
07070,2012-05-09 06:00:00,14.8,1012,0.7,91,13.3,9000,7.408,16.668,,200,12.4,15.4,0.4,0.4,,0.4,0.6,1.8,11,61,og-post,,,,AAXX 09064 07070 04459 82004 10148 20133 30012 40120 51007 69942 761// 333 10154 20124 32011 55018 69947 70006 90710 91109 555 69945=
07070,2012-05-09 07:00:00,15.6,1012.4,0.9,90,14,16000,11.112,20.372,,210,,,,,,,,,,0,og-post,,,,AAXX 09074 07070 24466 82106 10156 20140 30016 40124 52009 700// 333 69905 90710 91111=
07070,2012-05-09 08:00:00,16.4,1012.7,0.9,89,14.6,19000,12.964,24.076,,220,,,0,,,,,,,0,og-post,,,,AAXX 09084 07070 24469 82207 10164 20146 30020 40127 53009 700// 333 60005 90710 91113=
07070,2012-05-09 10:00:00,19,1013.4,1.2,78,15.1,20000,20.372,31.484,,250,,,0,,,,,,,0,og-post,,,,AAXX 09104 07070 24470 72511 10190 20151 30028 40134 52012 700// 333 60005 90710 91117=
07070,2012-05-09 11:00:00,20,1013.9,1.3,73,15,20000,22.224,37.04,,260,,,0,,,,,,,0,og-post,,,,AAXX 09114 07070 24570 62612 10200 20150 30033 40139 53013 700// 333 60005 90710 91120=
07070,2012-05-09 12:00:00,20,1014.3,1.3,69,14.1,20000,29.632,44.448,,250,,,0,0,0.2,,,,,0,og-post,,,,AAXX 09124 07070 04570 62516 10200 20141 30037 40143 52013 69921 700// 333 60007 90710 91124 555 60005=
07070,2012-05-09 13:00:00,21.1,1014.6,1.2,61,13.3,20000,24.076,42.596,,240,,,0,,,,,,,0,og-post,,,,AAXX 09134 07070 24670 72413 10211 20133 30040 40146 51012 700// 333 60005 90710 91123=
07070,2012-05-09 14:00:00,21.4,1014.8,0.9,59,13.1,20000,25.928,46.3,,250,,,0,,,,,,,0,og-post,,,,AAXX 09144 07070 24670 /2514 10214 20131 30042 40148 51009 700// 333 60005 90710 91125=
07070,2012-05-09 15:00:00,21.5,1015.3,1,57,12.6,19000,29.632,46.3,,250,,,0,0,,,,,,0,og-post,,,,AAXX 09154 07070 24669 /2516 10215 20126 30047 40153 53010 700// 333 60007 90710 91125 555 60005=
07070,2012-05-09 16:00:00,21.1,1015.3,0.7,60,13,20000,24.076,42.596,,230,,,0,,,,,,,0,og-post,,,,AAXX 09164 07070 24670 62313 10211 20130 30047 40153 51007 700// 333 60005 90710 91123=
07070,2012-05-09 17:00:00,20.6,1015.7,0.9,62,13.1,20000,16.668,35.188,,240,,,0,,,,,,,0,og-post,,,,AAXX 09174 07070 24870 /2409 10206 20131 30051 40157 51009 700// 333 60005 90710 91119=
07070,2012-05-09 18:00:00,20.8,1015.6,0.3,65,14,20000,12.964,27.78,,230,14.8,22.1,0,0,,0.2,,,,0,og-post,,,,AAXX 09184 07070 04670 /2307 10208 20140 30050 40156 50003 69922 700// 333 10221 20148 60007 90710 91115 555 60005=
07070,2012-05-09 19:00:00,18.3,1015.9,0.5,74,13.6,20000,9.26,24.076,,220,,,0,,,,,,,0,og-post,,,,AAXX 09194 07070 24970 /2205 10183 20136 30052 40159 51005 700// 333 60005 90710 91113=
07070,2012-05-09 20:00:00,15.7,1016.7,0.8,87,13.5,12000,12.964,16.668,,160,,,,,,,,,,0,og-post,,,,AAXX 09204 07070 24962 /1607 10157 20135 30059 40167 53008 700// 333 69905 90710 91109=
07070,2012-05-09 21:00:00,15.2,1017.3,1.5,90,13.6,20000,12.964,16.668,,160,,,0,,,,,,,0,og-post,,,,AAXX 09214 07070 24970 /1607 10152 20136 30065 40173 53015 700// 333 69907 90710 91109 555 60005=
07070,2012-05-09 22:00:00,15.3,1017.2,1.2,89,13.5,20000,11.112,16.668,,180,,,0,,,,,,,0,og-post,,,,AAXX 09224 07070 24970 /1806 10153 20135 30064 40172 50012 700// 333 60005 90710 91109=
07070,2012-05-09 23:00:00,14.9,1017.2,0.5,90,13.3,20000,11.112,16.668,,170,,,0,,,,,,,0,og-post,,,,AAXX 09234 07070 24970 /1706 10149 20133 30064 40172 51005 700// 333 60005 90710 91109=
07070,2012-05-10 00:00:00,14.8,1017.2,-0.1,90,13.2,20000,7.408,12.964,,190,,,0,0,,,,,,0,og-post,,,,AAXX 10004 07070 04970 /1904 10148 20132 30064 40172 56001 69901 700// 333 60007 90710 91107 555 60005=
07070,2012-05-10 01:00:00,14.9,1017,-0.2,91,13.4,20000,14.816,18.52,,170,,,0,,,,,,,0,og-post,,,,AAXX 10014 07070 24970 /1708 10149 20134 30062 40170 58002 700// 333 60005 90710 91110=
07070,2012-05-10 02:00:00,15.1,1016.4,-0.8,90,13.5,20000,16.668,24.076,,170,,,0,,,,,,,0,og-post,,,,AAXX 10024 07070 24970 /1709 10151 20135 30056 40164 58008 700// 333 60005 90710 91113=
07070,2012-05-10 03:00:00,14.6,1016.6,-0.6,92,13.3,18000,12.964,24.076,,180,,,0,0,,,,,,0,og-post,,,,AAXX 10034 07070 24968 61807 10146 20133 30058 40166 55006 700// 333 60007 90710 91113 555 60005=
07070,2012-05-10 04:00:00,14.8,1016.3,-0.7,91,13.3,19000,12.964,20.372,,190,,,0,,,,,,,0,og-post,,,,AAXX 10044 07070 24969 81907 10148 20133 30055 40163 56007 700// 333 60005 90710 91111=
07070,2012-05-10 05:00:00,15.3,1016.4,-0,89,13.5,20000,11.112,22.224,,170,,,0,,,,,,,0,og-post,,,,AAXX 10054 07070 24970 /1706 10153 20135 30056 40164 54000 700// 333 60005 90710 91112=
07070,2012-05-10 06:00:00,15.5,1016.7,0.1,90,13.9,19000,14.816,24.076,,160,14.2,20.8,0,0,,,0.2,5.5,13,0,og-post,,,,AAXX 10064 07070 04969 /1608 10155 20139 30059 40167 53001 69902 700// 333 10208 20142 31013 55055 60007 70002 90710 91113 555 60005=
07070,2012-05-10 07:00:00,18,1016.8,0.6,82,14.9,20000,14.816,29.632,,190,,,0,,,,,,,0,og-post,,,,AAXX 10074 07070 24970 /1908 10180 20149 30061 40168 53006 700// 333 60005 90710 91116=
07070,2012-05-10 08:00:00,20.2,1016.6,0.4,75,15.6,20000,14.816,31.484,,190,,,0,,,,,,,0,og-post,,,,AAXX 10084 07070 24970 /1908 10202 20156 30060 40166 50004 700// 333 60005 90710 91117=
07070,2012-05-10 09:00:00,22.3,1016.7,0.2,68,16.1,20000,18.52,27.78,,190,,,0,0,,,,,,0,og-post,,,,AAXX 10094 07070 24970 71910 10223 20161 30061 40167 51002 700// 333 60007 90710 91115 555 60005=
07070,2012-05-10 10:00:00,25.1,1016.7,0.1,58,16.3,18000,20.372,35.188,,220,,,0,,,,,,,0,og-post,,,,AAXX 10104 07070 24968 /2211 10251 20163 30062 40167 53001 700// 333 60005 90710 91119=
07070,2012-05-10 11:00:00,25.5,1016.5,0.1,60,17.2,20000,18.52,33.336,,230,,,0,,,,,,,0,og-post,,,,AAXX 10114 07070 24970 /2310 10255 20172 30061 40165 50001 700// 333 60005 90710 91118=
07070,2012-05-10 12:00:00,26.3,1016.5,0,56,16.8,20000,16.668,33.336,,220,,,0,0,,,,,,0,og-post,,,,AAXX 10124 07070 04970 82209 10263 20168 30061 40165 50000 60001 700// 333 60007 90710 91118 555 60005=
07070,2012-05-10 13:00:00,28.2,1016.4,-0.1,48,16.1,20000,22.224,38.892,,230,,,0,,,,,,,0,og-post,,,,AAXX 10134 07070 24970 62312 10282 20161 30061 40164 56001 700// 333 60005 90710 91121=
07070,2012-05-10 14:00:00,28.2,1015.9,-0.5,50,16.8,20000,24.076,40.744,,230,,,0,,,,,,,0,og-post,,,,AAXX 10144 07070 24970 72313 10282 20168 30056 40159 58005 700// 333 60005 90710 91122=
07070,2012-05-10 15:00:00,28,1015.7,-0.7,48,16,20000,22.224,42.596,,220,,,0,0,,,,,,0,og-post,,,,AAXX 10154 07070 24970 /2212 10280 20160 30054 40157 58007 700// 333 60007 90710 91123 555 60005=
07070,2012-05-10 16:00:00,28.1,1016,-0.4,51,17,20000,24.076,44.448,,220,,,0,,,,,,,0,og-post,,,,AAXX 10164 07070 24970 /2213 10281 20170 30057 40160 55004 700// 333 60005 90710 91124=
07070,2012-05-10 17:00:00,26.9,1016.3,0.3,46,14.3,20000,22.224,44.448,,220,,,0,,,,,,,0,og-post,,,,AAXX 10174 07070 24970 72212 10269 20143 30059 40163 53003 700// 333 60005 90710 91124=
07070,2012-05-10 18:00:00,26.4,1016.5,0.7,50,15.1,20000,14.816,33.336,,230,15.5,28.4,0,0,,,,,,0,og-post,,,,AAXX 10184 07070 04970 /2308 10264 20151 30061 40165 51007 60002 700// 333 10284 20155 60007 90710 91118 555 60005=
07070,2012-05-10 19:00:00,24.7,1017.2,1,58,15.9,20000,9.26,22.224,,250,,,0,,,,,,,0,og-post,,,,AAXX 10194 07070 24970 72505 10247 20159 30067 40172 53010 700// 333 60005 90710 91112=
07070,2012-05-10 20:00:00,23.5,1017.8,1.4,60,15.3,20000,11.112,18.52,,230,,,0,,,,,,,0,og-post,,,,AAXX 10204 07070 24970 82306 10235 20153 30073 40178 53014 700// 333 60005 90710 91110=
07070,2012-05-10 21:00:00,22.3,1018.5,1.8,64,15.2,20000,9.26,16.668,,230,,,0,0,,,,,,0,og-post,,,,AAXX 10214 07070 24970 82305 10223 20152 30079 40185 52018 700// 333 60007 90710 91109 555 60005=
07070,2012-05-10 22:00:00,20.7,1018.6,1.3,68,14.6,20000,11.112,18.52,,210,,,0,,,,,,,0,og-post,,,,AAXX 10224 07070 24970 82106 10207 20146 30080 40186 51013 700// 333 60005 90710 91110=
07070,2012-05-10 23:00:00,20.1,1018.7,0.7,70,14.5,20000,9.26,16.668,,210,,,0,,,,,,,0,og-post,,,,AAXX 10234 07070 24970 72105 10201 20145 30080 40187 51007 700// 333 60005 90710 91109=
07070,2012-05-11 00:00:00,20.5,1018.8,0.3,70,14.8,20000,11.112,16.668,,250,,,0,0,,,,,,0,og-post,,,,AAXX 11004 07070 04970 /2506 10205 20148 30082 40188 53003 60001 700// 333 60007 90710 91109 555 60005=
07070,2012-05-11 01:00:00,19.4,1018.7,0,76,15.1,20000,16.668,20.372,,240,,,0,,,,,,,0,og-post,,,,AAXX 11014 07070 24970 /2409 10194 20151 30080 40187 50000 700// 333 60005 90710 91111=
07070,2012-05-11 02:00:00,18.9,1018.7,0,80,15.4,20000,9.26,18.52,,240,,,0,,,,,,,0,og-post,,,,AAXX 11024 07070 24970 62405 10189 20154 30080 40187 50000 700// 333 60005 90710 91110=
07070,2012-05-11 03:00:00,16.2,1019.5,0.5,88,14.2,20000,3.704,11.112,,300,,,0,0,,,,,,0,og-post,,,,AAXX 11034 07070 24970 /3002 10162 20142 30087 40195 53005 700// 333 60007 90710 91106 555 60005=
07070,2012-05-11 04:00:00,15.9,1019.8,1,91,14.4,20000,1.852,9.26,,110,,,0,,,,,,,0,og-post,,,,AAXX 11044 07070 24970 61101 10159 20144 30090 40198 53010 700// 333 60005 90710 91105=
07070,2012-05-11 05:00:00,15.9,1020.2,1.4,93,14.8,20000,9.26,11.112,,150,,,0,,,,,,,0,og-post,,,,AAXX 11054 07070 24970 61505 10159 20148 30094 40202 51014 700// 333 60005 90710 91106=
07070,2012-05-11 06:00:00,18.7,1020.8,1.4,84,15.9,14000,3.704,9.26,,230,14.7,26.4,0,0,,,0,7,13,0,og-post,,,,AAXX 11064 07070 04964 72302 10187 20159 30101 40208 53014 60002 700// 333 10264 20147 30013 55070 60007 70000 90710 91105 555 60005=
07070,2012-05-11 07:00:00,19.8,1020.7,1,74,15,19000,7.408,12.964,,230,,,0,,,,,,,0,og-post,,,,AAXX 11074 07070 24969 82304 10198 20150 30100 40207 50010 700// 333 60005 90710 91107=
07070,2012-05-11 08:00:00,20.2,1021.4,1.3,71,14.8,20000,9.26,14.816,,270,,,0,,,,,,,0,og-post,,,,AAXX 11084 07070 24770 72705 10202 20148 30107 40214 52013 700// 333 60005 90710 91108=
07070,2012-05-11 09:00:00,16.9,1022.3,1.4,88,14.9,8000,5.556,25.928,,280,,,3,3,,,,,,63,og-post,,,,AAXX 11094 07070 24558 82803 10169 20149 30115 40223 53014 763// 333 60037 90710 91114 555 60035=
07070,2012-05-11 10:00:00,17.7,1022.5,1.7,88,15.7,15000,7.408,12.964,,260,,,0.4,,,,,,,60,og-post,,,,AAXX 11104 07070 24665 82604 10177 20157 30117 40225 51017 760// 333 69945 90710 91107=
07070,2012-05-11 11:00:00,18.4,1022.4,0.9,85,15.8,20000,12.964,20.372,,290,,,,,,,,,,0,og-post,,,,AAXX 11114 07070 24470 82907 10184 20158 30116 40224 50009 700// 333 69905 90710 91111=
07070,2012-05-11 12:00:00,17.9,1022.5,0.2,87,15.7,19000,11.112,24.076,,280,,,1,2,4,,,,,0,og-post,,,,AAXX 11124 07070 04569 72806 10179 20157 30117 40225 51002 60041 700// 333 60027 90710 91113 555 60015=
07070,2012-05-11 13:00:00,16.1,1023.6,1,91,14.6,9000,18.52,25.928,,340,,,0.4,,,,,,,0,og-post,,,,AAXX 11134 07070 24259 83410 10161 20146 30127 40236 53010 700// 333 69945 90710 91114=
07070,2012-05-11 14:00:00,15.6,1024.5,2,91,14.1,12000,11.112,25.928,,330,,,0,,,,,,,0,og-post,,,,AAXX 11144 07070 24362 83306 10156 20141 30136 40245 53020 700// 333 60005 90710 91114=
07070,2012-05-11 15:00:00,15.7,1024.7,2.1,87,13.5,16000,11.112,27.78,,330,,,0.2,0.6,,,,,,0,og-post,,,,AAXX 11154 07070 24466 83306 10157 20135 30138 40247 51021 700// 333 69967 90710 91115 555 69925=
07070,2012-05-11 16:00:00,15.7,1025,1.4,77,11.7,20000,16.668,27.78,,350,,,0,,,,,,,0,og-post,,,,AAXX 11164 07070 24570 73509 10157 20117 30141 40250 51014 700// 333 60005 90710 91115=
07070,2012-05-11 17:00:00,15.2,1025.4,0.9,77,11.2,20000,18.52,29.632,,340,,,,,,,,,,0,og-post,,,,AAXX 11174 07070 24670 73410 10152 20112 30145 40254 53009 700// 333 69905 90710 91116=
07070,2012-05-11 18:00:00,13.9,1026,1.2,74,9.3,20000,20.372,31.484,,350,13.9,20.5,0,,,5,,,,0,og-post,,,,AAXX 11184 07070 04970 83511 10139 20093 30150 40260 53012 60052 700// 333 10205 20139 69907 90710 91117 555 60005=
07070,2012-05-11 19:00:00,12.4,1027.1,1.9,77,8.5,20000,14.816,29.632,,350,,,0,,,,,,,0,og-post,,,,AAXX 11194 07070 24870 83508 10124 20085 30160 40271 53019 700// 333 60005 90710 91116=
07070,2012-05-11 20:00:00,11.8,1027.9,2.3,79,8.3,20000,16.668,22.224,,350,,,0,,,,,,,0,og-post,,,,AAXX 11204 07070 24970 83509 10118 20083 30168 40279 53023 700// 333 60005 90710 91112=
07070,2012-05-11 21:00:00,11.5,1028.5,2.4,77,7.6,20000,16.668,24.076,,330,,,0,0,,,,,,0,og-post,,,,AAXX 11214 07070 24970 83309 10115 20076 30174 40285 51024 700// 333 60007 90710 91113 555 60005=
07070,2012-05-11 22:00:00,11.3,1029.2,2.1,79,7.8,20000,18.52,25.928,,330,,,0,,,,,,,0,og-post,,,,AAXX 11224 07070 24970 83310 10113 20078 30181 40292 52021 700// 333 60005 90710 91114=
07070,2012-05-11 23:00:00,11,1028.9,1,81,7.9,20000,14.816,27.78,,330,,,0,,,,,,,0,og-post,,,,AAXX 11234 07070 24970 83308 10110 20079 30178 40289 50010 700// 333 60005 90710 91115=
07070,2012-05-12 00:00:00,10.7,1029.7,1.1,82,7.8,20000,14.816,27.78,,330,,,0,0,,,,,,0,og-post,,,,AAXX 12004 07070 04970 83308 10107 20078 30185 40297 52011 60001 700// 333 60007 90710 91115 555 60005=
07070,2012-05-12 01:00:00,10.6,1030.5,1.2,83,7.8,20000,14.816,25.928,,340,,,0,,,,,,,0,og-post,,,,AAXX 12014 07070 24970 83408 10106 20078 30193 40305 53012 700// 333 60005 90710 91114=
07070,2012-05-12 02:00:00,10.2,1030.9,1.9,86,8,19000,11.112,25.928,,350,,,0,,,,,,,0,og-post,,,,AAXX 12024 07070 24969 83506 10102 20080 30197 40309 51019 700// 333 60005 90710 91114=
07070,2012-05-12 03:00:00,9.9,1031.3,1.6,88,8,16000,9.26,20.372,,350,,,0,0,,,,,,0,og-post,,,,AAXX 12034 07070 24966 83505 10099 20080 30201 40313 51016 700// 333 60007 90710 91111 555 60005=
07070,2012-05-12 04:00:00,9.6,1031.8,1.3,89,7.9,13000,11.112,16.668,,350,,,0,,,,,,,0,og-post,,,,AAXX 12044 07070 24963 83506 10096 20079 30206 40318 53013 700// 333 60005 90710 91109=
07070,2012-05-12 05:00:00,9.7,1032.7,1.8,86,7.5,17000,14.816,24.076,,10,,,0,,,,,,,0,og-post,,,,AAXX 12054 07070 24967 80108 10097 20075 30215 40327 53018 700// 333 60005 90710 91113=
07070,2012-05-12 06:00:00,10.4,1033.4,2.1,80,7.1,14000,14.816,24.076,,10,9.4,13.8,0,0,,,4.8,0.6,9,0,og-post,,,,AAXX 12064 07070 04964 /0108 10104 20071 30222 40334 53021 60002 700// 333 10138 20094 30009 55006 60007 70048 90710 91113 555 60005=
07070,2012-05-12 07:00:00,11.1,1033.5,1.7,71,6,18000,16.668,25.928,,20,,,0,,,,,,,0,og-post,,,,AAXX 12074 07070 24968 /0209 10111 20060 30223 40335 51017 700// 333 60005 90710 91114=
07070,2012-05-12 08:00:00,11.5,1034.1,1.4,68,5.8,20000,18.52,27.78,,360,,,0,,,,,,,0,og-post,,,,AAXX 12084 07070 24570 /3610 10115 20058 30229 40341 51014 700// 333 60005 90710 91115=
07070,2012-05-12 09:00:00,11.3,1034.8,1.4,68,5.6,20000,18.52,33.336,,10,,,0,0,,,,,,0,og-post,,,,AAXX 12094 07070 24570 80110 10113 20056 30236 40348 53014 700// 333 60007 90710 91118 555 60005=
07070,2012-05-12 10:00:00,13.2,1035.1,1.7,56,4.6,20000,16.668,25.928,,20,,,0,,,,,,,0,og-post,,,,AAXX 12104 07070 24670 /0209 10132 20046 30240 40351 51017 700// 333 60005 90710 91114=
07070,2012-05-12 11:00:00,14.1,1035.3,1.3,53,4.7,20000,18.52,27.78,,10,,,0,,,,,,,0,og-post,,,,AAXX 12114 07070 24670 /0110 10141 20047 30242 40353 51013 700// 333 60005 90710 91115=
07070,2012-05-12 12:00:00,14.1,1035.2,0.5,56,5.4,20000,16.668,31.484,,10,,,0,0,,,,,,0,og-post,,,,AAXX 12124 07070 04670 /0109 10141 20054 30241 40352 50005 60001 700// 333 60007 90710 91117 555 60005=
07070,2012-05-12 13:00:00,14.1,1035.2,0.1,56,5.4,20000,20.372,31.484,,20,,,0,,,,,,,0,og-post,,,,AAXX 12134 07070 24670 70211 10141 20054 30241 40352 51001 700// 333 60005 90710 91117=
07070,2012-05-12 14:00:00,15.5,1034.8,-0.4,44,3.3,20000,18.52,31.484,,20,,,0,,,,,,,0,og-post,,,,AAXX 12144 07070 24770 /0210 10155 20033 30238 40348 58004 700// 333 60005 90710 91117=
07070,2012-05-12 15:00:00,15.6,1034.7,-0.4,52,5.8,20000,18.52,38.892,,350,,,0,0,,,,,,0,og-post,,,,AAXX 12154 07070 24670 63510 10156 20058 30237 40347 57004 700// 333 60007 90710 91121 555 60005=
07070,2012-05-12 16:00:00,15.1,1034.6,-0.5,50,4.7,20000,20.372,31.484,,10,,,0,,,,,,,0,og-post,,,,AAXX 12164 07070 24670 /0111 10151 20047 30236 40346 56005 700// 333 60005 90710 91117=
07070,2012-05-12 17:00:00,14.7,1034.6,-0.3,48,3.8,20000,18.52,35.188,,20,,,0,,,,,,,0,og-post,,,,AAXX 12174 07070 24770 /0210 10147 20038 30235 40346 57003 700// 333 60005 90710 91119=
07070,2012-05-12 18:00:00,13.5,1034.6,-0.2,52,3.8,20000,12.964,27.78,,20,9.8,16.4,0,0,,,,,,0,og-post,,,,AAXX 12184 07070 04770 80207 10135 20038 30235 40346 56002 60002 700// 333 10164 20098 60007 90710 91115 555 60005=
07070,2012-05-12 19:00:00,10.8,1034.9,0.1,64,4.3,20000,12.964,24.076,,10,,,0,,,,,,,0,og-post,,,,AAXX 12194 07070 24970 /0107 10108 20043 30237 40349 53001 700// 333 60005 90710 91113=
07070,2012-05-12 20:00:00,9,1035.3,0.5,73,4.4,20000,12.964,22.224,,10,,,0,,,,,,,0,og-post,,,,AAXX 12204 07070 24770 /0107 10090 20044 30240 40353 53005 700// 333 60005 90710 91112=
07070,2012-05-12 21:00:00,7.9,1035.7,0.9,76,3.9,20000,14.816,22.224,,10,,,0,0,,,,,,0,og-post,,,,AAXX 12214 07070 24970 /0108 10079 20039 30244 40357 53009 700// 333 60007 90710 91112 555 60005=
07070,2012-05-12 22:00:00,6.1,1035.9,0.8,85,3.8,20000,12.964,18.52,,360,,,0,,,,,,,0,og-post,,,,AAXX 12224 07070 24970 /3607 10061 20038 30245 40359 51008 700// 333 60005 90710 91110=
07070,2012-05-12 23:00:00,6,1035.9,0.5,85,3.7,20000,14.816,18.52,,360,,,0,,,,,,,0,og-post,,,,AAXX 12234 07070 24970 /3608 10060 20037 30245 40359 51005 700// 333 60005 90710 91110=
07070,2012-05-13 00:00:00,5.2,1035.4,-0.4,86,3,20000,14.816,22.224,,10,,,0,0,,,,,,0,og-post,,,,AAXX 13004 07070 04970 /0108 10052 20030 30240 40354 58004 60001 700// 333 60007 90710 91112 555 60005=
07070,2012-05-13 01:00:00,4.4,1035,-1,88,2.6,20000,11.112,18.52,,360,,,0,,,,,,,0,og-post,,,,AAXX 13014 07070 24970 /3606 10044 20026 30235 40350 58010 700// 333 60005 90710 91110=
07070,2012-05-13 02:00:00,3.5,1034.6,-1.4,88,1.7,20000,7.408,16.668,,330,,,0,,,,,,,0,og-post,,,,AAXX 13024 07070 24970 /3304 10035 20017 30231 40346 56014 700// 333 60005 90710 91109=
07070,2012-05-13 03:00:00,2.6,1034.1,-1.4,91,1.3,19000,7.408,11.112,,310,,,0,0,,,,,,0,og-post,,,,AAXX 13034 07070 24969 /3104 10026 20013 30226 40341 57014 700// 333 60007 90710 91106 555 60005=
07070,2012-05-13 04:00:00,1.6,1033.8,-1.3,92,0.4,12000,7.408,9.26,,330,,,0,,,,,,,0,og-post,,,,AAXX 13044 07070 24962 /3304 10016 20004 30222 40338 57013 700// 333 60005 90710 91105=
07070,2012-05-13 05:00:00,2.8,1033.8,-0.8,93,1.8,12000,7.408,12.964,,340,,,0,,,,,,,0,og-post,,,,AAXX 13054 07070 24962 /3404 10028 20018 30223 40338 55008 700// 333 60005 90710 91107=
07070,2012-05-13 06:00:00,5.3,1033.7,-0.3,86,3.1,17000,9.26,12.964,,360,1.6,13.6,0,0,,,0,8.6,-1,0,og-post,,,,AAXX 13064 07070 04967 /3605 10053 20031 30223 40337 56003 60002 700// 333 10136 20016 30101 55086 60007 70000 90710 91107 555 60005=
07070,2012-05-13 07:00:00,7.5,1033.3,-0.2,79,4.1,18000,11.112,18.52,,20,,,0,,,,,,,0,og-post,,,,AAXX 13074 07070 24968 /0206 10075 20041 30220 40333 58002 700// 333 60005 90710 91110=
07070,2012-05-13 08:00:00,9.9,1032.8,-0.7,70,4.7,18000,11.112,18.52,,40,,,0,,,,,,,0,og-post,,,,AAXX 13084 07070 24968 /0406 10099 20047 30216 40328 58007 700// 333 60005 90710 91110=
07070,2012-05-13 09:00:00,11.6,1032.4,-1.1,65,5.2,19000,9.26,20.372,,30,,,0,0,,,,,,0,og-post,,,,AAXX 13094 07070 24569 /0305 10116 20052 30212 40324 58011 700// 333 60007 90710 91111 555 60005=
07070,2012-05-13 10:00:00,11.9,1031.9,-1.2,58,3.9,19000,9.26,20.372,,360,,,0,,,,,,,0,og-post,,,,AAXX 13104 07070 24669 /3605 10119 20039 30208 40319 57012 700// 333 60005 90710 91111=
07070,2012-05-13 11:00:00,12.4,1031.4,-1.3,48,1.7,20000,11.112,31.484,,40,,,0,,,,,,,0,og-post,,,,AAXX 13114 07070 24670 /0406 10124 20017 30203 40314 58013 700// 333 60005 90710 91117=
07070,2012-05-13 12:00:00,13.3,1030.9,-1.4,48,2.5,20000,12.964,20.372,,10,,,0,0,,,,,,0,og-post,,,,AAXX 13124 07070 04670 /0107 10133 20025 30198 40309 57014 60001 700// 333 60007 90710 91111 555 60005=
07070,2012-05-13 13:00:00,14.2,1030,-1.8,49,3.6,20000,9.26,20.372,,80,,,0,,,,,,,0,og-post,,,,AAXX 13134 07070 24670 /0805 10142 20036 30190 40300 58018 700// 333 60005 90710 91111=
07070,2012-05-13 14:00:00,14.7,1028.9,-2.4,46,3.2,20000,7.408,24.076,,60,,,0,,,,,,,0,og-post,,,,AAXX 13144 07070 24670 /0604 10147 20032 30179 40289 58024 700// 333 60005 90710 91113=
07070,2012-05-13 15:00:00,14.3,1028.4,-2.4,44,2.2,20000,5.556,18.52,,350,,,0,0,,,,,,0,og-post,,,,AAXX 13154 07070 24670 /3503 10143 20022 30174 40284 56024 700// 333 60007 90710 91110 555 60005=
07070,2012-05-13 16:00:00,15.3,1027.7,-2.3,39,1.4,19000,5.556,20.372,,320,,,0,,,,,,,0,og-post,,,,AAXX 13164 07070 24969 /3203 10153 20014 30167 40277 56023 700// 333 60005 90710 91111=
07070,2012-05-13 17:00:00,15.1,1026.9,-2,44,2.9,20000,5.556,14.816,,340,,,0,,,,,,,0,og-post,,,,AAXX 13174 07070 24970 /3403 10151 20029 30159 40269 58020 700// 333 60005 90710 91108=
07070,2012-05-13 18:00:00,14.6,1026.4,-2,46,3.1,20000,5.556,12.964,,350,5.3,15.9,0,0,,,,,,0,og-post,,,,AAXX 13184 07070 04970 /3503 10146 20031 30154 40264 56020 60002 700// 333 10159 20053 60007 90710 91107 555 60005=
07070,2012-05-13 19:00:00,12.5,1026.1,-1.7,55,3.7,20000,3.704,7.408,,310,,,0,,,,,,,0,og-post,,,,AAXX 13194 07070 24970 /3102 10125 20037 30150 40261 56017 700// 333 60005 90710 91104=
07070,2012-05-13 20:00:00,9.4,1026.2,-0.9,71,4.4,20000,5.556,5.556,,320,,,0,,,,,,,0,og-post,,,,AAXX 13204 07070 24970 /3203 10094 20044 30150 40262 56009 700// 333 60005 90710 91103=
07070,2012-05-13 21:00:00,8,1025.9,-0.7,78,4.4,20000,3.704,5.556,,300,,,0,0,,,,,,0,og-post,,,,AAXX 13214 07070 24970 /3002 10080 20044 30147 40259 56007 700// 333 60007 90710 91103 555 60005=
07070,2012-05-13 22:00:00,7.6,1025.7,-0.5,76,3.6,20000,7.408,9.26,,310,,,0,,,,,,,0,og-post,,,,AAXX 13224 07070 24970 /3104 10076 20036 30145 40257 58005 700// 333 60005 90710 91105=
07070,2012-05-13 23:00:00,5.5,1025.3,-1,82,2.7,20000,5.556,7.408,,270,,,0,,,,,,,0,og-post,,,,AAXX 13234 07070 24970 /2703 10055 20027 30140 40253 58010 700// 333 60005 90710 91104=
07070,2012-05-14 00:00:00,4,1024.7,-1.4,88,2.2,20000,,5.556,,,,,0,0,,,,,,0,og-post,,,,AAXX 14004 07070 04970 /0000 10040 20022 30133 40247 58014 60001 700// 333 60007 90710 91103 555 60005=
07070,2012-05-14 01:00:00,4.3,1024.3,-1.6,88,2.5,19000,1.852,5.556,,250,,,0,,,,,,,0,og-post,,,,AAXX 14014 07070 24969 /2501 10043 20025 30129 40243 56016 700// 333 60005 90710 91103=
07070,2012-05-14 02:00:00,3.1,1023.9,-1.5,91,1.8,13000,,3.704,,,,,0,,,,,,,0,og-post,,,,AAXX 14024 07070 24963 /0000 10031 20018 30125 40239 56015 700// 333 60005 90710 91102=
07070,2012-05-14 03:00:00,2.5,1023.3,-1.4,93,1.5,12000,,,,,,,0,0,,,,,,0,og-post,,,,AAXX 14034 07070 24962 /0000 10025 20015 30119 40233 58014 700// 333 60007 90710 91100 555 60005=
07070,2012-05-14 04:00:00,1.7,1022.8,-1.6,94,0.8,10000,,,,,,,0,,,,,,,0,og-post,,,,AAXX 14044 07070 24960 /0000 10017 20008 30113 40228 58016 700// 333 60005 90710 91100=
07070,2012-05-14 05:00:00,3.1,1022.5,-1.4,94,2.2,15000,1.852,3.704,,190,,,0,,,,,,,0,og-post,,,,AAXX 14054 07070 24965 /1901 10031 20022 30111 40225 56014 700// 333 60005 90710 91102=
07070,2012-05-14 06:00:00,6.6,1022.3,-0.8,88,4.8,18000,,3.704,,,1.5,14.6,0,0,,,0,12.8,-2,0,og-post,,,,AAXX 14064 07070 04968 /0000 10066 20048 30111 40223 56008 60002 700// 333 10146 20015 30102 55128 60007 70000 90710 91102 555 60005=
07070,2012-05-14 07:00:00,11.1,1022,-0.4,70,5.8,19000,,3.704,,,,,0,,,,,,,0,og-post,,,,AAXX 14074 07070 24969 /0000 10111 20058 30109 40220 57004 700// 333 60005 90710 91102=
07070,2012-05-14 08:00:00,13.9,1021.4,-0.6,58,5.8,19000,1.852,7.408,,210,,,0,,,,,,,0,og-post,,,,AAXX 14084 07070 24969 /2101 10139 20058 30105 40214 58006 700// 333 60005 90710 91104=
07070,2012-05-14 09:00:00,14.8,1020.8,-1.2,43,2.3,20000,5.556,12.964,,270,,,0,0,,,,,,0,og-post,,,,AAXX 14094 07070 24970 /2703 10148 20023 30099 40208 58012 700// 333 60007 90710 91107 555 60005=
07070,2012-05-14 10:00:00,15.8,1020,-1.8,44,3.6,19000,7.408,20.372,,260,,,0,,,,,,,0,og-post,,,,AAXX 14104 07070 24969 /2604 10158 20036 30091 40200 58018 700// 333 60005 90710 91111=
07070,2012-05-14 11:00:00,16.3,1019.3,-2,48,5.3,19000,12.964,22.224,,250,,,0,,,,,,,0,og-post,,,,AAXX 14114 07070 24969 /2507 10163 20053 30085 40193 57020 700// 333 60005 90710 91112=
07070,2012-05-14 12:00:00,17.3,1018.4,-2.3,42,4.3,20000,11.112,22.224,,260,,,0,0,,,,,,0,og-post,,,,AAXX 14124 07070 04970 /2606 10173 20043 30076 40184 58023 60001 700// 333 60007 90710 91112 555 60005=
07070,2012-05-14 13:00:00,18.1,1017.4,-2.5,40,4.3,20000,11.112,31.484,,260,,,0,,,,,,,0,og-post,,,,AAXX 14134 07070 24970 /2606 10181 20043 30066 40174 58025 700// 333 60005 90710 91117=
07070,2012-05-14 14:00:00,18.5,1016.5,-2.7,38,3.9,19000,16.668,27.78,,270,,,0,,,,,,,0,og-post,,,,AAXX 14144 07070 24969 /2709 10185 20039 30058 40165 56027 700// 333 60005 90710 91115=
07070,2012-05-14 15:00:00,19.3,1015.7,-2.6,38,4.6,20000,16.668,25.928,,280,,,0,0,,,,,,0,og-post,,,,AAXX 14154 07070 24970 /2809 10193 20046 30050 40157 56026 700// 333 60007 90710 91114 555 60005=
07070,2012-05-14 16:00:00,19,1014.9,-2.4,36,3.6,20000,11.112,25.928,,280,,,0,,,,,,,0,og-post,,,,AAXX 14164 07070 24970 /2806 10190 20036 30042 40149 57024 700// 333 60005 90710 91114=
07070,2012-05-14 17:00:00,18.8,1014.4,-2.1,39,4.5,20000,9.26,22.224,,230,,,0,,,,,,,0,og-post,,,,AAXX 14174 07070 24970 /2305 10188 20045 30037 40144 56021 700// 333 60005 90710 91112=
07070,2012-05-14 18:00:00,18.3,1014.1,-1.6,38,3.7,20000,11.112,18.52,,280,6.6,19.4,0,0,,,,,,0,og-post,,,,AAXX 14184 07070 04970 /2806 10183 20037 30034 40141 56016 60002 700// 333 10194 20066 60007 90710 91110 555 60005=
07070,2012-05-14 19:00:00,15.4,1014,-1,45,3.5,20000,5.556,16.668,,280,,,0,,,,,,,0,og-post,,,,AAXX 14194 07070 24970 /2803 10154 20035 30032 40140 56010 700// 333 60005 90710 91109=
07070,2012-05-14 20:00:00,14.8,1014.1,-0.4,50,4.5,20000,7.408,11.112,,250,,,0,,,,,,,0,og-post,,,,AAXX 14204 07070 24870 72504 10148 20045 30033 40141 55004 700// 333 60005 90710 91106=
07070,2012-05-14 21:00:00,11.9,1014.5,0.2,64,5.3,20000,20.372,38.892,,340,,,0,0,,,,,,0,og-post,,,,AAXX 14214 07070 24870 /3411 10119 20053 30036 40145 53002 700// 333 60007 90710 91121 555 60005=
07070,2012-05-14 22:00:00,10.6,1014.9,0.7,63,3.8,20000,14.816,27.78,,360,,,0,,,,,,,0,og-post,,,,AAXX 14224 07070 24870 73608 10106 20038 30039 40149 53007 700// 333 60005 90710 91115=
07070,2012-05-14 23:00:00,9.8,1014.8,0.5,68,4.2,20000,14.816,29.632,,330,,,0,,,,,,,0,og-post,,,,AAXX 14234 07070 24770 83308 10098 20042 30038 40148 50005 700// 333 60005 90710 91116=
07070,2012-05-15 00:00:00,8.9,1014.6,-0.1,78,5.3,20000,11.112,20.372,,320,,,0,0,,,,,,0,og-post,,,,AAXX 15004 07070 04970 73206 10089 20053 30035 40146 58001 60001 700// 333 60007 90710 91111 555 60005=
07070,2012-05-15 01:00:00,8.7,1013.8,-1.2,80,5.4,20000,3.704,14.816,,320,,,0,,,,,,,0,og-post,,,,AAXX 15014 07070 24870 83202 10087 20054 30027 40138 58012 700// 333 60005 90710 91108=
07070,2012-05-15 02:00:00,9.1,1013.3,-1.5,77,5.3,20000,9.26,11.112,,270,,,,,,,,,,0,og-post,,,,AAXX 15024 07070 24870 82705 10091 20053 30023 40133 58015 700// 333 69905 90710 91106=
07070,2012-05-15 03:00:00,8.8,1013.4,-1.2,80,5.5,20000,9.26,16.668,,290,,,0,,,,,,,0,og-post,,,,AAXX 15034 07070 24770 82905 10088 20055 30023 40134 56012 700// 333 69907 90710 91109 555 60005=
07070,2012-05-15 04:00:00,8.9,1013.4,-0.4,81,5.8,20000,12.964,18.52,,260,,,,,,,,,,61,og-post,,,,AAXX 15044 07070 24570 82607 10089 20058 30023 40134 56004 761// 333 69905 90710 91110=
07070,2012-05-15 05:00:00,8.7,1013.7,0.3,83,6,20000,14.816,20.372,,270,,,,,,,,,,0,og-post,,,,AAXX 15054 07070 24470 72708 10087 20060 30026 40137 53003 700// 333 69905 90710 91111=
07070,2012-05-15 06:00:00,9.5,1013.5,0.2,77,5.7,19000,18.52,25.928,,270,8.6,18.2,0,,,,0,14,8,0,og-post,,,,AAXX 15064 07070 04469 /2710 10095 20057 30025 40135 50002 69902 700// 333 10182 20086 30008 55140 69907 79999 90710 91114 555 60005=
07070,2012-05-15 07:00:00,10.7,1013.1,-0.2,70,5.4,19000,24.076,33.336,,270,,,0,,,,,,,0,og-post,,,,AAXX 15074 07070 24569 /2713 10107 20054 30021 40131 58002 700// 333 60005 90710 91118=
07070,2012-05-15 08:00:00,10.7,1012.8,-0.8,68,5,20000,24.076,37.04,,270,,,0,,,,,,,0,og-post,,,,AAXX 15084 07070 24570 82713 10107 20050 30018 40128 58008 700// 333 60005 90710 91120=
07070,2012-05-15 09:00:00,9.3,1012.8,-0.7,79,5.8,20000,18.52,42.596,,260,,,0.2,0.2,,,,,,0,og-post,,,,AAXX 15094 07070 24/70 /2610 10093 20058 30018 40128 56007 700// 333 69927 90710 91123 555 69925=
07070,2012-05-15 10:00:00,12.3,1012,-1,61,5,20000,24.076,38.892,,270,,,0,,,,,,,0,og-post,,,,AAXX 15104 07070 24/70 /2713 10123 20050 30011 40120 58010 700// 333 60005 90710 91121=
07070,2012-05-15 11:00:00,12.2,1012.2,-0.5,53,2.9,20000,33.336,50.004,,280,,,0,,,,,,,0,og-post,,,,AAXX 15114 07070 24/70 /2818 10122 20029 30013 40122 55005 700// 333 60005 90710 91127=
07070,2012-05-15 12:00:00,9.8,1012.7,-0.1,74,5.4,20000,24.076,75.932,,270,,,0.2,0.2,0.4,,,,,0,og-post,,,,AAXX 15124 07070 04/70 /2713 10098 20054 30017 40127 55001 69941 700// 333 69927 90710 91141 555 69925=
07070,2012-05-15 13:00:00,11.4,1013.1,1,60,3.9,20000,31.484,44.448,,290,,,0,,,,,,,0,og-post,,,,AAXX 15134 07070 24/70 /2917 10114 20039 30021 40131 53010 700// 333 60005 90710 91124=
07070,2012-05-15 14:00:00,8.2,1014.1,1.7,76,4.2,20000,25.928,66.672,,300,,,,,,,,,,0,og-post,,,,AAXX 15144 07070 24/70 /3014 10082 20042 30030 40141 53017 700// 333 69905 90710 91136=
07070,2012-05-15 15:00:00,8.4,1014.4,1.6,74,4,20000,22.224,55.56,,300,,,0.2,0.2,,,,,,0,og-post,,,,AAXX 15154 07070 24/70 /3012 10084 20040 30033 40144 51016 700// 333 69927 90710 91130 555 69925=
07070,2012-05-15 16:00:00,8.5,1014.7,1.5,83,5.8,20000,14.816,37.04,,300,,,0.4,,,,,,,0,og-post,,,,AAXX 15164 07070 24/70 /3008 10085 20058 30036 40147 51015 700// 333 69945 90710 91120=
07070,2012-05-15 17:00:00,9.1,1015.4,1.3,76,5.1,20000,22.224,35.188,,310,,,0,,,,,,,0,og-post,,,,AAXX 15174 07070 24/70 /3112 10091 20051 30043 40154 53013 700// 333 60005 90710 91119=
07070,2012-05-15 18:00:00,8.1,1016.5,2.1,75,3.9,20000,24.076,38.892,,290,6.8,13.9,0,0.4,,1,,,,0,og-post,,,,AAXX 15184 07070 04/70 /2913 10081 20039 30054 40165 53021 60012 700// 333 10139 20068 69947 90710 91121 555 60005=
07070,2012-05-15 19:00:00,6,1017.5,2.7,87,4,20000,7.408,37.04,,290,,,1,,,,,,,0,og-post,,,,AAXX 15194 07070 24/70 /2904 10060 20040 30063 40175 53027 700// 333 60015 90710 91120=
07070,2012-05-15 20:00:00,6.1,1018.4,2.9,87,4.1,20000,14.816,24.076,,300,,,0,,,,,,,0,og-post,,,,AAXX 15204 07070 24/70 /3008 10061 20041 30072 40184 51029 700// 333 60005 90710 91113=
07070,2012-05-15 21:00:00,6.6,1019.3,2.7,88,4.8,11000,20.372,33.336,,300,,,,1,,,,,,61,og-post,,,,AAXX 15214 07070 24/61 /3011 10066 20048 30081 40193 52027 761// 333 60017 90710 91118 555 69905=
07070,2012-05-15 22:00:00,6.2,1019.6,2.1,89,4.5,20000,16.668,29.632,,310,,,0.2,,,,,,,0,og-post,,,,AAXX 15224 07070 24/70 /3109 10062 20045 30084 40196 51021 700// 333 69925 90710 91116=
07070,2012-05-15 23:00:00,6.7,1020.3,1.9,88,4.9,19000,18.52,31.484,,310,,,,,,,,,,51,og-post,,,,AAXX 15234 07070 24/69 /3110 10067 20049 30091 40203 51019 751// 333 69905 90710 91117=
07070,2012-05-16 00:00:00,6.4,1020.9,1.6,88,4.6,20000,18.52,31.484,,310,,,,0.2,1,,,,,0,og-post,,,,AAXX 16004 07070 04/70 /3110 10064 20046 30097 40209 53016 60011 700// 333 69927 90710 91117 555 69905=
07070,2012-05-16 01:00:00,5.4,1021.6,1.9,89,3.7,19000,16.668,31.484,,300,,,0,,,,,,,0,og-post,,,,AAXX 16014 07070 24/69 /3009 10054 20037 30103 40216 51019 700// 333 60005 90710 91117=
07070,2012-05-16 02:00:00,4.9,1022.1,1.7,89,3.2,19000,14.816,27.78,,310,,,0,,,,,,,0,og-post,,,,AAXX 16024 07070 24/69 /3108 10049 20032 30108 40221 51017 700// 333 60005 90710 91115=
07070,2012-05-16 03:00:00,4.4,1022.7,1.7,90,2.9,18000,14.816,24.076,,310,,,0,0,,,,,,0,og-post,,,,AAXX 16034 07070 24/68 /3108 10044 20029 30114 40227 52017 700// 333 60007 90710 91113 555 60005=
07070,2012-05-16 04:00:00,5,1023.4,1.8,90,3.5,19000,12.964,20.372,,300,,,0,,,,,,,0,og-post,,,,AAXX 16044 07070 24/69 /3007 10050 20035 30121 40234 53018 700// 333 60005 90710 91111=
07070,2012-05-16 05:00:00,4.8,1024.1,2,89,3.1,19000,14.816,22.224,,310,,,0,,,,,,,0,og-post,,,,AAXX 16054 07070 24/69 /3108 10048 20031 30128 40241 53020 700// 333 60005 90710 91112=
07070,2012-05-16 06:00:00,6,1024.8,2.1,87,4,19000,16.668,24.076,,310,4.2,8.1,0,0,,1,2.2,5.6,3,0,og-post,,,,AAXX 16064 07070 04/69 /3109 10060 20040 30135 40248 52021 60012 700// 333 10081 20042 31003 55056 60007 70022 90710 91113 555 60005=
07070,2012-05-16 07:00:00,7.7,1025.2,1.9,77,3.9,19000,18.52,27.78,,320,,,0,,,,,,,0,og-post,,,,AAXX 16074 07070 24/69 /3210 10077 20039 30140 40252 51019 700// 333 60005 90710 91115=
07070,2012-05-16 08:00:00,9.2,1025.8,1.8,72,4.4,19000,22.224,33.336,,350,,,0,,,,,,,0,og-post,,,,AAXX 16084 07070 24/69 /3512 10092 20044 30146 40258 51018 700// 333 60005 90710 91118=
07070,2012-05-16 09:00:00,10.5,1026.1,1.5,58,2.6,20000,18.52,33.336,,340,,,0,0,,,,,,0,og-post,,,,AAXX 16094 07070 24/70 /3410 10105 20026 30150 40261 51015 700// 333 60007 90710 91118 555 60005=
07070,2012-05-16 10:00:00,11,1026.2,1.1,59,3.3,20000,18.52,33.336,,350,,,0,,,,,,,0,og-post,,,,AAXX 16104 07070 24/70 /3510 10110 20033 30151 40262 51011 700// 333 60005 90710 91118=
07070,2012-05-16 11:00:00,11.6,1026.3,0.6,50,1.5,20000,20.372,33.336,,340,,,0,,,,,,,0,og-post,,,,AAXX 16114 07070 24/70 /3411 10116 20015 30152 40263 51006 700// 333 60005 90710 91118=
07070,2012-05-16 12:00:00,13.6,1026.4,0.4,43,1.2,19000,14.816,29.632,,330,,,0,0,,,,,,0,og-post,,,,AAXX 16124 07070 04/69 /3308 10136 20012 30154 40264 53004 60001 700// 333 60007 90710 91116 555 60005=
07070,2012-05-16 13:00:00,13.9,1026.3,0.2,43,1.5,20000,12.964,35.188,,300,,,0,,,,,,,0,og-post,,,,AAXX 16134 07070 24/70 /3007 10139 20015 30153 40263 50002 700// 333 60005 90710 91119=
07070,2012-05-16 14:00:00,13.9,1026.2,0,40,0.5,20000,14.816,29.632,,290,,,0,,,,,,,0,og-post,,,,AAXX 16144 07070 24/70 /2908 10139 20005 30152 40262 50000 700// 333 60005 90710 91116=
07070,2012-05-16 15:00:00,13.5,1026,-0.4,43,1.2,20000,16.668,29.632,,320,,,0,0,,,,,,0,og-post,,,,AAXX 16154 07070 24/70 /3209 10135 20012 30150 40260 58004 700// 333 60007 90710 91116 555 60005=
07070,2012-05-16 16:00:00,14.1,1025.9,-0.4,43,1.7,20000,12.964,25.928,,290,,,0,,,,,,,0,og-post,,,,AAXX 16164 07070 24/70 /2907 10141 20017 30149 40259 57004 700// 333 60005 90710 91114=
07070,2012-05-16 17:00:00,12.2,1026,-0.3,50,2.1,20000,11.112,24.076,,330,,,0,,,,,,,0,og-post,,,,AAXX 16174 07070 24/70 /3306 10122 20021 30149 40260 56003 700// 333 60005 90710 91113=
07070,2012-05-16 18:00:00,13.5,1026,-0,44,1.5,20000,7.408,14.816,,320,5.9,14.7,0,0,,,,,,0,og-post,,,,AAXX 16184 07070 04/70 /3204 10135 20015 30150 40260 55000 60002 700// 333 10147 20059 60007 90710 91108 555 60005=
07070,2012-05-16 19:00:00,10.2,1026.2,0.2,66,4.1,20000,3.704,20.372,,60,,,0,,,,,,,0,og-post,,,,AAXX 16194 07070 24/70 /0602 10102 20041 30151 40262 53002 700// 333 60005 90710 91111=
07070,2012-05-16 20:00:00,7.4,1026.6,0.4,79,4,20000,,5.556,,,,,0,,,,,,,0,og-post,,,,AAXX 16204 07070 24/70 /0000 10074 20040 30153 40266 53004 700// 333 60005 90710 91103=
07070,2012-05-16 21:00:00,5.8,1026.7,0.4,83,3.1,20000,,7.408,,,,,0,0,,,,,,0,og-post,,,,AAXX 16214 07070 24/70 /0000 10058 20031 30154 40267 52004 700// 333 60007 90710 91104 555 60005=
07070,2012-05-16 22:00:00,5.5,1026.6,0.2,88,3.7,20000,3.704,5.556,,230,,,0,,,,,,,0,og-post,,,,AAXX 16224 07070 24/70 /2302 10055 20037 30153 40266 50002 700// 333 60005 90710 91103=
07070,2012-05-16 23:00:00,3.7,1026.3,-0.4,90,2.2,20000,,5.556,,,,,0,,,,,,,0,og-post,,,,AAXX 16234 07070 24/70 /0000 10037 20022 30149 40263 58004 700// 333 60005 90710 91103=
07070,2012-05-17 00:00:00,2.8,1026.2,-0.6,91,1.5,19000,,5.556,,,,,0,0,,,,,,0,og-post,,,,AAXX 17004 07070 04/69 /0000 10028 20015 30148 40262 57006 60001 700// 333 60007 90710 91103 555 60005=
07070,2012-05-17 01:00:00,1.9,1025.8,-1,92,0.7,15000,,1.852,,,,,0,,,,,,,0,og-post,,,,AAXX 17014 07070 24/65 /0000 10019 20007 30143 40258 58010 700// 333 60005 90710 91101=
07070,2012-05-17 02:00:00,1.4,1025.5,-0.9,93,0.4,16000,,3.704,,,,,0,,,,,,,0,og-post,,,,AAXX 17024 07070 24/66 /0000 10014 20004 30140 40255 58009 700// 333 60005 90710 91102=
07070,2012-05-17 03:00:00,0.8,1024.7,-1.6,94,-0.1,20000,1.852,3.704,,70,,,0,0,,,,,,0,og-post,,,,AAXX 17034 07070 24/70 /0701 10008 21001 30132 40247 58016 700// 333 60007 90710 91102 555 60005=
07070,2012-05-17 04:00:00,0.7,1024,-1.8,94,-0.2,15000,,5.556,,,,,0,,,,,,,0,og-post,,,,AAXX 17044 07070 24/65 /0000 10007 21002 30125 40240 58018 700// 333 60005 90710 91103=
07070,2012-05-17 05:00:00,2.2,1023.8,-1.6,94,1.3,17000,3.704,3.704,,60,,,0,,,,,,,0,og-post,,,,AAXX 17054 07070 24/67 /0602 10022 20013 30124 40238 56016 700// 333 60005 90710 91102=
07070,2012-05-17 06:00:00,6.1,1023,-1.5,85,3.8,17000,3.704,5.556,,70,0.2,13.5,0.2,0.2,,0.2,0.2,8.8,-3,0,og-post,,,,AAXX 17064 07070 04/67 /0702 10061 20038 30117 40230 57015 69922 700// 333 10135 20002 30103 55088 69927 70002 90710 91103 555 69925=
07070,2012-05-17 07:00:00,10.7,1022.5,-1.1,67,4.8,20000,3.704,9.26,,140,,,0,,,,,,,0,og-post,,,,AAXX 17074 07070 24/70 /1402 10107 20048 30114 40225 58011 700// 333 60005 90710 91105=
07070,2012-05-17 08:00:00,11.3,1022.2,-1.3,60,3.8,20000,18.52,27.78,,150,,,0,,,,,,,0,og-post,,,,AAXX 17084 07070 24/70 /1510 10113 20038 30111 40222 56013 700// 333 60005 90710 91115=
07070,2012-05-17 09:00:00,12.8,1021.3,-1.4,56,4.2,20000,20.372,27.78,,160,,,0,0,,,,,,0,og-post,,,,AAXX 17094 07070 24/70 /1611 10128 20042 30103 40213 58014 700// 333 60007 90710 91115 555 60005=
07070,2012-05-17 10:00:00,14.1,1020.2,-2.1,45,2.3,20000,24.076,37.04,,120,,,0,,,,,,,0,og-post,,,,AAXX 17104 07070 24/70 /1213 10141 20023 30093 40202 58021 700// 333 60005 90710 91120=
07070,2012-05-17 11:00:00,14.8,1019.2,-2.8,43,2.3,20000,22.224,48.152,,140,,,0,,,,,,,0,og-post,,,,AAXX 17114 07070 24/70 /1412 10148 20023 30083 40192 58028 700// 333 60005 90710 91126=
07070,2012-05-17 12:00:00,16.1,1017.8,-3.3,38,1.8,20000,22.224,42.596,,140,,,0,0,,,,,,0,og-post,,,,AAXX 17124 07070 04/70 /1412 10161 20018 30070 40178 58033 60001 700// 333 60007 90710 91123 555 60005=
07070,2012-05-17 13:00:00,16.1,1016.4,-3.7,37,1.4,20000,25.928,44.448,,130,,,0,,,,,,,0,og-post,,,,AAXX 17134 07070 24/70 /1314 10161 20014 30056 40164 58037 700// 333 60005 90710 91124=
07070,2012-05-17 14:00:00,16.6,1016,-3.1,39,2.6,20000,20.372,37.04,,140,,,0,,,,,,,0,og-post,,,,AAXX 17144 07070 24/70 /1411 10166 20026 30052 40160 56031 700// 333 60005 90710 91120=
07070,2012-05-17 15:00:00,16,1015.1,-2.7,43,3.4,20000,16.668,29.632,,130,,,0,0,,,,,,0,og-post,,,,AAXX 17154 07070 24/70 /1309 10160 20034 30043 40151 56027 700// 333 60007 90710 91116 555 60005=
07070,2012-05-17 16:00:00,15.2,1013.4,-3,46,3.6,20000,14.816,25.928,,110,,,0,,,,,,,0,og-post,,,,AAXX 17164 07070 24/70 /1108 10152 20036 30026 40134 58030 700// 333 60005 90710 91114=
07070,2012-05-17 17:00:00,15.1,1012.2,-3.8,56,6.4,20000,14.816,27.78,,100,,,0,,,,,,,0,og-post,,,,AAXX 17174 07070 24/70 /1008 10151 20064 30014 40122 58038 700// 333 60005 90710 91115=
07070,2012-05-17 18:00:00,13.5,1011.8,-3.4,62,6.4,20000,11.112,20.372,,90,6.2,16.7,0,0,,,,,,0,og-post,,,,AAXX 17184 07070 04/70 /0906 10135 20064 30009 40118 56034 60002 700// 333 10167 20062 60007 90710 91111 555 60005=
07070,2012-05-17 19:00:00,12.2,1011.6,-1.9,74,7.7,20000,9.26,14.816,,90,,,,,,,,,,61,og-post,,,,AAXX 17194 07070 24/70 /0905 10122 20077 30007 40116 56019 761// 333 69905 90710 91108=
07070,2012-05-17 20:00:00,11.2,1010.2,-2.1,78,7.5,20000,18.52,25.928,,90,,,0.4,,,,,,,0,og-post,,,,AAXX 17204 07070 24/70 /0910 10112 20075 39993 40102 58021 700// 333 69945 90710 91114=
07070,2012-05-17 21:00:00,11.6,1010.2,-1.6,75,7.3,20000,5.556,25.928,,120,,,0,0.4,,,,,,0,og-post,,,,AAXX 17214 07070 24/70 /1203 10116 20073 39993 40102 56016 700// 333 69947 90710 91114 555 60005=
07070,2012-05-17 22:00:00,12.4,1008.9,-2.7,70,7.1,20000,22.224,35.188,,120,,,0.2,,,,,,,0,og-post,,,,AAXX 17224 07070 24/70 /1212 10124 20071 39980 40089 56027 700// 333 69925 90710 91119=
07070,2012-05-17 23:00:00,12.7,1007.3,-2.8,66,6.5,20000,24.076,42.596,,100,,,0.2,,,,,,,0,og-post,,,,AAXX 17234 07070 24/70 /1013 10127 20065 39965 40073 58028 700// 333 69925 90710 91123=
07070,2012-05-18 00:00:00,12.9,1006.9,-3.2,62,5.8,20000,24.076,46.3,,130,,,0,0.4,0.8,,,,,0,og-post,,,,AAXX 18004 07070 04/70 /1313 10129 20058 39961 40069 56032 69981 700// 333 69947 90710 91125 555 60005=
07070,2012-05-18 01:00:00,12.2,1006.4,-2.4,65,5.8,20000,5.556,37.04,,140,,,0,,,,,,,0,og-post,,,,AAXX 18014 07070 24/70 /1403 10122 20058 39956 40064 56024 700// 333 60005 90710 91120=
07070,2012-05-18 02:00:00,10,1006,-1.4,75,5.8,20000,9.26,24.076,,80,,,0,,,,,,,0,og-post,,,,AAXX 18024 07070 24/70 /0805 10100 20058 39951 40060 58014 700// 333 60005 90710 91113=
07070,2012-05-18 03:00:00,10.9,1005.4,-1.6,69,5.4,20000,11.112,18.52,,140,,,0,0,,,,,,0,og-post,,,,AAXX 18034 07070 24/70 /1406 10109 20054 39945 40054 58016 700// 333 60007 90710 91110 555 60005=
07070,2012-05-18 04:00:00,9.4,1005.4,-1.1,78,5.8,20000,11.112,16.668,,170,,,0,,,,,,,0,og-post,,,,AAXX 18044 07070 24/70 /1706 10094 20058 39945 40054 56011 700// 333 60005 90710 91109=
07070,2012-05-18 05:00:00,10.6,1005.7,-0.3,76,6.5,20000,12.964,24.076,,180,,,0,,,,,,,0,og-post,,,,AAXX 18054 07070 24/70 /1807 10106 20065 39948 40057 55003 700// 333 60005 90710 91113=
07070,2012-05-18 06:00:00,12.5,1006.5,1.2,75,8.2,20000,16.668,29.632,,230,8.8,13.6,0,0,,0.8,0.8,9,5,0,og-post,,,,AAXX 18064 07070 04/70 /2309 10125 20082 39957 40065 53012 69982 700// 333 10136 20088 30005 55090 60007 70008 90710 91116 555 60005=
07070,2012-05-18 07:00:00,13.4,1007.2,1.9,76,9.3,20000,12.964,33.336,,210,,,0,,,,,,,0,og-post,,,,AAXX 18074 07070 24/70 /2107 10134 20093 39964 40072 53019 700// 333 60005 90710 91118=
07070,2012-05-18 08:00:00,13.7,1007.8,2.2,75,9.3,20000,16.668,35.188,,200,,,0,,,,,,,0,og-post,,,,AAXX 18084 07070 24/70 /2009 10137 20093 39970 40078 51022 700// 333 60005 90710 91119=
07070,2012-05-18 09:00:00,13.6,1008.1,1.6,75,9.2,19000,16.668,27.78,,210,,,0,0,,,,,,0,og-post,,,,AAXX 18094 07070 24/69 /2109 10136 20092 39973 40081 51016 700// 333 60007 90710 91115 555 60005=
07070,2012-05-18 10:00:00,14.3,1008.4,1.2,75,9.9,19000,16.668,33.336,,210,,,,,,,,,,0,og-post,,,,AAXX 18104 07070 24/69 /2109 10143 20099 39976 40084 51012 700// 333 69905 90710 91118=
07070,2012-05-18 11:00:00,16.1,1008.6,0.9,64,9.3,19000,25.928,44.448,,210,,,0,,,,,,,0,og-post,,,,AAXX 18114 07070 24/69 /2114 10161 20093 39979 40086 52009 700// 333 60005 90710 91124=
07070,2012-05-18 12:00:00,15.9,1008.7,0.7,63,8.9,20000,22.224,37.04,,240,,,0,,,,,,,0,og-post,,,,AAXX 18124 07070 04/70 /2412 10159 20089 39980 40087 51007 69901 700// 333 69907 90710 91120 555 60005=
07070,2012-05-18 13:00:00,16.2,1008.7,0.4,59,8.2,20000,24.076,40.744,,230,,,0,,,,,,,0,og-post,,,,AAXX 18134 07070 24/70 /2313 10162 20082 39980 40087 51004 700// 333 60005 90710 91122=
07070,2012-05-18 14:00:00,16.6,1008.7,0.1,59,8.5,20000,25.928,44.448,,220,,,0,,,,,,,0,og-post,,,,AAXX 18144 07070 24/70 /2214 10166 20085 39980 40087 51001 700// 333 60005 90710 91124=
07070,2012-05-18 15:00:00,17.1,1008.6,-0.1,61,9.5,20000,16.668,42.596,,220,,,0,0,,,,,,0,og-post,,,,AAXX 18154 07070 24/70 /2209 10171 20095 39979 40086 58001 700// 333 60007 90710 91123 555 60005=
07070,2012-05-18 16:00:00,17.8,1008.8,0.1,60,9.9,19000,16.668,31.484,,220,,,0,,,,,,,0,og-post,,,,AAXX 18164 07070 24/69 /2209 10178 20099 39981 40088 53001 700// 333 60005 90710 91117=
07070,2012-05-18 17:00:00,16.3,1009.1,0.4,69,10.6,20000,18.52,31.484,,200,,,0,,,,,,,0,og-post,,,,AAXX 18174 07070 24/70 /2010 10163 20106 39984 40091 53004 700// 333 60005 90710 91117=
07070,2012-05-18 18:00:00,15.7,1009.4,0.8,73,10.9,20000,16.668,31.484,,190,12.5,18.8,0,0,,,,,,0,og-post,,,,AAXX 18184 07070 04/70 /1909 10157 20109 39987 40094 53008 69902 700// 333 10188 20125 60007 90710 91117 555 60005=
07070,2012-05-18 19:00:00,14.9,1009.9,1,77,10.9,20000,11.112,29.632,,200,,,0,,,,,,,0,og-post,,,,AAXX 18194 07070 24/70 /2006 10149 20109 39991 40099 53010 700// 333 60005 90710 91116=
07070,2012-05-18 20:00:00,12.8,1010.5,1.2,85,10.3,15000,12.964,20.372,,170,,,0,,,,,,,0,og-post,,,,AAXX 18204 07070 24/65 /1707 10128 20103 39996 40105 53012 700// 333 60005 90710 91111=
07070,2012-05-18 21:00:00,12.4,1010.9,1.3,87,10.3,19000,9.26,20.372,,180,,,0,0,,,,,,0,og-post,,,,AAXX 18214 07070 24/69 /1805 10124 20103 30000 40109 52013 700// 333 60007 90710 91111 555 60005=
07070,2012-05-18 22:00:00,11.7,1011.3,1.3,87,9.6,20000,3.704,18.52,,210,,,0,,,,,,,0,og-post,,,,AAXX 18224 07070 24/70 /2102 10117 20096 30004 40113 51013 700// 333 60005 90710 91110=
07070,2012-05-18 23:00:00,10.6,1011.6,1,91,9.2,17000,9.26,14.816,,170,,,0,,,,,,,0,og-post,,,,AAXX 18234 07070 24/67 /1705 10106 20092 30006 40116 51010 700// 333 60005 90710 91108=
07070,2012-05-19 00:00:00,10.7,1011.7,0.7,92,9.5,19000,5.556,12.964,,190,,,0,0,,,,,,0,og-post,,,,AAXX 19004 07070 04/69 /1903 10107 20095 30007 40117 51007 60001 700// 333 60007 90710 91107 555 60005=
07070,2012-05-19 01:00:00,11.5,1011.7,0.4,91,10.1,20000,9.26,12.964,,210,,,0,,,,,,,0,og-post,,,,AAXX 19014 07070 24/70 /2105 10115 20101 30008 40117 51004 700// 333 60005 90710 91107=
07070,2012-05-19 02:00:00,11.7,1011.7,0.2,89,9.9,20000,9.26,14.816,,240,,,0,,,,,,,0,og-post,,,,AAXX 19024 07070 24/70 /2405 10117 20099 30008 40117 51002 700// 333 60005 90710 91108=
07070,2012-05-19 03:00:00,10.9,1012.2,0.5,89,9.2,19000,5.556,12.964,,220,,,0,0,,,,,,0,og-post,,,,AAXX 19034 07070 24/69 /2203 10109 20092 30012 40122 53005 700// 333 60007 90710 91107 555 60005=
07070,2012-05-19 04:00:00,11.3,1011.9,0.2,92,10,18000,7.408,14.816,,210,,,0,,,,,,,0,og-post,,,,AAXX 19044 07070 24/68 /2104 10113 20100 30010 40119 50002 700// 333 60005 90710 91108=
07070,2012-05-19 05:00:00,11.3,1012.1,0.4,93,10.2,14000,5.556,7.408,,160,,,0,,,,,,,0,og-post,,,,AAXX 19054 07070 24/64 /1603 10113 20102 30012 40121 51004 700// 333 60005 90710 91104=
07070,2012-05-19 06:00:00,12.4,1012,-0.1,92,11.1,19000,3.704,7.408,,210,10.3,15.6,0,0,,,0,2.6,7,0,og-post,,,,AAXX 19064 07070 04/69 /2102 10124 20111 30011 40120 56001 60002 700// 333 10156 20103 30007 55026 60007 79999 90710 91104 555 60005=
07070,2012-05-19 07:00:00,14.1,1011.8,0,85,11.6,19000,7.408,12.964,,140,,,0,,,,,,,0,og-post,,,,AAXX 19074 07070 24/69 /1404 10141 20116 30010 40118 50000 700// 333 60005 90710 91107=
07070,2012-05-19 08:00:00,16,1011.6,-0.3,72,11,19000,7.408,14.816,,90,,,0,,,,,,,0,og-post,,,,AAXX 19084 07070 24/69 /0904 10160 20110 30009 40116 57003 700// 333 60005 90710 91108=
07070,2012-05-19 09:00:00,17.3,1011.3,-0.5,68,11.3,19000,9.26,18.52,,90,,,0,0,,,,,,0,og-post,,,,AAXX 19094 07070 24/69 /0905 10173 20113 30006 40113 58005 700// 333 60007 90710 91110 555 60005=
07070,2012-05-19 10:00:00,18.1,1010.6,-1.1,66,11.6,20000,11.112,18.52,,100,,,0,,,,,,,0,og-post,,,,AAXX 19104 07070 24/70 /1006 10181 20116 39999 40106 58011 700// 333 60005 90710 91110=
07070,2012-05-19 11:00:00,17.9,1010.4,-1.2,66,11.5,19000,11.112,20.372,,120,,,0,,,,,,,0,og-post,,,,AAXX 19114 07070 24/69 /1206 10179 20115 39997 40104 56012 700// 333 60005 90710 91111=
07070,2012-05-19 12:00:00,19.9,1009.7,-1.5,62,12.4,20000,11.112,20.372,,110,,,0,0,,,,,,0,og-post,,,,AAXX 19124 07070 04/70 /1106 10199 20124 39991 40097 56015 60001 700// 333 60007 90710 91111 555 60005=
07070,2012-05-19 13:00:00,20,1009.1,-1.4,62,12.5,20000,9.26,20.372,,80,,,0,,,,,,,0,og-post,,,,AAXX 19134 07070 24/70 /0805 10200 20125 39985 40091 58014 700// 333 60005 90710 91111=
07070,2012-05-19 14:00:00,20.6,1008.4,-1.8,65,13.8,20000,9.26,16.668,,60,,,0,,,,,,,0,og-post,,,,AAXX 19144 07070 24/70 /0605 10206 20138 39979 40084 57018 700// 333 60005 90710 91109=
07070,2012-05-19 15:00:00,20.1,1007.9,-1.7,66,13.5,20000,14.816,24.076,,70,,,0,0,,,,,,0,og-post,,,,AAXX 19154 07070 24/70 /0708 10201 20135 39974 40079 56017 700// 333 60007 90710 91113 555 60005=
07070,2012-05-19 16:00:00,20.1,1007.5,-1.5,65,13.3,19000,12.964,24.076,,60,,,,,,,,,,61,og-post,,,,AAXX 19164 07070 24/69 /0607 10201 20133 39970 40075 56015 761// 333 69905 90710 91113=
07070,2012-05-19 17:00:00,18.9,1007,-1.5,72,13.7,20000,9.26,18.52,,20,,,,,,,,,,0,og-post,,,,AAXX 19174 07070 24/70 /0205 10189 20137 39964 40070 58015 700// 333 69905 90710 91110=
07070,2012-05-19 18:00:00,18.6,1006.8,-1.2,77,14.5,20000,11.112,16.668,,30,12.4,21.6,0,,,,,,,0,og-post,,,,AAXX 19184 07070 04/70 /0306 10186 20145 39962 40068 56012 69902 700// 333 10216 20124 69907 90710 91109 555 60005=
07070,2012-05-19 19:00:00,17,1006.9,-0.7,82,13.9,20000,9.26,14.816,,30,,,0,,,,,,,0,og-post,,,,AAXX 19194 07070 24/70 /0305 10170 20139 39963 40069 55007 700// 333 60005 90710 91108=
07070,2012-05-19 20:00:00,15.7,1007.5,0.4,85,13.2,11000,5.556,12.964,,30,,,0,,,,,,,0,og-post,,,,AAXX 19204 07070 24/61 /0303 10157 20132 39968 40075 53004 700// 333 60005 90710 91107=
07070,2012-05-19 21:00:00,15.4,1007.3,0.4,85,12.9,20000,3.704,11.112,,40,,,0,0,,,,,,0,og-post,,,,AAXX 19214 07070 24/70 /0402 10154 20129 39966 40073 50004 700// 333 60007 90710 91106 555 60005=
07070,2012-05-19 22:00:00,14.2,1007.5,0.4,88,12.2,20000,3.704,5.556,,330,,,0,,,,,,,0,og-post,,,,AAXX 19224 07070 24/70 /3302 10142 20122 39967 40075 51004 700// 333 60005 90710 91103=
07070,2012-05-19 23:00:00,13.3,1007.2,-0.4,90,11.7,20000,3.704,7.408,,340,,,0,,,,,,,0,og-post,,,,AAXX 19234 07070 24/70 /3402 10133 20117 39964 40072 58004 700// 333 60005 90710 91104=
07070,2012-05-20 00:00:00,13.3,1006.9,-0.5,92,12,16000,1.852,7.408,,80,,,,,,,,,,0,og-post,,,,AAXX 20004 07070 04/66 /0801 10133 20120 39961 40069 58005 69901 700// 333 69907 90710 91104 555 69905=
07070,2012-05-20 01:00:00,12.4,1006.9,-0.6,93,11.3,8000,7.408,11.112,,150,,,,,,,,,,0,og-post,,,,AAXX 20014 07070 24/58 /1504 10124 20113 39961 40069 56006 700// 333 69905 90710 91106=
07070,2012-05-20 02:00:00,12.6,1006.8,-0.4,95,11.8,14000,11.112,12.964,,170,,,0,,,,,,,0,og-post,,,,AAXX 20024 07070 24/64 /1706 10126 20118 39960 40068 56004 700// 333 60005 90710 91107=
07070,2012-05-20 03:00:00,13.3,1006.5,-0.4,91,11.9,20000,3.704,14.816,,130,,,0,,,,,,,0,og-post,,,,AAXX 20034 07070 24/70 /1302 10133 20119 39957 40065 58004 700// 333 69907 90710 91108 555 60005=
07070,2012-05-20 04:00:00,13,1006.4,-0.5,91,11.6,20000,3.704,14.816,,170,,,0,,,,,,,0,og-post,,,,AAXX 20044 07070 24/70 /1702 10130 20116 39956 40064 57005 700// 333 60005 90710 91108=
07070,2012-05-20 05:00:00,12.7,1006.6,-0.2,93,11.6,20000,9.26,12.964,,160,,,0,,,,,,,0,og-post,,,,AAXX 20054 07070 24/70 /1605 10127 20116 39958 40066 55002 700// 333 60005 90710 91107=
07070,2012-05-20 06:00:00,14.9,1006.8,0.4,88,12.9,20000,5.556,9.26,,120,11.7,18.5,0,0,,,0,4.5,10,0,og-post,,,,AAXX 20064 07070 04/70 /1203 10149 20129 39961 40068 53004 69902 700// 333 10185 20117 31010 55045 60007 79999 90710 91105 555 60005=
07070,2012-05-20 07:00:00,15.4,1006.7,0.4,86,13.1,20000,7.408,12.964,,160,,,0,,,,,,,0,og-post,,,,AAXX 20074 07070 24/70 /1604 10154 20131 39960 40067 50004 700// 333 60005 90710 91107=
07070,2012-05-20 08:00:00,17.7,1006.4,0,77,13.6,20000,5.556,12.964,,70,,,0.2,,,,,,,0,og-post,,,,AAXX 20084 07070 24/70 /0703 10177 20136 39958 40064 50000 700// 333 69925 90710 91107=
07070,2012-05-20 09:00:00,18.3,1006.8,0.1,76,14,20000,9.26,16.668,,160,,,0,0.2,,,,,,0,og-post,,,,AAXX 20094 07070 24/70 /1605 10183 20140 39962 40068 53001 700// 333 69927 90710 91109 555 60005=
07070,2012-05-20 10:00:00,17.3,1007.2,0.6,84,14.6,20000,20.372,27.78,,150,,,0,,,,,,,0,og-post,,,,AAXX 20104 07070 24/70 /1511 10173 20146 39966 40072 53006 700// 333 60005 90710 91115=
07070,2012-05-20 11:00:00,17.9,1006.8,0.4,80,14.4,20000,16.668,27.78,,160,,,,,,,,,,0,og-post,,,,AAXX 20114 07070 24/70 /1609 10179 20144 39962 40068 50004 700// 333 69905 90710 91115=
07070,2012-05-20 12:00:00,17.7,1006.1,-0.7,79,14,20000,5.556,25.928,,140,,,,,0.2,,,,,60,og-post,,,,AAXX 20124 07070 04/70 /1403 10177 20140 39955 40061 58007 69921 760// 333 69907 90710 91114 555 69905=
07070,2012-05-20 13:00:00,19,1006.2,-1,73,14,20000,7.408,12.964,,90,,,,,,,,,,0,og-post,,,,AAXX 20134 07070 24/70 /0904 10190 20140 39956 40062 55010 700// 333 69905 90710 91107=
07070,2012-05-20 14:00:00,18.9,1005.6,-1.2,72,13.7,20000,9.26,12.964,,60,,,0,,,,,,,0,og-post,,,,AAXX 20144 07070 24/70 /0605 10189 20137 39950 40056 56012 700// 333 60005 90710 91107=
07070,2012-05-20 15:00:00,20.6,1004.5,-1.5,65,13.8,19000,5.556,12.964,,30,,,0,,,,,,,0,og-post,,,,AAXX 20154 07070 24/69 /0303 10206 20138 39940 40045 58015 700// 333 69907 90710 91107 555 60005=
07070,2012-05-20 16:00:00,21.1,1003.8,-2.3,56,12,20000,9.26,14.816,,360,,,0,,,,,,,0,og-post,,,,AAXX 20164 07070 24/70 /3605 10211 20120 39933 40038 58023 700// 333 60005 90710 91108=
07070,2012-05-20 17:00:00,21.4,1003.8,-1.7,59,13.1,17000,14.816,20.372,,30,,,0,,,,,,,0,og-post,,,,AAXX 20174 07070 24/67 /0308 10214 20131 39933 40038 56017 700// 333 60005 90710 91111=
07070,2012-05-20 18:00:00,20.6,1003.5,-1,62,13.1,20000,11.112,20.372,,20,14.7,21.7,0,0,,0.2,,,,0,og-post,,,,AAXX 20184 07070 04/70 /0206 10206 20131 39930 40035 56010 69922 700// 333 10217 20147 60007 90710 91111 555 60005=
07070,2012-05-20 19:00:00,18,1003.8,-0.1,77,13.9,20000,9.26,14.816,,10,,,0,,,,,,,0,og-post,,,,AAXX 20194 07070 24/70 /0105 10180 20139 39932 40038 55001 700// 333 60005 90710 91108=
07070,2012-05-20 20:00:00,16.2,1003.5,-0.4,85,13.7,20000,12.964,18.52,,10,,,0,,,,,,,0,og-post,,,,AAXX 20204 07070 24/70 /0107 10162 20137 39929 40035 57004 700// 333 60005 90710 91110=
07070,2012-05-20 21:00:00,16.2,1004.5,0.8,86,13.9,20000,12.964,31.484,,110,,,0,0,,,,,,0,og-post,,,,AAXX 20214 07070 24/70 /1107 10162 20139 39938 40045 53008 700// 333 60007 90710 91117 555 60005=
07070,2012-05-20 22:00:00,16.4,1004.4,0.5,74,11.8,20000,12.964,38.892,,220,,,0,,,,,,,0,og-post,,,,AAXX 20224 07070 24/70 /2207 10164 20118 39937 40044 53005 700// 333 60005 90710 91121=
07070,2012-05-20 23:00:00,15.7,1004.3,0.7,78,11.9,20000,12.964,18.52,,240,,,0,,,,,,,0,og-post,,,,AAXX 20234 07070 24/70 /2407 10157 20119 39936 40043 50007 700// 333 60005 90710 91110=
07070,2012-05-21 00:00:00,14.7,1003.7,-0.8,87,12.6,20000,5.556,14.816,,260,,,0.4,0.4,0.4,,,,,61,og-post,,,,AAXX 21004 07070 04/70 /2603 10147 20126 39930 40037 58008 69941 761// 333 69947 90710 91108 555 69945=
07070,2012-05-21 01:00:00,14.1,1002.3,-2.1,91,12.7,20000,5.556,14.816,,320,,,0.2,,,,,,,0,og-post,,,,AAXX 21014 07070 24/70 /3203 10141 20127 39916 40023 58021 700// 333 69925 90710 91108=
07070,2012-05-21 02:00:00,14,1002.5,-1.8,91,12.6,19000,5.556,12.964,,350,,,0,,,,,,,0,og-post,,,,AAXX 21024 07070 24/69 /3503 10140 20126 39918 40025 55018 700// 333 60005 90710 91107=
07070,2012-05-21 03:00:00,13.3,1002,-1.7,93,12.2,12000,3.704,11.112,,270,,,0,0.2,,,,,,0,og-post,,,,AAXX 21034 07070 24/62 /2702 10133 20122 39913 40020 56017 700// 333 69927 90710 91106 555 60005=
07070,2012-05-21 04:00:00,13.2,1001.7,-0.6,94,12.3,10000,9.26,14.816,,350,,,0,,,,,,,0,og-post,,,,AAXX 21044 07070 24/60 /3505 10132 20123 39910 40017 58006 700// 333 60005 90710 91108=
07070,2012-05-21 05:00:00,13.5,1001.2,-1.3,95,12.7,2300,12.964,20.372,,340,,,0,,,,,,,10,og-post,,,,AAXX 21054 07070 24/23 /3407 10135 20127 39905 40012 57013 710// 333 60005 90710 91111=
07070,2012-05-21 06:00:00,14.2,1001.1,-0.9,94,13.2,2800,11.112,18.52,,340,12.9,20.5,0,0,,0.6,0.8,4.2,12,10,og-post,,,,AAXX 21064 07070 04/28 /3406 10142 20132 39904 40011 56009 69962 710// 333 10205 20129 31012 55042 60007 70008 90710 91110 555 60005=
07070,2012-05-21 07:00:00,13.8,1001.5,-0.2,94,12.9,3400,12.964,25.928,,330,,,,,,,,,,10,og-post,,,,AAXX 21074 07070 24/34 /3307 10138 20129 39908 40015 55002 710// 333 69905 90710 91114=
07070,2012-05-21 08:00:00,13.4,1002.4,1.2,94,12.5,2900,12.964,27.78,,330,,,0.8,,,,,,,60,og-post,,,,AAXX 21084 07070 24/29 /3307 10134 20125 39917 40024 53012 760// 333 69985 90710 91115=
07070,2012-05-21 09:00:00,12.7,1002.1,0.9,95,11.9,2900,18.52,25.928,,320,,,0.6,1,,,,,,61,og-post,,,,AAXX 21094 07070 24/29 /3210 10127 20119 39913 40021 50009 761// 333 60017 90710 91114 555 69965=
07070,2012-05-21 10:00:00,12.9,1001.3,-0.2,95,12.1,3300,25.928,37.04,,320,,,0.2,,,,,,,60,og-post,,,,AAXX 21104 07070 24/33 /3214 10129 20121 39906 40013 58002 760// 333 69925 90710 91120=
07070,2012-05-21 11:00:00,13.4,1001.1,-1.3,94,12.5,4200,18.52,33.336,,320,,,,,,,,,,10,og-post,,,,AAXX 21114 07070 24/42 /3210 10134 20125 39904 40011 56013 710// 333 69905 90710 91118=
07070,2012-05-21 12:00:00,13.6,1000.9,-1.1,93,12.5,3200,27.78,42.596,,340,,,0,0.2,2,,,,,10,og-post,,,,AAXX 21124 07070 04/32 /3415 10136 20125 39902 40009 56011 60021 710// 333 69927 90710 91123 555 60005=
07070,2012-05-21 13:00:00,13.5,1001.9,0.6,93,12.4,3400,16.668,37.04,,340,,,,,,,,,,10,og-post,,,,AAXX 21134 07070 24/34 /3409 10135 20124 39912 40019 53006 710// 333 69905 90710 91120=
07070,2012-05-21 14:00:00,13.6,1002.2,1.1,94,12.7,2900,16.668,37.04,,340,,,,,,,,,,61,og-post,,,,AAXX 21144 07070 24/29 /3409 10136 20127 39915 40022 53011 761// 333 69905 90710 91120=
07070,2012-05-21 15:00:00,13.6,1002.3,1.4,94,12.7,2800,27.78,40.744,,330,,,0.2,0.2,,,,,,10,og-post,,,,AAXX 21154 07070 24/28 /3315 10136 20127 39916 40023 51014 710// 333 69927 90710 91122 555 69925=
07070,2012-05-21 16:00:00,13.2,1002.4,0.5,95,12.4,2400,24.076,35.188,,320,,,,,,,,,,58,og-post,,,,AAXX 21164 07070 24/24 /3213 10132 20124 39917 40024 51005 758// 333 69905 90710 91119=
07070,2012-05-21 17:00:00,13.1,1002.8,0.5,94,12.2,2600,14.816,35.188,,320,,,0.2,,,,,,,10,og-post,,,,AAXX 21174 07070 24/26 /3208 10131 20122 39920 40028 53005 710// 333 69925 90710 91119=
07070,2012-05-21 18:00:00,12.8,1003.3,0.9,94,11.9,2200,16.668,27.78,,300,12.6,14.2,,0.2,,2,,,,10,og-post,,,,AAXX 21184 07070 04/22 /3009 10128 20119 39925 40033 53009 60022 710// 333 10142 20126 69927 90710 91115 555 69905=
07070,2012-05-21 19:00:00,12.6,1003.8,1.3,94,11.7,2900,16.668,27.78,,320,,,,,,,,,,10,og-post,,,,AAXX 21194 07070 24/29 /3209 10126 20117 39930 40038 53013 710// 333 69905 90710 91115=
07070,2012-05-21 20:00:00,12.3,1004.4,1.6,94,11.4,2900,18.52,29.632,,310,,,0,,,,,,,10,og-post,,,,AAXX 21204 07070 24/29 /3110 10123 20114 39936 40044 53016 710// 333 60005 90710 91116=
07070,2012-05-21 21:00:00,11.7,1004.9,1.6,93,10.6,3500,22.224,35.188,,320,,,0,,,,,,,10,og-post,,,,AAXX 21214 07070 24/35 /3212 10117 20106 39941 40049 52016 710// 333 69907 90710 91119 555 60005=
07070,2012-05-21 22:00:00,11.3,1004.9,1,94,10.4,2900,18.52,31.484,,320,,,,,,,,,,61,og-post,,,,AAXX 21224 07070 24/29 /3210 10113 20104 39940 40049 50010 761// 333 69905 90710 91117=
07070,2012-05-21 23:00:00,11.2,1005,0.5,94,10.3,3300,14.816,35.188,,330,,,,,,,,,,10,og-post,,,,AAXX 21234 07070 24/33 /3308 10112 20103 39941 40050 51005 710// 333 69905 90710 91119=
07070,2012-05-22 00:00:00,10.9,1004.9,-0.1,94,10,2800,24.076,33.336,,320,,,0,,,,,,,10,og-post,,,,AAXX 22004 07070 04/28 /3213 10109 20100 39940 40049 57001 69901 710// 333 69907 90710 91118 555 60005=
07070,2012-05-22 01:00:00,10.9,1005.2,0.3,95,10.1,2600,22.224,35.188,,330,,,0,,,,,,,10,og-post,,,,AAXX 22014 07070 24/26 /3312 10109 20101 39943 40052 53003 710// 333 60005 90710 91119=
07070,2012-05-22 02:00:00,10.8,1005.9,0.9,95,10,1800,16.668,33.336,,330,,,0,,,,,,,10,og-post,,,,AAXX 22024 07070 24/18 /3309 10108 20100 39950 40059 53009 710// 333 60005 90710 91118=
07070,2012-05-22 03:00:00,10.8,1005.8,0.9,96,10.2,1300,18.52,35.188,,330,,,0,0,,,,,,10,og-post,,,,AAXX 22034 07070 24/13 /3310 10108 20102 39949 40058 50009 710// 333 60007 90710 91119 555 60005=
07070,2012-05-22 04:00:00,10.8,1005.8,0.6,96,10.2,1000,20.372,31.484,,330,,,0,,,,,,,10,og-post,,,,AAXX 22044 07070 24/10 /3311 10108 20102 39949 40058 51006 710// 333 60005 90710 91117=
07070,2012-05-22 05:00:00,10.8,1006.2,0.3,97,10.3,1200,20.372,33.336,,320,,,0,,,,,,,10,og-post,,,,AAXX 22054 07070 24/12 /3211 10108 20103 39953 40062 53003 710// 333 60005 90710 91118=
07070,2012-05-22 06:00:00,11.1,1006.8,1,97,10.6,1600,16.668,29.632,,330,10.7,12.8,,,,,2,0,11,10,og-post,,,,AAXX 22064 07070 04/16 /3309 10111 20106 39959 40068 53010 69902 710// 333 10128 20107 3/011 55000 69907 70020 90710 91116 555 69905=
07070,2012-05-22 07:00:00,11.5,1007.2,1.4,97,11,2400,16.668,29.632,,330,,,0,,,,,,,10,og-post,,,,AAXX 22074 07070 24/24 /3309 10115 20110 39963 40072 52014 710// 333 60005 90710 91116=
07070,2012-05-22 08:00:00,12,1007.8,1.6,96,11.4,2800,20.372,33.336,,340,,,0,,,,,,,10,og-post,,,,AAXX 22084 07070 24/28 /3411 10120 20114 39969 40078 52016 710// 333 60005 90710 91118=
07070,2012-05-22 09:00:00,12.3,1008.6,1.8,95,11.5,3200,,31.484,,,,,0,0,,,,,,10,og-post,,,,AAXX 22094 07070 24/32 ///// 10123 20115 39977 40086 53018 710// 333 60007 90710 91117 555 60005=
07070,2012-05-22 10:00:00,12.7,1009.4,2.3,95,11.9,2800,,,,,,,0,,,,,,,10,og-post,,,,AAXX 22104 07070 24/28 ///// 10127 20119 39986 40094 53023 710// 333 60005=
07070,2012-05-22 11:00:00,13.2,1010.2,2.5,94,12.3,3700,,,,,,,0,,,,,,,10,og-post,,,,AAXX 22114 07070 24/37 ///// 10132 20123 39994 40102 52025 710// 333 60005=
07070,2012-05-22 12:00:00,13.5,1010.6,2.1,93,12.4,3800,,,,,,,0,0,,,,,,10,og-post,,,,AAXX 22124 07070 04/38 ///// 10135 20124 39998 40106 51021 60001 710// 333 60007 555 60005=
07070,2012-05-22 13:00:00,14,1011.4,2,91,12.6,3900,,,,,,,0,,,,,,,10,og-post,,,,AAXX 22134 07070 24/39 ///// 10140 20126 30006 40114 52020 710// 333 60005=
07070,2012-05-22 14:00:00,14,1012.9,2.7,91,12.6,3300,,,,,,,0,,,,,,,10,og-post,,,,AAXX 22144 07070 24/33 ///// 10140 20126 30021 40129 53027 710// 333 60005=
07070,2012-05-22 15:00:00,14.2,1013.5,2.9,91,12.8,3200,,,,,,,0,0,,,,,,10,og-post,,,,AAXX 22154 07070 24/32 ///// 10142 20128 30027 40135 51029 710// 333 60007 555 60005=
07070,2012-05-22 16:00:00,15.1,1013.9,2.5,88,13.1,3700,,,,,,,0,,,,,,,10,og-post,,,,AAXX 22164 07070 24/37 ///// 10151 20131 30031 40139 51025 710// 333 60005=
07070,2012-05-22 17:00:00,15.1,1014.2,1.3,88,13.1,3700,,,,,,,0,,,,,,,10,og-post,,,,AAXX 22174 07070 24/37 ///// 10151 20131 30034 40142 51013 710// 333 60005=
07070,2012-05-22 18:00:00,15,1014.9,1.4,89,13.2,3500,,,,,11,15.5,0,0,,,,,,10,og-post,,,,AAXX 22184 07070 04/35 ///// 10150 20132 30041 40149 53014 60002 710// 333 10155 20110 60007 555 60005=
07070,2012-05-22 19:00:00,15.1,1015.6,1.7,89,13.3,3600,,,,,,,0,,,,,,,10,og-post,,,,AAXX 22194 07070 24/36 ///// 10151 20133 30048 40156 53017 710// 333 60005=
07070,2012-05-22 20:00:00,14.8,1016.3,2.1,90,13.2,3200,,,,,,,0,,,,,,,10,og-post,,,,AAXX 22204 07070 24/32 ///// 10148 20132 30055 40163 52021 710// 333 60005=
07070,2012-05-22 21:00:00,14.8,1017,2.1,90,13.2,3100,,,,,,,0,0,,,,,,10,og-post,,,,AAXX 22214 07070 24/31 ///// 10148 20132 30062 40170 52021 710// 333 60007 555 60005=
07070,2012-05-22 22:00:00,14.6,1017.9,2.2,92,13.3,2400,,,,,,,0,,,,,,,10,og-post,,,,AAXX 22224 07070 24/24 ///// 10146 20133 30070 40179 53022 710// 333 60005=
07070,2012-05-22 23:00:00,14.7,1018,1.6,92,13.4,2400,,,,,,,0,,,,,,,10,og-post,,,,AAXX 22234 07070 24/24 ///// 10147 20134 30071 40180 51016 710// 333 60005=
07070,2012-05-23 00:00:00,14.7,1018.3,1.2,93,13.6,2300,,,,,,,0,0,,,,,,10,og-post,,,,AAXX 23004 07070 04/23 ///// 10147 20136 30074 40183 51012 60001 710// 333 60007 555 60005=
07070,2012-05-23 01:00:00,15,1018.2,0.4,93,13.9,3300,,,,,,,0,,,,,,,10,og-post,,,,AAXX 23014 07070 24/33 ///// 10150 20139 30074 40182 51004 710// 333 60005=
07070,2012-05-23 02:00:00,14.9,1018.7,0.7,92,13.6,3500,,,,,,,0,,,,,,,10,og-post,,,,AAXX 23024 07070 24/35 ///// 10149 20136 30078 40187 53007 710// 333 60005=
07070,2012-05-23 03:00:00,14.3,1019,0.7,92,13,3100,,,,,,,0,0,,,,,,10,og-post,,,,AAXX 23034 07070 24/31 ///// 10143 20130 30081 40190 53007 710// 333 60007 555 60005=
07070,2012-05-23 04:00:00,13.9,1019.6,1.3,93,12.8,2300,,,,,,,0,,,,,,,10,og-post,,,,AAXX 23044 07070 24/23 ///// 10139 20128 30087 40196 53013 710// 333 60005=
07070,2012-05-23 05:00:00,13.5,1020,1.3,94,12.6,1600,,,,,,,0,,,,,,,10,og-post,,,,AAXX 23054 07070 24/16 ///// 10135 20126 30091 40200 53013 710// 333 60005=
07070,2012-05-23 06:00:00,13.4,1020.4,1.4,95,12.6,1700,,,,,13.3,15.1,0,0,,,0,0,14,10,og-post,,,,AAXX 23064 07070 04/17 ///// 10134 20126 30095 40204 51014 60002 710// 333 10151 20133 3/014 55000 60007 70000 555 60005=
07070,2012-06-06 12:00:00,,,,,,,,,,,,,0,,,,,,,,data,,,,
07070,2012-06-06 13:00:00,20.9,,,,,,,,,,,,0,,,,,,,,data,,,,
07070,2012-06-06 14:00:00,20.3,,,,,,,,,,,,0,,,,,,,,data,,,,
07070,2012-06-06 16:00:00,19.1,,,,,,,,,,,,0,,,,,,,,data,,,,
07070,2012-06-06 17:00:00,19,,,,,,,,,,,,0,,,,,,,,data,,,,
07070,2012-06-06 18:00:00,18.8,,,,,,,,,,,,0,,,,,,,,data,,,,
07070,2012-06-06 19:00:00,17.9,,,,,,,,,,,,0,,,,,,,,data,,,,
07070,2012-06-06 20:00:00,16.1,,,,,,,,,,,,0.2,,,,,,,,data,,,,
07070,2012-06-06 21:00:00,15.2,,,,,,,,,,,,0,,,,,,,,data,,,,
07070,2012-06-06 22:00:00,15.2,,,,,,,,,,,,0,,,,,,,,data,,,,
07070,2012-06-06 23:00:00,15.2,,,,,,,,,,,,0,,,,,,,,data,,,,
07070,2012-06-07 00:00:00,14,,,,,,,,,,,,0,,,,,,,,data,,,,
07070,2012-06-07 02:00:00,13.7,,,,,,,,,,,,0,,,,,,,,data,,,,
07070,2012-06-07 03:00:00,14.2,,,,,,,,,,,,0,,,,,,,,data,,,,
07070,2012-06-07 04:00:00,13.7,,,,,,,,,,,,0,,,,,,,,data,,,,
07070,2012-06-07 05:00:00,14.6,,,,,,,,,,,,0,,,,,,,,data,,,,
07070,2012-06-07 06:00:00,15.2,,,,,,,,,,,,0,,,,,,,,data,,,,
07070,2012-06-07 07:00:00,16.5,,,,,,,,,,,,0,,,,,,,,data,,,,
07070,2012-06-07 09:00:00,18.6,,,,,,,,,,,,0,,,,,,,,data,,,,
07070,2012-06-07 10:00:00,19.5,,,,,,,,,,,,0,,,,,,,,data,,,,
07070,2012-06-07 11:00:00,19,,,,,,,,,,,,0,,,,,,,,data,,,,
07070,2012-06-07 12:00:00,20.4,,,,,,,,,,,,0,,,,,,,,data,,,,
07070,2012-06-07 14:00:00,20,,,,,,,,,,,,1.4,,,,,,,,data,,,,
07070,2012-06-07 16:00:00,22.5,,,,,,,,,,,,0,,,,,,,,data,,,,
07070,2012-06-07 17:00:00,21.7,,,,,,,,,,,,0,,,,,,,,data,,,,
07070,2012-06-07 18:00:00,20.1,,,,,,,,,,,,0,,,,,,,,data,,,,
07070,2012-06-07 22:00:00,16.1,,,,,,,,,,,,0,,,,,,,,data,,,,
07070,2012-06-07 23:00:00,14.7,,,,,,,,,,,,0,,,,,,,,data,,,,
07070,2012-06-08 00:00:00,14.8,,,,,,,,,,,,0,,,,,,,,data,,,,
07070,2012-06-08 03:00:00,13.2,,,,,,,,,,,,0,,,,,,,,data,,,,
07070,2012-06-08 04:00:00,13,,,,,,,,,,,,0,,,,,,,,data,,,,
07070,2012-06-08 05:00:00,13.9,,,,,,,,,,,,0,,,,,,,,data,,,,
07070,2012-06-08 07:00:00,15.8,,,,,,,,,,,,0,,,,,,,,data,,,,
07070,2012-06-08 09:00:00,18,,,,,,,,,,,,0,,,,,,,,data,,,,
07070,2012-06-08 10:00:00,16.9,,,,,,,,,,,,0,,,,,,,,data,,,,
07070,2012-06-08 11:00:00,18.2,,,,,,,,,,,,0,,,,,,,,data,,,,
07070,2012-06-08 14:00:00,20.8,,,,,,,,,,,,0,,,,,,,,data,,,,
07070,2012-06-08 16:00:00,16.5,,,,,,,,,,,,1,,,,,,,,data,,,,
07070,2012-06-08 17:00:00,18.3,,,,,,,,,,,,0,,,,,,,,data,,,,
07070,2012-06-08 18:00:00,18.1,,,,,,,,,,,,0,,,,,,,,data,,,,
07070,2012-06-08 19:00:00,16.5,,,,,,,,,,,,0,,,,,,,,data,,,,
07070,2012-06-08 21:00:00,12.9,,,,,,,,,,,,0,,,,,,,,data,,,,
07070,2012-06-08 22:00:00,12.3,,,,,,,,,,,,0,,,,,,,,data,,,,
07070,2012-06-08 23:00:00,12.1,,,,,,,,,,,,0,,,,,,,,data,,,,
07070,2012-06-09 00:00:00,12,,,,,,,,,,,,0,,,,,,,,data,,,,
07070,2012-06-09 01:00:00,11.8,,,,,,,,,,,,0,,,,,,,,data,,,,
07070,2012-06-09 02:00:00,11,,,,,,,,,,,,0,,,,,,,,data,,,,
07070,2012-06-09 03:00:00,10,,,,,,,,,,,,0,,,,,,,,data,,,,
07070,2012-06-09 05:00:00,11.3,,,,,,,,,,,,0,,,,,,,,data,,,,
07070,2012-06-09 06:00:00,12.8,,,,,,,,,,,,0,,,,,,,,data,,,,
07070,2012-06-09 07:00:00,13.9,,,,,,,,,,,,0,,,,,,,,data,,,,
07070,2012-06-09 09:00:00,15.1,,,,,,,,,,,,0,,,,,,,,data,,,,
07070,2012-06-09 10:00:00,16.2,,,,,,,,,,,,0,,,,,,,,data,,,,
07070,2012-06-09 11:00:00,16.3,,,,,,,,,,,,0,,,,,,,,data,,,,
07070,2012-06-09 12:00:00,15.8,,,,,,,,,,,,0,,,,,,,,data,,,,
07070,2012-06-09 13:00:00,16.2,,,,,,,,,,,,0,,,,,,,,data,,,,
07070,2012-06-09 14:00:00,17.1,,,,,,,,,,,,0,,,,,,,,data,,,,
07070,2012-06-09 15:00:00,17.1,,,,,,,,,,,,0,,,,,,,,data,,,,
07070,2012-06-09 16:00:00,17.2,,,,,,,,,,,,0,,,,,,,,data,,,,
07070,2012-06-09 18:00:00,17.5,,,,,,,,,,,,0,,,,,,,,data,,,,
07070,2012-06-09 19:00:00,15.9,,,,,,,,,,,,0,,,,,,,,data,,,,
07070,2012-06-09 23:00:00,10.2,,,,,,,,,,,,0,,,,,,,,data,,,,
07070,2012-06-10 00:00:00,10.6,,,,,,,,,,,,0,,,,,,,,data,,,,
07070,2012-06-10 02:00:00,10.4,,,,,,,,,,,,0,,,,,,,,data,,,,
07070,2012-06-10 03:00:00,10,,,,,,,,,,,,0,,,,,,,,data,,,,
07070,2012-06-10 07:00:00,14.7,,,,,,,,,,,,0,,,,,,,,data,,,,
07070,2012-06-10 09:00:00,16.8,,,,,,,,,,,,0,,,,,,,,data,,,,
07070,2012-06-10 10:00:00,17.7,,,,,,,,,,,,0,,,,,,,,data,,,,
07070,2012-06-11 00:00:00,12.9,,,,,,,,,,,,0.2,,,,,,,,data,,,,
07070,2012-06-11 02:00:00,12.8,,,,,,,,,,,,0.2,,,,,,,,data,,,,
07070,2012-06-11 03:00:00,12.5,,,,,,,,,,,,0.6,,,,,,,,data,,,,
07070,2012-06-11 04:00:00,13.2,,,,,,,,,,,,2.9,,,,,,,,data,,,,
07070,2012-06-11 05:00:00,13.7,,,,,,,,,,,,0,,,,,,,,data,,,,
07070,2012-06-11 06:00:00,14,,,,,,,,,,,,0,,,,,,,,data,,,,
07070,2012-06-11 07:00:00,14,,,,,,,,,,,,0.6,,,,,,,,data,,,,
07070,2012-06-11 10:00:00,14.6,,,,,,,,,,,,0,,,,,,,,data,,,,
07070,2012-06-11 13:00:00,16.9,,,,,,,,,,,,0,,,,,,,,data,,,,
07070,2012-06-11 14:00:00,18.8,,,,,,,,,,,,0,,,,,,,,data,,,,
07070,2012-06-11 16:00:00,18.7,,,,,,,,,,,,0,,,,,,,,data,,,,
07070,2012-06-11 17:00:00,16.9,,,,,,,,,,,,0,,,,,,,,data,,,,
07070,2012-06-11 18:00:00,16.3,,,,,,,,,,,,0,,,,,,,,data,,,,
07070,2012-06-11 19:00:00,15.4,,,,,,,,,,,,0,,,,,,,,data,,,,
07070,2012-06-11 20:00:00,14.1,,,,,,,,,,,,0,,,,,,,,data,,,,
07070,2012-06-11 21:00:00,14.6,,,,,,,,,,,,0,,,,,,,,data,,,,
07070,2012-06-11 22:00:00,13.4,,,,,,,,,,,,0,,,,,,,,data,,,,
07070,2012-06-11 23:00:00,12.3,,,,,,,,,,,,0,,,,,,,,data,,,,
07070,2012-06-12 00:00:00,12.7,,,,,,,,,,,,0,,,,,,,,data,,,,
07070,2012-06-12 01:00:00,12.8,,,,,,,,,,,,0,,,,,,,,data,,,,
07070,2012-06-12 02:00:00,13.1,,,,,,,,,,,,0,,,,,,,,data,,,,
07070,2012-06-12 04:00:00,12.7,,,,,,,,,,,,0,,,,,,,,data,,,,
07070,2012-06-12 05:00:00,13,,,,,,,,,,,,0,,,,,,,,data,,,,
07070,2012-06-12 06:00:00,13.2,,,,,,,,,,,,0,,,,,,,,data,,,,
07070,2012-06-12 07:00:00,13.9,,,,,,,,,,,,0,,,,,,,,data,,,,
07070,2012-06-12 09:00:00,15.2,,,,,,,,,,,,0,,,,,,,,data,,,,
07070,2012-06-12 10:00:00,17.2,,,,,,,,,,,,0,,,,,,,,data,,,,
07070,2012-06-12 11:00:00,18.4,,,,,,,,,,,,0,,,,,,,,data,,,,
07070,2012-06-12 14:00:00,19.5,,,,,,,,,,,,0,,,,,,,,data,,,,
07070,2012-06-12 16:00:00,16.3,,,,,,,,,,,,0,,,,,,,,data,,,,
07070,2012-06-12 17:00:00,15.4,,,,,,,,,,,,0,,,,,,,,data,,,,
07070,2012-06-12 18:00:00,14.9,,,,,,,,,,,,0,,,,,,,,data,,,,
07070,2012-06-12 19:00:00,15,,,,,,,,,,,,0,,,,,,,,data,,,,
07070,2012-06-12 21:00:00,13.7,,,,,,,,,,,,0,,,,,,,,data,,,,
07070,2012-06-12 22:00:00,13.7,,,,,,,,,,,,0,,,,,,,,data,,,,
07070,2012-06-12 23:00:00,13.4,,,,,,,,,,,,0,,,,,,,,data,,,,
07070,2012-06-13 00:00:00,13.7,,,,,,,,,,,,0,,,,,,,,data,,,,
07070,2012-06-13 01:00:00,13,,,,,,,,,,,,0.2,,,,,,,,data,,,,
07070,2012-06-13 02:00:00,12.2,,,,,,,,,,,,4,,,,,,,,data,,,,
07070,2012-06-13 03:00:00,11.7,,,,,,,,,,,,1.9,,,,,,,,data,,,,
07070,2012-06-13 04:00:00,11,,,,,,,,,,,,0.2,,,,,,,,data,,,,
07070,2012-06-13 05:00:00,10.7,,,,,,,,,,,,1.6,,,,,,,,data,,,,
07070,2012-06-13 06:00:00,10.6,,,,,,,,,,,,1.2,,,,,,,,data,,,,
07070,2012-06-13 07:00:00,10.7,,,,,,,,,,,,0.4,,,,,,,,data,,,,
07070,2012-06-13 09:00:00,11.3,,,,,,,,,,,,0,,,,,,,,data,,,,
07070,2012-06-13 10:00:00,11.2,,,,,,,,,,,,0,,,,,,,,data,,,,
07070,2012-06-13 12:00:00,12.3,,,,,,,,,,,,0,,,,,,,,data,,,,
07070,2012-06-13 13:00:00,12.9,,,,,,,,,,,,0,,,,,,,,data,,,,
07070,2012-06-13 14:00:00,12.8,,,,,,,,,,,,0,,,,,,,,data,,,,
07070,2012-06-13 16:00:00,13.5,,,,,,,,,,,,0,,,,,,,,data,,,,
07070,2012-06-13 17:00:00,13.4,,,,,,,,,,,,0,,,,,,,,data,,,,
07070,2012-06-13 19:00:00,12.6,,,,,,,,,,,,0,,,,,,,,data,,,,
07070,2012-06-13 20:00:00,11.1,,,,,,,,,,,,0,,,,,,,,data,,,,
07070,2012-06-13 21:00:00,10.7,,,,,,,,,,,,0,,,,,,,,data,,,,
07070,2012-06-13 22:00:00,10,,,,,,,,,,,,0,,,,,,,,data,,,,
07070,2012-06-13 23:00:00,9.8,,,,,,,,,,,,0,,,,,,,,data,,,,
07070,2012-06-14 00:00:00,8.5,,,,,,,,,,,,0,,,,,,,,data,,,,
07070,2012-06-14 02:00:00,8.2,,,,,,,,,,,,0,,,,,,,,data,,,,
07070,2012-06-14 03:00:00,8.3,,,,,,,,,,,,0,,,,,,,,data,,,,
07070,2012-06-14 04:00:00,8.6,,,,,,,,,,,,0,,,,,,,,data,,,,
07070,2012-06-14 05:00:00,9.1,,,,,,,,,,,,0,,,,,,,,data,,,,
07070,2012-06-14 07:00:00,13.3,,,,,,,,,,,,0,,,,,,,,data,,,,
07070,2012-06-14 09:00:00,16.5,,,,,,,,,,,,0,,,,,,,,data,,,,
07070,2012-06-14 10:00:00,17.1,,,,,,,,,,,,0,,,,,,,,data,,,,
07070,2012-06-14 12:00:00,18.3,,,,,,,,,,,,0,,,,,,,,data,,,,
07070,2012-06-14 13:00:00,18,,,,,,,,,,,,0,,,,,,,,data,,,,
07070,2012-06-14 16:00:00,19.9,,,,,,,,,,,,0,,,,,,,,data,,,,
07070,2012-06-14 17:00:00,18.7,,,,,,,,,,,,0,,,,,,,,data,,,,
07070,2012-06-14 18:00:00,18,,,,,,,,,,,,0,,,,,,,,data,,,,
07070,2012-06-14 19:00:00,16.3,,,,,,,,,,,,0,,,,,,,,data,,,,
07070,2012-06-14 21:00:00,13.9,,,,,,,,,,,,0,,,,,,,,data,,,,
07070,2012-06-14 22:00:00,13.7,,,,,,,,,,,,0,,,,,,,,data,,,,
07070,2012-06-14 23:00:00,13.8,,,,,,,,,,,,0,,,,,,,,data,,,,
07070,2012-06-15 00:00:00,14.4,,,,,,,,,,,,0,,,,,,,,data,,,,
07070,2012-06-15 01:00:00,14.3,,,,,,,,,,,,0,,,,,,,,data,,,,
07070,2012-06-15 02:00:00,15.1,,,,,,,,,,,,0,,,,,,,,data,,,,
07070,2012-06-15 03:00:00,14.3,,,,,,,,,,,,0,,,,,,,,data,,,,
07070,2012-06-15 04:00:00,14.4,,,,,,,,,,,,0,,,,,,,,data,,,,
07070,2012-06-15 05:00:00,14,,,,,,,,,,,,2.2,,,,,,,,data,,,,
07070,2012-06-15 06:00:00,14.1,,,,,,,,,,,,4.1,,,,,,,,data,,,,
07070,2012-06-15 07:00:00,14.8,,,,,,,,,,,,0.4,,,,,,,,data,,,,
07070,2012-06-15 09:00:00,17.5,,,,,,,,,,,,0.2,,,,,,,,data,,,,
07070,2012-06-15 11:00:00,18.8,,,,,,,,,,,,0,,,,,,,,data,,,,
07070,2012-06-15 13:00:00,20.2,,,,,,,,,,,,0,,,,,,,,data,,,,
07070,2012-06-15 14:00:00,21.5,,,,,,,,,,,,0,,,,,,,,data,,,,
07070,2012-06-15 16:00:00,20.8,,,,,,,,,,,,0,,,,,,,,data,,,,
07070,2012-06-15 17:00:00,20.5,,,,,,,,,,,,0,,,,,,,,data,,,,
07070,2012-06-15 18:00:00,20.3,,,,,,,,,,,,0,,,,,,,,data,,,,
07070,2012-06-15 19:00:00,19.2,,,,,,,,,,,,0,,,,,,,,data,,,,
07070,2012-06-15 21:00:00,16.2,,,,,,,,,,,,0,,,,,,,,data,,,,
07070,2012-06-15 22:00:00,15.6,,,,,,,,,,,,0,,,,,,,,data,,,,
07070,2012-06-15 23:00:00,14.8,,,,,,,,,,,,0.4,,,,,,,,data,,,,
07070,2012-06-16 00:00:00,14.7,,,,,,,,,,,,3.4,,,,,,,,data,,,,
07070,2012-06-16 01:00:00,14.7,,,,,,,,,,,,0,,,,,,,,data,,,,
07070,2012-06-16 02:00:00,15.1,,,,,,,,,,,,0,,,,,,,,data,,,,
07070,2012-06-16 03:00:00,15.3,,,,,,,,,,,,0.2,,,,,,,,data,,,,
07070,2012-06-16 04:00:00,15.6,,,,,,,,,,,,0.2,,,,,,,,data,,,,
07070,2012-06-16 05:00:00,15.7,,,,,,,,,,,,0.2,,,,,,,,data,,,,
07070,2012-06-16 06:00:00,15.1,,,,,,,,,,,,1.6,,,,,,,,data,,,,
07070,2012-06-16 09:00:00,15.1,,,,,,,,,,,,0.4,,,,,,,,data,,,,
07070,2012-06-16 10:00:00,15.1,,,,,,,,,,,,0.2,,,,,,,,data,,,,
07070,2012-06-16 11:00:00,15.3,,,,,,,,,,,,0.4,,,,,,,,data,,,,
07070,2012-06-16 12:00:00,15.7,,,,,,,,,,,,0.8,,,,,,,,data,,,,
07070,2012-06-16 13:00:00,15.8,,,,,,,,,,,,0.4,,,,,,,,data,,,,
07070,2012-06-16 14:00:00,16.3,,,,,,,,,,,,0.4,,,,,,,,data,,,,
07070,2012-06-16 15:00:00,15.5,,,,,,,,,,,,0.9,,,,,,,,data,,,,
07070,2012-06-16 17:00:00,16.3,,,,,,,,,,,,0,,,,,,,,data,,,,
07070,2012-06-16 18:00:00,16.5,,,,,,,,,,,,0,,,,,,,,data,,,,
07070,2012-06-16 21:00:00,14.1,,,,,,,,,,,,0,,,,,,,,data,,,,
07070,2012-06-16 22:00:00,14.3,,,,,,,,,,,,0,,,,,,,,data,,,,
07070,2012-06-16 23:00:00,14.3,,,,,,,,,,,,0,,,,,,,,data,,,,
07070,2012-06-17 00:00:00,13.8,,,,,,,,,,,,0,,,,,,,,data,,,,
07070,2012-06-17 02:00:00,11.9,,,,,,,,,,,,0,,,,,,,,data,,,,
07070,2012-06-17 03:00:00,11,,,,,,,,,,,,0,,,,,,,,data,,,,
07070,2012-06-17 04:00:00,10.6,,,,,,,,,,,,0,,,,,,,,data,,,,
07070,2012-06-17 05:00:00,12.2,,,,,,,,,,,,0.2,,,,,,,,data,,,,
07070,2012-06-17 06:00:00,13.7,,,,,,,,,,,,0,,,,,,,,data,,,,
07070,2012-06-17 07:00:00,14.9,,,,,,,,,,,,0,,,,,,,,data,,,,
07070,2012-06-17 09:00:00,17.5,,,,,,,,,,,,0,,,,,,,,data,,,,
07070,2012-06-17 10:00:00,18.7,,,,,,,,,,,,0,,,,,,,,data,,,,
07070,2012-06-17 11:00:00,19.2,,,,,,,,,,,,0,,,,,,,,data,,,,
07070,2012-06-17 12:00:00,20.2,,,,,,,,,,,,0,,,,,,,,data,,,,
07070,2012-06-17 13:00:00,20.6,,,,,,,,,,,,0,,,,,,,,data,,,,
07070,2012-06-17 14:00:00,20.8,,,,,,,,,,,,0,,,,,,,,data,,,,
07070,2012-06-17 15:00:00,20,,,,,,,,,,,,0,,,,,,,,data,,,,
07070,2012-06-17 16:00:00,20.3,,,,,,,,,,,,0,,,,,,,,data,,,,
07070,2012-06-17 17:00:00,18.9,,,,,,,,,,,,0,,,,,,,,data,,,,
07070,2012-06-17 19:00:00,16.7,,,,,,,,,,,,0,,,,,,,,data,,,,
07070,2012-06-17 23:00:00,11.6,,,,,,,,,,,,0,,,,,,,,data,,,,
07070,2012-06-18 00:00:00,11.2,,,,,,,,,,,,0,,,,,,,,data,,,,
07070,2012-06-18 01:00:00,11.3,,,,,,,,,,,,0,,,,,,,,data,,,,
07070,2012-06-18 02:00:00,11.2,,,,,,,,,,,,0,,,,,,,,data,,,,
07070,2012-06-18 03:00:00,11.4,,,,,,,,,,,,0,,,,,,,,data,,,,
07070,2012-06-18 05:00:00,13.7,,,,,,,,,,,,1.8,,,,,,,,data,,,,
07070,2012-06-18 07:00:00,15.4,,,,,,,,,,,,0,,,,,,,,data,,,,
07070,2012-06-18 09:00:00,15.3,,,,,,,,,,,,0,,,,,,,,data,,,,
07070,2012-06-18 11:00:00,17.9,,,,,,,,,,,,0,,,,,,,,data,,,,
07070,2012-06-18 12:00:00,17.8,,,,,,,,,,,,0,,,,,,,,data,,,,
07070,2012-06-18 13:00:00,18.4,,,,,,,,,,,,0,,,,,,,,data,,,,
07070,2012-06-18 18:00:00,18.3,,,,,,,,,,,,0,,,,,,,,data,,,,
07070,2012-06-18 19:00:00,16,,,,,,,,,,,,0,,,,,,,,data,,,,
07070,2012-06-18 21:00:00,12.8,,,,,,,,,,,,0,,,,,,,,data,,,,
07070,2012-06-18 22:00:00,10.6,,,,,,,,,,,,0,,,,,,,,data,,,,
07070,2012-06-18 23:00:00,10.3,,,,,,,,,,,,0,,,,,,,,data,,,,
07070,2012-06-19 00:00:00,9.2,,,,,,,,,,,,0,,,,,,,,data,,,,
07070,2012-06-19 01:00:00,8.7,,,,,,,,,,,,0,,,,,,,,data,,,,
07070,2012-06-19 02:00:00,7.8,,,,,,,,,,,,0,,,,,,,,data,,,,
07070,2012-06-19 03:00:00,7.8,,,,,,,,,,,,0,,,,,,,,data,,,,
07070,2012-06-19 06:00:00,13.5,,,,,,,,,,,,0,,,,,,,,data,,,,
07070,2012-06-19 07:00:00,14.5,,,,,,,,,,,,0,,,,,,,,data,,,,
07070,2012-06-19 11:00:00,16.4,,,,,,,,,,,,0.2,,,,,,,,data,,,,
07070,2012-06-19 14:00:00,20.4,,,,,,,,,,,,0,,,,,,,,data,,,,
07070,2012-06-19 16:00:00,20.4,,,,,,,,,,,,0,,,,,,,,data,,,,
07070,2012-06-19 17:00:00,19.8,,,,,,,,,,,,0,,,,,,,,data,,,,
07070,2012-06-19 18:00:00,18.8,,,,,,,,,,,,0,,,,,,,,data,,,,
07070,2012-06-19 19:00:00,16.5,,,,,,,,,,,,2.8,,,,,,,,data,,,,
07070,2012-06-19 21:00:00,14.9,,,,,,,,,,,,1.4,,,,,,,,data,,,,
07070,2012-06-19 22:00:00,15.2,,,,,,,,,,,,0.6,,,,,,,,data,,,,
07070,2012-06-20 00:00:00,14.8,,,,,,,,,,,,1.6,,,,,,,,data,,,,
07070,2012-06-20 01:00:00,14.7,,,,,,,,,,,,2.6,,,,,,,,data,,,,
07070,2012-06-20 02:00:00,14.7,,,,,,,,,,,,3.6,,,,,,,,data,,,,
07070,2012-06-20 03:00:00,14.4,,,,,,,,,,,,1.5,,,,,,,,data,,,,
07070,2012-06-20 05:00:00,14.2,,,,,,,,,,,,0.2,,,,,,,,data,,,,
07070,2012-06-20 07:00:00,15,,,,,,,,,,,,0,,,,,,,,data,,,,
07070,2012-06-20 11:00:00,19.9,,,,,,,,,,,,0,,,,,,,,data,,,,
07070,2012-06-21 00:00:00,12.8,,,,,,,,,,,,0,,,,,,,,data,,,,
07070,2012-06-21 02:00:00,13.2,,,,,,,,,,,,0,,,,,,,,data,,,,
07070,2012-06-21 03:00:00,13.5,,,,,,,,,,,,0,,,,,,,,data,,,,
07070,2012-06-21 04:00:00,13.9,,,,,,,,,,,,0,,,,,,,,data,,,,
07070,2012-06-21 05:00:00,15.8,,,,,,,,,,,,0,,,,,,,,data,,,,
07070,2012-06-21 06:00:00,16.3,,,,,,,,,,,,0,,,,,,,,data,,,,
07070,2012-06-21 07:00:00,16.9,,,,,,,,,,,,0.4,,,,,,,,data,,,,
07070,2012-06-21 10:00:00,21.1,,,,,,,,,,,,0,,,,,,,,data,,,,
07070,2012-06-21 16:00:00,17.5,,,,,,,,,,,,1.2,,,,,,,,data,,,,
07070,2012-06-21 18:00:00,19.1,,,,,,,,,,,,0,,,,,,,,data,,,,
07070,2012-06-21 19:00:00,19.4,,,,,,,,,,,,0,,,,,,,,data,,,,
07070,2012-06-21 21:00:00,15.8,,,,,,,,,,,,0,,,,,,,,data,,,,
07070,2012-06-21 22:00:00,15.3,,,,,,,,,,,,0,,,,,,,,data,,,,
07070,2012-06-21 23:00:00,14.1,,,,,,,,,,,,0,,,,,,,,data,,,,
07070,2012-06-22 00:00:00,13.7,,,,,,,,,,,,0,,,,,,,,data,,,,
07070,2012-06-22 01:00:00,13.5,,,,,,,,,,,,0,,,,,,,,data,,,,
07070,2012-06-22 02:00:00,12.9,,,,,,,,,,,,0,,,,,,,,data,,,,
07070,2012-06-22 03:00:00,12.5,,,,,,,,,,,,0,,,,,,,,data,,,,
07070,2012-06-22 05:00:00,12.5,,,,,,,,,,,,0,,,,,,,,data,,,,
07070,2012-06-22 09:00:00,16,,,,,,,,,,,,0,,,,,,,,data,,,,
07070,2012-06-22 10:00:00,17.2,,,,,,,,,,,,0,,,,,,,,data,,,,
07070,2012-06-22 11:00:00,18.1,,,,,,,,,,,,0,,,,,,,,data,,,,
07070,2012-06-22 13:00:00,19.9,,,,,,,,,,,,0,,,,,,,,data,,,,
07070,2012-06-22 14:00:00,20.2,,,,,,,,,,,,0,,,,,,,,data,,,,
07070,2012-06-22 17:00:00,19.9,,,,,,,,,,,,0,,,,,,,,data,,,,
07070,2012-06-22 18:00:00,19.6,,,,,,,,,,,,0,,,,,,,,data,,,,
07070,2012-06-22 19:00:00,18.6,,,,,,,,,,,,0,,,,,,,,data,,,,
07070,2012-06-22 20:00:00,16.2,,,,,,,,,,,,0,,,,,,,,data,,,,
07070,2012-06-22 21:00:00,13.3,,,,,,,,,,,,0,,,,,,,,data,,,,
07070,2012-06-22 22:00:00,14.4,,,,,,,,,,,,0,,,,,,,,data,,,,
07070,2012-06-22 23:00:00,13.4,,,,,,,,,,,,0,,,,,,,,data,,,,
07070,2012-06-23 00:00:00,12.8,,,,,,,,,,,,0,,,,,,,,data,,,,
07070,2012-06-23 01:00:00,12.3,,,,,,,,,,,,0,,,,,,,,data,,,,
07070,2012-06-23 02:00:00,10.4,,,,,,,,,,,,0,,,,,,,,data,,,,
07070,2012-06-23 03:00:00,9.7,,,,,,,,,,,,0,,,,,,,,data,,,,
07070,2012-06-23 04:00:00,9.2,,,,,,,,,,,,0,,,,,,,,data,,,,
07070,2012-06-23 05:00:00,11,,,,,,,,,,,,0,,,,,,,,data,,,,
07070,2012-06-23 06:00:00,13.2,,,,,,,,,,,,0,,,,,,,,data,,,,
07070,2012-06-23 07:00:00,14.7,,,,,,,,,,,,0,,,,,,,,data,,,,
07070,2012-06-23 08:00:00,15,,,,,,,,,,,,0,,,,,,,,data,,,,
07070,2012-06-23 11:00:00,19.3,,,,,,,,,,,,0,,,,,,,,data,,,,
07070,2012-06-23 12:00:00,19.6,,,,,,,,,,,,0,,,,,,,,data,,,,
07070,2012-06-23 13:00:00,20.6,,,,,,,,,,,,0,,,,,,,,data,,,,
07070,2012-06-23 14:00:00,20.2,,,,,,,,,,,,0,,,,,,,,data,,,,
07070,2012-06-23 16:00:00,19.7,,,,,,,,,,,,0,,,,,,,,data,,,,
07070,2012-06-23 17:00:00,20.9,,,,,,,,,,,,0,,,,,,,,data,,,,
07070,2012-06-23 18:00:00,19.8,,,,,,,,,,,,0,,,,,,,,data,,,,
07070,2012-06-23 19:00:00,17.9,,,,,,,,,,,,0,,,,,,,,data,,,,
07070,2012-06-23 20:00:00,17.5,,,,,,,,,,,,0,,,,,,,,data,,,,
07070,2012-06-23 21:00:00,13.7,,,,,,,,,,,,0,,,,,,,,data,,,,
07070,2012-06-23 22:00:00,11.3,,,,,,,,,,,,0,,,,,,,,data,,,,
07070,2012-06-23 23:00:00,11.1,,,,,,,,,,,,0,,,,,,,,data,,,,
07070,2012-06-24 00:00:00,9.8,,,,,,,,,,,,0,,,,,,,,data,,,,
07070,2012-06-24 01:00:00,9.4,,,,,,,,,,,,0,,,,,,,,data,,,,
07070,2012-06-24 02:00:00,9.4,,,,,,,,,,,,0,,,,,,,,data,,,,
07070,2012-06-24 03:00:00,9.5,,,,,,,,,,,,0,,,,,,,,data,,,,
07070,2012-06-24 04:00:00,9.5,,,,,,,,,,,,0,,,,,,,,data,,,,
07070,2012-06-24 05:00:00,12.3,,,,,,,,,,,,0,,,,,,,,data,,,,
07070,2012-06-24 06:00:00,14.3,,,,,,,,,,,,0,,,,,,,,data,,,,
07070,2012-06-24 07:00:00,16.1,,,,,,,,,,,,0,,,,,,,,data,,,,
07070,2012-06-24 08:00:00,16.6,,,,,,,,,,,,0,,,,,,,,data,,,,
07070,2012-06-24 09:00:00,17,,,,,,,,,,,,0,,,,,,,,data,,,,
07070,2012-06-24 10:00:00,16.4,,,,,,,,,,,,0,,,,,,,,data,,,,
07070,2012-06-24 11:00:00,15.3,,,,,,,,,,,,0.2,,,,,,,,data,,,,
07070,2012-06-24 12:00:00,15.5,,,,,,,,,,,,0.4,,,,,,,,data,,,,
07070,2012-06-24 13:00:00,15.5,,,,,,,,,,,,0.4,,,,,,,,data,,,,
07070,2012-06-24 14:00:00,15.3,,,,,,,,,,,,2.4,,,,,,,,data,,,,
07070,2012-06-24 16:00:00,14,,,,,,,,,,,,1.3,,,,,,,,data,,,,
07070,2012-06-24 17:00:00,13.2,,,,,,,,,,,,1.8,,,,,,,,data,,,,
07070,2012-06-24 18:00:00,13.1,,,,,,,,,,,,2,,,,,,,,data,,,,
07070,2012-06-24 19:00:00,13.3,,,,,,,,,,,,0.6,,,,,,,,data,,,,
07070,2012-06-24 20:00:00,12.9,,,,,,,,,,,,1.4,,,,,,,,data,,,,
07070,2012-06-24 21:00:00,13,,,,,,,,,,,,0,,,,,,,,data,,,,
07070,2012-06-24 22:00:00,13,,,,,,,,,,,,0,,,,,,,,data,,,,
07070,2012-06-24 23:00:00,12.8,,,,,,,,,,,,0,,,,,,,,data,,,,
07070,2012-06-25 00:00:00,11.2,,,,,,,,,,,,0,,,,,,,,data,,,,
07070,2012-06-25 02:00:00,10.3,,,,,,,,,,,,0,,,,,,,,data,,,,
07070,2012-06-25 03:00:00,10.1,,,,,,,,,,,,0.2,,,,,,,,data,,,,
07070,2012-06-25 05:00:00,11.7,,,,,,,,,,,,0,,,,,,,,data,,,,
07070,2012-06-25 08:00:00,13.4,,,,,,,,,,,,0,,,,,,,,data,,,,
07070,2012-06-25 09:00:00,15.7,,,,,,,,,,,,0,,,,,,,,data,,,,
07070,2012-06-25 10:00:00,16.6,,,,,,,,,,,,0,,,,,,,,data,,,,
07070,2012-06-25 11:00:00,16.8,,,,,,,,,,,,0,,,,,,,,data,,,,
07070,2012-06-25 13:00:00,19.7,,,,,,,,,,,,0,,,,,,,,data,,,,
07070,2012-06-25 14:00:00,21.1,,,,,,,,,,,,0,,,,,,,,data,,,,
07070,2012-06-25 16:00:00,21,,,,,,,,,,,,0,,,,,,,,data,,,,
07070,2012-06-25 18:00:00,19.3,,,,,,,,,,,,0,,,,,,,,data,,,,
07070,2012-06-25 20:00:00,16.8,,,,,,,,,,,,0,,,,,,,,data,,,,
07070,2012-06-25 21:00:00,14.4,,,,,,,,,,,,0,,,,,,,,data,,,,
07070,2012-06-25 22:00:00,12,,,,,,,,,,,,0,,,,,,,,data,,,,
07070,2012-06-26 02:00:00,11.6,,,,,,,,,,,,0,,,,,,,,data,,,,
07070,2012-06-26 03:00:00,11.5,,,,,,,,,,,,0,,,,,,,,data,,,,
07070,2012-06-26 05:00:00,12.3,,,,,,,,,,,,0,,,,,,,,data,,,,
07070,2012-06-26 06:00:00,13.5,,,,,,,,,,,,0.2,,,,,,,,data,,,,
07070,2012-06-26 07:00:00,15.6,,,,,,,,,,,,0,,,,,,,,data,,,,
07070,2012-06-26 13:00:00,21.6,,,,,,,,,,,,0,,,,,,,,data,,,,
07070,2012-06-26 14:00:00,21,,,,,,,,,,,,0,,,,,,,,data,,,,
07070,2012-06-26 15:00:00,20.1,,,,,,,,,,,,0,,,,,,,,data,,,,
07070,2012-06-26 17:00:00,20.9,,,,,,,,,,,,0,,,,,,,,data,,,,
07070,2012-06-26 18:00:00,20.4,,,,,,,,,,,,0,,,,,,,,data,,,,
07070,2012-06-26 19:00:00,19.6,,,,,,,,,,,,0,,,,,,,,data,,,,
07070,2012-06-26 22:00:00,18.9,,,,,,,,,,,,0,,,,,,,,data,,,,
07070,2012-06-26 23:00:00,18.3,,,,,,,,,,,,0,,,,,,,,data,,,,
07070,2012-06-27 00:00:00,17.4,,,,,,,,,,,,0,,,,,,,,data,,,,
07070,2012-06-27 01:00:00,17.3,,,,,,,,,,,,0,,,,,,,,data,,,,
07070,2012-06-27 02:00:00,17.3,,,,,,,,,,,,0,,,,,,,,data,,,,
07070,2012-06-27 03:00:00,16.9,,,,,,,,,,,,0,,,,,,,,data,,,,
07070,2012-06-27 04:00:00,16.7,,,,,,,,,,,,0,,,,,,,,data,,,,
07070,2012-06-27 05:00:00,17.1,,,,,,,,,,,,0,,,,,,,,data,,,,
07070,2012-06-27 06:00:00,18.6,,,,,,,,,,,,0,,,,,,,,data,,,,
07070,2012-06-27 07:00:00,19.7,,,,,,,,,,,,0,,,,,,,,data,,,,
07070,2012-06-27 09:00:00,21.4,,,,,,,,,,,,0,,,,,,,,data,,,,
07070,2012-06-27 10:00:00,23.1,,,,,,,,,,,,0,,,,,,,,data,,,,
07070,2012-06-27 11:00:00,23.6,,,,,,,,,,,,0,,,,,,,,data,,,,
07070,2012-06-27 12:00:00,24.1,,,,,,,,,,,,0,,,,,,,,data,,,,
07070,2012-06-27 13:00:00,24.4,,,,,,,,,,,,0,,,,,,,,data,,,,
07070,2012-06-27 14:00:00,25.3,,,,,,,,,,,,0,,,,,,,,data,,,,
07070,2012-06-27 15:00:00,24.5,,,,,,,,,,,,0,,,,,,,,data,,,,
07070,2012-06-27 16:00:00,25.9,,,,,,,,,,,,0,,,,,,,,data,,,,
07070,2012-06-27 17:00:00,24.9,,,,,,,,,,,,0,,,,,,,,data,,,,
07070,2012-06-27 19:00:00,21.5,,,,,,,,,,,,0,,,,,,,,data,,,,
07070,2012-06-27 21:00:00,18.8,,,,,,,,,,,,0,,,,,,,,data,,,,
07070,2012-06-27 22:00:00,18.6,,,,,,,,,,,,0,,,,,,,,data,,,,
07070,2012-06-28 02:00:00,17.1,,,,,,,,,,,,0,,,,,,,,data,,,,
07070,2012-06-28 04:00:00,15.4,,,,,,,,,,,,0,,,,,,,,data,,,,
07070,2012-06-28 06:00:00,21.2,,,,,,,,,,,,0,,,,,,,,data,,,,
07070,2012-06-28 07:00:00,23.2,,,,,,,,,,,,0,,,,,,,,data,,,,
07070,2012-06-28 09:00:00,25.5,,,,,,,,,,,,0,,,,,,,,data,,,,
07070,2012-06-28 11:00:00,27.3,,,,,,,,,,,,0,,,,,,,,data,,,,
07070,2012-06-28 13:00:00,26.7,,,,,,,,,,,,0,,,,,,,,data,,,,
07070,2012-06-28 14:00:00,28.6,,,,,,,,,,,,0,,,,,,,,data,,,,
07070,2012-06-28 16:00:00,29.3,,,,,,,,,,,,0,,,,,,,,data,,,,
07070,2012-06-28 17:00:00,28.8,,,,,,,,,,,,0,,,,,,,,data,,,,
07070,2012-06-28 18:00:00,26.5,,,,,,,,,,,,0,,,,,,,,data,,,,
07070,2012-06-28 21:00:00,18.9,,,,,,,,,,,,0.2,,,,,,,,data,,,,
07070,2012-06-28 22:00:00,18.7,,,,,,,,,,,,0,,,,,,,,data,,,,
07070,2012-06-28 23:00:00,18,,,,,,,,,,,,0,,,,,,,,data,,,,
07070,2012-06-29 01:00:00,17,,,,,,,,,,,,0,,,,,,,,data,,,,
07070,2012-06-29 04:00:00,17.9,,,,,,,,,,,,0,,,,,,,,data,,,,
07070,2012-06-29 05:00:00,18.2,,,,,,,,,,,,0,,,,,,,,data,,,,
07070,2012-06-29 06:00:00,18.9,,,,,,,,,,,,0,,,,,,,,data,,,,
07070,2012-06-29 07:00:00,19.8,,,,,,,,,,,,0,,,,,,,,data,,,,
07070,2012-06-29 09:00:00,16.6,,,,,,,,,,,,1.6,,,,,,,,data,,,,
07070,2012-06-29 11:00:00,16.7,,,,,,,,,,,,1,,,,,,,,data,,,,
07070,2012-06-29 12:00:00,18,,,,,,,,,,,,0,,,,,,,,data,,,,
07070,2012-06-29 13:00:00,19.6,,,,,,,,,,,,0,,,,,,,,data,,,,
07070,2012-06-29 15:00:00,20.3,,,,,,,,,,,,0,,,,,,,,data,,,,
07070,2012-06-29 16:00:00,21.7,,,,,,,,,,,,0,,,,,,,,data,,,,
07070,2012-06-29 17:00:00,21.6,,,,,,,,,,,,0,,,,,,,,data,,,,
07070,2012-06-29 18:00:00,21.3,,,,,,,,,,,,0,,,,,,,,data,,,,
07070,2012-06-29 19:00:00,19.1,,,,,,,,,,,,0,,,,,,,,data,,,,
07070,2012-06-29 20:00:00,18,,,,,,,,,,,,0,,,,,,,,data,,,,
07070,2012-06-29 21:00:00,17.4,,,,,,,,,,,,0,,,,,,,,data,,,,
07070,2012-06-29 23:00:00,15.6,,,,,,,,,,,,0,,,,,,,,data,,,,
07070,2012-06-30 00:00:00,14.3,,,,,,,,,,,,0,,,,,,,,data,,,,
07070,2012-06-30 01:00:00,13,,,,,,,,,,,,0,,,,,,,,data,,,,
07070,2012-06-30 02:00:00,13.3,,,,,,,,,,,,0,,,,,,,,data,,,,
07070,2012-06-30 04:00:00,12.2,,,,,,,,,,,,0,,,,,,,,data,,,,
07070,2012-06-30 05:00:00,14,,,,,,,,,,,,0,,,,,,,,data,,,,
07070,2012-06-30 06:00:00,16.9,,,,,,,,,,,,0,,,,,,,,data,,,,
07070,2012-06-30 08:00:00,19.3,,,,,,,,,,,,0,,,,,,,,data,,,,
07070,2012-06-30 09:00:00,20.3,,,,,,,,,,,,0,,,,,,,,data,,,,
07070,2012-06-30 12:00:00,22.7,,,,,,,,,,,,0,,,,,,,,data,,,,
07070,2012-06-30 13:00:00,23.2,,,,,,,,,,,,0,,,,,,,,data,,,,
07070,2012-06-30 14:00:00,24.3,,,,,,,,,,,,0,,,,,,,,data,,,,
07070,2012-06-30 17:00:00,22.4,,,,,,,,,,,,0,,,,,,,,data,,,,
07070,2012-06-30 18:00:00,22.9,,,,,,,,,,,,0,,,,,,,,data,,,,
07070,2012-06-30 19:00:00,21.1,,,,,,,,,,,,0,,,,,,,,data,,,,
07070,2012-06-30 20:00:00,19.1,,,,,,,,,,,,0,,,,,,,,data,,,,
07070,2012-06-30 21:00:00,18.1,,,,,,,,,,,,0,,,,,,,,data,,,,
07070,2012-07-01 00:00:00,14.4,,,,,,,,,,,,0,,,,,,,,data,,,,
07070,2012-07-01 01:00:00,13.4,,,,,,,,,,,,0,,,,,,,,data,,,,
07070,2012-07-01 02:00:00,13.9,,,,,,,,,,,,0,,,,,,,,data,,,,
07070,2012-07-01 03:00:00,14.6,,,,,,,,,,,,0,,,,,,,,data,,,,
07070,2012-07-01 04:00:00,14.8,,,,,,,,,,,,0,,,,,,,,data,,,,
07070,2012-07-01 05:00:00,14.7,,,,,,,,,,,,0,,,,,,,,data,,,,
07070,2012-07-01 06:00:00,15.3,,,,,,,,,,,,0,,,,,,,,data,,,,
07070,2012-07-01 07:00:00,16.3,,,,,,,,,,,,0,,,,,,,,data,,,,
07070,2012-07-01 09:00:00,17.8,,,,,,,,,,,,0,,,,,,,,data,,,,
07070,2012-07-01 10:00:00,18.1,,,,,,,,,,,,0,,,,,,,,data,,,,
07070,2012-07-01 11:00:00,18.9,,,,,,,,,,,,0,,,,,,,,data,,,,
07070,2012-07-01 12:00:00,20.8,,,,,,,,,,,,0,,,,,,,,data,,,,
07070,2012-07-01 14:00:00,20.2,,,,,,,,,,,,0,,,,,,,,data,,,,
07070,2012-07-01 15:00:00,20.6,,,,,,,,,,,,0,,,,,,,,data,,,,
07070,2012-07-01 18:00:00,20.1,,,,,,,,,,,,0,,,,,,,,data,,,,
07070,2012-07-01 19:00:00,17.7,,,,,,,,,,,,0,,,,,,,,data,,,,
07070,2012-07-01 22:00:00,11.3,,,,,,,,,,,,0,,,,,,,,data,,,,
07070,2012-07-01 23:00:00,10.4,,,,,,,,,,,,0,,,,,,,,data,,,,
07070,2012-07-02 00:00:00,9.7,,,,,,,,,,,,0,,,,,,,,data,,,,
07070,2012-07-02 01:00:00,9,,,,,,,,,,,,0,,,,,,,,data,,,,
07070,2012-07-02 02:00:00,9.6,,,,,,,,,,,,0,,,,,,,,data,,,,
07070,2012-07-02 03:00:00,10.1,,,,,,,,,,,,0,,,,,,,,data,,,,
07070,2012-07-02 04:00:00,9.9,,,,,,,,,,,,0,,,,,,,,data,,,,
07070,2012-07-02 05:00:00,10.9,,,,,,,,,,,,0,,,,,,,,data,,,,
07070,2012-07-02 06:00:00,11.9,,,,,,,,,,,,0,,,,,,,,data,,,,
07070,2012-07-02 07:00:00,13.2,,,,,,,,,,,,0,,,,,,,,data,,,,
07070,2012-07-02 09:00:00,18.9,,,,,,,,,,,,0,,,,,,,,data,,,,
07070,2012-07-02 11:00:00,21.5,,,,,,,,,,,,0,,,,,,,,data,,,,
07070,2012-07-02 12:00:00,22.5,,,,,,,,,,,,0,,,,,,,,data,,,,
07070,2012-07-02 13:00:00,21.7,,,,,,,,,,,,0,,,,,,,,data,,,,
07070,2012-07-02 14:00:00,22.4,,,,,,,,,,,,0,,,,,,,,data,,,,
07070,2012-07-02 15:00:00,21.9,,,,,,,,,,,,0,,,,,,,,data,,,,
07070,2012-07-02 16:00:00,23.1,,,,,,,,,,,,0,,,,,,,,data,,,,
07070,2012-07-02 17:00:00,21.3,,,,,,,,,,,,0,,,,,,,,data,,,,
07070,2012-07-02 18:00:00,22,,,,,,,,,,,,0,,,,,,,,data,,,,
07070,2012-07-02 19:00:00,19.3,,,,,,,,,,,,0,,,,,,,,data,,,,
07070,2012-07-02 21:00:00,14.5,,,,,,,,,,,,0,,,,,,,,data,,,,
07070,2012-07-02 22:00:00,14.6,,,,,,,,,,,,0,,,,,,,,data,,,,
07070,2012-07-02 23:00:00,14.2,,,,,,,,,,,,0,,,,,,,,data,,,,
07070,2012-07-03 00:00:00,14.4,,,,,,,,,,,,0,,,,,,,,data,,,,
07070,2012-07-03 01:00:00,15.1,,,,,,,,,,,,0,,,,,,,,data,,,,
07070,2012-07-03 02:00:00,14.8,,,,,,,,,,,,0,,,,,,,,data,,,,
07070,2012-07-03 03:00:00,14,,,,,,,,,,,,0,,,,,,,,data,,,,
07070,2012-07-03 05:00:00,15.1,,,,,,,,,,,,0,,,,,,,,data,,,,
07070,2012-07-03 06:00:00,17,,,,,,,,,,,,0,,,,,,,,data,,,,
07070,2012-07-03 07:00:00,19.5,,,,,,,,,,,,0,,,,,,,,data,,,,
07070,2012-07-03 10:00:00,21.6,,,,,,,,,,,,0,,,,,,,,data,,,,
07070,2012-07-03 11:00:00,22.5,,,,,,,,,,,,0,,,,,,,,data,,,,
07070,2012-07-03 12:00:00,22.1,,,,,,,,,,,,0,,,,,,,,data,,,,
07070,2012-07-03 14:00:00,23.9,,,,,,,,,,,,0,,,,,,,,data,,,,
07070,2012-07-03 15:00:00,23.1,,,,,,,,,,,,0,,,,,,,,data,,,,
07070,2012-07-03 16:00:00,23.2,,,,,,,,,,,,0,,,,,,,,data,,,,
07070,2012-07-03 17:00:00,23.9,,,,,,,,,,,,0,,,,,,,,data,,,,
07070,2012-07-03 18:00:00,24,,,,,,,,,,,,0,,,,,,,,data,,,,
07070,2012-07-03 19:00:00,21.2,,,,,,,,,,,,0,,,,,,,,data,,,,
07070,2012-07-03 21:00:00,16.3,,,,,,,,,,,,0,,,,,,,,data,,,,
07070,2012-07-03 22:00:00,16.9,,,,,,,,,,,,0,,,,,,,,data,,,,
07070,2012-07-03 23:00:00,17,,,,,,,,,,,,0,,,,,,,,data,,,,
07070,2012-07-04 00:00:00,17.7,,,,,,,,,,,,0,,,,,,,,data,,,,
07070,2012-07-04 01:00:00,17.4,,,,,,,,,,,,0,,,,,,,,data,,,,
07070,2012-07-04 02:00:00,17.4,,,,,,,,,,,,0,,,,,,,,data,,,,
07070,2012-07-04 03:00:00,17.3,,,,,,,,,,,,0,,,,,,,,data,,,,
07070,2012-07-04 05:00:00,17.2,,,,,,,,,,,,0,,,,,,,,data,,,,
07070,2012-07-04 06:00:00,17.9,,,,,,,,,,,,0,,,,,,,,data,,,,
07070,2012-07-04 07:00:00,20.2,,,,,,,,,,,,0,,,,,,,,data,,,,
07070,2012-07-04 09:00:00,23.6,,,,,,,,,,,,0,,,,,,,,data,,,,
07070,2012-07-04 10:00:00,24.3,,,,,,,,,,,,0,,,,,,,,data,,,,
07070,2012-07-04 11:00:00,25.7,,,,,,,,,,,,0,,,,,,,,data,,,,
07070,2012-07-04 13:00:00,26.9,,,,,,,,,,,,0,,,,,,,,data,,,,
07070,2012-07-04 14:00:00,27,,,,,,,,,,,,0,,,,,,,,data,,,,
07070,2012-07-04 15:00:00,24.6,,,,,,,,,,,,0,,,,,,,,data,,,,
07070,2012-07-04 16:00:00,19.4,,,,,,,,,,,,1.2,,,,,,,,data,,,,
07070,2012-07-04 17:00:00,20,,,,,,,,,,,,0.4,,,,,,,,data,,,,
07070,2012-07-04 18:00:00,19,,,,,,,,,,,,2,,,,,,,,data,,,,
07070,2012-07-04 21:00:00,18.3,,,,,,,,,,,,0.6,,,,,,,,data,,,,
07070,2012-07-04 22:00:00,16.9,,,,,,,,,,,,0,,,,,,,,data,,,,
07070,2012-07-04 23:00:00,16.2,,,,,,,,,,,,0,,,,,,,,data,,,,
07070,2012-07-05 00:00:00,16.2,,,,,,,,,,,,0,,,,,,,,data,,,,
07070,2012-07-05 03:00:00,17.1,,,,,,,,,,,,0,,,,,,,,data,,,,
07070,2012-07-05 04:00:00,16.8,,,,,,,,,,,,0,,,,,,,,data,,,,
07070,2012-07-05 05:00:00,17.1,,,,,,,,,,,,0,,,,,,,,data,,,,
07070,2012-07-05 06:00:00,18.2,,,,,,,,,,,,0,,,,,,,,data,,,,
07070,2012-07-05 07:00:00,19.7,,,,,,,,,,,,0,,,,,,,,data,,,,
07070,2012-07-05 09:00:00,21.9,,,,,,,,,,,,0,,,,,,,,data,,,,
07070,2012-07-05 11:00:00,24,,,,,,,,,,,,0,,,,,,,,data,,,,
07070,2012-07-05 12:00:00,22.1,,,,,,,,,,,,0,,,,,,,,data,,,,
07070,2012-07-05 13:00:00,22.2,,,,,,,,,,,,0,,,,,,,,data,,,,
07070,2012-07-05 14:00:00,20,,,,,,,,,,,,0.4,,,,,,,,data,,,,
07070,2012-07-05 16:00:00,18,,,,,,,,,,,,2.7,,,,,,,,data,,,,
07070,2012-07-05 18:00:00,18,,,,,,,,,,,,0.2,,,,,,,,data,,,,
07070,2012-07-05 19:00:00,18,,,,,,,,,,,,0.6,,,,,,,,data,,,,
07070,2012-07-05 21:00:00,17.6,,,,,,,,,,,,0.2,,,,,,,,data,,,,
07070,2012-07-05 22:00:00,17.6,,,,,,,,,,,,1.4,,,,,,,,data,,,,
07070,2012-07-05 23:00:00,17.1,,,,,,,,,,,,0,,,,,,,,data,,,,
07070,2012-07-06 00:00:00,16.9,,,,,,,,,,,,0,,,,,,,,data,,,,
07070,2012-07-06 01:00:00,16,,,,,,,,,,,,0,,,,,,,,data,,,,
07070,2012-07-06 02:00:00,15.9,,,,,,,,,,,,0,,,,,,,,data,,,,
07070,2012-07-06 03:00:00,15.4,,,,,,,,,,,,0,,,,,,,,data,,,,
07070,2012-07-06 06:00:00,15.3,,,,,,,,,,,,0.2,,,,,,,,data,,,,
07070,2012-07-06 07:00:00,17.3,,,,,,,,,,,,0,,,,,,,,data,,,,
07070,2012-07-06 10:00:00,20.2,,,,,,,,,,,,0,,,,,,,,data,,,,
07070,2012-07-06 11:00:00,19.8,,,,,,,,,,,,0,,,,,,,,data,,,,
07070,2012-07-06 12:00:00,21.6,,,,,,,,,,,,0,,,,,,,,data,,,,
07070,2012-07-06 13:00:00,21.3,,,,,,,,,,,,0,,,,,,,,data,,,,
07070,2012-07-06 14:00:00,18.2,,,,,,,,,,,,2.4,,,,,,,,data,,,,
07070,2012-07-06 15:00:00,19.2,,,,,,,,,,,,0,,,,,,,,data,,,,
07070,2012-07-06 16:00:00,20.3,,,,,,,,,,,,0,,,,,,,,data,,,,
07070,2012-07-06 17:00:00,20,,,,,,,,,,,,0,,,,,,,,data,,,,
07070,2012-07-06 18:00:00,20,,,,,,,,,,,,0,,,,,,,,data,,,,
07070,2012-07-06 19:00:00,16.3,,,,,,,,,,,,1.6,,,,,,,,data,,,,
07070,2012-07-06 22:00:00,14.6,,,,,,,,,,,,0,,,,,,,,data,,,,
07070,2012-07-06 23:00:00,14.7,,,,,,,,,,,,0,,,,,,,,data,,,,
07070,2012-07-07 01:00:00,14.1,,,,,,,,,,,,0,,,,,,,,data,,,,
07070,2012-07-07 02:00:00,14,,,,,,,,,,,,0,,,,,,,,data,,,,
07070,2012-07-07 04:00:00,13.1,,,,,,,,,,,,0,,,,,,,,data,,,,
07070,2012-07-07 05:00:00,13.8,,,,,,,,,,,,0,,,,,,,,data,,,,
07070,2012-07-07 07:00:00,16.7,,,,,,,,,,,,0,,,,,,,,data,,,,
07070,2012-07-07 09:00:00,18.1,,,,,,,,,,,,0,,,,,,,,data,,,,
07070,2012-07-07 10:00:00,19.5,,,,,,,,,,,,0,,,,,,,,data,,,,
07070,2012-07-07 11:00:00,20,,,,,,,,,,,,0,,,,,,,,data,,,,
07070,2012-07-07 12:00:00,20,,,,,,,,,,,,0.2,,,,,,,,data,,,,
07070,2012-07-07 13:00:00,21.1,,,,,,,,,,,,0,,,,,,,,data,,,,
07070,2012-07-07 14:00:00,23.1,,,,,,,,,,,,0,,,,,,,,data,,,,
07070,2012-07-07 15:00:00,23.1,,,,,,,,,,,,0,,,,,,,,data,,,,
07070,2012-07-07 16:00:00,23.5,,,,,,,,,,,,0,,,,,,,,data,,,,
07070,2012-07-07 17:00:00,22.6,,,,,,,,,,,,0,,,,,,,,data,,,,
07070,2012-07-07 18:00:00,18.3,,,,,,,,,,,,1,,,,,,,,data,,,,
07070,2012-07-07 21:00:00,15.1,,,,,,,,,,,,0,,,,,,,,data,,,,
07070,2012-07-07 22:00:00,13.4,,,,,,,,,,,,0,,,,,,,,data,,,,
07070,2012-07-07 23:00:00,13.7,,,,,,,,,,,,0,,,,,,,,data,,,,
07070,2012-07-08 00:00:00,15.4,,,,,,,,,,,,0,,,,,,,,data,,,,
07070,2012-07-08 02:00:00,14.9,,,,,,,,,,,,0,,,,,,,,data,,,,
07070,2012-07-08 03:00:00,15.2,,,,,,,,,,,,3.4,,,,,,,,data,,,,
07070,2012-07-08 04:00:00,14.8,,,,,,,,,,,,0,,,,,,,,data,,,,
07070,2012-07-08 05:00:00,15,,,,,,,,,,,,0,,,,,,,,data,,,,
07070,2012-07-08 06:00:00,15,,,,,,,,,,,,5.3,,,,,,,,data,,,,
07070,2012-07-08 07:00:00,17.6,,,,,,,,,,,,0,,,,,,,,data,,,,
07070,2012-07-08 10:00:00,18.5,,,,,,,,,,,,0,,,,,,,,data,,,,
07070,2012-07-08 11:00:00,18.7,,,,,,,,,,,,1.2,,,,,,,,data,,,,
07070,2012-07-08 12:00:00,18.6,,,,,,,,,,,,0,,,,,,,,data,,,,
07070,2012-07-08 13:00:00,19.4,,,,,,,,,,,,0,,,,,,,,data,,,,
07070,2012-07-08 14:00:00,18.5,,,,,,,,,,,,0,,,,,,,,data,,,,
07070,2012-07-08 15:00:00,18.7,,,,,,,,,,,,0,,,,,,,,data,,,,
07070,2012-07-08 18:00:00,18.9,,,,,,,,,,,,0,,,,,,,,data,,,,
07070,2012-07-08 19:00:00,17.6,,,,,,,,,,,,0,,,,,,,,data,,,,
07070,2012-07-08 21:00:00,14,,,,,,,,,,,,0,,,,,,,,data,,,,
07070,2012-07-09 00:00:00,11.5,,,,,,,,,,,,0,,,,,,,,data,,,,
07070,2012-07-09 01:00:00,11.2,,,,,,,,,,,,0,,,,,,,,data,,,,
07070,2012-07-09 02:00:00,12.4,,,,,,,,,,,,0,,,,,,,,data,,,,
07070,2012-07-09 03:00:00,12.1,,,,,,,,,,,,0,,,,,,,,data,,,,
07070,2012-07-09 05:00:00,14.4,,,,,,,,,,,,0,,,,,,,,data,,,,
07070,2012-07-09 06:00:00,15.2,,,,,,,,,,,,0,,,,,,,,data,,,,
07070,2012-07-09 07:00:00,17.8,,,,,,,,,,,,0,,,,,,,,data,,,,
07070,2012-07-09 09:00:00,19.1,,,,,,,,,,,,0,,,,,,,,data,,,,
07070,2012-07-09 12:00:00,21,,,,,,,,,,,,0,,,,,,,,data,,,,
07070,2012-07-10 00:00:00,12.7,,,,,,,,,,,,0,,,,,,,,data,,,,
07070,2012-07-10 01:00:00,12.3,,,,,,,,,,,,0,,,,,,,,data,,,,
07070,2012-07-10 02:00:00,13,,,,,,,,,,,,0,,,,,,,,data,,,,
07070,2012-07-10 03:00:00,13.2,,,,,,,,,,,,0,,,,,,,,data,,,,
07070,2012-07-10 05:00:00,14.3,,,,,,,,,,,,0,,,,,,,,data,,,,
07070,2012-07-10 06:00:00,15.9,,,,,,,,,,,,0,,,,,,,,data,,,,
07070,2012-07-10 07:00:00,19.4,,,,,,,,,,,,0,,,,,,,,data,,,,
07070,2012-07-10 09:00:00,20.2,,,,,,,,,,,,0,,,,,,,,data,,,,
07070,2012-07-10 10:00:00,20.6,,,,,,,,,,,,0,,,,,,,,data,,,,
07070,2012-07-11 00:00:00,14.3,,,,,,,,,,,,0,,,,,,,,data,,,,
07070,2012-07-11 01:00:00,14.7,,,,,,,,,,,,0,,,,,,,,data,,,,
07070,2012-07-11 02:00:00,14.9,,,,,,,,,,,,0,,,,,,,,data,,,,
07070,2012-07-11 03:00:00,14.6,,,,,,,,,,,,0,,,,,,,,data,,,,
07070,2012-07-11 05:00:00,14.8,,,,,,,,,,,,0,,,,,,,,data,,,,
07070,2012-07-11 06:00:00,14.5,,,,,,,,,,,,0,,,,,,,,data,,,,
07070,2012-07-11 07:00:00,14.1,,,,,,,,,,,,0.2,,,,,,,,data,,,,
07070,2012-07-11 09:00:00,13.6,,,,,,,,,,,,0.6,,,,,,,,data,,,,
07070,2012-07-11 10:00:00,16,,,,,,,,,,,,0,,,,,,,,data,,,,
07070,2012-07-11 12:00:00,18,,,,,,,,,,,,0,,,,,,,,data,,,,
07070,2012-07-11 14:00:00,18.6,,,,,,,,,,,,0,,,,,,,,data,,,,
07070,2012-07-11 15:00:00,19.6,,,,,,,,,,,,0,,,,,,,,data,,,,
07070,2012-07-11 16:00:00,14.7,,,,,,,,,,,,0.6,,,,,,,,data,,,,
07070,2012-07-11 17:00:00,16.8,,,,,,,,,,,,0,,,,,,,,data,,,,
07070,2012-07-11 19:00:00,15,,,,,,,,,,,,0,,,,,,,,data,,,,
07070,2012-07-11 21:00:00,13.8,,,,,,,,,,,,0,,,,,,,,data,,,,
07070,2012-07-11 22:00:00,13.5,,,,,,,,,,,,0,,,,,,,,data,,,,
07070,2012-07-11 23:00:00,13.2,,,,,,,,,,,,0,,,,,,,,data,,,,
07070,2012-07-12 00:00:00,13,,,,,,,,,,,,0,,,,,,,,data,,,,
07070,2012-07-12 02:00:00,12.1,,,,,,,,,,,,0,,,,,,,,data,,,,
07070,2012-07-12 03:00:00,11.7,,,,,,,,,,,,0,,,,,,,,data,,,,
07070,2012-07-12 04:00:00,11.3,,,,,,,,,,,,0,,,,,,,,data,,,,
07070,2012-07-12 07:00:00,14.1,,,,,,,,,,,,0,,,,,,,,data,,,,
07070,2012-07-12 09:00:00,16.3,,,,,,,,,,,,0,,,,,,,,data,,,,
07070,2012-07-12 10:00:00,16.3,,,,,,,,,,,,0,,,,,,,,data,,,,
07070,2012-07-12 12:00:00,17.1,,,,,,,,,,,,0.2,,,,,,,,data,,,,
07070,2012-07-12 13:00:00,17.7,,,,,,,,,,,,0,,,,,,,,data,,,,
07070,2012-07-12 14:00:00,18.1,,,,,,,,,,,,0,,,,,,,,data,,,,
07070,2012-07-12 16:00:00,18.1,,,,,,,,,,,,0,,,,,,,,data,,,,
07070,2012-07-12 17:00:00,17.4,,,,,,,,,,,,0,,,,,,,,data,,,,
07070,2012-07-12 18:00:00,15.5,,,,,,,,,,,,1.2,,,,,,,,data,,,,
07070,2012-07-12 19:00:00,15.1,,,,,,,,,,,,0.2,,,,,,,,data,,,,
07070,2012-07-12 22:00:00,14.2,,,,,,,,,,,,1.7,,,,,,,,data,,,,
07070,2012-07-13 01:00:00,13.4,,,,,,,,,,,,1,,,,,,,,data,,,,
07070,2012-07-13 02:00:00,13.3,,,,,,,,,,,,1.4,,,,,,,,data,,,,
07070,2012-07-13 03:00:00,13.5,,,,,,,,,,,,1.2,,,,,,,,data,,,,
07070,2012-07-13 05:00:00,13.9,,,,,,,,,,,,0.2,,,,,,,,data,,,,
07070,2012-07-13 06:00:00,14,,,,,,,,,,,,0,,,,,,,,data,,,,
07070,2012-07-13 07:00:00,14.5,,,,,,,,,,,,0.2,,,,,,,,data,,,,
07070,2012-07-13 09:00:00,15.7,,,,,,,,,,,,0,,,,,,,,data,,,,
07070,2012-07-13 10:00:00,16.8,,,,,,,,,,,,0,,,,,,,,data,,,,
07070,2012-07-13 11:00:00,16.8,,,,,,,,,,,,0,,,,,,,,data,,,,
07070,2012-07-13 12:00:00,18.4,,,,,,,,,,,,0,,,,,,,,data,,,,
07070,2012-07-13 14:00:00,17,,,,,,,,,,,,2.4,,,,,,,,data,,,,
07070,2012-07-13 15:00:00,17.4,,,,,,,,,,,,0.2,,,,,,,,data,,,,
07070,2012-07-13 16:00:00,17.4,,,,,,,,,,,,0,,,,,,,,data,,,,
07070,2012-07-13 17:00:00,16.3,,,,,,,,,,,,0,,,,,,,,data,,,,
07070,2012-07-13 18:00:00,15,,,,,,,,,,,,0.2,,,,,,,,data,,,,
07070,2012-07-13 19:00:00,14.1,,,,,,,,,,,,0.6,,,,,,,,data,,,,
07070,2012-07-13 21:00:00,13.3,,,,,,,,,,,,0.8,,,,,,,,data,,,,
07070,2012-07-13 23:00:00,13,,,,,,,,,,,,4,,,,,,,,data,,,,
07070,2012-07-14 00:00:00,13.1,,,,,,,,,,,,1.2,,,,,,,,data,,,,
07070,2012-07-14 01:00:00,12.9,,,,,,,,,,,,2.8,,,,,,,,data,,,,
07070,2012-07-14 02:00:00,12.9,,,,,,,,,,,,0.4,,,,,,,,data,,,,
07070,2012-07-14 03:00:00,12.9,,,,,,,,,,,,0,,,,,,,,data,,,,
07070,2012-07-14 06:00:00,13.6,,,,,,,,,,,,0,,,,,,,,data,,,,
07070,2012-07-14 07:00:00,13.8,,,,,,,,,,,,0,,,,,,,,data,,,,
07070,2012-07-14 09:00:00,15.5,,,,,,,,,,,,0,,,,,,,,data,,,,
07070,2012-07-14 10:00:00,17.4,,,,,,,,,,,,0,,,,,,,,data,,,,
07070,2012-07-14 12:00:00,18.5,,,,,,,,,,,,0,,,,,,,,data,,,,
07070,2012-07-14 13:00:00,17.9,,,,,,,,,,,,0,,,,,,,,data,,,,
07070,2012-07-14 14:00:00,20.9,,,,,,,,,,,,0,,,,,,,,data,,,,
07070,2012-07-14 15:00:00,21.1,,,,,,,,,,,,0,,,,,,,,data,,,,
07070,2012-07-14 16:00:00,19.9,,,,,,,,,,,,0,,,,,,,,data,,,,
07070,2012-07-14 17:00:00,18.9,,,,,,,,,,,,0,,,,,,,,data,,,,
07070,2012-07-14 18:00:00,19.6,,,,,,,,,,,,0,,,,,,,,data,,,,
07070,2012-07-14 21:00:00,14,,,,,,,,,,,,0,,,,,,,,data,,,,
07070,2012-07-14 22:00:00,14.3,,,,,,,,,,,,0,,,,,,,,data,,,,
07070,2012-07-14 23:00:00,14.5,,,,,,,,,,,,0,,,,,,,,data,,,,
07070,2012-07-15 00:00:00,13.9,,,,,,,,,,,,0,,,,,,,,data,,,,
07070,2012-07-15 03:00:00,11.8,,,,,,,,,,,,0,,,,,,,,data,,,,
07070,2012-07-15 04:00:00,12,,,,,,,,,,,,0,,,,,,,,data,,,,
07070,2012-07-15 05:00:00,12.7,,,,,,,,,,,,0,,,,,,,,data,,,,
07070,2012-07-15 06:00:00,13.8,,,,,,,,,,,,0,,,,,,,,data,,,,
07070,2012-07-15 07:00:00,14.2,,,,,,,,,,,,0,,,,,,,,data,,,,
07070,2012-07-15 09:00:00,16.6,,,,,,,,,,,,0,,,,,,,,data,,,,
07070,2012-07-15 10:00:00,17.6,,,,,,,,,,,,0,,,,,,,,data,,,,
07070,2012-07-15 11:00:00,18.7,,,,,,,,,,,,0,,,,,,,,data,,,,
07070,2012-07-15 12:00:00,20.1,,,,,,,,,,,,0,,,,,,,,data,,,,
07070,2012-07-15 13:00:00,18.5,,,,,,,,,,,,0,,,,,,,,data,,,,
07070,2012-07-15 14:00:00,17.1,,,,,,,,,,,,0,,,,,,,,data,,,,
07070,2012-07-15 16:00:00,15.2,,,,,,,,,,,,0,,,,,,,,data,,,,
07070,2012-07-15 19:00:00,16.2,,,,,,,,,,,,0,,,,,,,,data,,,,
07070,2012-07-15 22:00:00,12.7,,,,,,,,,,,,0,,,,,,,,data,,,,
07070,2012-07-15 23:00:00,11.6,,,,,,,,,,,,0,,,,,,,,data,,,,
07070,2012-07-16 01:00:00,8.9,,,,,,,,,,,,0,,,,,,,,data,,,,
07070,2012-07-16 02:00:00,8.5,,,,,,,,,,,,0,,,,,,,,data,,,,
07070,2012-07-16 03:00:00,7.8,,,,,,,,,,,,0,,,,,,,,data,,,,
07070,2012-07-16 04:00:00,8.5,,,,,,,,,,,,0,,,,,,,,data,,,,
07070,2012-07-16 05:00:00,9.2,,,,,,,,,,,,0,,,,,,,,data,,,,
07070,2012-07-16 06:00:00,12,,,,,,,,,,,,0,,,,,,,,data,,,,
07070,2012-07-16 09:00:00,17.8,,,,,,,,,,,,0,,,,,,,,data,,,,
07070,2012-07-16 10:00:00,19.1,,,,,,,,,,,,0,,,,,,,,data,,,,
07070,2012-07-16 11:00:00,19.9,,,,,,,,,,,,0,,,,,,,,data,,,,
07070,2012-07-18 01:00:00,16.8,,,,,,,,,,,,0,,,,,,,,data,,,,
07070,2012-07-18 02:00:00,15.9,,,,,,,,,,,,0,,,,,,,,data,,,,
07070,2012-07-18 03:00:00,15.7,,,,,,,,,,,,0,,,,,,,,data,,,,
07070,2012-07-18 04:00:00,13.9,,,,,,,,,,,,0,,,,,,,,data,,,,
07070,2012-07-18 05:00:00,14.1,,,,,,,,,,,,0,,,,,,,,data,,,,
07070,2012-07-18 07:00:00,21,,,,,,,,,,,,0,,,,,,,,data,,,,
07070,2012-07-19 00:00:00,17.5,,,,,,,,,,,,0,,,,,,,,data,,,,
07070,2012-07-19 01:00:00,16.8,,,,,,,,,,,,0,,,,,,,,data,,,,
07070,2012-07-19 03:00:00,16.4,,,,,,,,,,,,0,,,,,,,,data,,,,
07070,2012-07-19 04:00:00,16,,,,,,,,,,,,0,,,,,,,,data,,,,
07070,2012-07-19 05:00:00,16.3,,,,,,,,,,,,0,,,,,,,,data,,,,
07070,2012-07-19 06:00:00,16.2,,,,,,,,,,,,0,,,,,,,,data,,,,
07070,2012-07-19 07:00:00,16.5,,,,,,,,,,,,0,,,,,,,,data,,,,
07070,2012-07-19 15:00:00,21.6,,,,,,,,,,,,0,,,,,,,,data,,,,
07070,2012-07-20 00:00:00,12.9,,,,,,,,,,,,0,,,,,,,,data,,,,
07070,2012-07-20 01:00:00,13.3,,,,,,,,,,,,0,,,,,,,,data,,,,
07070,2012-07-20 02:00:00,12.6,,,,,,,,,,,,0,,,,,,,,data,,,,
07070,2012-07-20 03:00:00,11.9,,,,,,,,,,,,0,,,,,,,,data,,,,
07070,2012-07-20 04:00:00,11.1,,,,,,,,,,,,0,,,,,,,,data,,,,
07070,2012-07-20 05:00:00,11.8,,,,,,,,,,,,0,,,,,,,,data,,,,
07070,2012-07-20 06:00:00,14.2,,,,,,,,,,,,0,,,,,,,,data,,,,
07070,2012-07-21 00:00:00,12.3,,,,,,,,,,,,0,,,,,,,,data,,,,
07070,2012-07-21 01:00:00,11.4,,,,,,,,,,,,0,,,,,,,,data,,,,
07070,2012-07-21 02:00:00,11.4,,,,,,,,,,,,0,,,,,,,,data,,,,
07070,2012-07-21 03:00:00,10.3,,,,,,,,,,,,0,,,,,,,,data,,,,
07070,2012-07-21 04:00:00,9.8,,,,,,,,,,,,0,,,,,,,,data,,,,
07070,2012-07-21 05:00:00,11.7,,,,,,,,,,,,0,,,,,,,,data,,,,
07070,2012-07-21 07:00:00,13,,,,,,,,,,,,0,,,,,,,,data,,,,
07070,2012-07-21 09:00:00,14.8,,,,,,,,,,,,0,,,,,,,,data,,,,
07070,2012-07-21 10:00:00,16.6,,,,,,,,,,,,0,,,,,,,,data,,,,
07070,2012-07-21 11:00:00,16.9,,,,,,,,,,,,0,,,,,,,,data,,,,
07070,2012-07-21 12:00:00,18.3,,,,,,,,,,,,0,,,,,,,,data,,,,
07070,2012-07-21 13:00:00,17.2,,,,,,,,,,,,0,,,,,,,,data,,,,
07070,2012-07-21 14:00:00,16.7,,,,,,,,,,,,0,,,,,,,,data,,,,
07070,2012-07-21 15:00:00,17.6,,,,,,,,,,,,0,,,,,,,,data,,,,
07070,2012-07-21 17:00:00,18.9,,,,,,,,,,,,0,,,,,,,,data,,,,
07070,2012-07-21 18:00:00,18.5,,,,,,,,,,,,0,,,,,,,,data,,,,
07070,2012-07-21 19:00:00,15.9,,,,,,,,,,,,0,,,,,,,,data,,,,
07070,2012-07-21 21:00:00,12,,,,,,,,,,,,0,,,,,,,,data,,,,
07070,2012-07-21 22:00:00,10.3,,,,,,,,,,,,0,,,,,,,,data,,,,
07070,2012-07-22 00:00:00,9,,,,,,,,,,,,0,,,,,,,,data,,,,
07070,2012-07-22 01:00:00,7.9,,,,,,,,,,,,0,,,,,,,,data,,,,
07070,2012-07-22 02:00:00,7.4,,,,,,,,,,,,0,,,,,,,,data,,,,
07070,2012-07-22 04:00:00,5.9,,,,,,,,,,,,0.2,,,,,,,,data,,,,
07070,2012-07-22 05:00:00,7.9,,,,,,,,,,,,0,,,,,,,,data,,,,
07070,2012-07-22 06:00:00,11.8,,,,,,,,,,,,0,,,,,,,,data,,,,
07070,2012-07-22 07:00:00,14.6,,,,,,,,,,,,0,,,,,,,,data,,,,
07070,2012-07-22 09:00:00,19,,,,,,,,,,,,0,,,,,,,,data,,,,
07070,2012-07-22 10:00:00,19.9,,,,,,,,,,,,0,,,,,,,,data,,,,
07070,2012-07-22 11:00:00,20.6,,,,,,,,,,,,0,,,,,,,,data,,,,
07070,2012-07-22 12:00:00,21.4,,,,,,,,,,,,0,,,,,,,,data,,,,
07070,2012-07-22 13:00:00,22.3,,,,,,,,,,,,0,,,,,,,,data,,,,
07070,2012-07-22 14:00:00,23.1,,,,,,,,,,,,0,,,,,,,,data,,,,
07070,2012-07-22 15:00:00,22.9,,,,,,,,,,,,0,,,,,,,,data,,,,
07070,2012-07-22 17:00:00,22.5,,,,,,,,,,,,0,,,,,,,,data,,,,
07070,2012-07-22 18:00:00,21.7,,,,,,,,,,,,0,,,,,,,,data,,,,
07070,2012-07-22 19:00:00,19.2,,,,,,,,,,,,0,,,,,,,,data,,,,
07070,2012-07-22 20:00:00,16.2,,,,,,,,,,,,0,,,,,,,,data,,,,
07070,2012-07-22 21:00:00,13.5,,,,,,,,,,,,0,,,,,,,,data,,,,
07070,2012-07-22 23:00:00,11.5,,,,,,,,,,,,0,,,,,,,,data,,,,
07070,2012-07-23 00:00:00,10.6,,,,,,,,,,,,0,,,,,,,,data,,,,
07070,2012-07-23 01:00:00,9.9,,,,,,,,,,,,0,,,,,,,,data,,,,
07070,2012-07-23 02:00:00,9.1,,,,,,,,,,,,0,,,,,,,,data,,,,
07070,2012-07-23 06:00:00,14.1,,,,,,,,,,,,0,,,,,,,,data,,,,
07070,2012-07-23 09:00:00,21.1,,,,,,,,,,,,0,,,,,,,,data,,,,
07070,2012-07-23 10:00:00,22.3,,,,,,,,,,,,0,,,,,,,,data,,,,
07070,2012-07-23 11:00:00,23.3,,,,,,,,,,,,0,,,,,,,,data,,,,
07070,2012-07-23 14:00:00,25.3,,,,,,,,,,,,0,,,,,,,,data,,,,
07070,2012-07-23 15:00:00,25.9,,,,,,,,,,,,0,,,,,,,,data,,,,
07070,2012-07-23 16:00:00,25.6,,,,,,,,,,,,0,,,,,,,,data,,,,
07070,2012-07-23 17:00:00,25.1,,,,,,,,,,,,0,,,,,,,,data,,,,
07070,2012-07-23 18:00:00,24.3,,,,,,,,,,,,0,,,,,,,,data,,,,
07070,2012-07-23 19:00:00,21.5,,,,,,,,,,,,0,,,,,,,,data,,,,
07070,2012-07-23 20:00:00,17.1,,,,,,,,,,,,0,,,,,,,,data,,,,
07070,2012-07-23 21:00:00,14.7,,,,,,,,,,,,0,,,,,,,,data,,,,
07070,2012-07-23 22:00:00,13.3,,,,,,,,,,,,0,,,,,,,,data,,,,
07070,2012-07-23 23:00:00,11.4,,,,,,,,,,,,0,,,,,,,,data,,,,
07070,2012-07-24 00:00:00,11.2,,,,,,,,,,,,0,,,,,,,,data,,,,
07070,2012-07-24 01:00:00,10.8,,,,,,,,,,,,0,,,,,,,,data,,,,
07070,2012-07-24 02:00:00,11,,,,,,,,,,,,0,,,,,,,,data,,,,
07070,2012-07-24 03:00:00,9,,,,,,,,,,,,0,,,,,,,,data,,,,
07070,2012-07-24 04:00:00,8.5,,,,,,,,,,,,0,,,,,,,,data,,,,
07070,2012-07-24 06:00:00,14.3,,,,,,,,,,,,0,,,,,,,,data,,,,
07070,2012-07-24 09:00:00,24,,,,,,,,,,,,0,,,,,,,,data,,,,
07070,2012-07-24 10:00:00,25.8,,,,,,,,,,,,0,,,,,,,,data,,,,
07070,2012-07-24 11:00:00,26.7,,,,,,,,,,,,0,,,,,,,,data,,,,
07070,2012-07-24 14:00:00,28.4,,,,,,,,,,,,0,,,,,,,,data,,,,
07070,2012-07-24 15:00:00,28.6,,,,,,,,,,,,0,,,,,,,,data,,,,
07070,2012-07-24 16:00:00,28.6,,,,,,,,,,,,0,,,,,,,,data,,,,
07070,2012-07-24 17:00:00,28.5,,,,,,,,,,,,0,,,,,,,,data,,,,
07070,2012-07-24 18:00:00,26.4,,,,,,,,,,,,0,,,,,,,,data,,,,
07070,2012-07-24 19:00:00,23.2,,,,,,,,,,,,0,,,,,,,,data,,,,
07070,2012-07-24 21:00:00,18.6,,,,,,,,,,,,0,,,,,,,,data,,,,
07070,2012-07-24 22:00:00,16.8,,,,,,,,,,,,0,,,,,,,,data,,,,
07070,2012-07-24 23:00:00,15.7,,,,,,,,,,,,0,,,,,,,,data,,,,
07070,2012-07-25 00:00:00,14.5,,,,,,,,,,,,0,,,,,,,,data,,,,
07070,2012-07-25 03:00:00,13.3,,,,,,,,,,,,0,,,,,,,,data,,,,
07070,2012-07-25 04:00:00,12.6,,,,,,,,,,,,0,,,,,,,,data,,,,
07070,2012-07-25 05:00:00,13.8,,,,,,,,,,,,0,,,,,,,,data,,,,
07070,2012-07-25 06:00:00,18.3,,,,,,,,,,,,0.2,,,,,,,,data,,,,
07070,2012-07-25 07:00:00,21.3,,,,,,,,,,,,0,,,,,,,,data,,,,
07070,2012-07-25 09:00:00,26.2,,,,,,,,,,,,0,,,,,,,,data,,,,
07070,2012-07-25 11:00:00,28.7,,,,,,,,,,,,0,,,,,,,,data,,,,
07070,2012-07-25 13:00:00,29.7,,,,,,,,,,,,0,,,,,,,,data,,,,
07070,2012-07-25 14:00:00,30.3,,,,,,,,,,,,0,,,,,,,,data,,,,
07070,2012-07-25 15:00:00,30.4,,,,,,,,,,,,0,,,,,,,,data,,,,
07070,2012-07-25 16:00:00,30.1,,,,,,,,,,,,0,,,,,,,,data,,,,
07070,2012-07-25 17:00:00,29.9,,,,,,,,,,,,0,,,,,,,,data,,,,
07070,2012-07-25 19:00:00,24.8,,,,,,,,,,,,0,,,,,,,,data,,,,
07070,2012-07-25 20:00:00,21.9,,,,,,,,,,,,0,,,,,,,,data,,,,
07070,2012-07-25 21:00:00,20.1,,,,,,,,,,,,0,,,,,,,,data,,,,
07070,2012-07-25 22:00:00,18.9,,,,,,,,,,,,0,,,,,,,,data,,,,
07070,2012-07-25 23:00:00,18.3,,,,,,,,,,,,0,,,,,,,,data,,,,
07070,2012-07-26 00:00:00,16.9,,,,,,,,,,,,0,,,,,,,,data,,,,
07070,2012-07-26 01:00:00,16.2,,,,,,,,,,,,0,,,,,,,,data,,,,
07070,2012-07-26 02:00:00,15.3,,,,,,,,,,,,0,,,,,,,,data,,,,
07070,2012-07-26 03:00:00,13.5,,,,,,,,,,,,0,,,,,,,,data,,,,
07070,2012-07-26 04:00:00,13.3,,,,,,,,,,,,0,,,,,,,,data,,,,
07070,2012-07-26 05:00:00,14.1,,,,,,,,,,,,0,,,,,,,,data,,,,
07070,2012-07-26 06:00:00,17.9,,,,,,,,,,,,0,,,,,,,,data,,,,
07070,2012-07-26 08:00:00,24,,,,,,,,,,,,0,,,,,,,,data,,,,
07070,2012-07-26 09:00:00,26.5,,,,,,,,,,,,0,,,,,,,,data,,,,
07070,2012-07-26 10:00:00,28.2,,,,,,,,,,,,0,,,,,,,,data,,,,
07070,2012-07-26 11:00:00,29.3,,,,,,,,,,,,0,,,,,,,,data,,,,
07070,2012-07-26 13:00:00,30.7,,,,,,,,,,,,0,,,,,,,,data,,,,
07070,2012-07-26 14:00:00,31.4,,,,,,,,,,,,0,,,,,,,,data,,,,
07070,2012-07-26 15:00:00,31.7,,,,,,,,,,,,0,,,,,,,,data,,,,
07070,2012-07-26 16:00:00,32,,,,,,,,,,,,0,,,,,,,,data,,,,
07070,2012-07-26 17:00:00,30.9,,,,,,,,,,,,0,,,,,,,,data,,,,
07070,2012-07-26 18:00:00,30.1,,,,,,,,,,,,0,,,,,,,,data,,,,
07070,2012-07-26 21:00:00,21.2,,,,,,,,,,,,0,,,,,,,,data,,,,
07070,2012-07-26 22:00:00,18.7,,,,,,,,,,,,0,,,,,,,,data,,,,
07070,2012-07-26 23:00:00,17.9,,,,,,,,,,,,0,,,,,,,,data,,,,
07070,2012-07-27 00:00:00,17.4,,,,,,,,,,,,0,,,,,,,,data,,,,
07070,2012-07-27 01:00:00,17.8,,,,,,,,,,,,0,,,,,,,,data,,,,
07070,2012-07-27 02:00:00,18.2,,,,,,,,,,,,0,,,,,,,,data,,,,
07070,2012-07-27 03:00:00,19.3,,,,,,,,,,,,0,,,,,,,,data,,,,
07070,2012-07-27 05:00:00,17.4,,,,,,,,,,,,0,,,,,,,,data,,,,
07070,2012-07-27 06:00:00,21,,,,,,,,,,,,0,,,,,,,,data,,,,
07070,2012-07-27 07:00:00,24.7,,,,,,,,,,,,0,,,,,,,,data,,,,
07070,2012-07-27 10:00:00,20.9,,,,,,,,,,,,1.4,,,,,,,,data,,,,
07070,2012-07-27 12:00:00,26.6,,,,,,,,,,,,0,,,,,,,,data,,,,
07070,2012-07-27 13:00:00,27.9,,,,,,,,,,,,0,,,,,,,,data,,,,
07070,2012-07-27 14:00:00,29,,,,,,,,,,,,0,,,,,,,,data,,,,
07070,2012-07-27 15:00:00,29.4,,,,,,,,,,,,0,,,,,,,,data,,,,
07070,2012-07-27 16:00:00,26.3,,,,,,,,,,,,0,,,,,,,,data,,,,
07070,2012-07-27 17:00:00,27.6,,,,,,,,,,,,0,,,,,,,,data,,,,
07070,2012-07-27 19:00:00,18.7,,,,,,,,,,,,8.4,,,,,,,,data,,,,
07070,2012-07-27 20:00:00,18.6,,,,,,,,,,,,0,,,,,,,,data,,,,
07070,2012-07-27 21:00:00,18.7,,,,,,,,,,,,0,,,,,,,,data,,,,
07070,2012-07-27 22:00:00,18.8,,,,,,,,,,,,0,,,,,,,,data,,,,
07070,2012-07-27 23:00:00,19.2,,,,,,,,,,,,0,,,,,,,,data,,,,
07070,2012-07-28 00:00:00,19.3,,,,,,,,,,,,0,,,,,,,,data,,,,
07070,2012-07-28 01:00:00,19,,,,,,,,,,,,0,,,,,,,,data,,,,
07070,2012-07-28 02:00:00,19.5,,,,,,,,,,,,0.2,,,,,,,,data,,,,
07070,2012-07-28 03:00:00,19.1,,,,,,,,,,,,0.8,,,,,,,,data,,,,
07070,2012-07-28 04:00:00,18.5,,,,,,,,,,,,0,,,,,,,,data,,,,
07070,2012-07-28 05:00:00,18.2,,,,,,,,,,,,0,,,,,,,,data,,,,
07070,2012-07-28 06:00:00,18.1,,,,,,,,,,,,0.8,,,,,,,,data,,,,
07070,2012-07-28 07:00:00,18.6,,,,,,,,,,,,0.8,,,,,,,,data,,,,
07070,2012-07-28 09:00:00,19.9,,,,,,,,,,,,0,,,,,,,,data,,,,
07070,2012-07-28 10:00:00,21.3,,,,,,,,,,,,0,,,,,,,,data,,,,
07070,2012-07-28 11:00:00,23.5,,,,,,,,,,,,0,,,,,,,,data,,,,
07070,2012-07-28 12:00:00,23.7,,,,,,,,,,,,0,,,,,,,,data,,,,
07070,2012-07-28 13:00:00,24.4,,,,,,,,,,,,0,,,,,,,,data,,,,
07070,2012-07-28 14:00:00,21.1,,,,,,,,,,,,0.8,,,,,,,,data,,,,
07070,2012-07-28 15:00:00,23,,,,,,,,,,,,0.2,,,,,,,,data,,,,
07070,2012-07-28 16:00:00,23.5,,,,,,,,,,,,0,,,,,,,,data,,,,
07070,2012-07-28 17:00:00,22.9,,,,,,,,,,,,0,,,,,,,,data,,,,
07070,2012-07-28 18:00:00,22.8,,,,,,,,,,,,0,,,,,,,,data,,,,
07070,2012-07-28 19:00:00,20.9,,,,,,,,,,,,0,,,,,,,,data,,,,
07070,2012-07-28 20:00:00,18.7,,,,,,,,,,,,0,,,,,,,,data,,,,
07070,2012-07-28 22:00:00,16.7,,,,,,,,,,,,0,,,,,,,,data,,,,
07070,2012-07-28 23:00:00,14.7,,,,,,,,,,,,0,,,,,,,,data,,,,
07070,2012-07-29 00:00:00,12.9,,,,,,,,,,,,0,,,,,,,,data,,,,
07070,2012-07-29 01:00:00,12.7,,,,,,,,,,,,0,,,,,,,,data,,,,
07070,2012-07-29 02:00:00,12.9,,,,,,,,,,,,0,,,,,,,,data,,,,
07070,2012-07-29 03:00:00,12.9,,,,,,,,,,,,0,,,,,,,,data,,,,
07070,2012-07-29 05:00:00,11.7,,,,,,,,,,,,0,,,,,,,,data,,,,
07070,2012-07-29 07:00:00,15.4,,,,,,,,,,,,0,,,,,,,,data,,,,
07070,2012-07-29 09:00:00,17.4,,,,,,,,,,,,0,,,,,,,,data,,,,
07070,2012-07-29 11:00:00,19.8,,,,,,,,,,,,0,,,,,,,,data,,,,
07070,2012-07-29 12:00:00,20.1,,,,,,,,,,,,0,,,,,,,,data,,,,
07070,2012-07-29 13:00:00,20.1,,,,,,,,,,,,0,,,,,,,,data,,,,
07070,2012-07-29 14:00:00,20.2,,,,,,,,,,,,0,,,,,,,,data,,,,
07070,2012-07-29 15:00:00,20.9,,,,,,,,,,,,0,,,,,,,,data,,,,
07070,2012-07-29 16:00:00,20.8,,,,,,,,,,,,0,,,,,,,,data,,,,
07070,2012-07-29 17:00:00,20.8,,,,,,,,,,,,0,,,,,,,,data,,,,
07070,2012-07-29 18:00:00,19.3,,,,,,,,,,,,0,,,,,,,,data,,,,
07070,2012-07-29 19:00:00,18.5,,,,,,,,,,,,0,,,,,,,,data,,,,
07070,2012-07-29 20:00:00,16.3,,,,,,,,,,,,0,,,,,,,,data,,,,
07070,2012-07-29 21:00:00,15.5,,,,,,,,,,,,0,,,,,,,,data,,,,
07070,2012-07-29 22:00:00,13.8,,,,,,,,,,,,1,,,,,,,,data,,,,
07070,2012-07-29 23:00:00,13.5,,,,,,,,,,,,0,,,,,,,,data,,,,
07070,2012-07-30 00:00:00,13.5,,,,,,,,,,,,0,,,,,,,,data,,,,
07070,2012-07-30 01:00:00,13.5,,,,,,,,,,,,0,,,,,,,,data,,,,
07070,2012-07-30 02:00:00,13,,,,,,,,,,,,0,,,,,,,,data,,,,
07070,2012-07-30 03:00:00,11.8,,,,,,,,,,,,0,,,,,,,,data,,,,
07070,2012-07-30 04:00:00,11.1,,,,,,,,,,,,0,,,,,,,,data,,,,
07070,2012-07-30 06:00:00,13.2,,,,,,,,,,,,0,,,,,,,,data,,,,
07070,2012-07-30 07:00:00,13.9,,,,,,,,,,,,0,,,,,,,,data,,,,
07070,2012-07-30 09:00:00,17,,,,,,,,,,,,0,,,,,,,,data,,,,
07070,2012-07-30 11:00:00,19,,,,,,,,,,,,0,,,,,,,,data,,,,
07070,2012-07-30 13:00:00,19.3,,,,,,,,,,,,0,,,,,,,,data,,,,
07070,2012-07-30 14:00:00,20,,,,,,,,,,,,0,,,,,,,,data,,,,
07070,2012-07-30 15:00:00,20.1,,,,,,,,,,,,0,,,,,,,,data,,,,
07070,2012-07-30 16:00:00,19.2,,,,,,,,,,,,0,,,,,,,,data,,,,
07070,2012-07-30 17:00:00,18.7,,,,,,,,,,,,0,,,,,,,,data,,,,
07070,2012-07-30 18:00:00,18.2,,,,,,,,,,,,0,,,,,,,,data,,,,
07070,2012-07-30 19:00:00,17.5,,,,,,,,,,,,0,,,,,,,,data,,,,
07070,2012-07-30 20:00:00,16.1,,,,,,,,,,,,0,,,,,,,,data,,,,
07070,2012-07-30 21:00:00,13.2,,,,,,,,,,,,0,,,,,,,,data,,,,
07070,2012-07-30 22:00:00,12.2,,,,,,,,,,,,0,,,,,,,,data,,,,
07070,2012-07-30 23:00:00,12,,,,,,,,,,,,0,,,,,,,,data,,,,
07070,2012-07-31 00:00:00,12.1,,,,,,,,,,,,0,,,,,,,,data,,,,
07070,2012-07-31 01:00:00,12.2,,,,,,,,,,,,0,,,,,,,,data,,,,
07070,2012-07-31 02:00:00,11.7,,,,,,,,,,,,0,,,,,,,,data,,,,
07070,2012-07-31 03:00:00,10.8,,,,,,,,,,,,0.2,,,,,,,,data,,,,
07070,2012-07-31 04:00:00,9.7,,,,,,,,,,,,0,,,,,,,,data,,,,
07070,2012-07-31 05:00:00,10,,,,,,,,,,,,0,,,,,,,,data,,,,
07070,2012-07-31 06:00:00,13.1,,,,,,,,,,,,0,,,,,,,,data,,,,
07070,2012-07-31 07:00:00,16.1,,,,,,,,,,,,0,,,,,,,,data,,,,
07070,2012-07-31 09:00:00,19.5,,,,,,,,,,,,0,,,,,,,,data,,,,
07070,2012-07-31 10:00:00,20.8,,,,,,,,,,,,0,,,,,,,,data,,,,
07070,2012-07-31 11:00:00,22,,,,,,,,,,,,0,,,,,,,,data,,,,
07070,2012-07-31 12:00:00,22.2,,,,,,,,,,,,0,,,,,,,,data,,,,
07070,2012-07-31 13:00:00,23,,,,,,,,,,,,0,,,,,,,,data,,,,
07070,2012-07-31 14:00:00,23.9,,,,,,,,,,,,0,,,,,,,,data,,,,
07070,2012-07-31 15:00:00,24.4,,,,,,,,,,,,0,,,,,,,,data,,,,
07070,2012-07-31 16:00:00,24.7,,,,,,,,,,,,0,,,,,,,,data,,,,
07070,2012-07-31 17:00:00,24.5,,,,,,,,,,,,0,,,,,,,,data,,,,
07070,2012-07-31 18:00:00,23.7,,,,,,,,,,,,0,,,,,,,,data,,,,
07070,2012-07-31 19:00:00,21.3,,,,,,,,,,,,0,,,,,,,,data,,,,
07070,2012-07-31 20:00:00,16.6,,,,,,,,,,,,0,,,,,,,,data,,,,
07070,2012-07-31 21:00:00,15.4,,,,,,,,,,,,0,,,,,,,,data,,,,
07070,2012-08-01 00:00:00,12.6,,,,,,,,,,,,0,,,,,,,,data,,,,
07070,2012-08-01 01:00:00,11.4,,,,,,,,,,,,0,,,,,,,,data,,,,
07070,2012-08-01 02:00:00,10.8,,,,,,,,,,,,0,,,,,,,,data,,,,
07070,2012-08-01 03:00:00,10.7,,,,,,,,,,,,0,,,,,,,,data,,,,
07070,2012-08-01 05:00:00,11.3,,,,,,,,,,,,0,,,,,,,,data,,,,
07070,2012-08-01 06:00:00,14.6,,,,,,,,,,,,0,,,,,,,,data,,,,
07070,2012-08-01 07:00:00,19.8,,,,,,,,,,,,0,,,,,,,,data,,,,
07070,2012-08-01 09:00:00,24.9,,,,,,,,,,,,0,,,,,,,,data,,,,
07070,2012-08-01 11:00:00,28.3,,,,,,,,,,,,0,,,,,,,,data,,,,
07070,2012-08-01 12:00:00,29.1,,,,,,,,,,,,0,,,,,,,,data,,,,
07070,2012-08-01 13:00:00,29.7,,,,,,,,,,,,0,,,,,,,,data,,,,
07070,2012-08-01 14:00:00,27.7,,,,,,,,,,,,0,,,,,,,,data,,,,
07070,2012-08-01 15:00:00,29,,,,,,,,,,,,0,,,,,,,,data,,,,
07070,2012-08-01 16:00:00,28.4,,,,,,,,,,,,0,,,,,,,,data,,,,
07070,2012-08-01 17:00:00,27.1,,,,,,,,,,,,0,,,,,,,,data,,,,
07070,2012-08-01 18:00:00,26.1,,,,,,,,,,,,0,,,,,,,,data,,,,
07070,2012-08-01 21:00:00,21.9,,,,,,,,,,,,0,,,,,,,,data,,,,
07070,2012-08-01 22:00:00,21,,,,,,,,,,,,0,,,,,,,,data,,,,
07070,2012-08-01 23:00:00,19.8,,,,,,,,,,,,0,,,,,,,,data,,,,
07070,2012-08-02 00:00:00,19.1,,,,,,,,,,,,0,,,,,,,,data,,,,
07070,2012-08-02 01:00:00,17.8,,,,,,,,,,,,0,,,,,,,,data,,,,
07070,2012-08-02 02:00:00,17.1,,,,,,,,,,,,0,,,,,,,,data,,,,
07070,2012-08-02 03:00:00,17,,,,,,,,,,,,0,,,,,,,,data,,,,
07070,2012-08-02 04:00:00,17.3,,,,,,,,,,,,0,,,,,,,,data,,,,
07070,2012-08-02 05:00:00,16.4,,,,,,,,,,,,0,,,,,,,,data,,,,
07070,2012-08-02 06:00:00,18,,,,,,,,,,,,0,,,,,,,,data,,,,
07070,2012-08-02 07:00:00,18.4,,,,,,,,,,,,0,,,,,,,,data,,,,
07070,2012-08-02 09:00:00,20.4,,,,,,,,,,,,0,,,,,,,,data,,,,
07070,2012-08-02 10:00:00,21.4,,,,,,,,,,,,0,,,,,,,,data,,,,
07070,2012-08-02 11:00:00,21.6,,,,,,,,,,,,0,,,,,,,,data,,,,
07070,2012-08-02 12:00:00,22.1,,,,,,,,,,,,0,,,,,,,,data,,,,
07070,2012-08-02 13:00:00,22.1,,,,,,,,,,,,0,,,,,,,,data,,,,
07070,2012-08-02 14:00:00,22,,,,,,,,,,,,0,,,,,,,,data,,,,
07070,2012-08-02 15:00:00,23.9,,,,,,,,,,,,0,,,,,,,,data,,,,
07070,2012-08-02 16:00:00,23.4,,,,,,,,,,,,0,,,,,,,,data,,,,
07070,2012-08-02 17:00:00,23.2,,,,,,,,,,,,0,,,,,,,,data,,,,
07070,2012-08-02 18:00:00,23.1,,,,,,,,,,,,0,,,,,,,,data,,,,
07070,2012-08-02 19:00:00,20.6,,,,,,,,,,,,0,,,,,,,,data,,,,
07070,2012-08-02 21:00:00,14.5,,,,,,,,,,,,0,,,,,,,,data,,,,
07070,2012-08-02 22:00:00,13.8,,,,,,,,,,,,0,,,,,,,,data,,,,
07070,2012-08-02 23:00:00,14.3,,,,,,,,,,,,0,,,,,,,,data,,,,
07070,2012-08-03 00:00:00,15.9,,,,,,,,,,,,0,,,,,,,,data,,,,
07070,2012-08-03 01:00:00,14.6,,,,,,,,,,,,0,,,,,,,,data,,,,
07070,2012-08-03 03:00:00,12.9,,,,,,,,,,,,0,,,,,,,,data,,,,
07070,2012-08-03 04:00:00,11.8,,,,,,,,,,,,0,,,,,,,,data,,,,
07070,2012-08-03 05:00:00,11.7,,,,,,,,,,,,0,,,,,,,,data,,,,
07070,2012-08-03 06:00:00,16,,,,,,,,,,,,0,,,,,,,,data,,,,
07070,2012-08-03 07:00:00,18.2,,,,,,,,,,,,0,,,,,,,,data,,,,
07070,2012-08-03 09:00:00,21,,,,,,,,,,,,0,,,,,,,,data,,,,
07070,2012-08-03 10:00:00,21.2,,,,,,,,,,,,0,,,,,,,,data,,,,
07070,2012-08-03 11:00:00,23,,,,,,,,,,,,0,,,,,,,,data,,,,
07070,2012-08-03 12:00:00,23.5,,,,,,,,,,,,0,,,,,,,,data,,,,
07070,2012-08-03 13:00:00,24.2,,,,,,,,,,,,0,,,,,,,,data,,,,
07070,2012-08-03 14:00:00,24.4,,,,,,,,,,,,0,,,,,,,,data,,,,
07070,2012-08-03 15:00:00,24.9,,,,,,,,,,,,0,,,,,,,,data,,,,
07070,2012-08-03 16:00:00,24.6,,,,,,,,,,,,0,,,,,,,,data,,,,
07070,2012-08-03 17:00:00,23.5,,,,,,,,,,,,0,,,,,,,,data,,,,
07070,2012-08-03 18:00:00,23.3,,,,,,,,,,,,0,,,,,,,,data,,,,
07070,2012-08-03 19:00:00,22.3,,,,,,,,,,,,0,,,,,,,,data,,,,
07070,2012-08-03 21:00:00,16.8,,,,,,,,,,,,0.8,,,,,,,,data,,,,
07070,2012-08-03 22:00:00,15.8,,,,,,,,,,,,0,,,,,,,,data,,,,
07070,2012-08-03 23:00:00,14.2,,,,,,,,,,,,0,,,,,,,,data,,,,
07070,2012-08-04 00:00:00,13.5,,,,,,,,,,,,0,,,,,,,,data,,,,
07070,2012-08-04 01:00:00,13.4,,,,,,,,,,,,0,,,,,,,,data,,,,
07070,2012-08-04 02:00:00,13.8,,,,,,,,,,,,0,,,,,,,,data,,,,
07070,2012-08-04 03:00:00,14.4,,,,,,,,,,,,0,,,,,,,,data,,,,
07070,2012-08-04 04:00:00,14,,,,,,,,,,,,0,,,,,,,,data,,,,
07070,2012-08-04 05:00:00,14.4,,,,,,,,,,,,0,,,,,,,,data,,,,
07070,2012-08-04 07:00:00,18.5,,,,,,,,,,,,0,,,,,,,,data,,,,
07070,2012-08-04 09:00:00,21.3,,,,,,,,,,,,0,,,,,,,,data,,,,
07070,2012-08-04 10:00:00,22.1,,,,,,,,,,,,0,,,,,,,,data,,,,
07070,2012-08-04 11:00:00,22.9,,,,,,,,,,,,0,,,,,,,,data,,,,
07070,2012-08-04 12:00:00,23.9,,,,,,,,,,,,0,,,,,,,,data,,,,
07070,2012-08-04 13:00:00,24.8,,,,,,,,,,,,0,,,,,,,,data,,,,
07070,2012-08-04 14:00:00,25.5,,,,,,,,,,,,0,,,,,,,,data,,,,
07070,2012-08-04 15:00:00,24.5,,,,,,,,,,,,0,,,,,,,,data,,,,
07070,2012-08-04 16:00:00,25,,,,,,,,,,,,0,,,,,,,,data,,,,
07070,2012-08-04 17:00:00,24.2,,,,,,,,,,,,0,,,,,,,,data,,,,
07070,2012-08-04 18:00:00,22.9,,,,,,,,,,,,0,,,,,,,,data,,,,
07070,2012-08-04 19:00:00,21.4,,,,,,,,,,,,0,,,,,,,,data,,,,
07070,2012-08-04 20:00:00,18.7,,,,,,,,,,,,0,,,,,,,,data,,,,
07070,2012-08-04 21:00:00,17.2,,,,,,,,,,,,0,,,,,,,,data,,,,
07070,2012-08-04 22:00:00,16.9,,,,,,,,,,,,0,,,,,,,,data,,,,
07070,2012-08-04 23:00:00,15.5,,,,,,,,,,,,0,,,,,,,,data,,,,
07070,2012-08-05 01:00:00,15.2,,,,,,,,,,,,0,,,,,,,,data,,,,
07070,2012-08-05 02:00:00,15.2,,,,,,,,,,,,0,,,,,,,,data,,,,
07070,2012-08-05 03:00:00,14.7,,,,,,,,,,,,0,,,,,,,,data,,,,
07070,2012-08-05 04:00:00,13.8,,,,,,,,,,,,0,,,,,,,,data,,,,
07070,2012-08-05 06:00:00,16.1,,,,,,,,,,,,0,,,,,,,,data,,,,
07070,2012-08-05 09:00:00,18.7,,,,,,,,,,,,0,,,,,,,,data,,,,
07070,2012-08-05 10:00:00,20.2,,,,,,,,,,,,0,,,,,,,,data,,,,
07070,2012-08-05 11:00:00,22.4,,,,,,,,,,,,0,,,,,,,,data,,,,
07070,2012-08-05 12:00:00,22.8,,,,,,,,,,,,0,,,,,,,,data,,,,
07070,2012-08-05 13:00:00,23.9,,,,,,,,,,,,0,,,,,,,,data,,,,
07070,2012-08-05 14:00:00,23,,,,,,,,,,,,0,,,,,,,,data,,,,
07070,2012-08-05 15:00:00,23.7,,,,,,,,,,,,0,,,,,,,,data,,,,
07070,2012-08-05 16:00:00,19.2,,,,,,,,,,,,0.2,,,,,,,,data,,,,
07070,2012-08-05 18:00:00,16.6,,,,,,,,,,,,1,,,,,,,,data,,,,
07070,2012-08-05 19:00:00,16.5,,,,,,,,,,,,0.2,,,,,,,,data,,,,
07070,2012-08-05 20:00:00,15.7,,,,,,,,,,,,0,,,,,,,,data,,,,
07070,2012-08-05 21:00:00,15.4,,,,,,,,,,,,0,,,,,,,,data,,,,
07070,2012-08-05 22:00:00,14.7,,,,,,,,,,,,0.2,,,,,,,,data,,,,
07070,2012-08-05 23:00:00,15,,,,,,,,,,,,0,,,,,,,,data,,,,
07070,2012-08-06 00:00:00,15.4,,,,,,,,,,,,0,,,,,,,,data,,,,
07070,2012-08-06 01:00:00,15.2,,,,,,,,,,,,0,,,,,,,,data,,,,
07070,2012-08-06 02:00:00,15.2,,,,,,,,,,,,0,,,,,,,,data,,,,
07070,2012-08-06 03:00:00,14.6,,,,,,,,,,,,0,,,,,,,,data,,,,
07070,2012-08-06 04:00:00,13.6,,,,,,,,,,,,0,,,,,,,,data,,,,
07070,2012-08-06 05:00:00,13.5,,,,,,,,,,,,0,,,,,,,,data,,,,
07070,2012-08-06 06:00:00,15.3,,,,,,,,,,,,0,,,,,,,,data,,,,
07070,2012-08-06 07:00:00,16.1,,,,,,,,,,,,0,,,,,,,,data,,,,
07070,2012-08-06 10:00:00,19,,,,,,,,,,,,0,,,,,,,,data,,,,
07070,2012-08-06 11:00:00,19.6,,,,,,,,,,,,0,,,,,,,,data,,,,
07070,2012-08-06 12:00:00,20,,,,,,,,,,,,0,,,,,,,,data,,,,
07070,2012-08-06 13:00:00,21.5,,,,,,,,,,,,0,,,,,,,,data,,,,
07070,2012-08-06 14:00:00,21.8,,,,,,,,,,,,0,,,,,,,,data,,,,
07070,2012-08-06 15:00:00,21.5,,,,,,,,,,,,0,,,,,,,,data,,,,
07070,2012-08-06 16:00:00,21.8,,,,,,,,,,,,0,,,,,,,,data,,,,
07070,2012-08-06 18:00:00,19.6,,,,,,,,,,,,0,,,,,,,,data,,,,
07070,2012-08-06 19:00:00,17.5,,,,,,,,,,,,0,,,,,,,,data,,,,
07070,2012-08-06 21:00:00,14.9,,,,,,,,,,,,1.6,,,,,,,,data,,,,
07070,2012-08-06 22:00:00,14.8,,,,,,,,,,,,0.2,,,,,,,,data,,,,
07070,2012-08-06 23:00:00,14.3,,,,,,,,,,,,1,,,,,,,,data,,,,
07070,2012-08-07 00:00:00,12.1,,,,,,,,,,,,0,,,,,,,,data,,,,
07070,2012-08-07 01:00:00,14.1,,,,,,,,,,,,0.2,,,,,,,,data,,,,
07070,2012-08-07 02:00:00,13.6,,,,,,,,,,,,0,,,,,,,,data,,,,
07070,2012-08-07 03:00:00,12.3,,,,,,,,,,,,0,,,,,,,,data,,,,
07070,2012-08-07 04:00:00,13.3,,,,,,,,,,,,0,,,,,,,,data,,,,
07070,2012-08-07 05:00:00,13.5,,,,,,,,,,,,0,,,,,,,,data,,,,
07070,2012-08-07 06:00:00,14.4,,,,,,,,,,,,0,,,,,,,,data,,,,
07070,2012-08-07 07:00:00,16.1,,,,,,,,,,,,0,,,,,,,,data,,,,
07070,2012-08-07 09:00:00,18.3,,,,,,,,,,,,0,,,,,,,,data,,,,
07070,2012-08-07 10:00:00,18.6,,,,,,,,,,,,0,,,,,,,,data,,,,
07070,2012-08-07 11:00:00,19,,,,,,,,,,,,0,,,,,,,,data,,,,
07070,2012-08-07 12:00:00,19.3,,,,,,,,,,,,0,,,,,,,,data,,,,
07070,2012-08-07 13:00:00,19.1,,,,,,,,,,,,0,,,,,,,,data,,,,
07070,2012-08-07 15:00:00,20.3,,,,,,,,,,,,0,,,,,,,,data,,,,
07070,2012-08-07 18:00:00,19.2,,,,,,,,,,,,0,,,,,,,,data,,,,
07070,2012-08-07 19:00:00,18.1,,,,,,,,,,,,0,,,,,,,,data,,,,
07070,2012-08-07 21:00:00,14.2,,,,,,,,,,,,0,,,,,,,,data,,,,
07070,2012-08-07 22:00:00,13.9,,,,,,,,,,,,0,,,,,,,,data,,,,
07070,2012-08-07 23:00:00,13.4,,,,,,,,,,,,0,,,,,,,,data,,,,
07070,2012-08-08 00:00:00,13.2,,,,,,,,,,,,0,,,,,,,,data,,,,
07070,2012-08-08 01:00:00,13.4,,,,,,,,,,,,0,,,,,,,,data,,,,
07070,2012-08-08 02:00:00,13.9,,,,,,,,,,,,0,,,,,,,,data,,,,
07070,2012-08-08 03:00:00,11.6,,,,,,,,,,,,0,,,,,,,,data,,,,
07070,2012-08-08 04:00:00,11.3,,,,,,,,,,,,0,,,,,,,,data,,,,
07070,2012-08-08 05:00:00,11.9,,,,,,,,,,,,0,,,,,,,,data,,,,
07070,2012-08-08 06:00:00,14.3,,,,,,,,,,,,0,,,,,,,,data,,,,
07070,2012-08-08 09:00:00,20.8,,,,,,,,,,,,0,,,,,,,,data,,,,
07070,2012-08-08 10:00:00,22.1,,,,,,,,,,,,0,,,,,,,,data,,,,
07070,2012-08-08 11:00:00,22.8,,,,,,,,,,,,0,,,,,,,,data,,,,
07070,2012-08-08 12:00:00,23.6,,,,,,,,,,,,0,,,,,,,,data,,,,
07070,2012-08-08 14:00:00,24,,,,,,,,,,,,0,,,,,,,,data,,,,
07070,2012-08-08 16:00:00,25,,,,,,,,,,,,0,,,,,,,,data,,,,
07070,2012-08-08 17:00:00,24.8,,,,,,,,,,,,0,,,,,,,,data,,,,
07070,2012-08-08 18:00:00,24.9,,,,,,,,,,,,0,,,,,,,,data,,,,
07070,2012-08-08 19:00:00,21,,,,,,,,,,,,0,,,,,,,,data,,,,
07070,2012-08-08 21:00:00,16.5,,,,,,,,,,,,0,,,,,,,,data,,,,
07070,2012-08-08 22:00:00,15.2,,,,,,,,,,,,0,,,,,,,,data,,,,
07070,2012-08-08 23:00:00,15.2,,,,,,,,,,,,0,,,,,,,,data,,,,
07070,2012-08-09 00:00:00,13.8,,,,,,,,,,,,0,,,,,,,,data,,,,
07070,2012-08-09 01:00:00,14.2,,,,,,,,,,,,0,,,,,,,,data,,,,
07070,2012-08-09 02:00:00,15.1,,,,,,,,,,,,0,,,,,,,,data,,,,
07070,2012-08-09 03:00:00,15.9,,,,,,,,,,,,0,,,,,,,,data,,,,
07070,2012-08-09 05:00:00,16.1,,,,,,,,,,,,0,,,,,,,,data,,,,
07070,2012-08-09 06:00:00,16.7,,,,,,,,,,,,0,,,,,,,,data,,,,
07070,2012-08-09 07:00:00,17.9,,,,,,,,,,,,0,,,,,,,,data,,,,
07070,2012-08-09 09:00:00,21.8,,,,,,,,,,,,0,,,,,,,,data,,,,
07070,2012-08-09 10:00:00,22.3,,,,,,,,,,,,0,,,,,,,,data,,,,
07070,2012-08-09 11:00:00,23,,,,,,,,,,,,0,,,,,,,,data,,,,
07070,2012-08-09 12:00:00,23.2,,,,,,,,,,,,0,,,,,,,,data,,,,
07070,2012-08-09 13:00:00,23.5,,,,,,,,,,,,0,,,,,,,,data,,,,
07070,2012-08-09 14:00:00,24.4,,,,,,,,,,,,0,,,,,,,,data,,,,
07070,2012-08-09 15:00:00,24.8,,,,,,,,,,,,0,,,,,,,,data,,,,
07070,2012-08-09 16:00:00,25.3,,,,,,,,,,,,0,,,,,,,,data,,,,
07070,2012-08-09 18:00:00,22.8,,,,,,,,,,,,0,,,,,,,,data,,,,
07070,2012-08-09 19:00:00,19.5,,,,,,,,,,,,0,,,,,,,,data,,,,
07070,2012-08-09 21:00:00,16,,,,,,,,,,,,0,,,,,,,,data,,,,
07070,2012-08-09 22:00:00,13,,,,,,,,,,,,0,,,,,,,,data,,,,
07070,2012-08-09 23:00:00,12.3,,,,,,,,,,,,0,,,,,,,,data,,,,
07070,2012-08-10 00:00:00,12.3,,,,,,,,,,,,0,,,,,,,,data,,,,
07070,2012-08-10 01:00:00,11.1,,,,,,,,,,,,0,,,,,,,,data,,,,
07070,2012-08-10 02:00:00,10.5,,,,,,,,,,,,0,,,,,,,,data,,,,
07070,2012-08-10 04:00:00,10.5,,,,,,,,,,,,0,,,,,,,,data,,,,
07070,2012-08-10 06:00:00,12.9,,,,,,,,,,,,0,,,,,,,,data,,,,
07070,2012-08-10 07:00:00,16.2,,,,,,,,,,,,0,,,,,,,,data,,,,
07070,2012-08-10 09:00:00,20.9,,,,,,,,,,,,0.6,,,,,,,,data,,,,
07070,2012-08-10 11:00:00,23,,,,,,,,,,,,0,,,,,,,,data,,,,
07070,2012-08-10 13:00:00,24.4,,,,,,,,,,,,0,,,,,,,,data,,,,
07070,2012-08-10 14:00:00,24.7,,,,,,,,,,,,0,,,,,,,,data,,,,
07070,2012-08-10 15:00:00,24.8,,,,,,,,,,,,0,,,,,,,,data,,,,
07070,2012-08-10 16:00:00,24.7,,,,,,,,,,,,0,,,,,,,,data,,,,
07070,2012-08-10 17:00:00,24,,,,,,,,,,,,0,,,,,,,,data,,,,
07070,2012-08-10 18:00:00,22.9,,,,,,,,,,,,0,,,,,,,,data,,,,
07070,2012-08-10 19:00:00,19.4,,,,,,,,,,,,0,,,,,,,,data,,,,
07070,2012-08-10 21:00:00,14.1,,,,,,,,,,,,0,,,,,,,,data,,,,
07070,2012-08-10 22:00:00,13.8,,,,,,,,,,,,0,,,,,,,,data,,,,
07070,2012-08-10 23:00:00,12.7,,,,,,,,,,,,0,,,,,,,,data,,,,
07070,2012-08-11 00:00:00,11.4,,,,,,,,,,,,0,,,,,,,,data,,,,
07070,2012-08-11 01:00:00,12.4,,,,,,,,,,,,0,,,,,,,,data,,,,
07070,2012-08-11 02:00:00,10.3,,,,,,,,,,,,0,,,,,,,,data,,,,
07070,2012-08-11 03:00:00,9.3,,,,,,,,,,,,0,,,,,,,,data,,,,
07070,2012-08-11 05:00:00,8.5,,,,,,,,,,,,0,,,,,,,,data,,,,
07070,2012-08-11 07:00:00,15.7,,,,,,,,,,,,0,,,,,,,,data,,,,
07070,2012-08-11 09:00:00,20.1,,,,,,,,,,,,0,,,,,,,,data,,,,
07070,2012-08-11 10:00:00,21.9,,,,,,,,,,,,0,,,,,,,,data,,,,
07070,2012-08-11 11:00:00,23,,,,,,,,,,,,0,,,,,,,,data,,,,
07070,2012-08-11 12:00:00,23.6,,,,,,,,,,,,0,,,,,,,,data,,,,
07070,2012-08-11 13:00:00,24.4,,,,,,,,,,,,0,,,,,,,,data,,,,
07070,2012-08-11 14:00:00,25,,,,,,,,,,,,0,,,,,,,,data,,,,
07070,2012-08-11 15:00:00,25.2,,,,,,,,,,,,0,,,,,,,,data,,,,
07070,2012-08-11 16:00:00,25.3,,,,,,,,,,,,0,,,,,,,,data,,,,
07070,2012-08-11 17:00:00,24.6,,,,,,,,,,,,0,,,,,,,,data,,,,
07070,2012-08-11 18:00:00,22.7,,,,,,,,,,,,0,,,,,,,,data,,,,
07070,2012-08-11 19:00:00,18.3,,,,,,,,,,,,0,,,,,,,,data,,,,
07070,2012-08-11 20:00:00,16,,,,,,,,,,,,0,,,,,,,,data,,,,
07070,2012-08-11 22:00:00,14.3,,,,,,,,,,,,0,,,,,,,,data,,,,
07070,2012-08-11 23:00:00,13.7,,,,,,,,,,,,0,,,,,,,,data,,,,
07070,2012-08-12 00:00:00,13,,,,,,,,,,,,0,,,,,,,,data,,,,
07070,2012-08-12 01:00:00,13.4,,,,,,,,,,,,0,,,,,,,,data,,,,
07070,2012-08-12 02:00:00,12.9,,,,,,,,,,,,0,,,,,,,,data,,,,
07070,2012-08-12 03:00:00,11.4,,,,,,,,,,,,0,,,,,,,,data,,,,
07070,2012-08-12 04:00:00,10.3,,,,,,,,,,,,0,,,,,,,,data,,,,
07070,2012-08-12 05:00:00,9.9,,,,,,,,,,,,0,,,,,,,,data,,,,
07070,2012-08-12 06:00:00,13.3,,,,,,,,,,,,0,,,,,,,,data,,,,
07070,2012-08-12 07:00:00,16.9,,,,,,,,,,,,0,,,,,,,,data,,,,
07070,2012-08-12 09:00:00,21.8,,,,,,,,,,,,0,,,,,,,,data,,,,
07070,2012-08-12 10:00:00,23.3,,,,,,,,,,,,0,,,,,,,,data,,,,
07070,2012-08-12 11:00:00,25.1,,,,,,,,,,,,0,,,,,,,,data,,,,
07070,2012-08-12 12:00:00,26.4,,,,,,,,,,,,0,,,,,,,,data,,,,
07070,2012-08-12 13:00:00,27.2,,,,,,,,,,,,0,,,,,,,,data,,,,
07070,2012-08-12 14:00:00,27.2,,,,,,,,,,,,0,,,,,,,,data,,,,
07070,2012-08-12 15:00:00,25.9,,,,,,,,,,,,0,,,,,,,,data,,,,
07070,2012-08-12 16:00:00,25.7,,,,,,,,,,,,0,,,,,,,,data,,,,
07070,2012-08-12 19:00:00,21.8,,,,,,,,,,,,0,,,,,,,,data,,,,
07070,2012-08-12 20:00:00,20.3,,,,,,,,,,,,0,,,,,,,,data,,,,
07070,2012-08-12 21:00:00,19.1,,,,,,,,,,,,0,,,,,,,,data,,,,
07070,2012-08-12 22:00:00,17.3,,,,,,,,,,,,0,,,,,,,,data,,,,
07070,2012-08-12 23:00:00,17,,,,,,,,,,,,0,,,,,,,,data,,,,
07070,2012-08-13 00:00:00,17.4,,,,,,,,,,,,0,,,,,,,,data,,,,
07070,2012-08-13 01:00:00,17.8,,,,,,,,,,,,0,,,,,,,,data,,,,
07070,2012-08-13 02:00:00,16,,,,,,,,,,,,0,,,,,,,,data,,,,
07070,2012-08-13 04:00:00,12.7,,,,,,,,,,,,0,,,,,,,,data,,,,
07070,2012-08-13 05:00:00,11.9,,,,,,,,,,,,0,,,,,,,,data,,,,
07070,2012-08-13 06:00:00,15,,,,,,,,,,,,0,,,,,,,,data,,,,
07070,2012-08-13 08:00:00,22.3,,,,,,,,,,,,0,,,,,,,,data,,,,
07070,2012-08-13 12:00:00,25.7,,,,,,,,,,,,0,,,,,,,,data,,,,
07070,2012-08-13 15:00:00,26.3,,,,,,,,,,,,0,,,,,,,,data,,,,
07070,2012-08-13 17:00:00,24.3,,,,,,,,,,,,0,,,,,,,,data,,,,
07070,2012-08-13 18:00:00,23.6,,,,,,,,,,,,0,,,,,,,,data,,,,
07070,2012-08-13 19:00:00,22.5,,,,,,,,,,,,0,,,,,,,,data,,,,
07070,2012-08-13 21:00:00,19,,,,,,,,,,,,0,,,,,,,,data,,,,
07070,2012-08-13 22:00:00,15.7,,,,,,,,,,,,0,,,,,,,,data,,,,
07070,2012-08-14 07:00:00,19.6,,,,,,,,,,,,0,,,,,,,,data,,,,
07070,2012-08-14 09:00:00,23.7,,,,,,,,,,,,0,,,,,,,,data,,,,
07070,2012-08-14 10:00:00,24.9,,,,,,,,,,,,0,,,,,,,,data,,,,
07070,2012-08-14 11:00:00,26.3,,,,,,,,,,,,0,,,,,,,,data,,,,
07070,2012-08-14 13:00:00,24.8,,,,,,,,,,,,0,,,,,,,,data,,,,
07070,2012-08-14 14:00:00,24.8,,,,,,,,,,,,0,,,,,,,,data,,,,
07070,2012-08-14 15:00:00,23.8,,,,,,,,,,,,0,,,,,,,,data,,,,
07070,2012-08-14 16:00:00,23.6,,,,,,,,,,,,0,,,,,,,,data,,,,
07070,2012-08-14 17:00:00,22.7,,,,,,,,,,,,0,,,,,,,,data,,,,
07070,2012-08-14 18:00:00,22.3,,,,,,,,,,,,0,,,,,,,,data,,,,
07070,2012-08-14 19:00:00,21.1,,,,,,,,,,,,0,,,,,,,,data,,,,
07070,2012-08-14 21:00:00,19.6,,,,,,,,,,,,0,,,,,,,,data,,,,
07070,2012-08-14 22:00:00,19.7,,,,,,,,,,,,0,,,,,,,,data,,,,
07070,2012-08-14 23:00:00,19.2,,,,,,,,,,,,0,,,,,,,,data,,,,
07070,2012-08-15 00:00:00,18.6,,,,,,,,,,,,0,,,,,,,,data,,,,
07070,2012-08-15 01:00:00,17.7,,,,,,,,,,,,0,,,,,,,,data,,,,
07070,2012-08-15 02:00:00,16.6,,,,,,,,,,,,0,,,,,,,,data,,,,
07070,2012-08-15 03:00:00,15.2,,,,,,,,,,,,0,,,,,,,,data,,,,
07070,2012-08-15 04:00:00,16.8,,,,,,,,,,,,0.2,,,,,,,,data,,,,
07070,2012-08-15 05:00:00,16.4,,,,,,,,,,,,0,,,,,,,,data,,,,
07070,2012-08-15 07:00:00,22.3,,,,,,,,,,,,0,,,,,,,,data,,,,
07070,2012-08-15 09:00:00,25.3,,,,,,,,,,,,0,,,,,,,,data,,,,
07070,2012-08-15 11:00:00,27.8,,,,,,,,,,,,0,,,,,,,,data,,,,
07070,2012-08-15 12:00:00,29.3,,,,,,,,,,,,0,,,,,,,,data,,,,
07070,2012-08-15 13:00:00,30.4,,,,,,,,,,,,0,,,,,,,,data,,,,
07070,2012-08-15 15:00:00,29.1,,,,,,,,,,,,0,,,,,,,,data,,,,
07070,2012-08-15 16:00:00,27.8,,,,,,,,,,,,0,,,,,,,,data,,,,
07070,2012-08-15 18:00:00,22.7,,,,,,,,,,,,0,,,,,,,,data,,,,
07070,2012-08-15 19:00:00,22.8,,,,,,,,,,,,0,,,,,,,,data,,,,
07070,2012-08-15 21:00:00,20.8,,,,,,,,,,,,0,,,,,,,,data,,,,
07070,2012-08-15 22:00:00,19.3,,,,,,,,,,,,0,,,,,,,,data,,,,
07070,2012-08-15 23:00:00,17.6,,,,,,,,,,,,0,,,,,,,,data,,,,
07070,2012-08-16 00:00:00,16.6,,,,,,,,,,,,0,,,,,,,,data,,,,
07070,2012-08-16 01:00:00,15,,,,,,,,,,,,0,,,,,,,,data,,,,
07070,2012-08-16 02:00:00,13.8,,,,,,,,,,,,0,,,,,,,,data,,,,
07070,2012-08-16 04:00:00,14,,,,,,,,,,,,0,,,,,,,,data,,,,
07070,2012-08-16 05:00:00,13.9,,,,,,,,,,,,0,,,,,,,,data,,,,
07070,2012-08-16 06:00:00,15.7,,,,,,,,,,,,0,,,,,,,,data,,,,
07070,2012-08-16 07:00:00,18.3,,,,,,,,,,,,0,,,,,,,,data,,,,
07070,2012-08-16 09:00:00,21.4,,,,,,,,,,,,0,,,,,,,,data,,,,
07070,2012-08-16 11:00:00,22.6,,,,,,,,,,,,0,,,,,,,,data,,,,
07070,2012-08-16 12:00:00,24.2,,,,,,,,,,,,0,,,,,,,,data,,,,
07070,2012-08-16 13:00:00,24.2,,,,,,,,,,,,0,,,,,,,,data,,,,
07070,2012-08-16 16:00:00,25.4,,,,,,,,,,,,0,,,,,,,,data,,,,
07070,2012-08-16 18:00:00,23.6,,,,,,,,,,,,0,,,,,,,,data,,,,
07070,2012-08-16 19:00:00,18.6,,,,,,,,,,,,0,,,,,,,,data,,,,
07070,2012-08-16 21:00:00,16.7,,,,,,,,,,,,0,,,,,,,,data,,,,
07070,2012-08-16 22:00:00,19.2,,,,,,,,,,,,0,,,,,,,,data,,,,
07070,2012-08-16 23:00:00,17.2,,,,,,,,,,,,0,,,,,,,,data,,,,
07070,2012-08-17 00:00:00,16.8,,,,,,,,,,,,0,,,,,,,,data,,,,
07070,2012-08-17 03:00:00,13.7,,,,,,,,,,,,0,,,,,,,,data,,,,
07070,2012-08-17 04:00:00,15.5,,,,,,,,,,,,0,,,,,,,,data,,,,
07070,2012-08-17 05:00:00,13.2,,,,,,,,,,,,0,,,,,,,,data,,,,
07070,2012-08-17 06:00:00,16.5,,,,,,,,,,,,0,,,,,,,,data,,,,
07070,2012-08-17 07:00:00,20.2,,,,,,,,,,,,0,,,,,,,,data,,,,
07070,2012-08-17 09:00:00,24.7,,,,,,,,,,,,0,,,,,,,,data,,,,
07070,2012-08-17 10:00:00,26.3,,,,,,,,,,,,0,,,,,,,,data,,,,
07070,2012-08-17 11:00:00,27.9,,,,,,,,,,,,0,,,,,,,,data,,,,
07070,2012-08-17 14:00:00,30.2,,,,,,,,,,,,0,,,,,,,,data,,,,
07070,2012-08-17 15:00:00,30.4,,,,,,,,,,,,0,,,,,,,,data,,,,
07070,2012-08-17 16:00:00,30.2,,,,,,,,,,,,0,,,,,,,,data,,,,
07070,2012-08-17 17:00:00,30,,,,,,,,,,,,0,,,,,,,,data,,,,
07070,2012-08-17 18:00:00,28.4,,,,,,,,,,,,0,,,,,,,,data,,,,
07070,2012-08-17 19:00:00,22.8,,,,,,,,,,,,0,,,,,,,,data,,,,
07070,2012-08-17 21:00:00,19.1,,,,,,,,,,,,0,,,,,,,,data,,,,
07070,2012-08-17 22:00:00,19.5,,,,,,,,,,,,0,,,,,,,,data,,,,
07070,2012-08-17 23:00:00,18.4,,,,,,,,,,,,0,,,,,,,,data,,,,
07070,2012-08-18 00:00:00,17.5,,,,,,,,,,,,0,,,,,,,,data,,,,
07070,2012-08-18 01:00:00,18.1,,,,,,,,,,,,0,,,,,,,,data,,,,
07070,2012-08-18 03:00:00,18.5,,,,,,,,,,,,0,,,,,,,,data,,,,
07070,2012-08-18 04:00:00,16.3,,,,,,,,,,,,0,,,,,,,,data,,,,
07070,2012-08-18 05:00:00,15.3,,,,,,,,,,,,0,,,,,,,,data,,,,
07070,2012-08-18 06:00:00,19.2,,,,,,,,,,,,0,,,,,,,,data,,,,
07070,2012-08-18 07:00:00,23.1,,,,,,,,,,,,0,,,,,,,,data,,,,
07070,2012-08-18 09:00:00,27.2,,,,,,,,,,,,0,,,,,,,,data,,,,
07070,2012-08-18 11:00:00,31.8,,,,,,,,,,,,0,,,,,,,,data,,,,
07070,2012-08-18 12:00:00,33.3,,,,,,,,,,,,0,,,,,,,,data,,,,
07070,2012-08-18 13:00:00,34.9,,,,,,,,,,,,0,,,,,,,,data,,,,
07070,2012-08-18 14:00:00,36,,,,,,,,,,,,0,,,,,,,,data,,,,
07070,2012-08-18 16:00:00,37,,,,,,,,,,,,0,,,,,,,,data,,,,
07070,2012-08-18 18:00:00,32.6,,,,,,,,,,,,0,,,,,,,,data,,,,
07070,2012-08-18 19:00:00,29.3,,,,,,,,,,,,0,,,,,,,,data,,,,
07070,2012-08-18 20:00:00,27.7,,,,,,,,,,,,0,,,,,,,,data,,,,
07070,2012-08-18 21:00:00,27.2,,,,,,,,,,,,0,,,,,,,,data,,,,
07070,2012-08-18 22:00:00,25.4,,,,,,,,,,,,0,,,,,,,,data,,,,
07070,2012-08-18 23:00:00,23.6,,,,,,,,,,,,0,,,,,,,,data,,,,
07070,2012-08-19 00:00:00,21.2,,,,,,,,,,,,0,,,,,,,,data,,,,
07070,2012-08-19 01:00:00,22.4,,,,,,,,,,,,0,,,,,,,,data,,,,
07070,2012-08-19 02:00:00,20.6,,,,,,,,,,,,0,,,,,,,,data,,,,
07070,2012-08-19 03:00:00,18.3,,,,,,,,,,,,0,,,,,,,,data,,,,
07070,2012-08-19 04:00:00,19.3,,,,,,,,,,,,0,,,,,,,,data,,,,
07070,2012-08-19 05:00:00,20.4,,,,,,,,,,,,0,,,,,,,,data,,,,
07070,2012-08-19 06:00:00,22.4,,,,,,,,,,,,0,,,,,,,,data,,,,
07070,2012-08-19 07:00:00,25.3,,,,,,,,,,,,0,,,,,,,,data,,,,
07070,2012-08-19 09:00:00,30.4,,,,,,,,,,,,0,,,,,,,,data,,,,
07070,2012-08-19 10:00:00,32.3,,,,,,,,,,,,0,,,,,,,,data,,,,
07070,2012-08-19 11:00:00,33.8,,,,,,,,,,,,0,,,,,,,,data,,,,
07070,2012-08-19 13:00:00,34.5,,,,,,,,,,,,0,,,,,,,,data,,,,
07070,2012-08-19 14:00:00,35.6,,,,,,,,,,,,0,,,,,,,,data,,,,
07070,2012-08-19 15:00:00,35.3,,,,,,,,,,,,0,,,,,,,,data,,,,
07070,2012-08-19 16:00:00,33.9,,,,,,,,,,,,0,,,,,,,,data,,,,
07070,2012-08-19 17:00:00,33.9,,,,,,,,,,,,0,,,,,,,,data,,,,
07070,2012-08-19 18:00:00,32.5,,,,,,,,,,,,0,,,,,,,,data,,,,
07070,2012-08-19 19:00:00,28.1,,,,,,,,,,,,0,,,,,,,,data,,,,
07070,2012-08-19 20:00:00,25.5,,,,,,,,,,,,0,,,,,,,,data,,,,
07070,2012-08-19 21:00:00,24.6,,,,,,,,,,,,0,,,,,,,,data,,,,
07070,2012-08-19 22:00:00,26.8,,,,,,,,,,,,0,,,,,,,,data,,,,
07070,2012-08-19 23:00:00,24.8,,,,,,,,,,,,0,,,,,,,,data,,,,
07070,2012-08-20 01:00:00,21,,,,,,,,,,,,0,,,,,,,,data,,,,
07070,2012-08-20 02:00:00,19.8,,,,,,,,,,,,0,,,,,,,,data,,,,
07070,2012-08-20 03:00:00,18.8,,,,,,,,,,,,0,,,,,,,,data,,,,
07070,2012-08-20 04:00:00,17.6,,,,,,,,,,,,0,,,,,,,,data,,,,
07070,2012-08-20 05:00:00,16.9,,,,,,,,,,,,0,,,,,,,,data,,,,
07070,2012-08-20 07:00:00,20.6,,,,,,,,,,,,0,,,,,,,,data,,,,
07070,2012-08-20 09:00:00,21.3,,,,,,,,,,,,0.6,,,,,,,,data,,,,
07070,2012-08-20 11:00:00,25.5,,,,,,,,,,,,0,,,,,,,,data,,,,
07070,2012-08-20 14:00:00,26.5,,,,,,,,,,,,0,,,,,,,,data,,,,
07070,2012-08-20 16:00:00,24.7,,,,,,,,,,,,0.2,,,,,,,,data,,,,
07070,2012-08-20 18:00:00,22.8,,,,,,,,,,,,0,,,,,,,,data,,,,
07070,2012-08-20 19:00:00,20.9,,,,,,,,,,,,0,,,,,,,,data,,,,
07070,2012-08-20 21:00:00,19.2,,,,,,,,,,,,0,,,,,,,,data,,,,
07070,2012-08-20 22:00:00,18.1,,,,,,,,,,,,0,,,,,,,,data,,,,
07070,2012-08-20 23:00:00,17.4,,,,,,,,,,,,0,,,,,,,,data,,,,
07070,2012-08-21 00:00:00,17.1,,,,,,,,,,,,0,,,,,,,,data,,,,
07070,2012-08-21 01:00:00,16.5,,,,,,,,,,,,0,,,,,,,,data,,,,
07070,2012-08-21 02:00:00,16.2,,,,,,,,,,,,0,,,,,,,,data,,,,
07070,2012-08-21 03:00:00,16.2,,,,,,,,,,,,0.2,,,,,,,,data,,,,
07070,2012-08-21 04:00:00,15.7,,,,,,,,,,,,0,,,,,,,,data,,,,
07070,2012-08-21 05:00:00,15.8,,,,,,,,,,,,0,,,,,,,,data,,,,
07070,2012-08-21 07:00:00,19.5,,,,,,,,,,,,0,,,,,,,,data,,,,
07070,2012-08-21 09:00:00,23.1,,,,,,,,,,,,0,,,,,,,,data,,,,
07070,2012-08-21 14:00:00,30.3,,,,,,,,,,,,0,,,,,,,,data,,,,
07070,2012-08-21 15:00:00,30.1,,,,,,,,,,,,0,,,,,,,,data,,,,
07070,2012-08-21 16:00:00,28.4,,,,,,,,,,,,0,,,,,,,,data,,,,
07070,2012-08-21 17:00:00,27.7,,,,,,,,,,,,0,,,,,,,,data,,,,
07070,2012-08-21 18:00:00,25.6,,,,,,,,,,,,0,,,,,,,,data,,,,
07070,2012-08-21 19:00:00,23.2,,,,,,,,,,,,0,,,,,,,,data,,,,
07070,2012-08-21 21:00:00,20.2,,,,,,,,,,,,0,,,,,,,,data,,,,
07070,2012-08-21 22:00:00,20.5,,,,,,,,,,,,0,,,,,,,,data,,,,
07070,2012-08-21 23:00:00,19.5,,,,,,,,,,,,0,,,,,,,,data,,,,
07070,2012-08-22 01:00:00,17,,,,,,,,,,,,0,,,,,,,,data,,,,
07070,2012-08-22 02:00:00,16.8,,,,,,,,,,,,0,,,,,,,,data,,,,
07070,2012-08-22 03:00:00,15.8,,,,,,,,,,,,0,,,,,,,,data,,,,
07070,2012-08-22 04:00:00,15.6,,,,,,,,,,,,0,,,,,,,,data,,,,
07070,2012-08-22 05:00:00,15.6,,,,,,,,,,,,0,,,,,,,,data,,,,
07070,2012-08-22 06:00:00,15.8,,,,,,,,,,,,0,,,,,,,,data,,,,
07070,2012-08-22 09:00:00,18.9,,,,,,,,,,,,0,,,,,,,,data,,,,
07070,2012-08-22 10:00:00,20.8,,,,,,,,,,,,0,,,,,,,,data,,,,
07070,2012-08-22 11:00:00,22.1,,,,,,,,,,,,0,,,,,,,,data,,,,
07070,2012-08-22 14:00:00,23.6,,,,,,,,,,,,0,,,,,,,,data,,,,
07070,2012-08-22 16:00:00,23.6,,,,,,,,,,,,0,,,,,,,,data,,,,
07070,2012-08-22 18:00:00,21.5,,,,,,,,,,,,0,,,,,,,,data,,,,
07070,2012-08-22 21:00:00,13.5,,,,,,,,,,,,0,,,,,,,,data,,,,
07070,2012-08-22 23:00:00,13.8,,,,,,,,,,,,0,,,,,,,,data,,,,
07070,2012-08-23 00:00:00,12.4,,,,,,,,,,,,0,,,,,,,,data,,,,
07070,2012-08-23 01:00:00,10.4,,,,,,,,,,,,0,,,,,,,,data,,,,
07070,2012-08-23 02:00:00,9.6,,,,,,,,,,,,0,,,,,,,,data,,,,
07070,2012-08-23 03:00:00,8,,,,,,,,,,,,0,,,,,,,,data,,,,
07070,2012-08-23 04:00:00,8.1,,,,,,,,,,,,0,,,,,,,,data,,,,
07070,2012-08-23 05:00:00,7.6,,,,,,,,,,,,0,,,,,,,,data,,,,
07070,2012-08-23 06:00:00,9.4,,,,,,,,,,,,0,,,,,,,,data,,,,
07070,2012-08-23 07:00:00,14,,,,,,,,,,,,0,,,,,,,,data,,,,
07070,2012-08-23 09:00:00,19.5,,,,,,,,,,,,0,,,,,,,,data,,,,
07070,2012-08-23 10:00:00,20.9,,,,,,,,,,,,0,,,,,,,,data,,,,
07070,2012-08-23 11:00:00,22.1,,,,,,,,,,,,0,,,,,,,,data,,,,
07070,2012-08-23 12:00:00,23.3,,,,,,,,,,,,0,,,,,,,,data,,,,
07070,2012-08-23 15:00:00,24.5,,,,,,,,,,,,0,,,,,,,,data,,,,
07070,2012-08-23 16:00:00,24.5,,,,,,,,,,,,0,,,,,,,,data,,,,
07070,2012-08-23 17:00:00,23.3,,,,,,,,,,,,0,,,,,,,,data,,,,
07070,2012-08-23 18:00:00,21.8,,,,,,,,,,,,0,,,,,,,,data,,,,
07070,2012-08-23 19:00:00,20.9,,,,,,,,,,,,0,,,,,,,,data,,,,
07070,2012-08-23 21:00:00,19.2,,,,,,,,,,,,0,,,,,,,,data,,,,
07070,2012-08-23 22:00:00,17.9,,,,,,,,,,,,0,,,,,,,,data,,,,
07070,2012-08-23 23:00:00,17.7,,,,,,,,,,,,0,,,,,,,,data,,,,
07070,2012-08-24 00:00:00,17.1,,,,,,,,,,,,0,,,,,,,,data,,,,
07070,2012-08-24 01:00:00,16.5,,,,,,,,,,,,0,,,,,,,,data,,,,
07070,2012-08-24 02:00:00,15.6,,,,,,,,,,,,0,,,,,,,,data,,,,
07070,2012-08-24 04:00:00,13.4,,,,,,,,,,,,0,,,,,,,,data,,,,
07070,2012-08-24 05:00:00,13.9,,,,,,,,,,,,0,,,,,,,,data,,,,
07070,2012-08-24 06:00:00,14.9,,,,,,,,,,,,0,,,,,,,,data,,,,
07070,2012-08-24 07:00:00,16.3,,,,,,,,,,,,0,,,,,,,,data,,,,
07070,2012-08-24 09:00:00,20.5,,,,,,,,,,,,0,,,,,,,,data,,,,
07070,2012-08-24 10:00:00,22.2,,,,,,,,,,,,0,,,,,,,,data,,,,
07070,2012-08-24 11:00:00,23.5,,,,,,,,,,,,0,,,,,,,,data,,,,
07070,2012-08-24 12:00:00,24.2,,,,,,,,,,,,0,,,,,,,,data,,,,
07070,2012-08-24 13:00:00,25.2,,,,,,,,,,,,0,,,,,,,,data,,,,
07070,2012-08-24 15:00:00,24.6,,,,,,,,,,,,0,,,,,,,,data,,,,
07070,2012-08-24 18:00:00,17.6,,,,,,,,,,,,0.8,,,,,,,,data,,,,
07070,2012-08-24 19:00:00,16.3,,,,,,,,,,,,0.2,,,,,,,,data,,,,
07070,2012-08-24 21:00:00,16,,,,,,,,,,,,0,,,,,,,,data,,,,
07070,2012-08-24 22:00:00,17.1,,,,,,,,,,,,0,,,,,,,,data,,,,
07070,2012-08-25 00:00:00,16.5,,,,,,,,,,,,0,,,,,,,,data,,,,
07070,2012-08-25 01:00:00,17.3,,,,,,,,,,,,0,,,,,,,,data,,,,
07070,2012-08-25 02:00:00,17,,,,,,,,,,,,0,,,,,,,,data,,,,
07070,2012-08-25 03:00:00,16.7,,,,,,,,,,,,0,,,,,,,,data,,,,
07070,2012-08-25 04:00:00,16.7,,,,,,,,,,,,0.2,,,,,,,,data,,,,
07070,2012-08-25 05:00:00,16.3,,,,,,,,,,,,0,,,,,,,,data,,,,
07070,2012-08-25 06:00:00,17.3,,,,,,,,,,,,0,,,,,,,,data,,,,
07070,2012-08-25 07:00:00,18.2,,,,,,,,,,,,0,,,,,,,,data,,,,
07070,2012-08-25 09:00:00,19.9,,,,,,,,,,,,0,,,,,,,,data,,,,
07070,2012-08-25 10:00:00,18.2,,,,,,,,,,,,0.2,,,,,,,,data,,,,
07070,2012-08-25 11:00:00,20.9,,,,,,,,,,,,0,,,,,,,,data,,,,
07070,2012-08-25 12:00:00,21.9,,,,,,,,,,,,0,,,,,,,,data,,,,
07070,2012-08-25 13:00:00,22.7,,,,,,,,,,,,0,,,,,,,,data,,,,
07070,2012-08-25 14:00:00,23.7,,,,,,,,,,,,0,,,,,,,,data,,,,
07070,2012-08-25 16:00:00,24,,,,,,,,,,,,0,,,,,,,,data,,,,
07070,2012-08-25 17:00:00,23.1,,,,,,,,,,,,0,,,,,,,,data,,,,
07070,2012-08-25 19:00:00,20.8,,,,,,,,,,,,0,,,,,,,,data,,,,
07070,2012-08-25 21:00:00,19.3,,,,,,,,,,,,0,,,,,,,,data,,,,
07070,2012-08-25 23:00:00,17.9,,,,,,,,,,,,0,,,,,,,,data,,,,
07070,2012-08-26 00:00:00,17.4,,,,,,,,,,,,0,,,,,,,,data,,,,
07070,2012-08-26 01:00:00,17.1,,,,,,,,,,,,0,,,,,,,,data,,,,
07070,2012-08-26 02:00:00,16.9,,,,,,,,,,,,0,,,,,,,,data,,,,
07070,2012-08-26 03:00:00,16.5,,,,,,,,,,,,0,,,,,,,,data,,,,
07070,2012-08-26 04:00:00,16,,,,,,,,,,,,0,,,,,,,,data,,,,
07070,2012-08-26 05:00:00,15.6,,,,,,,,,,,,0,,,,,,,,data,,,,
07070,2012-08-26 06:00:00,15.8,,,,,,,,,,,,0,,,,,,,,data,,,,
07070,2012-08-26 07:00:00,16.7,,,,,,,,,,,,0,,,,,,,,data,,,,
07070,2012-08-26 09:00:00,18.4,,,,,,,,,,,,0,,,,,,,,data,,,,
07070,2012-08-26 10:00:00,19.8,,,,,,,,,,,,0,,,,,,,,data,,,,
07070,2012-08-26 11:00:00,20,,,,,,,,,,,,0,,,,,,,,data,,,,
07070,2012-08-26 12:00:00,21.9,,,,,,,,,,,,0,,,,,,,,data,,,,
07070,2012-08-26 13:00:00,22.8,,,,,,,,,,,,0,,,,,,,,data,,,,
07070,2012-08-26 14:00:00,22.2,,,,,,,,,,,,0,,,,,,,,data,,,,
07070,2012-08-26 15:00:00,21.2,,,,,,,,,,,,0,,,,,,,,data,,,,
07070,2012-08-26 16:00:00,21.6,,,,,,,,,,,,0,,,,,,,,data,,,,
07070,2012-08-26 17:00:00,21.3,,,,,,,,,,,,0,,,,,,,,data,,,,
07070,2012-08-26 18:00:00,18.8,,,,,,,,,,,,0,,,,,,,,data,,,,
07070,2012-08-26 21:00:00,14.4,,,,,,,,,,,,0,,,,,,,,data,,,,
07070,2012-08-26 22:00:00,13.7,,,,,,,,,,,,0,,,,,,,,data,,,,
07070,2012-08-26 23:00:00,13.7,,,,,,,,,,,,0,,,,,,,,data,,,,
07070,2012-08-27 00:00:00,13.8,,,,,,,,,,,,0,,,,,,,,data,,,,
07070,2012-08-27 01:00:00,12.7,,,,,,,,,,,,0,,,,,,,,data,,,,
07070,2012-08-27 02:00:00,12.2,,,,,,,,,,,,0,,,,,,,,data,,,,
07070,2012-08-27 03:00:00,11.8,,,,,,,,,,,,0,,,,,,,,data,,,,
07070,2012-08-27 04:00:00,11.7,,,,,,,,,,,,0,,,,,,,,data,,,,
07070,2012-08-27 05:00:00,11.7,,,,,,,,,,,,0,,,,,,,,data,,,,
07070,2012-08-27 06:00:00,12.8,,,,,,,,,,,,0,,,,,,,,data,,,,
07070,2012-08-27 07:00:00,16.3,,,,,,,,,,,,0,,,,,,,,data,,,,
07070,2012-08-27 09:00:00,21.4,,,,,,,,,,,,0,,,,,,,,data,,,,
07070,2012-08-27 10:00:00,23.4,,,,,,,,,,,,0,,,,,,,,data,,,,
07070,2012-08-27 11:00:00,24.3,,,,,,,,,,,,0,,,,,,,,data,,,,
07070,2012-08-27 14:00:00,25.7,,,,,,,,,,,,0,,,,,,,,data,,,,
07070,2012-08-27 15:00:00,25.9,,,,,,,,,,,,0,,,,,,,,data,,,,
07070,2012-08-27 18:00:00,23.2,,,,,,,,,,,,0,,,,,,,,data,,,,
07070,2012-08-27 19:00:00,17.3,,,,,,,,,,,,0,,,,,,,,data,,,,
07070,2012-08-27 21:00:00,19,,,,,,,,,,,,0,,,,,,,,data,,,,
07070,2012-08-27 22:00:00,19.1,,,,,,,,,,,,0,,,,,,,,data,,,,
07070,2012-08-27 23:00:00,18.6,,,,,,,,,,,,0,,,,,,,,data,,,,
07070,2012-08-28 00:00:00,18.7,,,,,,,,,,,,0,,,,,,,,data,,,,
07070,2012-08-28 01:00:00,18.9,,,,,,,,,,,,0,,,,,,,,data,,,,
07070,2012-08-28 02:00:00,18.3,,,,,,,,,,,,0,,,,,,,,data,,,,
07070,2012-08-28 03:00:00,17.3,,,,,,,,,,,,0,,,,,,,,data,,,,
07070,2012-08-28 04:00:00,16.8,,,,,,,,,,,,0,,,,,,,,data,,,,
07070,2012-08-28 05:00:00,16.6,,,,,,,,,,,,0,,,,,,,,data,,,,
07070,2012-08-28 06:00:00,18,,,,,,,,,,,,0,,,,,,,,data,,,,
07070,2012-08-28 07:00:00,17.3,,,,,,,,,,,,0.4,,,,,,,,data,,,,
07070,2012-08-28 10:00:00,20.9,,,,,,,,,,,,0,,,,,,,,data,,,,
07070,2012-08-28 11:00:00,21,,,,,,,,,,,,0,,,,,,,,data,,,,
07070,2012-08-28 13:00:00,25,,,,,,,,,,,,0,,,,,,,,data,,,,
07070,2012-08-28 14:00:00,25.1,,,,,,,,,,,,0,,,,,,,,data,,,,
07070,2012-08-28 15:00:00,26.6,,,,,,,,,,,,0,,,,,,,,data,,,,
07070,2012-08-28 16:00:00,26.4,,,,,,,,,,,,0,,,,,,,,data,,,,
07070,2012-08-28 18:00:00,23,,,,,,,,,,,,0,,,,,,,,data,,,,
07070,2012-08-28 21:00:00,17.4,,,,,,,,,,,,0,,,,,,,,data,,,,
07070,2012-08-28 22:00:00,16.7,,,,,,,,,,,,0,,,,,,,,data,,,,
07070,2012-08-28 23:00:00,15.8,,,,,,,,,,,,0,,,,,,,,data,,,,
07070,2012-08-29 00:00:00,13.7,,,,,,,,,,,,0,,,,,,,,data,,,,
07070,2012-08-29 01:00:00,14.9,,,,,,,,,,,,0,,,,,,,,data,,,,
07070,2012-08-29 02:00:00,13.2,,,,,,,,,,,,0,,,,,,,,data,,,,
07070,2012-08-29 03:00:00,11.8,,,,,,,,,,,,0,,,,,,,,data,,,,
07070,2012-08-29 04:00:00,12.8,,,,,,,,,,,,0,,,,,,,,data,,,,
07070,2012-08-29 05:00:00,12.4,,,,,,,,,,,,0,,,,,,,,data,,,,
07070,2012-08-29 06:00:00,14.4,,,,,,,,,,,,0,,,,,,,,data,,,,
07070,2012-08-29 07:00:00,17.6,,,,,,,,,,,,0,,,,,,,,data,,,,
07070,2012-08-29 09:00:00,22.9,,,,,,,,,,,,0,,,,,,,,data,,,,
07070,2012-08-29 10:00:00,25.4,,,,,,,,,,,,0,,,,,,,,data,,,,
07070,2012-08-29 11:00:00,26.5,,,,,,,,,,,,0,,,,,,,,data,,,,
07070,2012-08-29 13:00:00,26.9,,,,,,,,,,,,0,,,,,,,,data,,,,
07070,2012-08-29 14:00:00,26.2,,,,,,,,,,,,0,,,,,,,,data,,,,
07070,2012-08-29 16:00:00,25.7,,,,,,,,,,,,0,,,,,,,,data,,,,
07070,2012-08-29 18:00:00,23.7,,,,,,,,,,,,0,,,,,,,,data,,,,
07070,2012-08-29 19:00:00,21.7,,,,,,,,,,,,0,,,,,,,,data,,,,
07070,2012-08-29 21:00:00,19.3,,,,,,,,,,,,0,,,,,,,,data,,,,
07070,2012-08-29 22:00:00,16.5,,,,,,,,,,,,0,,,,,,,,data,,,,
07070,2012-08-29 23:00:00,14.9,,,,,,,,,,,,0,,,,,,,,data,,,,
07070,2012-08-30 00:00:00,13.5,,,,,,,,,,,,0,,,,,,,,data,,,,
07070,2012-08-30 01:00:00,12.8,,,,,,,,,,,,0,,,,,,,,data,,,,
07070,2012-08-30 02:00:00,13,,,,,,,,,,,,0,,,,,,,,data,,,,
07070,2012-08-30 03:00:00,12.4,,,,,,,,,,,,0,,,,,,,,data,,,,
07070,2012-08-30 11:00:00,20.1,,,,,,,,,,,,0,,,,,,,,data,,,,
07070,2012-08-30 12:00:00,19,,,,,,,,,,,,0,,,,,,,,data,,,,
07070,2012-08-30 13:00:00,21.4,,,,,,,,,,,,0,,,,,,,,data,,,,
07070,2012-08-30 14:00:00,21.7,,,,,,,,,,,,0,,,,,,,,data,,,,
07070,2012-08-30 15:00:00,23.3,,,,,,,,,,,,0,,,,,,,,data,,,,
07070,2012-08-30 16:00:00,21.2,,,,,,,,,,,,0,,,,,,,,data,,,,
07070,2012-08-30 17:00:00,20.2,,,,,,,,,,,,0,,,,,,,,data,,,,
07070,2012-08-30 18:00:00,16.1,,,,,,,,,,,,3.7,,,,,,,,data,,,,
07070,2012-08-30 19:00:00,16.4,,,,,,,,,,,,0,,,,,,,,data,,,,
07070,2012-08-30 21:00:00,15,,,,,,,,,,,,0,,,,,,,,data,,,,
07070,2012-08-30 22:00:00,14.9,,,,,,,,,,,,0,,,,,,,,data,,,,
07070,2012-08-30 23:00:00,14.3,,,,,,,,,,,,0,,,,,,,,data,,,,
07070,2012-08-31 00:00:00,12.9,,,,,,,,,,,,0,,,,,,,,data,,,,
07070,2012-08-31 01:00:00,12.2,,,,,,,,,,,,0.2,,,,,,,,data,,,,
07070,2012-08-31 02:00:00,12.3,,,,,,,,,,,,0.2,,,,,,,,data,,,,
07070,2012-08-31 03:00:00,12.2,,,,,,,,,,,,0,,,,,,,,data,,,,
07070,2012-08-31 04:00:00,12,,,,,,,,,,,,0,,,,,,,,data,,,,
07070,2012-08-31 05:00:00,11.9,,,,,,,,,,,,0,,,,,,,,data,,,,
07070,2012-08-31 06:00:00,11.4,,,,,,,,,,,,0.4,,,,,,,,data,,,,
07070,2012-08-31 07:00:00,12.4,,,,,,,,,,,,0,,,,,,,,data,,,,
07070,2012-08-31 09:00:00,14,,,,,,,,,,,,0,,,,,,,,data,,,,
07070,2012-08-31 10:00:00,17.3,,,,,,,,,,,,0,,,,,,,,data,,,,
07070,2012-08-31 11:00:00,17.2,,,,,,,,,,,,0,,,,,,,,data,,,,
07070,2012-08-31 13:00:00,16,,,,,,,,,,,,0,,,,,,,,data,,,,
07070,2012-08-31 14:00:00,18.3,,,,,,,,,,,,0,,,,,,,,data,,,,
07070,2012-08-31 15:00:00,18.7,,,,,,,,,,,,0,,,,,,,,data,,,,
07070,2012-08-31 18:00:00,14.9,,,,,,,,,,,,0,,,,,,,,data,,,,
07070,2012-08-31 19:00:00,13.8,,,,,,,,,,,,0,,,,,,,,data,,,,
07070,2012-08-31 20:00:00,12,,,,,,,,,,,,0,,,,,,,,data,,,,
07070,2012-08-31 21:00:00,10.9,,,,,,,,,,,,0,,,,,,,,data,,,,
07070,2012-09-01 00:00:00,9.6,,,,,,,,,,,,0,,,,,,,,data,,,,
07070,2012-09-01 01:00:00,9.7,,,,,,,,,,,,0,,,,,,,,data,,,,
07070,2012-09-01 02:00:00,8.2,,,,,,,,,,,,0,,,,,,,,data,,,,
07070,2012-09-01 03:00:00,7.5,,,,,,,,,,,,0,,,,,,,,data,,,,
07070,2012-09-01 04:00:00,7.9,,,,,,,,,,,,0,,,,,,,,data,,,,
07070,2012-09-01 05:00:00,7.3,,,,,,,,,,,,0,,,,,,,,data,,,,
07070,2012-09-01 06:00:00,7.7,,,,,,,,,,,,0,,,,,,,,data,,,,
07070,2012-09-01 07:00:00,10.4,,,,,,,,,,,,0,,,,,,,,data,,,,
07070,2012-09-01 10:00:00,17.5,,,,,,,,,,,,0,,,,,,,,data,,,,
07070,2012-09-01 11:00:00,18.3,,,,,,,,,,,,0,,,,,,,,data,,,,
07070,2012-09-01 13:00:00,19.6,,,,,,,,,,,,0,,,,,,,,data,,,,
07070,2012-09-01 14:00:00,20,,,,,,,,,,,,0,,,,,,,,data,,,,
07070,2012-09-01 16:00:00,20,,,,,,,,,,,,0,,,,,,,,data,,,,
07070,2012-09-01 18:00:00,16.7,,,,,,,,,,,,0,,,,,,,,data,,,,
07070,2012-09-01 19:00:00,12.8,,,,,,,,,,,,0,,,,,,,,data,,,,
07070,2012-09-01 20:00:00,11.8,,,,,,,,,,,,0,,,,,,,,data,,,,
07070,2012-09-01 21:00:00,10.9,,,,,,,,,,,,0,,,,,,,,data,,,,
07070,2012-09-01 22:00:00,8.8,,,,,,,,,,,,0,,,,,,,,data,,,,
07070,2012-09-01 23:00:00,8.5,,,,,,,,,,,,0,,,,,,,,data,,,,
07070,2012-09-02 00:00:00,7.6,,,,,,,,,,,,0,,,,,,,,data,,,,
07070,2012-09-02 01:00:00,5.4,,,,,,,,,,,,0,,,,,,,,data,,,,
07070,2012-09-02 02:00:00,4.6,,,,,,,,,,,,0,,,,,,,,data,,,,
07070,2012-09-02 03:00:00,4.4,,,,,,,,,,,,0,,,,,,,,data,,,,
07070,2012-09-02 04:00:00,4.2,,,,,,,,,,,,0,,,,,,,,data,,,,
07070,2012-09-02 05:00:00,4.1,,,,,,,,,,,,0,,,,,,,,data,,,,
07070,2012-09-02 06:00:00,5.8,,,,,,,,,,,,0,,,,,,,,data,,,,
07070,2012-09-02 07:00:00,11.4,,,,,,,,,,,,0,,,,,,,,data,,,,
07070,2012-09-02 09:00:00,19.3,,,,,,,,,,,,0,,,,,,,,data,,,,
07070,2012-09-02 10:00:00,19.4,,,,,,,,,,,,0,,,,,,,,data,,,,
07070,2012-09-02 11:00:00,20.8,,,,,,,,,,,,0,,,,,,,,data,,,,
07070,2012-09-02 12:00:00,22,,,,,,,,,,,,0,,,,,,,,data,,,,
07070,2012-09-02 13:00:00,22.1,,,,,,,,,,,,0,,,,,,,,data,,,,
07070,2012-09-02 16:00:00,21.1,,,,,,,,,,,,0,,,,,,,,data,,,,
07070,2012-09-02 18:00:00,19.1,,,,,,,,,,,,0,,,,,,,,data,,,,
07070,2012-09-02 19:00:00,16.6,,,,,,,,,,,,0,,,,,,,,data,,,,
07070,2012-09-02 20:00:00,15.9,,,,,,,,,,,,0,,,,,,,,data,,,,
07070,2012-09-02 21:00:00,14.2,,,,,,,,,,,,0,,,,,,,,data,,,,
07070,2012-09-02 22:00:00,13.5,,,,,,,,,,,,0,,,,,,,,data,,,,
07070,2012-09-02 23:00:00,12.7,,,,,,,,,,,,0,,,,,,,,data,,,,
07070,2012-09-03 01:00:00,10.4,,,,,,,,,,,,0,,,,,,,,data,,,,
07070,2012-09-03 02:00:00,9.9,,,,,,,,,,,,0,,,,,,,,data,,,,
07070,2012-09-03 03:00:00,11.9,,,,,,,,,,,,0,,,,,,,,data,,,,
07070,2012-09-03 11:00:00,21.8,,,,,,,,,,,,0,,,,,,,,data,,,,
07070,2012-09-03 13:00:00,21.5,,,,,,,,,,,,0,,,,,,,,data,,,,
07070,2012-09-03 14:00:00,21.8,,,,,,,,,,,,0,,,,,,,,data,,,,
07070,2012-09-03 15:00:00,22.1,,,,,,,,,,,,0,,,,,,,,data,,,,
07070,2012-09-03 16:00:00,21.3,,,,,,,,,,,,0,,,,,,,,data,,,,
07070,2012-09-03 18:00:00,19.5,,,,,,,,,,,,0,,,,,,,,data,,,,
07070,2012-09-03 19:00:00,16.8,,,,,,,,,,,,0,,,,,,,,data,,,,
07070,2012-09-03 21:00:00,14.4,,,,,,,,,,,,0,,,,,,,,data,,,,
07070,2012-09-03 22:00:00,13.3,,,,,,,,,,,,0,,,,,,,,data,,,,
07070,2012-09-03 23:00:00,12.7,,,,,,,,,,,,0,,,,,,,,data,,,,
07070,2012-09-04 00:00:00,12.3,,,,,,,,,,,,0,,,,,,,,data,,,,
07070,2012-09-04 01:00:00,11.9,,,,,,,,,,,,0,,,,,,,,data,,,,
07070,2012-09-04 02:00:00,11.4,,,,,,,,,,,,0.2,,,,,,,,data,,,,
07070,2012-09-04 04:00:00,8.1,,,,,,,,,,,,0,,,,,,,,data,,,,
07070,2012-09-04 05:00:00,7.9,,,,,,,,,,,,0,,,,,,,,data,,,,
07070,2012-09-04 07:00:00,11.7,,,,,,,,,,,,0,,,,,,,,data,,,,
07070,2012-09-04 09:00:00,19.4,,,,,,,,,,,,0,,,,,,,,data,,,,
07070,2012-09-04 10:00:00,22,,,,,,,,,,,,0,,,,,,,,data,,,,
07070,2012-09-04 11:00:00,23.8,,,,,,,,,,,,0,,,,,,,,data,,,,
07070,2012-09-04 13:00:00,25.4,,,,,,,,,,,,0,,,,,,,,data,,,,
07070,2012-09-04 14:00:00,26.1,,,,,,,,,,,,0,,,,,,,,data,,,,
07070,2012-09-04 16:00:00,25.8,,,,,,,,,,,,0,,,,,,,,data,,,,
07070,2012-09-04 18:00:00,22.4,,,,,,,,,,,,0,,,,,,,,data,,,,
07070,2012-09-04 19:00:00,19.3,,,,,,,,,,,,0,,,,,,,,data,,,,
07070,2012-09-04 21:00:00,17,,,,,,,,,,,,0,,,,,,,,data,,,,
07070,2012-09-04 22:00:00,16.3,,,,,,,,,,,,0,,,,,,,,data,,,,
07070,2012-09-05 00:00:00,14.8,,,,,,,,,,,,0,,,,,,,,data,,,,
07070,2012-09-05 01:00:00,13.8,,,,,,,,,,,,0,,,,,,,,data,,,,
07070,2012-09-05 02:00:00,13.6,,,,,,,,,,,,0,,,,,,,,data,,,,
07070,2012-09-05 03:00:00,12.8,,,,,,,,,,,,0,,,,,,,,data,,,,
07070,2012-09-05 04:00:00,12.8,,,,,,,,,,,,0,,,,,,,,data,,,,
07070,2012-09-05 05:00:00,12.1,,,,,,,,,,,,0,,,,,,,,data,,,,
07070,2012-09-05 06:00:00,14.7,,,,,,,,,,,,0,,,,,,,,data,,,,
07070,2012-09-05 07:00:00,15.3,,,,,,,,,,,,0,,,,,,,,data,,,,
07070,2012-09-05 09:00:00,18.6,,,,,,,,,,,,0,,,,,,,,data,,,,
07070,2012-09-05 10:00:00,20.1,,,,,,,,,,,,0,,,,,,,,data,,,,
07070,2012-09-05 11:00:00,20.3,,,,,,,,,,,,0,,,,,,,,data,,,,
07070,2012-09-05 14:00:00,22.4,,,,,,,,,,,,0,,,,,,,,data,,,,
07070,2012-09-05 15:00:00,22.3,,,,,,,,,,,,0,,,,,,,,data,,,,
07070,2012-09-05 16:00:00,21.9,,,,,,,,,,,,0,,,,,,,,data,,,,
07070,2012-09-05 19:00:00,17.1,,,,,,,,,,,,0,,,,,,,,data,,,,
07070,2012-09-05 21:00:00,13.4,,,,,,,,,,,,0,,,,,,,,data,,,,
07070,2012-09-05 23:00:00,11.5,,,,,,,,,,,,0,,,,,,,,data,,,,
07070,2012-09-06 00:00:00,8.5,,,,,,,,,,,,0,,,,,,,,data,,,,
07070,2012-09-06 01:00:00,8,,,,,,,,,,,,0,,,,,,,,data,,,,
07070,2012-09-06 02:00:00,7.4,,,,,,,,,,,,0,,,,,,,,data,,,,
07070,2012-09-06 03:00:00,7,,,,,,,,,,,,0,,,,,,,,data,,,,
07070,2012-09-06 04:00:00,6.2,,,,,,,,,,,,0,,,,,,,,data,,,,
07070,2012-09-06 05:00:00,6.5,,,,,,,,,,,,0,,,,,,,,data,,,,
07070,2012-09-06 06:00:00,6.9,,,,,,,,,,,,0.2,,,,,,,,data,,,,
07070,2012-09-06 09:00:00,17.5,,,,,,,,,,,,0,,,,,,,,data,,,,
07070,2012-09-06 10:00:00,19,,,,,,,,,,,,0,,,,,,,,data,,,,
07070,2012-09-06 11:00:00,20.1,,,,,,,,,,,,0,,,,,,,,data,,,,
07070,2012-09-06 13:00:00,21.2,,,,,,,,,,,,0,,,,,,,,data,,,,
07070,2012-09-06 14:00:00,21.7,,,,,,,,,,,,0,,,,,,,,data,,,,
07070,2012-09-06 15:00:00,21.9,,,,,,,,,,,,0,,,,,,,,data,,,,
07070,2012-09-06 16:00:00,21.5,,,,,,,,,,,,0,,,,,,,,data,,,,
07070,2012-09-06 18:00:00,18.3,,,,,,,,,,,,0,,,,,,,,data,,,,
07070,2012-09-06 19:00:00,14.2,,,,,,,,,,,,0,,,,,,,,data,,,,
07070,2012-09-06 21:00:00,11.6,,,,,,,,,,,,0,,,,,,,,data,,,,
07070,2012-09-06 22:00:00,8.9,,,,,,,,,,,,0,,,,,,,,data,,,,
07070,2012-09-06 23:00:00,7.8,,,,,,,,,,,,0,,,,,,,,data,,,,
07070,2012-09-07 00:00:00,6.7,,,,,,,,,,,,0,,,,,,,,data,,,,
07070,2012-09-07 01:00:00,6.6,,,,,,,,,,,,0,,,,,,,,data,,,,
07070,2012-09-07 02:00:00,7.2,,,,,,,,,,,,0,,,,,,,,data,,,,
07070,2012-09-07 05:00:00,3,,,,,,,,,,,,0,,,,,,,,data,,,,
07070,2012-09-07 06:00:00,4.9,,,,,,,,,,,,0,,,,,,,,data,,,,
07070,2012-09-07 09:00:00,17.8,,,,,,,,,,,,0,,,,,,,,data,,,,
07070,2012-09-07 10:00:00,20.2,,,,,,,,,,,,0,,,,,,,,data,,,,
07070,2012-09-07 13:00:00,24.2,,,,,,,,,,,,0,,,,,,,,data,,,,
07070,2012-09-07 14:00:00,24.9,,,,,,,,,,,,0,,,,,,,,data,,,,
07070,2012-09-07 15:00:00,25.3,,,,,,,,,,,,0,,,,,,,,data,,,,
07070,2012-09-07 16:00:00,25.6,,,,,,,,,,,,0,,,,,,,,data,,,,
07070,2012-09-07 18:00:00,20.9,,,,,,,,,,,,0,,,,,,,,data,,,,
07070,2012-09-07 19:00:00,16.9,,,,,,,,,,,,0,,,,,,,,data,,,,
07070,2012-09-07 21:00:00,12.3,,,,,,,,,,,,0,,,,,,,,data,,,,
07070,2012-09-07 22:00:00,11.1,,,,,,,,,,,,0,,,,,,,,data,,,,
07070,2012-09-07 23:00:00,10,,,,,,,,,,,,0,,,,,,,,data,,,,
07070,2012-09-08 00:00:00,8.8,,,,,,,,,,,,0,,,,,,,,data,,,,
07070,2012-09-08 01:00:00,8.3,,,,,,,,,,,,0,,,,,,,,data,,,,
07070,2012-09-08 02:00:00,7.3,,,,,,,,,,,,0,,,,,,,,data,,,,
07070,2012-09-08 03:00:00,7.3,,,,,,,,,,,,0,,,,,,,,data,,,,
07070,2012-09-08 04:00:00,6.6,,,,,,,,,,,,0,,,,,,,,data,,,,
07070,2012-09-08 05:00:00,5.6,,,,,,,,,,,,0,,,,,,,,data,,,,
07070,2012-09-08 06:00:00,7.9,,,,,,,,,,,,0,,,,,,,,data,,,,
07070,2012-09-08 07:00:00,12.5,,,,,,,,,,,,0,,,,,,,,data,,,,
07070,2012-09-08 09:00:00,19.5,,,,,,,,,,,,0,,,,,,,,data,,,,
07070,2012-09-08 10:00:00,22.8,,,,,,,,,,,,0,,,,,,,,data,,,,
07070,2012-09-08 13:00:00,26.7,,,,,,,,,,,,0,,,,,,,,data,,,,
07070,2012-09-08 14:00:00,27.5,,,,,,,,,,,,0,,,,,,,,data,,,,
07070,2012-09-08 15:00:00,27.8,,,,,,,,,,,,0,,,,,,,,data,,,,
07070,2012-09-08 16:00:00,27.3,,,,,,,,,,,,0,,,,,,,,data,,,,
07070,2012-09-08 18:00:00,23.4,,,,,,,,,,,,0,,,,,,,,data,,,,
07070,2012-09-08 19:00:00,18.1,,,,,,,,,,,,0,,,,,,,,data,,,,
07070,2012-09-08 21:00:00,14.5,,,,,,,,,,,,0,,,,,,,,data,,,,
07070,2012-09-08 22:00:00,13,,,,,,,,,,,,0,,,,,,,,data,,,,
07070,2012-09-08 23:00:00,12,,,,,,,,,,,,0,,,,,,,,data,,,,
07070,2012-09-09 01:00:00,10.4,,,,,,,,,,,,0,,,,,,,,data,,,,
07070,2012-09-09 02:00:00,9.6,,,,,,,,,,,,0,,,,,,,,data,,,,
07070,2012-09-09 03:00:00,8.5,,,,,,,,,,,,0,,,,,,,,data,,,,
07070,2012-09-09 04:00:00,8.7,,,,,,,,,,,,0,,,,,,,,data,,,,
07070,2012-09-09 05:00:00,7.7,,,,,,,,,,,,0,,,,,,,,data,,,,
07070,2012-09-09 06:00:00,9.1,,,,,,,,,,,,0,,,,,,,,data,,,,
07070,2012-09-09 07:00:00,14.8,,,,,,,,,,,,0,,,,,,,,data,,,,
07070,2012-09-09 09:00:00,22.6,,,,,,,,,,,,0,,,,,,,,data,,,,
07070,2012-09-09 10:00:00,24.9,,,,,,,,,,,,0,,,,,,,,data,,,,
07070,2012-09-09 11:00:00,27,,,,,,,,,,,,0,,,,,,,,data,,,,
07070,2012-09-09 13:00:00,29.9,,,,,,,,,,,,0,,,,,,,,data,,,,
07070,2012-09-09 14:00:00,30.3,,,,,,,,,,,,0,,,,,,,,data,,,,
07070,2012-09-09 15:00:00,30.3,,,,,,,,,,,,0,,,,,,,,data,,,,
07070,2012-09-09 16:00:00,29.8,,,,,,,,,,,,0,,,,,,,,data,,,,
07070,2012-09-09 18:00:00,25.2,,,,,,,,,,,,0,,,,,,,,data,,,,
07070,2012-09-09 19:00:00,18.2,,,,,,,,,,,,0,,,,,,,,data,,,,
07070,2012-09-09 21:00:00,17.7,,,,,,,,,,,,0,,,,,,,,data,,,,
07070,2012-09-09 22:00:00,16.8,,,,,,,,,,,,0,,,,,,,,data,,,,
07070,2012-09-09 23:00:00,16.7,,,,,,,,,,,,0,,,,,,,,data,,,,
07070,2012-09-10 00:00:00,15.6,,,,,,,,,,,,0,,,,,,,,data,,,,
07070,2012-09-10 01:00:00,13.7,,,,,,,,,,,,0,,,,,,,,data,,,,
07070,2012-09-10 03:00:00,15.2,,,,,,,,,,,,0,,,,,,,,data,,,,
07070,2012-09-10 04:00:00,13.6,,,,,,,,,,,,0,,,,,,,,data,,,,
07070,2012-09-10 05:00:00,14.4,,,,,,,,,,,,0,,,,,,,,data,,,,
07070,2012-09-10 06:00:00,14.1,,,,,,,,,,,,0,,,,,,,,data,,,,
07070,2012-09-10 07:00:00,16.5,,,,,,,,,,,,0,,,,,,,,data,,,,
07070,2012-09-10 09:00:00,20.3,,,,,,,,,,,,0,,,,,,,,data,,,,
07070,2012-09-10 11:00:00,23.9,,,,,,,,,,,,0,,,,,,,,data,,,,
07070,2012-09-10 16:00:00,24.6,,,,,,,,,,,,0,,,,,,,,data,,,,
07070,2012-09-10 18:00:00,22.7,,,,,,,,,,,,0,,,,,,,,data,,,,
07070,2012-09-10 21:00:00,19.1,,,,,,,,,,,,0,,,,,,,,data,,,,
07070,2012-09-10 22:00:00,20.8,,,,,,,,,,,,0,,,,,,,,data,,,,
07070,2012-09-10 23:00:00,18.8,,,,,,,,,,,,1,,,,,,,,data,,,,
07070,2012-09-11 00:00:00,17.6,,,,,,,,,,,,0,,,,,,,,data,,,,
07070,2012-09-11 01:00:00,16.2,,,,,,,,,,,,0,,,,,,,,data,,,,
07070,2012-09-11 02:00:00,16.1,,,,,,,,,,,,0,,,,,,,,data,,,,
07070,2012-09-11 03:00:00,16,,,,,,,,,,,,0,,,,,,,,data,,,,
07070,2012-09-11 05:00:00,15.4,,,,,,,,,,,,0,,,,,,,,data,,,,
07070,2012-09-11 06:00:00,16.9,,,,,,,,,,,,0,,,,,,,,data,,,,
07070,2012-09-11 07:00:00,18.7,,,,,,,,,,,,0,,,,,,,,data,,,,
07070,2012-09-11 18:00:00,14.8,,,,,,,,,,,,0,,,,,,,,data,,,,
07070,2012-09-11 19:00:00,13.4,,,,,,,,,,,,0,,,,,,,,data,,,,
07070,2012-09-11 21:00:00,11.5,,,,,,,,,,,,0,,,,,,,,data,,,,
07070,2012-09-11 22:00:00,11.9,,,,,,,,,,,,0,,,,,,,,data,,,,
07070,2012-09-11 23:00:00,11.9,,,,,,,,,,,,0,,,,,,,,data,,,,
07070,2012-09-12 00:00:00,11.5,,,,,,,,,,,,0,,,,,,,,data,,,,
07070,2012-09-12 01:00:00,11.5,,,,,,,,,,,,0,,,,,,,,data,,,,
07070,2012-09-12 02:00:00,11.5,,,,,,,,,,,,0,,,,,,,,data,,,,
07070,2012-09-12 03:00:00,11.5,,,,,,,,,,,,0,,,,,,,,data,,,,
07070,2012-09-12 04:00:00,11.2,,,,,,,,,,,,0,,,,,,,,data,,,,
07070,2012-09-12 05:00:00,11.1,,,,,,,,,,,,0,,,,,,,,data,,,,
07070,2012-09-12 06:00:00,10.7,,,,,,,,,,,,0.2,,,,,,,,data,,,,
07070,2012-09-12 07:00:00,10.4,,,,,,,,,,,,0.6,,,,,,,,data,,,,
07070,2012-09-12 09:00:00,13.3,,,,,,,,,,,,0,,,,,,,,data,,,,
07070,2012-09-12 11:00:00,13.8,,,,,,,,,,,,0,,,,,,,,data,,,,
07070,2012-09-12 13:00:00,16,,,,,,,,,,,,0,,,,,,,,data,,,,
07070,2012-09-12 14:00:00,16.1,,,,,,,,,,,,0,,,,,,,,data,,,,
07070,2012-09-12 15:00:00,15.8,,,,,,,,,,,,0,,,,,,,,data,,,,
07070,2012-09-12 16:00:00,16.4,,,,,,,,,,,,0,,,,,,,,data,,,,
07070,2012-09-12 18:00:00,14.3,,,,,,,,,,,,0,,,,,,,,data,,,,
07070,2012-09-12 19:00:00,13.9,,,,,,,,,,,,0,,,,,,,,data,,,,
07070,2012-09-12 22:00:00,13.2,,,,,,,,,,,,0,,,,,,,,data,,,,
07070,2012-09-12 23:00:00,12.9,,,,,,,,,,,,0,,,,,,,,data,,,,
07070,2012-09-13 00:00:00,12.6,,,,,,,,,,,,0,,,,,,,,data,,,,
07070,2012-09-13 02:00:00,12.4,,,,,,,,,,,,0,,,,,,,,data,,,,
07070,2012-09-13 03:00:00,11.9,,,,,,,,,,,,2.2,,,,,,,,data,,,,
07070,2012-09-13 04:00:00,12.1,,,,,,,,,,,,0,,,,,,,,data,,,,
07070,2012-09-13 05:00:00,12.2,,,,,,,,,,,,0,,,,,,,,data,,,,
07070,2012-09-13 06:00:00,11.7,,,,,,,,,,,,0,,,,,,,,data,,,,
07070,2012-09-13 07:00:00,12.8,,,,,,,,,,,,0,,,,,,,,data,,,,
07070,2012-09-13 09:00:00,13.4,,,,,,,,,,,,0,,,,,,,,data,,,,
07070,2012-09-13 10:00:00,15,,,,,,,,,,,,0,,,,,,,,data,,,,
07070,2012-09-13 11:00:00,15.2,,,,,,,,,,,,0,,,,,,,,data,,,,
07070,2012-09-13 13:00:00,15.9,,,,,,,,,,,,0,,,,,,,,data,,,,
07070,2012-09-13 14:00:00,16,,,,,,,,,,,,0,,,,,,,,data,,,,
07070,2012-09-13 15:00:00,16.7,,,,,,,,,,,,0,,,,,,,,data,,,,
07070,2012-09-13 16:00:00,17.8,,,,,,,,,,,,0,,,,,,,,data,,,,
07070,2012-09-13 18:00:00,14,,,,,,,,,,,,0,,,,,,,,data,,,,
07070,2012-09-13 19:00:00,12.8,,,,,,,,,,,,0,,,,,,,,data,,,,
07070,2012-09-13 21:00:00,11,,,,,,,,,,,,0,,,,,,,,data,,,,
07070,2012-09-13 22:00:00,11,,,,,,,,,,,,0,,,,,,,,data,,,,
07070,2012-09-13 23:00:00,10.4,,,,,,,,,,,,0,,,,,,,,data,,,,
07070,2012-09-14 00:00:00,9.5,,,,,,,,,,,,0,,,,,,,,data,,,,
07070,2012-09-14 01:00:00,8.8,,,,,,,,,,,,0.2,,,,,,,,data,,,,
07070,2012-09-14 02:00:00,7.9,,,,,,,,,,,,0,,,,,,,,data,,,,
07070,2012-09-14 03:00:00,7.6,,,,,,,,,,,,0,,,,,,,,data,,,,
07070,2012-09-14 04:00:00,7.6,,,,,,,,,,,,0,,,,,,,,data,,,,
07070,2012-09-14 05:00:00,7.7,,,,,,,,,,,,0,,,,,,,,data,,,,
07070,2012-09-14 06:00:00,7.8,,,,,,,,,,,,0,,,,,,,,data,,,,
07070,2012-09-14 07:00:00,11.2,,,,,,,,,,,,0,,,,,,,,data,,,,
07070,2012-09-14 09:00:00,14.9,,,,,,,,,,,,0,,,,,,,,data,,,,
07070,2012-09-14 11:00:00,17.7,,,,,,,,,,,,0,,,,,,,,data,,,,
07070,2012-09-14 13:00:00,17.2,,,,,,,,,,,,0,,,,,,,,data,,,,
07070,2012-09-14 14:00:00,16.8,,,,,,,,,,,,0,,,,,,,,data,,,,
07070,2012-09-14 18:00:00,15.4,,,,,,,,,,,,0,,,,,,,,data,,,,
07070,2012-09-14 19:00:00,15.5,,,,,,,,,,,,0,,,,,,,,data,,,,
07070,2012-09-14 21:00:00,15,,,,,,,,,,,,0,,,,,,,,data,,,,
07070,2012-09-14 22:00:00,14,,,,,,,,,,,,0,,,,,,,,data,,,,
07070,2012-09-14 23:00:00,14.1,,,,,,,,,,,,0,,,,,,,,data,,,,
07070,2012-09-15 00:00:00,13.5,,,,,,,,,,,,0,,,,,,,,data,,,,
07070,2012-09-15 01:00:00,13,,,,,,,,,,,,0,,,,,,,,data,,,,
07070,2012-09-15 03:00:00,11.8,,,,,,,,,,,,0.2,,,,,,,,data,,,,
07070,2012-09-15 04:00:00,12.1,,,,,,,,,,,,0,,,,,,,,data,,,,
07070,2012-09-15 05:00:00,11.3,,,,,,,,,,,,0,,,,,,,,data,,,,
07070,2012-09-15 06:00:00,10.8,,,,,,,,,,,,0,,,,,,,,data,,,,
07070,2012-09-15 07:00:00,11.6,,,,,,,,,,,,0,,,,,,,,data,,,,
07070,2012-09-15 09:00:00,16.1,,,,,,,,,,,,0,,,,,,,,data,,,,
07070,2012-09-15 10:00:00,17.6,,,,,,,,,,,,0,,,,,,,,data,,,,
07070,2012-09-15 13:00:00,20.5,,,,,,,,,,,,0,,,,,,,,data,,,,
07070,2012-09-15 14:00:00,20.3,,,,,,,,,,,,0,,,,,,,,data,,,,
07070,2012-09-15 15:00:00,19.5,,,,,,,,,,,,0,,,,,,,,data,,,,
07070,2012-09-15 18:00:00,15.2,,,,,,,,,,,,0,,,,,,,,data,,,,
07070,2012-09-15 19:00:00,14.3,,,,,,,,,,,,0,,,,,,,,data,,,,
07070,2012-09-15 20:00:00,12.7,,,,,,,,,,,,0,,,,,,,,data,,,,
07070,2012-09-15 23:00:00,9.3,,,,,,,,,,,,0,,,,,,,,data,,,,
07070,2012-09-16 03:00:00,7.5,,,,,,,,,,,,0,,,,,,,,data,,,,
07070,2012-09-16 04:00:00,6.3,,,,,,,,,,,,0,,,,,,,,data,,,,
07070,2012-09-16 05:00:00,6.2,,,,,,,,,,,,0,,,,,,,,data,,,,
07070,2012-09-16 06:00:00,5.8,,,,,,,,,,,,0,,,,,,,,data,,,,
07070,2012-09-16 07:00:00,9.9,,,,,,,,,,,,0,,,,,,,,data,,,,
07070,2012-09-16 09:00:00,17.6,,,,,,,,,,,,0,,,,,,,,data,,,,
07070,2012-09-16 10:00:00,20,,,,,,,,,,,,0,,,,,,,,data,,,,
07070,2012-09-16 11:00:00,21.5,,,,,,,,,,,,0,,,,,,,,data,,,,
07070,2012-09-16 13:00:00,22.7,,,,,,,,,,,,0,,,,,,,,data,,,,
07070,2012-09-16 14:00:00,23.3,,,,,,,,,,,,0,,,,,,,,data,,,,
07070,2012-09-16 15:00:00,23.3,,,,,,,,,,,,0,,,,,,,,data,,,,
07070,2012-09-16 16:00:00,23,,,,,,,,,,,,0,,,,,,,,data,,,,
07070,2012-09-16 18:00:00,18.4,,,,,,,,,,,,0,,,,,,,,data,,,,
07070,2012-09-16 19:00:00,17,,,,,,,,,,,,0,,,,,,,,data,,,,
07070,2012-09-16 21:00:00,14.6,,,,,,,,,,,,0,,,,,,,,data,,,,
07070,2012-09-16 22:00:00,13.3,,,,,,,,,,,,0,,,,,,,,data,,,,
07070,2012-09-16 23:00:00,12.9,,,,,,,,,,,,0,,,,,,,,data,,,,
07070,2012-09-17 00:00:00,12.6,,,,,,,,,,,,0,,,,,,,,data,,,,
07070,2012-09-17 01:00:00,9.7,,,,,,,,,,,,0,,,,,,,,data,,,,
07070,2012-09-17 02:00:00,9.8,,,,,,,,,,,,0,,,,,,,,data,,,,
07070,2012-09-17 03:00:00,9.5,,,,,,,,,,,,0,,,,,,,,data,,,,
07070,2012-09-17 04:00:00,10.6,,,,,,,,,,,,0,,,,,,,,data,,,,
07070,2012-09-17 05:00:00,8.3,,,,,,,,,,,,0.2,,,,,,,,data,,,,
07070,2012-09-17 06:00:00,8.7,,,,,,,,,,,,0,,,,,,,,data,,,,
07070,2012-09-17 07:00:00,12.4,,,,,,,,,,,,0,,,,,,,,data,,,,
07070,2012-09-17 09:00:00,17.3,,,,,,,,,,,,0,,,,,,,,data,,,,
07070,2012-09-17 11:00:00,20.3,,,,,,,,,,,,0,,,,,,,,data,,,,
07070,2012-09-17 15:00:00,20.5,,,,,,,,,,,,0,,,,,,,,data,,,,
07070,2012-09-17 16:00:00,21.3,,,,,,,,,,,,0,,,,,,,,data,,,,
07070,2012-09-17 18:00:00,16.2,,,,,,,,,,,,0,,,,,,,,data,,,,
07070,2012-09-17 19:00:00,14.6,,,,,,,,,,,,0,,,,,,,,data,,,,
07070,2012-09-17 21:00:00,11,,,,,,,,,,,,0,,,,,,,,data,,,,
07070,2012-09-18 00:00:00,9.1,,,,,,,,,,,,0,,,,,,,,data,,,,
07070,2012-09-18 01:00:00,8.7,,,,,,,,,,,,0,,,,,,,,data,,,,
07070,2012-09-18 02:00:00,8.6,,,,,,,,,,,,0,,,,,,,,data,,,,
07070,2012-09-18 04:00:00,7.7,,,,,,,,,,,,0,,,,,,,,data,,,,
07070,2012-09-18 05:00:00,10.1,,,,,,,,,,,,0,,,,,,,,data,,,,
07070,2012-09-18 06:00:00,9.6,,,,,,,,,,,,0,,,,,,,,data,,,,
07070,2012-09-18 07:00:00,11.3,,,,,,,,,,,,0,,,,,,,,data,,,,
07070,2012-09-18 09:00:00,16.1,,,,,,,,,,,,0,,,,,,,,data,,,,
07070,2012-09-18 16:00:00,17.1,,,,,,,,,,,,0,,,,,,,,data,,,,
07070,2012-09-18 21:00:00,10.5,,,,,,,,,,,,0,,,,,,,,data,,,,
07070,2012-09-18 22:00:00,9.7,,,,,,,,,,,,0,,,,,,,,data,,,,
07070,2012-09-19 02:00:00,7.9,,,,,,,,,,,,0,,,,,,,,data,,,,
07070,2012-09-19 03:00:00,7.6,,,,,,,,,,,,0,,,,,,,,data,,,,
07070,2012-09-19 04:00:00,6.7,,,,,,,,,,,,0,,,,,,,,data,,,,
07070,2012-09-19 05:00:00,5.7,,,,,,,,,,,,0.2,,,,,,,,data,,,,
07070,2012-09-19 06:00:00,6.4,,,,,,,,,,,,0,,,,,,,,data,,,,
07070,2012-09-19 09:00:00,13.5,,,,,,,,,,,,0,,,,,,,,data,,,,
07070,2012-09-19 10:00:00,14.6,,,,,,,,,,,,0,,,,,,,,data,,,,
07070,2012-09-19 11:00:00,15.9,,,,,,,,,,,,0,,,,,,,,data,,,,
07070,2012-09-19 14:00:00,16.7,,,,,,,,,,,,0,,,,,,,,data,,,,
07070,2012-09-19 16:00:00,16.4,,,,,,,,,,,,0,,,,,,,,data,,,,
07070,2012-09-19 18:00:00,11.3,,,,,,,,,,,,0,,,,,,,,data,,,,
07070,2012-09-19 19:00:00,9.1,,,,,,,,,,,,0,,,,,,,,data,,,,
07070,2012-09-19 21:00:00,6.6,,,,,,,,,,,,0,,,,,,,,data,,,,
07070,2012-09-19 22:00:00,4.5,,,,,,,,,,,,0,,,,,,,,data,,,,
07070,2012-09-19 23:00:00,5.5,,,,,,,,,,,,0,,,,,,,,data,,,,
07070,2012-09-20 00:00:00,3.5,,,,,,,,,,,,0,,,,,,,,data,,,,
07070,2012-09-20 01:00:00,4.7,,,,,,,,,,,,0,,,,,,,,data,,,,
07070,2012-09-20 02:00:00,2.4,,,,,,,,,,,,0,,,,,,,,data,,,,
07070,2012-09-20 03:00:00,4.1,,,,,,,,,,,,0,,,,,,,,data,,,,
07070,2012-09-20 04:00:00,4.1,,,,,,,,,,,,0,,,,,,,,data,,,,
07070,2012-09-20 05:00:00,2,,,,,,,,,,,,0,,,,,,,,data,,,,
07070,2012-09-20 06:00:00,1.5,,,,,,,,,,,,0,,,,,,,,data,,,,
07070,2012-09-20 07:00:00,4.6,,,,,,,,,,,,0,,,,,,,,data,,,,
07070,2012-09-20 09:00:00,13,,,,,,,,,,,,0,,,,,,,,data,,,,
07070,2012-09-20 11:00:00,15.2,,,,,,,,,,,,0,,,,,,,,data,,,,
07070,2012-09-20 13:00:00,17.6,,,,,,,,,,,,0,,,,,,,,data,,,,
07070,2012-09-20 14:00:00,17.6,,,,,,,,,,,,0,,,,,,,,data,,,,
07070,2012-09-20 19:00:00,8.3,,,,,,,,,,,,0,,,,,,,,data,,,,
07070,2012-09-20 21:00:00,7.7,,,,,,,,,,,,0,,,,,,,,data,,,,
07070,2012-09-20 22:00:00,6.5,,,,,,,,,,,,0,,,,,,,,data,,,,
07070,2012-09-20 23:00:00,5.4,,,,,,,,,,,,0,,,,,,,,data,,,,
07070,2012-09-21 03:00:00,5.3,,,,,,,,,,,,0,,,,,,,,data,,,,
07070,2012-09-21 04:00:00,4.6,,,,,,,,,,,,0,,,,,,,,data,,,,
07070,2012-09-21 05:00:00,3.7,,,,,,,,,,,,0,,,,,,,,data,,,,
07070,2012-09-21 07:00:00,7,,,,,,,,,,,,0,,,,,,,,data,,,,
07070,2012-09-21 11:00:00,18.8,,,,,,,,,,,,0,,,,,,,,data,,,,
07070,2012-09-21 14:00:00,18.6,,,,,,,,,,,,0,,,,,,,,data,,,,
07070,2012-09-21 15:00:00,16,,,,,,,,,,,,0.4,,,,,,,,data,,,,
07070,2012-09-21 16:00:00,13.5,,,,,,,,,,,,0.6,,,,,,,,data,,,,
07070,2012-09-21 18:00:00,11.1,,,,,,,,,,,,1.6,,,,,,,,data,,,,
07070,2012-09-21 21:00:00,10.5,,,,,,,,,,,,0,,,,,,,,data,,,,
07070,2012-09-21 22:00:00,10.7,,,,,,,,,,,,0,,,,,,,,data,,,,
07070,2012-09-21 23:00:00,10.7,,,,,,,,,,,,0,,,,,,,,data,,,,
07070,2012-09-22 00:00:00,9.7,,,,,,,,,,,,0,,,,,,,,data,,,,
07070,2012-09-22 01:00:00,8.7,,,,,,,,,,,,0,,,,,,,,data,,,,
07070,2012-09-22 02:00:00,7.7,,,,,,,,,,,,0,,,,,,,,data,,,,
07070,2012-09-22 03:00:00,7.1,,,,,,,,,,,,0,,,,,,,,data,,,,
07070,2012-09-22 04:00:00,7.4,,,,,,,,,,,,0,,,,,,,,data,,,,
07070,2012-09-22 05:00:00,6.7,,,,,,,,,,,,0.2,,,,,,,,data,,,,
07070,2012-09-22 06:00:00,5,,,,,,,,,,,,0,,,,,,,,data,,,,
07070,2012-09-22 07:00:00,7.4,,,,,,,,,,,,0,,,,,,,,data,,,,
07070,2012-09-22 09:00:00,9.8,,,,,,,,,,,,0,,,,,,,,data,,,,
07070,2012-09-22 10:00:00,10.9,,,,,,,,,,,,0,,,,,,,,data,,,,
07070,2012-09-22 11:00:00,13.8,,,,,,,,,,,,0,,,,,,,,data,,,,
07070,2012-09-22 13:00:00,16.7,,,,,,,,,,,,0,,,,,,,,data,,,,
07070,2012-09-22 15:00:00,17.3,,,,,,,,,,,,0,,,,,,,,data,,,,
07070,2012-09-22 16:00:00,16,,,,,,,,,,,,0,,,,,,,,data,,,,
07070,2012-09-22 18:00:00,12.8,,,,,,,,,,,,0,,,,,,,,data,,,,
07070,2012-09-22 19:00:00,12.3,,,,,,,,,,,,0,,,,,,,,data,,,,
07070,2012-09-22 21:00:00,10.3,,,,,,,,,,,,0,,,,,,,,data,,,,
07070,2012-09-22 22:00:00,10.1,,,,,,,,,,,,0,,,,,,,,data,,,,
07070,2012-09-22 23:00:00,10.2,,,,,,,,,,,,0,,,,,,,,data,,,,
07070,2012-09-23 00:00:00,10.2,,,,,,,,,,,,0,,,,,,,,data,,,,
07070,2012-09-23 02:00:00,10,,,,,,,,,,,,0,,,,,,,,data,,,,
07070,2012-09-23 03:00:00,9.6,,,,,,,,,,,,0,,,,,,,,data,,,,
07070,2012-09-23 04:00:00,8.9,,,,,,,,,,,,0,,,,,,,,data,,,,
07070,2012-09-23 05:00:00,8.8,,,,,,,,,,,,0,,,,,,,,data,,,,
07070,2012-09-23 06:00:00,9.5,,,,,,,,,,,,0,,,,,,,,data,,,,
07070,2012-09-23 09:00:00,14.3,,,,,,,,,,,,0,,,,,,,,data,,,,
07070,2012-09-23 10:00:00,15.6,,,,,,,,,,,,0,,,,,,,,data,,,,
07070,2012-09-23 11:00:00,16.7,,,,,,,,,,,,0,,,,,,,,data,,,,
07070,2012-09-23 13:00:00,18,,,,,,,,,,,,0,,,,,,,,data,,,,
07070,2012-09-23 14:00:00,19.8,,,,,,,,,,,,0,,,,,,,,data,,,,
07070,2012-09-23 15:00:00,20,,,,,,,,,,,,0,,,,,,,,data,,,,
07070,2012-09-23 16:00:00,19.8,,,,,,,,,,,,0,,,,,,,,data,,,,
07070,2012-09-23 18:00:00,17.5,,,,,,,,,,,,0,,,,,,,,data,,,,
07070,2012-09-23 19:00:00,17.8,,,,,,,,,,,,0,,,,,,,,data,,,,
07070,2012-09-23 21:00:00,20,,,,,,,,,,,,0,,,,,,,,data,,,,
07070,2012-09-23 22:00:00,18.6,,,,,,,,,,,,0,,,,,,,,data,,,,
07070,2012-09-23 23:00:00,18.5,,,,,,,,,,,,0,,,,,,,,data,,,,
07070,2012-09-24 01:00:00,19,,,,,,,,,,,,0,,,,,,,,data,,,,
07070,2012-09-24 02:00:00,18.5,,,,,,,,,,,,0,,,,,,,,data,,,,
07070,2012-09-24 03:00:00,17,,,,,,,,,,,,2,,,,,,,,data,,,,
07070,2012-09-24 04:00:00,16.7,,,,,,,,,,,,1.6,,,,,,,,data,,,,
07070,2012-09-24 05:00:00,16.6,,,,,,,,,,,,0,,,,,,,,data,,,,
07070,2012-09-24 09:00:00,18.4,,,,,,,,,,,,0,,,,,,,,data,,,,
07070,2012-09-24 11:00:00,17.3,,,,,,,,,,,,0.8,,,,,,,,data,,,,
07070,2012-09-24 13:00:00,16.4,,,,,,,,,,,,0,,,,,,,,data,,,,
07070,2012-09-24 14:00:00,16.9,,,,,,,,,,,,0,,,,,,,,data,,,,
07070,2012-09-24 15:00:00,17.8,,,,,,,,,,,,0,,,,,,,,data,,,,
07070,2012-09-24 16:00:00,18.2,,,,,,,,,,,,0,,,,,,,,data,,,,
07070,2012-09-24 18:00:00,16.1,,,,,,,,,,,,0,,,,,,,,data,,,,
07070,2012-09-24 19:00:00,15.9,,,,,,,,,,,,0,,,,,,,,data,,,,
07070,2012-09-24 21:00:00,14.8,,,,,,,,,,,,0.4,,,,,,,,data,,,,
07070,2012-09-24 22:00:00,14.3,,,,,,,,,,,,0.2,,,,,,,,data,,,,
07070,2012-09-24 23:00:00,13.9,,,,,,,,,,,,0.6,,,,,,,,data,,,,
07070,2012-09-25 01:00:00,13.9,,,,,,,,,,,,0,,,,,,,,data,,,,
07070,2012-09-25 02:00:00,13,,,,,,,,,,,,0.2,,,,,,,,data,,,,
07070,2012-09-25 04:00:00,12.9,,,,,,,,,,,,0,,,,,,,,data,,,,
07070,2012-09-25 06:00:00,12.8,,,,,,,,,,,,0,,,,,,,,data,,,,
07070,2012-09-25 07:00:00,13.1,,,,,,,,,,,,0,,,,,,,,data,,,,
07070,2012-09-25 09:00:00,13,,,,,,,,,,,,0,,,,,,,,data,,,,
07070,2012-09-25 11:00:00,14.3,,,,,,,,,,,,0,,,,,,,,data,,,,
07070,2012-09-25 13:00:00,15.7,,,,,,,,,,,,0,,,,,,,,data,,,,
07070,2012-09-25 14:00:00,15.4,,,,,,,,,,,,0,,,,,,,,data,,,,
07070,2012-09-25 15:00:00,15.5,,,,,,,,,,,,0,,,,,,,,data,,,,
07070,2012-09-25 16:00:00,15.2,,,,,,,,,,,,0,,,,,,,,data,,,,
07070,2012-09-25 18:00:00,13.9,,,,,,,,,,,,0,,,,,,,,data,,,,
07070,2012-09-25 19:00:00,13.8,,,,,,,,,,,,0,,,,,,,,data,,,,
07070,2012-09-25 20:00:00,13.4,,,,,,,,,,,,0,,,,,,,,data,,,,
07070,2012-09-25 22:00:00,13.1,,,,,,,,,,,,0.8,,,,,,,,data,,,,
07070,2012-09-25 23:00:00,12.6,,,,,,,,,,,,2.4,,,,,,,,data,,,,
07070,2012-09-26 00:00:00,12.1,,,,,,,,,,,,1.2,,,,,,,,data,,,,
07070,2012-09-26 01:00:00,12,,,,,,,,,,,,1,,,,,,,,data,,,,
07070,2012-09-26 02:00:00,12,,,,,,,,,,,,0.7,,,,,,,,data,,,,
07070,2012-09-26 04:00:00,11.9,,,,,,,,,,,,0,,,,,,,,data,,,,
07070,2012-09-26 05:00:00,11.9,,,,,,,,,,,,0,,,,,,,,data,,,,
07070,2012-09-26 06:00:00,11.8,,,,,,,,,,,,0,,,,,,,,data,,,,
07070,2012-09-26 07:00:00,12,,,,,,,,,,,,0,,,,,,,,data,,,,
07070,2012-09-26 09:00:00,12.8,,,,,,,,,,,,0,,,,,,,,data,,,,
07070,2012-09-26 10:00:00,12.8,,,,,,,,,,,,0,,,,,,,,data,,,,
07070,2012-09-26 11:00:00,13.1,,,,,,,,,,,,0,,,,,,,,data,,,,
07070,2012-09-26 13:00:00,13.6,,,,,,,,,,,,0,,,,,,,,data,,,,
07070,2012-09-26 14:00:00,14.2,,,,,,,,,,,,0,,,,,,,,data,,,,
07070,2012-09-26 16:00:00,14.2,,,,,,,,,,,,0,,,,,,,,data,,,,
07070,2012-09-26 18:00:00,13,,,,,,,,,,,,0,,,,,,,,data,,,,
07070,2012-09-26 19:00:00,12.7,,,,,,,,,,,,0,,,,,,,,data,,,,
07070,2012-09-26 21:00:00,12.6,,,,,,,,,,,,0,,,,,,,,data,,,,
07070,2012-09-26 22:00:00,12.2,,,,,,,,,,,,1,,,,,,,,data,,,,
07070,2012-09-27 00:00:00,12.4,,,,,,,,,,,,0,,,,,,,,data,,,,
07070,2012-09-27 01:00:00,12.6,,,,,,,,,,,,0.2,,,,,,,,data,,,,
07070,2012-09-27 02:00:00,12.4,,,,,,,,,,,,0.8,,,,,,,,data,,,,
07070,2012-09-27 04:00:00,12.3,,,,,,,,,,,,0.4,,,,,,,,data,,,,
07070,2012-09-27 05:00:00,12.1,,,,,,,,,,,,0.2,,,,,,,,data,,,,
07070,2012-09-27 06:00:00,12.1,,,,,,,,,,,,0.2,,,,,,,,data,,,,
07070,2012-09-27 07:00:00,12.8,,,,,,,,,,,,0.2,,,,,,,,data,,,,
07070,2012-09-27 10:00:00,13.6,,,,,,,,,,,,0.2,,,,,,,,data,,,,
07070,2012-09-27 13:00:00,14.7,,,,,,,,,,,,0,,,,,,,,data,,,,
07070,2012-09-27 14:00:00,15.1,,,,,,,,,,,,0,,,,,,,,data,,,,
07070,2012-09-27 15:00:00,16.1,,,,,,,,,,,,0,,,,,,,,data,,,,
07070,2012-09-27 16:00:00,13.6,,,,,,,,,,,,0.2,,,,,,,,data,,,,
07070,2012-09-27 18:00:00,12.9,,,,,,,,,,,,0,,,,,,,,data,,,,
07070,2012-09-27 19:00:00,12.9,,,,,,,,,,,,0,,,,,,,,data,,,,
07070,2012-09-27 21:00:00,11,,,,,,,,,,,,0,,,,,,,,data,,,,
07070,2012-09-27 22:00:00,9.2,,,,,,,,,,,,0,,,,,,,,data,,,,
07070,2012-09-27 23:00:00,8.4,,,,,,,,,,,,0,,,,,,,,data,,,,
07070,2012-09-28 00:00:00,8.2,,,,,,,,,,,,0,,,,,,,,data,,,,
07070,2012-09-28 02:00:00,7.2,,,,,,,,,,,,0,,,,,,,,data,,,,
07070,2012-09-28 03:00:00,6.9,,,,,,,,,,,,0,,,,,,,,data,,,,
07070,2012-09-28 04:00:00,8.4,,,,,,,,,,,,0,,,,,,,,data,,,,
07070,2012-09-28 05:00:00,9,,,,,,,,,,,,0,,,,,,,,data,,,,
07070,2012-09-28 06:00:00,7.5,,,,,,,,,,,,0.2,,,,,,,,data,,,,
07070,2012-09-28 07:00:00,9.8,,,,,,,,,,,,0,,,,,,,,data,,,,
07070,2012-09-28 09:00:00,14.1,,,,,,,,,,,,0,,,,,,,,data,,,,
07070,2012-09-28 13:00:00,19.1,,,,,,,,,,,,0,,,,,,,,data,,,,
07070,2012-09-28 14:00:00,18.8,,,,,,,,,,,,0,,,,,,,,data,,,,
07070,2012-09-28 15:00:00,18.8,,,,,,,,,,,,0,,,,,,,,data,,,,
07070,2012-09-28 16:00:00,18.3,,,,,,,,,,,,0,,,,,,,,data,,,,
07070,2012-09-28 19:00:00,12.6,,,,,,,,,,,,0,,,,,,,,data,,,,
07070,2012-09-28 21:00:00,10.6,,,,,,,,,,,,0,,,,,,,,data,,,,
07070,2012-09-28 22:00:00,9.6,,,,,,,,,,,,0,,,,,,,,data,,,,
07070,2012-09-28 23:00:00,9.2,,,,,,,,,,,,0,,,,,,,,data,,,,
07070,2012-09-29 00:00:00,8.9,,,,,,,,,,,,0,,,,,,,,data,,,,
07070,2012-09-29 01:00:00,8,,,,,,,,,,,,0,,,,,,,,data,,,,
07070,2012-09-29 03:00:00,7,,,,,,,,,,,,0,,,,,,,,data,,,,
07070,2012-09-29 04:00:00,9,,,,,,,,,,,,0,,,,,,,,data,,,,
07070,2012-09-29 05:00:00,9.3,,,,,,,,,,,,0,,,,,,,,data,,,,
07070,2012-09-29 06:00:00,9.8,,,,,,,,,,,,0,,,,,,,,data,,,,
07070,2012-09-29 07:00:00,10.6,,,,,,,,,,,,0,,,,,,,,data,,,,
07070,2012-09-29 10:00:00,15.5,,,,,,,,,,,,0,,,,,,,,data,,,,
07070,2012-09-29 11:00:00,17.2,,,,,,,,,,,,0,,,,,,,,data,,,,
07070,2012-09-29 13:00:00,16.5,,,,,,,,,,,,0,,,,,,,,data,,,,
07070,2012-09-29 15:00:00,16.6,,,,,,,,,,,,0,,,,,,,,data,,,,
07070,2012-09-29 18:00:00,12.2,,,,,,,,,,,,0,,,,,,,,data,,,,
07070,2012-09-29 19:00:00,10.1,,,,,,,,,,,,0,,,,,,,,data,,,,
07070,2012-09-29 21:00:00,8.1,,,,,,,,,,,,0,,,,,,,,data,,,,
07070,2012-09-29 22:00:00,6.9,,,,,,,,,,,,0,,,,,,,,data,,,,
07070,2012-09-29 23:00:00,7.3,,,,,,,,,,,,0,,,,,,,,data,,,,
07070,2012-09-30 00:00:00,5.1,,,,,,,,,,,,0,,,,,,,,data,,,,
07070,2012-09-30 01:00:00,4.2,,,,,,,,,,,,0.2,,,,,,,,data,,,,
07070,2012-09-30 02:00:00,3.4,,,,,,,,,,,,0,,,,,,,,data,,,,
07070,2012-09-30 03:00:00,2.6,,,,,,,,,,,,0,,,,,,,,data,,,,
07070,2012-09-30 04:00:00,2,,,,,,,,,,,,0,,,,,,,,data,,,,
07070,2012-09-30 05:00:00,1.6,,,,,,,,,,,,0,,,,,,,,data,,,,
07070,2012-09-30 06:00:00,1,,,,,,,,,,,,0,,,,,,,,data,,,,
07070,2012-09-30 07:00:00,3.8,,,,,,,,,,,,0,,,,,,,,data,,,,
07070,2012-09-30 09:00:00,10.8,,,,,,,,,,,,0,,,,,,,,data,,,,
07070,2012-09-30 10:00:00,12.7,,,,,,,,,,,,0,,,,,,,,data,,,,
07070,2012-09-30 11:00:00,15.2,,,,,,,,,,,,0,,,,,,,,data,,,,
07070,2012-09-30 13:00:00,16.8,,,,,,,,,,,,0,,,,,,,,data,,,,
07070,2012-09-30 14:00:00,16.9,,,,,,,,,,,,0,,,,,,,,data,,,,
07070,2012-09-30 15:00:00,17.1,,,,,,,,,,,,0,,,,,,,,data,,,,
07070,2012-09-30 16:00:00,16.4,,,,,,,,,,,,0,,,,,,,,data,,,,
07070,2012-09-30 18:00:00,9.5,,,,,,,,,,,,0,,,,,,,,data,,,,
07070,2012-09-30 19:00:00,9,,,,,,,,,,,,0,,,,,,,,data,,,,
07070,2012-09-30 21:00:00,6.6,,,,,,,,,,,,0,,,,,,,,data,,,,
07070,2012-10-01 01:00:00,5.3,,,,,,,,,,,,0.2,,,,,,,,data,,,,
07070,2012-10-01 02:00:00,4,,,,,,,,,,,,0,,,,,,,,data,,,,
07070,2012-10-01 03:00:00,2.7,,,,,,,,,,,,0,,,,,,,,data,,,,
07070,2012-10-01 04:00:00,2.2,,,,,,,,,,,,0,,,,,,,,data,,,,
07070,2012-10-01 05:00:00,1.9,,,,,,,,,,,,0,,,,,,,,data,,,,
07070,2012-10-01 06:00:00,2.2,,,,,,,,,,,,0,,,,,,,,data,,,,
07070,2012-10-01 07:00:00,7.2,,,,,,,,,,,,0,,,,,,,,data,,,,
07070,2012-10-01 09:00:00,13.4,,,,,,,,,,,,0,,,,,,,,data,,,,
07070,2012-10-01 10:00:00,15.9,,,,,,,,,,,,0,,,,,,,,data,,,,
07070,2012-10-01 11:00:00,17.3,,,,,,,,,,,,0,,,,,,,,data,,,,
07070,2012-10-01 16:00:00,17.3,,,,,,,,,,,,0,,,,,,,,data,,,,
07070,2012-10-01 18:00:00,12.8,,,,,,,,,,,,0,,,,,,,,data,,,,
07070,2012-10-01 19:00:00,13,,,,,,,,,,,,0,,,,,,,,data,,,,
07070,2012-10-02 03:00:00,13,,,,,,,,,,,,0,,,,,,,,data,,,,
07070,2012-10-02 04:00:00,12.4,,,,,,,,,,,,0,,,,,,,,data,,,,
07070,2012-10-02 06:00:00,12.6,,,,,,,,,,,,0,,,,,,,,data,,,,
07070,2012-10-02 07:00:00,13.4,,,,,,,,,,,,0,,,,,,,,data,,,,
07070,2012-10-02 10:00:00,14.6,,,,,,,,,,,,0.2,,,,,,,,data,,,,
07070,2012-10-02 11:00:00,16.4,,,,,,,,,,,,0,,,,,,,,data,,,,
07070,2012-10-02 13:00:00,17.3,,,,,,,,,,,,0,,,,,,,,data,,,,
07070,2012-10-02 14:00:00,18.8,,,,,,,,,,,,0,,,,,,,,data,,,,
07070,2012-10-02 15:00:00,18.6,,,,,,,,,,,,0,,,,,,,,data,,,,
07070,2012-10-02 16:00:00,17.2,,,,,,,,,,,,0,,,,,,,,data,,,,
07070,2012-10-02 18:00:00,15.6,,,,,,,,,,,,0,,,,,,,,data,,,,
07070,2012-10-02 19:00:00,14.6,,,,,,,,,,,,0,,,,,,,,data,,,,
07070,2012-10-02 21:00:00,14.1,,,,,,,,,,,,0,,,,,,,,data,,,,
07070,2012-10-02 22:00:00,13.8,,,,,,,,,,,,0,,,,,,,,data,,,,
07070,2012-10-02 23:00:00,13.9,,,,,,,,,,,,0,,,,,,,,data,,,,
07070,2012-10-03 00:00:00,14,,,,,,,,,,,,0,,,,,,,,data,,,,
07070,2012-10-03 01:00:00,14.1,,,,,,,,,,,,0,,,,,,,,data,,,,
07070,2012-10-03 02:00:00,14.2,,,,,,,,,,,,0,,,,,,,,data,,,,
07070,2012-10-03 03:00:00,14.3,,,,,,,,,,,,0,,,,,,,,data,,,,
07070,2012-10-03 04:00:00,14.3,,,,,,,,,,,,0,,,,,,,,data,,,,
07070,2012-10-03 05:00:00,14.1,,,,,,,,,,,,0,,,,,,,,data,,,,
07070,2012-10-03 06:00:00,14,,,,,,,,,,,,0,,,,,,,,data,,,,
07070,2012-10-03 07:00:00,14.6,,,,,,,,,,,,0,,,,,,,,data,,,,
07070,2012-10-03 09:00:00,15.7,,,,,,,,,,,,0,,,,,,,,data,,,,
07070,2012-10-03 10:00:00,16.3,,,,,,,,,,,,0,,,,,,,,data,,,,
07070,2012-10-03 13:00:00,15.9,,,,,,,,,,,,0,,,,,,,,data,,,,
07070,2012-10-03 14:00:00,17,,,,,,,,,,,,0,,,,,,,,data,,,,
07070,2012-10-03 16:00:00,15.8,,,,,,,,,,,,0,,,,,,,,data,,,,
07070,2012-10-03 18:00:00,15.1,,,,,,,,,,,,0.2,,,,,,,,data,,,,
07070,2012-10-03 19:00:00,14.6,,,,,,,,,,,,0.6,,,,,,,,data,,,,
07070,2012-10-03 21:00:00,15,,,,,,,,,,,,0,,,,,,,,data,,,,
07070,2012-10-04 00:00:00,14.8,,,,,,,,,,,,0,,,,,,,,data,,,,
07070,2012-10-04 01:00:00,14,,,,,,,,,,,,0,,,,,,,,data,,,,
07070,2012-10-04 03:00:00,13.6,,,,,,,,,,,,1,,,,,,,,data,,,,
07070,2012-10-04 04:00:00,13.2,,,,,,,,,,,,1.2,,,,,,,,data,,,,
07070,2012-10-04 05:00:00,13.3,,,,,,,,,,,,0.6,,,,,,,,data,,,,
07070,2012-10-04 07:00:00,13.6,,,,,,,,,,,,4.5,,,,,,,,data,,,,
07070,2012-10-04 09:00:00,12,,,,,,,,,,,,0.8,,,,,,,,data,,,,
07070,2012-10-04 10:00:00,13.8,,,,,,,,,,,,0,,,,,,,,data,,,,
07070,2012-10-04 11:00:00,13.9,,,,,,,,,,,,0,,,,,,,,data,,,,
07070,2012-10-04 14:00:00,15.2,,,,,,,,,,,,0,,,,,,,,data,,,,
07070,2012-10-04 15:00:00,15.2,,,,,,,,,,,,0,,,,,,,,data,,,,
07070,2012-10-04 16:00:00,16,,,,,,,,,,,,0,,,,,,,,data,,,,
07070,2012-10-04 18:00:00,10.9,,,,,,,,,,,,0,,,,,,,,data,,,,
07070,2012-10-04 19:00:00,9.8,,,,,,,,,,,,0,,,,,,,,data,,,,
07070,2012-10-04 21:00:00,10.2,,,,,,,,,,,,0,,,,,,,,data,,,,
07070,2012-10-04 22:00:00,10.9,,,,,,,,,,,,0,,,,,,,,data,,,,
07070,2012-10-04 23:00:00,10.6,,,,,,,,,,,,0,,,,,,,,data,,,,
07070,2012-10-05 00:00:00,11.3,,,,,,,,,,,,0,,,,,,,,data,,,,
07070,2012-10-05 01:00:00,10.9,,,,,,,,,,,,0,,,,,,,,data,,,,
07070,2012-10-05 02:00:00,12.6,,,,,,,,,,,,0,,,,,,,,data,,,,
07070,2012-10-05 03:00:00,14.8,,,,,,,,,,,,0,,,,,,,,data,,,,
07070,2012-10-05 04:00:00,15.6,,,,,,,,,,,,0,,,,,,,,data,,,,
07070,2012-10-05 05:00:00,15.9,,,,,,,,,,,,0,,,,,,,,data,,,,
07070,2012-10-05 07:00:00,16.3,,,,,,,,,,,,0,,,,,,,,data,,,,
07070,2012-10-05 11:00:00,20.3,,,,,,,,,,,,0,,,,,,,,data,,,,
07070,2012-10-05 13:00:00,21,,,,,,,,,,,,0,,,,,,,,data,,,,
07070,2012-10-05 16:00:00,19.9,,,,,,,,,,,,0,,,,,,,,data,,,,
07070,2012-10-05 18:00:00,17.8,,,,,,,,,,,,0,,,,,,,,data,,,,
07070,2012-10-05 21:00:00,16.8,,,,,,,,,,,,0,,,,,,,,data,,,,
07070,2012-10-05 22:00:00,16.1,,,,,,,,,,,,0,,,,,,,,data,,,,
07070,2012-10-05 23:00:00,15.5,,,,,,,,,,,,0,,,,,,,,data,,,,
07070,2012-10-06 00:00:00,15.9,,,,,,,,,,,,0,,,,,,,,data,,,,
07070,2012-10-06 01:00:00,15,,,,,,,,,,,,0,,,,,,,,data,,,,
07070,2012-10-06 02:00:00,14.2,,,,,,,,,,,,0,,,,,,,,data,,,,
07070,2012-10-06 03:00:00,12.7,,,,,,,,,,,,0,,,,,,,,data,,,,
07070,2012-10-06 04:00:00,13.2,,,,,,,,,,,,0,,,,,,,,data,,,,
07070,2012-10-06 05:00:00,13.7,,,,,,,,,,,,0,,,,,,,,data,,,,
07070,2012-10-06 06:00:00,16.2,,,,,,,,,,,,0,,,,,,,,data,,,,
07070,2012-10-06 07:00:00,16.4,,,,,,,,,,,,0,,,,,,,,data,,,,
07070,2012-10-06 09:00:00,16.5,,,,,,,,,,,,0,,,,,,,,data,,,,
07070,2012-10-06 10:00:00,16.7,,,,,,,,,,,,0,,,,,,,,data,,,,
07070,2012-10-06 11:00:00,16.5,,,,,,,,,,,,0,,,,,,,,data,,,,
07070,2012-10-06 13:00:00,16.5,,,,,,,,,,,,0,,,,,,,,data,,,,
07070,2012-10-06 14:00:00,16,,,,,,,,,,,,0.2,,,,,,,,data,,,,
07070,2012-10-06 15:00:00,15.9,,,,,,,,,,,,0.6,,,,,,,,data,,,,
07070,2012-10-06 16:00:00,15.5,,,,,,,,,,,,0.6,,,,,,,,data,,,,
07070,2012-10-06 18:00:00,15,,,,,,,,,,,,0.6,,,,,,,,data,,,,
07070,2012-10-06 21:00:00,14.7,,,,,,,,,,,,0.2,,,,,,,,data,,,,
07070,2012-10-06 22:00:00,14.6,,,,,,,,,,,,0.4,,,,,,,,data,,,,
07070,2012-10-06 23:00:00,14.7,,,,,,,,,,,,0,,,,,,,,data,,,,
07070,2012-10-07 00:00:00,14.6,,,,,,,,,,,,0,,,,,,,,data,,,,
07070,2012-10-07 03:00:00,10.8,,,,,,,,,,,,0,,,,,,,,data,,,,
07070,2012-10-07 04:00:00,10.6,,,,,,,,,,,,0,,,,,,,,data,,,,
07070,2012-10-07 05:00:00,10.6,,,,,,,,,,,,0,,,,,,,,data,,,,
07070,2012-10-07 06:00:00,10.1,,,,,,,,,,,,0,,,,,,,,data,,,,
07070,2012-10-07 07:00:00,10.3,,,,,,,,,,,,0,,,,,,,,data,,,,
07070,2012-10-07 09:00:00,12.9,,,,,,,,,,,,0,,,,,,,,data,,,,
07070,2012-10-07 10:00:00,13.6,,,,,,,,,,,,0,,,,,,,,data,,,,
07070,2012-10-07 11:00:00,14.9,,,,,,,,,,,,0,,,,,,,,data,,,,
07070,2012-10-07 13:00:00,16.1,,,,,,,,,,,,0,,,,,,,,data,,,,
07070,2012-10-07 14:00:00,15.5,,,,,,,,,,,,0,,,,,,,,data,,,,
07070,2012-10-07 15:00:00,14.8,,,,,,,,,,,,0,,,,,,,,data,,,,
07070,2012-10-07 18:00:00,10.5,,,,,,,,,,,,0,,,,,,,,data,,,,
07070,2012-10-07 21:00:00,8.2,,,,,,,,,,,,0,,,,,,,,data,,,,
07070,2012-10-07 22:00:00,8.5,,,,,,,,,,,,0,,,,,,,,data,,,,
07070,2012-10-07 23:00:00,8.4,,,,,,,,,,,,0,,,,,,,,data,,,,
07070,2012-10-08 02:00:00,6.1,,,,,,,,,,,,0,,,,,,,,data,,,,
07070,2012-10-08 03:00:00,6.1,,,,,,,,,,,,0.2,,,,,,,,data,,,,
07070,2012-10-08 04:00:00,5.9,,,,,,,,,,,,0,,,,,,,,data,,,,
07070,2012-10-08 05:00:00,6,,,,,,,,,,,,0,,,,,,,,data,,,,
07070,2012-10-08 06:00:00,6.8,,,,,,,,,,,,0,,,,,,,,data,,,,
07070,2012-10-08 07:00:00,7.8,,,,,,,,,,,,0,,,,,,,,data,,,,
07070,2012-10-08 09:00:00,9.9,,,,,,,,,,,,0,,,,,,,,data,,,,
07070,2012-10-08 11:00:00,11.3,,,,,,,,,,,,0,,,,,,,,data,,,,
07070,2012-10-08 13:00:00,11.8,,,,,,,,,,,,0.2,,,,,,,,data,,,,
07070,2012-10-08 14:00:00,12,,,,,,,,,,,,0.6,,,,,,,,data,,,,
07070,2012-10-08 15:00:00,12.3,,,,,,,,,,,,1.2,,,,,,,,data,,,,
07070,2012-10-08 16:00:00,12.5,,,,,,,,,,,,0.6,,,,,,,,data,,,,
07070,2012-10-08 19:00:00,13.2,,,,,,,,,,,,0.2,,,,,,,,data,,,,
07070,2012-10-08 21:00:00,14,,,,,,,,,,,,0,,,,,,,,data,,,,
07070,2012-10-08 22:00:00,14.2,,,,,,,,,,,,0.6,,,,,,,,data,,,,
07070,2012-10-08 23:00:00,14.5,,,,,,,,,,,,0.8,,,,,,,,data,,,,
07070,2012-10-09 00:00:00,15.1,,,,,,,,,,,,0,,,,,,,,data,,,,
07070,2012-10-09 01:00:00,15.7,,,,,,,,,,,,0,,,,,,,,data,,,,
07070,2012-10-09 02:00:00,15.9,,,,,,,,,,,,0.4,,,,,,,,data,,,,
07070,2012-10-09 03:00:00,15.7,,,,,,,,,,,,0.4,,,,,,,,data,,,,
07070,2012-10-09 05:00:00,13.5,,,,,,,,,,,,0,,,,,,,,data,,,,
07070,2012-10-09 06:00:00,13,,,,,,,,,,,,0.2,,,,,,,,data,,,,
07070,2012-10-09 07:00:00,12.5,,,,,,,,,,,,0,,,,,,,,data,,,,
07070,2012-10-09 09:00:00,13.2,,,,,,,,,,,,0,,,,,,,,data,,,,
07070,2012-10-09 10:00:00,12.8,,,,,,,,,,,,0,,,,,,,,data,,,,
07070,2012-10-09 11:00:00,13.2,,,,,,,,,,,,0,,,,,,,,data,,,,
07070,2012-10-09 13:00:00,13.7,,,,,,,,,,,,0,,,,,,,,data,,,,
07070,2012-10-09 14:00:00,14.2,,,,,,,,,,,,0,,,,,,,,data,,,,
07070,2012-10-09 15:00:00,14.6,,,,,,,,,,,,0,,,,,,,,data,,,,
07070,2012-10-09 16:00:00,14.4,,,,,,,,,,,,0,,,,,,,,data,,,,
07070,2012-10-09 18:00:00,12.6,,,,,,,,,,,,0,,,,,,,,data,,,,
07070,2012-10-09 19:00:00,11.4,,,,,,,,,,,,0,,,,,,,,data,,,,
07070,2012-10-09 21:00:00,11.1,,,,,,,,,,,,0,,,,,,,,data,,,,
07070,2012-10-09 23:00:00,11,,,,,,,,,,,,0,,,,,,,,data,,,,
07070,2012-10-10 00:00:00,10.8,,,,,,,,,,,,0,,,,,,,,data,,,,
07070,2012-10-10 01:00:00,10.6,,,,,,,,,,,,0.2,,,,,,,,data,,,,
07070,2012-10-10 03:00:00,10.1,,,,,,,,,,,,0.2,,,,,,,,data,,,,
07070,2012-10-10 04:00:00,9.7,,,,,,,,,,,,0,,,,,,,,data,,,,
07070,2012-10-10 05:00:00,9.6,,,,,,,,,,,,0.2,,,,,,,,data,,,,
07070,2012-10-10 06:00:00,9.6,,,,,,,,,,,,0,,,,,,,,data,,,,
07070,2012-10-10 07:00:00,9.8,,,,,,,,,,,,0,,,,,,,,data,,,,
07070,2012-10-10 09:00:00,11.7,,,,,,,,,,,,0,,,,,,,,data,,,,
07070,2012-10-10 10:00:00,13,,,,,,,,,,,,0,,,,,,,,data,,,,
07070,2012-10-10 11:00:00,14,,,,,,,,,,,,0,,,,,,,,data,,,,
07070,2012-10-10 14:00:00,16.6,,,,,,,,,,,,0,,,,,,,,data,,,,
07070,2012-10-10 15:00:00,15.1,,,,,,,,,,,,0,,,,,,,,data,,,,
07070,2012-10-10 16:00:00,14.5,,,,,,,,,,,,0,,,,,,,,data,,,,
07070,2012-10-10 18:00:00,13.3,,,,,,,,,,,,0,,,,,,,,data,,,,
07070,2012-10-10 19:00:00,13,,,,,,,,,,,,0,,,,,,,,data,,,,
07070,2012-10-10 21:00:00,12.6,,,,,,,,,,,,0,,,,,,,,data,,,,
07070,2012-10-10 22:00:00,11.8,,,,,,,,,,,,0,,,,,,,,data,,,,
07070,2012-10-10 23:00:00,12.4,,,,,,,,,,,,0,,,,,,,,data,,,,
07070,2012-10-11 00:00:00,12,,,,,,,,,,,,0,,,,,,,,data,,,,
07070,2012-10-11 06:00:00,9.4,,,,,,,,,,,,0,,,,,,,,data,,,,
07070,2012-10-11 09:00:00,11.9,,,,,,,,,,,,0,,,,,,,,data,,,,
07070,2012-10-11 13:00:00,16.2,,,,,,,,,,,,0,,,,,,,,data,,,,
07070,2012-10-11 16:00:00,15.5,,,,,,,,,,,,1.6,,,,,,,,data,,,,
07070,2012-10-11 22:00:00,15.3,,,,,,,,,,,,0.4,,,,,,,,data,,,,
07070,2012-10-12 00:00:00,15.7,,,,,,,,,,,,0,,,,,,,,data,,,,
07070,2012-10-12 02:00:00,15.3,,,,,,,,,,,,0,,,,,,,,data,,,,
07070,2012-10-12 03:00:00,15.3,,,,,,,,,,,,0.2,,,,,,,,data,,,,
07070,2012-10-12 04:00:00,14.5,,,,,,,,,,,,2.2,,,,,,,,data,,,,
07070,2012-10-12 05:00:00,14,,,,,,,,,,,,0,,,,,,,,data,,,,
07070,2012-10-12 06:00:00,13.4,,,,,,,,,,,,0,,,,,,,,data,,,,
07070,2012-10-12 07:00:00,13.5,,,,,,,,,,,,0,,,,,,,,data,,,,
07070,2012-10-12 09:00:00,13.6,,,,,,,,,,,,0,,,,,,,,data,,,,
07070,2012-10-12 10:00:00,13,,,,,,,,,,,,0,,,,,,,,data,,,,
07070,2012-10-12 11:00:00,13.5,,,,,,,,,,,,0,,,,,,,,data,,,,
07070,2012-10-12 13:00:00,15.1,,,,,,,,,,,,0,,,,,,,,data,,,,
07070,2012-10-12 14:00:00,15.7,,,,,,,,,,,,0,,,,,,,,data,,,,
07070,2012-10-12 15:00:00,15.4,,,,,,,,,,,,0,,,,,,,,data,,,,
07070,2012-10-12 16:00:00,14,,,,,,,,,,,,0,,,,,,,,data,,,,
07070,2012-10-12 18:00:00,10.2,,,,,,,,,,,,0,,,,,,,,data,,,,
07070,2012-10-12 19:00:00,9.4,,,,,,,,,,,,0.8,,,,,,,,data,,,,
07070,2012-10-12 21:00:00,8.1,,,,,,,,,,,,0,,,,,,,,data,,,,
07070,2012-10-12 22:00:00,7.9,,,,,,,,,,,,0,,,,,,,,data,,,,
07070,2012-10-12 23:00:00,8.2,,,,,,,,,,,,0,,,,,,,,data,,,,
07070,2012-10-13 00:00:00,8.3,,,,,,,,,,,,0,,,,,,,,data,,,,
07070,2012-10-13 01:00:00,8.5,,,,,,,,,,,,0,,,,,,,,data,,,,
07070,2012-10-13 02:00:00,8.2,,,,,,,,,,,,0,,,,,,,,data,,,,
07070,2012-10-13 03:00:00,8.1,,,,,,,,,,,,0,,,,,,,,data,,,,
07070,2012-10-13 04:00:00,8.9,,,,,,,,,,,,0,,,,,,,,data,,,,
07070,2012-10-13 05:00:00,8.9,,,,,,,,,,,,0,,,,,,,,data,,,,
07070,2012-10-13 09:00:00,11.3,,,,,,,,,,,,0,,,,,,,,data,,,,
07070,2012-10-13 10:00:00,12,,,,,,,,,,,,0,,,,,,,,data,,,,
07070,2012-10-13 11:00:00,13.7,,,,,,,,,,,,0,,,,,,,,data,,,,
07070,2012-10-13 13:00:00,11.9,,,,,,,,,,,,2.4,,,,,,,,data,,,,
07070,2012-10-13 14:00:00,9.6,,,,,,,,,,,,3.5,,,,,,,,data,,,,
07070,2012-10-13 15:00:00,10.4,,,,,,,,,,,,0,,,,,,,,data,,,,
07070,2012-10-13 16:00:00,9.7,,,,,,,,,,,,0.4,,,,,,,,data,,,,
07070,2012-10-13 18:00:00,8.3,,,,,,,,,,,,1.2,,,,,,,,data,,,,
07070,2012-10-13 19:00:00,8.1,,,,,,,,,,,,0,,,,,,,,data,,,,
07070,2012-10-13 21:00:00,8.6,,,,,,,,,,,,0,,,,,,,,data,,,,
07070,2012-10-13 22:00:00,6.7,,,,,,,,,,,,0.2,,,,,,,,data,,,,
07070,2012-10-13 23:00:00,7.3,,,,,,,,,,,,0,,,,,,,,data,,,,
07070,2012-10-14 00:00:00,6.8,,,,,,,,,,,,0,,,,,,,,data,,,,
07070,2012-10-14 01:00:00,5.9,,,,,,,,,,,,0,,,,,,,,data,,,,
07070,2012-10-14 02:00:00,5.7,,,,,,,,,,,,0,,,,,,,,data,,,,
07070,2012-10-14 03:00:00,5.4,,,,,,,,,,,,0,,,,,,,,data,,,,
07070,2012-10-14 04:00:00,4.7,,,,,,,,,,,,0,,,,,,,,data,,,,
07070,2012-10-14 05:00:00,4.7,,,,,,,,,,,,0.2,,,,,,,,data,,,,
07070,2012-10-14 06:00:00,5.2,,,,,,,,,,,,0,,,,,,,,data,,,,
07070,2012-10-14 07:00:00,5.5,,,,,,,,,,,,0,,,,,,,,data,,,,
07070,2012-10-14 09:00:00,6.7,,,,,,,,,,,,0,,,,,,,,data,,,,
07070,2012-10-14 10:00:00,8,,,,,,,,,,,,0.2,,,,,,,,data,,,,
07070,2012-10-14 11:00:00,8.9,,,,,,,,,,,,0.4,,,,,,,,data,,,,
07070,2012-10-14 13:00:00,8.5,,,,,,,,,,,,0.6,,,,,,,,data,,,,
07070,2012-10-14 15:00:00,7.1,,,,,,,,,,,,1.8,,,,,,,,data,,,,
07070,2012-10-14 16:00:00,6.7,,,,,,,,,,,,1.3,,,,,,,,data,,,,
07070,2012-10-14 20:00:00,6.1,,,,,,,,,,,,0,,,,,,,,data,,,,
07070,2012-10-14 21:00:00,6.4,,,,,,,,,,,,0,,,,,,,,data,,,,
07070,2012-10-14 22:00:00,6.8,,,,,,,,,,,,0.2,,,,,,,,data,,,,
07070,2012-10-14 23:00:00,6.6,,,,,,,,,,,,0,,,,,,,,data,,,,
07070,2012-10-15 00:00:00,6.4,,,,,,,,,,,,0,,,,,,,,data,,,,
07070,2012-10-15 03:00:00,6.4,,,,,,,,,,,,1.2,,,,,,,,data,,,,
07070,2012-10-15 04:00:00,6.7,,,,,,,,,,,,1.8,,,,,,,,data,,,,
07070,2012-10-15 06:00:00,6.7,,,,,,,,,,,,0,,,,,,,,data,,,,
07070,2012-10-15 07:00:00,6.3,,,,,,,,,,,,0,,,,,,,,data,,,,
07070,2012-10-15 09:00:00,9.6,,,,,,,,,,,,0,,,,,,,,data,,,,
07070,2012-10-15 10:00:00,11.1,,,,,,,,,,,,0,,,,,,,,data,,,,
07070,2012-10-15 11:00:00,12.5,,,,,,,,,,,,0,,,,,,,,data,,,,
07070,2012-10-15 13:00:00,13.9,,,,,,,,,,,,0,,,,,,,,data,,,,
07070,2012-10-15 14:00:00,13,,,,,,,,,,,,0,,,,,,,,data,,,,
07070,2012-10-15 15:00:00,12.5,,,,,,,,,,,,0,,,,,,,,data,,,,
07070,2012-10-15 16:00:00,12.7,,,,,,,,,,,,0,,,,,,,,data,,,,
07070,2012-10-15 18:00:00,10.9,,,,,,,,,,,,0,,,,,,,,data,,,,
07070,2012-10-15 19:00:00,9.9,,,,,,,,,,,,0,,,,,,,,data,,,,
07070,2012-10-15 21:00:00,8.5,,,,,,,,,,,,0,,,,,,,,data,,,,
07070,2012-10-15 22:00:00,8.8,,,,,,,,,,,,0,,,,,,,,data,,,,
07070,2012-10-15 23:00:00,7.3,,,,,,,,,,,,0,,,,,,,,data,,,,
07070,2012-10-16 00:00:00,6.7,,,,,,,,,,,,0,,,,,,,,data,,,,
07070,2012-10-16 01:00:00,6.2,,,,,,,,,,,,0,,,,,,,,data,,,,
07070,2012-10-16 02:00:00,8.2,,,,,,,,,,,,0,,,,,,,,data,,,,
07070,2012-10-16 04:00:00,7.9,,,,,,,,,,,,0,,,,,,,,data,,,,
07070,2012-10-16 05:00:00,7.3,,,,,,,,,,,,0.2,,,,,,,,data,,,,
07070,2012-10-16 06:00:00,7.6,,,,,,,,,,,,0,,,,,,,,data,,,,
07070,2012-10-16 09:00:00,9.1,,,,,,,,,,,,0,,,,,,,,data,,,,
07070,2012-10-16 10:00:00,10.5,,,,,,,,,,,,0,,,,,,,,data,,,,
07070,2012-10-16 11:00:00,12.2,,,,,,,,,,,,0,,,,,,,,data,,,,
07070,2012-10-16 14:00:00,13.5,,,,,,,,,,,,0,,,,,,,,data,,,,
07070,2012-10-16 16:00:00,13.1,,,,,,,,,,,,0,,,,,,,,data,,,,
07070,2012-10-16 19:00:00,7.7,,,,,,,,,,,,0,,,,,,,,data,,,,
07070,2012-10-16 21:00:00,8.2,,,,,,,,,,,,0,,,,,,,,data,,,,
07070,2012-10-16 23:00:00,8.1,,,,,,,,,,,,0,,,,,,,,data,,,,
07070,2012-10-17 00:00:00,7.6,,,,,,,,,,,,0,,,,,,,,data,,,,
07070,2012-10-17 02:00:00,8.2,,,,,,,,,,,,0,,,,,,,,data,,,,
07070,2012-10-17 03:00:00,8.7,,,,,,,,,,,,0.2,,,,,,,,data,,,,
07070,2012-10-17 04:00:00,9.1,,,,,,,,,,,,0,,,,,,,,data,,,,
07070,2012-10-17 05:00:00,9.6,,,,,,,,,,,,0,,,,,,,,data,,,,
07070,2012-10-17 06:00:00,9.8,,,,,,,,,,,,0,,,,,,,,data,,,,
07070,2012-10-17 07:00:00,10.4,,,,,,,,,,,,0,,,,,,,,data,,,,
07070,2012-10-17 09:00:00,12.4,,,,,,,,,,,,0,,,,,,,,data,,,,
07070,2012-10-17 10:00:00,13.6,,,,,,,,,,,,0,,,,,,,,data,,,,
07070,2012-10-17 11:00:00,13.8,,,,,,,,,,,,0.2,,,,,,,,data,,,,
07070,2012-10-17 13:00:00,13.9,,,,,,,,,,,,0.2,,,,,,,,data,,,,
07070,2012-10-17 14:00:00,14.4,,,,,,,,,,,,0,,,,,,,,data,,,,
07070,2012-10-17 15:00:00,15,,,,,,,,,,,,0,,,,,,,,data,,,,
07070,2012-10-17 18:00:00,15,,,,,,,,,,,,0,,,,,,,,data,,,,
07070,2012-10-17 19:00:00,14.4,,,,,,,,,,,,0,,,,,,,,data,,,,
07070,2012-10-17 21:00:00,12.8,,,,,,,,,,,,0,,,,,,,,data,,,,
07070,2012-10-17 22:00:00,12.5,,,,,,,,,,,,0,,,,,,,,data,,,,
07070,2012-10-17 23:00:00,13.5,,,,,,,,,,,,0,,,,,,,,data,,,,
07070,2012-10-18 00:00:00,14.1,,,,,,,,,,,,0,,,,,,,,data,,,,
07070,2012-10-18 01:00:00,14.9,,,,,,,,,,,,0,,,,,,,,data,,,,
07070,2012-10-18 02:00:00,15.7,,,,,,,,,,,,0,,,,,,,,data,,,,
07070,2012-10-18 03:00:00,15.9,,,,,,,,,,,,0,,,,,,,,data,,,,
07070,2012-10-18 04:00:00,15.8,,,,,,,,,,,,0,,,,,,,,data,,,,
07070,2012-10-18 05:00:00,15.4,,,,,,,,,,,,0,,,,,,,,data,,,,
07070,2012-10-18 06:00:00,15.1,,,,,,,,,,,,0,,,,,,,,data,,,,
07070,2012-10-18 07:00:00,15.5,,,,,,,,,,,,0,,,,,,,,data,,,,
07070,2012-10-18 09:00:00,16.6,,,,,,,,,,,,0,,,,,,,,data,,,,
07070,2012-10-18 11:00:00,18.9,,,,,,,,,,,,0,,,,,,,,data,,,,
07070,2012-10-18 13:00:00,19,,,,,,,,,,,,0,,,,,,,,data,,,,
07070,2012-10-18 14:00:00,18.9,,,,,,,,,,,,0,,,,,,,,data,,,,
07070,2012-10-18 15:00:00,18.4,,,,,,,,,,,,0,,,,,,,,data,,,,
07070,2012-10-18 16:00:00,18.1,,,,,,,,,,,,0,,,,,,,,data,,,,
07070,2012-10-18 18:00:00,17.7,,,,,,,,,,,,0,,,,,,,,data,,,,
07070,2012-10-18 19:00:00,16.9,,,,,,,,,,,,0,,,,,,,,data,,,,
07070,2012-10-18 21:00:00,16.5,,,,,,,,,,,,0,,,,,,,,data,,,,
07070,2012-10-18 22:00:00,17.8,,,,,,,,,,,,0,,,,,,,,data,,,,
07070,2012-10-19 01:00:00,15.1,,,,,,,,,,,,0,,,,,,,,data,,,,
07070,2012-10-19 02:00:00,15.5,,,,,,,,,,,,0,,,,,,,,data,,,,
07070,2012-10-19 03:00:00,14.1,,,,,,,,,,,,0,,,,,,,,data,,,,
07070,2012-10-19 04:00:00,14.7,,,,,,,,,,,,0,,,,,,,,data,,,,
07070,2012-10-19 05:00:00,14.5,,,,,,,,,,,,0,,,,,,,,data,,,,
07070,2012-10-19 06:00:00,14.8,,,,,,,,,,,,0,,,,,,,,data,,,,
07070,2012-10-19 07:00:00,15.1,,,,,,,,,,,,0,,,,,,,,data,,,,
07070,2012-10-19 09:00:00,17.7,,,,,,,,,,,,0,,,,,,,,data,,,,
07070,2012-10-19 10:00:00,19.3,,,,,,,,,,,,0,,,,,,,,data,,,,
07070,2012-10-19 13:00:00,19.4,,,,,,,,,,,,0,,,,,,,,data,,,,
07070,2012-10-19 14:00:00,20,,,,,,,,,,,,0,,,,,,,,data,,,,
07070,2012-10-19 15:00:00,19.7,,,,,,,,,,,,0,,,,,,,,data,,,,
07070,2012-10-19 16:00:00,19.1,,,,,,,,,,,,0,,,,,,,,data,,,,
07070,2012-10-19 18:00:00,16.7,,,,,,,,,,,,0,,,,,,,,data,,,,
07070,2012-10-19 19:00:00,17.4,,,,,,,,,,,,0,,,,,,,,data,,,,
07070,2012-10-19 20:00:00,16.4,,,,,,,,,,,,0,,,,,,,,data,,,,
07070,2012-10-19 21:00:00,16.2,,,,,,,,,,,,0,,,,,,,,data,,,,
07070,2012-10-19 23:00:00,15.4,,,,,,,,,,,,0,,,,,,,,data,,,,
07070,2012-10-20 00:00:00,16.6,,,,,,,,,,,,0,,,,,,,,data,,,,
07070,2012-10-20 01:00:00,16.5,,,,,,,,,,,,0,,,,,,,,data,,,,
07070,2012-10-20 02:00:00,16.3,,,,,,,,,,,,0,,,,,,,,data,,,,
07070,2012-10-20 03:00:00,15.9,,,,,,,,,,,,0,,,,,,,,data,,,,
07070,2012-10-20 04:00:00,16,,,,,,,,,,,,0,,,,,,,,data,,,,
07070,2012-10-20 05:00:00,15,,,,,,,,,,,,0,,,,,,,,data,,,,
07070,2012-10-20 06:00:00,14.9,,,,,,,,,,,,0,,,,,,,,data,,,,
07070,2012-10-20 07:00:00,14.7,,,,,,,,,,,,0,,,,,,,,data,,,,
07070,2012-10-20 09:00:00,16.1,,,,,,,,,,,,0,,,,,,,,data,,,,
07070,2012-10-20 10:00:00,17.2,,,,,,,,,,,,0,,,,,,,,data,,,,
07070,2012-10-20 11:00:00,17.1,,,,,,,,,,,,0,,,,,,,,data,,,,
07070,2012-10-20 13:00:00,18.3,,,,,,,,,,,,0,,,,,,,,data,,,,
07070,2012-10-20 14:00:00,18.9,,,,,,,,,,,,0,,,,,,,,data,,,,
07070,2012-10-20 15:00:00,19,,,,,,,,,,,,0,,,,,,,,data,,,,
07070,2012-10-20 16:00:00,18.9,,,,,,,,,,,,0,,,,,,,,data,,,,
07070,2012-10-20 18:00:00,16.4,,,,,,,,,,,,0,,,,,,,,data,,,,
07070,2012-10-20 19:00:00,15.8,,,,,,,,,,,,0,,,,,,,,data,,,,
07070,2012-10-20 21:00:00,15.4,,,,,,,,,,,,0,,,,,,,,data,,,,
07070,2012-10-20 22:00:00,15.7,,,,,,,,,,,,0,,,,,,,,data,,,,
07070,2012-10-20 23:00:00,15,,,,,,,,,,,,0,,,,,,,,data,,,,
07070,2012-10-21 00:00:00,14.3,,,,,,,,,,,,0,,,,,,,,data,,,,
07070,2012-10-21 01:00:00,14,,,,,,,,,,,,0.2,,,,,,,,data,,,,
07070,2012-10-21 03:00:00,13.9,,,,,,,,,,,,0,,,,,,,,data,,,,
07070,2012-10-21 04:00:00,14.8,,,,,,,,,,,,0,,,,,,,,data,,,,
07070,2012-10-21 05:00:00,14.8,,,,,,,,,,,,0,,,,,,,,data,,,,
07070,2012-10-21 06:00:00,14,,,,,,,,,,,,0,,,,,,,,data,,,,
07070,2012-10-21 07:00:00,13.8,,,,,,,,,,,,0,,,,,,,,data,,,,
07070,2012-10-21 10:00:00,20.8,,,,,,,,,,,,0,,,,,,,,data,,,,
07070,2012-10-21 11:00:00,21.6,,,,,,,,,,,,0,,,,,,,,data,,,,
07070,2012-10-21 13:00:00,23.4,,,,,,,,,,,,0,,,,,,,,data,,,,
07070,2012-10-21 14:00:00,23.6,,,,,,,,,,,,0,,,,,,,,data,,,,
07070,2012-10-21 15:00:00,22.8,,,,,,,,,,,,0,,,,,,,,data,,,,
07070,2012-10-21 18:00:00,16.5,,,,,,,,,,,,0,,,,,,,,data,,,,
07070,2012-10-21 19:00:00,16.1,,,,,,,,,,,,0,,,,,,,,data,,,,
07070,2012-10-21 21:00:00,15.8,,,,,,,,,,,,0,,,,,,,,data,,,,
07070,2012-10-21 22:00:00,15.9,,,,,,,,,,,,0,,,,,,,,data,,,,
07070,2012-10-21 23:00:00,15.2,,,,,,,,,,,,0,,,,,,,,data,,,,
07070,2012-10-22 00:00:00,14,,,,,,,,,,,,0,,,,,,,,data,,,,
07070,2012-10-22 01:00:00,13.4,,,,,,,,,,,,0,,,,,,,,data,,,,
07070,2012-10-22 02:00:00,14.2,,,,,,,,,,,,0,,,,,,,,data,,,,
07070,2012-10-22 04:00:00,12.7,,,,,,,,,,,,0,,,,,,,,data,,,,
07070,2012-10-22 05:00:00,12.1,,,,,,,,,,,,0,,,,,,,,data,,,,
07070,2012-10-22 06:00:00,11.5,,,,,,,,,,,,0,,,,,,,,data,,,,
07070,2012-10-22 07:00:00,12.3,,,,,,,,,,,,0,,,,,,,,data,,,,
07070,2012-10-22 10:00:00,18.4,,,,,,,,,,,,0,,,,,,,,data,,,,
07070,2012-10-22 11:00:00,19.7,,,,,,,,,,,,0,,,,,,,,data,,,,
07070,2012-10-22 15:00:00,21.5,,,,,,,,,,,,0,,,,,,,,data,,,,
07070,2012-10-22 16:00:00,19.2,,,,,,,,,,,,0,,,,,,,,data,,,,
07070,2012-10-22 18:00:00,14.6,,,,,,,,,,,,0,,,,,,,,data,,,,
07070,2012-10-22 19:00:00,13.9,,,,,,,,,,,,0,,,,,,,,data,,,,
07070,2012-10-22 21:00:00,12.5,,,,,,,,,,,,0.2,,,,,,,,data,,,,
07070,2012-10-22 22:00:00,11.7,,,,,,,,,,,,0,,,,,,,,data,,,,
07070,2012-10-22 23:00:00,10.4,,,,,,,,,,,,0,,,,,,,,data,,,,
07070,2012-10-23 00:00:00,9.7,,,,,,,,,,,,0,,,,,,,,data,,,,
07070,2012-10-23 01:00:00,9.3,,,,,,,,,,,,0,,,,,,,,data,,,,
07070,2012-10-23 02:00:00,9,,,,,,,,,,,,0,,,,,,,,data,,,,
07070,2012-10-23 03:00:00,8.6,,,,,,,,,,,,0,,,,,,,,data,,,,
07070,2012-10-23 04:00:00,7.8,,,,,,,,,,,,0,,,,,,,,data,,,,
07070,2012-10-23 05:00:00,8.9,,,,,,,,,,,,0,,,,,,,,data,,,,
07070,2012-10-23 07:00:00,10,,,,,,,,,,,,0,,,,,,,,data,,,,
07070,2012-10-23 10:00:00,15.3,,,,,,,,,,,,0,,,,,,,,data,,,,
07070,2012-10-23 11:00:00,15.9,,,,,,,,,,,,0,,,,,,,,data,,,,
07070,2012-10-23 13:00:00,17.5,,,,,,,,,,,,0,,,,,,,,data,,,,
07070,2012-10-23 14:00:00,17.5,,,,,,,,,,,,0,,,,,,,,data,,,,
07070,2012-10-23 16:00:00,14.7,,,,,,,,,,,,0,,,,,,,,data,,,,
07070,2012-10-23 18:00:00,10.2,,,,,,,,,,,,0,,,,,,,,data,,,,
07070,2012-10-23 19:00:00,9.6,,,,,,,,,,,,0,,,,,,,,data,,,,
07070,2012-10-23 20:00:00,9.1,,,,,,,,,,,,0,,,,,,,,data,,,,
07070,2012-10-23 21:00:00,9,,,,,,,,,,,,0.2,,,,,,,,data,,,,
07070,2012-10-23 22:00:00,9.9,,,,,,,,,,,,0,,,,,,,,data,,,,
07070,2012-10-23 23:00:00,8,,,,,,,,,,,,0,,,,,,,,data,,,,
07070,2012-10-24 00:00:00,7.2,,,,,,,,,,,,0,,,,,,,,data,,,,
07070,2012-10-24 01:00:00,7,,,,,,,,,,,,0,,,,,,,,data,,,,
07070,2012-10-24 02:00:00,6.4,,,,,,,,,,,,0,,,,,,,,data,,,,
07070,2012-10-24 03:00:00,6.2,,,,,,,,,,,,0,,,,,,,,data,,,,
07070,2012-10-24 05:00:00,5.9,,,,,,,,,,,,0,,,,,,,,data,,,,
07070,2012-10-24 06:00:00,7.7,,,,,,,,,,,,0,,,,,,,,data,,,,
07070,2012-10-24 09:00:00,9.1,,,,,,,,,,,,0.2,,,,,,,,data,,,,
07070,2012-10-24 10:00:00,10,,,,,,,,,,,,0,,,,,,,,data,,,,
07070,2012-10-24 13:00:00,13.2,,,,,,,,,,,,0,,,,,,,,data,,,,
07070,2012-10-24 14:00:00,13.5,,,,,,,,,,,,0,,,,,,,,data,,,,
07070,2012-10-24 16:00:00,12.9,,,,,,,,,,,,0,,,,,,,,data,,,,
07070,2012-10-24 18:00:00,9.2,,,,,,,,,,,,0,,,,,,,,data,,,,
07070,2012-10-24 19:00:00,8.6,,,,,,,,,,,,0,,,,,,,,data,,,,
07070,2012-10-24 21:00:00,7.6,,,,,,,,,,,,0,,,,,,,,data,,,,
07070,2012-10-24 22:00:00,7.1,,,,,,,,,,,,0,,,,,,,,data,,,,
07070,2012-10-25 00:00:00,7.4,,,,,,,,,,,,0,,,,,,,,data,,,,
07070,2012-10-25 01:00:00,6.3,,,,,,,,,,,,0,,,,,,,,data,,,,
07070,2012-10-25 02:00:00,6.2,,,,,,,,,,,,0,,,,,,,,data,,,,
07070,2012-10-25 03:00:00,6.2,,,,,,,,,,,,0,,,,,,,,data,,,,
07070,2012-10-25 04:00:00,6.2,,,,,,,,,,,,0,,,,,,,,data,,,,
07070,2012-10-25 05:00:00,6.1,,,,,,,,,,,,0,,,,,,,,data,,,,
07070,2012-10-25 06:00:00,6.5,,,,,,,,,,,,0,,,,,,,,data,,,,
07070,2012-10-25 07:00:00,6.9,,,,,,,,,,,,0.2,,,,,,,,data,,,,
07070,2012-10-25 09:00:00,10.7,,,,,,,,,,,,0,,,,,,,,data,,,,
07070,2012-10-25 10:00:00,12.3,,,,,,,,,,,,0,,,,,,,,data,,,,
07070,2012-10-25 11:00:00,12.6,,,,,,,,,,,,0,,,,,,,,data,,,,
07070,2012-10-25 13:00:00,15.3,,,,,,,,,,,,0,,,,,,,,data,,,,
07070,2012-10-25 14:00:00,16.2,,,,,,,,,,,,0,,,,,,,,data,,,,
07070,2012-10-25 15:00:00,16.1,,,,,,,,,,,,0,,,,,,,,data,,,,
07070,2012-10-25 16:00:00,14.3,,,,,,,,,,,,0,,,,,,,,data,,,,
07070,2012-10-25 18:00:00,10.7,,,,,,,,,,,,0,,,,,,,,data,,,,
07070,2012-10-25 19:00:00,10.1,,,,,,,,,,,,0,,,,,,,,data,,,,
07070,2012-10-25 21:00:00,9.4,,,,,,,,,,,,0,,,,,,,,data,,,,
07070,2012-10-25 22:00:00,10,,,,,,,,,,,,0,,,,,,,,data,,,,
07070,2012-10-25 23:00:00,9.8,,,,,,,,,,,,0,,,,,,,,data,,,,
07070,2012-10-26 00:00:00,9.5,,,,,,,,,,,,0,,,,,,,,data,,,,
07070,2012-10-26 01:00:00,8.5,,,,,,,,,,,,0,,,,,,,,data,,,,
07070,2012-10-26 02:00:00,8.6,,,,,,,,,,,,0,,,,,,,,data,,,,
07070,2012-10-26 03:00:00,7.4,,,,,,,,,,,,0,,,,,,,,data,,,,
07070,2012-10-26 04:00:00,8.3,,,,,,,,,,,,0.2,,,,,,,,data,,,,
07070,2012-10-26 05:00:00,9.1,,,,,,,,,,,,0,,,,,,,,data,,,,
07070,2012-10-26 06:00:00,7.4,,,,,,,,,,,,0,,,,,,,,data,,,,
07070,2012-10-26 10:00:00,10,,,,,,,,,,,,0,,,,,,,,data,,,,
07070,2012-10-26 11:00:00,10.3,,,,,,,,,,,,0,,,,,,,,data,,,,
07070,2012-10-26 13:00:00,10.1,,,,,,,,,,,,0,,,,,,,,data,,,,
07070,2012-10-26 14:00:00,10.1,,,,,,,,,,,,0,,,,,,,,data,,,,
07070,2012-10-26 15:00:00,10.2,,,,,,,,,,,,0,,,,,,,,data,,,,
07070,2012-10-26 16:00:00,9.2,,,,,,,,,,,,0,,,,,,,,data,,,,
07070,2012-10-26 18:00:00,8,,,,,,,,,,,,0,,,,,,,,data,,,,
07070,2012-10-26 20:00:00,6.5,,,,,,,,,,,,0,,,,,,,,data,,,,
07070,2012-10-26 21:00:00,5.3,,,,,,,,,,,,0,,,,,,,,data,,,,
07070,2012-10-26 22:00:00,4.3,,,,,,,,,,,,0,,,,,,,,data,,,,
07070,2012-10-26 23:00:00,4.1,,,,,,,,,,,,0,,,,,,,,data,,,,
07070,2012-10-27 00:00:00,4,,,,,,,,,,,,0.2,,,,,,,,data,,,,
07070,2012-10-27 01:00:00,3.9,,,,,,,,,,,,0,,,,,,,,data,,,,
07070,2012-10-27 03:00:00,1.7,,,,,,,,,,,,0,,,,,,,,data,,,,
07070,2012-10-27 04:00:00,0.8,,,,,,,,,,,,0,,,,,,,,data,,,,
07070,2012-10-27 06:00:00,-0.1,,,,,,,,,,,,0,,,,,,,,data,,,,
07070,2012-10-27 07:00:00,0.2,,,,,,,,,,,,0,,,,,,,,data,,,,
07070,2012-10-27 09:00:00,3.5,,,,,,,,,,,,0,,,,,,,,data,,,,
07070,2012-10-27 10:00:00,4.8,,,,,,,,,,,,0,,,,,,,,data,,,,
07070,2012-10-27 11:00:00,5.9,,,,,,,,,,,,0,,,,,,,,data,,,,
07070,2012-10-27 13:00:00,7.2,,,,,,,,,,,,0,,,,,,,,data,,,,
07070,2012-10-27 14:00:00,7.2,,,,,,,,,,,,0,,,,,,,,data,,,,
07070,2012-10-27 16:00:00,5,,,,,,,,,,,,0,,,,,,,,data,,,,
07070,2012-10-27 17:00:00,3.7,,,,,,,,,,,,0,,,,,,,,data,,,,
07070,2012-10-27 18:00:00,2.2,,,,,,,,,,,,0,,,,,,,,data,,,,
07070,2012-10-27 19:00:00,1.8,,,,,,,,,,,,0,,,,,,,,data,,,,
07070,2012-10-27 20:00:00,1.4,,,,,,,,,,,,0,,,,,,,,data,,,,
07070,2012-10-27 21:00:00,1,,,,,,,,,,,,0,,,,,,,,data,,,,
07070,2012-10-27 22:00:00,0.8,,,,,,,,,,,,0,,,,,,,,data,,,,
07070,2012-10-27 23:00:00,0.4,,,,,,,,,,,,0,,,,,,,,data,,,,
07070,2012-10-28 00:00:00,-0.3,,,,,,,,,,,,0,,,,,,,,data,,,,
07070,2012-10-28 01:00:00,-0.2,,,,,,,,,,,,0,,,,,,,,data,,,,
07070,2012-10-28 02:00:00,-0.3,,,,,,,,,,,,0,,,,,,,,data,,,,
07070,2012-10-28 03:00:00,-0.8,,,,,,,,,,,,0,,,,,,,,data,,,,
07070,2012-10-28 04:00:00,-0.7,,,,,,,,,,,,0,,,,,,,,data,,,,
07070,2012-10-28 05:00:00,-1.2,,,,,,,,,,,,0,,,,,,,,data,,,,
07070,2012-10-28 07:00:00,-1.8,,,,,,,,,,,,0,,,,,,,,data,,,,
07070,2012-10-28 09:00:00,3.2,,,,,,,,,,,,0.2,,,,,,,,data,,,,
07070,2012-10-28 10:00:00,4.7,,,,,,,,,,,,0,,,,,,,,data,,,,
07070,2012-10-28 11:00:00,6.7,,,,,,,,,,,,0,,,,,,,,data,,,,
07070,2012-10-28 13:00:00,8.2,,,,,,,,,,,,0,,,,,,,,data,,,,
07070,2012-10-28 14:00:00,8.6,,,,,,,,,,,,0,,,,,,,,data,,,,
07070,2012-10-28 15:00:00,9.1,,,,,,,,,,,,0,,,,,,,,data,,,,
07070,2012-10-28 16:00:00,6.2,,,,,,,,,,,,0,,,,,,,,data,,,,
07070,2012-10-28 18:00:00,2.8,,,,,,,,,,,,0,,,,,,,,data,,,,
07070,2012-10-28 19:00:00,1.3,,,,,,,,,,,,0,,,,,,,,data,,,,
07070,2012-10-28 21:00:00,-0.5,,,,,,,,,,,,0,,,,,,,,data,,,,
07070,2012-10-28 22:00:00,0.3,,,,,,,,,,,,0,,,,,,,,data,,,,
07070,2012-10-28 23:00:00,0.4,,,,,,,,,,,,0,,,,,,,,data,,,,
07070,2012-10-29 00:00:00,0,,,,,,,,,,,,0,,,,,,,,data,,,,
07070,2012-10-29 01:00:00,0.5,,,,,,,,,,,,0,,,,,,,,data,,,,
07070,2012-10-29 02:00:00,1.3,,,,,,,,,,,,0,,,,,,,,data,,,,
07070,2012-10-29 04:00:00,3,,,,,,,,,,,,0,,,,,,,,data,,,,
07070,2012-10-29 05:00:00,2.8,,,,,,,,,,,,0,,,,,,,,data,,,,
07070,2012-10-29 06:00:00,2.7,,,,,,,,,,,,0,,,,,,,,data,,,,
07070,2012-10-29 07:00:00,2.9,,,,,,,,,,,,0.2,,,,,,,,data,,,,
07070,2012-10-29 09:00:00,5.2,,,,,,,,,,,,0,,,,,,,,data,,,,
07070,2012-10-29 10:00:00,6.9,,,,,,,,,,,,0,,,,,,,,data,,,,
07070,2012-10-29 11:00:00,7.2,,,,,,,,,,,,0,,,,,,,,data,,,,
07070,2012-10-30 00:00:00,5.9,,,,,,,,,,,,0,,,,,,,,data,,,,
07070,2012-10-30 09:00:00,7.1,,,,,,,,,,,,0,,,,,,,,data,,,,
07070,2012-10-30 10:00:00,7.3,,,,,,,,,,,,0,,,,,,,,data,,,,
07070,2012-10-30 11:00:00,8.1,,,,,,,,,,,,0.4,,,,,,,,data,,,,
07070,2012-10-30 13:00:00,8.9,,,,,,,,,,,,0,,,,,,,,data,,,,
07070,2012-10-30 14:00:00,9.2,,,,,,,,,,,,0,,,,,,,,data,,,,
07070,2012-10-30 15:00:00,9.8,,,,,,,,,,,,0,,,,,,,,data,,,,
07070,2012-10-30 16:00:00,9.6,,,,,,,,,,,,0,,,,,,,,data,,,,
07070,2012-10-30 18:00:00,6.3,,,,,,,,,,,,0,,,,,,,,data,,,,
07070,2012-10-30 19:00:00,5.9,,,,,,,,,,,,0,,,,,,,,data,,,,
07070,2012-10-30 21:00:00,5.1,,,,,,,,,,,,0,,,,,,,,data,,,,
07070,2012-10-30 22:00:00,5.2,,,,,,,,,,,,0,,,,,,,,data,,,,
07070,2012-10-30 23:00:00,4.9,,,,,,,,,,,,0,,,,,,,,data,,,,
07070,2012-10-31 00:00:00,4.9,,,,,,,,,,,,0,,,,,,,,data,,,,
07070,2012-10-31 01:00:00,5.3,,,,,,,,,,,,0,,,,,,,,data,,,,
07070,2012-10-31 02:00:00,4.1,,,,,,,,,,,,0,,,,,,,,data,,,,
07070,2012-10-31 03:00:00,3.1,,,,,,,,,,,,0.2,,,,,,,,data,,,,
07070,2012-10-31 04:00:00,1.9,,,,,,,,,,,,0,,,,,,,,data,,,,
07070,2012-10-31 05:00:00,1.5,,,,,,,,,,,,0,,,,,,,,data,,,,
07070,2012-10-31 06:00:00,1.1,,,,,,,,,,,,0,,,,,,,,data,,,,
07070,2012-10-31 07:00:00,0.6,,,,,,,,,,,,0,,,,,,,,data,,,,
07070,2012-10-31 10:00:00,7.3,,,,,,,,,,,,0,,,,,,,,data,,,,
07070,2012-10-31 11:00:00,8.7,,,,,,,,,,,,0,,,,,,,,data,,,,
07070,2012-10-31 14:00:00,12.1,,,,,,,,,,,,0,,,,,,,,data,,,,
07070,2012-10-31 16:00:00,9.5,,,,,,,,,,,,0,,,,,,,,data,,,,
07070,2012-10-31 18:00:00,5.4,,,,,,,,,,,,0,,,,,,,,data,,,,
07070,2012-10-31 19:00:00,4.6,,,,,,,,,,,,0,,,,,,,,data,,,,
07070,2012-10-31 21:00:00,6,,,,,,,,,,,,0,,,,,,,,data,,,,
07070,2012-10-31 22:00:00,6.7,,,,,,,,,,,,0,,,,,,,,data,,,,
07070,2012-11-01 00:00:00,7,,,,,,,,,,,,0,,,,,,,,data,,,,
07070,2012-11-01 01:00:00,6.9,,,,,,,,,,,,0,,,,,,,,data,,,,
07070,2012-11-01 02:00:00,5.9,,,,,,,,,,,,0,,,,,,,,data,,,,
07070,2012-11-01 03:00:00,5.8,,,,,,,,,,,,0,,,,,,,,data,,,,
07070,2012-11-01 04:00:00,6,,,,,,,,,,,,0,,,,,,,,data,,,,
07070,2012-11-01 06:00:00,7.6,,,,,,,,,,,,0,,,,,,,,data,,,,
07070,2012-11-01 07:00:00,8,,,,,,,,,,,,0,,,,,,,,data,,,,
07070,2012-11-01 09:00:00,9.1,,,,,,,,,,,,0.2,,,,,,,,data,,,,
07070,2012-11-01 10:00:00,9,,,,,,,,,,,,0.8,,,,,,,,data,,,,
07070,2012-11-01 13:00:00,11.3,,,,,,,,,,,,0,,,,,,,,data,,,,
07070,2012-11-01 14:00:00,6,,,,,,,,,,,,2,,,,,,,,data,,,,
07070,2012-11-01 15:00:00,10.2,,,,,,,,,,,,0.4,,,,,,,,data,,,,
07070,2012-11-01 16:00:00,9.6,,,,,,,,,,,,0,,,,,,,,data,,,,
07070,2012-11-01 19:00:00,7.3,,,,,,,,,,,,0,,,,,,,,data,,,,
07070,2012-11-01 21:00:00,6.7,,,,,,,,,,,,0,,,,,,,,data,,,,
07070,2012-11-01 22:00:00,6.3,,,,,,,,,,,,0,,,,,,,,data,,,,
07070,2012-11-01 23:00:00,6.8,,,,,,,,,,,,0,,,,,,,,data,,,,
07070,2012-11-02 00:00:00,6.1,,,,,,,,,,,,0,,,,,,,,data,,,,
07070,2012-11-02 01:00:00,6,,,,,,,,,,,,0,,,,,,,,data,,,,
07070,2012-11-02 02:00:00,5.7,,,,,,,,,,,,0,,,,,,,,data,,,,
07070,2012-11-02 03:00:00,5.3,,,,,,,,,,,,0,,,,,,,,data,,,,
07070,2012-11-02 05:00:00,4.8,,,,,,,,,,,,0,,,,,,,,data,,,,
07070,2012-11-02 06:00:00,4.7,,,,,,,,,,,,0,,,,,,,,data,,,,
07070,2012-11-02 07:00:00,5,,,,,,,,,,,,0,,,,,,,,data,,,,
07070,2012-11-02 10:00:00,8.2,,,,,,,,,,,,0,,,,,,,,data,,,,
07070,2012-11-02 11:00:00,8.8,,,,,,,,,,,,0,,,,,,,,data,,,,
07070,2012-11-02 13:00:00,8.2,,,,,,,,,,,,0.8,,,,,,,,data,,,,
07070,2012-11-02 14:00:00,8.1,,,,,,,,,,,,1.6,,,,,,,,data,,,,
07070,2012-11-02 15:00:00,8.9,,,,,,,,,,,,0.2,,,,,,,,data,,,,
07070,2012-11-02 16:00:00,9.2,,,,,,,,,,,,0.2,,,,,,,,data,,,,
07070,2012-11-02 19:00:00,6.6,,,,,,,,,,,,0,,,,,,,,data,,,,
07070,2012-11-02 21:00:00,5.2,,,,,,,,,,,,0,,,,,,,,data,,,,
07070,2012-11-02 22:00:00,5.7,,,,,,,,,,,,0,,,,,,,,data,,,,
07070,2012-11-03 00:00:00,5.7,,,,,,,,,,,,0,,,,,,,,data,,,,
07070,2012-11-03 01:00:00,6.1,,,,,,,,,,,,0,,,,,,,,data,,,,
07070,2012-11-03 02:00:00,6.9,,,,,,,,,,,,0,,,,,,,,data,,,,
07070,2012-11-03 03:00:00,7.7,,,,,,,,,,,,0.6,,,,,,,,data,,,,
07070,2012-11-03 04:00:00,8.1,,,,,,,,,,,,0,,,,,,,,data,,,,
07070,2012-11-03 05:00:00,7.9,,,,,,,,,,,,1.2,,,,,,,,data,,,,
07070,2012-11-03 06:00:00,7.6,,,,,,,,,,,,0.8,,,,,,,,data,,,,
07070,2012-11-03 07:00:00,7.5,,,,,,,,,,,,0.2,,,,,,,,data,,,,
07070,2012-11-03 09:00:00,10.7,,,,,,,,,,,,0.6,,,,,,,,data,,,,
07070,2012-11-03 10:00:00,11.8,,,,,,,,,,,,3,,,,,,,,data,,,,
07070,2012-11-03 11:00:00,10.5,,,,,,,,,,,,0.2,,,,,,,,data,,,,
07070,2012-11-03 13:00:00,11.3,,,,,,,,,,,,0,,,,,,,,data,,,,
07070,2012-11-03 14:00:00,12,,,,,,,,,,,,0,,,,,,,,data,,,,
07070,2012-11-03 18:00:00,7.1,,,,,,,,,,,,0,,,,,,,,data,,,,
07070,2012-11-03 19:00:00,7,,,,,,,,,,,,0,,,,,,,,data,,,,
07070,2012-11-03 21:00:00,6.3,,,,,,,,,,,,0,,,,,,,,data,,,,
07070,2012-11-03 22:00:00,6.3,,,,,,,,,,,,0.2,,,,,,,,data,,,,
07070,2012-11-03 23:00:00,5.5,,,,,,,,,,,,0,,,,,,,,data,,,,
07070,2012-11-04 00:00:00,4.8,,,,,,,,,,,,0,,,,,,,,data,,,,
07070,2012-11-04 01:00:00,4,,,,,,,,,,,,0,,,,,,,,data,,,,
07070,2012-11-04 02:00:00,4,,,,,,,,,,,,0,,,,,,,,data,,,,
07070,2012-11-04 03:00:00,4.7,,,,,,,,,,,,0,,,,,,,,data,,,,
07070,2012-11-04 04:00:00,4.1,,,,,,,,,,,,0,,,,,,,,data,,,,
07070,2012-11-04 05:00:00,4.8,,,,,,,,,,,,0,,,,,,,,data,,,,
07070,2012-11-04 06:00:00,4.9,,,,,,,,,,,,0,,,,,,,,data,,,,
07070,2012-11-04 07:00:00,4.9,,,,,,,,,,,,0.2,,,,,,,,data,,,,
07070,2012-11-04 09:00:00,8.7,,,,,,,,,,,,0,,,,,,,,data,,,,
07070,2012-11-04 10:00:00,9.5,,,,,,,,,,,,0,,,,,,,,data,,,,
07070,2012-11-04 11:00:00,10.9,,,,,,,,,,,,0,,,,,,,,data,,,,
07070,2012-11-04 14:00:00,11.8,,,,,,,,,,,,0,,,,,,,,data,,,,
07070,2012-11-04 15:00:00,12,,,,,,,,,,,,0,,,,,,,,data,,,,
07070,2012-11-04 16:00:00,9.9,,,,,,,,,,,,0,,,,,,,,data,,,,
07070,2012-11-04 18:00:00,7.4,,,,,,,,,,,,0,,,,,,,,data,,,,
07070,2012-11-04 19:00:00,6.4,,,,,,,,,,,,0,,,,,,,,data,,,,
07070,2012-11-04 21:00:00,5.6,,,,,,,,,,,,0,,,,,,,,data,,,,
07070,2012-11-04 22:00:00,7.7,,,,,,,,,,,,0,,,,,,,,data,,,,
07070,2012-11-04 23:00:00,7.4,,,,,,,,,,,,0,,,,,,,,data,,,,
07070,2012-11-05 00:00:00,5,,,,,,,,,,,,0,,,,,,,,data,,,,
07070,2012-11-05 01:00:00,6.7,,,,,,,,,,,,0,,,,,,,,data,,,,
07070,2012-11-05 02:00:00,7,,,,,,,,,,,,0,,,,,,,,data,,,,
07070,2012-11-05 03:00:00,7,,,,,,,,,,,,0,,,,,,,,data,,,,
07070,2012-11-05 04:00:00,7.2,,,,,,,,,,,,0,,,,,,,,data,,,,
07070,2012-11-05 05:00:00,6.9,,,,,,,,,,,,0.2,,,,,,,,data,,,,
07070,2012-11-05 06:00:00,6.8,,,,,,,,,,,,0,,,,,,,,data,,,,
07070,2012-11-05 07:00:00,7.1,,,,,,,,,,,,0,,,,,,,,data,,,,
07070,2012-11-05 09:00:00,7.6,,,,,,,,,,,,0,,,,,,,,data,,,,
07070,2012-11-05 10:00:00,8.9,,,,,,,,,,,,0,,,,,,,,data,,,,
07070,2012-11-05 15:00:00,7.8,,,,,,,,,,,,0.6,,,,,,,,data,,,,
07070,2012-11-05 16:00:00,7.6,,,,,,,,,,,,0.6,,,,,,,,data,,,,
07070,2012-11-05 19:00:00,7.3,,,,,,,,,,,,0.2,,,,,,,,data,,,,
07070,2012-11-05 21:00:00,6,,,,,,,,,,,,0,,,,,,,,data,,,,
07070,2012-11-05 22:00:00,6,,,,,,,,,,,,0,,,,,,,,data,,,,
07070,2012-11-05 23:00:00,6,,,,,,,,,,,,0,,,,,,,,data,,,,
07070,2012-11-06 01:00:00,4.2,,,,,,,,,,,,0,,,,,,,,data,,,,
07070,2012-11-06 04:00:00,3.5,,,,,,,,,,,,0,,,,,,,,data,,,,
07070,2012-11-06 05:00:00,2.8,,,,,,,,,,,,0,,,,,,,,data,,,,
07070,2012-11-06 06:00:00,1.1,,,,,,,,,,,,0,,,,,,,,data,,,,
07070,2012-11-06 07:00:00,1.1,,,,,,,,,,,,0.2,,,,,,,,data,,,,
07070,2012-11-06 09:00:00,4.4,,,,,,,,,,,,0,,,,,,,,data,,,,
07070,2012-11-06 10:00:00,6.5,,,,,,,,,,,,0,,,,,,,,data,,,,
07070,2012-11-06 11:00:00,7.3,,,,,,,,,,,,0,,,,,,,,data,,,,
07070,2012-11-06 18:00:00,6.1,,,,,,,,,,,,0,,,,,,,,data,,,,
07070,2012-11-06 19:00:00,5.4,,,,,,,,,,,,0,,,,,,,,data,,,,
07070,2012-11-06 21:00:00,5.8,,,,,,,,,,,,0,,,,,,,,data,,,,
07070,2012-11-06 22:00:00,6.4,,,,,,,,,,,,0,,,,,,,,data,,,,
07070,2012-11-06 23:00:00,6.6,,,,,,,,,,,,0,,,,,,,,data,,,,
07070,2012-11-07 00:00:00,7,,,,,,,,,,,,0,,,,,,,,data,,,,
07070,2012-11-07 01:00:00,7.1,,,,,,,,,,,,0,,,,,,,,data,,,,
07070,2012-11-07 02:00:00,6.7,,,,,,,,,,,,0,,,,,,,,data,,,,
07070,2012-11-07 03:00:00,6.8,,,,,,,,,,,,0.2,,,,,,,,data,,,,
07070,2012-11-07 04:00:00,7.4,,,,,,,,,,,,0,,,,,,,,data,,,,
07070,2012-11-07 06:00:00,7.6,,,,,,,,,,,,0,,,,,,,,data,,,,
07070,2012-11-07 07:00:00,8,,,,,,,,,,,,0,,,,,,,,data,,,,
07070,2012-11-07 09:00:00,8.6,,,,,,,,,,,,0,,,,,,,,data,,,,
07070,2012-11-07 10:00:00,9.1,,,,,,,,,,,,0,,,,,,,,data,,,,
07070,2012-11-07 13:00:00,10,,,,,,,,,,,,0,,,,,,,,data,,,,
07070,2012-11-07 14:00:00,10.3,,,,,,,,,,,,0,,,,,,,,data,,,,
07070,2012-11-07 15:00:00,10.4,,,,,,,,,,,,0,,,,,,,,data,,,,
07070,2012-11-07 18:00:00,9.7,,,,,,,,,,,,0,,,,,,,,data,,,,
07070,2012-11-07 19:00:00,9.6,,,,,,,,,,,,0,,,,,,,,data,,,,
07070,2012-11-07 20:00:00,9.4,,,,,,,,,,,,0,,,,,,,,data,,,,
07070,2012-11-07 21:00:00,9.6,,,,,,,,,,,,0,,,,,,,,data,,,,
07070,2012-11-07 22:00:00,9.3,,,,,,,,,,,,0,,,,,,,,data,,,,
07070,2012-11-07 23:00:00,9,,,,,,,,,,,,0,,,,,,,,data,,,,
07070,2012-11-08 00:00:00,9,,,,,,,,,,,,0,,,,,,,,data,,,,
07070,2012-11-08 01:00:00,8.8,,,,,,,,,,,,0,,,,,,,,data,,,,
07070,2012-11-08 02:00:00,8.4,,,,,,,,,,,,0,,,,,,,,data,,,,
07070,2012-11-08 03:00:00,8.5,,,,,,,,,,,,0,,,,,,,,data,,,,
07070,2012-11-08 05:00:00,8.1,,,,,,,,,,,,0,,,,,,,,data,,,,
07070,2012-11-08 06:00:00,8.2,,,,,,,,,,,,0,,,,,,,,data,,,,
07070,2012-11-08 07:00:00,8,,,,,,,,,,,,0,,,,,,,,data,,,,
07070,2012-11-08 10:00:00,9.2,,,,,,,,,,,,0,,,,,,,,data,,,,
07070,2012-11-08 11:00:00,9.3,,,,,,,,,,,,0,,,,,,,,data,,,,
07070,2012-11-08 16:00:00,8.6,,,,,,,,,,,,0,,,,,,,,data,,,,
07070,2012-11-08 18:00:00,7,,,,,,,,,,,,0,,,,,,,,data,,,,
07070,2012-11-08 19:00:00,7.3,,,,,,,,,,,,0,,,,,,,,data,,,,
07070,2012-11-08 21:00:00,7.3,,,,,,,,,,,,0,,,,,,,,data,,,,
07070,2012-11-08 22:00:00,7.2,,,,,,,,,,,,0,,,,,,,,data,,,,
07070,2012-11-08 23:00:00,7.4,,,,,,,,,,,,0,,,,,,,,data,,,,
07070,2012-11-09 00:00:00,6.8,,,,,,,,,,,,0,,,,,,,,data,,,,
07070,2012-11-09 01:00:00,6.4,,,,,,,,,,,,0,,,,,,,,data,,,,
07070,2012-11-09 02:00:00,6.2,,,,,,,,,,,,0,,,,,,,,data,,,,
07070,2012-11-09 03:00:00,5.9,,,,,,,,,,,,0,,,,,,,,data,,,,
07070,2012-11-09 04:00:00,4.1,,,,,,,,,,,,0,,,,,,,,data,,,,
07070,2012-11-09 05:00:00,2.9,,,,,,,,,,,,0,,,,,,,,data,,,,
07070,2012-11-09 06:00:00,2.4,,,,,,,,,,,,0,,,,,,,,data,,,,
07070,2012-11-09 07:00:00,3,,,,,,,,,,,,0,,,,,,,,data,,,,
07070,2012-11-09 10:00:00,4.8,,,,,,,,,,,,0,,,,,,,,data,,,,
07070,2012-11-09 11:00:00,5.7,,,,,,,,,,,,0,,,,,,,,data,,,,
07070,2012-11-09 14:00:00,8.5,,,,,,,,,,,,0,,,,,,,,data,,,,
07070,2012-11-09 19:00:00,8.5,,,,,,,,,,,,0,,,,,,,,data,,,,
07070,2012-11-09 22:00:00,8.5,,,,,,,,,,,,1,,,,,,,,data,,,,
07070,2012-11-09 23:00:00,8.9,,,,,,,,,,,,1.2,,,,,,,,data,,,,
07070,2012-11-10 00:00:00,9,,,,,,,,,,,,0.4,,,,,,,,data,,,,
07070,2012-11-10 01:00:00,9,,,,,,,,,,,,0.4,,,,,,,,data,,,,
07070,2012-11-10 02:00:00,9.3,,,,,,,,,,,,0,,,,,,,,data,,,,
07070,2012-11-10 03:00:00,9.5,,,,,,,,,,,,0,,,,,,,,data,,,,
07070,2012-11-10 04:00:00,9.7,,,,,,,,,,,,0,,,,,,,,data,,,,
07070,2012-11-10 05:00:00,9.8,,,,,,,,,,,,0.2,,,,,,,,data,,,,
07070,2012-11-10 06:00:00,9.9,,,,,,,,,,,,0,,,,,,,,data,,,,
07070,2012-11-10 07:00:00,10.2,,,,,,,,,,,,0,,,,,,,,data,,,,
07070,2012-11-10 09:00:00,11.3,,,,,,,,,,,,0,,,,,,,,data,,,,
07070,2012-11-10 11:00:00,12.6,,,,,,,,,,,,0,,,,,,,,data,,,,
07070,2012-11-10 13:00:00,12.8,,,,,,,,,,,,0.2,,,,,,,,data,,,,
07070,2012-11-10 14:00:00,12.5,,,,,,,,,,,,0,,,,,,,,data,,,,
07070,2012-11-10 15:00:00,12.7,,,,,,,,,,,,0,,,,,,,,data,,,,
07070,2012-11-10 16:00:00,12,,,,,,,,,,,,0,,,,,,,,data,,,,
07070,2012-11-10 18:00:00,11.2,,,,,,,,,,,,0,,,,,,,,data,,,,
07070,2012-11-10 19:00:00,11.1,,,,,,,,,,,,0.6,,,,,,,,data,,,,
07070,2012-11-10 21:00:00,9.7,,,,,,,,,,,,0,,,,,,,,data,,,,
07070,2012-11-10 22:00:00,9.4,,,,,,,,,,,,0,,,,,,,,data,,,,
07070,2012-11-10 23:00:00,8.6,,,,,,,,,,,,0,,,,,,,,data,,,,
07070,2012-11-11 00:00:00,7.1,,,,,,,,,,,,0,,,,,,,,data,,,,
07070,2012-11-11 01:00:00,6.3,,,,,,,,,,,,0,,,,,,,,data,,,,
07070,2012-11-11 02:00:00,6.7,,,,,,,,,,,,0,,,,,,,,data,,,,
07070,2012-11-11 03:00:00,6.3,,,,,,,,,,,,0,,,,,,,,data,,,,
07070,2012-11-11 04:00:00,5.9,,,,,,,,,,,,0,,,,,,,,data,,,,
07070,2012-11-11 05:00:00,4,,,,,,,,,,,,0,,,,,,,,data,,,,
07070,2012-11-11 06:00:00,3.6,,,,,,,,,,,,0,,,,,,,,data,,,,
07070,2012-11-11 09:00:00,6.1,,,,,,,,,,,,0,,,,,,,,data,,,,
07070,2012-11-11 10:00:00,6.6,,,,,,,,,,,,0,,,,,,,,data,,,,
07070,2012-11-11 11:00:00,7.1,,,,,,,,,,,,0,,,,,,,,data,,,,
07070,2012-11-11 13:00:00,8.2,,,,,,,,,,,,0,,,,,,,,data,,,,
07070,2012-11-11 14:00:00,8.2,,,,,,,,,,,,0,,,,,,,,data,,,,
07070,2012-11-11 15:00:00,8.4,,,,,,,,,,,,0,,,,,,,,data,,,,
07070,2012-11-11 16:00:00,8.1,,,,,,,,,,,,0,,,,,,,,data,,,,
07070,2012-11-11 19:00:00,7.2,,,,,,,,,,,,0,,,,,,,,data,,,,
07070,2012-11-11 21:00:00,7.1,,,,,,,,,,,,0,,,,,,,,data,,,,
07070,2012-11-11 23:00:00,7.1,,,,,,,,,,,,0,,,,,,,,data,,,,
07070,2012-11-12 00:00:00,7,,,,,,,,,,,,0,,,,,,,,data,,,,
07070,2012-11-12 01:00:00,6.9,,,,,,,,,,,,0,,,,,,,,data,,,,
07070,2012-11-12 02:00:00,6.7,,,,,,,,,,,,0,,,,,,,,data,,,,
07070,2012-11-12 03:00:00,6.6,,,,,,,,,,,,0,,,,,,,,data,,,,
07070,2012-11-12 04:00:00,6.5,,,,,,,,,,,,0,,,,,,,,data,,,,
07070,2012-11-12 05:00:00,6.1,,,,,,,,,,,,0,,,,,,,,data,,,,
07070,2012-11-12 06:00:00,5.8,,,,,,,,,,,,0,,,,,,,,data,,,,
07070,2012-11-12 07:00:00,5.9,,,,,,,,,,,,0,,,,,,,,data,,,,
07070,2012-11-12 09:00:00,6,,,,,,,,,,,,0,,,,,,,,data,,,,
07070,2012-11-12 11:00:00,7.5,,,,,,,,,,,,0,,,,,,,,data,,,,
07070,2012-11-12 15:00:00,8.1,,,,,,,,,,,,0,,,,,,,,data,,,,
07070,2012-11-12 18:00:00,7.1,,,,,,,,,,,,0,,,,,,,,data,,,,
07070,2012-11-12 19:00:00,6.9,,,,,,,,,,,,0,,,,,,,,data,,,,
07070,2012-11-12 21:00:00,6.5,,,,,,,,,,,,0,,,,,,,,data,,,,
07070,2012-11-12 22:00:00,6.6,,,,,,,,,,,,0,,,,,,,,data,,,,
07070,2012-11-12 23:00:00,6.5,,,,,,,,,,,,0,,,,,,,,data,,,,
07070,2012-11-13 00:00:00,6.4,,,,,,,,,,,,0,,,,,,,,data,,,,
07070,2012-11-13 02:00:00,6.5,,,,,,,,,,,,0,,,,,,,,data,,,,
07070,2012-11-13 06:00:00,6.1,,,,,,,,,,,,0,,,,,,,,data,,,,
07070,2012-11-13 07:00:00,5.1,,,,,,,,,,,,0,,,,,,,,data,,,,
07070,2012-11-13 09:00:00,6.5,,,,,,,,,,,,0,,,,,,,,data,,,,
07070,2012-11-13 13:00:00,8.5,,,,,,,,,,,,0,,,,,,,,data,,,,
07070,2012-11-13 14:00:00,9.2,,,,,,,,,,,,0,,,,,,,,data,,,,
07070,2012-11-13 16:00:00,8.6,,,,,,,,,,,,0,,,,,,,,data,,,,
07070,2012-11-13 18:00:00,6.6,,,,,,,,,,,,0,,,,,,,,data,,,,
07070,2012-11-13 21:00:00,3.5,,,,,,,,,,,,0,,,,,,,,data,,,,
07070,2012-11-13 23:00:00,1.7,,,,,,,,,,,,0,,,,,,,,data,,,,
07070,2012-11-14 00:00:00,0.8,,,,,,,,,,,,0,,,,,,,,data,,,,
07070,2012-11-14 01:00:00,0,,,,,,,,,,,,0,,,,,,,,data,,,,
07070,2012-11-14 02:00:00,-0.9,,,,,,,,,,,,0,,,,,,,,data,,,,
07070,2012-11-14 06:00:00,0.2,,,,,,,,,,,,0,,,,,,,,data,,,,
07070,2012-11-14 07:00:00,2.3,,,,,,,,,,,,0,,,,,,,,data,,,,
07070,2012-11-14 09:00:00,4,,,,,,,,,,,,0,,,,,,,,data,,,,
07070,2012-11-14 11:00:00,6.6,,,,,,,,,,,,0,,,,,,,,data,,,,
07070,2012-11-14 14:00:00,7.8,,,,,,,,,,,,0,,,,,,,,data,,,,
07070,2012-11-14 15:00:00,7.7,,,,,,,,,,,,0,,,,,,,,data,,,,
07070,2012-11-14 18:00:00,6.5,,,,,,,,,,,,0,,,,,,,,data,,,,
07070,2012-11-14 19:00:00,6.6,,,,,,,,,,,,0,,,,,,,,data,,,,
07070,2012-11-14 21:00:00,6.2,,,,,,,,,,,,0,,,,,,,,data,,,,
07070,2012-11-14 22:00:00,6.1,,,,,,,,,,,,0,,,,,,,,data,,,,
07070,2012-11-14 23:00:00,6,,,,,,,,,,,,0,,,,,,,,data,,,,
07070,2012-11-15 00:00:00,5.9,,,,,,,,,,,,0,,,,,,,,data,,,,
07070,2012-11-15 01:00:00,5.6,,,,,,,,,,,,0,,,,,,,,data,,,,
07070,2012-11-15 02:00:00,5,,,,,,,,,,,,0,,,,,,,,data,,,,
07070,2012-11-15 06:00:00,4.2,,,,,,,,,,,,0,,,,,,,,data,,,,
07070,2012-11-15 07:00:00,4.2,,,,,,,,,,,,0,,,,,,,,data,,,,
07070,2012-11-15 09:00:00,4.2,,,,,,,,,,,,0.2,,,,,,,,data,,,,
07070,2012-11-15 10:00:00,4.4,,,,,,,,,,,,0,,,,,,,,data,,,,
07070,2012-11-15 11:00:00,4.4,,,,,,,,,,,,0,,,,,,,,data,,,,
07070,2012-11-15 13:00:00,4.4,,,,,,,,,,,,0,,,,,,,,data,,,,
07070,2012-11-15 16:00:00,3.9,,,,,,,,,,,,0,,,,,,,,data,,,,
07070,2012-11-15 19:00:00,4,,,,,,,,,,,,0,,,,,,,,data,,,,
07070,2012-11-15 21:00:00,4,,,,,,,,,,,,0,,,,,,,,data,,,,
07070,2012-11-15 23:00:00,3.8,,,,,,,,,,,,0,,,,,,,,data,,,,
07070,2012-11-16 00:00:00,3.4,,,,,,,,,,,,0,,,,,,,,data,,,,
07070,2012-11-16 01:00:00,3.1,,,,,,,,,,,,0,,,,,,,,data,,,,
07070,2012-11-16 02:00:00,3,,,,,,,,,,,,0,,,,,,,,data,,,,
07070,2012-11-16 06:00:00,1.8,,,,,,,,,,,,0,,,,,,,,data,,,,
07070,2012-11-16 07:00:00,1.5,,,,,,,,,,,,0,,,,,,,,data,,,,
07070,2012-11-16 10:00:00,2.5,,,,,,,,,,,,0,,,,,,,,data,,,,
07070,2012-11-16 11:00:00,2.9,,,,,,,,,,,,0,,,,,,,,data,,,,
07070,2012-11-16 13:00:00,3.3,,,,,,,,,,,,0,,,,,,,,data,,,,
07070,2012-11-16 14:00:00,3.6,,,,,,,,,,,,0,,,,,,,,data,,,,
07070,2012-11-16 16:00:00,2.5,,,,,,,,,,,,0,,,,,,,,data,,,,
07070,2012-11-16 18:00:00,0.7,,,,,,,,,,,,0,,,,,,,,data,,,,
07070,2012-11-16 19:00:00,0.4,,,,,,,,,,,,0,,,,,,,,data,,,,
07070,2012-11-16 21:00:00,-0.7,,,,,,,,,,,,0,,,,,,,,data,,,,
07070,2012-11-16 22:00:00,0.5,,,,,,,,,,,,0,,,,,,,,data,,,,
07070,2012-11-16 23:00:00,1.3,,,,,,,,,,,,0,,,,,,,,data,,,,
07070,2012-11-17 00:00:00,2.6,,,,,,,,,,,,0,,,,,,,,data,,,,
07070,2012-11-17 01:00:00,3.6,,,,,,,,,,,,0,,,,,,,,data,,,,
07070,2012-11-17 02:00:00,4,,,,,,,,,,,,0,,,,,,,,data,,,,
07070,2012-11-17 07:00:00,5.7,,,,,,,,,,,,0,,,,,,,,data,,,,
07070,2012-11-17 09:00:00,6.4,,,,,,,,,,,,0,,,,,,,,data,,,,
07070,2012-11-17 13:00:00,8.7,,,,,,,,,,,,0,,,,,,,,data,,,,
07070,2012-11-17 14:00:00,9.6,,,,,,,,,,,,0,,,,,,,,data,,,,
07070,2012-11-17 15:00:00,9.8,,,,,,,,,,,,0,,,,,,,,data,,,,
07070,2012-11-17 16:00:00,9.2,,,,,,,,,,,,0,,,,,,,,data,,,,
07070,2012-11-17 18:00:00,6.4,,,,,,,,,,,,0,,,,,,,,data,,,,
07070,2012-11-17 19:00:00,6.3,,,,,,,,,,,,0,,,,,,,,data,,,,
07070,2012-11-17 21:00:00,7.3,,,,,,,,,,,,0,,,,,,,,data,,,,
07070,2012-11-17 22:00:00,7.3,,,,,,,,,,,,0,,,,,,,,data,,,,
07070,2012-11-17 23:00:00,6.7,,,,,,,,,,,,0,,,,,,,,data,,,,
07070,2012-11-18 00:00:00,6.4,,,,,,,,,,,,0,,,,,,,,data,,,,
07070,2012-11-18 01:00:00,6.1,,,,,,,,,,,,0,,,,,,,,data,,,,
07070,2012-11-18 02:00:00,5.9,,,,,,,,,,,,0,,,,,,,,data,,,,
07070,2012-11-18 06:00:00,7.1,,,,,,,,,,,,0,,,,,,,,data,,,,
07070,2012-11-18 07:00:00,7.1,,,,,,,,,,,,0,,,,,,,,data,,,,
07070,2012-11-18 09:00:00,8.2,,,,,,,,,,,,0.2,,,,,,,,data,,,,
07070,2012-11-18 10:00:00,8.5,,,,,,,,,,,,0.4,,,,,,,,data,,,,
07070,2012-11-18 13:00:00,9.3,,,,,,,,,,,,0,,,,,,,,data,,,,
07070,2012-11-18 14:00:00,9.2,,,,,,,,,,,,0.4,,,,,,,,data,,,,
07070,2012-11-18 15:00:00,9.3,,,,,,,,,,,,0,,,,,,,,data,,,,
07070,2012-11-18 16:00:00,8.5,,,,,,,,,,,,0,,,,,,,,data,,,,
07070,2012-11-18 18:00:00,6.5,,,,,,,,,,,,0,,,,,,,,data,,,,
07070,2012-11-18 19:00:00,5.5,,,,,,,,,,,,0,,,,,,,,data,,,,
07070,2012-11-18 21:00:00,2.4,,,,,,,,,,,,0.2,,,,,,,,data,,,,
07070,2012-11-18 22:00:00,3.3,,,,,,,,,,,,0,,,,,,,,data,,,,
07070,2012-11-18 23:00:00,1.9,,,,,,,,,,,,0,,,,,,,,data,,,,
07070,2012-11-19 00:00:00,3.2,,,,,,,,,,,,0,,,,,,,,data,,,,
07070,2012-11-19 01:00:00,3.2,,,,,,,,,,,,0,,,,,,,,data,,,,
07070,2012-11-19 02:00:00,3.9,,,,,,,,,,,,0,,,,,,,,data,,,,
07070,2012-11-19 07:00:00,5.8,,,,,,,,,,,,0,,,,,,,,data,,,,
07070,2012-11-19 09:00:00,8.3,,,,,,,,,,,,0,,,,,,,,data,,,,
07070,2012-11-19 10:00:00,8.8,,,,,,,,,,,,0,,,,,,,,data,,,,
07070,2012-11-19 11:00:00,9.7,,,,,,,,,,,,0,,,,,,,,data,,,,
07070,2012-11-19 13:00:00,12.7,,,,,,,,,,,,0,,,,,,,,data,,,,
07070,2012-11-19 18:00:00,7.9,,,,,,,,,,,,0,,,,,,,,data,,,,
07070,2012-11-19 19:00:00,8.5,,,,,,,,,,,,0,,,,,,,,data,,,,
07070,2012-11-19 21:00:00,8.6,,,,,,,,,,,,0,,,,,,,,data,,,,
07070,2012-11-19 22:00:00,8.4,,,,,,,,,,,,0,,,,,,,,data,,,,
07070,2012-11-20 07:00:00,5.9,,,,,,,,,,,,0,,,,,,,,data,,,,
07070,2012-11-20 09:00:00,6,,,,,,,,,,,,0,,,,,,,,data,,,,
07070,2012-11-20 21:00:00,4.2,,,,,,,,,,,,0,,,,,,,,data,,,,
07070,2012-11-20 22:00:00,4.2,,,,,,,,,,,,0,,,,,,,,data,,,,
07070,2012-11-20 23:00:00,4,,,,,,,,,,,,0,,,,,,,,data,,,,
07070,2012-11-21 02:00:00,3.7,,,,,,,,,,,,0,,,,,,,,data,,,,
07070,2012-11-21 05:00:00,3.6,,,,,,,,,,,,0,,,,,,,,data,,,,
07070,2012-11-21 07:00:00,3.4,,,,,,,,,,,,0,,,,,,,,data,,,,
07070,2012-11-21 09:00:00,4.1,,,,,,,,,,,,0,,,,,,,,data,,,,
07070,2012-11-21 11:00:00,5.6,,,,,,,,,,,,0,,,,,,,,data,,,,
07070,2012-11-21 13:00:00,7.1,,,,,,,,,,,,0.2,,,,,,,,data,,,,
07070,2012-11-21 14:00:00,8.4,,,,,,,,,,,,0.2,,,,,,,,data,,,,
07070,2012-11-21 15:00:00,9.3,,,,,,,,,,,,0,,,,,,,,data,,,,
07070,2012-11-21 18:00:00,10.5,,,,,,,,,,,,0,,,,,,,,data,,,,
07070,2012-11-21 19:00:00,9.6,,,,,,,,,,,,0,,,,,,,,data,,,,
07070,2012-11-21 21:00:00,7.5,,,,,,,,,,,,0,,,,,,,,data,,,,
07070,2012-11-21 22:00:00,6.9,,,,,,,,,,,,0,,,,,,,,data,,,,
07070,2012-11-21 23:00:00,6,,,,,,,,,,,,0,,,,,,,,data,,,,
07070,2012-11-22 00:00:00,4.2,,,,,,,,,,,,0,,,,,,,,data,,,,
07070,2012-11-22 01:00:00,3.1,,,,,,,,,,,,0,,,,,,,,data,,,,
07070,2012-11-22 02:00:00,3.5,,,,,,,,,,,,0,,,,,,,,data,,,,
07070,2012-11-22 03:00:00,3.2,,,,,,,,,,,,0,,,,,,,,data,,,,
07070,2012-11-22 04:00:00,2.5,,,,,,,,,,,,0,,,,,,,,data,,,,
07070,2012-11-22 05:00:00,2.5,,,,,,,,,,,,0,,,,,,,,data,,,,
07070,2012-11-22 07:00:00,2,,,,,,,,,,,,0,,,,,,,,data,,,,
07070,2012-11-22 09:00:00,3.9,,,,,,,,,,,,0,,,,,,,,data,,,,
07070,2012-11-22 13:00:00,6.2,,,,,,,,,,,,0,,,,,,,,data,,,,
07070,2012-11-22 14:00:00,6.7,,,,,,,,,,,,0,,,,,,,,data,,,,
07070,2012-11-22 15:00:00,7.2,,,,,,,,,,,,0,,,,,,,,data,,,,
07070,2012-11-22 16:00:00,6.6,,,,,,,,,,,,0,,,,,,,,data,,,,
07070,2012-11-22 19:00:00,6.1,,,,,,,,,,,,0,,,,,,,,data,,,,
07070,2012-11-22 21:00:00,6.4,,,,,,,,,,,,0,,,,,,,,data,,,,
07070,2012-11-22 22:00:00,7.1,,,,,,,,,,,,0,,,,,,,,data,,,,
07070,2012-11-22 23:00:00,6.6,,,,,,,,,,,,0,,,,,,,,data,,,,
07070,2012-11-23 00:00:00,6.2,,,,,,,,,,,,0,,,,,,,,data,,,,
07070,2012-11-23 02:00:00,5.9,,,,,,,,,,,,0,,,,,,,,data,,,,
07070,2012-11-23 03:00:00,5.3,,,,,,,,,,,,0,,,,,,,,data,,,,
07070,2012-11-23 04:00:00,5.5,,,,,,,,,,,,0,,,,,,,,data,,,,
07070,2012-11-23 05:00:00,5.6,,,,,,,,,,,,0,,,,,,,,data,,,,
07070,2012-11-23 06:00:00,6.1,,,,,,,,,,,,0,,,,,,,,data,,,,
07070,2012-11-23 07:00:00,6.3,,,,,,,,,,,,0,,,,,,,,data,,,,
07070,2012-11-23 09:00:00,7.5,,,,,,,,,,,,0,,,,,,,,data,,,,
07070,2012-11-23 10:00:00,8.3,,,,,,,,,,,,0,,,,,,,,data,,,,
07070,2012-11-23 11:00:00,9.1,,,,,,,,,,,,0,,,,,,,,data,,,,
07070,2012-11-23 14:00:00,9.8,,,,,,,,,,,,0.8,,,,,,,,data,,,,
07070,2012-11-23 15:00:00,9.4,,,,,,,,,,,,0.8,,,,,,,,data,,,,
07070,2012-11-23 16:00:00,9.3,,,,,,,,,,,,0.2,,,,,,,,data,,,,
07070,2012-11-23 18:00:00,8.6,,,,,,,,,,,,0.4,,,,,,,,data,,,,
07070,2012-11-23 19:00:00,9.1,,,,,,,,,,,,0.2,,,,,,,,data,,,,
07070,2012-11-23 21:00:00,10,,,,,,,,,,,,0,,,,,,,,data,,,,
07070,2012-11-23 22:00:00,9.7,,,,,,,,,,,,0,,,,,,,,data,,,,
07070,2012-11-23 23:00:00,9.7,,,,,,,,,,,,0,,,,,,,,data,,,,
07070,2012-11-24 00:00:00,9.8,,,,,,,,,,,,0,,,,,,,,data,,,,
07070,2012-11-24 01:00:00,8.7,,,,,,,,,,,,0,,,,,,,,data,,,,
07070,2012-11-24 03:00:00,7.9,,,,,,,,,,,,0,,,,,,,,data,,,,
07070,2012-11-24 04:00:00,7.2,,,,,,,,,,,,0,,,,,,,,data,,,,
07070,2012-11-24 05:00:00,6.8,,,,,,,,,,,,0,,,,,,,,data,,,,
07070,2012-11-24 06:00:00,6.1,,,,,,,,,,,,0,,,,,,,,data,,,,
07070,2012-11-24 07:00:00,5.1,,,,,,,,,,,,0,,,,,,,,data,,,,
07070,2012-11-24 09:00:00,7.8,,,,,,,,,,,,0,,,,,,,,data,,,,
07070,2012-11-24 10:00:00,9.2,,,,,,,,,,,,0,,,,,,,,data,,,,
07070,2012-11-24 11:00:00,9.5,,,,,,,,,,,,0,,,,,,,,data,,,,
07070,2012-11-24 14:00:00,9.9,,,,,,,,,,,,0,,,,,,,,data,,,,
07070,2012-11-24 15:00:00,9.6,,,,,,,,,,,,0,,,,,,,,data,,,,
07070,2012-11-24 16:00:00,9.6,,,,,,,,,,,,0,,,,,,,,data,,,,
07070,2012-11-24 18:00:00,10.1,,,,,,,,,,,,0,,,,,,,,data,,,,
07070,2012-11-24 21:00:00,11.8,,,,,,,,,,,,0,,,,,,,,data,,,,
07070,2012-11-24 22:00:00,11.6,,,,,,,,,,,,0,,,,,,,,data,,,,
07070,2012-11-24 23:00:00,12,,,,,,,,,,,,0,,,,,,,,data,,,,
07070,2012-11-25 00:00:00,12.9,,,,,,,,,,,,0,,,,,,,,data,,,,
07070,2012-11-25 03:00:00,13.5,,,,,,,,,,,,0,,,,,,,,data,,,,
07070,2012-11-25 04:00:00,13.1,,,,,,,,,,,,0,,,,,,,,data,,,,
07070,2012-11-25 05:00:00,12.4,,,,,,,,,,,,0,,,,,,,,data,,,,
07070,2012-11-25 07:00:00,10.7,,,,,,,,,,,,0,,,,,,,,data,,,,
07070,2012-11-25 09:00:00,10.5,,,,,,,,,,,,0,,,,,,,,data,,,,
07070,2012-11-25 10:00:00,9.8,,,,,,,,,,,,0,,,,,,,,data,,,,
07070,2012-11-25 11:00:00,9.8,,,,,,,,,,,,0,,,,,,,,data,,,,
07070,2012-11-25 13:00:00,11.2,,,,,,,,,,,,0,,,,,,,,data,,,,
07070,2012-11-25 14:00:00,11.6,,,,,,,,,,,,0,,,,,,,,data,,,,
07070,2012-11-25 18:00:00,6.3,,,,,,,,,,,,0,,,,,,,,data,,,,
07070,2012-11-25 21:00:00,5.9,,,,,,,,,,,,0,,,,,,,,data,,,,
07070,2012-11-25 22:00:00,5.5,,,,,,,,,,,,0,,,,,,,,data,,,,
07070,2012-11-25 23:00:00,5.4,,,,,,,,,,,,0.2,,,,,,,,data,,,,
07070,2012-11-26 02:00:00,4.9,,,,,,,,,,,,0,,,,,,,,data,,,,
07070,2012-11-26 03:00:00,7,,,,,,,,,,,,0,,,,,,,,data,,,,
07070,2012-11-26 04:00:00,7.5,,,,,,,,,,,,0,,,,,,,,data,,,,
07070,2012-11-26 05:00:00,8,,,,,,,,,,,,0,,,,,,,,data,,,,
07070,2012-11-26 06:00:00,7.8,,,,,,,,,,,,0,,,,,,,,data,,,,
07070,2012-11-26 07:00:00,8.2,,,,,,,,,,,,0,,,,,,,,data,,,,
07070,2012-11-26 09:00:00,10,,,,,,,,,,,,0,,,,,,,,data,,,,
07070,2012-11-26 10:00:00,11.3,,,,,,,,,,,,0,,,,,,,,data,,,,
07070,2012-11-26 11:00:00,12.1,,,,,,,,,,,,0,,,,,,,,data,,,,
07070,2012-11-26 13:00:00,12,,,,,,,,,,,,0,,,,,,,,data,,,,
07070,2012-11-26 14:00:00,11.8,,,,,,,,,,,,0,,,,,,,,data,,,,
07070,2012-11-26 15:00:00,11.2,,,,,,,,,,,,0,,,,,,,,data,,,,
07070,2012-11-26 18:00:00,9.5,,,,,,,,,,,,0,,,,,,,,data,,,,
07070,2012-11-26 19:00:00,9.2,,,,,,,,,,,,0,,,,,,,,data,,,,
07070,2012-11-26 21:00:00,8.6,,,,,,,,,,,,0,,,,,,,,data,,,,
07070,2012-11-26 22:00:00,8.4,,,,,,,,,,,,0,,,,,,,,data,,,,
07070,2012-11-26 23:00:00,8.8,,,,,,,,,,,,0,,,,,,,,data,,,,
07070,2012-11-27 00:00:00,8.7,,,,,,,,,,,,0,,,,,,,,data,,,,
07070,2012-11-27 01:00:00,8.3,,,,,,,,,,,,0,,,,,,,,data,,,,
07070,2012-11-27 02:00:00,8.2,,,,,,,,,,,,0,,,,,,,,data,,,,
07070,2012-11-27 04:00:00,7.6,,,,,,,,,,,,0,,,,,,,,data,,,,
07070,2012-11-27 05:00:00,7.6,,,,,,,,,,,,0,,,,,,,,data,,,,
07070,2012-11-27 06:00:00,7.5,,,,,,,,,,,,0,,,,,,,,data,,,,
07070,2012-11-27 07:00:00,7.3,,,,,,,,,,,,0,,,,,,,,data,,,,
07070,2012-11-27 09:00:00,7.7,,,,,,,,,,,,0,,,,,,,,data,,,,
07070,2012-11-27 13:00:00,8.8,,,,,,,,,,,,0,,,,,,,,data,,,,
07070,2012-11-27 14:00:00,9.3,,,,,,,,,,,,0,,,,,,,,data,,,,
07070,2012-11-27 16:00:00,7.8,,,,,,,,,,,,0,,,,,,,,data,,,,
07070,2012-11-27 19:00:00,6.1,,,,,,,,,,,,0,,,,,,,,data,,,,
07070,2012-11-27 21:00:00,3.6,,,,,,,,,,,,0,,,,,,,,data,,,,
07070,2012-11-27 22:00:00,4.3,,,,,,,,,,,,0,,,,,,,,data,,,,
07070,2012-11-27 23:00:00,4.2,,,,,,,,,,,,0,,,,,,,,data,,,,
07070,2012-11-28 00:00:00,3.8,,,,,,,,,,,,0,,,,,,,,data,,,,
07070,2012-11-28 01:00:00,2.4,,,,,,,,,,,,0,,,,,,,,data,,,,
07070,2012-11-28 02:00:00,1.1,,,,,,,,,,,,0,,,,,,,,data,,,,
07070,2012-11-28 03:00:00,2.5,,,,,,,,,,,,0,,,,,,,,data,,,,
07070,2012-11-28 04:00:00,2.9,,,,,,,,,,,,0,,,,,,,,data,,,,
07070,2012-11-28 05:00:00,3.3,,,,,,,,,,,,0,,,,,,,,data,,,,
07070,2012-11-28 06:00:00,3.8,,,,,,,,,,,,0.2,,,,,,,,data,,,,
07070,2012-11-28 07:00:00,4.1,,,,,,,,,,,,0,,,,,,,,data,,,,
07070,2012-11-28 09:00:00,5.3,,,,,,,,,,,,0,,,,,,,,data,,,,
07070,2012-11-28 14:00:00,7.6,,,,,,,,,,,,0,,,,,,,,data,,,,
07070,2012-11-28 16:00:00,6.6,,,,,,,,,,,,0,,,,,,,,data,,,,
07070,2012-11-28 18:00:00,5.8,,,,,,,,,,,,0,,,,,,,,data,,,,
07070,2012-11-28 19:00:00,5.1,,,,,,,,,,,,0,,,,,,,,data,,,,
07070,2012-11-28 21:00:00,5.3,,,,,,,,,,,,0,,,,,,,,data,,,,
07070,2012-11-28 22:00:00,5.4,,,,,,,,,,,,0,,,,,,,,data,,,,
07070,2012-11-28 23:00:00,5.7,,,,,,,,,,,,0,,,,,,,,data,,,,
07070,2012-11-29 00:00:00,5.8,,,,,,,,,,,,0,,,,,,,,data,,,,
07070,2012-11-29 01:00:00,5.7,,,,,,,,,,,,0,,,,,,,,data,,,,
07070,2012-11-29 02:00:00,5.5,,,,,,,,,,,,0,,,,,,,,data,,,,
07070,2012-11-29 03:00:00,5.5,,,,,,,,,,,,0,,,,,,,,data,,,,
07070,2012-11-29 04:00:00,5.6,,,,,,,,,,,,0,,,,,,,,data,,,,
07070,2012-11-29 05:00:00,4.6,,,,,,,,,,,,0,,,,,,,,data,,,,
07070,2012-11-29 06:00:00,4.3,,,,,,,,,,,,0,,,,,,,,data,,,,
07070,2012-11-29 07:00:00,4.2,,,,,,,,,,,,0,,,,,,,,data,,,,
07070,2012-11-29 09:00:00,4.4,,,,,,,,,,,,0,,,,,,,,data,,,,
07070,2012-11-29 11:00:00,5.6,,,,,,,,,,,,0,,,,,,,,data,,,,
07070,2012-11-29 13:00:00,6,,,,,,,,,,,,0,,,,,,,,data,,,,
07070,2012-11-29 14:00:00,6.5,,,,,,,,,,,,0,,,,,,,,data,,,,
07070,2012-11-29 16:00:00,3.8,,,,,,,,,,,,0,,,,,,,,data,,,,
07070,2012-11-29 18:00:00,1.5,,,,,,,,,,,,0,,,,,,,,data,,,,
07070,2012-11-29 21:00:00,2.5,,,,,,,,,,,,0,,,,,,,,data,,,,
07070,2012-11-29 22:00:00,2.6,,,,,,,,,,,,0,,,,,,,,data,,,,
07070,2012-11-29 23:00:00,2.6,,,,,,,,,,,,0,,,,,,,,data,,,,
07070,2012-11-30 00:00:00,2.4,,,,,,,,,,,,0,,,,,,,,data,,,,
07070,2012-11-30 02:00:00,1.8,,,,,,,,,,,,0,,,,,,,,data,,,,
07070,2012-11-30 03:00:00,1.8,,,,,,,,,,,,0,,,,,,,,data,,,,
07070,2012-11-30 04:00:00,1.6,,,,,,,,,,,,0,,,,,,,,data,,,,
07070,2012-11-30 05:00:00,1.5,,,,,,,,,,,,0,,,,,,,,data,,,,
07070,2012-11-30 06:00:00,1.5,,,,,,,,,,,,0,,,,,,,,data,,,,
07070,2012-11-30 07:00:00,1.4,,,,,,,,,,,,0,,,,,,,,data,,,,
07070,2012-11-30 09:00:00,1.6,,,,,,,,,,,,0,,,,,,,,data,,,,
07070,2012-11-30 10:00:00,1.6,,,,,,,,,,,,0,,,,,,,,data,,,,
07070,2012-11-30 11:00:00,1.7,,,,,,,,,,,,0,,,,,,,,data,,,,
07070,2012-11-30 13:00:00,2.7,,,,,,,,,,,,0,,,,,,,,data,,,,
07070,2012-11-30 14:00:00,2.2,,,,,,,,,,,,0,,,,,,,,data,,,,
07070,2012-11-30 16:00:00,1.5,,,,,,,,,,,,0,,,,,,,,data,,,,
07070,2012-11-30 18:00:00,1.5,,,,,,,,,,,,0,,,,,,,,data,,,,
07070,2012-11-30 19:00:00,1.2,,,,,,,,,,,,0,,,,,,,,data,,,,
07070,2012-11-30 21:00:00,0.9,,,,,,,,,,,,0,,,,,,,,data,,,,
07070,2012-11-30 22:00:00,0.6,,,,,,,,,,,,0,,,,,,,,data,,,,
07070,2012-12-01 00:00:00,0.2,,,,,,,,,,,,0,,,,,,,,data,,,,
07070,2012-12-01 02:00:00,-0.2,,,,,,,,,,,,0,,,,,,,,data,,,,
07070,2012-12-01 03:00:00,-0.4,,,,,,,,,,,,0,,,,,,,,data,,,,
07070,2012-12-01 04:00:00,-0.6,,,,,,,,,,,,0,,,,,,,,data,,,,
07070,2012-12-01 05:00:00,-0.8,,,,,,,,,,,,0,,,,,,,,data,,,,
07070,2012-12-01 06:00:00,-0.5,,,,,,,,,,,,0,,,,,,,,data,,,,
07070,2012-12-01 07:00:00,-1,,,,,,,,,,,,0,,,,,,,,data,,,,
07070,2012-12-01 09:00:00,-0.9,,,,,,,,,,,,0,,,,,,,,data,,,,
07070,2012-12-01 10:00:00,-0.7,,,,,,,,,,,,0,,,,,,,,data,,,,
07070,2012-12-01 11:00:00,-0.2,,,,,,,,,,,,0,,,,,,,,data,,,,
07070,2012-12-01 13:00:00,0.9,,,,,,,,,,,,0,,,,,,,,data,,,,
07070,2012-12-01 14:00:00,1.4,,,,,,,,,,,,0,,,,,,,,data,,,,
07070,2012-12-01 15:00:00,2,,,,,,,,,,,,0,,,,,,,,data,,,,
07070,2012-12-01 16:00:00,1.9,,,,,,,,,,,,0,,,,,,,,data,,,,
07070,2012-12-01 18:00:00,1.5,,,,,,,,,,,,0,,,,,,,,data,,,,
07070,2012-12-01 19:00:00,1.7,,,,,,,,,,,,0,,,,,,,,data,,,,
07070,2012-12-01 21:00:00,2.2,,,,,,,,,,,,1.2,,,,,,,,data,,,,
07070,2012-12-01 22:00:00,2.4,,,,,,,,,,,,0,,,,,,,,data,,,,
07070,2012-12-01 23:00:00,2.5,,,,,,,,,,,,0,,,,,,,,data,,,,
07070,2012-12-02 00:00:00,1.7,,,,,,,,,,,,0,,,,,,,,data,,,,
07070,2012-12-02 01:00:00,2.3,,,,,,,,,,,,0,,,,,,,,data,,,,
07070,2012-12-02 02:00:00,2.3,,,,,,,,,,,,0,,,,,,,,data,,,,
07070,2012-12-02 03:00:00,2.1,,,,,,,,,,,,0,,,,,,,,data,,,,
07070,2012-12-02 04:00:00,1.3,,,,,,,,,,,,0,,,,,,,,data,,,,
07070,2012-12-02 05:00:00,1.1,,,,,,,,,,,,0,,,,,,,,data,,,,
07070,2012-12-02 06:00:00,0.4,,,,,,,,,,,,0,,,,,,,,data,,,,
07070,2012-12-02 07:00:00,0.3,,,,,,,,,,,,0,,,,,,,,data,,,,
07070,2012-12-02 09:00:00,1.6,,,,,,,,,,,,0,,,,,,,,data,,,,
07070,2012-12-02 10:00:00,2.4,,,,,,,,,,,,0,,,,,,,,data,,,,
07070,2012-12-02 11:00:00,3.9,,,,,,,,,,,,0,,,,,,,,data,,,,
07070,2012-12-02 13:00:00,4.8,,,,,,,,,,,,0,,,,,,,,data,,,,
07070,2012-12-02 14:00:00,5,,,,,,,,,,,,0,,,,,,,,data,,,,
07070,2012-12-02 15:00:00,3.8,,,,,,,,,,,,0,,,,,,,,data,,,,
07070,2012-12-02 16:00:00,2.2,,,,,,,,,,,,0,,,,,,,,data,,,,
07070,2012-12-02 18:00:00,-1.2,,,,,,,,,,,,0,,,,,,,,data,,,,
07070,2012-12-02 19:00:00,-0.9,,,,,,,,,,,,0,,,,,,,,data,,,,
07070,2012-12-02 21:00:00,-1.4,,,,,,,,,,,,0,,,,,,,,data,,,,
07070,2012-12-02 22:00:00,-1.6,,,,,,,,,,,,0,,,,,,,,data,,,,
07070,2012-12-02 23:00:00,-2.3,,,,,,,,,,,,0,,,,,,,,data,,,,
07070,2012-12-03 00:00:00,-2.9,,,,,,,,,,,,0,,,,,,,,data,,,,
07070,2012-12-03 01:00:00,-2.8,,,,,,,,,,,,0,,,,,,,,data,,,,
07070,2012-12-03 02:00:00,-2,,,,,,,,,,,,0,,,,,,,,data,,,,
07070,2012-12-03 03:00:00,-0.9,,,,,,,,,,,,0,,,,,,,,data,,,,
07070,2012-12-03 04:00:00,-0.3,,,,,,,,,,,,0,,,,,,,,data,,,,
07070,2012-12-03 05:00:00,0.5,,,,,,,,,,,,0,,,,,,,,data,,,,
07070,2012-12-03 06:00:00,1,,,,,,,,,,,,0,,,,,,,,data,,,,
07070,2012-12-03 07:00:00,0.1,,,,,,,,,,,,0,,,,,,,,data,,,,
07070,2012-12-03 09:00:00,1.4,,,,,,,,,,,,0,,,,,,,,data,,,,
07070,2012-12-03 11:00:00,3.2,,,,,,,,,,,,0,,,,,,,,data,,,,
07070,2012-12-03 13:00:00,5.7,,,,,,,,,,,,0,,,,,,,,data,,,,
07070,2012-12-03 16:00:00,9.4,,,,,,,,,,,,0,,,,,,,,data,,,,
07070,2012-12-03 19:00:00,7.4,,,,,,,,,,,,0,,,,,,,,data,,,,
07070,2012-12-03 21:00:00,6.5,,,,,,,,,,,,0,,,,,,,,data,,,,
07070,2012-12-03 22:00:00,6.4,,,,,,,,,,,,0.2,,,,,,,,data,,,,
07070,2012-12-03 23:00:00,5.1,,,,,,,,,,,,0.4,,,,,,,,data,,,,
07070,2012-12-04 00:00:00,4.7,,,,,,,,,,,,0.2,,,,,,,,data,,,,
07070,2012-12-04 01:00:00,5.2,,,,,,,,,,,,2.4,,,,,,,,data,,,,
07070,2012-12-04 02:00:00,4.3,,,,,,,,,,,,4.1,,,,,,,,data,,,,
07070,2012-12-04 03:00:00,2.5,,,,,,,,,,,,2.4,,,,,,,,data,,,,
07070,2012-12-04 09:00:00,3.6,,,,,,,,,,,,0,,,,,,,,data,,,,
07070,2012-12-04 11:00:00,4.7,,,,,,,,,,,,0,,,,,,,,data,,,,
07070,2012-12-04 14:00:00,5.8,,,,,,,,,,,,0,,,,,,,,data,,,,
07070,2012-12-04 16:00:00,5,,,,,,,,,,,,0,,,,,,,,data,,,,
07070,2012-12-04 18:00:00,4.8,,,,,,,,,,,,0,,,,,,,,data,,,,
07070,2012-12-04 19:00:00,4.4,,,,,,,,,,,,0.2,,,,,,,,data,,,,
07070,2012-12-04 21:00:00,3.1,,,,,,,,,,,,0,,,,,,,,data,,,,
07070,2012-12-04 22:00:00,3.3,,,,,,,,,,,,0,,,,,,,,data,,,,
07070,2012-12-04 23:00:00,2.7,,,,,,,,,,,,0,,,,,,,,data,,,,
07070,2012-12-05 00:00:00,2.4,,,,,,,,,,,,0,,,,,,,,data,,,,
07070,2012-12-05 01:00:00,2.5,,,,,,,,,,,,0,,,,,,,,data,,,,
07070,2012-12-05 02:00:00,2.5,,,,,,,,,,,,0,,,,,,,,data,,,,
07070,2012-12-05 03:00:00,2.3,,,,,,,,,,,,0,,,,,,,,data,,,,
07070,2012-12-05 04:00:00,2.2,,,,,,,,,,,,0,,,,,,,,data,,,,
07070,2012-12-05 05:00:00,2.4,,,,,,,,,,,,0,,,,,,,,data,,,,
07070,2012-12-05 06:00:00,2.6,,,,,,,,,,,,0,,,,,,,,data,,,,
07070,2012-12-05 07:00:00,2.5,,,,,,,,,,,,0,,,,,,,,data,,,,
07070,2012-12-05 08:00:00,2.6,,,,,,,,,,,,0,,,,,,,,data,,,,
07070,2012-12-05 09:00:00,2.7,,,,,,,,,,,,0,,,,,,,,data,,,,
07070,2012-12-05 10:00:00,3.1,,,,,,,,,,,,0,,,,,,,,data,,,,
07070,2012-12-05 11:00:00,3.8,,,,,,,,,,,,0,,,,,,,,data,,,,
07070,2012-12-05 13:00:00,4.1,,,,,,,,,,,,0,,,,,,,,data,,,,
07070,2012-12-05 16:00:00,3.2,,,,,,,,,,,,0,,,,,,,,data,,,,
07070,2012-12-05 18:00:00,2.7,,,,,,,,,,,,0.8,,,,,,,,data,,,,
07070,2012-12-05 21:00:00,2.1,,,,,,,,,,,,0,,,,,,,,data,,,,
07070,2012-12-05 22:00:00,1.7,,,,,,,,,,,,0,,,,,,,,data,,,,
07070,2012-12-05 23:00:00,1.7,,,,,,,,,,,,0,,,,,,,,data,,,,
07070,2012-12-06 00:00:00,1.5,,,,,,,,,,,,0,,,,,,,,data,,,,
07070,2012-12-06 01:00:00,1.4,,,,,,,,,,,,0,,,,,,,,data,,,,
07070,2012-12-06 02:00:00,1,,,,,,,,,,,,0,,,,,,,,data,,,,
07070,2012-12-06 03:00:00,1.3,,,,,,,,,,,,0,,,,,,,,data,,,,
07070,2012-12-06 04:00:00,0.9,,,,,,,,,,,,0,,,,,,,,data,,,,
07070,2012-12-06 05:00:00,0.4,,,,,,,,,,,,0,,,,,,,,data,,,,
07070,2012-12-06 06:00:00,0.4,,,,,,,,,,,,0,,,,,,,,data,,,,
07070,2012-12-06 07:00:00,-0.2,,,,,,,,,,,,0,,,,,,,,data,,,,
07070,2012-12-06 09:00:00,1,,,,,,,,,,,,0,,,,,,,,data,,,,
07070,2012-12-06 10:00:00,2,,,,,,,,,,,,0,,,,,,,,data,,,,
07070,2012-12-06 11:00:00,2.9,,,,,,,,,,,,0.2,,,,,,,,data,,,,
07070,2012-12-06 13:00:00,3,,,,,,,,,,,,0,,,,,,,,data,,,,
07070,2012-12-06 14:00:00,2.6,,,,,,,,,,,,0,,,,,,,,data,,,,
07070,2012-12-06 15:00:00,2.2,,,,,,,,,,,,0,,,,,,,,data,,,,
07070,2012-12-06 16:00:00,0.7,,,,,,,,,,,,0,,,,,,,,data,,,,
07070,2012-12-06 18:00:00,0.3,,,,,,,,,,,,0,,,,,,,,data,,,,
07070,2012-12-06 19:00:00,0.9,,,,,,,,,,,,0,,,,,,,,data,,,,
07070,2012-12-06 21:00:00,0.8,,,,,,,,,,,,0,,,,,,,,data,,,,
07070,2012-12-06 22:00:00,0.8,,,,,,,,,,,,0,,,,,,,,data,,,,
07070,2012-12-06 23:00:00,0.4,,,,,,,,,,,,0,,,,,,,,data,,,,
07070,2012-12-07 00:00:00,1.2,,,,,,,,,,,,0,,,,,,,,data,,,,
07070,2012-12-07 01:00:00,0.6,,,,,,,,,,,,0,,,,,,,,data,,,,
07070,2012-12-07 02:00:00,0.7,,,,,,,,,,,,0,,,,,,,,data,,,,
07070,2012-12-07 03:00:00,0.8,,,,,,,,,,,,0,,,,,,,,data,,,,
07070,2012-12-07 04:00:00,1,,,,,,,,,,,,0,,,,,,,,data,,,,
07070,2012-12-07 05:00:00,-0.1,,,,,,,,,,,,0,,,,,,,,data,,,,
07070,2012-12-07 06:00:00,-0.1,,,,,,,,,,,,0,,,,,,,,data,,,,
07070,2012-12-07 07:00:00,0,,,,,,,,,,,,0,,,,,,,,data,,,,
07070,2012-12-07 09:00:00,0.5,,,,,,,,,,,,0,,,,,,,,data,,,,
07070,2012-12-07 13:00:00,1.8,,,,,,,,,,,,0.6,,,,,,,,data,,,,
07070,2012-12-07 14:00:00,2.1,,,,,,,,,,,,0.4,,,,,,,,data,,,,
07070,2012-12-07 15:00:00,2,,,,,,,,,,,,0.2,,,,,,,,data,,,,
07070,2012-12-07 16:00:00,1.6,,,,,,,,,,,,1.4,,,,,,,,data,,,,
07070,2012-12-07 18:00:00,0.3,,,,,,,,,,,,0.2,,,,,,,,data,,,,
07070,2012-12-07 19:00:00,0.7,,,,,,,,,,,,0.2,,,,,,,,data,,,,
07070,2012-12-07 21:00:00,0.4,,,,,,,,,,,,0.2,,,,,,,,data,,,,
07070,2012-12-07 22:00:00,0.6,,,,,,,,,,,,0.2,,,,,,,,data,,,,
07070,2012-12-07 23:00:00,0.7,,,,,,,,,,,,0.2,,,,,,,,data,,,,
07070,2012-12-08 00:00:00,0.8,,,,,,,,,,,,0.3,,,,,,,,data,,,,
07070,2012-12-08 01:00:00,0.8,,,,,,,,,,,,0,,,,,,,,data,,,,
07070,2012-12-08 02:00:00,1,,,,,,,,,,,,0.2,,,,,,,,data,,,,
07070,2012-12-08 03:00:00,0.9,,,,,,,,,,,,0,,,,,,,,data,,,,
07070,2012-12-08 04:00:00,1,,,,,,,,,,,,0.2,,,,,,,,data,,,,
07070,2012-12-08 05:00:00,0.9,,,,,,,,,,,,0,,,,,,,,data,,,,
07070,2012-12-08 06:00:00,0.8,,,,,,,,,,,,0,,,,,,,,data,,,,
07070,2012-12-08 07:00:00,1.1,,,,,,,,,,,,0,,,,,,,,data,,,,
07070,2012-12-08 09:00:00,1.4,,,,,,,,,,,,0,,,,,,,,data,,,,
07070,2012-12-08 10:00:00,1.6,,,,,,,,,,,,0.2,,,,,,,,data,,,,
07070,2012-12-08 11:00:00,1.7,,,,,,,,,,,,0,,,,,,,,data,,,,
07070,2012-12-08 13:00:00,1.7,,,,,,,,,,,,0,,,,,,,,data,,,,
07070,2012-12-08 14:00:00,1,,,,,,,,,,,,0,,,,,,,,data,,,,
07070,2012-12-08 15:00:00,0.5,,,,,,,,,,,,0,,,,,,,,data,,,,
07070,2012-12-08 16:00:00,0.1,,,,,,,,,,,,0,,,,,,,,data,,,,
07070,2012-12-08 18:00:00,-2.1,,,,,,,,,,,,0,,,,,,,,data,,,,
07070,2012-12-08 19:00:00,-2.8,,,,,,,,,,,,0,,,,,,,,data,,,,
07070,2012-12-08 21:00:00,-1,,,,,,,,,,,,0,,,,,,,,data,,,,
07070,2012-12-08 22:00:00,-1.2,,,,,,,,,,,,0,,,,,,,,data,,,,
07070,2012-12-08 23:00:00,-1.2,,,,,,,,,,,,0,,,,,,,,data,,,,
07070,2012-12-09 00:00:00,-1.6,,,,,,,,,,,,0,,,,,,,,data,,,,
07070,2012-12-09 01:00:00,-1.8,,,,,,,,,,,,0,,,,,,,,data,,,,
07070,2012-12-09 02:00:00,-1.8,,,,,,,,,,,,0,,,,,,,,data,,,,
07070,2012-12-09 03:00:00,-1.3,,,,,,,,,,,,0,,,,,,,,data,,,,
07070,2012-12-09 04:00:00,-0.7,,,,,,,,,,,,0,,,,,,,,data,,,,
07070,2012-12-09 05:00:00,-0.3,,,,,,,,,,,,0,,,,,,,,data,,,,
07070,2012-12-09 06:00:00,0.3,,,,,,,,,,,,0,,,,,,,,data,,,,
07070,2012-12-09 07:00:00,1.2,,,,,,,,,,,,0,,,,,,,,data,,,,
07070,2012-12-09 08:00:00,1.7,,,,,,,,,,,,0,,,,,,,,data,,,,
07070,2012-12-09 09:00:00,1.8,,,,,,,,,,,,0.2,,,,,,,,data,,,,
07070,2012-12-09 10:00:00,2.7,,,,,,,,,,,,0,,,,,,,,data,,,,
07070,2012-12-09 11:00:00,3.3,,,,,,,,,,,,0,,,,,,,,data,,,,
07070,2012-12-09 13:00:00,4.1,,,,,,,,,,,,0,,,,,,,,data,,,,
07070,2012-12-09 14:00:00,4.3,,,,,,,,,,,,0,,,,,,,,data,,,,
07070,2012-12-09 15:00:00,4.4,,,,,,,,,,,,0,,,,,,,,data,,,,
07070,2012-12-09 18:00:00,5,,,,,,,,,,,,0,,,,,,,,data,,,,
07070,2012-12-09 19:00:00,6.1,,,,,,,,,,,,0,,,,,,,,data,,,,
07070,2012-12-09 21:00:00,5.3,,,,,,,,,,,,0.2,,,,,,,,data,,,,
07070,2012-12-09 22:00:00,5.3,,,,,,,,,,,,0,,,,,,,,data,,,,
07070,2012-12-09 23:00:00,5.1,,,,,,,,,,,,0,,,,,,,,data,,,,
07070,2012-12-10 00:00:00,5.2,,,,,,,,,,,,0,,,,,,,,data,,,,
07070,2012-12-10 01:00:00,4.8,,,,,,,,,,,,0,,,,,,,,data,,,,
07070,2012-12-10 02:00:00,4,,,,,,,,,,,,0,,,,,,,,data,,,,
07070,2012-12-10 03:00:00,3.4,,,,,,,,,,,,0,,,,,,,,data,,,,
07070,2012-12-10 04:00:00,2.8,,,,,,,,,,,,0,,,,,,,,data,,,,
07070,2012-12-10 05:00:00,3.2,,,,,,,,,,,,0,,,,,,,,data,,,,
07070,2012-12-10 06:00:00,3.9,,,,,,,,,,,,0,,,,,,,,data,,,,
07070,2012-12-10 07:00:00,3.8,,,,,,,,,,,,0,,,,,,,,data,,,,
07070,2012-12-10 13:00:00,5.5,,,,,,,,,,,,0,,,,,,,,data,,,,
07070,2012-12-10 14:00:00,5.3,,,,,,,,,,,,0,,,,,,,,data,,,,
07070,2012-12-10 15:00:00,4.8,,,,,,,,,,,,0,,,,,,,,data,,,,
07070,2012-12-10 16:00:00,3.7,,,,,,,,,,,,0.4,,,,,,,,data,,,,
07070,2012-12-10 18:00:00,3.4,,,,,,,,,,,,0,,,,,,,,data,,,,
07070,2012-12-10 19:00:00,3.2,,,,,,,,,,,,0,,,,,,,,data,,,,
07070,2012-12-10 22:00:00,1.9,,,,,,,,,,,,0,,,,,,,,data,,,,
07070,2012-12-10 23:00:00,0.5,,,,,,,,,,,,0,,,,,,,,data,,,,
07070,2012-12-11 00:00:00,0,,,,,,,,,,,,0,,,,,,,,data,,,,
07070,2012-12-11 01:00:00,-0.5,,,,,,,,,,,,0,,,,,,,,data,,,,
07070,2012-12-11 03:00:00,-1,,,,,,,,,,,,0,,,,,,,,data,,,,
07070,2012-12-11 04:00:00,-1,,,,,,,,,,,,0,,,,,,,,data,,,,
07070,2012-12-11 05:00:00,-1.2,,,,,,,,,,,,0,,,,,,,,data,,,,
07070,2012-12-11 06:00:00,-1.2,,,,,,,,,,,,0,,,,,,,,data,,,,
07070,2012-12-11 07:00:00,-1.4,,,,,,,,,,,,0,,,,,,,,data,,,,
07070,2012-12-11 09:00:00,-0.3,,,,,,,,,,,,0,,,,,,,,data,,,,
07070,2012-12-11 10:00:00,0.7,,,,,,,,,,,,0,,,,,,,,data,,,,
07070,2012-12-11 11:00:00,0.6,,,,,,,,,,,,0,,,,,,,,data,,,,
07070,2012-12-11 12:00:00,0.7,,,,,,,,,,,,0,,,,,,,,data,,,,
07070,2012-12-11 13:00:00,0.5,,,,,,,,,,,,0,,,,,,,,data,,,,
07070,2012-12-11 16:00:00,0,,,,,,,,,,,,0,,,,,,,,data,,,,
07070,2012-12-11 18:00:00,-0.5,,,,,,,,,,,,0,,,,,,,,data,,,,
07070,2012-12-11 19:00:00,-1.9,,,,,,,,,,,,0,,,,,,,,data,,,,
07070,2012-12-11 21:00:00,-3.7,,,,,,,,,,,,0,,,,,,,,data,,,,
07070,2012-12-11 22:00:00,-4,,,,,,,,,,,,0,,,,,,,,data,,,,
07070,2012-12-11 23:00:00,-4.6,,,,,,,,,,,,0,,,,,,,,data,,,,
07070,2012-12-12 00:00:00,-5,,,,,,,,,,,,0,,,,,,,,data,,,,
07070,2012-12-12 01:00:00,-5.5,,,,,,,,,,,,0,,,,,,,,data,,,,
07070,2012-12-12 02:00:00,-5.8,,,,,,,,,,,,0,,,,,,,,data,,,,
07070,2012-12-12 03:00:00,-6.7,,,,,,,,,,,,0,,,,,,,,data,,,,
07070,2012-12-12 04:00:00,-6.5,,,,,,,,,,,,0,,,,,,,,data,,,,
07070,2012-12-12 05:00:00,-7.6,,,,,,,,,,,,0,,,,,,,,data,,,,
07070,2012-12-12 06:00:00,-7,,,,,,,,,,,,0,,,,,,,,data,,,,
07070,2012-12-12 07:00:00,-7.6,,,,,,,,,,,,0,,,,,,,,data,,,,
07070,2012-12-12 09:00:00,-4.8,,,,,,,,,,,,0,,,,,,,,data,,,,
07070,2012-12-12 11:00:00,-1.6,,,,,,,,,,,,0.2,,,,,,,,data,,,,
07070,2012-12-12 14:00:00,0.8,,,,,,,,,,,,0,,,,,,,,data,,,,
07070,2012-12-12 15:00:00,-0.2,,,,,,,,,,,,0,,,,,,,,data,,,,
07070,2012-12-12 16:00:00,-1.6,,,,,,,,,,,,0,,,,,,,,data,,,,
07070,2012-12-12 18:00:00,-3.7,,,,,,,,,,,,0,,,,,,,,data,,,,
07070,2012-12-12 19:00:00,-4.7,,,,,,,,,,,,0,,,,,,,,data,,,,
07070,2012-12-12 20:00:00,-4.6,,,,,,,,,,,,0,,,,,,,,data,,,,
07070,2012-12-12 21:00:00,-4.3,,,,,,,,,,,,0,,,,,,,,data,,,,
07070,2012-12-12 22:00:00,-3.9,,,,,,,,,,,,0,,,,,,,,data,,,,
07070,2012-12-12 23:00:00,-4.5,,,,,,,,,,,,0,,,,,,,,data,,,,
07070,2012-12-13 00:00:00,-4.2,,,,,,,,,,,,0,,,,,,,,data,,,,
07070,2012-12-13 01:00:00,-4,,,,,,,,,,,,0,,,,,,,,data,,,,
07070,2012-12-13 02:00:00,-3.8,,,,,,,,,,,,0,,,,,,,,data,,,,
07070,2012-12-13 03:00:00,-3.9,,,,,,,,,,,,0,,,,,,,,data,,,,
07070,2012-12-13 04:00:00,-3.8,,,,,,,,,,,,0,,,,,,,,data,,,,
07070,2012-12-13 05:00:00,-3.7,,,,,,,,,,,,0,,,,,,,,data,,,,
07070,2012-12-13 06:00:00,-4.1,,,,,,,,,,,,0,,,,,,,,data,,,,
07070,2012-12-13 07:00:00,-4.8,,,,,,,,,,,,0,,,,,,,,data,,,,
07070,2012-12-13 09:00:00,-2.3,,,,,,,,,,,,0,,,,,,,,data,,,,
07070,2012-12-13 11:00:00,0.3,,,,,,,,,,,,0,,,,,,,,data,,,,
07070,2012-12-13 13:00:00,1.1,,,,,,,,,,,,0,,,,,,,,data,,,,
07070,2012-12-13 14:00:00,1.1,,,,,,,,,,,,0,,,,,,,,data,,,,
07070,2012-12-13 15:00:00,1.4,,,,,,,,,,,,0,,,,,,,,data,,,,
07070,2012-12-13 16:00:00,1.9,,,,,,,,,,,,0,,,,,,,,data,,,,
07070,2012-12-13 19:00:00,2.7,,,,,,,,,,,,0,,,,,,,,data,,,,
07070,2012-12-13 21:00:00,3,,,,,,,,,,,,0,,,,,,,,data,,,,
07070,2012-12-13 22:00:00,2.9,,,,,,,,,,,,0,,,,,,,,data,,,,
07070,2012-12-13 23:00:00,3.3,,,,,,,,,,,,0,,,,,,,,data,,,,
07070,2012-12-14 00:00:00,3.4,,,,,,,,,,,,0,,,,,,,,data,,,,
07070,2012-12-14 01:00:00,3.4,,,,,,,,,,,,0.2,,,,,,,,data,,,,
07070,2012-12-14 02:00:00,3.6,,,,,,,,,,,,0,,,,,,,,data,,,,
07070,2012-12-14 03:00:00,3.7,,,,,,,,,,,,0,,,,,,,,data,,,,
07070,2012-12-14 04:00:00,3.3,,,,,,,,,,,,0,,,,,,,,data,,,,
07070,2012-12-14 05:00:00,3.7,,,,,,,,,,,,0,,,,,,,,data,,,,
07070,2012-12-14 06:00:00,3.7,,,,,,,,,,,,0,,,,,,,,data,,,,
07070,2012-12-14 07:00:00,4,,,,,,,,,,,,0,,,,,,,,data,,,,
07070,2012-12-14 09:00:00,4.7,,,,,,,,,,,,0,,,,,,,,data,,,,
07070,2012-12-14 11:00:00,5.7,,,,,,,,,,,,0,,,,,,,,data,,,,
07070,2012-12-14 13:00:00,7.6,,,,,,,,,,,,0.8,,,,,,,,data,,,,
07070,2012-12-14 14:00:00,8.3,,,,,,,,,,,,0.4,,,,,,,,data,,,,
07070,2012-12-14 16:00:00,9.3,,,,,,,,,,,,0.2,,,,,,,,data,,,,
07070,2012-12-14 18:00:00,10.2,,,,,,,,,,,,0.2,,,,,,,,data,,,,
07070,2012-12-14 19:00:00,10.6,,,,,,,,,,,,0.6,,,,,,,,data,,,,
07070,2012-12-14 21:00:00,10.6,,,,,,,,,,,,0.2,,,,,,,,data,,,,
07070,2012-12-14 22:00:00,10.4,,,,,,,,,,,,0.6,,,,,,,,data,,,,
07070,2012-12-14 23:00:00,10.4,,,,,,,,,,,,0,,,,,,,,data,,,,
07070,2012-12-15 00:00:00,10.1,,,,,,,,,,,,0,,,,,,,,data,,,,
07070,2012-12-15 01:00:00,9.7,,,,,,,,,,,,0.2,,,,,,,,data,,,,
07070,2012-12-15 02:00:00,7.9,,,,,,,,,,,,0.8,,,,,,,,data,,,,
07070,2012-12-15 03:00:00,8.1,,,,,,,,,,,,1.6,,,,,,,,data,,,,
07070,2012-12-15 04:00:00,7.6,,,,,,,,,,,,1.6,,,,,,,,data,,,,
07070,2012-12-15 05:00:00,7.3,,,,,,,,,,,,0,,,,,,,,data,,,,
07070,2012-12-15 06:00:00,8.4,,,,,,,,,,,,0,,,,,,,,data,,,,
07070,2012-12-15 07:00:00,8.5,,,,,,,,,,,,0,,,,,,,,data,,,,
07070,2012-12-15 09:00:00,8.9,,,,,,,,,,,,0,,,,,,,,data,,,,
07070,2012-12-15 10:00:00,9.2,,,,,,,,,,,,0,,,,,,,,data,,,,
07070,2012-12-15 11:00:00,10,,,,,,,,,,,,0,,,,,,,,data,,,,
07070,2012-12-15 13:00:00,10.2,,,,,,,,,,,,0.2,,,,,,,,data,,,,
07070,2012-12-15 14:00:00,10.3,,,,,,,,,,,,0,,,,,,,,data,,,,
07070,2012-12-15 15:00:00,9.4,,,,,,,,,,,,0,,,,,,,,data,,,,
07070,2012-12-15 16:00:00,9.6,,,,,,,,,,,,0,,,,,,,,data,,,,
07070,2012-12-15 17:00:00,9.9,,,,,,,,,,,,0,,,,,,,,data,,,,
07070,2012-12-15 18:00:00,9.7,,,,,,,,,,,,0,,,,,,,,data,,,,
07070,2012-12-15 19:00:00,9.2,,,,,,,,,,,,0.4,,,,,,,,data,,,,
07070,2012-12-15 21:00:00,9.3,,,,,,,,,,,,0.4,,,,,,,,data,,,,
07070,2012-12-15 22:00:00,6.4,,,,,,,,,,,,2.2,,,,,,,,data,,,,
07070,2012-12-15 23:00:00,8.5,,,,,,,,,,,,0,,,,,,,,data,,,,
07070,2012-12-16 00:00:00,8.5,,,,,,,,,,,,0,,,,,,,,data,,,,
07070,2012-12-16 01:00:00,8.2,,,,,,,,,,,,0,,,,,,,,data,,,,
07070,2012-12-16 02:00:00,8.2,,,,,,,,,,,,0,,,,,,,,data,,,,
07070,2012-12-16 03:00:00,8.2,,,,,,,,,,,,0,,,,,,,,data,,,,
07070,2012-12-16 04:00:00,7.7,,,,,,,,,,,,0,,,,,,,,data,,,,
07070,2012-12-16 05:00:00,7.6,,,,,,,,,,,,0,,,,,,,,data,,,,
07070,2012-12-16 06:00:00,8,,,,,,,,,,,,0,,,,,,,,data,,,,
07070,2012-12-16 07:00:00,8.2,,,,,,,,,,,,0,,,,,,,,data,,,,
07070,2012-12-16 09:00:00,8.9,,,,,,,,,,,,0,,,,,,,,data,,,,
07070,2012-12-16 10:00:00,9.5,,,,,,,,,,,,0,,,,,,,,data,,,,
07070,2012-12-16 11:00:00,9.2,,,,,,,,,,,,0,,,,,,,,data,,,,
07070,2012-12-16 13:00:00,10.4,,,,,,,,,,,,0,,,,,,,,data,,,,
07070,2012-12-16 14:00:00,10.5,,,,,,,,,,,,0,,,,,,,,data,,,,
07070,2012-12-16 15:00:00,9.4,,,,,,,,,,,,0,,,,,,,,data,,,,
07070,2012-12-16 16:00:00,8.4,,,,,,,,,,,,0,,,,,,,,data,,,,
07070,2012-12-16 18:00:00,8.3,,,,,,,,,,,,0,,,,,,,,data,,,,
07070,2012-12-16 19:00:00,8.9,,,,,,,,,,,,0,,,,,,,,data,,,,
07070,2012-12-16 21:00:00,8.3,,,,,,,,,,,,0.2,,,,,,,,data,,,,
07070,2012-12-16 22:00:00,7.3,,,,,,,,,,,,0,,,,,,,,data,,,,
07070,2012-12-16 23:00:00,6.8,,,,,,,,,,,,0,,,,,,,,data,,,,
07070,2012-12-17 00:00:00,6.8,,,,,,,,,,,,0,,,,,,,,data,,,,
07070,2012-12-17 01:00:00,7.7,,,,,,,,,,,,0,,,,,,,,data,,,,
07070,2012-12-17 02:00:00,7.8,,,,,,,,,,,,0,,,,,,,,data,,,,
07070,2012-12-17 03:00:00,7.8,,,,,,,,,,,,0,,,,,,,,data,,,,
07070,2012-12-17 04:00:00,7.6,,,,,,,,,,,,0.2,,,,,,,,data,,,,
07070,2012-12-17 05:00:00,7.9,,,,,,,,,,,,0,,,,,,,,data,,,,
07070,2012-12-17 06:00:00,7.2,,,,,,,,,,,,0,,,,,,,,data,,,,
07070,2012-12-17 07:00:00,7.5,,,,,,,,,,,,0,,,,,,,,data,,,,
07070,2012-12-17 09:00:00,7.8,,,,,,,,,,,,0,,,,,,,,data,,,,
07070,2012-12-17 11:00:00,9.1,,,,,,,,,,,,0,,,,,,,,data,,,,
07070,2012-12-17 19:00:00,6.4,,,,,,,,,,,,0,,,,,,,,data,,,,
07070,2012-12-17 21:00:00,6.4,,,,,,,,,,,,0,,,,,,,,data,,,,
07070,2012-12-17 22:00:00,6.3,,,,,,,,,,,,0,,,,,,,,data,,,,
07070,2012-12-17 23:00:00,5.2,,,,,,,,,,,,0,,,,,,,,data,,,,
07070,2012-12-18 00:00:00,5.1,,,,,,,,,,,,0,,,,,,,,data,,,,
07070,2012-12-18 01:00:00,4.8,,,,,,,,,,,,0,,,,,,,,data,,,,
07070,2012-12-18 02:00:00,4.9,,,,,,,,,,,,0,,,,,,,,data,,,,
07070,2012-12-18 03:00:00,4.5,,,,,,,,,,,,0,,,,,,,,data,,,,
07070,2012-12-18 04:00:00,4.1,,,,,,,,,,,,0,,,,,,,,data,,,,
07070,2012-12-18 05:00:00,3.1,,,,,,,,,,,,0,,,,,,,,data,,,,
07070,2012-12-18 06:00:00,4.8,,,,,,,,,,,,0,,,,,,,,data,,,,
07070,2012-12-18 07:00:00,5.3,,,,,,,,,,,,0,,,,,,,,data,,,,
07070,2012-12-18 09:00:00,5.7,,,,,,,,,,,,0,,,,,,,,data,,,,
07070,2012-12-18 11:00:00,5.7,,,,,,,,,,,,0.4,,,,,,,,data,,,,
07070,2012-12-18 13:00:00,7.3,,,,,,,,,,,,0,,,,,,,,data,,,,
07070,2012-12-18 14:00:00,7,,,,,,,,,,,,0,,,,,,,,data,,,,
07070,2012-12-18 15:00:00,6.7,,,,,,,,,,,,0,,,,,,,,data,,,,
07070,2012-12-18 16:00:00,6.2,,,,,,,,,,,,0.2,,,,,,,,data,,,,
07070,2012-12-18 18:00:00,5.7,,,,,,,,,,,,0,,,,,,,,data,,,,
07070,2012-12-18 19:00:00,5.8,,,,,,,,,,,,0,,,,,,,,data,,,,
07070,2012-12-18 21:00:00,5.4,,,,,,,,,,,,0,,,,,,,,data,,,,
07070,2012-12-18 22:00:00,5.7,,,,,,,,,,,,0,,,,,,,,data,,,,
07070,2012-12-18 23:00:00,5.5,,,,,,,,,,,,0,,,,,,,,data,,,,
07070,2012-12-19 00:00:00,5.3,,,,,,,,,,,,0,,,,,,,,data,,,,
07070,2012-12-19 01:00:00,4.3,,,,,,,,,,,,0,,,,,,,,data,,,,
07070,2012-12-19 02:00:00,4.8,,,,,,,,,,,,0,,,,,,,,data,,,,
07070,2012-12-19 03:00:00,4.5,,,,,,,,,,,,0,,,,,,,,data,,,,
07070,2012-12-19 04:00:00,4.9,,,,,,,,,,,,0,,,,,,,,data,,,,
07070,2012-12-19 05:00:00,4.9,,,,,,,,,,,,0,,,,,,,,data,,,,
07070,2012-12-19 06:00:00,4.6,,,,,,,,,,,,0,,,,,,,,data,,,,
07070,2012-12-19 07:00:00,4,,,,,,,,,,,,0,,,,,,,,data,,,,
07070,2012-12-19 09:00:00,5.1,,,,,,,,,,,,0,,,,,,,,data,,,,
07070,2012-12-19 10:00:00,6.3,,,,,,,,,,,,0,,,,,,,,data,,,,
07070,2012-12-19 11:00:00,6.8,,,,,,,,,,,,0,,,,,,,,data,,,,
07070,2012-12-19 13:00:00,7,,,,,,,,,,,,0,,,,,,,,data,,,,
07070,2012-12-19 14:00:00,7,,,,,,,,,,,,0,,,,,,,,data,,,,
07070,2012-12-19 15:00:00,5.9,,,,,,,,,,,,0,,,,,,,,data,,,,
07070,2012-12-19 16:00:00,5.2,,,,,,,,,,,,0,,,,,,,,data,,,,
07070,2012-12-19 18:00:00,5.1,,,,,,,,,,,,0,,,,,,,,data,,,,
07070,2012-12-19 19:00:00,5.3,,,,,,,,,,,,0,,,,,,,,data,,,,
07070,2012-12-19 21:00:00,4.4,,,,,,,,,,,,0,,,,,,,,data,,,,
07070,2012-12-19 22:00:00,4.3,,,,,,,,,,,,0,,,,,,,,data,,,,
07070,2012-12-19 23:00:00,4.6,,,,,,,,,,,,0.2,,,,,,,,data,,,,
07070,2012-12-20 00:00:00,4.7,,,,,,,,,,,,0,,,,,,,,data,,,,
07070,2012-12-20 01:00:00,4.7,,,,,,,,,,,,0.2,,,,,,,,data,,,,
07070,2012-12-20 02:00:00,4.6,,,,,,,,,,,,0,,,,,,,,data,,,,
07070,2012-12-20 03:00:00,4.3,,,,,,,,,,,,0,,,,,,,,data,,,,
07070,2012-12-20 04:00:00,3.8,,,,,,,,,,,,0.4,,,,,,,,data,,,,
07070,2012-12-20 05:00:00,3.8,,,,,,,,,,,,0.4,,,,,,,,data,,,,
07070,2012-12-20 06:00:00,3.8,,,,,,,,,,,,0.6,,,,,,,,data,,,,
07070,2012-12-20 07:00:00,3.9,,,,,,,,,,,,0.6,,,,,,,,data,,,,
07070,2012-12-20 09:00:00,3.9,,,,,,,,,,,,1.6,,,,,,,,data,,,,
07070,2012-12-20 21:00:00,7.8,,,,,,,,,,,,0,,,,,,,,data,,,,
07070,2012-12-20 23:00:00,8.7,,,,,,,,,,,,0.2,,,,,,,,data,,,,
07070,2012-12-21 02:00:00,8.3,,,,,,,,,,,,0.4,,,,,,,,data,,,,
07070,2012-12-21 03:00:00,8,,,,,,,,,,,,0.2,,,,,,,,data,,,,
07070,2012-12-21 04:00:00,7.8,,,,,,,,,,,,0.4,,,,,,,,data,,,,
07070,2012-12-21 05:00:00,7.8,,,,,,,,,,,,0.4,,,,,,,,data,,,,
07070,2012-12-21 06:00:00,7.8,,,,,,,,,,,,0,,,,,,,,data,,,,
07070,2012-12-21 09:00:00,7.7,,,,,,,,,,,,0,,,,,,,,data,,,,
07070,2012-12-21 10:00:00,7.6,,,,,,,,,,,,0,,,,,,,,data,,,,
07070,2012-12-21 11:00:00,8.3,,,,,,,,,,,,0,,,,,,,,data,,,,
07070,2012-12-21 13:00:00,9.3,,,,,,,,,,,,0,,,,,,,,data,,,,
07070,2012-12-21 14:00:00,8.6,,,,,,,,,,,,0,,,,,,,,data,,,,
07070,2012-12-21 16:00:00,8.1,,,,,,,,,,,,0,,,,,,,,data,,,,
07070,2012-12-21 18:00:00,7.8,,,,,,,,,,,,0,,,,,,,,data,,,,
07070,2012-12-21 19:00:00,7.6,,,,,,,,,,,,0,,,,,,,,data,,,,
07070,2012-12-21 21:00:00,6.9,,,,,,,,,,,,0,,,,,,,,data,,,,
07070,2012-12-21 22:00:00,6.7,,,,,,,,,,,,0,,,,,,,,data,,,,
07070,2012-12-21 23:00:00,6.5,,,,,,,,,,,,0,,,,,,,,data,,,,
07070,2012-12-22 00:00:00,6.1,,,,,,,,,,,,0,,,,,,,,data,,,,
07070,2012-12-22 01:00:00,4.5,,,,,,,,,,,,0,,,,,,,,data,,,,
07070,2012-12-22 02:00:00,5.2,,,,,,,,,,,,0,,,,,,,,data,,,,
07070,2012-12-22 03:00:00,3.2,,,,,,,,,,,,0,,,,,,,,data,,,,
07070,2012-12-22 04:00:00,3.5,,,,,,,,,,,,0,,,,,,,,data,,,,
07070,2012-12-22 05:00:00,5,,,,,,,,,,,,0,,,,,,,,data,,,,
07070,2012-12-22 09:00:00,6.3,,,,,,,,,,,,0.4,,,,,,,,data,,,,
07070,2012-12-22 10:00:00,6.6,,,,,,,,,,,,1.6,,,,,,,,data,,,,
07070,2012-12-22 11:00:00,6.7,,,,,,,,,,,,2.2,,,,,,,,data,,,,
07070,2012-12-22 13:00:00,6.9,,,,,,,,,,,,2,,,,,,,,data,,,,
07070,2012-12-22 14:00:00,7,,,,,,,,,,,,1.4,,,,,,,,data,,,,
07070,2012-12-22 15:00:00,7.5,,,,,,,,,,,,2.4,,,,,,,,data,,,,
07070,2012-12-22 16:00:00,8.2,,,,,,,,,,,,2.2,,,,,,,,data,,,,
07070,2012-12-22 18:00:00,10.6,,,,,,,,,,,,1,,,,,,,,data,,,,
07070,2012-12-22 19:00:00,11.7,,,,,,,,,,,,0.9,,,,,,,,data,,,,
07070,2012-12-22 21:00:00,13.8,,,,,,,,,,,,0,,,,,,,,data,,,,
07070,2012-12-22 22:00:00,13.4,,,,,,,,,,,,0.2,,,,,,,,data,,,,
07070,2012-12-22 23:00:00,13.3,,,,,,,,,,,,0,,,,,,,,data,,,,
07070,2012-12-23 00:00:00,13.3,,,,,,,,,,,,0,,,,,,,,data,,,,
07070,2012-12-23 01:00:00,13,,,,,,,,,,,,0,,,,,,,,data,,,,
07070,2012-12-23 02:00:00,13,,,,,,,,,,,,0,,,,,,,,data,,,,
07070,2012-12-23 03:00:00,13,,,,,,,,,,,,0,,,,,,,,data,,,,
07070,2012-12-23 04:00:00,13.1,,,,,,,,,,,,0,,,,,,,,data,,,,
07070,2012-12-23 05:00:00,13,,,,,,,,,,,,0,,,,,,,,data,,,,
07070,2012-12-23 06:00:00,13.3,,,,,,,,,,,,0,,,,,,,,data,,,,
07070,2012-12-23 07:00:00,13.5,,,,,,,,,,,,0,,,,,,,,data,,,,
07070,2012-12-23 09:00:00,13.7,,,,,,,,,,,,0,,,,,,,,data,,,,
07070,2012-12-23 10:00:00,13.5,,,,,,,,,,,,0,,,,,,,,data,,,,
07070,2012-12-23 11:00:00,13.6,,,,,,,,,,,,0,,,,,,,,data,,,,
07070,2012-12-23 13:00:00,13.6,,,,,,,,,,,,0,,,,,,,,data,,,,
07070,2012-12-23 14:00:00,13.8,,,,,,,,,,,,0,,,,,,,,data,,,,
07070,2012-12-23 15:00:00,13.7,,,,,,,,,,,,0,,,,,,,,data,,,,
07070,2012-12-23 16:00:00,13.8,,,,,,,,,,,,0,,,,,,,,data,,,,
07070,2012-12-24 02:00:00,11.1,,,,,,,,,,,,0,,,,,,,,data,,,,
07070,2012-12-24 03:00:00,11.2,,,,,,,,,,,,0,,,,,,,,data,,,,
07070,2012-12-24 04:00:00,10.9,,,,,,,,,,,,0,,,,,,,,data,,,,
07070,2012-12-24 05:00:00,11.2,,,,,,,,,,,,0,,,,,,,,data,,,,
07070,2012-12-24 06:00:00,10.2,,,,,,,,,,,,0,,,,,,,,data,,,,
07070,2012-12-24 07:00:00,8.5,,,,,,,,,,,,0,,,,,,,,data,,,,
07070,2012-12-24 09:00:00,9.5,,,,,,,,,,,,0,,,,,,,,data,,,,
07070,2012-12-24 14:00:00,12.7,,,,,,,,,,,,0,,,,,,,,data,,,,
07070,2012-12-24 15:00:00,13.4,,,,,,,,,,,,0,,,,,,,,data,,,,
07070,2012-12-24 16:00:00,12,,,,,,,,,,,,0,,,,,,,,data,,,,
07070,2012-12-24 18:00:00,11.1,,,,,,,,,,,,0,,,,,,,,data,,,,
07070,2012-12-24 19:00:00,12,,,,,,,,,,,,0,,,,,,,,data,,,,
07070,2012-12-24 21:00:00,11.2,,,,,,,,,,,,0,,,,,,,,data,,,,
07070,2012-12-24 22:00:00,10.5,,,,,,,,,,,,0,,,,,,,,data,,,,
07070,2012-12-24 23:00:00,11.6,,,,,,,,,,,,0,,,,,,,,data,,,,
07070,2012-12-25 00:00:00,10.9,,,,,,,,,,,,0,,,,,,,,data,,,,
07070,2012-12-25 01:00:00,9.9,,,,,,,,,,,,0,,,,,,,,data,,,,
07070,2012-12-25 02:00:00,9.7,,,,,,,,,,,,0,,,,,,,,data,,,,
07070,2012-12-25 03:00:00,12.4,,,,,,,,,,,,0,,,,,,,,data,,,,
07070,2012-12-25 04:00:00,12.2,,,,,,,,,,,,0,,,,,,,,data,,,,
07070,2012-12-25 05:00:00,12.2,,,,,,,,,,,,0,,,,,,,,data,,,,
07070,2012-12-25 06:00:00,10.3,,,,,,,,,,,,2,,,,,,,,data,,,,
07070,2012-12-25 07:00:00,8.8,,,,,,,,,,,,1.2,,,,,,,,data,,,,
07070,2012-12-25 09:00:00,8.9,,,,,,,,,,,,0.4,,,,,,,,data,,,,
07070,2012-12-25 10:00:00,9.3,,,,,,,,,,,,0,,,,,,,,data,,,,
07070,2012-12-25 11:00:00,10.3,,,,,,,,,,,,0,,,,,,,,data,,,,
07070,2012-12-25 13:00:00,10.9,,,,,,,,,,,,0,,,,,,,,data,,,,
07070,2012-12-25 14:00:00,11.3,,,,,,,,,,,,0,,,,,,,,data,,,,
07070,2012-12-25 15:00:00,11.1,,,,,,,,,,,,0,,,,,,,,data,,,,
07070,2012-12-25 16:00:00,11.1,,,,,,,,,,,,0,,,,,,,,data,,,,
07070,2012-12-25 18:00:00,8.4,,,,,,,,,,,,0.4,,,,,,,,data,,,,
07070,2012-12-25 19:00:00,10.1,,,,,,,,,,,,0,,,,,,,,data,,,,
07070,2012-12-25 21:00:00,9.3,,,,,,,,,,,,0,,,,,,,,data,,,,
07070,2012-12-25 22:00:00,8.9,,,,,,,,,,,,0,,,,,,,,data,,,,
07070,2012-12-26 00:00:00,8.6,,,,,,,,,,,,0,,,,,,,,data,,,,
07070,2012-12-26 02:00:00,8.7,,,,,,,,,,,,0,,,,,,,,data,,,,
07070,2012-12-26 03:00:00,8.4,,,,,,,,,,,,0,,,,,,,,data,,,,
07070,2012-12-26 04:00:00,8.4,,,,,,,,,,,,0,,,,,,,,data,,,,
07070,2012-12-26 05:00:00,8.1,,,,,,,,,,,,0,,,,,,,,data,,,,
07070,2012-12-26 06:00:00,8,,,,,,,,,,,,0.2,,,,,,,,data,,,,
07070,2012-12-26 07:00:00,7.5,,,,,,,,,,,,0.4,,,,,,,,data,,,,
07070,2012-12-26 09:00:00,8.1,,,,,,,,,,,,0,,,,,,,,data,,,,
07070,2012-12-26 13:00:00,8.9,,,,,,,,,,,,0.2,,,,,,,,data,,,,
07070,2012-12-26 14:00:00,9.6,,,,,,,,,,,,0,,,,,,,,data,,,,
07070,2012-12-26 18:00:00,9.8,,,,,,,,,,,,0,,,,,,,,data,,,,
07070,2012-12-26 19:00:00,10,,,,,,,,,,,,0,,,,,,,,data,,,,
07070,2012-12-26 21:00:00,9.1,,,,,,,,,,,,0.4,,,,,,,,data,,,,
07070,2012-12-27 09:00:00,10.1,,,,,,,,,,,,0,,,,,,,,data,,,,
07070,2012-12-27 10:00:00,10.2,,,,,,,,,,,,0,,,,,,,,data,,,,
07070,2012-12-27 14:00:00,9.3,,,,,,,,,,,,0,,,,,,,,data,,,,
07070,2012-12-27 15:00:00,9,,,,,,,,,,,,0.2,,,,,,,,data,,,,
07070,2012-12-27 19:00:00,7.6,,,,,,,,,,,,0.4,,,,,,,,data,,,,
07070,2012-12-27 21:00:00,7.6,,,,,,,,,,,,0,,,,,,,,data,,,,
07070,2012-12-27 22:00:00,6.7,,,,,,,,,,,,0,,,,,,,,data,,,,
07070,2012-12-27 23:00:00,6.4,,,,,,,,,,,,0,,,,,,,,data,,,,
07070,2012-12-28 00:00:00,7.2,,,,,,,,,,,,0,,,,,,,,data,,,,
07070,2012-12-28 01:00:00,7.3,,,,,,,,,,,,0,,,,,,,,data,,,,
07070,2012-12-28 02:00:00,7.4,,,,,,,,,,,,0,,,,,,,,data,,,,
07070,2012-12-28 03:00:00,7.3,,,,,,,,,,,,0,,,,,,,,data,,,,
07070,2012-12-28 04:00:00,7,,,,,,,,,,,,0,,,,,,,,data,,,,
07070,2012-12-28 05:00:00,6.2,,,,,,,,,,,,0,,,,,,,,data,,,,
07070,2012-12-28 06:00:00,5.7,,,,,,,,,,,,0,,,,,,,,data,,,,
07070,2012-12-28 07:00:00,6.1,,,,,,,,,,,,0,,,,,,,,data,,,,
07070,2012-12-28 09:00:00,7.1,,,,,,,,,,,,0,,,,,,,,data,,,,
07070,2012-12-28 11:00:00,7.5,,,,,,,,,,,,0.4,,,,,,,,data,,,,
07070,2012-12-28 13:00:00,7.8,,,,,,,,,,,,0.4,,,,,,,,data,,,,
07070,2012-12-28 14:00:00,8.3,,,,,,,,,,,,0,,,,,,,,data,,,,
07070,2012-12-28 15:00:00,8.6,,,,,,,,,,,,0,,,,,,,,data,,,,
07070,2012-12-28 16:00:00,8.9,,,,,,,,,,,,0,,,,,,,,data,,,,
07070,2012-12-28 18:00:00,9,,,,,,,,,,,,0,,,,,,,,data,,,,
07070,2012-12-28 19:00:00,8.9,,,,,,,,,,,,0,,,,,,,,data,,,,
07070,2012-12-28 21:00:00,9.7,,,,,,,,,,,,0,,,,,,,,data,,,,
07070,2012-12-28 22:00:00,10.2,,,,,,,,,,,,0,,,,,,,,data,,,,
07070,2012-12-28 23:00:00,10.3,,,,,,,,,,,,0,,,,,,,,data,,,,
07070,2012-12-29 00:00:00,10.9,,,,,,,,,,,,0,,,,,,,,data,,,,
07070,2012-12-29 01:00:00,10.6,,,,,,,,,,,,0,,,,,,,,data,,,,
07070,2012-12-29 02:00:00,10.7,,,,,,,,,,,,0,,,,,,,,data,,,,
07070,2012-12-29 03:00:00,10.5,,,,,,,,,,,,0,,,,,,,,data,,,,
07070,2012-12-29 04:00:00,10.3,,,,,,,,,,,,0,,,,,,,,data,,,,
07070,2012-12-29 05:00:00,8.5,,,,,,,,,,,,0,,,,,,,,data,,,,
07070,2012-12-29 06:00:00,9.1,,,,,,,,,,,,0,,,,,,,,data,,,,
07070,2012-12-29 07:00:00,7.7,,,,,,,,,,,,0,,,,,,,,data,,,,
07070,2012-12-29 09:00:00,8,,,,,,,,,,,,0,,,,,,,,data,,,,
07070,2012-12-29 10:00:00,9.4,,,,,,,,,,,,0,,,,,,,,data,,,,
07070,2012-12-29 11:00:00,10.8,,,,,,,,,,,,0,,,,,,,,data,,,,
07070,2012-12-29 13:00:00,11.8,,,,,,,,,,,,0,,,,,,,,data,,,,
07070,2012-12-29 14:00:00,12.9,,,,,,,,,,,,0,,,,,,,,data,,,,
07070,2012-12-29 15:00:00,12.3,,,,,,,,,,,,0,,,,,,,,data,,,,
07070,2012-12-29 16:00:00,11.6,,,,,,,,,,,,0,,,,,,,,data,,,,
07070,2012-12-29 18:00:00,11.5,,,,,,,,,,,,0,,,,,,,,data,,,,
07070,2012-12-29 19:00:00,11.8,,,,,,,,,,,,0,,,,,,,,data,,,,
07070,2012-12-29 21:00:00,10.8,,,,,,,,,,,,0,,,,,,,,data,,,,
07070,2012-12-29 22:00:00,10.2,,,,,,,,,,,,0,,,,,,,,data,,,,
07070,2012-12-29 23:00:00,9.4,,,,,,,,,,,,0,,,,,,,,data,,,,
07070,2012-12-30 01:00:00,8.7,,,,,,,,,,,,0,,,,,,,,data,,,,
07070,2012-12-30 02:00:00,8.7,,,,,,,,,,,,0,,,,,,,,data,,,,
07070,2012-12-30 03:00:00,8.6,,,,,,,,,,,,0,,,,,,,,data,,,,
07070,2012-12-30 04:00:00,8.4,,,,,,,,,,,,0,,,,,,,,data,,,,
07070,2012-12-30 05:00:00,7.4,,,,,,,,,,,,0,,,,,,,,data,,,,
07070,2012-12-30 06:00:00,7.1,,,,,,,,,,,,0,,,,,,,,data,,,,
07070,2012-12-30 07:00:00,7,,,,,,,,,,,,0,,,,,,,,data,,,,
07070,2012-12-30 09:00:00,7.1,,,,,,,,,,,,0,,,,,,,,data,,,,
07070,2012-12-30 10:00:00,8.4,,,,,,,,,,,,0,,,,,,,,data,,,,
07070,2012-12-30 11:00:00,8.8,,,,,,,,,,,,0,,,,,,,,data,,,,
07070,2012-12-30 13:00:00,9.7,,,,,,,,,,,,0,,,,,,,,data,,,,
07070,2012-12-30 14:00:00,9.6,,,,,,,,,,,,0,,,,,,,,data,,,,
07070,2012-12-30 15:00:00,9.5,,,,,,,,,,,,0,,,,,,,,data,,,,
07070,2012-12-30 16:00:00,8.9,,,,,,,,,,,,0,,,,,,,,data,,,,
07070,2012-12-30 18:00:00,8.9,,,,,,,,,,,,0,,,,,,,,data,,,,
07070,2012-12-30 19:00:00,8.8,,,,,,,,,,,,0,,,,,,,,data,,,,
07070,2012-12-30 21:00:00,7.8,,,,,,,,,,,,0,,,,,,,,data,,,,
07070,2012-12-30 22:00:00,8.3,,,,,,,,,,,,0,,,,,,,,data,,,,
07070,2012-12-30 23:00:00,7.8,,,,,,,,,,,,0,,,,,,,,data,,,,
07070,2012-12-31 00:00:00,7.7,,,,,,,,,,,,0,,,,,,,,data,,,,
07070,2012-12-31 01:00:00,7.5,,,,,,,,,,,,0,,,,,,,,data,,,,
07070,2012-12-31 02:00:00,7.4,,,,,,,,,,,,0,,,,,,,,data,,,,
07070,2012-12-31 03:00:00,7,,,,,,,,,,,,0,,,,,,,,data,,,,
07070,2012-12-31 04:00:00,7.6,,,,,,,,,,,,0,,,,,,,,data,,,,
07070,2012-12-31 05:00:00,7.6,,,,,,,,,,,,0,,,,,,,,data,,,,
07070,2012-12-31 06:00:00,7.8,,,,,,,,,,,,0,,,,,,,,data,,,,
07070,2012-12-31 07:00:00,7.8,,,,,,,,,,,,0,,,,,,,,data,,,,
07070,2012-12-31 09:00:00,8.7,,,,,,,,,,,,0,,,,,,,,data,,,,
07070,2012-12-31 10:00:00,8.9,,,,,,,,,,,,0,,,,,,,,data,,,,
07070,2012-12-31 11:00:00,9.4,,,,,,,,,,,,0,,,,,,,,data,,,,
07070,2012-12-31 13:00:00,9.7,,,,,,,,,,,,0,,,,,,,,data,,,,
07070,2012-12-31 15:00:00,10,,,,,,,,,,,,0,,,,,,,,data,,,,
07070,2012-12-31 16:00:00,9.5,,,,,,,,,,,,0,,,,,,,,data,,,,
07070,2012-12-31 18:00:00,8.7,,,,,,,,,,,,0,,,,,,,,data,,,,
07070,2012-12-31 19:00:00,8.8,,,,,,,,,,,,0,,,,,,,,data,,,,
07070,2012-12-31 21:00:00,8.9,,,,,,,,,,,,0,,,,,,,,data,,,,
07070,2012-12-31 22:00:00,9.2,,,,,,,,,,,,0,,,,,,,,data,,,,
